{"version": 0.6, "generator": "Overpass API 0.7.62.8 e802775f", "osm3s": {"timestamp_osm_base": "2025-12-08T21:53:30Z", "copyright": "The data included in this document is from www.openstreetmap.org. The data is made available under ODbL."}, "elements": [{"type": "node", "id": 357963031, "lat": 47.6453726, "lon": -105.070775, "tags": {"amenity": "post_office", "ele": "759", "gnis:feature_id": "1715349", "name": "Richey Post Office"}}, {"type": "node", "id": 357963312, "lat": 47.6430015, "lon": -105.0695873}, {"type": "node", "id": 357963833, "lat": 47.6425682, "lon": -105.0673681, "tags": {"amenity": "school", "ele": "774", "gnis:feature_id": "1715593", "name": "Richey Public Schools"}}, {"type": "node", "id": 366093319, "lat": 47.6436258, "lon": -105.0702538, "tags": {"addr:state": "MT", "amenity": "library", "ele": "763", "gnis:feature_id": "1715614", "name": "Richey Public Library", "source": "USGS Geonames"}}, {"type": "node", "id": 366093922, "lat": 47.6447743, "lon": -105.070085}, {"type": "node", "id": 3452754980, "lat": 47.6433642, "lon": -105.0695128}, {"type": "node", "id": 3452757098, "lat": 47.6432763, "lon": -105.0693959}, {"type": "node", "id": 3452757126, "lat": 47.6433173, "lon": -105.0694064}, {"type": "node", "id": 3452757187, "lat": 47.6434684, "lon": -105.0704363}, {"type": "node", "id": 3452757189, "lat": 47.6431063, "lon": -105.0700907}, {"type": "node", "id": 3452757201, "lat": 47.6435076, "lon": -105.0701225}, {"type": "node", "id": 3452757204, "lat": 47.6433867, "lon": -105.0700892}, {"type": "node", "id": 3452757232, "lat": 47.6432222, "lon": -105.070122}, {"type": "node", "id": 3452757233, "lat": 47.6429389, "lon": -105.0693343}, {"type": "node", "id": 3452757260, "lat": 47.6430668, "lon": -105.0704132}, {"type": "node", "id": 3452757288, "lat": 47.6430303, "lon": -105.0693597}, {"type": "node", "id": 3452757395, "lat": 47.6453182, "lon": -105.0709271}, {"type": "node", "id": 3452757397, "lat": 47.6431827, "lon": -105.0704445}, {"type": "node", "id": 3452757410, "lat": 47.6429101, "lon": -105.0695618}, {"type": "node", "id": 3452757439, "lat": 47.6433256, "lon": -105.0693359}, {"type": "node", "id": 3452757444, "lat": 47.6454007, "lon": -105.070947}, {"type": "node", "id": 3452757461, "lat": 47.6447113, "lon": -105.0700705}, {"type": "node", "id": 3452757598, "lat": 47.6453535, "lon": -105.0706044}, {"type": "node", "id": 3452757599, "lat": 47.6434506, "lon": -105.069368}, {"type": "node", "id": 3452757704, "lat": 47.6433476, "lon": -105.0704031}, {"type": "node", "id": 3452757705, "lat": 47.6433454, "lon": -105.0696742}, {"type": "node", "id": 3452757722, "lat": 47.6454361, "lon": -105.0706243}, {"type": "node", "id": 3452757745, "lat": 47.6432468, "lon": -105.0696489}, {"type": "node", "id": 3452757790, "lat": 47.6447568, "lon": -105.0696621}, {"type": "node", "id": 3452757797, "lat": 47.6434317, "lon": -105.0695301}, {"type": "node", "id": 3452757798, "lat": 47.6448198, "lon": -105.0696776}, {"type": "node", "id": 7620793310, "lat": 47.641249, "lon": -105.0689205}, {"type": "node", "id": 7620793311, "lat": 47.6412738, "lon": -105.0689431}, {"type": "node", "id": 7620793312, "lat": 47.6413204, "lon": -105.0688306}, {"type": "node", "id": 7620793313, "lat": 47.6411825, "lon": -105.0687049}, {"type": "node", "id": 7620793314, "lat": 47.6411365, "lon": -105.068816}, {"type": "node", "id": 7620793315, "lat": 47.6411778, "lon": -105.0688537}, {"type": "node", "id": 7620793316, "lat": 47.6411385, "lon": -105.0689485}, {"type": "node", "id": 7620793317, "lat": 47.6412103, "lon": -105.069014}, {"type": "node", "id": 8638540138, "lat": 47.6443289, "lon": -105.0699137}, {"type": "node", "id": 8638540139, "lat": 47.6442485, "lon": -105.0698928}, {"type": "node", "id": 8638540140, "lat": 47.6442739, "lon": -105.0696959}, {"type": "node", "id": 8638540141, "lat": 47.6443522, "lon": -105.0697158}, {"type": "way", "id": 338202882, "nodes": [3452757397, 3452757232, 3452757189, 3452757260, 3452757397], "tags": {"amenity": "place_of_worship", "name": "Christian and Missionary Alliance Church", "religion": "christian"}}, {"type": "way", "id": 338202884, "nodes": [3452757187, 3452757201, 3452757204, 3452757704, 3452757187], "tags": {"amenity": "public_building", "building": "yes", "name": "Senior & Community center"}}, {"type": "way", "id": 338202886, "nodes": [3452757444, 3452757722, 3452757598, 3452757395, 3452757444], "tags": {"amenity": "public_building", "building": "yes"}}, {"type": "way", "id": 338202892, "nodes": [357963312, 3452757288, 3452757233, 3452757410, 357963312], "tags": {"amenity": "place_of_worship", "building": "yes", "denomination": "methodist", "ele": "762", "gnis:feature_id": "1715451", "name": "United Methodist Church", "religion": "christian"}}, {"type": "way", "id": 338202903, "nodes": [366093922, 3452757798, 3452757790, 3452757461, 366093922], "tags": {"addr:state": "MT", "amenity": "public_building", "building": "yes", "ele": "762", "gnis:feature_id": "1715627", "name": "Richey Historical Museum", "source": "USGS Geonames", "tourism": "museum"}}, {"type": "way", "id": 338202908, "nodes": [3452757705, 3452754980, 3452757797, 3452757599, 3452757439, 3452757126, 3452757098, 3452757745, 3452757705], "tags": {"amenity": "place_of_worship", "denomination": "lutheran", "name": "American Lutheran Church of Richey", "religion": "christian"}}, {"type": "way", "id": 815982544, "nodes": [7620793317, 7620793316, 7620793315, 7620793314, 7620793313, 7620793312, 7620793311, 7620793310, 7620793317], "tags": {"addr:city": "Richey", "addr:housenumber": "301", "addr:postcode": "59259", "addr:state": "MT", "addr:street": "Main Street", "amenity": "place_of_worship", "building": "church", "denomination": "roman_catholic", "description": "Administered From: St Francis Xavier Church PO Box 160 Circle, MT 59215", "diocese": "Great Falls-Billings", "ele": "776", "gnis:feature_id": "1715453", "name": "Saint Francis de Sales Catholic Church", "phone": "+1 406-485-3520", "religion": "christian"}}, {"type": "way", "id": 931815987, "nodes": [8638540138, 8638540139, 8638540140, 8638540141, 8638540138], "tags": {"addr:city": "Richey", "addr:postcode": "59259", "addr:state": "MT", "addr:street": "Main Street", "amenity": "cafe", "building": "yes", "cuisine": "american", "internet_access": "no", "name": "Farmers Kitchen", "opening_hours": "Mo-Su 11:00-15:00", "phone": "+1-406-773-5533"}}]}