{"version": 0.6, "generator": "Overpass API 0.7.62.8 e802775f", "osm3s": {"timestamp_osm_base": "2025-12-06T04:27:37Z", "copyright": "The data included in this document is from www.openstreetmap.org. The data is made available under ODbL."}, "elements": [{"type": "node", "id": 1271573299, "lat": 46.8742269, "lon": -113.886573, "tags": {"brand": "Town Pump", "brand:wikidata": "Q7830004", "name": "Town Pump", "shop": "convenience"}}, {"type": "node", "id": 7027859188, "lat": 46.8744101, "lon": -113.8691137, "tags": {"addr:city": "Missoula", "addr:housenumber": "9257", "addr:postcode": "59823", "addr:state": "MT", "addr:street": "Bonner Mill Road", "email": "info@coastercycles.com", "name": "Coaster Cycles", "opening_hours": "Mo-Su 08:00-18:00", "phone": "+1-406-203-4422", "shop": "bicycle", "website": "https://www.coastercycles.com/"}}, {"type": "node", "id": 11030890211, "lat": 46.8797538, "lon": -113.8950824, "tags": {"access": "customers", "barrier": "gate", "locked": "yes", "material": "metal"}}, {"type": "node", "id": 11624860190, "lat": 46.8784342, "lon": -113.8943487}, {"type": "node", "id": 11624860194, "lat": 46.8784285, "lon": -113.8943513}, {"type": "node", "id": 11624860196, "lat": 46.8783734, "lon": -113.8946654}, {"type": "node", "id": 11624860197, "lat": 46.8783319, "lon": -113.8944717}, {"type": "node", "id": 11624860199, "lat": 46.8783495, "lon": -113.8943861}, {"type": "node", "id": 11624860203, "lat": 46.8786579, "lon": -113.8953854}, {"type": "node", "id": 11624860205, "lat": 46.8787183, "lon": -113.8953846}, {"type": "node", "id": 11624860206, "lat": 46.8787224, "lon": -113.8956969}, {"type": "node", "id": 11624860207, "lat": 46.8788509, "lon": -113.8956936}, {"type": "node", "id": 11624860208, "lat": 46.8788479, "lon": -113.8954448}, {"type": "node", "id": 11624860209, "lat": 46.8787194, "lon": -113.8954481}, {"type": "node", "id": 12046868613, "lat": 46.8759579, "lon": -113.862003}, {"type": "node", "id": 12046868614, "lat": 46.8759677, "lon": -113.8620718}, {"type": "node", "id": 12046878482, "lat": 46.8753674, "lon": -113.8615192}, {"type": "node", "id": 12046878542, "lat": 46.8755422, "lon": -113.8618059}, {"type": "node", "id": 12046878543, "lat": 46.8755193, "lon": -113.8616621}, {"type": "node", "id": 12046878544, "lat": 46.8754852, "lon": -113.8616737}, {"type": "node", "id": 12046878545, "lat": 46.8755081, "lon": -113.8618175}, {"type": "node", "id": 12046878570, "lat": 46.8760461, "lon": -113.8620481}, {"type": "node", "id": 12046878572, "lat": 46.8753788, "lon": -113.8615156}, {"type": "node", "id": 12046878573, "lat": 46.8753152, "lon": -113.8615356}, {"type": "node", "id": 12046878574, "lat": 46.87534, "lon": -113.861705}, {"type": "node", "id": 12046878575, "lat": 46.8754036, "lon": -113.8616851}, {"type": "node", "id": 12046878582, "lat": 46.8758082, "lon": -113.8608372}, {"type": "node", "id": 12046878583, "lat": 46.8755158, "lon": -113.8609961}, {"type": "node", "id": 12046878584, "lat": 46.8754884, "lon": -113.8608885}, {"type": "node", "id": 12046878585, "lat": 46.8757809, "lon": -113.8607296}, {"type": "node", "id": 12046908817, "lat": 46.8753932, "lon": -113.8616884}, {"type": "node", "id": 12046922295, "lat": 46.8761007, "lon": -113.8627223}, {"type": "node", "id": 12046922296, "lat": 46.8760683, "lon": -113.8627265}, {"type": "node", "id": 12046922297, "lat": 46.8760804, "lon": -113.8629576}, {"type": "node", "id": 12046922298, "lat": 46.8760064, "lon": -113.8629652}, {"type": "node", "id": 12046922299, "lat": 46.8759233, "lon": -113.8625307}, {"type": "node", "id": 12046922300, "lat": 46.8759298, "lon": -113.8626368}, {"type": "node", "id": 12046922302, "lat": 46.8760871, "lon": -113.8625095}, {"type": "node", "id": 12051904870, "lat": 46.875989, "lon": -113.8626303}, {"type": "node", "id": 12051904871, "lat": 46.8759255, "lon": -113.8625665, "tags": {"access": "yes", "door": "hinged", "entrance": "main", "wheelchair": "yes"}}, {"type": "node", "id": 12051921650, "lat": 46.8761081, "lon": -113.8619576}, {"type": "node", "id": 12051921651, "lat": 46.8761179, "lon": -113.8620264}, {"type": "node", "id": 12051972755, "lat": 46.8761109, "lon": -113.8619772}, {"type": "node", "id": 12058433480, "lat": 46.8758071, "lon": -113.8883212}, {"type": "node", "id": 12058433481, "lat": 46.8758814, "lon": -113.8882545}, {"type": "node", "id": 12058433482, "lat": 46.8758589, "lon": -113.8882008}, {"type": "node", "id": 12058433483, "lat": 46.8758681, "lon": -113.8881925}, {"type": "node", "id": 12058433484, "lat": 46.875809, "lon": -113.8880516}, {"type": "node", "id": 12058433485, "lat": 46.8758384, "lon": -113.8880252}, {"type": "node", "id": 12058433486, "lat": 46.8757967, "lon": -113.8879257}, {"type": "node", "id": 12058433487, "lat": 46.8757675, "lon": -113.8879519}, {"type": "node", "id": 12058433488, "lat": 46.8757618, "lon": -113.8879382}, {"type": "node", "id": 12058433489, "lat": 46.8757524, "lon": -113.8879466}, {"type": "node", "id": 12058433490, "lat": 46.875747, "lon": -113.8879338}, {"type": "node", "id": 12058433491, "lat": 46.8756724, "lon": -113.8880008}, {"type": "node", "id": 12058433492, "lat": 46.8756769, "lon": -113.8880116}, {"type": "node", "id": 12058433493, "lat": 46.875668, "lon": -113.8880196}, {"type": "node", "id": 12058433494, "lat": 46.8757754, "lon": -113.8882758}, {"type": "node", "id": 12058433495, "lat": 46.8757846, "lon": -113.8882676}, {"type": "node", "id": 12058433496, "lat": 46.8755781, "lon": -113.8872566}, {"type": "node", "id": 12058433497, "lat": 46.8755462, "lon": -113.8872073}, {"type": "node", "id": 12058433498, "lat": 46.8755148, "lon": -113.8872507}, {"type": "node", "id": 12058433499, "lat": 46.8755467, "lon": -113.8873}, {"type": "node", "id": 12143437499, "lat": 46.8783642, "lon": -113.8946622}, {"type": "node", "id": 12143437500, "lat": 46.8783532, "lon": -113.8946659}, {"type": "node", "id": 12143437701, "lat": 46.8783482, "lon": -113.8946709}, {"type": "node", "id": 12143437702, "lat": 46.8783473, "lon": -113.894691}, {"type": "node", "id": 12143437703, "lat": 46.87835, "lon": -113.8947279}, {"type": "node", "id": 12143437704, "lat": 46.8783592, "lon": -113.8947762}, {"type": "node", "id": 12143437705, "lat": 46.8783706, "lon": -113.8948188}, {"type": "node", "id": 12143437706, "lat": 46.8783839, "lon": -113.8948499}, {"type": "node", "id": 12143437707, "lat": 46.8784014, "lon": -113.8948587}, {"type": "node", "id": 12143437708, "lat": 46.878413, "lon": -113.8948559}, {"type": "node", "id": 12143437720, "lat": 46.8784065, "lon": -113.8942224}, {"type": "node", "id": 12143437721, "lat": 46.8783175, "lon": -113.8942642}, {"type": "node", "id": 12143437722, "lat": 46.8783447, "lon": -113.8943883}, {"type": "node", "id": 12143437725, "lat": 46.8782841, "lon": -113.8942597}, {"type": "node", "id": 12143437726, "lat": 46.8782748, "lon": -113.8942649}, {"type": "node", "id": 12143437727, "lat": 46.8782689, "lon": -113.8942733}, {"type": "node", "id": 12143437728, "lat": 46.8782618, "lon": -113.8942981}, {"type": "node", "id": 12143437729, "lat": 46.8782648, "lon": -113.8943309}, {"type": "node", "id": 12143437730, "lat": 46.8782758, "lon": -113.8943822}, {"type": "node", "id": 12143437731, "lat": 46.8782913, "lon": -113.8944298}, {"type": "node", "id": 12143437732, "lat": 46.8783053, "lon": -113.8944644}, {"type": "node", "id": 12143437733, "lat": 46.8783152, "lon": -113.8944721}, {"type": "node", "id": 12143437735, "lat": 46.878198, "lon": -113.8938676}, {"type": "node", "id": 12143437736, "lat": 46.8782015, "lon": -113.8934354}, {"type": "node", "id": 12143437737, "lat": 46.879082, "lon": -113.893417}, {"type": "node", "id": 12143437738, "lat": 46.8795669, "lon": -113.8940188}, {"type": "node", "id": 12143437739, "lat": 46.8794835, "lon": -113.8933935}, {"type": "node", "id": 12143437740, "lat": 46.8796634, "lon": -113.8946397}, {"type": "node", "id": 12143437741, "lat": 46.8798181, "lon": -113.89537}, {"type": "node", "id": 12143437747, "lat": 46.8785306, "lon": -113.8953871}, {"type": "node", "id": 12143505117, "lat": 46.8796234, "lon": -113.9002562, "tags": {"access": "customers", "barrier": "gate", "locked": "yes", "material": "metal"}}, {"type": "node", "id": 12143505137, "lat": 46.8805588, "lon": -113.9014802}, {"type": "node", "id": 12143505138, "lat": 46.8806559, "lon": -113.9014737}, {"type": "node", "id": 12143505178, "lat": 46.881107, "lon": -113.9014435}, {"type": "node", "id": 12143505179, "lat": 46.8808056, "lon": -113.9001094}, {"type": "node", "id": 12143505180, "lat": 46.8796025, "lon": -113.9001517}, {"type": "node", "id": 12143505181, "lat": 46.8796641, "lon": -113.9004598}, {"type": "node", "id": 12143505182, "lat": 46.879635, "lon": -113.9005201}, {"type": "node", "id": 12143505183, "lat": 46.8798529, "lon": -113.9014985}, {"type": "node", "id": 12143505210, "lat": 46.8799506, "lon": -113.9014985}, {"type": "node", "id": 12143505211, "lat": 46.8804456, "lon": -113.9014877}, {"type": "node", "id": 12143833801, "lat": 46.8787738, "lon": -113.8897468}, {"type": "node", "id": 12143833802, "lat": 46.8790159, "lon": -113.8897419}, {"type": "node", "id": 12143833803, "lat": 46.879027, "lon": -113.8909087}, {"type": "node", "id": 12143833804, "lat": 46.8787848, "lon": -113.8909136}, {"type": "node", "id": 12681530822, "lat": 46.8791801, "lon": -113.8953785}, {"type": "node", "id": 12681530827, "lat": 46.8791059, "lon": -113.8953795}, {"type": "node", "id": 12681530837, "lat": 46.879615, "lon": -113.9002144}, {"type": "way", "id": 1250587475, "nodes": [12143437721, 12143437720, 11624860190, 11624860194]}, {"type": "way", "id": 1250587476, "nodes": [11624860199, 11624860194]}, {"type": "way", "id": 1250587478, "nodes": [11624860206, 11624860207, 11624860208, 11624860209, 11624860206], "tags": {"addr:city": "Missoula", "addr:housenumber": "7450", "addr:postcode": "59802", "addr:state": "MT", "addr:street": "Old Montana 200", "building": "yes", "name": "Day's Auto Detailing", "phone": "+14065464232", "shop": "car_detail"}}, {"type": "way", "id": 1300627267, "nodes": [12046878544, 12046878545, 12046878542, 12046878543, 12046878544], "tags": {"building": "yes", "name": "Merch", "shop": "clothes"}}, {"type": "way", "id": 1300631226, "nodes": [12046878584, 12046878583, 12046878582, 12046878585, 12046878584], "tags": {"amenity": "restaurant", "building": "yes", "delivery": "no", "internet_access": "no", "name": "Concessions", "operator": "KettleHouse Brewing Company", "reservation": "no", "takeaway": "yes", "wheelchair": "yes"}}, {"type": "way", "id": 1300634933, "nodes": [12046922295, 12046922302, 12046922299, 12051904871, 12046922300, 12051904870, 12046922298, 12046922297, 12046922296, 12046922295], "tags": {"addr:city": "Bonner-West Riverside", "addr:country": "US", "addr:housenumber": "605", "addr:postcode": "59823", "addr:state": "MT", "addr:street": "Cold Smoke Avenue", "amenity": "restaurant", "building": "yes", "delivery": "no", "internet_access": "yes", "microbrewery": "yes", "name": "KettleHouse Bonner Taproom", "opening_hours": "Mo-Su 12:00-20:00", "operator": "KettleHouse Brewing Company", "outdoor_seating": "yes", "reservation": "no", "smoking": "outside", "takeaway": "yes", "wheelchair": "yes"}}, {"type": "way", "id": 1301182834, "nodes": [12046868614, 12046878570, 12051921651, 12051972755, 12051921650, 12046868613, 12046868614], "tags": {"amenity": "restaurant", "building": "yes", "delivery": "no", "internet_access": "no", "name": "Concessions", "operator": "KettleHouse Brewing Company", "reservation": "no", "takeaway": "yes", "wheelchair": "yes"}}, {"type": "way", "id": 1301887953, "nodes": [12058433495, 12058433494, 12058433493, 12058433492, 12058433491, 12058433490, 12058433489, 12058433488, 12058433487, 12058433486, 12058433485, 12058433484, 12058433483, 12058433482, 12058433481, 12058433480, 12058433495], "tags": {"addr:city": "Bonner-West Riverside", "addr:country": "US", "addr:housenumber": "7931", "addr:postcode": "59823", "addr:state": "MT", "addr:street": "MT 200", "amenity": "restaurant", "building": "yes", "name": "River City Grill", "outdoor_seating": "yes", "smoking": "outside", "takeaway": "yes", "wheelchair": "yes"}}, {"type": "way", "id": 1301887954, "nodes": [12058433499, 12058433496, 12058433497, 12058433498, 12058433499], "tags": {"addr:city": "Bonner-West Riverside", "addr:country": "US", "addr:housenumber": "7985", "addr:postcode": "59823", "addr:state": "MT", "addr:street": "MT 200", "amenity": "cafe", "building": "kiosk", "contact:facebook": "https://www.facebook.com/p/Blackfoot-River-Coffee-Company-100063578981842/", "cuisine": "ice_cream", "drive_through": "yes", "internet_access": "no", "name": "Blackfoot River Coffee Company", "operator": "Blackfoot River Coffee Company", "phone": "+14065528016", "takeaway": "only"}}, {"type": "way", "id": 1311921166, "nodes": [11624860196, 11624860197]}, {"type": "way", "id": 1311921167, "nodes": [12143437708, 12143437707, 12143437706, 12143437705, 12143437704, 12143437703, 12143437702, 12143437701, 12143437500, 12143437499, 11624860196]}, {"type": "way", "id": 1311921168, "nodes": [12143437725, 12143437735], "tags": {"barrier": "fence", "fence_type": "barbed_wire"}}, {"type": "way", "id": 1311921169, "nodes": [11624860199, 12143437722, 12143437721]}, {"type": "way", "id": 1311921174, "nodes": [11624860197, 12143437733, 12143437732, 12143437731, 12143437730, 12143437729, 12143437728, 12143437727, 12143437726, 12143437725]}, {"type": "way", "id": 1311921177, "nodes": [12143437735, 12143437736, 12143437737, 12143437739, 12143437738, 12143437740, 11030890211, 12143437741, 12681530822, 12681530827, 11624860205, 11624860203, 12143437747, 12143437708], "tags": {"barrier": "fence", "fence_type": "barbed_wire"}}, {"type": "way", "id": 1311965833, "nodes": [12143833804, 12143833803, 12143833802, 12143833801, 12143833804], "tags": {"addr:city": "Missoula", "addr:country": "US", "addr:housenumber": "7780", "addr:postcode": "59802", "addr:state": "MT", "addr:street": "West Riverside Drive", "landuse": "commercial", "name": "Rainbow Mini Storage", "opening_hours": "Mo-Su 07:00-22:00", "shop": "storage_rental", "wheelchair": "yes"}}, {"type": "way", "id": 1317773029, "nodes": [12046908817, 12046878575, 12046878572, 12046878482, 12046878573, 12046878574, 12046908817], "tags": {"building": "yes", "name": "Box Office", "shop": "ticket", "wheelchair": "yes"}}, {"type": "way", "id": 1341333816, "nodes": [12143505178, 12143505179, 12143505180, 12681530837, 12143505117, 12143505181, 12143505182, 12143505183, 12143505210, 12143505211, 12143505137, 12143505138, 12143505178], "tags": {"addr:city": "Missoula", "addr:housenumber": "7102", "addr:postcode": "59802", "addr:state": "MT", "addr:street": "Old Montana 200", "landuse": "commercial", "name": "Titan Self Storage", "phone": "+14062151459", "shop": "storage_rental", "website": "https://www.titanstorageinc.com/pages/rent"}}, {"type": "relation", "id": 17985128, "members": [{"type": "way", "ref": 1311921177, "role": "outer"}, {"type": "way", "ref": 1311921167, "role": "outer"}, {"type": "way", "ref": 1311921166, "role": "outer"}, {"type": "way", "ref": 1311921174, "role": "outer"}, {"type": "way", "ref": 1311921168, "role": "outer"}], "tags": {"addr:city": "Missoula", "addr:country": "US", "addr:housenumber": "7480", "addr:postcode": "59802", "addr:state": "MT", "addr:street": "MT 200", "landuse": "commercial", "name": "University Storage", "opening_hours": "Mo-Su 05:00-22:00", "shop": "storage_rental", "type": "multipolygon", "wheelchair": "yes"}}, {"type": "relation", "id": 17985132, "members": [{"type": "way", "ref": 1250587476, "role": "outer"}, {"type": "way", "ref": 1311921169, "role": "outer"}, {"type": "way", "ref": 1250587475, "role": "outer"}], "tags": {"building": "yes", "name": "University Storage Office", "office": "company", "opening_hours": "Mo-Su 05:00-22:00", "type": "multipolygon", "wheelchair": "yes"}}]}