{"version": 0.6, "generator": "Overpass API 0.7.62.8 e802775f", "osm3s": {"timestamp_osm_base": "2025-12-06T05:12:49Z", "copyright": "The data included in this document is from www.openstreetmap.org. The data is made available under ODbL."}, "elements": [{"type": "node", "id": 364003468, "lat": 43.4777688, "lon": -111.9840677}, {"type": "node", "id": 364003469, "lat": 43.4780094, "lon": -111.9829967}, {"type": "node", "id": 364003470, "lat": 43.4773074, "lon": -111.9827957}, {"type": "node", "id": 364003471, "lat": 43.4772803, "lon": -111.9829447}, {"type": "node", "id": 364003472, "lat": 43.4771788, "lon": -111.9829087}, {"type": "node", "id": 364003473, "lat": 43.4769534, "lon": -111.9831947}, {"type": "node", "id": 364003474, "lat": 43.4770605, "lon": -111.9833557}, {"type": "node", "id": 364003475, "lat": 43.4769542, "lon": -111.9839487}, {"type": "node", "id": 364003476, "lat": 43.4776776, "lon": -111.9841947}, {"type": "node", "id": 364003477, "lat": 43.4777042, "lon": -111.9840457}, {"type": "node", "id": 471748277, "lat": 43.481727, "lon": -111.9835158}, {"type": "node", "id": 471748278, "lat": 43.4815667, "lon": -111.9835187}, {"type": "node", "id": 471748279, "lat": 43.4815684, "lon": -111.9836942}, {"type": "node", "id": 471748280, "lat": 43.4817287, "lon": -111.9836912}, {"type": "node", "id": 471748741, "lat": 43.4806922, "lon": -111.982721}, {"type": "node", "id": 471748742, "lat": 43.4806972, "lon": -111.9820133}, {"type": "node", "id": 471748743, "lat": 43.4799854, "lon": -111.982013}, {"type": "node", "id": 471748744, "lat": 43.4799846, "lon": -111.9827175}, {"type": "node", "id": 2514663776, "lat": 43.4804844, "lon": -111.9819862}, {"type": "node", "id": 2514663778, "lat": 43.4804857, "lon": -111.9820141}, {"type": "node", "id": 2514663780, "lat": 43.4804306, "lon": -111.9819856}, {"type": "node", "id": 2514663782, "lat": 43.480431, "lon": -111.9819259}, {"type": "node", "id": 2514663784, "lat": 43.4802796, "lon": -111.9819263}, {"type": "node", "id": 2514663786, "lat": 43.4802807, "lon": -111.9820128}, {"type": "node", "id": 2514663788, "lat": 43.4806336, "lon": -111.9827922}, {"type": "node", "id": 2514663789, "lat": 43.4806341, "lon": -111.9827208}, {"type": "node", "id": 2514663791, "lat": 43.4801704, "lon": -111.9827856}, {"type": "node", "id": 2514663793, "lat": 43.4801709, "lon": -111.9827202}, {"type": "node", "id": 2514663795, "lat": 43.480699, "lon": -111.9822506}, {"type": "node", "id": 2514663806, "lat": 43.4799863, "lon": -111.9826999}, {"type": "node", "id": 2514663808, "lat": 43.4799884, "lon": -111.9822176}, {"type": "node", "id": 2514663817, "lat": 43.4795953, "lon": -111.9821921}, {"type": "node", "id": 2514663824, "lat": 43.4795897, "lon": -111.9827178}, {"type": "node", "id": 2514663833, "lat": 43.4795928, "lon": -111.9821129}, {"type": "node", "id": 2514663835, "lat": 43.4795287, "lon": -111.9821094}, {"type": "node", "id": 2514663837, "lat": 43.4795281, "lon": -111.9822028}, {"type": "node", "id": 2514663839, "lat": 43.4791275, "lon": -111.9822095}, {"type": "node", "id": 2514663841, "lat": 43.479123, "lon": -111.9827149}, {"type": "node", "id": 2514663842, "lat": 43.4791282, "lon": -111.9823366}, {"type": "node", "id": 2514663849, "lat": 43.4779505, "lon": -111.9833527}, {"type": "node", "id": 2514663851, "lat": 43.4779214, "lon": -111.9833437}, {"type": "node", "id": 2514663853, "lat": 43.4778802, "lon": -111.9835757}, {"type": "node", "id": 2514663855, "lat": 43.4778581, "lon": -111.9835687}, {"type": "node", "id": 2514663858, "lat": 43.4778285, "lon": -111.9829321}, {"type": "node", "id": 8417388821, "lat": 43.4779659, "lon": -111.9829784}, {"type": "node", "id": 8417388824, "lat": 43.477817, "lon": -111.982982}, {"type": "node", "id": 8723604729, "lat": 43.4813671, "lon": -111.982609, "tags": {"brand": "Men's Wearhouse", "brand:wikidata": "Q57405513", "clothes": "suits", "name": "Men's Wearhouse", "shop": "clothes"}}, {"type": "node", "id": 8723604742, "lat": 43.4811812, "lon": -111.982607, "tags": {"alt_name": "Sally Beauty Supply", "brand": "Sally Beauty", "brand:wikidata": "Q7405065", "name": "Sally Beauty", "shop": "hairdresser_supply"}}, {"type": "node", "id": 8723604744, "lat": 43.4808123, "lon": -111.982503, "tags": {"addr:city": "Ammon", "addr:housenumber": "1851", "addr:postcode": "83406", "addr:state": "ID", "addr:street": "South 25th East", "brand": "Big 5 Sporting Goods", "brand:wikidata": "Q4904902", "name": "Big 5 Sporting Goods", "shop": "sports"}}, {"type": "node", "id": 8723604745, "lat": 43.479874, "lon": -111.982483, "tags": {"brand": "Boot Barn", "brand:wikidata": "Q109825187", "clothes": "western", "name": "Boot Barn", "shop": "clothes"}}, {"type": "node", "id": 8723604746, "lat": 43.4796896, "lon": -111.9824762, "tags": {"addr:city": "Ammon", "addr:housenumber": "1967", "addr:postcode": "83406", "addr:state": "ID", "addr:street": "South 25th East", "alt_name": "Ulta Skin Bar", "beauty": "skin_care", "brand": "Ulta Beauty", "brand:wikidata": "Q7880076", "name": "Ulta Beauty", "opening_hours": "Mo-We 10:00-20:00; Th-Sa 10:00-21:00; Su 11:00-18:00", "payment:american_express": "yes", "payment:cash": "yes", "payment:contactless": "yes", "payment:debit_cards": "yes", "payment:discover_card": "yes", "payment:mastercard": "yes", "payment:visa": "yes", "phone": "+1 208-227-0303", "ref": "1123", "shop": "beauty", "website": "https://www.ulta.com/stores/ammon-id-1123"}}, {"type": "node", "id": 8723604747, "lat": 43.4787943, "lon": -111.9825256, "tags": {"brand": "Famous Footwear", "brand:wikidata": "Q5433457", "name": "Famous Footwear", "shop": "shoes"}}, {"type": "node", "id": 8723604748, "lat": 43.4793722, "lon": -111.9840775, "tags": {"brand": "Sleep Number", "brand:wikidata": "Q7447640", "name": "Sleep Number", "shop": "bed"}}, {"type": "node", "id": 8723604750, "lat": 43.4789999, "lon": -111.9840775, "tags": {"amenity": "restaurant", "name": "Rumbi Island Grill"}}, {"type": "node", "id": 8852984778, "lat": 43.4754098, "lon": -111.984015}, {"type": "node", "id": 8852984779, "lat": 43.4753644, "lon": -111.9840147}, {"type": "node", "id": 8852984780, "lat": 43.4753645, "lon": -111.9839844}, {"type": "node", "id": 8852984781, "lat": 43.4752974, "lon": -111.9839841}, {"type": "node", "id": 8852984782, "lat": 43.4752979, "lon": -111.9838172}, {"type": "node", "id": 8852984783, "lat": 43.4753248, "lon": -111.9838173}, {"type": "node", "id": 8852984784, "lat": 43.475325, "lon": -111.9837341}, {"type": "node", "id": 8852984785, "lat": 43.4754685, "lon": -111.9837349}, {"type": "node", "id": 8852984786, "lat": 43.4754682, "lon": -111.9838218}, {"type": "node", "id": 8852984787, "lat": 43.4754953, "lon": -111.983822}, {"type": "node", "id": 8852984788, "lat": 43.4754949, "lon": -111.9839762}, {"type": "node", "id": 8852984789, "lat": 43.4754099, "lon": -111.9839758}, {"type": "node", "id": 8852994788, "lat": 43.4753962, "lon": -111.9828164, "tags": {"name": "Merlin's TV", "shop": "electronics"}}, {"type": "node", "id": 8852994789, "lat": 43.4752398, "lon": -111.982823, "tags": {"name": "Pro Fit Mattress", "shop": "bed"}}, {"type": "node", "id": 8852994998, "lat": 43.474709, "lon": -111.9838404, "tags": {"amenity": "restaurant", "brand": "Texas Roadhouse", "brand:wikidata": "Q7707945", "cuisine": "steak_house", "name": "Texas Roadhouse"}}, {"type": "node", "id": 8852994999, "lat": 43.4746914, "lon": -111.9832957, "tags": {"amenity": "restaurant", "brand": "Cafe Rio", "brand:wikidata": "Q5017108", "cuisine": "mexican", "name": "Cafe Rio"}}, {"type": "node", "id": 8852995001, "lat": 43.4746925, "lon": -111.9830833, "tags": {"name": "The Cocoa Bean", "shop": "bakery"}}, {"type": "node", "id": 8853052454, "lat": 43.4743137, "lon": -111.9824721, "tags": {"amenity": "restaurant", "cuisine": "japanese", "name": "Fuji Sushi & Hibachi"}}, {"type": "node", "id": 8853052455, "lat": 43.4740461, "lon": -111.9824751, "tags": {"amenity": "restaurant", "cuisine": "mexican", "name": "Cafe Sabor"}}, {"type": "node", "id": 8853052456, "lat": 43.473849, "lon": -111.982466, "tags": {"amenity": "restaurant", "cuisine": "chinese", "name": "Great Hunan"}}, {"type": "node", "id": 8853052457, "lat": 43.4735525, "lon": -111.9838091, "tags": {"addr:city": "Ammon", "addr:housenumber": "2665", "addr:postcode": "83406", "addr:state": "ID", "addr:street": "South 25th East", "branch": "Idaho Falls", "brand": "Mattress Firm", "brand:wikidata": "Q6791878", "contact:sms": "+1 208-741-6230", "delivery": "yes", "name": "Mattress Firm", "phone": "+1 208-542-6502", "ref": "17692", "shop": "bed", "website": "https://www.mattressfirm.com/en-us/stores/id/ammon/089001/"}}, {"type": "node", "id": 8853073466, "lat": 43.4721924, "lon": -111.9838485, "tags": {"amenity": "restaurant", "brand": "Johnny Carino's", "brand:wikidata": "Q5039637", "cuisine": "italian", "name": "Johnny Carino's"}}, {"type": "node", "id": 8853073472, "lat": 43.472219, "lon": -111.9826455, "tags": {"name": "Alpine Jewelers", "shop": "jewelry"}}, {"type": "node", "id": 8853141277, "lat": 43.4722127, "lon": -111.9764539, "tags": {"name": "Idaho East Region Seminaries and Institutes of Religion", "office": "religion"}}, {"type": "node", "id": 8853141278, "lat": 43.4721499, "lon": -111.9769862, "tags": {"name": "S & S pastry Shop", "shop": "pastry"}}, {"type": "node", "id": 8853236665, "lat": 43.4713437, "lon": -111.983874, "tags": {"amenity": "bar", "name": "The Firehouse Grill"}}, {"type": "node", "id": 8853236711, "lat": 43.47142, "lon": -111.9823438, "tags": {"brand": "Sportsman's Warehouse", "brand:wikidata": "Q7579979", "name": "Sportsman's Warehouse", "shop": "outdoor"}}, {"type": "node", "id": 8853236712, "lat": 43.4710133, "lon": -111.9823559, "tags": {"brand": "TJ Maxx", "brand:wikidata": "Q10860683", "name": "TJ Maxx", "shop": "department_store"}}, {"type": "node", "id": 8853236713, "lat": 43.4706684, "lon": -111.9823582, "tags": {"brand": "Bed Bath & Beyond", "brand:wikidata": "Q813782", "name": "Bed Bath & Beyond", "shop": "houseware"}}, {"type": "node", "id": 8853236716, "lat": 43.4699554, "lon": -111.9824589, "tags": {"brand": "Shoe Carnival", "brand:wikidata": "Q7500007", "name": "Shoe Carnival", "shop": "shoes", "website": "https://stores.shoecarnival.com/id/ammon/shoe-store-ammon-id-364.html"}}, {"type": "node", "id": 8853236717, "lat": 43.4698867, "lon": -111.9818775, "tags": {"brand": "Massage Envy", "brand:wikidata": "Q22922899", "name": "Massage Envy", "shop": "massage"}}, {"type": "node", "id": 8853303659, "lat": 43.468402, "lon": -111.981987}, {"type": "node", "id": 8853303660, "lat": 43.468912, "lon": -111.98199}, {"type": "node", "id": 8853303661, "lat": 43.46891, "lon": -111.982411}, {"type": "node", "id": 8853303662, "lat": 43.46892, "lon": -111.982411}, {"type": "node", "id": 8853303663, "lat": 43.468918, "lon": -111.983142}, {"type": "node", "id": 8853303664, "lat": 43.468237, "lon": -111.983138}, {"type": "node", "id": 8853303665, "lat": 43.468239, "lon": -111.982364}, {"type": "node", "id": 8853303666, "lat": 43.468401, "lon": -111.982365}, {"type": "node", "id": 8853305830, "lat": 43.4688474, "lon": -111.9836824, "tags": {"brand": "Jiffy Lube", "brand:wikidata": "Q6192247", "name": "Jiffy Lube", "shop": "car_repair"}}, {"type": "node", "id": 8853305910, "lat": 43.4692945, "lon": -111.9799515, "tags": {"name": "Modern Home", "shop": "furniture"}}, {"type": "node", "id": 8853305956, "lat": 43.4681503, "lon": -111.9802013, "tags": {"addr:city": "Ammon", "addr:housenumber": "2703", "addr:postcode": "83406", "addr:state": "ID", "addr:street": "East Sunnyside Road", "amenity": "cafe", "brand": "Dutch Bros. Coffee", "brand:wikidata": "Q5317253", "cuisine": "coffee_shop", "name": "Dutch Bros. Coffee", "opening_hours": "05:00-23:00", "ref": "DB365", "takeaway": "only", "website": "https://locations.dutchbros.com/dutch-bros-coffee-bf7fb4e44e79"}}, {"type": "node", "id": 8853305957, "lat": 43.4691087, "lon": -111.9799557, "tags": {"name": "Sleep Shop", "shop": "bed"}}, {"type": "node", "id": 8853901516, "lat": 43.4673457, "lon": -111.9822932, "tags": {"addr:city": "Ammon", "addr:housenumber": "2598", "addr:postcode": "83406", "addr:state": "ID", "addr:street": "East Sunnyside Road", "amenity": "cafe", "branch": "25th and East Sunnyside", "brand": "Starbucks", "brand:wikidata": "Q37158", "cuisine": "coffee_shop", "name": "Starbucks", "official_name": "Starbucks Coffee", "phone": "+1 208-516-6499", "ref": "1028915", "takeaway": "yes", "website": "https://www.starbucks.com/store-locator/store/1028915/25th-and-e-sunnyside-2598-e-sunnyside-road-ammon-id-834061209-us"}}, {"type": "node", "id": 8853901572, "lat": 43.4673723, "lon": -111.9809479, "tags": {"amenity": "restaurant", "brand": "Blaze Pizza", "brand:wikidata": "Q23016666", "cuisine": "pizza", "name": "Blaze Pizza"}}, {"type": "node", "id": 8853901631, "lat": 43.4662995, "lon": -111.980301, "tags": {"name": "LunchboxWax Idaho Falls", "shop": "beauty"}}, {"type": "node", "id": 8853901632, "lat": 43.4663028, "lon": -111.9804803, "tags": {"beauty": "nails", "name": "7 Nail Spa", "shop": "beauty"}}, {"type": "node", "id": 8853901633, "lat": 43.466307, "lon": -111.9806633, "tags": {"addr:housenumber": "2668", "addr:postcode": "83406", "addr:street": "East Sunnyside Road", "amenity": "restaurant", "cuisine": "mexican", "name": "Yessi Puerto Vallarta", "opening_hours": "Mo-Th 11:00-20:00; Fr 11:00-21:00; Sa 11:00-23:00", "phone": "+1 208-494-9995", "website": "https://yessipuertovallartaid.com/"}}, {"type": "node", "id": 8853901634, "lat": 43.4663081, "lon": -111.9810926, "tags": {"brand": "Crumbl Cookies", "brand:wikidata": "Q106924414", "name": "Crumbl Cookies", "shop": "pastry", "short_name": "Crumbl"}}, {"type": "node", "id": 8853901635, "lat": 43.4663029, "lon": -111.9808648, "tags": {"brand": "Great Clips", "brand:wikidata": "Q5598967", "name": "Great Clips", "shop": "hairdresser"}}, {"type": "node", "id": 8853901703, "lat": 43.4657023, "lon": -111.9836119, "tags": {"name": "Kneaders Bakery and Cafe", "shop": "bakery"}}, {"type": "node", "id": 8858929094, "lat": 43.4824805, "lon": -111.9837535, "tags": {"brand": "Discount Tire", "brand:wikidata": "Q5281735", "name": "Discount Tire", "shop": "tyres"}}, {"type": "node", "id": 8858929191, "lat": 43.4827519, "lon": -111.9820854, "tags": {"name": "Grand Teton Storage", "shop": "storage_rental"}}, {"type": "node", "id": 8858929228, "lat": 43.4860509, "lon": -111.9814751}, {"type": "node", "id": 8858929229, "lat": 43.4858401, "lon": -111.9814758}, {"type": "node", "id": 8858929230, "lat": 43.485839, "lon": -111.9809287}, {"type": "node", "id": 8858929231, "lat": 43.486049, "lon": -111.980928}, {"type": "node", "id": 8858929232, "lat": 43.4860483, "lon": -111.9805709}, {"type": "node", "id": 8858929233, "lat": 43.4858283, "lon": -111.9805717}, {"type": "node", "id": 8858929234, "lat": 43.485828, "lon": -111.9803776}, {"type": "node", "id": 8858929235, "lat": 43.4860448, "lon": -111.9803769}, {"type": "node", "id": 8858929236, "lat": 43.4860447, "lon": -111.980323}, {"type": "node", "id": 8858929237, "lat": 43.4861354, "lon": -111.9803227}, {"type": "node", "id": 8858929238, "lat": 43.4861348, "lon": -111.9799997}, {"type": "node", "id": 8858929239, "lat": 43.4874123, "lon": -111.9799952}, {"type": "node", "id": 8858929240, "lat": 43.4874118, "lon": -111.9797638}, {"type": "node", "id": 8858929241, "lat": 43.4875137, "lon": -111.9797635}, {"type": "node", "id": 8858929242, "lat": 43.4875166, "lon": -111.9812449}, {"type": "node", "id": 8858929243, "lat": 43.4873319, "lon": -111.9812456}, {"type": "node", "id": 8858929244, "lat": 43.4873323, "lon": -111.9814345}, {"type": "node", "id": 8858929245, "lat": 43.4872955, "lon": -111.9814347}, {"type": "node", "id": 8858929246, "lat": 43.4872956, "lon": -111.9814781}, {"type": "node", "id": 8858929247, "lat": 43.4870892, "lon": -111.981479}, {"type": "node", "id": 8858929248, "lat": 43.4870891, "lon": -111.981433}, {"type": "node", "id": 8858929249, "lat": 43.4865441, "lon": -111.9814352}, {"type": "node", "id": 8858929250, "lat": 43.4865442, "lon": -111.9814796}, {"type": "node", "id": 8858929251, "lat": 43.4863871, "lon": -111.9814802}, {"type": "node", "id": 8858929252, "lat": 43.486387, "lon": -111.9814436}, {"type": "node", "id": 8858929253, "lat": 43.4863651, "lon": -111.9814436}, {"type": "node", "id": 8858929254, "lat": 43.4863647, "lon": -111.9812539}, {"type": "node", "id": 8858929255, "lat": 43.4860504, "lon": -111.981255}, {"type": "node", "id": 8859145095, "lat": 43.4887037, "lon": -111.9807943}, {"type": "node", "id": 8859145096, "lat": 43.4879023, "lon": -111.9808009}, {"type": "node", "id": 8859145097, "lat": 43.4878979, "lon": -111.9797905}, {"type": "node", "id": 8859145098, "lat": 43.4880332, "lon": -111.9797893}, {"type": "node", "id": 8859145099, "lat": 43.4880338, "lon": -111.9799225}, {"type": "node", "id": 8859145100, "lat": 43.4886999, "lon": -111.9799171}, {"type": "node", "id": 8859145109, "lat": 43.4886563, "lon": -111.9790173}, {"type": "node", "id": 8859145110, "lat": 43.4882796, "lon": -111.9790188}, {"type": "node", "id": 8859145111, "lat": 43.4882793, "lon": -111.9788593}, {"type": "node", "id": 8859145112, "lat": 43.4883113, "lon": -111.9788592}, {"type": "node", "id": 8859145113, "lat": 43.488311, "lon": -111.9787165}, {"type": "node", "id": 8859145114, "lat": 43.4886229, "lon": -111.9787151}, {"type": "node", "id": 8859145115, "lat": 43.4886229, "lon": -111.9786929}, {"type": "node", "id": 8859145116, "lat": 43.4886556, "lon": -111.9786928}, {"type": "node", "id": 8859160099, "lat": 43.4884151, "lon": -111.9836005, "tags": {"amenity": "restaurant", "name": "Chuck-A-Rama Buffet"}}, {"type": "node", "id": 8859160100, "lat": 43.48832, "lon": -111.980369, "tags": {"name": "C-A-L Ranch Stores", "shop": "agrarian"}}, {"type": "node", "id": 8859160101, "lat": 43.4884692, "lon": -111.978868, "tags": {"name": "CAL Ranch Corporate HQ", "office": "yes"}}, {"type": "node", "id": 8859160114, "lat": 43.4891123, "lon": -111.9835995, "tags": {"name": "Insure It All", "office": "insurance"}}, {"type": "node", "id": 8859160115, "lat": 43.488987, "lon": -111.9826784, "tags": {"name": "Idaho Vape", "shop": "e-cigarette"}}, {"type": "node", "id": 8859160116, "lat": 43.4889873, "lon": -111.9825727, "tags": {"amenity": "restaurant", "cuisine": "mexican", "name": "Agave Grille"}}, {"type": "node", "id": 8859160117, "lat": 43.4889879, "lon": -111.9824796, "tags": {"beauty": "nails", "name": "Classy Nails & Spa", "shop": "beauty"}}, {"type": "node", "id": 8859160118, "lat": 43.4889891, "lon": -111.9824064, "tags": {"brand": "Sprint", "brand:wikidata": "Q301965", "name": "Sprint", "shop": "mobile_phone"}}, {"type": "node", "id": 8859160119, "lat": 43.4889904, "lon": -111.982315, "tags": {"name": "Hobby Town USA", "shop": "hobby"}}, {"type": "node", "id": 8859160120, "lat": 43.4889898, "lon": -111.9822012, "tags": {"amenity": "restaurant", "name": "The Grille"}}, {"type": "node", "id": 8859160123, "lat": 43.4889948, "lon": -111.9812737, "tags": {"name": "Laundry Lounge", "self_service": "yes", "shop": "laundry"}}, {"type": "node", "id": 8859160257, "lat": 43.4825784, "lon": -111.980387, "tags": {"name": "Bread and Butter Bakery", "shop": "bakery"}}, {"type": "node", "id": 8859160258, "lat": 43.4824154, "lon": -111.9803635, "tags": {"government": "prosecutor", "name": "Tolson & Wayment", "office": "government"}}, {"type": "node", "id": 8859160580, "lat": 43.4842682, "lon": -111.9781216, "tags": {"name": "Idaho Falls Best Body Waxing and Hair", "shop": "beauty"}}, {"type": "node", "id": 8878915570, "lat": 43.481683, "lon": -111.9740281, "tags": {"brand": "State Farm", "brand:wikidata": "Q2007336", "name": "State Farm", "office": "insurance"}}, {"type": "node", "id": 8878915571, "lat": 43.4816468, "lon": -111.9734444, "tags": {"name": "Walker Insurance Agency", "office": "insurance"}}, {"type": "node", "id": 8878915572, "lat": 43.481639, "lon": -111.9729285, "tags": {"name": "Pawn 1", "shop": "pawnbroker"}}, {"type": "node", "id": 8878915608, "lat": 43.4813542, "lon": -111.9720998, "tags": {"amenity": "restaurant", "cuisine": "pizza", "name": "Pizza Pie Cafe"}}, {"type": "node", "id": 8878915609, "lat": 43.4813569, "lon": -111.9717812, "tags": {"name": "The Vapor Door", "shop": "e-cigarette"}}, {"type": "node", "id": 8878915611, "lat": 43.4813515, "lon": -111.9708902, "tags": {"name": "Geraldine's Bake Shoppe & Deli", "shop": "deli"}}, {"type": "node", "id": 8878915612, "lat": 43.4813551, "lon": -111.9713603, "tags": {"amenity": "cafe", "name": "Patty's Ultimate Coffee House"}}, {"type": "node", "id": 8878915669, "lat": 43.4830843, "lon": -111.9758972, "tags": {"name": "Deseret Industries Thrift Store", "shop": "second_hand"}}, {"type": "node", "id": 8878915670, "lat": 43.4824198, "lon": -111.9750123, "tags": {"name": "No Limit Guitar Company", "shop": "musical_instrument"}}, {"type": "node", "id": 8929751349, "lat": 43.4835479, "lon": -111.9724381, "tags": {"brand": "U-Haul", "brand:wikidata": "Q7862902", "name": "U-Haul", "shop": "rental"}}, {"type": "node", "id": 8929751381, "lat": 43.4833094, "lon": -111.9710273, "tags": {"name": "Phase 4 Stereo", "shop": "hifi"}}, {"type": "node", "id": 8929751392, "lat": 43.4823244, "lon": -111.971469, "tags": {"name": "Lincare", "shop": "medical_supply"}}, {"type": "node", "id": 8929751440, "lat": 43.4822886, "lon": -111.970416, "tags": {"brand": "Big O Tires", "brand:wikidata": "Q4906085", "name": "Big O Tires", "shop": "tyres"}}, {"type": "node", "id": 8929751441, "lat": 43.4827366, "lon": -111.9704018, "tags": {"name": "Wally's Auto Care", "shop": "car_repair"}}, {"type": "node", "id": 8929751618, "lat": 43.4831276, "lon": -111.969213, "tags": {"name": "Taylor Robison & Company", "office": "accountant"}}, {"type": "node", "id": 8929751630, "lat": 43.4831232, "lon": -111.9704725, "tags": {"brand": "Farmers Insurance", "brand:wikidata": "Q1396863", "name": "Farmers Insurance", "office": "insurance"}}, {"type": "node", "id": 8929751631, "lat": 43.4833776, "lon": -111.9706489, "tags": {"brand": "Allstate", "brand:wikidata": "Q2645636", "name": "Allstate", "office": "insurance"}}, {"type": "node", "id": 8929751632, "lat": 43.4839774, "lon": -111.9704725, "tags": {"government": "prosecutor", "name": "Law Office of Kyle G. Hansen", "office": "government"}}, {"type": "node", "id": 8929751634, "lat": 43.4838599, "lon": -111.969213, "tags": {"name": "Greater Idaho Falls Board-Realtor", "office": "estate_agent"}}, {"type": "node", "id": 8929781471, "lat": 43.4816239, "lon": -111.9689784, "tags": {"name": "Ship Pro", "office": "yes"}}, {"type": "node", "id": 8929781472, "lat": 43.481635, "lon": -111.9680382, "tags": {"name": "Tobacco Connection", "shop": "tobacco"}}, {"type": "node", "id": 8929781473, "lat": 43.4814617, "lon": -111.9680413, "tags": {"name": "Advanced Water Systems", "office": "water_utility"}}, {"type": "node", "id": 8929781475, "lat": 43.481465, "lon": -111.9674829, "tags": {"amenity": "restaurant", "cuisine": "chinese", "name": "Main Moon Restaurant"}}, {"type": "node", "id": 8929781476, "lat": 43.4816537, "lon": -111.967314, "tags": {"name": "Backyard Bargains Thrift Store", "shop": "second_hand"}}, {"type": "node", "id": 8929781477, "lat": 43.4816548, "lon": -111.9669885, "tags": {"name": "Noesis Engineering Services", "office": "yes"}}, {"type": "node", "id": 8929781478, "lat": 43.481476, "lon": -111.96699, "tags": {"name": "Creative Wood-N-Things", "shop": "houseware"}}, {"type": "node", "id": 8929781500, "lat": 43.4826594, "lon": -111.9666361, "tags": {"amenity": "restaurant", "cuisine": "mexican", "name": "Taqueria El Rodeo"}}, {"type": "node", "id": 8929781503, "lat": 43.4825285, "lon": -111.9658367, "tags": {"addr:city": "Ammon", "addr:housenumber": "3415", "addr:postcode": "83406-6781", "addr:state": "ID", "addr:street": "East 17th", "brand": "Ace Hardware", "brand:wikidata": "Q4672981", "name": "Ace Hardware", "opening_hours": "Mo-Fr 07:30-20:00; Sa 08:00-19:00; Su 09:00-17:00", "phone": "+1 208-522-1660", "ref": "14165", "shop": "doityourself"}}, {"type": "node", "id": 8929781504, "lat": 43.4824828, "lon": -111.9650904, "tags": {"addr:city": "Ammon", "addr:country": "US", "addr:housenumber": "3475", "addr:postcode": "83406", "addr:state": "ID", "addr:street": "East 17th Street", "brand": "Walgreens", "brand:wikidata": "Q1591889", "name": "Walgreens", "post_office": "post_partner", "post_office:brand": "FedEx OnSite", "post_office:website": "https://local.fedex.com/en-us/id/ammon/mp28h", "shop": "chemist", "website": "https://www.walgreens.com/locator/walgreens-3475+e+17th+st-ammon-id-83406/id=10603"}}, {"type": "node", "id": 8929781506, "lat": 43.4814782, "lon": -111.9649227, "tags": {"brand": "Texaco", "brand:wikidata": "Q775060", "name": "Texaco", "shop": "convenience"}}, {"type": "node", "id": 8929781507, "lat": 43.4809632, "lon": -111.9657362, "tags": {"name": "Rooftop Real Estate Management", "office": "yes"}}, {"type": "node", "id": 8929781508, "lat": 43.4816211, "lon": -111.965174, "tags": {"name": "Sundance Drafting & Design", "office": "yes"}}, {"type": "node", "id": 8929781511, "lat": 43.4816286, "lon": -111.9662569, "tags": {"name": "Farm Bureau Insurance", "office": "insurance"}}, {"type": "node", "id": 8929793191, "lat": 43.4811731, "lon": -111.9630285, "tags": {"name": "Porter Pro Media", "office": "advertising_agency"}}, {"type": "node", "id": 8929793192, "lat": 43.4814781, "lon": -111.9630327, "tags": {"name": "Salon h.davis", "shop": "hairdresser"}}, {"type": "node", "id": 8929793193, "lat": 43.4816388, "lon": -111.9639001, "tags": {"amenity": "restaurant", "name": "Cast Iron on 17th"}}, {"type": "node", "id": 8929860941, "lat": 43.4778963, "lon": -111.9637287, "tags": {"name": "City Of Ammon", "office": "government"}}, {"type": "node", "id": 9089556249, "lat": 43.4673003, "lon": -111.9645427, "tags": {"name": "Speedi Mart", "shop": "convenience"}}, {"type": "node", "id": 9089556269, "lat": 43.4668453, "lon": -111.9635833, "tags": {"brand": "Maverik", "brand:wikidata": "Q64149010", "name": "Maverik", "shop": "convenience"}}, {"type": "node", "id": 9090196295, "lat": 43.4813052, "lon": -111.9464294, "tags": {"name": "Elusive Boutique & Studio", "shop": "beauty"}}, {"type": "node", "id": 9090196296, "lat": 43.4813164, "lon": -111.9462074, "tags": {"name": "Bailey Jones Hair Co.", "shop": "hairdresser"}}, {"type": "node", "id": 9090196298, "lat": 43.4808576, "lon": -111.9464046, "tags": {"name": "Too Many Toys Storage", "shop": "storage_rental"}}, {"type": "node", "id": 9316678244, "lat": 43.4663018, "lon": -111.9812782, "tags": {"addr:housenumber": "2652", "addr:postcode": "83406", "addr:street": "East Sunnyside Road", "alt_name": "Verizon Wireless", "brand": "Verizon", "brand:wikidata": "Q919641", "name": "Verizon", "opening_hours": "Mo-Fr 09:00-20:00; Sa 09:00-19:00; Su 11:00-17:00", "operator": "Victra", "operator:website": "https://victra.com/stores/id-ammon/", "operator:wikidata": "Q118402656", "shop": "mobile_phone"}}, {"type": "node", "id": 9477104830, "lat": 43.4857731, "lon": -111.9812, "tags": {"operator": "Walmart", "shop": "pick_up"}}, {"type": "node", "id": 9477104831, "lat": 43.4859289, "lon": -111.9811486, "tags": {"brand": "Walmart", "brand:wikidata": "Q483551", "name": "Walmart Garden Center", "shop": "garden_centre"}}, {"type": "node", "id": 9477104832, "lat": 43.485944, "lon": -111.9804722, "tags": {"name": "Walmart Tire Center", "shop": "tyres"}}, {"type": "node", "id": 9477104833, "lat": 43.48728, "lon": -111.981188, "tags": {"name": "Walmart Deli", "shop": "deli"}}, {"type": "node", "id": 9477104834, "lat": 43.4873905, "lon": -111.9811466, "tags": {"name": "Walmart Bakery", "shop": "bakery"}}, {"type": "node", "id": 9894196533, "lat": 43.4670015, "lon": -111.9835278, "tags": {"brand": "America's Best Contacts & Eyeglasses", "brand:wikidata": "Q4742504", "name": "America's Best Contacts & Eyeglasses", "shop": "optician", "short_name": "America's Best"}}, {"type": "node", "id": 9894196534, "lat": 43.4670021, "lon": -111.9833597, "tags": {"amenity": "restaurant", "name": "Mo' Bettahs Hawaiian Style Food"}}, {"type": "node", "id": 11225832995, "lat": 43.4647034, "lon": -111.9813806}, {"type": "node", "id": 11225832996, "lat": 43.4648302, "lon": -111.9813811}, {"type": "node", "id": 11225832997, "lat": 43.4647034, "lon": -111.9814455}, {"type": "node", "id": 11225832998, "lat": 43.4645834, "lon": -111.9814457}, {"type": "node", "id": 11225832999, "lat": 43.4645835, "lon": -111.9814797}, {"type": "node", "id": 11225833000, "lat": 43.4644625, "lon": -111.9814799}, {"type": "node", "id": 11225833001, "lat": 43.4644624, "lon": -111.9814439}, {"type": "node", "id": 11225833002, "lat": 43.4643334, "lon": -111.9814441}, {"type": "node", "id": 11225833003, "lat": 43.4643333, "lon": -111.981377}, {"type": "node", "id": 11225833004, "lat": 43.4642094, "lon": -111.9813772}, {"type": "node", "id": 11225833005, "lat": 43.464209, "lon": -111.9807692}, {"type": "node", "id": 11225833006, "lat": 43.4644648, "lon": -111.9807688}, {"type": "node", "id": 11225833007, "lat": 43.4644648, "lon": -111.9807231}, {"type": "node", "id": 11225833008, "lat": 43.4645205, "lon": -111.9805959}, {"type": "node", "id": 11225833009, "lat": 43.4648287, "lon": -111.9805953}, {"type": "node", "id": 11225833010, "lat": 43.4650538, "lon": -111.9813803}, {"type": "node", "id": 11225833011, "lat": 43.4650539, "lon": -111.9814234}, {"type": "node", "id": 11225833012, "lat": 43.4652598, "lon": -111.9814226}, {"type": "node", "id": 11225833013, "lat": 43.4652597, "lon": -111.9813719}, {"type": "node", "id": 11225833014, "lat": 43.4654883, "lon": -111.9813706}, {"type": "node", "id": 11225833015, "lat": 43.4654862, "lon": -111.9805231}, {"type": "node", "id": 11225833016, "lat": 43.4652415, "lon": -111.9805241}, {"type": "node", "id": 11225833017, "lat": 43.4652413, "lon": -111.9804619}, {"type": "node", "id": 11225833018, "lat": 43.4651863, "lon": -111.9804621}, {"type": "node", "id": 11225833019, "lat": 43.4651864, "lon": -111.980527}, {"type": "node", "id": 11225833020, "lat": 43.4648285, "lon": -111.9805284}, {"type": "node", "id": 11225833021, "lat": 43.4657628, "lon": -111.9813692}, {"type": "node", "id": 11225833022, "lat": 43.4657615, "lon": -111.9809045}, {"type": "node", "id": 11225833023, "lat": 43.4655377, "lon": -111.9809058}, {"type": "node", "id": 11225833024, "lat": 43.4655375, "lon": -111.9808436}, {"type": "node", "id": 11225833025, "lat": 43.4654869, "lon": -111.9808438}, {"type": "node", "id": 11225833034, "lat": 43.4662239, "lon": -111.9801662}, {"type": "node", "id": 11225833035, "lat": 43.4664081, "lon": -111.9801659}, {"type": "node", "id": 11225836442, "lat": 43.4664461, "lon": -111.9801658}, {"type": "node", "id": 11225836443, "lat": 43.4664672, "lon": -111.9794087}, {"type": "node", "id": 11225836444, "lat": 43.466406, "lon": -111.9794088}, {"type": "node", "id": 11225836445, "lat": 43.4664057, "lon": -111.979113}, {"type": "node", "id": 11225836446, "lat": 43.466377, "lon": -111.979113}, {"type": "node", "id": 11225836447, "lat": 43.466377, "lon": -111.9790769}, {"type": "node", "id": 11225836448, "lat": 43.4658827, "lon": -111.9790779}, {"type": "node", "id": 11225836449, "lat": 43.4658829, "lon": -111.9792915}, {"type": "node", "id": 11225836450, "lat": 43.4657993, "lon": -111.9792917}, {"type": "node", "id": 11225836451, "lat": 43.4657996, "lon": -111.9796106}, {"type": "node", "id": 11225836452, "lat": 43.4658437, "lon": -111.9796105}, {"type": "node", "id": 11225836453, "lat": 43.4658443, "lon": -111.980167}, {"type": "node", "id": 11225836454, "lat": 43.4664458, "lon": -111.9798309}, {"type": "node", "id": 11225836455, "lat": 43.4664676, "lon": -111.9798308}, {"type": "node", "id": 11225836456, "lat": 43.4672505, "lon": -111.9809545, "tags": {"name": "ROOLEE", "shop": "clothes"}}, {"type": "way", "id": 32333902, "nodes": [364003468, 2514663855, 2514663853, 2514663851, 2514663849, 364003469, 8417388821, 2514663858, 8417388824, 364003470, 364003471, 364003472, 364003473, 364003474, 364003475, 364003476, 364003477, 364003468], "tags": {"addr:city": "Idaho Falls", "addr:housenumber": "2171", "addr:postcode": "83406-5712", "addr:state": "ID", "addr:street": "South 25th East", "brand": "Target", "brand:wikidata": "Q1046951", "building": "yes", "name": "Target", "opening_hours": "08:00-22:00", "phone": "+1 208-535-2285", "shop": "department_store", "website": "https://www.target.com/sl/idaho-falls/1082"}}, {"type": "way", "id": 39369677, "nodes": [471748277, 471748278, 471748279, 471748280, 471748277], "tags": {"brand": "Stinker", "brand:wikidata": "Q95990164", "building": "yes", "name": "Stinker", "shop": "convenience"}}, {"type": "way", "id": 39369694, "nodes": [471748741, 2514663795, 471748742, 2514663778, 2514663776, 2514663780, 2514663782, 2514663784, 2514663786, 471748743, 2514663808, 2514663806, 471748744, 2514663793, 2514663791, 2514663788, 2514663789, 471748741], "tags": {"addr:city": "Ammon", "addr:housenumber": "1901", "addr:postcode": "83406", "addr:state": "ID", "addr:street": "South 25th East", "brand": "Albertsons", "brand:wikidata": "Q2831861", "building": "yes", "name": "Albertsons", "opening_hours": "Mo-Fr 07:00-23:00; Sa 07:00-23:00; Su 07:00-23:00", "phone": "+1 208-524-8100", "shop": "supermarket", "website": "https://local.albertsons.com/id/ammon/1901-s-25th-e.html"}}, {"type": "way", "id": 244115947, "nodes": [2514663824, 2514663817, 2514663833, 2514663835, 2514663837, 2514663839, 2514663842, 2514663841, 2514663824], "tags": {"addr:city": "Ammon", "addr:housenumber": "1999", "addr:postcode": "83406", "addr:state": "ID", "addr:street": "South 25th East", "brand": "Staples", "brand:wikidata": "Q785943", "building": "yes", "name": "Staples", "opening_hours": "Mo-Fr 08:00-21:00; Sa 09:00-21:00; Su 11:00-18:00", "shop": "stationery", "website": "https://stores.staples.com/id/ammon/1999-south-25th-east"}}, {"type": "way", "id": 956585978, "nodes": [8852984778, 8852984779, 8852984780, 8852984781, 8852984782, 8852984783, 8852984784, 8852984785, 8852984786, 8852984787, 8852984788, 8852984789, 8852984778], "tags": {"addr:city": "Ammon", "addr:housenumber": "2463", "addr:postcode": "83406", "addr:state": "ID", "addr:street": "South 25th East", "amenity": "restaurant", "brand": "IHOP", "brand:wikidata": "Q1185675", "building": "yes", "check_date": "2024-09-15", "cuisine": "breakfast;pancake", "name": "IHOP", "opening_hours": "Mo-Th,Su 06:00-22:00; Fr,Sa 06:00-24:00", "phone": "+1 208-524-0885", "source": "official website", "website": "https://restaurants.ihop.com/en-us/id/ammon/breakfast-2463-s-25th-e-1733"}}, {"type": "way", "id": 956618903, "nodes": [8853303659, 8853303660, 8853303661, 8853303662, 8853303663, 8853303664, 8853303665, 8853303666, 8853303659], "tags": {"addr:city": "Ammon", "addr:housenumber": "3175", "addr:postcode": "83406", "addr:state": "ID", "addr:street": "South 25th East", "branch": "Idaho Falls", "brand": "Kohl's", "brand:wikidata": "Q967265", "building": "yes", "name": "Kohl's", "opening_hours": "Mo-Sa 09:00-21:00; Su 09:00-20:00", "phone": "+1 208-227-0195", "ref": "1086", "shop": "department_store", "source": "microsoft/BuildingFootprints", "website": "https://www.kohls.com/stores/id/ammon-1086.shtml"}}, {"type": "way", "id": 957392864, "nodes": [8858929228, 8858929229, 8858929230, 8858929231, 8858929232, 8858929233, 8858929234, 8858929235, 8858929236, 8858929237, 8858929238, 8858929239, 8858929240, 8858929241, 8858929242, 8858929243, 8858929244, 8858929245, 8858929246, 8858929247, 8858929248, 8858929249, 8858929250, 8858929251, 8858929252, 8858929253, 8858929254, 8858929255, 8858929228], "tags": {"addr:city": "Ammon", "addr:housenumber": "1201", "addr:postcode": "83406", "addr:state": "ID", "addr:street": "South 25th East", "brand": "Walmart", "brand:wikidata": "Q483551", "building": "yes", "name": "Walmart Supercenter", "opening_hours": "06:00-23:00", "payment:app:walmart": "yes", "payment:apple_pay": "no", "payment:google_pay": "no", "payment:samsung_pay": "no", "phone": "+1 208-522-0204", "ref": "1902", "sensory_friendly:accommodation": "dimmed_light;static_screens;no_pa", "sensory_friendly:conditional": "yes @ 08:00-10:00", "shop": "supermarket", "website": "https://www.walmart.com/store/1902-ammon-id"}}, {"type": "way", "id": 957417364, "nodes": [8859145095, 8859145096, 8859145097, 8859145098, 8859145099, 8859145100, 8859145095], "tags": {"building": "yes", "shop": "agrarian"}}, {"type": "way", "id": 957417366, "nodes": [8859145109, 8859145110, 8859145111, 8859145112, 8859145113, 8859145114, 8859145115, 8859145116, 8859145109], "tags": {"building": "yes", "office": "yes"}}, {"type": "way", "id": 1211687361, "nodes": [11225832996, 11225832995, 11225832997, 11225832998, 11225832999, 11225833000, 11225833001, 11225833002, 11225833003, 11225833004, 11225833005, 11225833006, 11225833007, 11225833008, 11225833009, 11225832996], "tags": {"addr:housenumber": "3693", "addr:postcode": "83406", "addr:street": "South 25th East", "brand": "Cabela's", "brand:wikidata": "Q2793714", "building": "yes", "name": "Cabela's", "opening_hours": "Mo-Sa 09:00-21:00; Su 10:00-19:00", "phone": "+12089322900", "shop": "outdoor"}}, {"type": "way", "id": 1211687362, "nodes": [11225832996, 11225833010, 11225833011, 11225833012, 11225833013, 11225833014, 11225833025, 11225833015, 11225833016, 11225833017, 11225833018, 11225833019, 11225833020, 11225833009, 11225832996], "tags": {"addr:housenumber": "3603", "addr:postcode": "83406", "addr:street": "South 25th East", "brand": "Hobby Lobby", "brand:wikidata": "Q5874938", "building": "yes", "name": "Hobby Lobby", "shop": "craft"}}, {"type": "way", "id": 1211687363, "nodes": [11225833014, 11225833021, 11225833022, 11225833023, 11225833024, 11225833025, 11225833014], "tags": {"addr:city": "Idaho Falls", "addr:housenumber": "3549", "addr:postcode": "83406", "addr:state": "ID", "addr:street": "South 25th East", "branch": "Idaho Falls", "brand": "Petco", "brand:wikidata": "Q7171798", "building": "yes", "name": "Petco", "opening_hours": "Mo-Sa 09:00-20:00; Su 10:00-19:00", "phone": "+1 986-497-6347", "ref": "1298", "shop": "pet", "website": "https://stores.petco.com/id/idahofalls/pet-supplies-idahofalls-id-1298.html"}}, {"type": "way", "id": 1211687366, "nodes": [11225833035, 11225836442, 11225836454, 11225836455, 11225836443, 11225836444, 11225836445, 11225836446, 11225836447, 11225836448, 11225836449, 11225836450, 11225836451, 11225836452, 11225836453, 11225833034, 11225833035], "tags": {"brand": "Petco", "building": "yes", "name": "Broulim's", "shop": "supermarket"}}]}