{"version": 0.6, "generator": "Overpass API 0.7.62.8 e802775f", "osm3s": {"timestamp_osm_base": "2025-12-12T17:37:06Z", "copyright": "The data included in this document is from www.openstreetmap.org. The data is made available under ODbL."}, "elements": [{"type": "node", "id": 3697392961, "lat": 39.6407668, "lon": -104.8268529}, {"type": "node", "id": 3697392963, "lat": 39.6413001, "lon": -104.8272035}, {"type": "node", "id": 3697392964, "lat": 39.6407829, "lon": -104.8272061}, {"type": "node", "id": 3697392965, "lat": 39.6407827, "lon": -104.8271387}, {"type": "node", "id": 3697392966, "lat": 39.6407679, "lon": -104.8271387}, {"type": "node", "id": 3697392967, "lat": 39.6407653, "lon": -104.8264594}, {"type": "node", "id": 3697392968, "lat": 39.6409176, "lon": -104.8264581}, {"type": "node", "id": 3697392969, "lat": 39.6409174, "lon": -104.8264115}, {"type": "node", "id": 3697392970, "lat": 39.6409403, "lon": -104.8264113}, {"type": "node", "id": 3697392971, "lat": 39.6409401, "lon": -104.8263762}, {"type": "node", "id": 3697392972, "lat": 39.6410281, "lon": -104.8263755}, {"type": "node", "id": 3697392973, "lat": 39.6410285, "lon": -104.8264613}, {"type": "node", "id": 3697392974, "lat": 39.641311, "lon": -104.8264593}, {"type": "node", "id": 3697392975, "lat": 39.641314, "lon": -104.82713}, {"type": "node", "id": 3697392976, "lat": 39.6412999, "lon": -104.8271301}, {"type": "node", "id": 3697392979, "lat": 39.6413118, "lon": -104.8266079}, {"type": "node", "id": 4797469370, "lat": 39.6404866, "lon": -104.7908056}, {"type": "node", "id": 4797469371, "lat": 39.6399792, "lon": -104.790815}, {"type": "node", "id": 4797469372, "lat": 39.6399768, "lon": -104.7906205}, {"type": "node", "id": 4797469373, "lat": 39.6399291, "lon": -104.7906187}, {"type": "node", "id": 4797469375, "lat": 39.6403381, "lon": -104.7897624}, {"type": "node", "id": 4797469376, "lat": 39.6404312, "lon": -104.7902981}, {"type": "node", "id": 4797469377, "lat": 39.6404813, "lon": -104.7902951}, {"type": "node", "id": 5839050405, "lat": 39.640405, "lon": -104.790809}, {"type": "node", "id": 6283404272, "lat": 39.654014, "lon": -104.8129373}, {"type": "node", "id": 6283404273, "lat": 39.6537659, "lon": -104.8129376}, {"type": "node", "id": 6283404274, "lat": 39.6537656, "lon": -104.812512}, {"type": "node", "id": 6283404275, "lat": 39.6540137, "lon": -104.8125117}, {"type": "node", "id": 9272629663, "lat": 39.6524967, "lon": -104.8105064, "tags": {"addr:city": "Aurora", "addr:housenumber": "15270", "addr:postcode": "80014", "addr:state": "CO", "addr:street": "East Hampden Avenue", "leisure": "fitness_centre", "name": "Powerhouse Gym", "phone": "+1-303-766-1900", "website": "https://powerhousegym.com/locations/aurora/"}}, {"type": "node", "id": 9738810292, "lat": 39.6402553, "lon": -104.8271505, "tags": {"addr:city": "Aurora", "addr:housenumber": "4174", "addr:postcode": "80014", "addr:state": "CO", "addr:street": "South Parker Road", "leisure": "fitness_centre", "name": "One Beat Crossfit"}}, {"type": "node", "id": 10981072405, "lat": 39.6399209, "lon": -104.7899438}, {"type": "node", "id": 10981072406, "lat": 39.6399668, "lon": -104.7897734}, {"type": "node", "id": 10981072407, "lat": 39.6399695, "lon": -104.7899438}, {"type": "node", "id": 11010432726, "lat": 39.6401706, "lon": -104.792217, "tags": {"addr:city": "Aurora", "addr:housenumber": "4211", "addr:postcode": "80013", "addr:state": "CO", "addr:street": "South Buckley Road", "leisure": "sports_hall", "name": "Orange Theory Fitness"}}, {"type": "node", "id": 11080925671, "lat": 39.6404274, "lon": -104.7897585}, {"type": "node", "id": 11080925697, "lat": 39.6404778, "lon": -104.7902953}, {"type": "node", "id": 11155976961, "lat": 39.625263, "lon": -104.8227658, "tags": {"addr:city": "Aurora", "addr:housenumber": "5001", "addr:postcode": "80015", "addr:state": "CO", "addr:street": "South Parker Road", "addr:unit": "108", "brand": "Jazzercise", "brand:wikidata": "Q6168434", "leisure": "fitness_centre", "name": "Jazzercise"}}, {"type": "way", "id": 365733807, "nodes": [3697392963, 3697392964, 3697392965, 3697392966, 3697392961, 3697392967, 3697392968, 3697392969, 3697392970, 3697392971, 3697392972, 3697392973, 3697392974, 3697392979, 3697392975, 3697392976, 3697392963], "tags": {"addr:city": "Aurora", "addr:housename": "East Bank Shopping Center", "addr:housenumber": "4100", "addr:postcode": "80014", "addr:state": "CO", "addr:street": "South Parker Road", "alt_name": "24 Hour Fitness Sport Gym", "branch": "Sport", "brand": "24 Hour Fitness", "brand:wikidata": "Q4631849", "building": "retail", "building:levels": "1", "leisure": "fitness_centre", "name": "24 Hour Fitness", "opening_hours": "Mo-Su 04:00-23:59", "phone": "+1-303-699-2400", "website": "https://www.24hourfitness.com/gyms/aurora-co/aurora-sport"}}, {"type": "way", "id": 487237866, "nodes": [4797469370, 5839050405, 4797469371, 4797469372, 4797469373, 10981072405, 10981072407, 10981072406, 4797469375, 11080925671, 4797469376, 11080925697, 4797469377, 4797469370], "tags": {"addr:city": "Aurora", "addr:housenumber": "16911", "addr:postcode": "80015", "addr:state": "CO", "addr:street": "East Quincy Avenue", "addr:unit": "A4-A5", "brand": "VASA Fitness", "brand:wikidata": "Q108816909", "building": "yes", "layer": "1", "leisure": "fitness_centre", "name": "VASA Fitness", "swimming_pool": "yes"}}, {"type": "way", "id": 670979374, "nodes": [6283404272, 6283404273, 6283404274, 6283404275, 6283404272], "tags": {"addr:city": "Aurora", "addr:housenumber": "3460", "addr:postcode": "80014", "addr:street": "South Fairplay Way", "building": "yes", "leisure": "fitness_centre", "name": "Achieve Gymnastics"}}]}