{"version": 0.6, "generator": "Overpass API 0.7.62.8 e802775f", "osm3s": {"timestamp_osm_base": "2025-12-06T19:16:23Z", "copyright": "The data included in this document is from www.openstreetmap.org. The data is made available under ODbL."}, "elements": [{"type": "node", "id": 1328640486, "lat": 47.9043451, "lon": -122.2973293, "tags": {"addr:city": "Mukilteo", "addr:housenumber": "10400", "addr:postcode": "98275", "addr:state": "WA", "addr:street": "47th Place West", "amenity": "fire_station", "name": "Mukilteo Fire Station 25", "operator": "City of Mukilteo"}}, {"type": "node", "id": 1328646065, "lat": 47.9056568, "lon": -122.297088, "tags": {"amenity": "library", "internet_access": "wlan", "name": "Mukilteo Library", "opening_hours": "Mo-Th 09:00-20:00; Fr-Sa 10:00-18:00; Su 13:00-17:00", "phone": "+1-425-493-8202", "website": "https://www.sno-isle.org/locations/mukilteo"}}, {"type": "node", "id": 1328658960, "lat": 47.9061468, "lon": -122.2941266, "tags": {"addr:city": "Mukilteo", "addr:postcode": "98275", "addr:state": "WA", "amenity": "cafe", "branch": "Harbour Pointe Retail Town Cen", "brand": "Starbucks", "brand:wikidata": "Q37158", "check_date": "2024-07-13", "cuisine": "coffee_shop", "name": "Starbucks", "official_name": "Starbucks Coffee", "phone": "+1-425-493-6848", "ref": "12928", "takeaway": "yes", "website": "https://www.starbucks.com/store-locator/store/12928/harbour-pointe-retail-town-cen-10100-mukilteo-speedway-mukilteo-wa-982754752-us"}}, {"type": "node", "id": 1711882593, "lat": 47.8900744, "lon": -122.285691, "tags": {"amenity": "fuel", "brand": "Arco", "brand:wikidata": "Q304769", "name": "Arco", "opening_hours": "24/7"}}, {"type": "node", "id": 2635696612, "lat": 47.9052674, "lon": -122.2969299}, {"type": "node", "id": 2877300020, "lat": 47.8994424, "lon": -122.2922295, "tags": {"amenity": "fuel", "brand": "Shell", "brand:wikidata": "Q154950", "compressed_air": "yes", "name": "Shell", "opening_hours": "Mo-Su 00:00+"}}, {"type": "node", "id": 2940874630, "lat": 47.8904687, "lon": -122.2848903}, {"type": "node", "id": 2940874631, "lat": 47.8904032, "lon": -122.2847634}, {"type": "node", "id": 2940874632, "lat": 47.890504, "lon": -122.2844454}, {"type": "node", "id": 2940874633, "lat": 47.8906007, "lon": -122.2845136}, {"type": "node", "id": 3142134572, "lat": 47.902511, "lon": -122.3029289}, {"type": "node", "id": 3142134573, "lat": 47.9025371, "lon": -122.3015425}, {"type": "node", "id": 3142134574, "lat": 47.9023595, "lon": -122.3014148}, {"type": "node", "id": 3142134575, "lat": 47.9021584, "lon": -122.3013737}, {"type": "node", "id": 3142134576, "lat": 47.9018281, "lon": -122.3011078}, {"type": "node", "id": 3142134577, "lat": 47.9015546, "lon": -122.3005968}, {"type": "node", "id": 3142134578, "lat": 47.9014811, "lon": -122.3004637}, {"type": "node", "id": 3142134579, "lat": 47.901168, "lon": -122.2995976}, {"type": "node", "id": 3142134580, "lat": 47.9008009, "lon": -122.2995661}, {"type": "node", "id": 3142134581, "lat": 47.9002808, "lon": -122.2997758}, {"type": "node", "id": 3142134583, "lat": 47.8986347, "lon": -122.2980487}, {"type": "node", "id": 3142134584, "lat": 47.8977652, "lon": -122.2983565}, {"type": "node", "id": 3142134585, "lat": 47.8968145, "lon": -122.2986319}, {"type": "node", "id": 3142134586, "lat": 47.89651, "lon": -122.2989612}, {"type": "node", "id": 3142134587, "lat": 47.8966147, "lon": -122.3000734}, {"type": "node", "id": 3142134588, "lat": 47.8968699, "lon": -122.3012751}, {"type": "node", "id": 3142134589, "lat": 47.8972029, "lon": -122.3015507}, {"type": "node", "id": 3142134590, "lat": 47.8975515, "lon": -122.3012331}, {"type": "node", "id": 3142134591, "lat": 47.8982598, "lon": -122.3012465}, {"type": "node", "id": 3142134592, "lat": 47.8983109, "lon": -122.3023316}, {"type": "node", "id": 3142134593, "lat": 47.8987451, "lon": -122.3022175}, {"type": "node", "id": 3142134596, "lat": 47.8989056, "lon": -122.3037518}, {"type": "node", "id": 3365187176, "lat": 47.9040256, "lon": -122.3005621}, {"type": "node", "id": 3365187177, "lat": 47.9044818, "lon": -122.2983916}, {"type": "node", "id": 3365187179, "lat": 47.901797, "lon": -122.2977968}, {"type": "node", "id": 3365187180, "lat": 47.901814, "lon": -122.2981966}, {"type": "node", "id": 3365187181, "lat": 47.9023407, "lon": -122.2985784}, {"type": "node", "id": 3365187182, "lat": 47.902094, "lon": -122.2996839}, {"type": "node", "id": 3365187183, "lat": 47.902225, "lon": -122.300089}, {"type": "node", "id": 3365187184, "lat": 47.9021393, "lon": -122.3006674}, {"type": "node", "id": 3365187185, "lat": 47.9025403, "lon": -122.3007527}, {"type": "node", "id": 3365187186, "lat": 47.9026278, "lon": -122.3006719}, {"type": "node", "id": 4137514590, "lat": 47.890157, "lon": -122.2860648, "tags": {"brand": "ampm", "brand:wikidata": "Q306960", "name": "ampm", "shop": "convenience", "website": "https://www.ampm.com/"}}, {"type": "node", "id": 4158833671, "lat": 47.9030161, "lon": -122.2971824, "tags": {"addr:city": "Mukilteo", "addr:housenumber": "10500", "addr:postcode": "98275", "addr:state": "WA", "addr:street": "47th Place West", "amenity": "police", "name": "Mukilteo Police Department", "operator": "City of Mukilteo", "phone": "+1-425-263-8100", "website": "https://mukilteowa.gov/"}}, {"type": "node", "id": 4233628591, "lat": 47.8903534, "lon": -122.287168, "tags": {"amenity": "charging_station"}}, {"type": "node", "id": 4233657190, "lat": 47.8912195, "lon": -122.287756, "tags": {"addr:city": "Mukilteo", "addr:housenumber": "11700", "addr:postcode": "98275", "addr:state": "WA", "addr:street": "Mukilteo Speedway", "brand": "QFC", "brand:wikidata": "Q7265425", "name": "QFC", "phone": "+1-425-290-6166", "shop": "supermarket"}}, {"type": "node", "id": 4717874140, "lat": 47.9041294, "lon": -122.3003366}, {"type": "node", "id": 4717887145, "lat": 47.9030249, "lon": -122.3000399}, {"type": "node", "id": 4717887146, "lat": 47.9030834, "lon": -122.3001249}, {"type": "node", "id": 4717887147, "lat": 47.9031117, "lon": -122.3002471}, {"type": "node", "id": 4717887148, "lat": 47.9032688, "lon": -122.3002793}, {"type": "node", "id": 4717887149, "lat": 47.9038109, "lon": -122.3006016}, {"type": "node", "id": 4717887150, "lat": 47.9038364, "lon": -122.3004873}, {"type": "node", "id": 4717887151, "lat": 47.9037991, "lon": -122.3004434}, {"type": "node", "id": 4717887152, "lat": 47.9037814, "lon": -122.3003438}, {"type": "node", "id": 4717887153, "lat": 47.903254, "lon": -122.3000769}, {"type": "node", "id": 4717887154, "lat": 47.903258, "lon": -122.3001234}, {"type": "node", "id": 4717887155, "lat": 47.9032476, "lon": -122.3001413}, {"type": "node", "id": 4717887156, "lat": 47.9032332, "lon": -122.3001437}, {"type": "node", "id": 4717887157, "lat": 47.9032204, "lon": -122.3001258}, {"type": "node", "id": 4717887158, "lat": 47.9032052, "lon": -122.3000626}, {"type": "node", "id": 4890716137, "lat": 47.8834305, "lon": -122.2800987}, {"type": "node", "id": 4890716138, "lat": 47.8835122, "lon": -122.2811057, "tags": {"amenity": "cafe", "cuisine": "coffee_shop", "diet:vegan": "yes", "diet:vegetarian": "yes", "name": "Whidbey Coffee", "opening_hours": "Mo-Fr 05:30-17:30; Su 07:00-17:30; Sa 06:00-17:30", "payment:credit_cards": "yes", "payment:debit_cards": "yes", "wheelchair": "yes"}}, {"type": "node", "id": 4890716139, "lat": 47.883735, "lon": -122.2812619, "tags": {"amenity": "childcare", "name": "Multiple Intelligence Academy"}}, {"type": "node", "id": 4890716140, "lat": 47.8827929, "lon": -122.2804995}, {"type": "node", "id": 4890716149, "lat": 47.8862039, "lon": -122.2832053, "tags": {"shop": "storage_rental"}}, {"type": "node", "id": 4890716159, "lat": 47.8879508, "lon": -122.2831682, "tags": {"addr:city": "Lynnwood", "addr:housenumber": "3614", "addr:postcode": "98087-1539", "addr:state": "WA", "addr:street": "121 Street Southwest", "alt_name": "Dairy Queen", "amenity": "fast_food", "brand": "DQ Grill & Chill", "brand:wikidata": "Q1141226", "cuisine": "ice_cream;burger", "name": "DQ Grill & Chill", "phone": "+1-425-347-8855", "takeaway": "yes", "website": "https://www.dairyqueen.com/locations/wa/lynnwood/3614-121-st-sw/12082"}}, {"type": "node", "id": 4890716160, "lat": 47.8906409, "lon": -122.2861917, "tags": {"amenity": "bank", "check_date": "2024-02-02", "name": "Heritage Bank"}}, {"type": "node", "id": 4890716161, "lat": 47.8894202, "lon": -122.2852871, "tags": {"amenity": "bank", "brand": "Bank of America", "brand:wikidata": "Q487907", "name": "Bank of America", "website": "https://locators.bankofamerica.com/wa/mukilteo/financial-centers-mukilteo-8018.html"}}, {"type": "node", "id": 4890716162, "lat": 47.8896979, "lon": -122.2841676, "tags": {"amenity": "bank", "brand": "U.S. Bank", "brand:wikidata": "Q739084", "name": "U.S. Bank"}}, {"type": "node", "id": 4890716163, "lat": 47.8911716, "lon": -122.2863434, "tags": {"addr:city": "Mukilteo", "addr:housenumber": "11800", "addr:postcode": "98275", "addr:state": "WA", "addr:street": "Mukilteo Speedway", "amenity": "fast_food", "brand": "Jack in the Box", "brand:wikidata": "Q1538507", "check_date": "2024-07-13", "cuisine": "burger", "name": "Jack in the Box", "phone": "+1-425-493-8470", "takeaway": "yes", "website": "https://locations.jackinthebox.com/us/wa/mukilteo/11800-mukilteo-speedway"}}, {"type": "node", "id": 4890716952, "lat": 47.8993339, "lon": -122.2925954, "tags": {"name": "Food Mart", "shop": "convenience"}}, {"type": "node", "id": 4890716975, "lat": 47.8984862, "lon": -122.2914468, "tags": {"check_date": "2024-02-02", "name": "Adpro", "shop": "yes"}}, {"type": "node", "id": 4890717032, "lat": 47.8968169, "lon": -122.3012334}, {"type": "node", "id": 4890717037, "lat": 47.896706, "lon": -122.2986942}, {"type": "node", "id": 4893992251, "lat": 47.8918782, "lon": -122.285593, "tags": {"amenity": "restaurant", "check_date": "2024-02-02", "cuisine": "mexican", "name": "Azteca Mexican Restaurant"}}, {"type": "node", "id": 4893992266, "lat": 47.8929394, "lon": -122.288363, "tags": {"amenity": "dentist", "healthcare": "dentist", "name": "Lighthouse Family Dentistry"}}, {"type": "node", "id": 4893992267, "lat": 47.8928665, "lon": -122.2883141, "tags": {"name": "Advanced Eye Care", "shop": "optician"}}, {"type": "node", "id": 4893992269, "lat": 47.8923862, "lon": -122.287297}, {"type": "node", "id": 4893992270, "lat": 47.8924079, "lon": -122.2879936, "tags": {"amenity": "pharmacy", "brand": "Rite Aid", "brand:wikidata": "Q3433273", "check_date": "2024-06-19", "dispensing": "yes", "healthcare": "pharmacy", "name": "Rite Aid", "website": "https://www.riteaid.com/locations/wa/mukilteo/11700-mukilteo-speedway.html"}}, {"type": "node", "id": 4893992271, "lat": 47.8921165, "lon": -122.287779, "tags": {"amenity": "restaurant", "cuisine": "japanese", "name": "Miako Teriyaki"}}, {"type": "node", "id": 4893992272, "lat": 47.891952, "lon": -122.2876784, "tags": {"name": "Jorgensen Golf", "shop": "sports"}}, {"type": "node", "id": 4893992273, "lat": 47.8918144, "lon": -122.287718, "tags": {"addr:city": "Mukilteo", "addr:housenumber": "11700", "addr:postcode": "98275", "addr:state": "WA", "addr:street": "Mukilteo Speedway", "amenity": "restaurant", "cuisine": "mexican", "name": "Taqueria Puebla", "opening_hours": "Mo-Sa 10:00-20:00", "phone": "+1-425-212-9725", "takeaway": "yes", "website": "https://www.taqueriapueblawa.com/"}}, {"type": "node", "id": 4893992274, "lat": 47.8917667, "lon": -122.2877361, "tags": {"amenity": "restaurant", "name": "Red Cork Bistro"}}, {"type": "node", "id": 4893992275, "lat": 47.8917146, "lon": -122.2877589, "tags": {"beauty": "nails", "name": "Mukilteo Nails", "shop": "beauty"}}, {"type": "node", "id": 4893992276, "lat": 47.8916417, "lon": -122.287795, "tags": {"addr:city": "Mukilteo", "addr:housenumber": "11700", "addr:postcode": "98275", "addr:state": "WA", "addr:street": "Mukilteo Speedway", "brand": "Mud Bay", "brand:wikidata": "Q30324179", "name": "Mud Bay", "opening_hours": "Mo-Fr 10:00-19:30, Sa-Su 09:00-19:00", "phone": "+1-425-374-7451", "shop": "pet", "website": "https://www.mudbay.com/home"}}, {"type": "node", "id": 4893992277, "lat": 47.890979, "lon": -122.2873566, "tags": {"addr:city": "Mukilteo", "addr:housenumber": "11700", "addr:postcode": "98275", "addr:state": "WA", "addr:street": "Mukilteo Speedway", "addr:unit": "205", "amenity": "fast_food", "brand": "Subway", "brand:wikidata": "Q244457", "cuisine": "sandwich", "name": "Subway", "opening_hours": "08:00-21:00", "phone": "+1-425-290-1979", "takeaway": "yes", "website": "https://restaurants.subway.com/united-states/wa/mukilteo/11700-mukilteo-speedway"}}, {"type": "node", "id": 4893992278, "lat": 47.8909187, "lon": -122.287311, "tags": {"brand": "Great Clips", "brand:wikidata": "Q5598967", "name": "Great Clips", "shop": "hairdresser"}}, {"type": "node", "id": 4893992279, "lat": 47.8908162, "lon": -122.2872372, "tags": {"name": "Lighthouse Cleaners", "shop": "dry_cleaning"}}, {"type": "node", "id": 4893992280, "lat": 47.8907614, "lon": -122.2872037, "tags": {"name": "Post Net", "shop": "yes"}}, {"type": "node", "id": 4893992281, "lat": 47.890693, "lon": -122.2871567, "tags": {"brand": "T-Mobile", "brand:wikidata": "Q3511885", "name": "T-Mobile", "shop": "mobile_phone", "website": "https://www.t-mobile.com/stores/bd/t-mobile-mukilteo-wa-98275-2309"}}, {"type": "node", "id": 4893992282, "lat": 47.890541, "lon": -122.287064, "tags": {"addr:city": "Mukilteo", "addr:housenumber": "11706", "addr:postcode": "98275", "addr:state": "WA", "addr:street": "Mukilteo Speedway", "amenity": "fast_food", "branch": "Harbour Pointe", "brand": "MOD Pizza", "brand:wikidata": "Q19903469", "cuisine": "pizza", "name": "MOD Pizza", "opening_hours": "Mo-We 10:00-22:00; Th-Fr 10:00-23:00; Sa 10:30-23:00; Su 10:30-22:00", "phone": "+1-425-553-2605", "takeaway": "yes", "website": "https://locations.modpizza.com/usa/wa/mukilteo/11706-mukilteo-speedway"}}, {"type": "node", "id": 4893992284, "lat": 47.8932766, "lon": -122.2877669, "tags": {"amenity": "fuel", "brand": "QFC Gas (coming soon)", "compressed_air": "yes", "opening_hours": "24/7"}}, {"type": "node", "id": 4893992285, "lat": 47.8920769, "lon": -122.2870814}, {"type": "node", "id": 4893992289, "lat": 47.8899259, "lon": -122.2867665, "tags": {"amenity": "bank", "atm": "yes", "brand": "Chase", "brand:wikidata": "Q524629", "check_date": "2024-09-17", "check_date:opening_hours": "2024-09-17", "name": "Chase", "opening_hours": "Mo-Fr 09:00-17:00; Sa 09:00-13:00; Su closed", "phone": "+1-425-356-2731", "website": "https://locator.chase.com/wa/mukilteo/3905-harbour-pointe-blvd-sw"}}, {"type": "node", "id": 4893992290, "lat": 47.8844022, "lon": -122.2816166, "tags": {"addr:city": "Mukilteo", "addr:housenumber": "12502", "addr:postcode": "98275", "addr:state": "WA", "addr:street": "Mukilteo Speedway", "addr:unit": "A-1", "amenity": "cafe", "branch": "Plaza 525- Mukilteo", "brand": "Starbucks", "brand:wikidata": "Q37158", "cuisine": "coffee_shop", "delivery": "no", "internet_access": "wlan", "internet_access:fee": "no", "name": "Starbucks", "official_name": "Starbucks Coffee", "phone": "+1-425-353-5314", "ref": "17989", "smoking": "no", "takeaway": "yes", "website": "https://www.starbucks.com/store-locator/store/17989/plaza-525-mukilteo-12502-mukilteo-speedway-a-1-mukilteo-wa-982755730-"}}, {"type": "node", "id": 4893992292, "lat": 47.8844436, "lon": -122.2807194, "tags": {"brand": "Jiffy Lube", "brand:wikidata": "Q6192247", "check_date": "2024-07-13", "name": "Jiffy Lube", "shop": "car_repair"}}, {"type": "node", "id": 4893992312, "lat": 47.882697, "lon": -122.2806993, "tags": {"brand": "7-Eleven", "brand:wikidata": "Q259340", "contact:website": "https://www.7-eleven.com/locations/wa/mukilteo/12704-mukilteo-speedway-23176", "name": "7-Eleven", "opening_hours": "24/7", "shop": "convenience"}}, {"type": "node", "id": 4893992322, "lat": 47.8836485, "lon": -122.2819814, "tags": {"name": "The Prop Shop", "shop": "outdoor"}}, {"type": "node", "id": 4893992325, "lat": 47.8831224, "lon": -122.2810869, "tags": {"addr:city": "Mukilteo", "addr:housenumber": "12680", "addr:postcode": "98275-5718", "addr:state": "WA", "addr:street": "Mukilteo Speedway", "brand": "Ace Hardware", "brand:wikidata": "Q4672981", "name": "Ace Hardware", "opening_hours": "Mo-Sa 08:00-19:00; Su 09:00-18:00", "phone": "+1-425-374-1771", "ref": "14681", "shop": "doityourself", "wheelchair": "yes"}}, {"type": "node", "id": 4893992326, "lat": 47.8824424, "lon": -122.2794373, "tags": {"name": "Lam Auto Repairs", "shop": "car_repair"}}, {"type": "node", "id": 4893992327, "lat": 47.8826682, "lon": -122.279373, "tags": {"amenity": "fast_food", "brand": "Papa Murphy's", "brand:wikidata": "Q7132349", "check_date": "2024-07-13", "cuisine": "pizza", "name": "Papa Murphy's", "official_name": "Papa Murphy's Take 'N' Bake Pizza", "takeaway": "only"}}, {"type": "node", "id": 4893992334, "lat": 47.8820296, "lon": -122.2802326, "tags": {"amenity": "cafe", "check_date": "2024-02-02", "cuisine": "italian", "name": "Readi Spaghetti"}}, {"type": "node", "id": 4893992335, "lat": 47.881945, "lon": -122.2803453, "tags": {"name": "Unique Reflections", "shop": "yes"}}, {"type": "node", "id": 4893992336, "lat": 47.8818857, "lon": -122.280234, "tags": {"amenity": "fast_food", "brand": "Taco Time NW", "brand:wikidata": "Q7673970", "check_date": "2024-07-13", "cuisine": "mexican", "diet:vegetarian": "yes", "name": "Taco Time", "not:brand:wikidata": "Q7673969", "takeaway": "yes", "website": "https://tacotimenw.com/find-us//"}}, {"type": "node", "id": 4893992351, "lat": 47.8814531, "lon": -122.2809917, "tags": {"name": "Barbara's Floral", "shop": "florist"}}, {"type": "node", "id": 4893994991, "lat": 47.8886291, "lon": -122.2845697, "tags": {"amenity": "restaurant", "cuisine": "chinese", "name": "Golden House Chinese Cuisine"}}, {"type": "node", "id": 4893994992, "lat": 47.8945211, "lon": -122.2894219, "tags": {"name": "Lumber Liquidators", "shop": "doityourself"}}, {"type": "node", "id": 4894057649, "lat": 47.8986303, "lon": -122.2921658, "tags": {"beauty": "nails", "check_date": "2024-02-02", "name": "Lily's Nails", "shop": "beauty"}}, {"type": "node", "id": 4894057650, "lat": 47.8986627, "lon": -122.2920585, "tags": {"amenity": "restaurant", "check_date": "2024-02-02", "cuisine": "pizza", "name": "Garlic Jim's"}}, {"type": "node", "id": 4894057651, "lat": 47.8986932, "lon": -122.2919659, "tags": {"check_date": "2024-02-02", "name": "Panda Cleaners", "shop": "dry_cleaning"}}, {"type": "node", "id": 4894057652, "lat": 47.8987211, "lon": -122.2918721, "tags": {"check_date": "2024-02-02", "name": "Edward Jones Investments", "office": "financial"}}, {"type": "node", "id": 4894057653, "lat": 47.8987602, "lon": -122.2917648, "tags": {"amenity": "restaurant", "check_date": "2024-02-02", "cuisine": "japanese", "name": "Sakuma Japanese Restaurant"}}, {"type": "node", "id": 4894057655, "lat": 47.8986636, "lon": -122.2915328, "tags": {"name": "Glass Vape", "shop": "e-cigarette"}}, {"type": "node", "id": 4894057657, "lat": 47.8987907, "lon": -122.2916354, "tags": {"amenity": "cafe", "cuisine": "donut", "name": "Henry's Donut"}}, {"type": "node", "id": 4894057658, "lat": 47.899221, "lon": -122.2925292, "tags": {"amenity": "fast_food", "cuisine": "sandwich", "name": "Speedway Gyros & Subs"}}, {"type": "node", "id": 4894057659, "lat": 47.9001129, "lon": -122.291275, "tags": {"shop": "sports"}}, {"type": "node", "id": 5249483925, "lat": 47.9016993, "lon": -122.2933602, "tags": {"amenity": "clinic", "name": "The Everett Clinic"}}, {"type": "node", "id": 5249484125, "lat": 47.9002242, "lon": -122.2926491, "tags": {"amenity": "clinic", "healthcare": "clinic", "name": "Snohomish County Radiation Treatment"}}, {"type": "node", "id": 5249484126, "lat": 47.9072871, "lon": -122.2937506, "tags": {"addr:unit": "105", "amenity": "restaurant", "name": "Hani Hani", "phone": "+1-425-512-0188"}}, {"type": "node", "id": 5249493522, "lat": 47.907582, "lon": -122.2938351, "tags": {"amenity": "restaurant", "name": "Blu"}}, {"type": "node", "id": 5249493621, "lat": 47.9074146, "lon": -122.2938447, "tags": {"addr:city": "Mukilteo", "addr:housenumber": "9999", "addr:postcode": "98275", "addr:state": "WA", "addr:street": "Harbour Place", "addr:unit": "102", "amenity": "fast_food", "brand": "Subway", "brand:wikidata": "Q244457", "cuisine": "sandwich", "name": "Subway", "opening_hours": "Mo-Fr 08:00-21:00; Sa-Su 07:00-20:00", "phone": "+1-425-290-3000", "takeaway": "yes", "website": "https://restaurants.subway.com/united-states/wa/mukilteo/9999-harbour-place"}}, {"type": "node", "id": 5249493721, "lat": 47.9096588, "lon": -122.2954545, "tags": {"name": "Pacific Aerospace", "office": "company"}}, {"type": "node", "id": 5249512821, "lat": 47.8977406, "lon": -122.2908934, "tags": {"name": "Professional Collision", "shop": "car_repair"}}, {"type": "node", "id": 5249512822, "lat": 47.8957586, "lon": -122.289497, "tags": {"name": "Advanta Clean", "office": "company"}}, {"type": "node", "id": 5249513026, "lat": 47.8845179, "lon": -122.2822414, "tags": {"brand": "Allstate", "brand:wikidata": "Q2645636", "name": "Allstate", "office": "insurance"}}, {"type": "node", "id": 5249513027, "lat": 47.8843842, "lon": -122.2821303, "tags": {"beauty": "tanning", "name": "Desert Sun Tanning", "shop": "beauty"}}, {"type": "node", "id": 5249513029, "lat": 47.8938998, "lon": -122.2882406, "tags": {"brand": "Les Schwab Tire Center", "brand:wikidata": "Q6529977", "check_date": "2024-07-13", "name": "Les Schwab Tire Center", "shop": "tyres"}}, {"type": "node", "id": 5249513030, "lat": 47.8942138, "lon": -122.2884475, "tags": {"name": "Harbour Pointe Lube Express", "shop": "car_repair"}}, {"type": "node", "id": 5249513221, "lat": 47.8894052, "lon": -122.2839421, "tags": {"name": "Windermere", "office": "estate_agent"}}, {"type": "node", "id": 5249513222, "lat": 47.884644, "lon": -122.2823332, "tags": {"name": "Sunshine Foot", "shop": "beauty"}}, {"type": "node", "id": 5452795385, "lat": 47.9146357, "lon": -122.2980896}, {"type": "node", "id": 5452795386, "lat": 47.9146214, "lon": -122.298074}, {"type": "node", "id": 5452795387, "lat": 47.914611, "lon": -122.2980912}, {"type": "node", "id": 5452795388, "lat": 47.9145742, "lon": -122.298047}, {"type": "node", "id": 5452795389, "lat": 47.914583, "lon": -122.2980282}, {"type": "node", "id": 5452795390, "lat": 47.9145704, "lon": -122.298011}, {"type": "node", "id": 5452795391, "lat": 47.9146209, "lon": -122.2979168}, {"type": "node", "id": 5452795392, "lat": 47.9146341, "lon": -122.2979316}, {"type": "node", "id": 5452795393, "lat": 47.9146582, "lon": -122.2978906}, {"type": "node", "id": 5452795394, "lat": 47.9146961, "lon": -122.2979365}, {"type": "node", "id": 5452795395, "lat": 47.9146741, "lon": -122.2979791}, {"type": "node", "id": 5452795396, "lat": 47.9146856, "lon": -122.2979938}, {"type": "node", "id": 5526519468, "lat": 47.8821172, "lon": -122.2840236}, {"type": "node", "id": 5526519469, "lat": 47.8819725, "lon": -122.2843735}, {"type": "node", "id": 5526519470, "lat": 47.8820782, "lon": -122.2844708}, {"type": "node", "id": 5526519471, "lat": 47.882223, "lon": -122.2841209}, {"type": "node", "id": 5526519472, "lat": 47.8827113, "lon": -122.2846266}, {"type": "node", "id": 5526519473, "lat": 47.8825635, "lon": -122.2849911}, {"type": "node", "id": 5526519474, "lat": 47.8827218, "lon": -122.2851338}, {"type": "node", "id": 5526519475, "lat": 47.8828696, "lon": -122.2847694}, {"type": "node", "id": 5665419916, "lat": 47.8924466, "lon": -122.2870884}, {"type": "node", "id": 5665419917, "lat": 47.8922892, "lon": -122.286987}, {"type": "node", "id": 5665419918, "lat": 47.8922288, "lon": -122.2871956}, {"type": "node", "id": 5665419919, "lat": 47.8921352, "lon": -122.2868684}, {"type": "node", "id": 5665419920, "lat": 47.891932, "lon": -122.2867445}, {"type": "node", "id": 5665419921, "lat": 47.8918736, "lon": -122.2869576}, {"type": "node", "id": 5677078187, "lat": 47.892204, "lon": -122.285814, "tags": {"addr:city": "Mukilteo", "addr:housenumber": "11707B", "addr:postcode": "98275", "addr:state": "WA", "addr:street": "Mukilteo Speedway", "air_conditioning": "yes", "amenity": "cafe", "cuisine": "american", "highchair": "yes", "name": "Mukilteo's Speedway Cafe", "opening_hours": "Mo-Su 07:00-15:00", "outdoor_seating": "no", "phone": "+1-425-347-2000", "smoking": "no", "takeaway": "yes", "toilets": "yes", "website": "http://mukilteospeedway.cafesinc.com/"}}, {"type": "node", "id": 5677080379, "lat": 47.9097158, "lon": -122.2955886, "tags": {"name": "Apache Aerospace", "office": "company"}}, {"type": "node", "id": 6119412555, "lat": 47.9077787, "lon": -122.2936762}, {"type": "node", "id": 6119412556, "lat": 47.9077914, "lon": -122.2936831}, {"type": "node", "id": 6119412557, "lat": 47.9077968, "lon": -122.2937596}, {"type": "node", "id": 6119412558, "lat": 47.9077926, "lon": -122.2937769}, {"type": "node", "id": 6119412559, "lat": 47.9078442, "lon": -122.2938046}, {"type": "node", "id": 6119412560, "lat": 47.9078406, "lon": -122.2938195}, {"type": "node", "id": 6119412561, "lat": 47.9078968, "lon": -122.293585}, {"type": "node", "id": 6119412562, "lat": 47.9079027, "lon": -122.2935604}, {"type": "node", "id": 6119412563, "lat": 47.9077629, "lon": -122.2937415}, {"type": "node", "id": 6119412564, "lat": 47.9078245, "lon": -122.2935462}, {"type": "node", "id": 6119412565, "lat": 47.9079441, "lon": -122.2935826}, {"type": "node", "id": 6119412566, "lat": 47.9078816, "lon": -122.2938415}, {"type": "node", "id": 6296806427, "lat": 47.8858008, "lon": -122.2824863}, {"type": "node", "id": 6296806428, "lat": 47.8856127, "lon": -122.2823476}, {"type": "node", "id": 6296806429, "lat": 47.885574, "lon": -122.2824643}, {"type": "node", "id": 6296806430, "lat": 47.8856386, "lon": -122.2825119}, {"type": "node", "id": 6296806431, "lat": 47.8856348, "lon": -122.2825236}, {"type": "node", "id": 6296806432, "lat": 47.8856586, "lon": -122.2825412}, {"type": "node", "id": 6296806433, "lat": 47.8856639, "lon": -122.2825254}, {"type": "node", "id": 6296806434, "lat": 47.8857635, "lon": -122.2825989}, {"type": "node", "id": 7455817583, "lat": 47.879991, "lon": -122.2847141}, {"type": "node", "id": 7455817584, "lat": 47.8796316, "lon": -122.2838337}, {"type": "node", "id": 7455836785, "lat": 47.8801458, "lon": -122.2830744}, {"type": "node", "id": 7455836786, "lat": 47.8797198, "lon": -122.282521}, {"type": "node", "id": 7455836787, "lat": 47.8793099, "lon": -122.2835702}, {"type": "node", "id": 7455836788, "lat": 47.8796306, "lon": -122.2853362}, {"type": "node", "id": 7455836790, "lat": 47.8797878, "lon": -122.2850953}, {"type": "node", "id": 8332202763, "lat": 47.9021332, "lon": -122.2976975}, {"type": "node", "id": 8332202764, "lat": 47.9021126, "lon": -122.2971204}, {"type": "node", "id": 8332202765, "lat": 47.9018855, "lon": -122.2971384}, {"type": "node", "id": 8332202766, "lat": 47.9019062, "lon": -122.2977186}, {"type": "node", "id": 8349923292, "lat": 47.9043917, "lon": -122.2974989}, {"type": "node", "id": 8349923293, "lat": 47.9041397, "lon": -122.2974124}, {"type": "node", "id": 8349923294, "lat": 47.9042131, "lon": -122.2968802}, {"type": "node", "id": 8349923295, "lat": 47.9044691, "lon": -122.2969618}, {"type": "node", "id": 8685893475, "lat": 47.884327, "lon": -122.2820192, "tags": {"addr:city": "Mukilteo", "addr:housenumber": "12502", "addr:postcode": "98275", "addr:state": "WA", "addr:street": "Mukilteo Speedway", "addr:unit": "ste 101", "brand": "Sherwin-Williams", "brand:wikidata": "Q48881", "name": "Sherwin-Williams", "phone": "+1-425-265-9436", "shop": "paint"}}, {"type": "node", "id": 8685923431, "lat": 47.8942347, "lon": -122.2977232}, {"type": "node", "id": 8685923432, "lat": 47.8944194, "lon": -122.2969153}, {"type": "node", "id": 8685923433, "lat": 47.8942049, "lon": -122.2968079}, {"type": "node", "id": 8685923434, "lat": 47.8941689, "lon": -122.2970064}, {"type": "node", "id": 8685923435, "lat": 47.894028, "lon": -122.2969386}, {"type": "node", "id": 8685923436, "lat": 47.8938965, "lon": -122.2975551}, {"type": "node", "id": 9411405044, "lat": 47.8987959, "lon": -122.3027037}, {"type": "node", "id": 9411405045, "lat": 47.8988187, "lon": -122.3029209}, {"type": "node", "id": 9411416796, "lat": 47.8973931, "lon": -122.3014542}, {"type": "node", "id": 9411416797, "lat": 47.901378, "lon": -122.3001936}, {"type": "node", "id": 9411416798, "lat": 47.9013411, "lon": -122.2998335}, {"type": "node", "id": 9411416799, "lat": 47.9017106, "lon": -122.3006228}, {"type": "node", "id": 9411416800, "lat": 47.9018221, "lon": -122.3008427}, {"type": "node", "id": 9411416801, "lat": 47.9020325, "lon": -122.3011538}, {"type": "node", "id": 9411416802, "lat": 47.9018707, "lon": -122.3031279}, {"type": "node", "id": 9411427776, "lat": 47.9004759, "lon": -122.2996972}, {"type": "node", "id": 9411434579, "lat": 47.9026861, "lon": -122.3004243}, {"type": "node", "id": 9411434580, "lat": 47.9030898, "lon": -122.3002768}, {"type": "node", "id": 9411434581, "lat": 47.9040019, "lon": -122.300555}, {"type": "node", "id": 9411434582, "lat": 47.9038657, "lon": -122.3006362}, {"type": "node", "id": 9411434583, "lat": 47.9023139, "lon": -122.3007689}, {"type": "node", "id": 9411434584, "lat": 47.9020981, "lon": -122.3004645}, {"type": "node", "id": 9411434585, "lat": 47.902082, "lon": -122.2992937}, {"type": "node", "id": 9411434586, "lat": 47.9042496, "lon": -122.2976267}, {"type": "node", "id": 9411434587, "lat": 47.9031492, "lon": -122.2976723}, {"type": "node", "id": 9411434588, "lat": 47.9045319, "lon": -122.2976992}, {"type": "node", "id": 9411434589, "lat": 47.9044681, "lon": -122.2983281}, {"type": "node", "id": 9411434590, "lat": 47.9043746, "lon": -122.2991073}, {"type": "node", "id": 9411443630, "lat": 47.9018933, "lon": -122.2977879}, {"type": "node", "id": 9411443631, "lat": 47.9041003, "lon": -122.3006697}, {"type": "node", "id": 9411565369, "lat": 47.9030458, "lon": -122.3001232}, {"type": "node", "id": 9411674570, "lat": 47.9012791, "lon": -122.3004813}, {"type": "node", "id": 9411674571, "lat": 47.9013348, "lon": -122.3000649}, {"type": "node", "id": 9411674572, "lat": 47.901316, "lon": -122.3002501}, {"type": "node", "id": 9411674573, "lat": 47.901309, "lon": -122.300225}, {"type": "node", "id": 9411674574, "lat": 47.90123, "lon": -122.300179}, {"type": "node", "id": 9411674575, "lat": 47.9012857, "lon": -122.299915}, {"type": "node", "id": 9411674576, "lat": 47.901329, "lon": -122.2999105}, {"type": "node", "id": 9411674577, "lat": 47.9012238, "lon": -122.3000641}, {"type": "node", "id": 9411674578, "lat": 47.9012157, "lon": -122.2998825}, {"type": "node", "id": 9411674579, "lat": 47.9011676, "lon": -122.2999294}, {"type": "node", "id": 9411674580, "lat": 47.9012268, "lon": -122.3001158}, {"type": "node", "id": 9411674581, "lat": 47.9013609, "lon": -122.3002043}, {"type": "node", "id": 9411674582, "lat": 47.901329, "lon": -122.300553}, {"type": "node", "id": 9411674583, "lat": 47.9012304, "lon": -122.3003964}, {"type": "node", "id": 9411674584, "lat": 47.9013663, "lon": -122.3002245}, {"type": "node", "id": 9411674585, "lat": 47.9014391, "lon": -122.3003525}, {"type": "node", "id": 9411674586, "lat": 47.9014517, "lon": -122.3003458}, {"type": "node", "id": 9411674587, "lat": 47.9012229, "lon": -122.3003794}, {"type": "node", "id": 9411674588, "lat": 47.9011757, "lon": -122.3002084}, {"type": "node", "id": 9411687362, "lat": 47.9019461, "lon": -122.2980326}, {"type": "node", "id": 9411687363, "lat": 47.9020138, "lon": -122.298037}, {"type": "node", "id": 9411687364, "lat": 47.9022473, "lon": -122.2980119}, {"type": "node", "id": 9411687365, "lat": 47.9022439, "lon": -122.2979424}, {"type": "node", "id": 9411687366, "lat": 47.9020105, "lon": -122.2979675}, {"type": "node", "id": 9411687367, "lat": 47.9023026, "lon": -122.2980072}, {"type": "node", "id": 9411687368, "lat": 47.9025745, "lon": -122.297978}, {"type": "node", "id": 9411687369, "lat": 47.9022992, "lon": -122.2979365}, {"type": "node", "id": 9411687370, "lat": 47.9025363, "lon": -122.297735}, {"type": "node", "id": 9411687371, "lat": 47.9022437, "lon": -122.2977664}, {"type": "node", "id": 9411687372, "lat": 47.9022474, "lon": -122.2978437}, {"type": "node", "id": 9411687373, "lat": 47.9025401, "lon": -122.2978123}, {"type": "node", "id": 9411687374, "lat": 47.9025664, "lon": -122.2978095}, {"type": "node", "id": 9411687375, "lat": 47.9021923, "lon": -122.2978497}, {"type": "node", "id": 9411687376, "lat": 47.9018369, "lon": -122.2981757}, {"type": "node", "id": 9411687377, "lat": 47.9019433, "lon": -122.2979747}, {"type": "node", "id": 9411687378, "lat": 47.9018278, "lon": -122.2979871}, {"type": "node", "id": 9411687379, "lat": 47.9018235, "lon": -122.2978974}, {"type": "node", "id": 9411687380, "lat": 47.9018991, "lon": -122.2978892}, {"type": "node", "id": 9411687381, "lat": 47.902189, "lon": -122.297781}, {"type": "node", "id": 9411687382, "lat": 47.9018954, "lon": -122.2978125}, {"type": "node", "id": 9411687383, "lat": 47.9025209, "lon": -122.2983544}, {"type": "node", "id": 9411687384, "lat": 47.9027012, "lon": -122.2979407}, {"type": "node", "id": 9411687385, "lat": 47.9027432, "lon": -122.2979815}, {"type": "node", "id": 9411687386, "lat": 47.902563, "lon": -122.2983952}, {"type": "node", "id": 9411687387, "lat": 47.9021214, "lon": -122.2981604}, {"type": "node", "id": 9411687388, "lat": 47.9021508, "lon": -122.2984016}, {"type": "node", "id": 9411687389, "lat": 47.9021849, "lon": -122.2982973}, {"type": "node", "id": 9411687390, "lat": 47.9023797, "lon": -122.2984393}, {"type": "node", "id": 9411687391, "lat": 47.9021422, "lon": -122.2980968}, {"type": "node", "id": 9411687392, "lat": 47.9024245, "lon": -122.2983027}, {"type": "node", "id": 9411703085, "lat": 47.8981938, "lon": -122.3012075}, {"type": "node", "id": 9411703086, "lat": 47.8980985, "lon": -122.3012652}, {"type": "node", "id": 9411703087, "lat": 47.8982819, "lon": -122.3013443}, {"type": "node", "id": 9411703088, "lat": 47.8983066, "lon": -122.3015937}, {"type": "node", "id": 9411703089, "lat": 47.8982486, "lon": -122.3016051}, {"type": "node", "id": 9411704721, "lat": 47.8969744, "lon": -122.3013511}, {"type": "node", "id": 9411726054, "lat": 47.9028224, "lon": -122.2974219}, {"type": "node", "id": 9411726055, "lat": 47.9028237, "lon": -122.2974653}, {"type": "node", "id": 9411726056, "lat": 47.9027705, "lon": -122.2974671}, {"type": "node", "id": 9411726057, "lat": 47.9028092, "lon": -122.2974227}, {"type": "node", "id": 9411726058, "lat": 47.9027543, "lon": -122.2974263}, {"type": "node", "id": 9411726059, "lat": 47.902754, "lon": -122.2974147}, {"type": "node", "id": 9411726060, "lat": 47.9027985, "lon": -122.297061}, {"type": "node", "id": 9411726061, "lat": 47.902629, "lon": -122.2974229}, {"type": "node", "id": 9411726062, "lat": 47.9026187, "lon": -122.2970729}, {"type": "node", "id": 9411726063, "lat": 47.9017088, "lon": -122.2971047}, {"type": "node", "id": 9411726064, "lat": 47.9018838, "lon": -122.2970908}, {"type": "node", "id": 9411726065, "lat": 47.9017105, "lon": -122.2971523}, {"type": "node", "id": 9411726066, "lat": 47.901717, "lon": -122.2973344}, {"type": "node", "id": 9411726067, "lat": 47.9017718, "lon": -122.2973301}, {"type": "node", "id": 9411726068, "lat": 47.9017777, "lon": -122.2974933}, {"type": "node", "id": 9411726069, "lat": 47.901841, "lon": -122.2974882}, {"type": "node", "id": 9411726070, "lat": 47.9018467, "lon": -122.2976486}, {"type": "node", "id": 9411726071, "lat": 47.9019035, "lon": -122.2976441}, {"type": "node", "id": 9411726072, "lat": 47.9021698, "lon": -122.2971158}, {"type": "node", "id": 9411726073, "lat": 47.9021759, "lon": -122.2972871}, {"type": "node", "id": 9411726074, "lat": 47.9021187, "lon": -122.2972916}, {"type": "node", "id": 9411804699, "lat": 47.8968024, "lon": -122.290334}, {"type": "node", "id": 9411804700, "lat": 47.8969903, "lon": -122.2904627}, {"type": "node", "id": 9411804701, "lat": 47.8970375, "lon": -122.2903097}, {"type": "node", "id": 9411804702, "lat": 47.8968495, "lon": -122.2901809}, {"type": "node", "id": 9414250000, "lat": 47.9050929, "lon": -122.2966196}, {"type": "node", "id": 9518332330, "lat": 47.879914, "lon": -122.2835172}, {"type": "node", "id": 9978887178, "lat": 47.885178, "lon": -122.2872499}, {"type": "node", "id": 9978887179, "lat": 47.8854559, "lon": -122.2863579}, {"type": "node", "id": 9978887180, "lat": 47.8852022, "lon": -122.2861829}, {"type": "node", "id": 9978887181, "lat": 47.8851152, "lon": -122.2864619}, {"type": "node", "id": 9978887182, "lat": 47.8850827, "lon": -122.2864399}, {"type": "node", "id": 9978887183, "lat": 47.8850318, "lon": -122.2866029}, {"type": "node", "id": 9978887184, "lat": 47.885066, "lon": -122.2866269}, {"type": "node", "id": 9978887185, "lat": 47.8849261, "lon": -122.2870759}, {"type": "node", "id": 9978892860, "lat": 47.8874938, "lon": -122.2846359}, {"type": "node", "id": 9978892861, "lat": 47.8875072, "lon": -122.2845494}, {"type": "node", "id": 9978892862, "lat": 47.8875237, "lon": -122.284555}, {"type": "node", "id": 9978892863, "lat": 47.8875407, "lon": -122.2844455}, {"type": "node", "id": 9978892864, "lat": 47.8875204, "lon": -122.2844386}, {"type": "node", "id": 9978892865, "lat": 47.8875329, "lon": -122.2843575}, {"type": "node", "id": 9978892866, "lat": 47.8871075, "lon": -122.2842112}, {"type": "node", "id": 9978892867, "lat": 47.8870944, "lon": -122.2842958}, {"type": "node", "id": 9978892868, "lat": 47.8870779, "lon": -122.2842901}, {"type": "node", "id": 9978892869, "lat": 47.8870614, "lon": -122.284397}, {"type": "node", "id": 9978892870, "lat": 47.8870779, "lon": -122.2844027}, {"type": "node", "id": 9978892871, "lat": 47.8870647, "lon": -122.284488}, {"type": "node", "id": 9978892940, "lat": 47.8827167, "lon": -122.2804488}, {"type": "node", "id": 9978892941, "lat": 47.8827438, "lon": -122.2803584}, {"type": "node", "id": 9978892942, "lat": 47.88282, "lon": -122.2804091}, {"type": "node", "id": 9978892969, "lat": 47.8832157, "lon": -122.2799501}, {"type": "node", "id": 9978892970, "lat": 47.8832604, "lon": -122.2798045}, {"type": "node", "id": 9978892971, "lat": 47.8834752, "lon": -122.279953}, {"type": "node", "id": 9978893276, "lat": 47.8885481, "lon": -122.2833791}, {"type": "node", "id": 9978893277, "lat": 47.8885719, "lon": -122.2837628}, {"type": "node", "id": 9978893278, "lat": 47.8885888, "lon": -122.2837604}, {"type": "node", "id": 9978893279, "lat": 47.8885953, "lon": -122.283864}, {"type": "node", "id": 9978893280, "lat": 47.8886308, "lon": -122.2838591}, {"type": "node", "id": 9978893281, "lat": 47.888632, "lon": -122.2838794}, {"type": "node", "id": 9978893282, "lat": 47.8886881, "lon": -122.2838717}, {"type": "node", "id": 9978893283, "lat": 47.8886868, "lon": -122.2838508}, {"type": "node", "id": 9978893284, "lat": 47.8890126, "lon": -122.2838063}, {"type": "node", "id": 9978893285, "lat": 47.8890137, "lon": -122.2838253}, {"type": "node", "id": 9978893286, "lat": 47.8891243, "lon": -122.2838102}, {"type": "node", "id": 9978893287, "lat": 47.889123, "lon": -122.283789}, {"type": "node", "id": 9978893288, "lat": 47.8891881, "lon": -122.2837801}, {"type": "node", "id": 9978893289, "lat": 47.8892606, "lon": -122.2833142}, {"type": "node", "id": 9978893290, "lat": 47.8892551, "lon": -122.2832268}, {"type": "node", "id": 9978893291, "lat": 47.8890872, "lon": -122.2832499}, {"type": "node", "id": 9978893292, "lat": 47.8890906, "lon": -122.2833042}, {"type": "node", "id": 9978893458, "lat": 47.8903939, "lon": -122.2847568}, {"type": "node", "id": 9978893459, "lat": 47.8903729, "lon": -122.2848229}, {"type": "node", "id": 9978893460, "lat": 47.8904892, "lon": -122.2848255}, {"type": "node", "id": 9978893461, "lat": 47.8905028, "lon": -122.2848351}, {"type": "node", "id": 9978893462, "lat": 47.8905322, "lon": -122.284742}, {"type": "node", "id": 9978893463, "lat": 47.8905218, "lon": -122.2847347}, {"type": "node", "id": 9978893464, "lat": 47.8905594, "lon": -122.2846161}, {"type": "node", "id": 9978893465, "lat": 47.8905668, "lon": -122.2846213}, {"type": "node", "id": 9978893466, "lat": 47.8905828, "lon": -122.2845705}, {"type": "node", "id": 9978893467, "lat": 47.8905732, "lon": -122.2845637}, {"type": "node", "id": 9978893468, "lat": 47.8905823, "lon": -122.2845349}, {"type": "node", "id": 9978893469, "lat": 47.8905919, "lon": -122.2845417}, {"type": "node", "id": 10255032703, "lat": 47.9006128, "lon": -122.2938501, "tags": {"brand": "Fastenal", "brand:wikidata": "Q3067119", "name": "Fastenal", "shop": "trade"}}, {"type": "node", "id": 10261429942, "lat": 47.8851046, "lon": -122.2875123}, {"type": "node", "id": 10261429943, "lat": 47.8851683, "lon": -122.2872936}, {"type": "node", "id": 10261429944, "lat": 47.8849016, "lon": -122.2871102}, {"type": "node", "id": 10261429945, "lat": 47.8850187, "lon": -122.2867214}, {"type": "node", "id": 10261429946, "lat": 47.8849653, "lon": -122.2866817}, {"type": "node", "id": 10261429947, "lat": 47.8850601, "lon": -122.2863857}, {"type": "node", "id": 10261429948, "lat": 47.8851183, "lon": -122.2864286}, {"type": "node", "id": 10261429949, "lat": 47.8852803, "lon": -122.2859164}, {"type": "node", "id": 10261429950, "lat": 47.8846528, "lon": -122.2854386}, {"type": "node", "id": 10261429951, "lat": 47.8842019, "lon": -122.2868903}, {"type": "node", "id": 10265622068, "lat": 47.8920951, "lon": -122.2857401, "tags": {"addr:city": "Mukilteo", "addr:housenumber": "11707A", "addr:postcode": "98275", "addr:state": "WA", "addr:street": "Mukilteo Speedway", "amenity": "restaurant", "name": "The Little Tavern", "phone": "+1-425-374-3546", "website": "https://www.thelittletavern.com/"}}, {"type": "node", "id": 10589863972, "lat": 47.9001786, "lon": -122.2915999}, {"type": "node", "id": 10589863973, "lat": 47.9002414, "lon": -122.2913785}, {"type": "node", "id": 10589863974, "lat": 47.9000221, "lon": -122.2912401}, {"type": "node", "id": 10589863975, "lat": 47.8999593, "lon": -122.2914615}, {"type": "node", "id": 10589930204, "lat": 47.8931592, "lon": -122.2885397, "tags": {"addr:city": "Mukilteo", "addr:housenumber": "11700", "addr:postcode": "98275", "addr:state": "WA", "addr:street": "Mukilteo Speedway", "addr:unit": "#507", "amenity": "veterinary", "name": "Mukilteo Vetrinary Hospital"}}, {"type": "node", "id": 10635473155, "lat": 47.8934045, "lon": -122.2881528, "tags": {"access": "customers", "amenity": "compressed_air", "covered": "no", "fee": "yes", "operator": "QFC", "payment:contactless": "yes", "payment:credit_cards": "yes"}}, {"type": "node", "id": 10648012603, "lat": 47.912415, "lon": -122.3001264}, {"type": "node", "id": 10648012604, "lat": 47.9124161, "lon": -122.3000302}, {"type": "node", "id": 10648012605, "lat": 47.912482, "lon": -122.3000318}, {"type": "node", "id": 10648012606, "lat": 47.9124809, "lon": -122.3001281}, {"type": "node", "id": 10700674165, "lat": 47.9063232, "lon": -122.2940662, "tags": {"addr:city": "Mukilteo", "addr:housenumber": "10100", "addr:postcode": "98275", "addr:state": "WA", "addr:street": "Mukilteo Speedway", "addr:unit": "105", "check_date": "2024-07-13", "name": "Bella Blow Dry", "shop": "hairdresser"}}, {"type": "node", "id": 10700676462, "lat": 47.9062163, "lon": -122.2940678, "tags": {"addr:city": "Mukilteo", "addr:housenumber": "10100", "addr:postcode": "98275", "addr:state": "WA", "addr:street": "Mukilteo Speedway", "addr:unit": "103", "check_date": "2024-07-13", "name": "Speedway Cleaners", "shop": "dry_cleaning"}}, {"type": "node", "id": 10700706684, "lat": 47.8943993, "lon": -122.2886119, "tags": {"name": "Kushmans", "shop": "cannabis"}}, {"type": "node", "id": 10700706862, "lat": 47.906432, "lon": -122.2940662, "tags": {"addr:city": "Mukilteo", "addr:housenumber": "10100", "addr:postcode": "98275", "addr:state": "WA", "addr:street": "Mukilteo Speedway", "addr:unit": "108", "beauty": "nails", "check_date": "2024-07-13", "name": "Serenity Nails & Spa", "shop": "beauty"}}, {"type": "node", "id": 10971359784, "lat": 47.8829111, "lon": -122.2808403, "tags": {"name": "Prince Cleaners", "shop": "dry_cleaning"}}, {"type": "node", "id": 10971359785, "lat": 47.8828056, "lon": -122.280773, "tags": {"name": "Unique Reflections In Hair", "shop": "hairdresser"}}, {"type": "node", "id": 11101468221, "lat": 47.9057212, "lon": -122.2962485}, {"type": "node", "id": 11101468222, "lat": 47.9055057, "lon": -122.2959727}, {"type": "node", "id": 11101468223, "lat": 47.9053729, "lon": -122.2962195}, {"type": "node", "id": 11101468224, "lat": 47.9052882, "lon": -122.2961083}, {"type": "node", "id": 11101468225, "lat": 47.9052262, "lon": -122.2962194}, {"type": "node", "id": 11101468226, "lat": 47.905282, "lon": -122.2962906}, {"type": "node", "id": 11101468227, "lat": 47.9052197, "lon": -122.2963795}, {"type": "node", "id": 11101468228, "lat": 47.9052065, "lon": -122.2965349}, {"type": "node", "id": 11101468229, "lat": 47.90533, "lon": -122.2970255}, {"type": "node", "id": 11101468230, "lat": 47.905378, "lon": -122.296931}, {"type": "node", "id": 11101468231, "lat": 47.9054791, "lon": -122.2970453}, {"type": "node", "id": 11101468232, "lat": 47.9055343, "lon": -122.2969432}, {"type": "node", "id": 11101468233, "lat": 47.9055037, "lon": -122.2968975}, {"type": "node", "id": 11101468234, "lat": 47.9055455, "lon": -122.2968137}, {"type": "node", "id": 11101468235, "lat": 47.9055792, "lon": -122.2968091}, {"type": "node", "id": 11101468236, "lat": 47.9056589, "lon": -122.2966705}, {"type": "node", "id": 11101468237, "lat": 47.9056589, "lon": -122.2966156}, {"type": "node", "id": 11101468238, "lat": 47.9055935, "lon": -122.2965227}, {"type": "node", "id": 11189912834, "lat": 47.898917, "lon": -122.2926346}, {"type": "node", "id": 11189912835, "lat": 47.8987562, "lon": -122.2928767}, {"type": "node", "id": 11189912836, "lat": 47.8993528, "lon": -122.2931626}, {"type": "node", "id": 11189989437, "lat": 47.89924, "lon": -122.2933495}, {"type": "node", "id": 11189989438, "lat": 47.8990445, "lon": -122.2935655}, {"type": "node", "id": 11189989439, "lat": 47.8990182, "lon": -122.2935049}, {"type": "node", "id": 11189989440, "lat": 47.8989162, "lon": -122.2936051}, {"type": "node", "id": 11189989441, "lat": 47.8988312, "lon": -122.2934111}, {"type": "node", "id": 11189989442, "lat": 47.8989426, "lon": -122.2933152}, {"type": "node", "id": 11196406106, "lat": 47.8987323, "lon": -122.2915807, "tags": {"amenity": "fast_food", "check_date": "2023-09-16", "cuisine": "poke", "name": "Poke Pekoe"}}, {"type": "node", "id": 11627310364, "lat": 47.8887208, "lon": -122.2913816, "tags": {"addr:city": "Mukilteo", "addr:housenumber": "4333", "addr:postcode": "98275", "addr:state": "WA", "addr:street": "Harbour Pointe Boulevard Southwest", "addr:unit": "2", "name": "Senske Services", "office": "yes", "website": "https://senske.com/"}}, {"type": "node", "id": 11833823842, "lat": 47.9145792, "lon": -122.2980949, "tags": {"access": "yes", "amenity": "drinking_water", "fee": "no", "wheelchair": "yes"}}, {"type": "node", "id": 11833844571, "lat": 47.910344, "lon": -122.298322, "tags": {"amenity": "bench", "backrest": "no", "material": "wood"}}, {"type": "node", "id": 11833844572, "lat": 47.9103552, "lon": -122.2982777, "tags": {"amenity": "bench", "backrest": "no", "material": "wood"}}, {"type": "node", "id": 11833854833, "lat": 47.9142489, "lon": -122.2977023, "tags": {"amenity": "bench", "backrest": "yes", "colour": "green", "material": "metal"}}, {"type": "node", "id": 11833854834, "lat": 47.91411, "lon": -122.2978519, "tags": {"amenity": "bench", "backrest": "yes", "colour": "green", "material": "metal"}}, {"type": "node", "id": 11833891572, "lat": 47.9134209, "lon": -122.2970135, "tags": {"amenity": "bench", "backrest": "no", "material": "wood"}}, {"type": "node", "id": 12051042842, "lat": 47.906376, "lon": -122.2940655, "tags": {"addr:city": "Mukilteo", "addr:housenumber": "10100", "addr:postcode": "98275", "addr:state": "WA", "addr:street": "Mukilteo Speedway", "addr:unit": "106", "amenity": "restaurant", "check_date": "2024-07-13", "cuisine": "italian", "name": "Bite Of New York"}}, {"type": "node", "id": 12051042843, "lat": 47.9062781, "lon": -122.2940663, "tags": {"addr:city": "Mukilteo", "addr:housenumber": "10100", "addr:postcode": "98275", "addr:state": "WA", "addr:street": "Mukilteo Speedway", "addr:unit": "104", "amenity": "driving_school", "check_date": "2024-07-13", "name": "Defensive Driving School"}}, {"type": "node", "id": 12051438159, "lat": 47.9065137, "lon": -122.2940648, "tags": {"addr:city": "Mukilteo", "addr:housenumber": "10100", "addr:postcode": "98275", "addr:state": "WA", "addr:street": "Mukilteo Speedway", "addr:unit": "110", "check_date": "2024-07-13", "name": "PNW Meat & Seafood", "shop": "yes"}}, {"type": "node", "id": 12142529087, "lat": 47.8814008, "lon": -122.2905714, "tags": {"amenity": "bench", "armrest": "yes", "backrest": "yes", "material": "wood_or_composite", "seats": "3"}}, {"type": "node", "id": 12142529088, "lat": 47.8816266, "lon": -122.290334, "tags": {"amenity": "bench", "armrest": "yes", "backrest": "yes", "material": "wood_or_composite", "seats": "3"}}, {"type": "node", "id": 12150562047, "lat": 47.9056804, "lon": -122.296631, "tags": {"amenity": "polling_station", "polling_station": "ballot_box"}}, {"type": "node", "id": 13270520150, "lat": 47.8803749, "lon": -122.2836369, "tags": {"addr:city": "Lynnwood", "addr:housenumber": "12925", "addr:postcode": "98087", "addr:state": "WA", "addr:street": "Beverly Park Road", "amenity": "cafe", "cuisine": "coffee_shop", "name": "One Shot Espresso", "opening_hours": "Mo-Fr 05:00-15:00, Sa 06:00-15:30, Su 07:00-15:00", "outdoor_seating": "no"}}, {"type": "way", "id": 290573383, "nodes": [2940874630, 9978893459, 9978893458, 2940874631, 2940874632, 2940874633, 9978893469, 9978893468, 9978893467, 9978893466, 9978893465, 9978893464, 9978893463, 9978893462, 9978893461, 9978893460, 2940874630], "tags": {"addr:city": "Mukilteo", "addr:housenumber": "3717", "addr:postcode": "98275", "addr:state": "WA", "addr:street": "Harbour Pointe Boulevard Southwest", "amenity": "fast_food", "brand": "McDonald's", "brand:wikidata": "Q38076", "building": "yes", "cuisine": "burger", "drive_through": "yes", "internet_access": "wlan", "name": "McDonald's", "opening_hours": "06:00-22:00", "phone": "+1-425-355-8444", "takeaway": "yes", "website": "https://www.mcdonalds.com/us/en-us/location/13759.html"}}, {"type": "way", "id": 308924829, "nodes": [3142134572, 3142134573, 3142134574, 3142134575, 9411416801, 3142134576, 9411416800, 9411416799, 3142134577, 3142134578, 9411674586, 9411416797, 9411416798, 3142134579, 3142134580, 9411427776, 3142134581, 3142134583, 3142134584, 3142134585, 4890717037, 3142134586, 3142134587, 4890717032, 3142134588, 9411704721, 3142134589, 9411416796, 3142134590, 9411703086, 9411703085, 3142134591, 9411703087, 9411703088, 9411703089, 3142134592, 3142134593, 9411405044, 9411405045, 3142134596, 9411416802, 3142134572], "tags": {"amenity": "school", "mascot": "Knights", "name": "Kamiak High School", "wikidata": "Q14713770"}}, {"type": "way", "id": 329607998, "nodes": [3365187176, 9411443631, 4717874140, 9411434590, 3365187177, 9411434589, 9411434588, 9411434586, 9411434587, 9411443630, 3365187179, 3365187180, 3365187181, 9411434585, 3365187182, 3365187183, 9411434584, 3365187184, 9411434583, 3365187185, 3365187186, 9411434579, 9411434580, 9411434582, 9411434581, 3365187176], "tags": {"addr:city": "Mukilteo", "addr:housenumber": "5000", "addr:postcode": "98275", "addr:state": "WA", "addr:street": "Harbour Pointe Boulevard", "amenity": "school", "mascot": "Hawks", "name": "Harbour Pointe Middle School", "operator": "Mukilteo School District", "wikidata": "Q5654854"}}, {"type": "way", "id": 478551556, "nodes": [4717887145, 9411565369, 4717887146, 4717887147, 4717887148, 4717887149, 4717887150, 4717887151, 4717887152, 4717887153, 4717887154, 4717887155, 4717887156, 4717887157, 4717887158, 4717887145], "tags": {"amenity": "parking"}}, {"type": "way", "id": 566242359, "nodes": [5452795385, 5452795386, 5452795387, 5452795388, 5452795389, 5452795390, 5452795391, 5452795392, 5452795393, 5452795394, 5452795395, 5452795396, 5452795385], "tags": {"amenity": "toilets", "building": "yes"}}, {"type": "way", "id": 576108594, "nodes": [5526519471, 5526519470, 5526519469, 5526519468, 5526519471], "tags": {"amenity": "parking"}}, {"type": "way", "id": 576108596, "nodes": [5526519475, 5526519474, 5526519473, 5526519472, 5526519475], "tags": {"amenity": "parking", "parking": "surface"}}, {"type": "way", "id": 594003738, "nodes": [4893992269, 5665419916, 5665419917, 5665419918, 4893992269], "tags": {"amenity": "restaurant", "building": "yes", "check_date": "2024-02-02", "cuisine": "mongolian_grill", "disused:website": "https://www.mukilteofamilyrestaurant.com/", "name": "Big Chicken"}}, {"type": "way", "id": 594003742, "nodes": [4893992285, 5665419919, 5665419920, 5665419921, 4893992285], "tags": {"amenity": "bank", "atm": "yes", "brand": "KeyBank", "brand:wikidata": "Q1740314", "building": "yes", "name": "KeyBank"}}, {"type": "way", "id": 652862014, "nodes": [6119412566, 6119412565, 6119412562, 6119412561, 6119412564, 6119412556, 6119412555, 6119412563, 6119412557, 6119412558, 6119412559, 6119412560, 6119412566], "tags": {"amenity": "bank", "building": "yes", "name": "Bank of Washington"}}, {"type": "way", "id": 672423547, "nodes": [6296806427, 6296806428, 6296806429, 6296806430, 6296806431, 6296806432, 6296806433, 6296806434, 6296806427], "tags": {"building": "yes", "name": "H and E Equipment", "shop": "trade", "website": "https://www.he-equipment.com/locations/lynnwood-wa"}}, {"type": "way", "id": 797216637, "nodes": [7455817583, 7455817584, 9518332330, 7455836785, 7455836786, 7455836787, 7455836788, 7455836790, 7455817583], "tags": {"addr:city": "Lynnwood", "addr:housenumber": "1301", "addr:postcode": "98087", "addr:state": "WA", "addr:street": "Beverly Park Road", "landuse": "garages", "name": "Flight Line Storage", "phone": "+1-425-382-8405", "shop": "storage_rental", "website": "flightlinestoragewa.com"}}, {"type": "way", "id": 896346838, "nodes": [8332202763, 9411726074, 9411726073, 9411726072, 8332202764, 8332202765, 9411726064, 9411726063, 9411726065, 9411726066, 9411726067, 9411726068, 9411726069, 9411726070, 9411726071, 8332202766, 8332202763], "tags": {"amenity": "social_facility", "brand": "Boys & Girls Club", "brand:wikidata": "Q2923055", "building": "yes", "name": "Boys & Girls Club", "social_facility": "outreach", "social_facility:for": "children"}}, {"type": "way", "id": 898556778, "nodes": [8349923292, 8349923293, 8349923294, 8349923295, 8349923292], "tags": {"addr:city": "Mukilteo", "addr:housenumber": "10400", "addr:postcode": "98275", "addr:state": "WA", "addr:street": "47th Place West", "amenity": "fire_station", "building": "fire_station", "name": "Mukilteo Fire Station 25 building", "operator": "Mukilteo Fire District"}}, {"type": "way", "id": 937448345, "nodes": [8685923431, 8685923432, 8685923433, 8685923434, 8685923435, 8685923436, 8685923431], "tags": {"amenity": "place_of_worship", "building": "yes", "name": "Spring of Life Church", "religion": "christian"}}, {"type": "way", "id": 1020439908, "nodes": [9411674587, 9411674583, 9411674570, 9411674582, 9411674585, 9411674584, 9411674572, 9411674573, 9411674581, 9411674571, 9411674576, 9411674575, 9411674578, 9411674579, 9411674577, 9411674580, 9411674574, 9411674588, 9411674587], "tags": {"amenity": "parking"}}, {"type": "way", "id": 1020442660, "nodes": [9411687380, 9411687379, 9411687378, 9411687376, 9411687388, 9411687389, 9411687390, 9411687392, 9411687391, 9411687387, 9411687362, 9411687377, 9411687366, 9411687363, 9411687364, 9411687365, 9411687369, 9411687367, 9411687368, 9411687374, 9411687373, 9411687370, 9411687371, 9411687372, 9411687375, 9411687381, 9411687382, 9411687380], "tags": {"amenity": "parking", "parking": "surface"}}, {"type": "way", "id": 1020442661, "nodes": [9411687386, 9411687385, 9411687384, 9411687383, 9411687386], "tags": {"amenity": "parking", "parking": "surface"}}, {"type": "way", "id": 1020444322, "nodes": [9411726060, 9411726062, 9411726061, 9411726059, 9411726058, 9411726056, 9411726055, 9411726054, 9411726057, 9411726060], "tags": {"amenity": "parking", "parking": "surface"}}, {"type": "way", "id": 1020455005, "nodes": [9411804702, 9411804699, 9411804700, 9411804701, 9411804702], "tags": {"addr:city": "Mukilteo", "addr:housenumber": "11126", "addr:postcode": "98275", "addr:state": "WA", "addr:street": "Mukilteo Speedway", "building": "yes", "name": "Camp Canine Doggy Day Care", "phone": "+1-425-493-2543", "shop": "pet_grooming"}}, {"type": "way", "id": 1089351483, "nodes": [9978887178, 9978887179, 9978887180, 9978887181, 9978887182, 9978887183, 9978887184, 9978887185, 9978887178], "tags": {"addr:city": "Mukilteo", "addr:housenumber": "12420", "addr:postcode": "98275", "addr:state": "WA", "addr:street": "Evergreen Drive", "amenity": "place_of_worship", "building": "yes", "denomination": "protestant", "name": "Sulamita Slavic Church", "religion": "christian", "service_times": "Su 09:00,12:00,18:00", "website": "https://seattlesulamita.com/en/"}}, {"type": "way", "id": 1089351511, "nodes": [9978892860, 9978892861, 9978892862, 9978892863, 9978892864, 9978892865, 9978892866, 9978892867, 9978892868, 9978892869, 9978892870, 9978892871, 9978892860], "tags": {"addr:city": "Mukilteo", "addr:housenumber": "12138", "addr:postcode": "98275", "addr:state": "WA", "addr:street": "Mukilteo Speedway", "amenity": "dentist", "building": "yes", "healthcare": "dentist", "name": "Mukilteo Dental Center"}}, {"type": "way", "id": 1089351524, "nodes": [4890716140, 9978892940, 9978892941, 9978892942, 4890716140], "tags": {"amenity": "fuel", "brand": "7-Eleven", "brand:wikidata": "Q259340", "building": "roof", "compressed_air": "yes", "layer": "1", "name": "7-Eleven"}}, {"type": "way", "id": 1089351530, "nodes": [4890716137, 9978892969, 9978892970, 9978892971, 4890716137], "tags": {"amenity": "fuel", "brand": "Chevron", "brand:wikidata": "Q319642", "building": "roof", "layer": "1", "name": "Chevron"}}, {"type": "way", "id": 1089351588, "nodes": [9978893276, 9978893277, 9978893278, 9978893279, 9978893280, 9978893281, 9978893282, 9978893283, 9978893284, 9978893285, 9978893286, 9978893287, 9978893288, 9978893289, 9978893290, 9978893291, 9978893292, 9978893276], "tags": {"addr:city": "Mukilteo", "addr:housenumber": "12025", "addr:postcode": "98275", "addr:state": "WA", "addr:street": "Mukilteo Speedway", "building": "yes", "name": "Money Saver Mini Storage", "phone": "+1-425-341-1822", "shop": "storage_rental"}}, {"type": "way", "id": 1121934031, "nodes": [10261429942, 10261429943, 10261429944, 10261429945, 10261429946, 10261429947, 10261429948, 10261429949, 10261429950, 10261429951, 10261429942], "tags": {"amenity": "parking"}}, {"type": "way", "id": 1136024516, "nodes": [10589863972, 10589863973, 10589863974, 10589863975, 10589863972], "tags": {"addr:city": "Mukilteo", "addr:housenumber": "10809", "addr:postcode": "98275", "addr:state": "WA", "addr:street": "Mukilteo Speedway", "amenity": "restaurant", "building": "yes", "name": "Tapped", "phone": "+1-425-374-8677", "website": "https://www.tappedpublichouse.com/"}}, {"type": "way", "id": 1143823688, "nodes": [10648012606, 10648012605, 10648012604, 10648012603, 10648012606], "tags": {"amenity": "letter_box", "building": "yes"}}, {"type": "way", "id": 1196342183, "nodes": [11101468221, 11101468222, 11101468223, 11101468224, 11101468225, 11101468226, 11101468227, 11101468228, 9414250000, 2635696612, 11101468229, 11101468230, 11101468231, 11101468232, 11101468233, 11101468234, 11101468235, 11101468236, 11101468237, 11101468238, 11101468221], "tags": {"amenity": "parking"}}, {"type": "way", "id": 1207694434, "nodes": [11189912835, 11189912834, 11189912836, 11189989437, 11189989438, 11189989439, 11189989440, 11189989441, 11189989442, 11189912835], "tags": {"access": "customers", "amenity": "parking", "capacity:disabled": "44", "fee": "no", "parking": "surface", "surface": "asphalt"}}]}