{"version": 0.6, "generator": "Overpass API 0.7.62.8 e802775f", "osm3s": {"timestamp_osm_base": "2025-12-12T17:47:18Z", "copyright": "The data included in this document is from www.openstreetmap.org. The data is made available under ODbL."}, "elements": [{"type": "node", "id": 3313384297, "lat": 40.261536, "lon": -103.7699989}, {"type": "node", "id": 3313384298, "lat": 40.2613955, "lon": -103.7699984}, {"type": "node", "id": 3313384299, "lat": 40.2613952, "lon": -103.7701652}, {"type": "node", "id": 3313384300, "lat": 40.2612762, "lon": -103.7701648}, {"type": "node", "id": 3313384301, "lat": 40.2612762, "lon": -103.7702104}, {"type": "node", "id": 3313384302, "lat": 40.2611571, "lon": -103.7702102}, {"type": "node", "id": 3313384303, "lat": 40.2611572, "lon": -103.7701534}, {"type": "node", "id": 3313384304, "lat": 40.2607462, "lon": -103.7701531}, {"type": "node", "id": 3313384305, "lat": 40.2607462, "lon": -103.7701992}, {"type": "node", "id": 3313384306, "lat": 40.2606495, "lon": -103.7701993}, {"type": "node", "id": 3313384307, "lat": 40.2606495, "lon": -103.7701533}, {"type": "node", "id": 3313384308, "lat": 40.2605495, "lon": -103.7701535}, {"type": "node", "id": 3313384309, "lat": 40.2605493, "lon": -103.7700299}, {"type": "node", "id": 3313384310, "lat": 40.2603501, "lon": -103.7700303}, {"type": "node", "id": 3313384311, "lat": 40.2603502, "lon": -103.7701512}, {"type": "node", "id": 3313384312, "lat": 40.2600482, "lon": -103.770152}, {"type": "node", "id": 3313384313, "lat": 40.2600475, "lon": -103.7697329}, {"type": "node", "id": 3313384314, "lat": 40.2603547, "lon": -103.7697321}, {"type": "node", "id": 3313384315, "lat": 40.2603541, "lon": -103.7693406}, {"type": "node", "id": 3313384316, "lat": 40.2600808, "lon": -103.7693414}, {"type": "node", "id": 3313384317, "lat": 40.2600804, "lon": -103.7690824}, {"type": "node", "id": 3313384318, "lat": 40.2603526, "lon": -103.7690817}, {"type": "node", "id": 3313384319, "lat": 40.2603523, "lon": -103.768922}, {"type": "node", "id": 3313384320, "lat": 40.2616, "lon": -103.7689184}, {"type": "node", "id": 3313384321, "lat": 40.2616426, "lon": -103.7689821}, {"type": "node", "id": 3313384322, "lat": 40.2615379, "lon": -103.7691025}, {"type": "node", "id": 3313384323, "lat": 40.2602798, "lon": -103.7725602}, {"type": "node", "id": 3313384324, "lat": 40.2601018, "lon": -103.7725842}, {"type": "node", "id": 3313384325, "lat": 40.2600606, "lon": -103.7720602}, {"type": "node", "id": 3313384326, "lat": 40.2602387, "lon": -103.7720362}, {"type": "node", "id": 3375796252, "lat": 40.2538621, "lon": -103.7881245}, {"type": "node", "id": 3375796272, "lat": 40.2538627, "lon": -103.7887483}, {"type": "node", "id": 3375796279, "lat": 40.2531212, "lon": -103.7887496}, {"type": "node", "id": 3375796284, "lat": 40.2531206, "lon": -103.7881258}, {"type": "node", "id": 3645310822, "lat": 40.2630808, "lon": -103.795001}, {"type": "node", "id": 3645310823, "lat": 40.2613288, "lon": -103.7950224}, {"type": "node", "id": 3645310824, "lat": 40.2613329, "lon": -103.7882579}, {"type": "node", "id": 3645310825, "lat": 40.2619182, "lon": -103.7881881}, {"type": "node", "id": 3645310826, "lat": 40.2619264, "lon": -103.7890357}, {"type": "node", "id": 3645310827, "lat": 40.2627329, "lon": -103.7920613}, {"type": "node", "id": 3645310828, "lat": 40.2628106, "lon": -103.7936062}, {"type": "node", "id": 3645310829, "lat": 40.2630767, "lon": -103.7941319}, {"type": "node", "id": 3781735970, "lat": 40.2620244, "lon": -103.7733639, "tags": {"name": "Reata Travel Stop", "shop": "convenience", "source": "Mapbox"}}, {"type": "node", "id": 3781736001, "lat": 40.262008, "lon": -103.7729911, "tags": {"amenity": "fuel", "name": "Travel Stop", "operator": "Reata Travel Stop", "source": "Mapbox"}}, {"type": "node", "id": 3781736003, "lat": 40.261121, "lon": -103.772143, "tags": {"addr:city": "Fort Morgan", "addr:housenumber": "1200", "addr:postcode": "80701-4362", "addr:state": "CO", "addr:street": "Barlow Road", "amenity": "fast_food", "brand": "Burger King", "brand:wikidata": "Q177054", "cuisine": "burger", "delivery": "yes", "drive_through": "yes", "internet_access": "wlan", "name": "Burger King", "opening_hours": "Mo-Sa 06:00-22:00; Su 07:00-22:00", "phone": "+1 970-867-3005", "ref": "14788", "source": "Mapbox", "takeaway": "yes", "website": "https://www.bk.com/store-locator/store/restaurant_8846"}}, {"type": "node", "id": 3782715786, "lat": 40.2594127, "lon": -103.7680386}, {"type": "node", "id": 3782715793, "lat": 40.2596721, "lon": -103.7726606}, {"type": "node", "id": 3782715809, "lat": 40.2587495, "lon": -103.7727459}, {"type": "node", "id": 3782715828, "lat": 40.2595129, "lon": -103.7698867}, {"type": "node", "id": 3782715839, "lat": 40.2609581, "lon": -103.7701533}, {"type": "node", "id": 3782715842, "lat": 40.2595808, "lon": -103.7710151}, {"type": "node", "id": 3782716487, "lat": 40.2596419, "lon": -103.7718179}, {"type": "node", "id": 6389700420, "lat": 40.2576146, "lon": -103.7728073}, {"type": "node", "id": 6389700421, "lat": 40.257658, "lon": -103.7681788}, {"type": "node", "id": 6389700428, "lat": 40.2594796, "lon": -103.7725183}, {"type": "node", "id": 6389700429, "lat": 40.259408, "lon": -103.7712175}, {"type": "node", "id": 6389700430, "lat": 40.2594551, "lon": -103.7712121}, {"type": "node", "id": 6389700431, "lat": 40.2595635, "lon": -103.7725639}, {"type": "node", "id": 6389700432, "lat": 40.2588181, "lon": -103.7727015}, {"type": "node", "id": 6389700433, "lat": 40.2588128, "lon": -103.7722684}, {"type": "node", "id": 6389700434, "lat": 40.2583839, "lon": -103.7722775}, {"type": "node", "id": 6389700435, "lat": 40.2583892, "lon": -103.7727106}, {"type": "node", "id": 6389700448, "lat": 40.258507, "lon": -103.7715584}, {"type": "node", "id": 6389700449, "lat": 40.25798, "lon": -103.7715713}, {"type": "node", "id": 6389700450, "lat": 40.2579683, "lon": -103.7707586}, {"type": "node", "id": 6389700451, "lat": 40.2584954, "lon": -103.7707456}, {"type": "node", "id": 6389700461, "lat": 40.2593514, "lon": -103.7706182}, {"type": "node", "id": 6389700462, "lat": 40.2593519, "lon": -103.7705672}, {"type": "node", "id": 6389700463, "lat": 40.2581768, "lon": -103.770591}, {"type": "node", "id": 6389700464, "lat": 40.2581831, "lon": -103.7699367}, {"type": "node", "id": 6389700465, "lat": 40.2578567, "lon": -103.7699313}, {"type": "node", "id": 6389700466, "lat": 40.25785, "lon": -103.7706366}, {"type": "node", "id": 8114010671, "lat": 40.2537154, "lon": -103.7880108, "tags": {"addr:housenumber": "1000", "addr:street": "East Platte Avenue", "brand": "Goodwill", "brand:wikidata": "Q5583655", "name": "Goodwill", "opening_hours": "Mo-Sa 09:00-20:00; Su 09:00-19:00", "operator": "Goodwill Industries of Denver", "second_hand": "yes", "shop": "charity", "website": "https://www.goodwilldenver.org"}}, {"type": "node", "id": 8223560065, "lat": 40.2618523, "lon": -103.777552, "tags": {"addr:city": "Fort Morgan", "addr:housenumber": "1951", "addr:postcode": "80701", "addr:state": "CO", "addr:street": "East Riverview Avenue", "name": "5 Star Truck and Trailer Repair", "phone": "+1-970-743-3310", "shop": "car_repair", "website": "https://www.5starttr.com/"}}, {"type": "node", "id": 10034866230, "lat": 40.260414, "lon": -103.7858}, {"type": "node", "id": 10034866231, "lat": 40.26037, "lon": -103.7856082}, {"type": "node", "id": 10034866232, "lat": 40.2604106, "lon": -103.78557}, {"type": "node", "id": 10034866233, "lat": 40.2604108, "lon": -103.7855328}, {"type": "node", "id": 10034866234, "lat": 40.2603957, "lon": -103.7855327}, {"type": "node", "id": 10034866235, "lat": 40.260396, "lon": -103.7854531}, {"type": "node", "id": 10034866236, "lat": 40.2603414, "lon": -103.7854528}, {"type": "node", "id": 10034866237, "lat": 40.2603413, "lon": -103.7854655}, {"type": "node", "id": 10034866238, "lat": 40.2603057, "lon": -103.7854652}, {"type": "node", "id": 10034866239, "lat": 40.2603064, "lon": -103.7852816}, {"type": "node", "id": 10034866240, "lat": 40.2604125, "lon": -103.7852823}, {"type": "node", "id": 10034866241, "lat": 40.260413, "lon": -103.7851588}, {"type": "node", "id": 10034866242, "lat": 40.2605346, "lon": -103.7851597}, {"type": "node", "id": 10034866243, "lat": 40.2605339, "lon": -103.7853399}, {"type": "node", "id": 10034866244, "lat": 40.2605566, "lon": -103.78534}, {"type": "node", "id": 10034866245, "lat": 40.2605559, "lon": -103.7855184}, {"type": "node", "id": 10034866246, "lat": 40.2605356, "lon": -103.7855183}, {"type": "node", "id": 10034866247, "lat": 40.2605355, "lon": -103.7855411}, {"type": "node", "id": 10034866248, "lat": 40.2606156, "lon": -103.7856203}, {"type": "node", "id": 10034866249, "lat": 40.2605685, "lon": -103.7858087}, {"type": "node", "id": 11126828452, "lat": 40.2642673, "lon": -103.7737095}, {"type": "node", "id": 11126828453, "lat": 40.2643297, "lon": -103.7737096}, {"type": "node", "id": 11126828454, "lat": 40.2642672, "lon": -103.7737457}, {"type": "node", "id": 11126828455, "lat": 40.2642672, "lon": -103.7737836}, {"type": "node", "id": 11126828457, "lat": 40.2643298, "lon": -103.773591}, {"type": "node", "id": 11126828458, "lat": 40.2641973, "lon": -103.7735908}, {"type": "node", "id": 11126828459, "lat": 40.2641971, "lon": -103.7737838}, {"type": "node", "id": 11126874313, "lat": 40.2673673, "lon": -103.7750966}, {"type": "node", "id": 11126874314, "lat": 40.2674737, "lon": -103.77511}, {"type": "node", "id": 11126874315, "lat": 40.2676113, "lon": -103.7751214}, {"type": "node", "id": 11126874316, "lat": 40.2677699, "lon": -103.7751335}, {"type": "node", "id": 11126874317, "lat": 40.2677525, "lon": -103.774941}, {"type": "node", "id": 11126874318, "lat": 40.2673928, "lon": -103.7748713}, {"type": "node", "id": 11126874319, "lat": 40.2673545, "lon": -103.7750027}, {"type": "node", "id": 11126874320, "lat": 40.2673468, "lon": -103.7750886}, {"type": "node", "id": 11128503196, "lat": 40.2596237, "lon": -103.7831275}, {"type": "node", "id": 11128503197, "lat": 40.2596232, "lon": -103.7835285}, {"type": "node", "id": 11128503198, "lat": 40.2596718, "lon": -103.7835296}, {"type": "node", "id": 11128503199, "lat": 40.2596755, "lon": -103.7835554}, {"type": "node", "id": 11128503200, "lat": 40.2596733, "lon": -103.7835815}, {"type": "node", "id": 11128503201, "lat": 40.2596652, "lon": -103.7836055}, {"type": "node", "id": 11128503202, "lat": 40.2596862, "lon": -103.7836051}, {"type": "node", "id": 11128503203, "lat": 40.2597072, "lon": -103.7836035}, {"type": "node", "id": 11128503204, "lat": 40.2597282, "lon": -103.7836007}, {"type": "node", "id": 11128503505, "lat": 40.259749, "lon": -103.7835968}, {"type": "node", "id": 11128503506, "lat": 40.2597431, "lon": -103.7835821}, {"type": "node", "id": 11128503507, "lat": 40.2597392, "lon": -103.7835662}, {"type": "node", "id": 11128503508, "lat": 40.2597374, "lon": -103.7835496}, {"type": "node", "id": 11128503509, "lat": 40.2597378, "lon": -103.7835328}, {"type": "node", "id": 11128503510, "lat": 40.2597905, "lon": -103.7835335}, {"type": "node", "id": 11128503511, "lat": 40.25979, "lon": -103.7831278}, {"type": "node", "id": 12687094139, "lat": 40.2622838, "lon": -103.7733364, "tags": {"amenity": "weighbridge", "brand": "CAT Scale", "brand:wikidata": "Q111631907", "name": "CAT Scale", "operator": "Reata Travel Stop", "operator:phone": "+1 970-867-3697", "ref": "1096", "website": "https://catscale.com/cat-scale-locator/?single=1096"}}, {"type": "way", "id": 324628880, "nodes": [3313384297, 3313384298, 3313384299, 3313384300, 3313384301, 3313384302, 3313384303, 3782715839, 3313384304, 3313384305, 3313384306, 3313384307, 3313384308, 3313384309, 3313384310, 3313384311, 3313384312, 3313384313, 3313384314, 3313384315, 3313384316, 3313384317, 3313384318, 3313384319, 3313384320, 3313384321, 3313384322, 3313384297], "tags": {"addr:city": "Fort Morgan", "addr:country": "US", "addr:housenumber": "1300", "addr:postcode": "80701", "addr:state": "CO", "addr:street": "Barlow Road", "brand": "Walmart", "brand:wikidata": "Q483551", "building": "retail", "building:levels": "3", "name": "Walmart Supercenter", "opening_hours": "Mo-Su 06:00-23:00", "operator": "Walmart", "payment:app:walmart": "yes", "payment:apple_pay": "no", "payment:google_pay": "no", "payment:samsung_pay": "no", "phone": "+1-970-542-2272", "ref:store_number": "5033", "sensory_friendly:accommodation": "dimmed_light;static_screens;no_pa", "sensory_friendly:conditional": "yes @ 08:00-10:00", "shop": "supermarket", "website": "https://www.walmart.com/store/5033-fort-morgan-co"}}, {"type": "way", "id": 324628881, "nodes": [3313384323, 3313384324, 3313384325, 3313384326, 3313384323], "tags": {"brand": "Dollar Tree", "brand:wikidata": "Q5289230", "building": "retail", "building:levels": "1", "check_date": "2024-07-11", "check_date:opening_hours": "2024-07-11", "name": "Dollar Tree", "opening_hours": "Mo-Sa 09:00-22:00; Su 09:00-20:00", "shop": "variety_store", "website": "https://www.dollartree.com/locations/co/fort-morgan/2750/"}}, {"type": "way", "id": 330599112, "nodes": [3375796272, 3375796279, 3375796284, 3375796252, 3375796272], "tags": {"access": "customers", "amenity": "parking", "parking": "surface", "source": "Bing", "surface": "asphalt"}}, {"type": "way", "id": 359903958, "nodes": [3645310822, 3645310823, 3645310824, 3645310825, 3645310826, 3645310827, 3645310828, 3645310829, 3645310822], "tags": {"addr:city": "Fort Morgan", "addr:country": "US", "addr:housenumber": "709", "addr:postcode": "80701", "addr:state": "CO", "addr:street": "East Riverview Avenue", "amenity": "school", "mascot": "Mustangs", "name": "Fort Morgan High School", "phone": "+1-970-867-5648", "website": "https://highschool.fortmorgank12.com/", "wikidata": "Q111941823"}}, {"type": "way", "id": 374890230, "nodes": [3782715842, 3782716487, 3782715793, 3782715809, 6389700420, 6389700421, 3782715786, 3782715828, 3782715842], "tags": {"addr:city": "Fort Morgan", "addr:country": "US", "addr:housenumber": "920", "addr:postcode": "80701", "addr:state": "CO", "addr:street": "Barlow Road", "amenity": "college", "fixme": "Verify building numbers", "name": "Morgan Community College", "phone": "+1-970-542-3100"}}, {"type": "way", "id": 682317682, "nodes": [6389700431, 6389700430, 6389700429, 6389700428, 6389700431], "tags": {"amenity": "parking"}}, {"type": "way", "id": 682317683, "nodes": [6389700435, 6389700434, 6389700433, 6389700432, 6389700435], "tags": {"amenity": "parking"}}, {"type": "way", "id": 682317690, "nodes": [6389700451, 6389700450, 6389700449, 6389700448, 6389700451], "tags": {"amenity": "parking"}}, {"type": "way", "id": 682317699, "nodes": [6389700466, 6389700465, 6389700464, 6389700463, 6389700462, 6389700461, 6389700466], "tags": {"amenity": "parking"}}, {"type": "way", "id": 1095713958, "nodes": [10034866249, 10034866248, 10034866247, 10034866246, 10034866245, 10034866244, 10034866243, 10034866242, 10034866241, 10034866240, 10034866239, 10034866238, 10034866237, 10034866236, 10034866235, 10034866234, 10034866233, 10034866232, 10034866231, 10034866230, 10034866249], "tags": {"amenity": "place_of_worship", "building": "yes", "religion": "christian"}}, {"type": "way", "id": 1199688161, "nodes": [11126828459, 11126828455, 11126828454]}, {"type": "way", "id": 1199688162, "nodes": [11126828459, 11126828458, 11126828457, 11126828453, 11126828452, 11126828454]}, {"type": "way", "id": 1199688963, "nodes": [11126874320, 11126874319, 11126874318, 11126874317, 11126874316, 11126874315, 11126874314, 11126874313, 11126874320], "tags": {"amenity": "parking", "surface": "dirt"}}, {"type": "way", "id": 1199966873, "nodes": [11128503201, 11128503200, 11128503199, 11128503198]}, {"type": "way", "id": 1199966874, "nodes": [11128503505, 11128503204, 11128503203, 11128503202, 11128503201]}, {"type": "way", "id": 1199966875, "nodes": [11128503509, 11128503508, 11128503507, 11128503506, 11128503505]}, {"type": "way", "id": 1199966876, "nodes": [11128503198, 11128503197, 11128503196, 11128503511, 11128503510, 11128503509]}, {"type": "relation", "id": 16218732, "members": [{"type": "way", "ref": 1199688161, "role": "outer"}, {"type": "way", "ref": 1199688162, "role": "outer"}], "tags": {"amenity": "restaurant", "building": "commercial", "cuisine": "american", "name": "Mavericks", "type": "multipolygon"}}, {"type": "relation", "id": 16220080, "members": [{"type": "way", "ref": 1199966876, "role": "outer"}, {"type": "way", "ref": 1199966873, "role": "outer"}, {"type": "way", "ref": 1199966874, "role": "outer"}, {"type": "way", "ref": 1199966875, "role": "outer"}], "tags": {"amenity": "parking", "surface": "asphalt", "type": "multipolygon"}}]}