{"version": 0.6, "generator": "Overpass API 0.7.62.8 e802775f", "osm3s": {"timestamp_osm_base": "2025-12-08T22:03:45Z", "copyright": "The data included in this document is from www.openstreetmap.org. The data is made available under ODbL."}, "elements": [{"type": "node", "id": 357959532, "lat": 48.1460123, "lon": -104.5178871, "tags": {"amenity": "place_of_worship", "denomination": "mormon", "ele": "589", "gnis:feature_id": "1669184", "name": "Community of Christ", "religion": "christian"}}, {"type": "node", "id": 357959539, "lat": 48.1491091, "lon": -104.5134297, "tags": {"amenity": "place_of_worship", "denomination": "lutheran", "ele": "590", "gnis:feature_id": "1669186", "name": "Bethel Free Lutheran Church", "religion": "christian"}}, {"type": "node", "id": 357959671, "lat": 48.1514917, "lon": -104.5144076, "tags": {"amenity": "doctors", "gnis:feature_id": "1669219", "healthcare": "doctor", "name": "Roosevelt Memorial Clinic", "opening_hours": "Mo-Th 08:00-12:30,13:30-17:00; Fr 08:00-12:30,13:30-16:30", "phone": "+1 406 787 6400"}}, {"type": "node", "id": 357959693, "lat": 48.1520231, "lon": -104.5153407}, {"type": "node", "id": 357959700, "lat": 48.1508973, "lon": -104.5139463}, {"type": "node", "id": 357959801, "lat": 48.1487546, "lon": -104.5208816}, {"type": "node", "id": 357960078, "lat": 48.1466486, "lon": -104.5164552, "tags": {"amenity": "post_office", "ele": "588", "gnis:feature_id": "1669403", "name": "Culbertson Post Office"}}, {"type": "node", "id": 366093131, "lat": 48.1464636, "lon": -104.5172887, "tags": {"addr:state": "MT", "amenity": "fire_station", "ele": "589", "gnis:feature_id": "1669149", "name": "Culbertson Fire Department", "source": "USGS Geonames"}}, {"type": "node", "id": 366093269, "lat": 48.1466716, "lon": -104.5183845, "tags": {"addr:state": "MT", "amenity": "library", "ele": "589", "gnis:feature_id": "1669228", "name": "Culbertson Public Library", "source": "USGS Geonames"}}, {"type": "node", "id": 366093417, "lat": 48.1457842, "lon": -104.5170994, "tags": {"addr:state": "MT", "amenity": "police", "ele": "588", "gnis:feature_id": "1669148", "name": "Culbertson Police Department", "source": "USGS Geonames"}}, {"type": "node", "id": 1151116433, "lat": 48.1474339, "lon": -104.504844}, {"type": "node", "id": 1151116600, "lat": 48.1476626, "lon": -104.504501}, {"type": "node", "id": 1151116657, "lat": 48.1483631, "lon": -104.5049727}, {"type": "node", "id": 1151116726, "lat": 48.1475626, "lon": -104.504277}, {"type": "node", "id": 1151116877, "lat": 48.1480962, "lon": -104.5055921}, {"type": "node", "id": 1151117022, "lat": 48.1474863, "lon": -104.5042627}, {"type": "node", "id": 1151117042, "lat": 48.1475197, "lon": -104.5052491}, {"type": "node", "id": 1151117193, "lat": 48.1480152, "lon": -104.5046296}, {"type": "node", "id": 1151117332, "lat": 48.1476436, "lon": -104.5036862}, {"type": "node", "id": 1151117509, "lat": 48.148263, "lon": -104.5039625}, {"type": "node", "id": 1151117686, "lat": 48.1477579, "lon": -104.5035861}, {"type": "node", "id": 1151117962, "lat": 48.1477484, "lon": -104.504844}, {"type": "node", "id": 1151118035, "lat": 48.1477865, "lon": -104.5034193}, {"type": "node", "id": 1151118275, "lat": 48.1478961, "lon": -104.5036242}, {"type": "node", "id": 3492094819, "lat": 48.1469008, "lon": -104.5195881}, {"type": "node", "id": 3492094877, "lat": 48.1468988, "lon": -104.5208306}, {"type": "node", "id": 3492094883, "lat": 48.1487689, "lon": -104.5195432}, {"type": "node", "id": 3492095047, "lat": 48.1469095, "lon": -104.5195646}, {"type": "node", "id": 3492095048, "lat": 48.1469239, "lon": -104.5208413}, {"type": "node", "id": 3493433554, "lat": 48.1483037, "lon": -104.5119874}, {"type": "node", "id": 3493433562, "lat": 48.1486759, "lon": -104.5181029, "tags": {"amenity": "fuel"}}, {"type": "node", "id": 3493433568, "lat": 48.1482824, "lon": -104.5118392}, {"type": "node", "id": 3493433570, "lat": 48.1487188, "lon": -104.517534}, {"type": "node", "id": 3493433571, "lat": 48.1486866, "lon": -104.5188003, "tags": {"amenity": "fuel", "brand": "Sinclair"}}, {"type": "node", "id": 3493433572, "lat": 48.1482519, "lon": -104.5118258}, {"type": "node", "id": 3493433573, "lat": 48.1486007, "lon": -104.5173867}, {"type": "node", "id": 3493433580, "lat": 48.1487153, "lon": -104.5173786}, {"type": "node", "id": 3493433581, "lat": 48.1482052, "lon": -104.5117701}, {"type": "node", "id": 3493433583, "lat": 48.1480998, "lon": -104.5121074}, {"type": "node", "id": 3493433586, "lat": 48.1481463, "lon": -104.5115817}, {"type": "node", "id": 3493433590, "lat": 48.1479815, "lon": -104.5116789}, {"type": "node", "id": 3493433591, "lat": 48.1486027, "lon": -104.5175308}, {"type": "node", "id": 3493433594, "lat": 48.1481338, "lon": -104.511815}, {"type": "node", "id": 3493433595, "lat": 48.1481641, "lon": -104.5118801}, {"type": "node", "id": 3493433600, "lat": 48.1485848, "lon": -104.5179521, "tags": {"name": "Delker's Service Center", "shop": "car_repair"}}, {"type": "node", "id": 4911017462, "lat": 48.1508953, "lon": -104.51532}, {"type": "node", "id": 4911017463, "lat": 48.152029, "lon": -104.5139818}, {"type": "node", "id": 4938683079, "lat": 48.1456294, "lon": -104.517049, "tags": {"addr:housenumber": "210", "addr:street": "Broadway Avenue", "amenity": "townhall", "name": "Culbertson Town Hall"}}, {"type": "node", "id": 4938683081, "lat": 48.1448659, "lon": -104.5172826, "tags": {"amenity": "pharmacy", "healthcare": "pharmacy", "name": "Culbertson Pharmacy"}}, {"type": "node", "id": 4938683094, "lat": 48.1447117, "lon": -104.5172444, "tags": {"air_conditioning": "yes", "currency:USD": "yes", "mobile": "+1-406-787-5812", "name": "Heritage Grocery", "payment:account_cards": "yes", "payment:app": "yes", "payment:bancomat": "yes", "payment:cards": "yes", "payment:cheque": "yes", "payment:coins": "yes", "payment:contactless": "yes", "payment:google_pay": "yes", "payment:notes": "yes", "payment:v_pay": "yes", "shop": "supermarket", "wheelchair": "yes"}}, {"type": "node", "id": 4938683106, "lat": 48.1441534, "lon": -104.51708, "tags": {"amenity": "bar", "name": "Montana Bar"}}, {"type": "node", "id": 4938683114, "lat": 48.1455103, "lon": -104.5176332, "tags": {"amenity": "bank", "name": "Opportunity Bank of Montana"}}, {"type": "node", "id": 4938699362, "lat": 48.1490511, "lon": -104.5164695, "tags": {"amenity": "restaurant", "cuisine": "pizza", "name": "Me Too Pizza"}}, {"type": "node", "id": 4938699364, "lat": 48.1485055, "lon": -104.5086635, "tags": {"amenity": "casino", "name": "Stagecoach Casino"}}, {"type": "node", "id": 4938699375, "lat": 48.1486775, "lon": -104.516321, "tags": {"addr:city": "Culbertson", "addr:housenumber": "104", "addr:postcode": "59218", "addr:state": "MT", "addr:street": "6th Street East", "amenity": "fast_food", "cuisine": "coffee_shop", "drive_through": "yes", "name": "Frackin' Java", "opening_hours": "Mo-Fr 07:00-13:00"}}, {"type": "node", "id": 7607373497, "lat": 48.1478621, "lon": -104.5225397}, {"type": "node", "id": 7607373498, "lat": 48.1478647, "lon": -104.5231138}, {"type": "node", "id": 7607373499, "lat": 48.1476863, "lon": -104.5231156}, {"type": "node", "id": 7607373500, "lat": 48.1474858, "lon": -104.5229253}, {"type": "node", "id": 7607373501, "lat": 48.1474661, "lon": -104.5229253}, {"type": "node", "id": 7607373502, "lat": 48.1476003, "lon": -104.5226759}, {"type": "node", "id": 7607373503, "lat": 48.1474858, "lon": -104.5226759}, {"type": "node", "id": 7607373504, "lat": 48.1474661, "lon": -104.5230407}, {"type": "node", "id": 7607373505, "lat": 48.1476003, "lon": -104.5230407}, {"type": "node", "id": 9956622742, "lat": 48.1487034, "lon": -104.517}, {"type": "node", "id": 9956622743, "lat": 48.1486996, "lon": -104.5172914}, {"type": "node", "id": 9956622744, "lat": 48.1486301, "lon": -104.5172894}, {"type": "node", "id": 9956622745, "lat": 48.1486315, "lon": -104.5171801}, {"type": "node", "id": 9956622746, "lat": 48.1486017, "lon": -104.5171792}, {"type": "node", "id": 9956622747, "lat": 48.1486041, "lon": -104.5169971}, {"type": "node", "id": 12015400450, "lat": 48.1491824, "lon": -104.5200178}, {"type": "node", "id": 12015400451, "lat": 48.1489298, "lon": -104.5200144}, {"type": "node", "id": 12015400452, "lat": 48.1489323, "lon": -104.5196091}, {"type": "node", "id": 12015400453, "lat": 48.1491849, "lon": -104.5196125}, {"type": "node", "id": 12016033611, "lat": 48.1493361, "lon": -104.5091628}, {"type": "node", "id": 12016033612, "lat": 48.1492747, "lon": -104.5091649}, {"type": "node", "id": 12016033613, "lat": 48.1492737, "lon": -104.5091013}, {"type": "node", "id": 12016033614, "lat": 48.1491419, "lon": -104.5091059}, {"type": "node", "id": 12016033615, "lat": 48.1491373, "lon": -104.5088085}, {"type": "node", "id": 12016033616, "lat": 48.1493306, "lon": -104.5088018}, {"type": "node", "id": 13073454940, "lat": 48.1476891, "lon": -104.5225414}, {"type": "way", "id": 99522697, "nodes": [1151116657, 1151117509, 1151117193, 1151116877, 1151116657], "tags": {"amenity": "parking", "source": "Bing"}}, {"type": "way", "id": 99522713, "nodes": [1151117042, 1151117962, 1151116600, 1151118275, 1151118035, 1151117686, 1151117332, 1151117022, 1151116726, 1151116433, 1151117042], "tags": {"amenity": "parking", "source": "Bing"}}, {"type": "way", "id": 342189759, "nodes": [357959801, 3492094883, 3492095047, 3492094819, 3492094877, 3492095048, 357959801], "tags": {"amenity": "school", "ele": "592", "gnis:feature_id": "1669265", "grades": "0-12", "name": "Culbertson School"}}, {"type": "way", "id": 342331578, "nodes": [3493433554, 3493433568, 3493433572, 3493433595, 3493433594, 3493433581, 3493433586, 3493433590, 3493433583, 3493433554], "tags": {"amenity": "place_of_worship", "denomination": "lutheran", "name": "Trinity Lutheran Church", "religion": "christian"}}, {"type": "way", "id": 342331585, "nodes": [3493433570, 3493433580, 3493433573, 3493433591, 3493433570], "tags": {"amenity": "restaurant", "building": "yes", "cuisine": "ice_cream", "name": "Scoops"}}, {"type": "way", "id": 499919714, "nodes": [4911017462, 357959700, 4911017463, 357959693, 4911017462], "tags": {"addr:city": "Culbertson", "addr:housenumber": "818", "addr:postcode": "59218", "addr:state": "MT", "addr:street": "2nd Avenue East", "amenity": "hospital", "emergency": "yes", "gnis:feature_id": "1669225", "healthcare": "hospital", "name": "Roosevelt Medical Center", "opening_hours": "24/7", "phone": "+1 406 787 6401", "website": "http://www.rooseveltmedical.org/"}}, {"type": "way", "id": 814421204, "nodes": [7607373505, 7607373502, 7607373503, 7607373500, 7607373501, 7607373504, 7607373505], "tags": {"addr:city": "Culbertson", "addr:housenumber": "413", "addr:postcode": "59218", "addr:state": "MT", "addr:street": "3rd Avenue West", "amenity": "place_of_worship", "building": "church", "denomination": "roman_catholic", "description": "Administered From: Our Lady of Lourdes Church PO Box 187 Popular, MT 59255", "description_1": "Mailing Address: PO Box 30 Culbertson, MT 59218", "diocese": "Great Falls-Billings", "ele": "591", "gnis:feature_id": "1669188", "name": "Saint Anthony Catholic Church", "phone": "+1 406-787-6666", "religion": "christian"}}, {"type": "way", "id": 1086644037, "nodes": [9956622742, 9956622743, 9956622744, 9956622745, 9956622746, 9956622747, 9956622742], "tags": {"amenity": "restaurant", "building": "yes", "name": "Wild West Diner"}}, {"type": "way", "id": 1296691073, "nodes": [12015400450, 12015400451, 12015400452, 12015400453, 12015400450], "tags": {"amenity": "fuel", "name": "Val Am"}}, {"type": "way", "id": 1296757011, "nodes": [12016033611, 12016033612, 12016033613, 12016033614, 12016033615, 12016033616, 12016033611], "tags": {"addr:city": "Culbertson", "addr:housenumber": "603", "addr:postcode": "59218", "addr:state": "MT", "addr:street": "6th Avenue East", "building": "yes", "name": "Hi-Line Auto & Hydraulics", "payment:cash": "yes", "payment:cheque": "yes", "payment:credit_cards": "yes", "payment:debit_cards": "yes", "phone": "+1-406-787-6182", "service:vehicle:air_conditioning": "yes", "service:vehicle:alignment": "yes", "service:vehicle:batteries": "yes", "service:vehicle:brakes": "yes", "service:vehicle:car_parts": "yes", "service:vehicle:car_repair": "yes", "service:vehicle:diagnostics": "yes", "service:vehicle:electrical": "yes", "service:vehicle:glass": "yes", "service:vehicle:inspection": "yes", "service:vehicle:motor": "yes", "service:vehicle:muffler": "yes", "service:vehicle:oil_change": "yes", "service:vehicle:towing": "yes", "service:vehicle:transmission": "yes", "service:vehicle:truck_repair": "yes", "service:vehicle:tyres": "yes", "service:vehicle:wheels": "yes", "shop": "car_repair"}}, {"type": "way", "id": 1422580927, "nodes": [7607373499, 13073454940, 7607373497, 7607373498, 7607373499], "tags": {"amenity": "parking", "operator": "Saint Anthony Catholic Church"}}]}