{"version": 0.6, "generator": "Overpass API 0.7.62.8 e802775f", "osm3s": {"timestamp_osm_base": "2025-12-06T04:21:20Z", "copyright": "The data included in this document is from www.openstreetmap.org. The data is made available under ODbL."}, "elements": [{"type": "node", "id": 5723811438, "lat": 47.3189884, "lon": -114.0948081}, {"type": "node", "id": 5723811439, "lat": 47.3188442, "lon": -114.0948102}, {"type": "node", "id": 5723811440, "lat": 47.3188421, "lon": -114.0944931}, {"type": "node", "id": 5723811441, "lat": 47.318906, "lon": -114.0944921}, {"type": "node", "id": 5723811442, "lat": 47.3189066, "lon": -114.094571}, {"type": "node", "id": 5723811443, "lat": 47.3189868, "lon": -114.0945698}, {"type": "node", "id": 5724072774, "lat": 47.3211996, "lon": -114.0998223}, {"type": "node", "id": 5724072775, "lat": 47.3211977, "lon": -114.0995901}, {"type": "node", "id": 5724072776, "lat": 47.3212356, "lon": -114.0995895}, {"type": "node", "id": 5724072777, "lat": 47.3212342, "lon": -114.0994117}, {"type": "node", "id": 5724072778, "lat": 47.3212117, "lon": -114.0994121}, {"type": "node", "id": 5724072779, "lat": 47.3212114, "lon": -114.0993814}, {"type": "node", "id": 5724072780, "lat": 47.3210836, "lon": -114.0993837}, {"type": "node", "id": 5724072781, "lat": 47.321085, "lon": -114.0995595}, {"type": "node", "id": 5724072782, "lat": 47.3211075, "lon": -114.0995591}, {"type": "node", "id": 5724072783, "lat": 47.3211095, "lon": -114.0998238}, {"type": "node", "id": 5724072784, "lat": 47.3208891, "lon": -114.0988368}, {"type": "node", "id": 5724072785, "lat": 47.3206882, "lon": -114.0988381}, {"type": "node", "id": 5724072786, "lat": 47.3206909, "lon": -114.0986825}, {"type": "node", "id": 5724072787, "lat": 47.3208091, "lon": -114.0986839}, {"type": "node", "id": 5724072788, "lat": 47.3208082, "lon": -114.098645}, {"type": "node", "id": 5724072789, "lat": 47.3208809, "lon": -114.0986463}, {"type": "node", "id": 5724072790, "lat": 47.3208809, "lon": -114.0986866}, {"type": "node", "id": 5724072791, "lat": 47.3208891, "lon": -114.0986866}, {"type": "node", "id": 5724072792, "lat": 47.3201919, "lon": -114.0974012}, {"type": "node", "id": 5724072793, "lat": 47.3199674, "lon": -114.0974011}, {"type": "node", "id": 5724072794, "lat": 47.3199674, "lon": -114.0971393}, {"type": "node", "id": 5724072795, "lat": 47.3197752, "lon": -114.0971393}, {"type": "node", "id": 5724072796, "lat": 47.3197753, "lon": -114.0969806}, {"type": "node", "id": 5724072797, "lat": 47.3199658, "lon": -114.0969806}, {"type": "node", "id": 5724072798, "lat": 47.3199659, "lon": -114.0969089}, {"type": "node", "id": 5724072799, "lat": 47.320192, "lon": -114.096909}, {"type": "node", "id": 5724139461, "lat": 47.3188642, "lon": -114.0952062}, {"type": "node", "id": 5724139462, "lat": 47.3188646, "lon": -114.0953409}, {"type": "node", "id": 5724139463, "lat": 47.3190205, "lon": -114.0953401}, {"type": "node", "id": 5724139464, "lat": 47.3190202, "lon": -114.0952053}, {"type": "node", "id": 5724139465, "lat": 47.3194884, "lon": -114.0965028}, {"type": "node", "id": 5724139466, "lat": 47.3190752, "lon": -114.0965111}, {"type": "node", "id": 5724139467, "lat": 47.3190711, "lon": -114.0960725}, {"type": "node", "id": 5724139468, "lat": 47.319155, "lon": -114.0960708}, {"type": "node", "id": 5724139469, "lat": 47.3191533, "lon": -114.0958876}, {"type": "node", "id": 5724139470, "lat": 47.3192528, "lon": -114.0958856}, {"type": "node", "id": 5724139471, "lat": 47.3192534, "lon": -114.0959439}, {"type": "node", "id": 5724139472, "lat": 47.3194832, "lon": -114.0959392}, {"type": "node", "id": 9179341628, "lat": 47.3224394, "lon": -114.102749, "tags": {"amenity": "restaurant"}}, {"type": "way", "id": 602697731, "nodes": [5723811438, 5723811439, 5723811440, 5723811441, 5723811442, 5723811443, 5723811438], "tags": {"addr:city": "Saint Ignatius", "addr:housenumber": "100", "addr:postcode": "59865", "addr:state": "MT", "addr:street": "1st Avenue", "amenity": "bar", "building": "yes", "building:levels": "1", "name": "Silver Dollar Bar & Grill"}}, {"type": "way", "id": 602727228, "nodes": [5724072774, 5724072775, 5724072776, 5724072777, 5724072778, 5724072779, 5724072780, 5724072781, 5724072782, 5724072783, 5724072774], "tags": {"addr:city": "Saint Ignatius", "addr:housenumber": "240", "addr:postcode": "59865", "addr:state": "MT", "addr:street": "Mountain View Drive", "building": "yes", "building:levels": "1", "name": "Mountain View Cenex", "shop": "convenience"}}, {"type": "way", "id": 602727229, "nodes": [5724072784, 5724072785, 5724072786, 5724072787, 5724072788, 5724072789, 5724072790, 5724072791, 5724072784], "tags": {"addr:city": "Saint Ignatius", "addr:housenumber": "278", "addr:postcode": "59865", "addr:state": "MT", "addr:street": "Mountain View Drive", "amenity": "restaurant", "building": "yes", "building:levels": "1", "name": "Old Timer Cafe"}}, {"type": "way", "id": 602727230, "nodes": [5724072792, 5724072793, 5724072794, 5724072795, 5724072796, 5724072797, 5724072798, 5724072799, 5724072792], "tags": {"addr:city": "Saint Ignatius", "addr:housenumber": "153", "addr:postcode": "59865", "addr:state": "MT", "addr:street": "North Main Avenue", "brand": "NAPA Auto Parts", "brand:wikidata": "Q6970842", "building": "yes", "name": "Stuart's Napa Auto Care", "shop": "car_parts"}}, {"type": "way", "id": 602736573, "nodes": [5724139461, 5724139462, 5724139463, 5724139464, 5724139461], "tags": {"addr:city": "Saint Ignatius", "addr:housenumber": "101", "addr:postcode": "59865", "addr:state": "MT", "addr:street": "1st Avenue", "amenity": "restaurant", "building": "yes", "building:levels": "2", "name": "The Malt Shop"}}, {"type": "way", "id": 602736574, "nodes": [5724139465, 5724139466, 5724139467, 5724139468, 5724139469, 5724139470, 5724139471, 5724139472, 5724139465], "tags": {"addr:city": "Saint Ignatius", "addr:housenumber": "116", "addr:postcode": "59865", "addr:state": "MT", "addr:street": "North Main Avenue", "building": "yes", "name": "Rod's Harvest Foods", "opening_hours": "Mo-Su 07:00-21:00", "phone": "+1 406-745-4275", "shop": "supermarket"}}]}