{"version": 0.6, "generator": "Overpass API 0.7.62.8 e802775f", "osm3s": {"timestamp_osm_base": "2025-12-12T23:46:27Z", "copyright": "The data included in this document is from www.openstreetmap.org. The data is made available under ODbL."}, "elements": [{"type": "node", "id": 10966526405, "lat": 39.0892604, "lon": -108.5520416, "tags": {"addr:city": "Grand Junction", "addr:housenumber": "1201", "addr:postcode": "81501", "addr:state": "CO", "addr:street": "Wellington Avenue", "addr:unit": "103", "branch": "Grand Junction", "brand": "Hotworx", "brand:wikidata": "Q115527690", "check_date": "2024-07-23", "email": "manager.co0010@hotworx.net", "leisure": "fitness_centre", "name": "Hotworx", "opening_hours": "Mo-Th 11:00-20:00; Fr 09:00-18:00; Sa 11:00-16:00 || 24/7 \"members only\"", "phone": "+1-970-462-9252", "website": "https://www.hotworx.net/studio/grandjunction"}}, {"type": "node", "id": 12232856547, "lat": 39.0921261, "lon": -108.5927664, "tags": {"addr:city": "Grand Junction", "addr:housenumber": "2482", "addr:postcode": "81505", "addr:state": "CO", "addr:street": "Patterson Road", "addr:unit": "100", "check_date": "2024-09-29", "contact:facebook": "https://www.facebook.com/ascensionfitnessstudio", "contact:instagram": "https://www.instagram.com/ascension.fitness/", "email": "ascensionfitnessstudio@gmail.com", "leisure": "fitness_centre", "name": "Ascension Fitness Studio", "not:operator:wikidata": "Q96372437", "opening_hours:signed": "no", "phone": "+1-970-433-7145", "source:start_date": "https://thebusinesstimes.com/ascension-fitness-studio-opens-in-grand-junction/", "start_date": "2022-11-24", "website": "https://www.ascension-fit.com/"}}]}