{"version": 0.6, "generator": "Overpass API 0.7.62.8 e802775f", "osm3s": {"timestamp_osm_base": "2025-12-12T17:50:22Z", "copyright": "The data included in this document is from www.openstreetmap.org. The data is made available under ODbL."}, "elements": [{"type": "node", "id": 51085598, "lat": 40.3744953, "lon": -105.5227737, "tags": {"amenity": "parking_entrance"}}, {"type": "node", "id": 51126279, "lat": 40.3721215, "lon": -105.516268}, {"type": "node", "id": 51330222, "lat": 40.3722028, "lon": -105.5155129}, {"type": "node", "id": 358911699, "lat": 40.3872059, "lon": -105.523054, "tags": {"amenity": "place_of_worship", "ele": "2316", "gnis:feature_id": "177559", "name": "Saint Bartholomew Church", "religion": "christian"}}, {"type": "node", "id": 358947514, "lat": 40.3869281, "lon": -105.5224984, "tags": {"amenity": "grave_yard", "ele": "2320", "gnis:feature_id": "2036906", "name": "Saint Bartholomew Episcopal Church Cemetery"}}, {"type": "node", "id": 358947635, "lat": 40.3784268, "lon": -105.5342032, "tags": {"amenity": "grave_yard", "ele": "2313", "gnis:feature_id": "2036951", "name": "Elkhorn Lodge Cemetery"}}, {"type": "node", "id": 411910441, "lat": 40.3827011, "lon": -105.5186858}, {"type": "node", "id": 738164248, "lat": 40.3803592, "lon": -105.5120218}, {"type": "node", "id": 738164249, "lat": 40.3799261, "lon": -105.5116033}, {"type": "node", "id": 738164250, "lat": 40.3797136, "lon": -105.5119252}, {"type": "node", "id": 738164251, "lat": 40.3801794, "lon": -105.5123758}, {"type": "node", "id": 932985407, "lat": 40.3796214, "lon": -105.514452, "tags": {"addr:city": "Estes Park", "addr:housenumber": "561", "addr:postcode": "80517", "addr:state": "CO", "addr:street": "Big Thompson Road", "amenity": "fuel", "brand": "Shell", "brand:wikidata": "Q154950", "compressed_air": "yes", "fuel:diesel": "yes", "fuel:gasoline": "yes", "name": "Shell", "opening_hours": "24/7", "operator": "Shell", "phone": "+1-970-586-0235", "self_service": "yes", "website": "https://find.shell.com/us/fuel/10058646-561-big-thompson-ave/en_US"}}, {"type": "node", "id": 955162001, "lat": 40.3801386, "lon": -105.51692, "tags": {"addr:city": "Estes Park", "addr:housenumber": "451", "addr:postcode": "80517", "addr:state": "CO", "addr:street": "East Wonderview Avenue", "brand": "Safeway", "brand:wikidata": "Q1508234", "name": "Safeway", "opening_hours": "Mo-Su 06:00-23:00", "phone": "+1-970-586-4447", "shop": "supermarket", "website": "https://local.safeway.com/safeway/co/estes-park/451-e-wonderview-ave.html"}}, {"type": "node", "id": 955162247, "lat": 40.3802367, "lon": -105.5164694, "tags": {"addr:city": "Estes Park", "addr:housenumber": "451", "addr:postcode": "80517", "addr:state": "CO", "addr:street": "East Wonderview Avenue", "amenity": "cafe", "branch": "Safeway Estes Park 920", "brand": "Starbucks", "brand:wikidata": "Q37158", "cuisine": "coffee_shop", "name": "Starbucks", "official_name": "Starbucks Coffee", "opening_hours": "Mo-Su 06:00-19:00", "phone": "+1 970-586-4447", "ref": "12610", "takeaway": "yes", "website": "https://www.starbucks.com/store-locator/store/12610/safeway-estes-park-920-451-e-wonderview-ave-estes-park-co-805179647-us"}}, {"type": "node", "id": 955165299, "lat": 40.3810668, "lon": -105.5155955, "tags": {"amenity": "pharmacy", "healthcare": "pharmacy", "name": "Rocky Mountain Pharmacy", "opening_hours": "Mo-Fr 09:00-19:00; Sa 09:00-18:00; Su 09:00-16:00"}}, {"type": "node", "id": 955166062, "lat": 40.3808578, "lon": -105.5157935, "tags": {"amenity": "bank", "name": "Boulder Valley Credit Union", "opening_hours": "Mo-Fr 09:00-17:00"}}, {"type": "node", "id": 955166632, "lat": 40.3809191, "lon": -105.5157236, "tags": {"amenity": "post_office", "brand": "The UPS Store", "brand:wikidata": "Q7771029", "name": "The UPS Store", "opening_hours": "Mo-Fr 08:00-18:00; Sa 09:00-16:00; Su 11:00-16:00", "operator": "The UPS Store", "operator:type": "private", "operator:wikidata": "Q7771029", "operator:wikipedia": "en:The UPS Store", "short_name": "UPS"}}, {"type": "node", "id": 955167305, "lat": 40.3812163, "lon": -105.5154795, "tags": {"addr:city": "Estes Park", "addr:housenumber": "457", "addr:postcode": "80517", "addr:state": "CO", "addr:street": "East Wonderview Avenue", "amenity": "restaurant", "cuisine": "american", "name": "Mountain Home Cafe", "opening_hours": "Mo-Su 07:00-14:30"}}, {"type": "node", "id": 955168146, "lat": 40.381338, "lon": -105.5149986, "tags": {"name": "Peaks Hallmark", "opening_hours": "Mo-Sa 09:00-17:30; Su 10:00-16:00", "shop": "gift"}}, {"type": "node", "id": 955169080, "lat": 40.381009, "lon": -105.5144266, "tags": {"brand": "True Value", "brand:wikidata": "Q7847545", "name": "True Value", "opening_hours": "closed", "shop": "hardware"}}, {"type": "node", "id": 955170056, "lat": 40.3803893, "lon": -105.5149862, "tags": {"amenity": "bank", "name": "Bank of Colorado", "opening_hours": "Mo-Th 09:00-16:00; Fr 09:00-17:00"}}, {"type": "node", "id": 955188730, "lat": 40.3773272, "lon": -105.517227, "tags": {"addr:city": "Estes Park", "addr:housenumber": "470", "addr:postcode": "80517", "addr:state": "CO", "addr:street": "East Elkhorn Avenue", "amenity": "cafe", "internet_access": "yes", "name": "Kind Coffee", "opening_hours": "Mo-Th 06:00-16:00; Fr-Su 06:00-17:00", "outdoor_seating": "yes", "phone": "+1-970-586-5206", "website": "https://kindcoffee.com/"}}, {"type": "node", "id": 955189185, "lat": 40.3771851, "lon": -105.5183653, "tags": {"addr:city": "Estes Park", "addr:housenumber": "356", "addr:postcode": "80517", "addr:state": "CO", "addr:street": "East Elkhorn Avenue", "addr:unit": "2", "air_conditioning": "yes", "amenity": "cafe", "cuisine": "bubble_tea", "internet_access": "yes", "internet_access:fee": "no", "name": "Alteatude", "outdoor_seating": "yes", "website": "https://www.alteatudeestes.com/"}}, {"type": "node", "id": 955190941, "lat": 40.3776009, "lon": -105.518248, "tags": {"amenity": "atm", "check_date": "2023-05-22", "name": "U.S. Bank"}}, {"type": "node", "id": 1431994637, "lat": 40.376142, "lon": -105.5261951, "tags": {"amenity": "post_box"}}, {"type": "node", "id": 1431994641, "lat": 40.3765608, "lon": -105.5265822, "tags": {"amenity": "toilets", "fee": "no", "wheelchair": "yes"}}, {"type": "node", "id": 1437212952, "lat": 40.3764076, "lon": -105.5231505, "tags": {"name": "Laura's", "shop": "confectionery"}}, {"type": "node", "id": 1442476463, "lat": 40.3740322, "lon": -105.5105522}, {"type": "node", "id": 1442476464, "lat": 40.3742684, "lon": -105.5105717}, {"type": "node", "id": 1442476465, "lat": 40.3743613, "lon": -105.5108222}, {"type": "node", "id": 1442476471, "lat": 40.3748622, "lon": -105.5095098}, {"type": "node", "id": 1442476472, "lat": 40.3747122, "lon": -105.5101425}, {"type": "node", "id": 1442476474, "lat": 40.3755914, "lon": -105.5108951}, {"type": "node", "id": 1442476480, "lat": 40.3754953, "lon": -105.510058}, {"type": "node", "id": 1442476482, "lat": 40.3748687, "lon": -105.5107135}, {"type": "node", "id": 1442476493, "lat": 40.3740415, "lon": -105.5109603}, {"type": "node", "id": 1442476499, "lat": 40.3746864, "lon": -105.5100186}, {"type": "node", "id": 1442476503, "lat": 40.3746451, "lon": -105.5103146}, {"type": "node", "id": 2328343786, "lat": 40.3718777, "lon": -105.5072052}, {"type": "node", "id": 2328343787, "lat": 40.3719302, "lon": -105.5072496}, {"type": "node", "id": 2328343788, "lat": 40.371985, "lon": -105.5069866}, {"type": "node", "id": 2328343789, "lat": 40.371989, "lon": -105.5071297}, {"type": "node", "id": 2328343799, "lat": 40.3720121, "lon": -105.5071492}, {"type": "node", "id": 2328343801, "lat": 40.3720606, "lon": -105.5070505}, {"type": "node", "id": 2377575245, "lat": 40.3712563, "lon": -105.5260448}, {"type": "node", "id": 2377575246, "lat": 40.3712237, "lon": -105.5261708}, {"type": "node", "id": 2377575247, "lat": 40.3713054, "lon": -105.526144}, {"type": "node", "id": 2377575248, "lat": 40.3713077, "lon": -105.5262388}, {"type": "node", "id": 2377575249, "lat": 40.3713054, "lon": -105.5260501}, {"type": "node", "id": 2377575250, "lat": 40.3715547, "lon": -105.5262379}, {"type": "node", "id": 2377575251, "lat": 40.3713095, "lon": -105.5260072}, {"type": "node", "id": 2377575252, "lat": 40.3714406, "lon": -105.5262335}, {"type": "node", "id": 2377575253, "lat": 40.3712277, "lon": -105.5261333}, {"type": "node", "id": 2377575254, "lat": 40.3711174, "lon": -105.5261682}, {"type": "node", "id": 2377575255, "lat": 40.3712502, "lon": -105.5259911}, {"type": "node", "id": 2377575256, "lat": 40.3715608, "lon": -105.5260179}, {"type": "node", "id": 2377575257, "lat": 40.3711197, "lon": -105.5259947}, {"type": "node", "id": 2377595827, "lat": 40.3751817, "lon": -105.5221878}, {"type": "node", "id": 2377595831, "lat": 40.3748731, "lon": -105.5223353}, {"type": "node", "id": 2377595835, "lat": 40.3752638, "lon": -105.5225991}, {"type": "node", "id": 2377595837, "lat": 40.3744955, "lon": -105.5227278}, {"type": "node", "id": 2377595839, "lat": 40.3744951, "lon": -105.5228261}, {"type": "node", "id": 2377595841, "lat": 40.3750447, "lon": -105.5222548}, {"type": "node", "id": 2377595845, "lat": 40.3752498, "lon": -105.5225171, "tags": {"source": "Bing"}}, {"type": "node", "id": 2377595850, "lat": 40.374544, "lon": -105.5224352}, {"type": "node", "id": 2377595852, "lat": 40.3744951, "lon": -105.5228878}, {"type": "node", "id": 2377595856, "lat": 40.3745, "lon": -105.5226289}, {"type": "node", "id": 2377595946, "lat": 40.3757497, "lon": -105.522633}, {"type": "node", "id": 2377595948, "lat": 40.3754926, "lon": -105.5226661}, {"type": "node", "id": 2377595950, "lat": 40.3755617, "lon": -105.5227108}, {"type": "node", "id": 2377595951, "lat": 40.3756925, "lon": -105.5222494}, {"type": "node", "id": 2377595952, "lat": 40.3757211, "lon": -105.522346}, {"type": "node", "id": 2377595953, "lat": 40.3754575, "lon": -105.5217506}, {"type": "node", "id": 2377595954, "lat": 40.3757562, "lon": -105.5225481}, {"type": "node", "id": 2377595955, "lat": 40.3757272, "lon": -105.5227001}, {"type": "node", "id": 2377595956, "lat": 40.3756377, "lon": -105.5227412}, {"type": "node", "id": 2377595957, "lat": 40.3752919, "lon": -105.5220107}, {"type": "node", "id": 2377595958, "lat": 40.3754616, "lon": -105.5226571}, {"type": "node", "id": 2377595959, "lat": 40.3756271, "lon": -105.5218417}, {"type": "node", "id": 2377595962, "lat": 40.3756888, "lon": -105.522135}, {"type": "node", "id": 2377595963, "lat": 40.3754104, "lon": -105.5225351}, {"type": "node", "id": 2377595964, "lat": 40.3756741, "lon": -105.522743}, {"type": "node", "id": 2377595965, "lat": 40.3755719, "lon": -105.5218525}, {"type": "node", "id": 2377596433, "lat": 40.3715874, "lon": -105.5248405}, {"type": "node", "id": 2377596434, "lat": 40.3715424, "lon": -105.5245025}, {"type": "node", "id": 2377596435, "lat": 40.3716691, "lon": -105.5246473}, {"type": "node", "id": 2377596436, "lat": 40.371694, "lon": -105.5250023}, {"type": "node", "id": 2377596437, "lat": 40.3715141, "lon": -105.5245464}, {"type": "node", "id": 2377596438, "lat": 40.3715976, "lon": -105.52476}, {"type": "node", "id": 2377596439, "lat": 40.3716081, "lon": -105.5248709}, {"type": "node", "id": 2377596440, "lat": 40.3717777, "lon": -105.5247851}, {"type": "node", "id": 2377596441, "lat": 40.3716221, "lon": -105.5247841}, {"type": "node", "id": 2377596442, "lat": 40.3715588, "lon": -105.5248136}, {"type": "node", "id": 2377596443, "lat": 40.371428, "lon": -105.5246527}, {"type": "node", "id": 2377596444, "lat": 40.3713486, "lon": -105.5246027}, {"type": "node", "id": 2377596445, "lat": 40.3713994, "lon": -105.5246178}, {"type": "node", "id": 2377596446, "lat": 40.3718224, "lon": -105.5248405}, {"type": "node", "id": 2377596447, "lat": 40.3716592, "lon": -105.5249433}, {"type": "node", "id": 2377596448, "lat": 40.371708, "lon": -105.5246903}, {"type": "node", "id": 2377596449, "lat": 40.371365, "lon": -105.5246161}, {"type": "node", "id": 2377596450, "lat": 40.3717141, "lon": -105.5250524}, {"type": "node", "id": 2377596451, "lat": 40.3718717, "lon": -105.5249701}, {"type": "node", "id": 2377596452, "lat": 40.3713527, "lon": -105.5245464}, {"type": "node", "id": 2377596453, "lat": 40.3716385, "lon": -105.5246929}, {"type": "node", "id": 2377596454, "lat": 40.3716691, "lon": -105.5247385}, {"type": "node", "id": 2377596455, "lat": 40.3718346, "lon": -105.5248807}, {"type": "node", "id": 2377596456, "lat": 40.3713956, "lon": -105.5244525}, {"type": "node", "id": 2377606265, "lat": 40.3772765, "lon": -105.517764, "tags": {"addr:city": "Estes Park", "addr:housenumber": "390", "addr:postcode": "80517", "addr:state": "CO", "addr:street": "East Elkhorn Avenue", "amenity": "restaurant", "cuisine": "mexican", "name": "Ed's Cantina", "opening_hours": "Mo-Fr 11:30-21:00; Sa,Su 11:00-21:00", "phone": "+1-970-586-2919", "website": "https://www.edscantina.com/"}}, {"type": "node", "id": 2377606319, "lat": 40.378155, "lon": -105.517636, "tags": {"addr:city": "Estes Park", "addr:housenumber": "401", "addr:postcode": "80517", "addr:state": "CO", "addr:street": "East Elkhorn Avenue", "amenity": "restaurant", "cuisine": "thai", "name": "Estes Thai", "opening_hours": "Tu-Fr 11:00-15:00; Tu-Fr 16:30-20:30; Sa-Su 12:00-20:30", "phone": "+1-970-577-0032", "website": "https://estesthai.com"}}, {"type": "node", "id": 2377606413, "lat": 40.3765079, "lon": -105.5211951}, {"type": "node", "id": 2377606414, "lat": 40.3763611, "lon": -105.5207578}, {"type": "node", "id": 2377606415, "lat": 40.3762573, "lon": -105.5211328}, {"type": "node", "id": 2377606416, "lat": 40.3762791, "lon": -105.5210637}, {"type": "node", "id": 2377606417, "lat": 40.3763529, "lon": -105.5212754}, {"type": "node", "id": 2377606418, "lat": 40.3764837, "lon": -105.5212298}, {"type": "node", "id": 2377606419, "lat": 40.3766305, "lon": -105.5208679}, {"type": "node", "id": 2377606420, "lat": 40.3762405, "lon": -105.5212222}, {"type": "node", "id": 2377606421, "lat": 40.3765324, "lon": -105.5212327}, {"type": "node", "id": 2377606422, "lat": 40.3764282, "lon": -105.5212783}, {"type": "node", "id": 2596007459, "lat": 40.374938, "lon": -105.5241156}, {"type": "node", "id": 2596007467, "lat": 40.3749928, "lon": -105.5241875}, {"type": "node", "id": 2596007469, "lat": 40.3750464, "lon": -105.5244471}, {"type": "node", "id": 2596007473, "lat": 40.3750822, "lon": -105.5237433}, {"type": "node", "id": 2596007475, "lat": 40.3750881, "lon": -105.5240827}, {"type": "node", "id": 2596007479, "lat": 40.3751239, "lon": -105.5248444}, {"type": "node", "id": 2596007483, "lat": 40.3751548, "lon": -105.5246614}, {"type": "node", "id": 2596007485, "lat": 40.3751775, "lon": -105.5243064}, {"type": "node", "id": 2596007491, "lat": 40.3753416, "lon": -105.5246397}, {"type": "node", "id": 2596007495, "lat": 40.3753943, "lon": -105.5255044}, {"type": "node", "id": 2596007499, "lat": 40.375467, "lon": -105.5250148}, {"type": "node", "id": 2596007501, "lat": 40.3754956, "lon": -105.5251665}, {"type": "node", "id": 2596007503, "lat": 40.3755873, "lon": -105.5258406}, {"type": "node", "id": 2596007507, "lat": 40.3756993, "lon": -105.525753}, {"type": "node", "id": 2596007509, "lat": 40.3757124, "lon": -105.5259235}, {"type": "node", "id": 2596007511, "lat": 40.3759217, "lon": -105.5260333}, {"type": "node", "id": 2596007513, "lat": 40.3759225, "lon": -105.525952}, {"type": "node", "id": 2596007515, "lat": 40.3759225, "lon": -105.5261174}, {"type": "node", "id": 2596009447, "lat": 40.3752514, "lon": -105.5244791}, {"type": "node", "id": 2596029897, "lat": 40.3747566, "lon": -105.5238015, "tags": {"amenity": "toilets", "fee": "no", "toilets:disposal": "flush", "wheelchair": "yes"}}, {"type": "node", "id": 2596029898, "lat": 40.3749891, "lon": -105.5237408, "tags": {"amenity": "parking_entrance", "source": "Bing"}}, {"type": "node", "id": 2630200637, "lat": 40.376236, "lon": -105.521726, "tags": {"addr:city": "Estes Park", "addr:housenumber": "184", "addr:postcode": "80517", "addr:street": "East Elkhorn Avenue", "amenity": "restaurant", "cuisine": "indian", "internet_access": "wlan", "name": "Nepal's Cafe", "opening_hours": "Su-Th 07:00-17:00; Fr,Sa 07:00-19:00", "outdoor_seating": "yes", "phone": "+1-970-577-7035"}}, {"type": "node", "id": 2703690968, "lat": 40.379159, "lon": -105.516498, "tags": {"addr:city": "Estes Park", "addr:state": "CO", "name": "Wick & Trautwein, LLC - Attorneys at Law", "office": "lawyer", "phone": "+1-970-586-3505", "website": "https://www.wicklaw.com/"}}, {"type": "node", "id": 2856856789, "lat": 40.3769732, "lon": -105.5205929, "tags": {"amenity": "parking_entrance", "source": "Bing"}}, {"type": "node", "id": 2856856797, "lat": 40.3776154, "lon": -105.5209181, "tags": {"amenity": "parking_entrance", "source": "Bing"}}, {"type": "node", "id": 2856856799, "lat": 40.3785456, "lon": -105.5166793}, {"type": "node", "id": 2856856800, "lat": 40.3785727, "lon": -105.5165868}, {"type": "node", "id": 2856860301, "lat": 40.3785873, "lon": -105.5166}, {"type": "node", "id": 2856860302, "lat": 40.3786195, "lon": -105.5167463}, {"type": "node", "id": 2856860303, "lat": 40.3786433, "lon": -105.5164525}, {"type": "node", "id": 2856860304, "lat": 40.3786579, "lon": -105.5164657}, {"type": "node", "id": 2856860305, "lat": 40.3786751, "lon": -105.5164331}, {"type": "node", "id": 2856860306, "lat": 40.378749, "lon": -105.5165001}, {"type": "node", "id": 2856860345, "lat": 40.3793975, "lon": -105.5153428}, {"type": "node", "id": 2856860346, "lat": 40.379398, "lon": -105.5153996}, {"type": "node", "id": 2856860347, "lat": 40.3794045, "lon": -105.5153982}, {"type": "node", "id": 2856860348, "lat": 40.3794058, "lon": -105.5154622}, {"type": "node", "id": 2856860349, "lat": 40.3794123, "lon": -105.5154608}, {"type": "node", "id": 2856860350, "lat": 40.3794145, "lon": -105.5154785}, {"type": "node", "id": 2856860353, "lat": 40.3794651, "lon": -105.5154676}, {"type": "node", "id": 2856860354, "lat": 40.3794676, "lon": -105.5154874}, {"type": "node", "id": 2856860356, "lat": 40.3794914, "lon": -105.5152722}, {"type": "node", "id": 2856860357, "lat": 40.3794976, "lon": -105.5153212}, {"type": "node", "id": 2856860361, "lat": 40.3795151, "lon": -105.5154772}, {"type": "node", "id": 2856860368, "lat": 40.3795627, "lon": -105.5152568}, {"type": "node", "id": 2856860369, "lat": 40.3795689, "lon": -105.5153058}, {"type": "node", "id": 2856860371, "lat": 40.3795799, "lon": -105.5153034}, {"type": "node", "id": 2856860372, "lat": 40.3795969, "lon": -105.5154391}, {"type": "node", "id": 2856860391, "lat": 40.3798091, "lon": -105.5147286}, {"type": "node", "id": 2856860398, "lat": 40.3798745, "lon": -105.5148279}, {"type": "node", "id": 2856860399, "lat": 40.379886, "lon": -105.5148148}, {"type": "node", "id": 2856860501, "lat": 40.3799306, "lon": -105.5148825}, {"type": "node", "id": 2856860505, "lat": 40.37999, "lon": -105.5149728}, {"type": "node", "id": 2856860507, "lat": 40.3800018, "lon": -105.5149907}, {"type": "node", "id": 2856860508, "lat": 40.3799938, "lon": -105.5145451}, {"type": "node", "id": 2856860519, "lat": 40.3801652, "lon": -105.5148054}, {"type": "node", "id": 2857333566, "lat": 40.3802811, "lon": -105.5147184}, {"type": "node", "id": 2857333567, "lat": 40.3805512, "lon": -105.5143923}, {"type": "node", "id": 2857333568, "lat": 40.3805343, "lon": -105.5143258}, {"type": "node", "id": 2857333569, "lat": 40.3803824, "lon": -105.5143068}, {"type": "node", "id": 2857333570, "lat": 40.3802594, "lon": -105.5142403}, {"type": "node", "id": 2857333571, "lat": 40.3800906, "lon": -105.5144366}, {"type": "node", "id": 2857333572, "lat": 40.380093, "lon": -105.5144999}, {"type": "node", "id": 2857333583, "lat": 40.3803516, "lon": -105.5154446}, {"type": "node", "id": 2857333584, "lat": 40.3803342, "lon": -105.5155076}, {"type": "node", "id": 2857333585, "lat": 40.3806439, "lon": -105.515895}, {"type": "node", "id": 2857333586, "lat": 40.3810885, "lon": -105.515371}, {"type": "node", "id": 2857333587, "lat": 40.3811738, "lon": -105.5153947}, {"type": "node", "id": 2857333588, "lat": 40.3813061, "lon": -105.5152325}, {"type": "node", "id": 2857333589, "lat": 40.381234, "lon": -105.5151081}, {"type": "node", "id": 2857333590, "lat": 40.3812807, "lon": -105.5150917}, {"type": "node", "id": 2857333591, "lat": 40.3811208, "lon": -105.514863}, {"type": "node", "id": 2857333592, "lat": 40.3810672, "lon": -105.51488}, {"type": "node", "id": 2857333593, "lat": 40.3808829, "lon": -105.5146472}, {"type": "node", "id": 2857333594, "lat": 40.3808602, "lon": -105.5147313}, {"type": "node", "id": 2857333595, "lat": 40.3808015, "lon": -105.5148277}, {"type": "node", "id": 2857333596, "lat": 40.3807668, "lon": -105.5149363}, {"type": "node", "id": 2857333597, "lat": 40.3811379, "lon": -105.5153412}, {"type": "node", "id": 2857333598, "lat": 40.3811138, "lon": -105.5153412}, {"type": "node", "id": 2857333599, "lat": 40.3811524, "lon": -105.5153632}, {"type": "node", "id": 2857334329, "lat": 40.3793677, "lon": -105.5168509}, {"type": "node", "id": 2857334330, "lat": 40.3794208, "lon": -105.5167115}, {"type": "node", "id": 2857334331, "lat": 40.3796778, "lon": -105.5165465}, {"type": "node", "id": 2857334332, "lat": 40.380094, "lon": -105.5158056}, {"type": "node", "id": 2857334333, "lat": 40.3801946, "lon": -105.5156626}, {"type": "node", "id": 2857334334, "lat": 40.3804349, "lon": -105.5159193}, {"type": "node", "id": 2857334335, "lat": 40.3803622, "lon": -105.5159817}, {"type": "node", "id": 2857334336, "lat": 40.3803343, "lon": -105.5161651}, {"type": "node", "id": 2857334337, "lat": 40.3798637, "lon": -105.5169519}, {"type": "node", "id": 2857334338, "lat": 40.3797704, "lon": -105.5170216}, {"type": "node", "id": 2857334339, "lat": 40.3796957, "lon": -105.5170216}, {"type": "node", "id": 2857334340, "lat": 40.3795406, "lon": -105.516999}, {"type": "node", "id": 2857334341, "lat": 40.3799715, "lon": -105.5168086}, {"type": "node", "id": 2857334369, "lat": 40.3787325, "lon": -105.5169461}, {"type": "node", "id": 2857334370, "lat": 40.378688, "lon": -105.516801}, {"type": "node", "id": 2857334371, "lat": 40.3786325, "lon": -105.516755}, {"type": "node", "id": 2857334372, "lat": 40.3787849, "lon": -105.5164532}, {"type": "node", "id": 2857334373, "lat": 40.3788373, "lon": -105.5164618}, {"type": "node", "id": 2857334374, "lat": 40.3788143, "lon": -105.5164034}, {"type": "node", "id": 2857334375, "lat": 40.3787253, "lon": -105.516328}, {"type": "node", "id": 2857334376, "lat": 40.3786866, "lon": -105.516328}, {"type": "node", "id": 2857334377, "lat": 40.3784885, "lon": -105.5167106}, {"type": "node", "id": 2857334378, "lat": 40.3784885, "lon": -105.5167615}, {"type": "node", "id": 2857334379, "lat": 40.3786191, "lon": -105.51685}, {"type": "node", "id": 2857334380, "lat": 40.378622, "lon": -105.5169555}, {"type": "node", "id": 2857334381, "lat": 40.3785847, "lon": -105.5169989}, {"type": "node", "id": 2857334382, "lat": 40.3783665, "lon": -105.5168915}, {"type": "node", "id": 2857334383, "lat": 40.3783363, "lon": -105.516786}, {"type": "node", "id": 2857334384, "lat": 40.3783435, "lon": -105.5167219}, {"type": "node", "id": 2857334385, "lat": 40.3789005, "lon": -105.5156497}, {"type": "node", "id": 2857334386, "lat": 40.3789493, "lon": -105.5156723}, {"type": "node", "id": 2857334387, "lat": 40.3789952, "lon": -105.5156176}, {"type": "node", "id": 2857334388, "lat": 40.3790526, "lon": -105.5156459}, {"type": "node", "id": 2857334389, "lat": 40.3791861, "lon": -105.5157458}, {"type": "node", "id": 2857334390, "lat": 40.379222, "lon": -105.5158419}, {"type": "node", "id": 2857334391, "lat": 40.3792249, "lon": -105.5158965}, {"type": "node", "id": 2857334392, "lat": 40.3792938, "lon": -105.5159059}, {"type": "node", "id": 2857334393, "lat": 40.3789765, "lon": -105.5164939}, {"type": "node", "id": 2857334419, "lat": 40.3791213, "lon": -105.5153022}, {"type": "node", "id": 2857334420, "lat": 40.3792293, "lon": -105.5153175}, {"type": "node", "id": 2857334421, "lat": 40.379246, "lon": -105.5153415}, {"type": "node", "id": 2857334422, "lat": 40.3792859, "lon": -105.5153524}, {"type": "node", "id": 2857334423, "lat": 40.3793906, "lon": -105.5151778}, {"type": "node", "id": 2857334424, "lat": 40.3794871, "lon": -105.5151735}, {"type": "node", "id": 2857334425, "lat": 40.3795552, "lon": -105.5151604}, {"type": "node", "id": 2857334426, "lat": 40.3795868, "lon": -105.5151276}, {"type": "node", "id": 2857334427, "lat": 40.3796184, "lon": -105.5150796}, {"type": "node", "id": 2857334428, "lat": 40.3797215, "lon": -105.5150753}, {"type": "node", "id": 2857334429, "lat": 40.3798196, "lon": -105.5148875}, {"type": "node", "id": 2857334430, "lat": 40.3797747, "lon": -105.5148614}, {"type": "node", "id": 2857334431, "lat": 40.3797547, "lon": -105.5148373}, {"type": "node", "id": 2857334432, "lat": 40.3797597, "lon": -105.5147697}, {"type": "node", "id": 2857334433, "lat": 40.3795968, "lon": -105.5146977}, {"type": "node", "id": 2857334434, "lat": 40.3795868, "lon": -105.5147522}, {"type": "node", "id": 2857334435, "lat": 40.3793973, "lon": -105.5147195}, {"type": "node", "id": 2857334436, "lat": 40.3791279, "lon": -105.5152302}, {"type": "node", "id": 2857412212, "lat": 40.3772229, "lon": -105.5205083}, {"type": "node", "id": 2857412213, "lat": 40.3772391, "lon": -105.5202995}, {"type": "node", "id": 2857412214, "lat": 40.3772682, "lon": -105.5203111}, {"type": "node", "id": 2857412215, "lat": 40.3772973, "lon": -105.5198731}, {"type": "node", "id": 2857412216, "lat": 40.3773048, "lon": -105.5197785}, {"type": "node", "id": 2857412217, "lat": 40.377311, "lon": -105.5198135}, {"type": "node", "id": 2857412218, "lat": 40.3773236, "lon": -105.5199322}, {"type": "node", "id": 2857412219, "lat": 40.3773245, "lon": -105.5205486}, {"type": "node", "id": 2857412220, "lat": 40.3773339, "lon": -105.5198876}, {"type": "node", "id": 2857412221, "lat": 40.3773431, "lon": -105.520468}, {"type": "node", "id": 2857412222, "lat": 40.377359, "lon": -105.5195428}, {"type": "node", "id": 2857412223, "lat": 40.3773978, "lon": -105.5202738}, {"type": "node", "id": 2857412224, "lat": 40.377424, "lon": -105.5201599}, {"type": "node", "id": 2857412225, "lat": 40.3774469, "lon": -105.520169}, {"type": "node", "id": 2857412226, "lat": 40.3774554, "lon": -105.519581}, {"type": "node", "id": 2857412227, "lat": 40.3774753, "lon": -105.5194946}, {"type": "node", "id": 2857412228, "lat": 40.3774811, "lon": -105.5200203}, {"type": "node", "id": 2857412229, "lat": 40.3775175, "lon": -105.5206895}, {"type": "node", "id": 2857412230, "lat": 40.377519, "lon": -105.5205624}, {"type": "node", "id": 2857412231, "lat": 40.3775242, "lon": -105.5205398}, {"type": "node", "id": 2857412232, "lat": 40.3775355, "lon": -105.5195628}, {"type": "node", "id": 2857412233, "lat": 40.3775444, "lon": -105.5205725}, {"type": "node", "id": 2857412234, "lat": 40.3775448, "lon": -105.5195222}, {"type": "node", "id": 2857412235, "lat": 40.3775705, "lon": -105.5200557}, {"type": "node", "id": 2857412236, "lat": 40.3775728, "lon": -105.5207115}, {"type": "node", "id": 2857412237, "lat": 40.3775798, "lon": -105.5206808}, {"type": "node", "id": 2857412238, "lat": 40.3776092, "lon": -105.5203576}, {"type": "node", "id": 2857412239, "lat": 40.3776159, "lon": -105.519724}, {"type": "node", "id": 2857412240, "lat": 40.377622, "lon": -105.520302}, {"type": "node", "id": 2857412241, "lat": 40.3776432, "lon": -105.5196055}, {"type": "node", "id": 2857412242, "lat": 40.3776442, "lon": -105.5197353}, {"type": "node", "id": 2857412243, "lat": 40.3777764, "lon": -105.5207587}, {"type": "node", "id": 2857412244, "lat": 40.3777987, "lon": -105.5205955}, {"type": "node", "id": 2857412245, "lat": 40.3778127, "lon": -105.520601}, {"type": "node", "id": 2857412246, "lat": 40.3778458, "lon": -105.5203907}, {"type": "node", "id": 2858368596, "lat": 40.3779183, "lon": -105.5208028}, {"type": "node", "id": 2858368597, "lat": 40.3779846, "lon": -105.5205996}, {"type": "node", "id": 2858368598, "lat": 40.3779625, "lon": -105.5204597}, {"type": "node", "id": 2858368599, "lat": 40.3780027, "lon": -105.5202987}, {"type": "node", "id": 2858368600, "lat": 40.3778961, "lon": -105.5202301}, {"type": "node", "id": 2858368701, "lat": 40.3781052, "lon": -105.5193143}, {"type": "node", "id": 2858368702, "lat": 40.3781454, "lon": -105.519317}, {"type": "node", "id": 2858368703, "lat": 40.3781696, "lon": -105.5192932}, {"type": "node", "id": 2858368704, "lat": 40.3782379, "lon": -105.5190293}, {"type": "node", "id": 2858368705, "lat": 40.3781454, "lon": -105.5189211}, {"type": "node", "id": 2858368706, "lat": 40.3781635, "lon": -105.5188419}, {"type": "node", "id": 2858368707, "lat": 40.3774759, "lon": -105.5185543}, {"type": "node", "id": 2858368708, "lat": 40.3773252, "lon": -105.5194041}, {"type": "node", "id": 2858368709, "lat": 40.3776943, "lon": -105.5195428}, {"type": "node", "id": 2858368710, "lat": 40.3775319, "lon": -105.5202393}, {"type": "node", "id": 2858368711, "lat": 40.377862, "lon": -105.5203779}, {"type": "node", "id": 2858368712, "lat": 40.3777837, "lon": -105.5207578}, {"type": "node", "id": 2858368713, "lat": 40.3775749, "lon": -105.5209077}, {"type": "node", "id": 2858368714, "lat": 40.3776555, "lon": -105.5208485}, {"type": "node", "id": 2858368715, "lat": 40.3776152, "lon": -105.5207765}, {"type": "node", "id": 2858368716, "lat": 40.3775475, "lon": -105.5207426}, {"type": "node", "id": 2858368717, "lat": 40.3774733, "lon": -105.5207045}, {"type": "node", "id": 2858368718, "lat": 40.3772991, "lon": -105.5206664}, {"type": "node", "id": 2858368719, "lat": 40.377062, "lon": -105.5205838}, {"type": "node", "id": 2858368720, "lat": 40.3770362, "lon": -105.5206643}, {"type": "node", "id": 2858368721, "lat": 40.3770669, "lon": -105.5207362}, {"type": "node", "id": 2858368722, "lat": 40.377262, "lon": -105.5209014}, {"type": "node", "id": 2858368723, "lat": 40.3775136, "lon": -105.5209374}, {"type": "node", "id": 2858368724, "lat": 40.3774975, "lon": -105.5208527}, {"type": "node", "id": 2858368725, "lat": 40.3775346, "lon": -105.5208548}, {"type": "node", "id": 2858368726, "lat": 40.3781179, "lon": -105.5187972}, {"type": "node", "id": 2858368727, "lat": 40.3774766, "lon": -105.5185416}, {"type": "node", "id": 2858368728, "lat": 40.3777158, "lon": -105.5179828}, {"type": "node", "id": 2858368729, "lat": 40.3779857, "lon": -105.5180193}, {"type": "node", "id": 2858368730, "lat": 40.3780275, "lon": -105.5180778}, {"type": "node", "id": 2858368731, "lat": 40.3779509, "lon": -105.518432}, {"type": "node", "id": 2858368732, "lat": 40.3779537, "lon": -105.5185087}, {"type": "node", "id": 2858368733, "lat": 40.3781749, "lon": -105.5185964}, {"type": "node", "id": 2858368740, "lat": 40.3781764, "lon": -105.5179922}, {"type": "node", "id": 2858368741, "lat": 40.3781746, "lon": -105.5179124}, {"type": "node", "id": 2858368742, "lat": 40.378314, "lon": -105.5177482}, {"type": "node", "id": 2858368743, "lat": 40.3783564, "lon": -105.5176536}, {"type": "node", "id": 2858368744, "lat": 40.3784516, "lon": -105.5177095}, {"type": "node", "id": 2858368745, "lat": 40.3784177, "lon": -105.5179101}, {"type": "node", "id": 2858368746, "lat": 40.3783676, "lon": -105.5179113}, {"type": "node", "id": 2858368747, "lat": 40.3783703, "lon": -105.5179781}, {"type": "node", "id": 2858368748, "lat": 40.3777297, "lon": -105.517964}, {"type": "node", "id": 2858368749, "lat": 40.3778977, "lon": -105.5179981}, {"type": "node", "id": 2858368750, "lat": 40.3779459, "lon": -105.5179981}, {"type": "node", "id": 2858368751, "lat": 40.3779513, "lon": -105.51776}, {"type": "node", "id": 2858368752, "lat": 40.3780531, "lon": -105.5177412}, {"type": "node", "id": 2858368753, "lat": 40.3780558, "lon": -105.517611}, {"type": "node", "id": 2858368754, "lat": 40.3780844, "lon": -105.5175019}, {"type": "node", "id": 2858368755, "lat": 40.3779727, "lon": -105.5174949}, {"type": "node", "id": 2858368756, "lat": 40.3779102, "lon": -105.5175301}, {"type": "node", "id": 2858368757, "lat": 40.377853, "lon": -105.5175828}, {"type": "node", "id": 2858368758, "lat": 40.3777654, "lon": -105.5177529}, {"type": "node", "id": 3022979165, "lat": 40.3704737, "lon": -105.5291733, "tags": {"addr:city": "Estes Park", "addr:housenumber": "490", "addr:state": "CO", "addr:street": "Moraine Avenue", "name": "Red Rose Rock Shop & Dick's Rock Museum", "opening_hours": "08:00-20:00", "phone": "+1-970-586-4180", "shop": "gems", "website": "http://redroserockshopestes.com/"}}, {"type": "node", "id": 3022979166, "lat": 40.3700129, "lon": -105.529579}, {"type": "node", "id": 3115794345, "lat": 40.3765032, "lon": -105.5225069, "tags": {"amenity": "restaurant", "name": "Local's", "opening_hours": "Mo-Sa 10:00-19:00; Su 10:00-18:00"}}, {"type": "node", "id": 3119884983, "lat": 40.378017, "lon": -105.5179043, "tags": {"amenity": "restaurant", "check_date:opening_hours": "2022-05-23", "name": "The Egg of Estes", "opening_hours": "Mo-Fr 06:00-14:00; Sa,Su 06:00-14:30"}}, {"type": "node", "id": 3181510494, "lat": 40.3802814, "lon": -105.5196009}, {"type": "node", "id": 3181510495, "lat": 40.3802857, "lon": -105.5198072}, {"type": "node", "id": 3181510496, "lat": 40.3803429, "lon": -105.5195987}, {"type": "node", "id": 3181510497, "lat": 40.3803397, "lon": -105.5194445}, {"type": "node", "id": 3181510498, "lat": 40.3803777, "lon": -105.5194431}, {"type": "node", "id": 3181510499, "lat": 40.380379, "lon": -105.5195074}, {"type": "node", "id": 3181510500, "lat": 40.3804008, "lon": -105.5196266}, {"type": "node", "id": 3181510502, "lat": 40.3804045, "lon": -105.5198029}, {"type": "node", "id": 3181510504, "lat": 40.380446, "lon": -105.519505}, {"type": "node", "id": 3181510505, "lat": 40.3804485, "lon": -105.5196249}, {"type": "node", "id": 3269634631, "lat": 40.3714127, "lon": -105.5159052}, {"type": "node", "id": 3270081947, "lat": 40.3747685, "lon": -105.510487}, {"type": "node", "id": 3270081955, "lat": 40.374555, "lon": -105.5107276}, {"type": "node", "id": 3270081958, "lat": 40.3748254, "lon": -105.509804}, {"type": "node", "id": 3270081959, "lat": 40.374757, "lon": -105.5097638}, {"type": "node", "id": 3270082103, "lat": 40.374804, "lon": -105.5096329}, {"type": "node", "id": 3270082108, "lat": 40.3748655, "lon": -105.5096906}, {"type": "node", "id": 3280121286, "lat": 40.3815179, "lon": -105.5082429}, {"type": "node", "id": 3280121289, "lat": 40.3816507, "lon": -105.5080149}, {"type": "node", "id": 3280121302, "lat": 40.3815404, "lon": -105.5083931}, {"type": "node", "id": 3280121314, "lat": 40.3817917, "lon": -105.5080364}, {"type": "node", "id": 3280121317, "lat": 40.3818223, "lon": -105.5083368}, {"type": "node", "id": 3280121331, "lat": 40.3816486, "lon": -105.5079559}, {"type": "node", "id": 3280121347, "lat": 40.3815649, "lon": -105.5082349}, {"type": "node", "id": 3280121350, "lat": 40.3816915, "lon": -105.5078969}, {"type": "node", "id": 3280121351, "lat": 40.3815465, "lon": -105.5080391}, {"type": "node", "id": 3280121352, "lat": 40.3818182, "lon": -105.5079291}, {"type": "node", "id": 3280125167, "lat": 40.3817671, "lon": -105.5078862}, {"type": "node", "id": 3280125173, "lat": 40.3817733, "lon": -105.5079318}, {"type": "node", "id": 3280125175, "lat": 40.3816895, "lon": -105.5079452}, {"type": "node", "id": 3280125178, "lat": 40.3818203, "lon": -105.5080203}, {"type": "node", "id": 3286260702, "lat": 40.3747228, "lon": -105.5231391}, {"type": "node", "id": 3286261590, "lat": 40.3747038, "lon": -105.5229578}, {"type": "node", "id": 3286261605, "lat": 40.3747971, "lon": -105.5232025}, {"type": "node", "id": 3286261626, "lat": 40.3745108, "lon": -105.5232542}, {"type": "node", "id": 3286261683, "lat": 40.3744839, "lon": -105.5229974}, {"type": "node", "id": 3286261812, "lat": 40.3747892, "lon": -105.5231271}, {"type": "node", "id": 3288269875, "lat": 40.3715523, "lon": -105.5264919}, {"type": "node", "id": 3288269894, "lat": 40.3716936, "lon": -105.5263076}, {"type": "node", "id": 3288269909, "lat": 40.3722586, "lon": -105.5230428}, {"type": "node", "id": 3288269930, "lat": 40.3712767, "lon": -105.526313}, {"type": "node", "id": 3288269953, "lat": 40.3720774, "lon": -105.522861}, {"type": "node", "id": 3288271163, "lat": 40.3712788, "lon": -105.5265034}, {"type": "node", "id": 3288271166, "lat": 40.3721499, "lon": -105.5230996}, {"type": "node", "id": 3288271185, "lat": 40.3716854, "lon": -105.5264042}, {"type": "node", "id": 3288271193, "lat": 40.3721861, "lon": -105.5228041}, {"type": "node", "id": 3290421613, "lat": 40.3777832, "lon": -105.513396}, {"type": "node", "id": 3290421620, "lat": 40.3779027, "lon": -105.5142652}, {"type": "node", "id": 3290421637, "lat": 40.3780168, "lon": -105.5133262}, {"type": "node", "id": 3290421641, "lat": 40.3768656, "lon": -105.5294589}, {"type": "node", "id": 3290423580, "lat": 40.3767712, "lon": -105.5286863}, {"type": "node", "id": 3290423592, "lat": 40.3764076, "lon": -105.528678}, {"type": "node", "id": 3290423600, "lat": 40.3781358, "lon": -105.5132906}, {"type": "node", "id": 3290423612, "lat": 40.3765854, "lon": -105.5289525}, {"type": "node", "id": 3290423640, "lat": 40.3767931, "lon": -105.5289056}, {"type": "node", "id": 3290423642, "lat": 40.3767733, "lon": -105.5285287}, {"type": "node", "id": 3290423647, "lat": 40.3766579, "lon": -105.5295058}, {"type": "node", "id": 3290423657, "lat": 40.378283, "lon": -105.5141453}, {"type": "node", "id": 3290423867, "lat": 40.3771407, "lon": -105.5293529}, {"type": "node", "id": 3290423934, "lat": 40.377169, "lon": -105.5294723}, {"type": "node", "id": 3290424067, "lat": 40.3774326, "lon": -105.5292334}, {"type": "node", "id": 3317523173, "lat": 40.3764827, "lon": -105.5203353}, {"type": "node", "id": 3317523178, "lat": 40.3769418, "lon": -105.5197365}, {"type": "node", "id": 3317523232, "lat": 40.3771607, "lon": -105.5187207}, {"type": "node", "id": 3317523235, "lat": 40.3766473, "lon": -105.5201854}, {"type": "node", "id": 3317523478, "lat": 40.3765992, "lon": -105.5203839}, {"type": "node", "id": 3326879759, "lat": 40.3758779, "lon": -105.5241887}, {"type": "node", "id": 3326879762, "lat": 40.3758772, "lon": -105.52407}, {"type": "node", "id": 3326879769, "lat": 40.3760385, "lon": -105.5222464}, {"type": "node", "id": 3326879777, "lat": 40.3760324, "lon": -105.5221015}, {"type": "node", "id": 3326879784, "lat": 40.3759629, "lon": -105.5222249}, {"type": "node", "id": 3326881125, "lat": 40.3757463, "lon": -105.5242471}, {"type": "node", "id": 3326881149, "lat": 40.3759425, "lon": -105.5221632}, {"type": "node", "id": 3326881170, "lat": 40.3757464, "lon": -105.524188}, {"type": "node", "id": 3326881181, "lat": 40.3769057, "lon": -105.5221546}, {"type": "node", "id": 3326881185, "lat": 40.375997, "lon": -105.5222226}, {"type": "node", "id": 3326881525, "lat": 40.3760726, "lon": -105.5221985}, {"type": "node", "id": 3351976903, "lat": 40.3732568, "lon": -105.523931}, {"type": "node", "id": 3351976904, "lat": 40.3736941, "lon": -105.5237539}, {"type": "node", "id": 3351976905, "lat": 40.3734121, "lon": -105.5237861}, {"type": "node", "id": 3351976906, "lat": 40.3733181, "lon": -105.5240758}, {"type": "node", "id": 3351976909, "lat": 40.3732731, "lon": -105.5237459}, {"type": "node", "id": 3351976910, "lat": 40.373316, "lon": -105.5237861}, {"type": "node", "id": 3351976916, "lat": 40.373408, "lon": -105.5237218}, {"type": "node", "id": 3351976919, "lat": 40.3737574, "lon": -105.5240061}, {"type": "node", "id": 3351976921, "lat": 40.3737615, "lon": -105.5237566}, {"type": "node", "id": 3351976925, "lat": 40.3736797, "lon": -105.5240919}, {"type": "node", "id": 3351976927, "lat": 40.3736952, "lon": -105.5237201}, {"type": "node", "id": 3352043656, "lat": 40.3778609, "lon": -105.5214442}, {"type": "node", "id": 3352043672, "lat": 40.3773232, "lon": -105.5218819}, {"type": "node", "id": 3352043686, "lat": 40.3777194, "lon": -105.5213268}, {"type": "node", "id": 3352044005, "lat": 40.3777815, "lon": -105.5213085}, {"type": "node", "id": 3352044007, "lat": 40.378032, "lon": -105.5214183}, {"type": "node", "id": 3352044036, "lat": 40.3777674, "lon": -105.5211382}, {"type": "node", "id": 3352044042, "lat": 40.3778348, "lon": -105.5215665}, {"type": "node", "id": 3352044082, "lat": 40.3778457, "lon": -105.5211725}, {"type": "node", "id": 3352044086, "lat": 40.3778576, "lon": -105.5211255}, {"type": "node", "id": 3352044232, "lat": 40.377268, "lon": -105.5218873}, {"type": "node", "id": 3352044251, "lat": 40.3776478, "lon": -105.5213659}, {"type": "node", "id": 3352044254, "lat": 40.3780641, "lon": -105.5213943}, {"type": "node", "id": 3352044286, "lat": 40.3773089, "lon": -105.5217532}, {"type": "node", "id": 3352044292, "lat": 40.3777711, "lon": -105.5213494}, {"type": "node", "id": 3352044305, "lat": 40.3780407, "lon": -105.5213841}, {"type": "node", "id": 3352044307, "lat": 40.3773641, "lon": -105.5218336}, {"type": "node", "id": 3352044377, "lat": 40.3776217, "lon": -105.5214882}, {"type": "node", "id": 3352044378, "lat": 40.3781049, "lon": -105.5212339}, {"type": "node", "id": 3352044501, "lat": 40.3772394, "lon": -105.5218417}, {"type": "node", "id": 3362600090, "lat": 40.3802303, "lon": -105.513623, "tags": {"addr:city": "Estes Park", "addr:housenumber": "621", "addr:postcode": "80520", "addr:state": "CO", "addr:street": "Big Thompson Road", "amenity": "fuel", "brand": "Safeway", "brand:wikidata": "Q1508234", "compressed_air": "yes", "fuel:diesel": "yes", "fuel:gasoline": "yes", "name": "Safeway", "opening_hours": "Mo-Su 07:00-22:00", "operator": "Safeway", "self_service": "yes", "website": "https://local.fuel.safeway.com/co/estes-park/621-big-thompson-ave.html"}}, {"type": "node", "id": 3362692749, "lat": 40.3768731, "lon": -105.524789}, {"type": "node", "id": 3362692750, "lat": 40.3767081, "lon": -105.5237021, "tags": {"amenity": "parking_entrance", "source": "Bing"}}, {"type": "node", "id": 3362692751, "lat": 40.3766142, "lon": -105.5240036, "tags": {"amenity": "parking_entrance", "source": "Bing"}}, {"type": "node", "id": 3362692752, "lat": 40.3766656, "lon": -105.5248901}, {"type": "node", "id": 3362692754, "lat": 40.376605, "lon": -105.5249447, "tags": {"amenity": "parking_entrance", "source": "Bing"}}, {"type": "node", "id": 3362692756, "lat": 40.3767817, "lon": -105.5239526}, {"type": "node", "id": 3362692757, "lat": 40.3766346, "lon": -105.52454}, {"type": "node", "id": 3362692760, "lat": 40.3766039, "lon": -105.5244354, "tags": {"amenity": "parking_entrance", "source": "Bing"}}, {"type": "node", "id": 3362692761, "lat": 40.3766055, "lon": -105.5233504}, {"type": "node", "id": 3362692762, "lat": 40.3766065, "lon": -105.5250464}, {"type": "node", "id": 3362692763, "lat": 40.3768103, "lon": -105.5245374}, {"type": "node", "id": 3362692764, "lat": 40.3767449, "lon": -105.5239205}, {"type": "node", "id": 3362692766, "lat": 40.3768655, "lon": -105.524473}, {"type": "node", "id": 3362692767, "lat": 40.3766041, "lon": -105.5248918}, {"type": "node", "id": 3362692768, "lat": 40.3768205, "lon": -105.5239956}, {"type": "node", "id": 3362692769, "lat": 40.3766641, "lon": -105.5247946}, {"type": "node", "id": 3362692770, "lat": 40.3765876, "lon": -105.5235905}, {"type": "node", "id": 3362692772, "lat": 40.3766673, "lon": -105.5236871}, {"type": "node", "id": 3362692773, "lat": 40.3768745, "lon": -105.5250352}, {"type": "node", "id": 3362692774, "lat": 40.3766259, "lon": -105.5238814}, {"type": "node", "id": 3362692775, "lat": 40.3765386, "lon": -105.5235852}, {"type": "node", "id": 3362692776, "lat": 40.3767633, "lon": -105.5235369}, {"type": "node", "id": 3362692778, "lat": 40.3767041, "lon": -105.5235154}, {"type": "node", "id": 3362692779, "lat": 40.3768451, "lon": -105.5240519}, {"type": "node", "id": 3362692780, "lat": 40.3764916, "lon": -105.523663}, {"type": "node", "id": 3362692783, "lat": 40.3767552, "lon": -105.5237193}, {"type": "node", "id": 3362692786, "lat": 40.3766836, "lon": -105.5238883}, {"type": "node", "id": 3362692787, "lat": 40.3768634, "lon": -105.5241377}, {"type": "node", "id": 3362693565, "lat": 40.3763992, "lon": -105.5281942}, {"type": "node", "id": 3362693567, "lat": 40.3767306, "lon": -105.5282333}, {"type": "node", "id": 3362693568, "lat": 40.3764564, "lon": -105.5278047, "tags": {"amenity": "parking_entrance", "source": "Bing"}}, {"type": "node", "id": 3362693571, "lat": 40.3769539, "lon": -105.5283382}, {"type": "node", "id": 3362693572, "lat": 40.3770818, "lon": -105.5283497}, {"type": "node", "id": 3362693573, "lat": 40.3770147, "lon": -105.528346}, {"type": "node", "id": 3362693575, "lat": 40.3767408, "lon": -105.5277237}, {"type": "node", "id": 3362693577, "lat": 40.3764669, "lon": -105.5277002}, {"type": "node", "id": 3362693578, "lat": 40.37708, "lon": -105.5279141}, {"type": "node", "id": 3362693579, "lat": 40.3767511, "lon": -105.528177}, {"type": "node", "id": 3362693580, "lat": 40.3769636, "lon": -105.528413}, {"type": "node", "id": 3362693581, "lat": 40.3767628, "lon": -105.5281086}, {"type": "node", "id": 3362693583, "lat": 40.3764204, "lon": -105.52805, "tags": {"amenity": "parking_entrance", "source": "Bing"}}, {"type": "node", "id": 3362693585, "lat": 40.3767996, "lon": -105.5281086}, {"type": "node", "id": 3362693586, "lat": 40.377006, "lon": -105.5284117}, {"type": "node", "id": 3362693587, "lat": 40.376796, "lon": -105.5282226}, {"type": "node", "id": 3362693588, "lat": 40.376731, "lon": -105.5283385}, {"type": "node", "id": 3362696584, "lat": 40.3757641, "lon": -105.5247949}, {"type": "node", "id": 3362696585, "lat": 40.375756, "lon": -105.5248619}, {"type": "node", "id": 3362696586, "lat": 40.3751936, "lon": -105.5222649, "tags": {"amenity": "parking_entrance"}}, {"type": "node", "id": 3362696587, "lat": 40.3756518, "lon": -105.5250255}, {"type": "node", "id": 3362696588, "lat": 40.3745135, "lon": -105.5225222, "tags": {"source": "Bing"}}, {"type": "node", "id": 3362696591, "lat": 40.3755843, "lon": -105.5247895}, {"type": "node", "id": 3362696592, "lat": 40.3756661, "lon": -105.5248673}, {"type": "node", "id": 3362700254, "lat": 40.3770453, "lon": -105.5272865}, {"type": "node", "id": 3362700257, "lat": 40.3771781, "lon": -105.5276996}, {"type": "node", "id": 3362700258, "lat": 40.3772782, "lon": -105.527713}, {"type": "node", "id": 3362700259, "lat": 40.3772435, "lon": -105.5269782}, {"type": "node", "id": 3362700262, "lat": 40.3769985, "lon": -105.5271317, "tags": {"amenity": "parking_entrance", "source": "Bing"}}, {"type": "node", "id": 3362700263, "lat": 40.3755163, "lon": -105.5240742}, {"type": "node", "id": 3362700264, "lat": 40.3769291, "lon": -105.5273652, "tags": {"amenity": "parking_entrance", "source": "Bing"}}, {"type": "node", "id": 3362700268, "lat": 40.3771552, "lon": -105.5272103, "tags": {"amenity": "parking_entrance", "source": "Bing"}}, {"type": "node", "id": 3362700269, "lat": 40.3768314, "lon": -105.5266435, "tags": {"amenity": "parking_entrance", "source": "Bing"}}, {"type": "node", "id": 3362700270, "lat": 40.3770984, "lon": -105.5270989}, {"type": "node", "id": 3362700271, "lat": 40.3769411, "lon": -105.5271604}, {"type": "node", "id": 3362700274, "lat": 40.3772742, "lon": -105.5276432}, {"type": "node", "id": 3362700280, "lat": 40.377198, "lon": -105.5271805}, {"type": "node", "id": 3362700281, "lat": 40.3768021, "lon": -105.5266322}, {"type": "node", "id": 3362700283, "lat": 40.3771782, "lon": -105.5270326, "tags": {"amenity": "parking_entrance", "source": "Bing"}}, {"type": "node", "id": 3362700284, "lat": 40.3770713, "lon": -105.5266924, "tags": {"amenity": "parking_entrance", "source": "Bing"}}, {"type": "node", "id": 3362700285, "lat": 40.3755132, "lon": -105.524248}, {"type": "node", "id": 3362700286, "lat": 40.3767756, "lon": -105.5267073}, {"type": "node", "id": 3362700287, "lat": 40.3769084, "lon": -105.5276084}, {"type": "node", "id": 3362700289, "lat": 40.3772435, "lon": -105.5274206}, {"type": "node", "id": 3362700291, "lat": 40.377219, "lon": -105.5275976}, {"type": "node", "id": 3362700793, "lat": 40.3755795, "lon": -105.5251063, "tags": {"amenity": "parking_entrance", "source": "Bing"}}, {"type": "node", "id": 3362700795, "lat": 40.375514, "lon": -105.5241391, "tags": {"amenity": "parking_entrance", "source": "Bing"}}, {"type": "node", "id": 3362700797, "lat": 40.3771638, "lon": -105.5267073}, {"type": "node", "id": 3362700799, "lat": 40.3768778, "lon": -105.527367}, {"type": "node", "id": 3362700801, "lat": 40.3746378, "lon": -105.5237297, "tags": {"amenity": "parking_entrance", "source": "Bing"}}, {"type": "node", "id": 3362715509, "lat": 40.3733506, "lon": -105.5237897, "tags": {"amenity": "parking_entrance", "source": "Bing"}}, {"type": "node", "id": 3362715512, "lat": 40.3742229, "lon": -105.5237054}, {"type": "node", "id": 3362715516, "lat": 40.375315, "lon": -105.5221101, "tags": {"source": "Bing"}}, {"type": "node", "id": 3362715522, "lat": 40.3742684, "lon": -105.523955}, {"type": "node", "id": 3362715523, "lat": 40.3741678, "lon": -105.5239546}, {"type": "node", "id": 3362715533, "lat": 40.3741684, "lon": -105.5237051}, {"type": "node", "id": 3362715537, "lat": 40.374269, "lon": -105.5237055}, {"type": "node", "id": 3362788739, "lat": 40.3764785, "lon": -105.5298391, "tags": {"amenity": "parking_entrance", "source": "Bing"}}, {"type": "node", "id": 3362788740, "lat": 40.3764113, "lon": -105.5239115}, {"type": "node", "id": 3362788741, "lat": 40.3769943, "lon": -105.5297288}, {"type": "node", "id": 3362788754, "lat": 40.3763792, "lon": -105.5286839}, {"type": "node", "id": 3362788756, "lat": 40.3766498, "lon": -105.5219024, "tags": {"amenity": "parking_entrance", "source": "Bing"}}, {"type": "node", "id": 3362788758, "lat": 40.3769044, "lon": -105.5297529}, {"type": "node", "id": 3362788761, "lat": 40.376941, "lon": -105.522118}, {"type": "node", "id": 3362788769, "lat": 40.3770636, "lon": -105.5220403}, {"type": "node", "id": 3362788770, "lat": 40.3774964, "lon": -105.5184333, "tags": {"amenity": "parking_entrance", "source": "Bing"}}, {"type": "node", "id": 3362788774, "lat": 40.3763649, "lon": -105.5292874}, {"type": "node", "id": 3362788780, "lat": 40.3768901, "lon": -105.5296349}, {"type": "node", "id": 3362788783, "lat": 40.3764945, "lon": -105.5239121}, {"type": "node", "id": 3362788785, "lat": 40.3766673, "lon": -105.5218015}, {"type": "node", "id": 3362788791, "lat": 40.3768431, "lon": -105.528731}, {"type": "node", "id": 3362788792, "lat": 40.3770883, "lon": -105.5291924}, {"type": "node", "id": 3362789199, "lat": 40.3767184, "lon": -105.5218149}, {"type": "node", "id": 3362789203, "lat": 40.3763305, "lon": -105.5212612, "tags": {"amenity": "parking_entrance", "source": "Bing"}}, {"type": "node", "id": 3362789205, "lat": 40.3770391, "lon": -105.5296254}, {"type": "node", "id": 3362789209, "lat": 40.3764997, "lon": -105.5299419}, {"type": "node", "id": 3362789214, "lat": 40.3769759, "lon": -105.529651}, {"type": "node", "id": 3362789217, "lat": 40.3771496, "lon": -105.5295223}, {"type": "node", "id": 3362789224, "lat": 40.3768744, "lon": -105.521391}, {"type": "node", "id": 3362789228, "lat": 40.3773968, "lon": -105.5290743}, {"type": "node", "id": 3362789230, "lat": 40.3770229, "lon": -105.5220175, "tags": {"amenity": "parking_entrance", "source": "Bing"}}, {"type": "node", "id": 3362789232, "lat": 40.3770799, "lon": -105.5294886}, {"type": "node", "id": 3362789242, "lat": 40.377046, "lon": -105.5219956, "tags": {"crossing": "unmarked", "highway": "crossing", "source": "Bing", "tactile_paving": "no"}}, {"type": "node", "id": 3362789243, "lat": 40.3766366, "lon": -105.5219786}, {"type": "node", "id": 3362789244, "lat": 40.377457, "lon": -105.518661, "tags": {"amenity": "parking_entrance", "source": "Bing"}}, {"type": "node", "id": 3362789245, "lat": 40.3766817, "lon": -105.5296913}, {"type": "node", "id": 3362789249, "lat": 40.377527, "lon": -105.5183156}, {"type": "node", "id": 3362789251, "lat": 40.3763666, "lon": -105.5288517, "tags": {"amenity": "parking_entrance", "source": "Bing"}}, {"type": "node", "id": 3362789253, "lat": 40.3763669, "lon": -105.5287671}, {"type": "node", "id": 3362789254, "lat": 40.3770209, "lon": -105.5219316}, {"type": "node", "id": 3362789259, "lat": 40.3768307, "lon": -105.5298427}, {"type": "node", "id": 3362789262, "lat": 40.3769187, "lon": -105.5298254}, {"type": "node", "id": 3362789268, "lat": 40.3768554, "lon": -105.5285272}, {"type": "node", "id": 3362789272, "lat": 40.3776358, "lon": -105.5183537}, {"type": "node", "id": 3362985645, "lat": 40.3709356, "lon": -105.522268}, {"type": "node", "id": 3362985650, "lat": 40.3710271, "lon": -105.5215348}, {"type": "node", "id": 3362985655, "lat": 40.3714584, "lon": -105.5223402}, {"type": "node", "id": 3362988854, "lat": 40.3713583, "lon": -105.5223589}, {"type": "node", "id": 3362988894, "lat": 40.3709948, "lon": -105.5224585}, {"type": "node", "id": 3362988924, "lat": 40.3713177, "lon": -105.5225014}, {"type": "node", "id": 3362988925, "lat": 40.3714625, "lon": -105.5221336}, {"type": "node", "id": 3362988926, "lat": 40.3711052, "lon": -105.5216404}, {"type": "node", "id": 3463470744, "lat": 40.380282, "lon": -105.5196285}, {"type": "node", "id": 3463470750, "lat": 40.3803409, "lon": -105.5195013}, {"type": "node", "id": 3924757178, "lat": 40.3760688, "lon": -105.5211928}, {"type": "node", "id": 3924757179, "lat": 40.3760847, "lon": -105.5211149}, {"type": "node", "id": 3924757180, "lat": 40.3761195, "lon": -105.5212107}, {"type": "node", "id": 3924757181, "lat": 40.3761354, "lon": -105.5211327}, {"type": "node", "id": 4143764752, "lat": 40.3752039, "lon": -105.5237747, "tags": {"name": "Estes 5/10", "shop": "general"}}, {"type": "node", "id": 4636979566, "lat": 40.3764935, "lon": -105.5283394, "tags": {"addr:city": "Estes Park", "addr:housenumber": "323", "addr:postcode": "80517", "addr:state": "CO", "addr:street": "West Elkhorn Avenue", "name": "Patterson Glassworks Studio & Gallery", "phone": "+1-970-586-8619", "shop": "art", "website": "https://www.glassworksofestespark.com/"}}, {"type": "node", "id": 4643214121, "lat": 40.3722419, "lon": -105.5161196}, {"type": "node", "id": 4643214122, "lat": 40.3721505, "lon": -105.5162096}, {"type": "node", "id": 4643214123, "lat": 40.3720504, "lon": -105.5162211}, {"type": "node", "id": 4643214124, "lat": 40.3718062, "lon": -105.5161243}, {"type": "node", "id": 4643214125, "lat": 40.3711615, "lon": -105.5159974}, {"type": "node", "id": 4643214126, "lat": 40.3709824, "lon": -105.5160113}, {"type": "node", "id": 4643214127, "lat": 40.3708172, "lon": -105.5159721}, {"type": "node", "id": 4643214128, "lat": 40.3707013, "lon": -105.515896}, {"type": "node", "id": 4643214129, "lat": 40.3706943, "lon": -105.5157899}, {"type": "node", "id": 4643214130, "lat": 40.3707681, "lon": -105.5156493}, {"type": "node", "id": 4643214131, "lat": 40.3708278, "lon": -105.5153749}, {"type": "node", "id": 4643214132, "lat": 40.3708471, "lon": -105.5150244}, {"type": "node", "id": 4643214133, "lat": 40.3708682, "lon": -105.5148953}, {"type": "node", "id": 4643214134, "lat": 40.3709578, "lon": -105.5147063}, {"type": "node", "id": 4643214135, "lat": 40.3711651, "lon": -105.5144434}, {"type": "node", "id": 4643214136, "lat": 40.371288, "lon": -105.5143945}, {"type": "node", "id": 4643214137, "lat": 40.3713741, "lon": -105.5143645}, {"type": "node", "id": 4643214138, "lat": 40.3721154, "lon": -105.5143166}, {"type": "node", "id": 4643214139, "lat": 40.3722506, "lon": -105.5142728}, {"type": "node", "id": 4643214140, "lat": 40.3723086, "lon": -105.5142566}, {"type": "node", "id": 4643214141, "lat": 40.3723174, "lon": -105.5157392}, {"type": "node", "id": 4643214142, "lat": 40.3723332, "lon": -105.5159836}, {"type": "node", "id": 4882111763, "lat": 40.3766955, "lon": -105.5271358}, {"type": "node", "id": 4882111764, "lat": 40.3766452, "lon": -105.5268113}, {"type": "node", "id": 4882111765, "lat": 40.3765124, "lon": -105.5268408}, {"type": "node", "id": 4882111766, "lat": 40.3765389, "lon": -105.527156}, {"type": "node", "id": 4882111771, "lat": 40.3762861, "lon": -105.526013, "tags": {"addr:city": "Estes Park", "addr:housenumber": "239", "addr:postcode": "80517", "addr:state": "CO", "addr:street": "West Elkhorn Avenue", "building:levels": "3", "name": "Omnibus", "phone": "+1-970-586-5523", "shop": "jewelry"}}, {"type": "node", "id": 4882130635, "lat": 40.3762599, "lon": -105.525864, "tags": {"addr:city": "Estes Park", "addr:housenumber": "235", "addr:postcode": "80517", "addr:state": "CO", "addr:street": "West Elkhorn Avenue", "name": "Village Goldsmith", "phone": "+1-970-586-5659", "shop": "jewelry"}}, {"type": "node", "id": 4882130643, "lat": 40.3760195, "lon": -105.526064, "tags": {"addr:city": "Estes Park", "addr:housenumber": "230", "addr:postcode": "80517", "addr:state": "CO", "addr:street": "West Elkhorn Avenue", "name": "The Gold Mine", "phone": "+1-970-586-9300", "shop": "jewelry"}}, {"type": "node", "id": 4882130645, "lat": 40.3763954, "lon": -105.525121, "tags": {"addr:city": "Estes Park", "addr:housenumber": "157", "addr:postcode": "80517", "addr:state": "CO", "addr:street": "West Elkhorn Avenue", "name": "Old Church Shops", "phone": "+1-970-586-5860", "shop": "gift", "website": "churchshops.com"}}, {"type": "node", "id": 4882130646, "lat": 40.3759704, "lon": -105.525564, "tags": {"addr:city": "Estes Park", "addr:housenumber": "204", "addr:postcode": "80517", "addr:state": "CO", "addr:street": "West Elkhorn Avenue", "name": "Lithium", "phone": "+1-970-577-1800", "shop": "sports"}}, {"type": "node", "id": 4882137311, "lat": 40.3760584, "lon": -105.5233496, "tags": {"addr:city": "Estes Park", "addr:housenumber": "102", "addr:postcode": "80517", "addr:state": "CO", "addr:street": "West Elkhorn Avenue", "amenity": "ice_cream", "name": "Hayley's Ice Cream", "opening_hours:signed": "no", "outdoor_seating": "no", "phone": "+1-970-586-4207", "takeaway": "only", "wheelchair": "yes"}}, {"type": "node", "id": 4882137312, "lat": 40.3763638, "lon": -105.523579, "tags": {"addr:city": "Estes Park", "addr:housenumber": "117", "addr:postcode": "80517", "addr:state": "CO", "addr:street": "West Elkhorn Avenue", "name": "Estes Park Sweatshirt Center", "opening_hours": "Mo-Fr 09:30-20:30; Sa 09:00-21:00; Su 09:00-20:30", "phone": "+1-970-586-4234", "shop": "gift"}}, {"type": "node", "id": 4882139738, "lat": 40.377484, "lon": -105.519737, "tags": {"access": "yes", "addr:city": "Estes Park", "addr:housenumber": "335", "addr:postcode": "80517", "addr:state": "CO", "addr:street": "East Elkhorn Avenue", "air_conditioning": "yes", "amenity": "library", "email": "answers@estesvalleylibrary.org", "internet_access": "yes", "internet_access:fee": "no", "name": "Estes Valley Library", "opening_hours": "Mo-Th 09:00-19:00; Fr,Sa 09:00-17:00; Su 13:00-17:00", "opening_hours:url": "https://estesvalleylibrary.org/about/hours-closings/", "phone": "+1-970-586-8116", "website": "https://estesvalleylibrary.org/", "wheelchair": "yes"}}, {"type": "node", "id": 4882139739, "lat": 40.3776904, "lon": -105.520512, "tags": {"addr:city": "Estes Park", "addr:housenumber": "170", "addr:postcode": "80517", "addr:state": "CO", "addr:street": "Macgregor Avenue", "amenity": "police", "name": "Estes Park Police Department", "phone": "+1-970-586-4000", "website": "estes.org"}}, {"type": "node", "id": 4882139809, "lat": 40.3726882, "lon": -105.5242462}, {"type": "node", "id": 4882139810, "lat": 40.3726106, "lon": -105.5246673}, {"type": "node", "id": 4882139811, "lat": 40.3725064, "lon": -105.5246887}, {"type": "node", "id": 4882139812, "lat": 40.3724941, "lon": -105.5243776}, {"type": "node", "id": 4882139813, "lat": 40.3725983, "lon": -105.5243588}, {"type": "node", "id": 4882139814, "lat": 40.3726535, "lon": -105.5242167}, {"type": "node", "id": 5060157823, "lat": 40.3767552, "lon": -105.5194042, "tags": {"addr:housenumber": "342", "addr:street": "East Elkhorn Avenue", "amenity": "restaurant", "name": "Mama Rose's", "opening_hours": "Mo-Su 04:30-21:00"}}, {"type": "node", "id": 5060158023, "lat": 40.3765186, "lon": -105.5285998, "tags": {"addr:housenumber": "401", "addr:street": "West Elkhorn Avenue", "amenity": "restaurant", "name": "Big Horn Restaurant"}}, {"type": "node", "id": 5928003581, "lat": 40.3740375, "lon": -105.5107849}, {"type": "node", "id": 6564840791, "lat": 40.3838235, "lon": -105.5198784, "tags": {"access": "customers", "addr:city": "Estes Park", "addr:country": "US", "addr:housenumber": "333", "addr:postcode": "80517", "addr:state": "CO", "addr:street": "East Wonderview Avenue", "amenity": "charging_station", "authentication:app": "yes", "bicycle": "no", "branch": "Estes Park, CO", "brand": "Tesla Supercharger", "brand:website": "https://www.tesla.com/supercharger", "brand:wikidata": "Q17089620", "capacity": "7", "capacity:disabled": "1", "covered": "no", "description": "Currently, only Tesla vehicles can charge here. Posts do not have either MagicDock (CCS1 adapter) or non-Tesla NACS port/adapter support.", "ele": "2337", "fee": "yes", "frequency": "0", "maxstay": "no", "motorcar": "designated", "name": "Tesla Supercharger", "network": "Supercharger", "network:website": "https://www.tesla.com/supercharger", "network:wikidata": "Q17089620", "not:brand:wikidata": "Q478214", "opening_hours": "24/7", "operator": "Tesla", "operator:wikidata": "Q478214", "parking:fee": "no", "payment:app:tesla": "yes", "ref:plugshare": "155733", "ref:supercharge_info": "1596", "scooter": "no", "socket:nacs": "7", "socket:nacs:output": "150", "start_date": "2018-05-15", "website": "https://www.tesla.com/findus/location/supercharger/estesparksupercharger", "wheelchair": "yes"}}, {"type": "node", "id": 6586771697, "lat": 40.3719798, "lon": -105.4967037, "tags": {"amenity": "bicycle_repair_station", "brand": "Dero", "note": "Stanley Park Bike Park", "opening_hours": "24/7", "service:bicycle:pump": "yes", "service:bicycle:tools": "yes"}}, {"type": "node", "id": 6759806389, "lat": 40.3795126, "lon": -105.515457}, {"type": "node", "id": 6815012767, "lat": 40.3772425, "lon": -105.5182682, "tags": {"name": "Aspen Evergreen", "opening_hours": "Mo-Sa 10:00-17:00; Su 11:00-16:00", "shop": "art"}}, {"type": "node", "id": 6815012768, "lat": 40.3771431, "lon": -105.5185503, "tags": {"name": "Fall River", "opening_hours": "Mo,Tu,Th-Sa 10:00-17:00; Su 11:00-16:00", "shop": "antiques;coins;jewelry"}}, {"type": "node", "id": 6815012769, "lat": 40.3771207, "lon": -105.5189821, "tags": {"name": "Brownfields", "opening_hours": "Mo-Sa 10:00-20:00", "shop": "clothes"}}, {"type": "node", "id": 6815012770, "lat": 40.3770897, "lon": -105.5191369, "tags": {"clothes": "women", "name": "The White Orchid", "opening_hours": "Mo-Su 10:00-18:00", "shop": "clothes"}}, {"type": "node", "id": 6815012771, "lat": 40.3767659, "lon": -105.519815, "tags": {"brand": "Coldwell Banker", "brand:wikidata": "Q738853", "name": "Coldwell Banker", "office": "estate_agent", "opening_hours": "Mo-Fr 08:00-17:00; Sa 09:00-15:00"}}, {"type": "node", "id": 6815012772, "lat": 40.3769228, "lon": -105.5195396, "tags": {"name": "A La Carte", "opening_hours": "Mo-Su 10:00-18:00", "shop": "kitchen"}}, {"type": "node", "id": 6815012775, "lat": 40.3763269, "lon": -105.522233, "tags": {"addr:housenumber": "152", "addr:postcode": "80517", "addr:street": "East Elkhorn Avenue", "email": "contact@macdonaldbookshop.com", "name": "Macdonald Book Shop", "opening_hours": "Mo-Su 09:00-17:30", "phone": "+1-970-586-3450", "shop": "books", "website": "https://macdonaldbookshop.com/"}}, {"type": "node", "id": 6815012776, "lat": 40.3700762, "lon": -105.5298095}, {"type": "node", "id": 6815012777, "lat": 40.3699691, "lon": -105.529664}, {"type": "node", "id": 6815012778, "lat": 40.3703314, "lon": -105.5292042}, {"type": "node", "id": 6815012779, "lat": 40.3704386, "lon": -105.5293499}, {"type": "node", "id": 6815012782, "lat": 40.3760813, "lon": -105.52552, "tags": {"amenity": "waste_basket"}}, {"type": "node", "id": 6815012783, "lat": 40.376041, "lon": -105.5252496, "tags": {"addr:city": "Estes Park", "addr:housenumber": "170", "addr:postcode": "80517", "addr:state": "CO", "addr:street": "West Elkhorn Avenue", "name": "Rocky Mountain Souvenirs", "shop": "gift"}}, {"type": "node", "id": 6815012784, "lat": 40.3762605, "lon": -105.5257517, "tags": {"amenity": "fast_food", "cuisine": "burger", "drive_through": "no", "name": "Penelope's World Famous Burgers and Fries", "opening_hours": "11:00-21:00"}}, {"type": "node", "id": 6815019985, "lat": 40.3763972, "lon": -105.5249163, "tags": {"amenity": "restaurant", "name": "The Wild Rose"}}, {"type": "node", "id": 6815019986, "lat": 40.3759991, "lon": -105.5250227, "tags": {"clothes": "sports", "name": "Sports Hound", "shop": "clothes"}}, {"type": "node", "id": 6815019987, "lat": 40.3760075, "lon": -105.5249117, "tags": {"name": "Buckles of Estes", "shop": "fashion_accessories"}}, {"type": "node", "id": 6815019988, "lat": 40.3760089, "lon": -105.5248342, "tags": {"addr:city": "Estes Park", "addr:housenumber": "160", "addr:postcode": "80517", "addr:state": "CO", "addr:street": "West Elkhorn Avenue", "name": "Toy Mountain", "shop": "toys"}}, {"type": "node", "id": 6815019989, "lat": 40.3760156, "lon": -105.5245227, "tags": {"amenity": "restaurant", "name": "Grubsteak"}}, {"type": "node", "id": 6815019990, "lat": 40.3760105, "lon": -105.5243989, "tags": {"name": "My Everest Gift House", "shop": "gift"}}, {"type": "node", "id": 6815019991, "lat": 40.3760183, "lon": -105.5242648, "tags": {"amenity": "restaurant", "cuisine": "pizza", "name": "Bob and Tony's Pizzas", "opening_hours": "Mo-Su 11:00-21:00"}}, {"type": "node", "id": 6815019992, "lat": 40.376019, "lon": -105.5241635, "tags": {"name": "Blake Trading", "shop": "gift"}}, {"type": "node", "id": 6815019993, "lat": 40.3762612, "lon": -105.5257188, "tags": {"addr:city": "Estes Park", "addr:housenumber": "148", "addr:postcode": "80517", "addr:state": "CO", "addr:street": "West Elkhorn Avenue", "name": "Weeks Spirits LTD", "opening_hours": "10:00-20:00; Su 13:00-19:00", "shop": "art"}}, {"type": "node", "id": 6815019994, "lat": 40.3760121, "lon": -105.5247434, "tags": {"addr:city": "Estes Park", "addr:housenumber": "144", "addr:postcode": "80517", "addr:state": "CO", "addr:street": "West Elkhorn Avenue", "air_conditioning": "yes", "gift": "tshirts", "name": "Mountain Gear", "payment:american_express": "yes", "payment:cash": "yes", "payment:coins": "yes", "payment:credit_cards": "yes", "payment:debit_cards": "yes", "payment:maestro": "yes", "payment:mastercard": "yes", "payment:visa": "yes", "phone": "+1-970-577-1100", "shop": "gift"}}, {"type": "node", "id": 6815019995, "lat": 40.3760248, "lon": -105.5239406, "tags": {"amenity": "restaurant", "name": "Ionigans", "opening_hours:signed": "no"}}, {"type": "node", "id": 6815019996, "lat": 40.3760244, "lon": -105.5238513, "tags": {"addr:city": "Estes Park", "addr:housenumber": "102", "addr:postcode": "80517", "addr:state": "CO", "addr:street": "West Elkhorn Avenue", "name": "Old Fashion Candy", "shop": "confectionery"}}, {"type": "node", "id": 6815019997, "lat": 40.3760736, "lon": -105.5232825, "tags": {"name": "The Copper Penny", "opening_hours:signed": "no", "shop": "jewelry;gems"}}, {"type": "node", "id": 6824472506, "lat": 40.3715175, "lon": -105.5256911}, {"type": "node", "id": 6824472507, "lat": 40.3709453, "lon": -105.5257762}, {"type": "node", "id": 6824472508, "lat": 40.3709375, "lon": -105.5262136}, {"type": "node", "id": 6824472509, "lat": 40.3710833, "lon": -105.5262163}, {"type": "node", "id": 6824472510, "lat": 40.3710859, "lon": -105.5259671}, {"type": "node", "id": 6824472511, "lat": 40.37151, "lon": -105.5259749}, {"type": "node", "id": 6859229219, "lat": 40.3790245, "lon": -105.5167, "tags": {"addr:city": "Estes Park", "addr:housenumber": "509", "addr:postcode": "80517", "addr:state": "CO", "addr:street": "Big Thompson Avenue", "amenity": "cafe", "name": "You Need Pie!", "opening_hours": "Mo-Sa 07:00-21:00; Su 08:00-21:00"}}, {"type": "node", "id": 7053599338, "lat": 40.3817419, "lon": -105.5090251}, {"type": "node", "id": 7500129461, "lat": 40.3712791, "lon": -105.5145519}, {"type": "node", "id": 7500129462, "lat": 40.3712858, "lon": -105.5144627}, {"type": "node", "id": 7500129463, "lat": 40.3712772, "lon": -105.514454}, {"type": "node", "id": 7500129464, "lat": 40.3712878, "lon": -105.5143969}, {"type": "node", "id": 7500129465, "lat": 40.3713915, "lon": -105.5144527}, {"type": "node", "id": 7500129467, "lat": 40.3718609, "lon": -105.5145464}, {"type": "node", "id": 7500129468, "lat": 40.3719182, "lon": -105.5145473}, {"type": "node", "id": 7500129469, "lat": 40.3719194, "lon": -105.5145929}, {"type": "node", "id": 7500129470, "lat": 40.3721665, "lon": -105.5145936}, {"type": "node", "id": 7500129471, "lat": 40.37217, "lon": -105.5144176}, {"type": "node", "id": 7500129472, "lat": 40.3722859, "lon": -105.514419}, {"type": "node", "id": 7500129473, "lat": 40.372291, "lon": -105.5155782}, {"type": "node", "id": 7500129474, "lat": 40.3722446, "lon": -105.5155752}, {"type": "node", "id": 7500129475, "lat": 40.3721764, "lon": -105.5154405}, {"type": "node", "id": 7500129476, "lat": 40.3721764, "lon": -105.5150893}, {"type": "node", "id": 7500129477, "lat": 40.3721506, "lon": -105.5150742}, {"type": "node", "id": 7500129478, "lat": 40.3721432, "lon": -105.515087}, {"type": "node", "id": 7500129479, "lat": 40.3721443, "lon": -105.5151502}, {"type": "node", "id": 7500129480, "lat": 40.3719655, "lon": -105.5151539}, {"type": "node", "id": 7500129481, "lat": 40.3719702, "lon": -105.5151017}, {"type": "node", "id": 7500129482, "lat": 40.3719638, "lon": -105.5150886}, {"type": "node", "id": 7500129483, "lat": 40.3719613, "lon": -105.5150875}, {"type": "node", "id": 7500129484, "lat": 40.3719579, "lon": -105.5150859}, {"type": "node", "id": 7500131185, "lat": 40.3719492, "lon": -105.515085}, {"type": "node", "id": 7500131186, "lat": 40.3719467, "lon": -105.5150853}, {"type": "node", "id": 7500131187, "lat": 40.3718993, "lon": -105.5150834}, {"type": "node", "id": 7500131188, "lat": 40.3718995, "lon": -105.5150041}, {"type": "node", "id": 7500131189, "lat": 40.3719031, "lon": -105.5148633}, {"type": "node", "id": 7500131190, "lat": 40.3718527, "lon": -105.5148914}, {"type": "node", "id": 7500131191, "lat": 40.3718509, "lon": -105.5148567}, {"type": "node", "id": 7500131192, "lat": 40.3718059, "lon": -105.5148547}, {"type": "node", "id": 7500131193, "lat": 40.371802, "lon": -105.5147373}, {"type": "node", "id": 7500131194, "lat": 40.3718426, "lon": -105.5147515}, {"type": "node", "id": 7500131195, "lat": 40.3717112, "lon": -105.514633}, {"type": "node", "id": 7500131196, "lat": 40.3717853, "lon": -105.5146638}, {"type": "node", "id": 7500131197, "lat": 40.3718444, "lon": -105.5146903}, {"type": "node", "id": 7500131198, "lat": 40.3717792, "lon": -105.5147212}, {"type": "node", "id": 7500131199, "lat": 40.3716984, "lon": -105.514698}, {"type": "node", "id": 7500131200, "lat": 40.3715558, "lon": -105.5146441}, {"type": "node", "id": 7500131201, "lat": 40.371565, "lon": -105.5145976}, {"type": "node", "id": 7500131208, "lat": 40.3717695, "lon": -105.5162734}, {"type": "node", "id": 7500131209, "lat": 40.371846, "lon": -105.5160728}, {"type": "node", "id": 7500131210, "lat": 40.3720826, "lon": -105.5161686}, {"type": "node", "id": 7500131211, "lat": 40.3721852, "lon": -105.516297}, {"type": "node", "id": 7500131212, "lat": 40.3721707, "lon": -105.5164048}, {"type": "node", "id": 7500131213, "lat": 40.3720185, "lon": -105.5163715}, {"type": "node", "id": 7500131214, "lat": 40.3718941, "lon": -105.5163382}, {"type": "node", "id": 7500131215, "lat": 40.3709781, "lon": -105.515625}, {"type": "node", "id": 7500131216, "lat": 40.3709856, "lon": -105.5155616}, {"type": "node", "id": 7500131217, "lat": 40.3712102, "lon": -105.5156326}, {"type": "node", "id": 7500131218, "lat": 40.3712751, "lon": -105.5157233}, {"type": "node", "id": 7500131219, "lat": 40.3712335, "lon": -105.515756}, {"type": "node", "id": 7500131220, "lat": 40.3711769, "lon": -105.5156916}, {"type": "node", "id": 7500131221, "lat": 40.3710705, "lon": -105.5156479}, {"type": "node", "id": 7500131222, "lat": 40.3713259, "lon": -105.5156687}, {"type": "node", "id": 7500131223, "lat": 40.3712576, "lon": -105.5155802}, {"type": "node", "id": 7500131224, "lat": 40.3712077, "lon": -105.5155442}, {"type": "node", "id": 7500131225, "lat": 40.3712551, "lon": -105.5155136}, {"type": "node", "id": 7500131226, "lat": 40.3713017, "lon": -105.5155463}, {"type": "node", "id": 7500131227, "lat": 40.3713575, "lon": -105.5156304}, {"type": "node", "id": 7500131251, "lat": 40.3706986, "lon": -105.5158557}, {"type": "node", "id": 7500131264, "lat": 40.3715908, "lon": -105.5143166}, {"type": "node", "id": 7500131287, "lat": 40.3722079, "lon": -105.5142866}, {"type": "node", "id": 7500131335, "lat": 40.3716877, "lon": -105.516286}, {"type": "node", "id": 7500131336, "lat": 40.3717102, "lon": -105.5162292}, {"type": "node", "id": 7500131337, "lat": 40.3714758, "lon": -105.5160646}, {"type": "node", "id": 7500131338, "lat": 40.3714423, "lon": -105.516039}, {"type": "node", "id": 7500131339, "lat": 40.3713985, "lon": -105.5160326}, {"type": "node", "id": 7500131340, "lat": 40.3713906, "lon": -105.5160758}, {"type": "node", "id": 7500131341, "lat": 40.3715422, "lon": -105.5161845}, {"type": "node", "id": 7500131343, "lat": 40.3714359, "lon": -105.5159181}, {"type": "node", "id": 7500131369, "lat": 40.3708893, "lon": -105.5148507}, {"type": "node", "id": 7500131370, "lat": 40.3708715, "lon": -105.5148884}, {"type": "node", "id": 7500131383, "lat": 40.370841, "lon": -105.5151353}, {"type": "node", "id": 7500131394, "lat": 40.3716011, "lon": -105.5143166}, {"type": "node", "id": 7500131395, "lat": 40.3715859, "lon": -105.5144573}, {"type": "node", "id": 7500131397, "lat": 40.3712816, "lon": -105.5143995}, {"type": "node", "id": 7500131398, "lat": 40.3715776, "lon": -105.5143645}, {"type": "node", "id": 7500131399, "lat": 40.3715631, "lon": -105.5144455}, {"type": "node", "id": 7500131400, "lat": 40.371401, "lon": -105.5143815}, {"type": "node", "id": 7500131402, "lat": 40.3707466, "lon": -105.5163056}, {"type": "node", "id": 7500131403, "lat": 40.3707186, "lon": -105.5163296}, {"type": "node", "id": 7500131404, "lat": 40.3709232, "lon": -105.5166828}, {"type": "node", "id": 7500131405, "lat": 40.3709707, "lon": -105.5166421}, {"type": "node", "id": 7500131406, "lat": 40.3709908, "lon": -105.5166589}, {"type": "node", "id": 7500131407, "lat": 40.3710449, "lon": -105.5166069}, {"type": "node", "id": 7500131408, "lat": 40.3710291, "lon": -105.5165981}, {"type": "node", "id": 7500131409, "lat": 40.3710626, "lon": -105.5165502}, {"type": "node", "id": 7500131410, "lat": 40.3709207, "lon": -105.5163512}, {"type": "node", "id": 7500131411, "lat": 40.3708921, "lon": -105.5163704}, {"type": "node", "id": 7500131412, "lat": 40.3708684, "lon": -105.5163696}, {"type": "node", "id": 7500131413, "lat": 40.3708623, "lon": -105.5163632}, {"type": "node", "id": 7500131414, "lat": 40.3708598, "lon": -105.5163536}, {"type": "node", "id": 7500131415, "lat": 40.3708574, "lon": -105.516344}, {"type": "node", "id": 7500131416, "lat": 40.3708556, "lon": -105.516332}, {"type": "node", "id": 7500131417, "lat": 40.3708611, "lon": -105.5163216}, {"type": "node", "id": 7500131418, "lat": 40.3708988, "lon": -105.5162984}, {"type": "node", "id": 7500131419, "lat": 40.3708933, "lon": -105.5162649}, {"type": "node", "id": 7500131420, "lat": 40.3708501, "lon": -105.5162649}, {"type": "node", "id": 7500131421, "lat": 40.370841, "lon": -105.5162489}, {"type": "node", "id": 7500131443, "lat": 40.3710519, "lon": -105.514587}, {"type": "node", "id": 7844794378, "lat": 40.3759062, "lon": -105.5220921, "tags": {"amenity": "bench", "backrest": "yes", "material": "wood", "seats": "3"}}, {"type": "node", "id": 7844794379, "lat": 40.3759233, "lon": -105.5221954, "tags": {"amenity": "bench", "backrest": "yes", "material": "wood", "seats": "3"}}, {"type": "node", "id": 7844794380, "lat": 40.375937, "lon": -105.5221774, "tags": {"amenity": "bench", "backrest": "yes", "material": "wood", "seats": "3"}}, {"type": "node", "id": 7844794381, "lat": 40.375965, "lon": -105.5221362, "tags": {"amenity": "bench", "backrest": "yes", "material": "wood", "seats": "3"}}, {"type": "node", "id": 7844794382, "lat": 40.3760934, "lon": -105.521961, "tags": {"amenity": "bench", "backrest": "yes", "material": "wood", "seats": "3"}}, {"type": "node", "id": 7844794383, "lat": 40.3760956, "lon": -105.521797, "tags": {"amenity": "bench", "backrest": "yes", "material": "wood", "seats": "3"}}, {"type": "node", "id": 7844794384, "lat": 40.3761635, "lon": -105.5215401, "tags": {"amenity": "bench", "backrest": "yes", "material": "wood", "seats": "3"}}, {"type": "node", "id": 7844824741, "lat": 40.3761304, "lon": -105.5211995, "tags": {"amenity": "bench", "backrest": "yes", "material": "wood", "seats": "3"}}, {"type": "node", "id": 7844824742, "lat": 40.376136, "lon": -105.5211585, "tags": {"amenity": "bench", "backrest": "yes", "material": "wood", "seats": "3"}}, {"type": "node", "id": 7844824743, "lat": 40.376137, "lon": -105.5211797, "tags": {"amenity": "waste_basket", "waste": "trash"}}, {"type": "node", "id": 7844824744, "lat": 40.376139, "lon": -105.5211704, "tags": {"amenity": "recycling", "recycling:beverage_cartons": "no", "recycling:cans": "yes", "recycling:plastic": "no", "recycling:plastic_bottles": "yes", "recycling:plastic_packaging": "no", "recycling_type": "container"}}, {"type": "node", "id": 7844824745, "lat": 40.3761143, "lon": -105.5210996, "tags": {"amenity": "bench", "backrest": "yes", "material": "wood", "seats": "3"}}, {"type": "node", "id": 7844824750, "lat": 40.3761365, "lon": -105.5209052, "tags": {"amenity": "waste_basket"}}, {"type": "node", "id": 7844824751, "lat": 40.3762363, "lon": -105.5209917, "tags": {"amenity": "waste_basket", "fee": "no", "vending": "excrement_bags", "waste": "dog_excrement"}}, {"type": "node", "id": 7844842785, "lat": 40.3761145, "lon": -105.5217168, "tags": {"amenity": "recycling", "recycling:beverage_cartons": "no", "recycling:cans": "yes", "recycling:plastic": "no", "recycling:plastic_bottles": "yes", "recycling:plastic_packaging": "no", "recycling_type": "container"}}, {"type": "node", "id": 7844842786, "lat": 40.3761133, "lon": -105.5217243, "tags": {"amenity": "waste_basket", "waste": "trash"}}, {"type": "node", "id": 7844842787, "lat": 40.3760369, "lon": -105.5220853, "tags": {"amenity": "waste_basket", "waste": "trash"}}, {"type": "node", "id": 7844842788, "lat": 40.3758674, "lon": -105.522127, "tags": {"amenity": "waste_basket", "material": "metal", "waste": "trash"}}, {"type": "node", "id": 7844842789, "lat": 40.3758703, "lon": -105.5221175, "tags": {"amenity": "recycling", "recycling:beverage_cartons": "no", "recycling:cans": "yes", "recycling:plastic": "no", "recycling:plastic_bottles": "yes", "recycling:plastic_packaging": "no", "recycling_type": "container"}}, {"type": "node", "id": 7844842790, "lat": 40.3758511, "lon": -105.5214083, "tags": {"amenity": "bench", "backrest": "yes", "material": "wood", "seats": "3"}}, {"type": "node", "id": 7844842791, "lat": 40.3758425, "lon": -105.5214202, "tags": {"amenity": "bench", "backrest": "yes", "material": "wood", "seats": "3"}}, {"type": "node", "id": 7844842792, "lat": 40.3757663, "lon": -105.5214542, "tags": {"amenity": "bench", "backrest": "yes", "material": "wood", "seats": "3"}}, {"type": "node", "id": 7844842793, "lat": 40.3755688, "lon": -105.5216107, "tags": {"amenity": "bench", "backrest": "yes", "material": "wood", "seats": "3"}}, {"type": "node", "id": 7844842794, "lat": 40.3758871, "lon": -105.5214344, "tags": {"amenity": "waste_basket", "fee": "no", "vending": "excrement_bags", "waste": "dog_excrement"}}, {"type": "node", "id": 7844893586, "lat": 40.3699528, "lon": -105.5296827}, {"type": "node", "id": 7844893587, "lat": 40.3699174, "lon": -105.5296474}, {"type": "node", "id": 7844893588, "lat": 40.3699775, "lon": -105.5295437}, {"type": "node", "id": 7844893598, "lat": 40.3696079, "lon": -105.5293974, "tags": {"amenity": "bench", "backrest": "no"}}, {"type": "node", "id": 7844893599, "lat": 40.3695882, "lon": -105.5293869, "tags": {"amenity": "bench", "backrest": "no"}}, {"type": "node", "id": 7844893600, "lat": 40.369428, "lon": -105.5291667, "tags": {"amenity": "bench", "backrest": "no"}}, {"type": "node", "id": 7844893601, "lat": 40.3696059, "lon": -105.5290354, "tags": {"amenity": "bench", "backrest": "no", "material": "stone"}}, {"type": "node", "id": 7844893602, "lat": 40.3696479, "lon": -105.5289328, "tags": {"amenity": "bench", "backrest": "no"}}, {"type": "node", "id": 7844893603, "lat": 40.3697836, "lon": -105.5289803, "tags": {"amenity": "bench", "backrest": "no", "material": "stone"}}, {"type": "node", "id": 7844893604, "lat": 40.3699044, "lon": -105.5290991, "tags": {"amenity": "bench", "backrest": "no"}}, {"type": "node", "id": 7844893605, "lat": 40.3699529, "lon": -105.5291304, "tags": {"amenity": "bench", "backrest": "no"}}, {"type": "node", "id": 7844893606, "lat": 40.3699225, "lon": -105.5293933, "tags": {"amenity": "bench", "backrest": "no"}}, {"type": "node", "id": 7844893607, "lat": 40.3699587, "lon": -105.5293984, "tags": {"amenity": "bench", "backrest": "no"}}, {"type": "node", "id": 7844893609, "lat": 40.3699322, "lon": -105.5294171, "tags": {"amenity": "bench", "backrest": "no"}}, {"type": "node", "id": 7844893610, "lat": 40.3699709, "lon": -105.5294154, "tags": {"amenity": "bench", "backrest": "no"}}, {"type": "node", "id": 7844893611, "lat": 40.3700356, "lon": -105.529395, "tags": {"amenity": "bench", "backrest": "no"}}, {"type": "node", "id": 7844893612, "lat": 40.370015, "lon": -105.5291298, "tags": {"amenity": "waste_basket", "fee": "no", "vending": "excrement_bags", "waste": "dog_excrement"}}, {"type": "node", "id": 7844893614, "lat": 40.3709264, "lon": -105.5288495}, {"type": "node", "id": 7844893615, "lat": 40.3705736, "lon": -105.5290035}, {"type": "node", "id": 7844893616, "lat": 40.3708083, "lon": -105.5286948}, {"type": "node", "id": 7844893617, "lat": 40.3706916, "lon": -105.5291582}, {"type": "node", "id": 7844893639, "lat": 40.3701824, "lon": -105.5293932}, {"type": "node", "id": 7847401101, "lat": 40.3774386, "lon": -105.5165711, "tags": {"amenity": "bench", "backrest": "yes", "material": "metal", "seats": "2"}}, {"type": "node", "id": 7847401102, "lat": 40.3774427, "lon": -105.5165912, "tags": {"amenity": "bench", "backrest": "yes", "material": "metal", "seats": "2"}}, {"type": "node", "id": 7847401103, "lat": 40.3774641, "lon": -105.5167548, "tags": {"amenity": "waste_basket", "waste": "trash"}}, {"type": "node", "id": 7847401107, "lat": 40.3773732, "lon": -105.5171585, "tags": {"access": "yes", "amenity": "bicycle_parking", "bicycle_parking": "wall_loops", "capacity": "6", "covered": "no", "fee": "no", "lit": "no", "supervised": "no"}}, {"type": "node", "id": 7851201576, "lat": 40.3825916, "lon": -105.518218, "tags": {"amenity": "waste_basket", "waste": "trash"}}, {"type": "node", "id": 7851201577, "lat": 40.3827279, "lon": -105.5195819, "tags": {"amenity": "waste_basket", "waste": "trash"}}, {"type": "node", "id": 7851201578, "lat": 40.3827785, "lon": -105.5186431, "tags": {"amenity": "waste_basket", "waste": "trash"}}, {"type": "node", "id": 7851201579, "lat": 40.3828528, "lon": -105.5186037}, {"type": "node", "id": 7851201580, "lat": 40.3830104, "lon": -105.5178867}, {"type": "node", "id": 7851201581, "lat": 40.3829393, "lon": -105.5177636}, {"type": "node", "id": 7851201582, "lat": 40.3827541, "lon": -105.5176496}, {"type": "node", "id": 7851201583, "lat": 40.3826191, "lon": -105.5176542}, {"type": "node", "id": 7851241886, "lat": 40.3826024, "lon": -105.5182405}, {"type": "node", "id": 7851241887, "lat": 40.3826013, "lon": -105.5183248}, {"type": "node", "id": 7851241888, "lat": 40.3826273, "lon": -105.518741}, {"type": "node", "id": 7851241889, "lat": 40.3827387, "lon": -105.5186579}, {"type": "node", "id": 7851241890, "lat": 40.3828132, "lon": -105.5186498}, {"type": "node", "id": 7851241891, "lat": 40.3829685, "lon": -105.5184688}, {"type": "node", "id": 7851241980, "lat": 40.3824516, "lon": -105.5200694, "tags": {"amenity": "bench", "backrest": "yes", "material": "wood", "seats": "2"}}, {"type": "node", "id": 7851263690, "lat": 40.3760795, "lon": -105.5238778, "tags": {"amenity": "waste_basket", "waste": "trash"}}, {"type": "node", "id": 7851263691, "lat": 40.3760805, "lon": -105.524024, "tags": {"amenity": "bench", "backrest": "yes", "material": "metal", "seats": "3"}}, {"type": "node", "id": 7851263692, "lat": 40.3760805, "lon": -105.5239116, "tags": {"amenity": "bench", "backrest": "yes", "material": "metal", "seats": "3"}}, {"type": "node", "id": 7851263693, "lat": 40.376079, "lon": -105.5238932, "tags": {"amenity": "bench", "backrest": "yes", "material": "metal", "seats": "3"}}, {"type": "node", "id": 7851263694, "lat": 40.3760749, "lon": -105.5238392, "tags": {"amenity": "bench", "backrest": "yes", "material": "metal", "seats": "3"}}, {"type": "node", "id": 7851263708, "lat": 40.3746035, "lon": -105.522942, "tags": {"amenity": "post_box", "collection_times": "Mo-Fr 16:30, Sa 14:30", "drive_through": "no", "operator": "United States Postal Service", "operator:short": "USPS", "operator:type": "public", "operator:website": "https://www.usps.com", "operator:wikidata": "Q668687", "operator:wikipedia": "en:United States Postal Service", "post_box:type": "pillar", "ref": "8051700000", "short_name": "USPS"}}, {"type": "node", "id": 7869949594, "lat": 40.3834781, "lon": -105.5175766}, {"type": "node", "id": 7869949595, "lat": 40.3833459, "lon": -105.5174532}, {"type": "node", "id": 7869949596, "lat": 40.3835213, "lon": -105.5171195}, {"type": "node", "id": 7869949597, "lat": 40.3836357, "lon": -105.5167825}, {"type": "node", "id": 7869949598, "lat": 40.383778, "lon": -105.5167925}, {"type": "node", "id": 7869949599, "lat": 40.3837348, "lon": -105.5169259}, {"type": "node", "id": 7869949600, "lat": 40.3837684, "lon": -105.5169411}, {"type": "node", "id": 7869949601, "lat": 40.3837017, "lon": -105.5171528}, {"type": "node", "id": 7869949602, "lat": 40.3836489, "lon": -105.5171107}, {"type": "node", "id": 7869949603, "lat": 40.3836052, "lon": -105.5172129}, {"type": "node", "id": 7869949604, "lat": 40.3836585, "lon": -105.5172429}, {"type": "node", "id": 7869949605, "lat": 40.3836229, "lon": -105.5179804}, {"type": "node", "id": 7869949606, "lat": 40.3835797, "lon": -105.517947}, {"type": "node", "id": 7869949607, "lat": 40.3835543, "lon": -105.5179804}, {"type": "node", "id": 7869949608, "lat": 40.3835086, "lon": -105.517927}, {"type": "node", "id": 7869949609, "lat": 40.3835035, "lon": -105.5178336}, {"type": "node", "id": 7869949610, "lat": 40.3834704, "lon": -105.5177968}, {"type": "node", "id": 7869949611, "lat": 40.3836102, "lon": -105.5175065}, {"type": "node", "id": 7869949612, "lat": 40.3837856, "lon": -105.5172763}, {"type": "node", "id": 7869949613, "lat": 40.3838614, "lon": -105.5173155}, {"type": "node", "id": 7869949614, "lat": 40.383872, "lon": -105.5174365}, {"type": "node", "id": 7869949615, "lat": 40.3838136, "lon": -105.5174532}, {"type": "node", "id": 7869949616, "lat": 40.3838339, "lon": -105.5175266}, {"type": "node", "id": 7869949617, "lat": 40.3836763, "lon": -105.5178202}, {"type": "node", "id": 7869949618, "lat": 40.3839203, "lon": -105.519152}, {"type": "node", "id": 7869949619, "lat": 40.3837596, "lon": -105.5191521}, {"type": "node", "id": 7869949620, "lat": 40.3837573, "lon": -105.5190125}, {"type": "node", "id": 7869949621, "lat": 40.3837702, "lon": -105.5188132}, {"type": "node", "id": 7869949622, "lat": 40.3838057, "lon": -105.5186104}, {"type": "node", "id": 7869949623, "lat": 40.3838016, "lon": -105.5182719}, {"type": "node", "id": 7869949624, "lat": 40.3839581, "lon": -105.5182334}, {"type": "node", "id": 7869949625, "lat": 40.3839737, "lon": -105.518394}, {"type": "node", "id": 7869949626, "lat": 40.3839721, "lon": -105.5185186}, {"type": "node", "id": 7869949627, "lat": 40.3839558, "lon": -105.5186572}, {"type": "node", "id": 7869949641, "lat": 40.3826193, "lon": -105.5177826}, {"type": "node", "id": 7990498284, "lat": 40.3793667, "lon": -105.516196, "tags": {"addr:city": "Estes Park", "addr:housenumber": "517", "addr:postcode": "80517", "addr:state": "CO", "addr:street": "Big Thompson Avenue", "addr:unit": "Unit B", "description": "Estes Park Massage focuses on providing bodywork and healing. Each massage is catered to our client's requests. Quality is always our first priority, quantity is not. We have many massage modalities, hydrotherapy, face masks, elixirs, wraps, and scrubs. W", "email": "estesparkmassage@gmail.com", "name": "Estes Park Massage", "opening_hours": "Mo-Su 08:00-20:00", "phone": "+1-970-586-4575", "shop": "massage", "website": "https://estesparkmassagetherapy.com/"}}, {"type": "node", "id": 8762162983, "lat": 40.3775894, "lon": -105.5162547, "tags": {"amenity": "bench", "backrest": "yes", "material": "metal", "seats": "2"}}, {"type": "node", "id": 8762162984, "lat": 40.3775285, "lon": -105.5163843, "tags": {"amenity": "vending_machine", "check_date": "2024-05-09", "payment:none": "yes", "vending": "excrement_bags"}}, {"type": "node", "id": 8762221788, "lat": 40.3762971, "lon": -105.5202061, "tags": {"amenity": "bench", "backrest": "yes", "material": "metal", "seats": "4"}}, {"type": "node", "id": 8762221789, "lat": 40.3763041, "lon": -105.5201579, "tags": {"amenity": "bench", "backrest": "yes", "material": "metal", "seats": "4"}}, {"type": "node", "id": 8762221790, "lat": 40.3763657, "lon": -105.5202629, "tags": {"amenity": "waste_basket"}}, {"type": "node", "id": 8762221791, "lat": 40.3763686, "lon": -105.5202479, "tags": {"amenity": "recycling", "name:signed": "no", "opening_hours": "24/7", "recycling:cans": "yes", "recycling:plastic": "yes", "recycling_type": "centre"}}, {"type": "node", "id": 8762221792, "lat": 40.3764218, "lon": -105.5198131, "tags": {"amenity": "bench", "backrest": "yes", "material": "metal", "seats": "4"}}, {"type": "node", "id": 8762221793, "lat": 40.3764177, "lon": -105.519825, "tags": {"amenity": "recycling", "name:signed": "no", "opening_hours": "24/7", "recycling:cans": "yes", "recycling:plastic": "yes", "recycling_type": "centre"}}, {"type": "node", "id": 8762221794, "lat": 40.3764141, "lon": -105.5198364, "tags": {"amenity": "waste_basket"}}, {"type": "node", "id": 8762221795, "lat": 40.3766064, "lon": -105.5194517, "tags": {"amenity": "bench", "backrest": "yes", "material": "metal", "seats": "4"}}, {"type": "node", "id": 8762221799, "lat": 40.3767645, "lon": -105.5190416, "tags": {"amenity": "bench", "backrest": "yes", "material": "metal", "seats": "4"}}, {"type": "node", "id": 8762221800, "lat": 40.3768101, "lon": -105.5188842, "tags": {"amenity": "bench", "backrest": "yes", "material": "metal", "seats": "4"}}, {"type": "node", "id": 8762221801, "lat": 40.3768659, "lon": -105.5188325, "tags": {"amenity": "waste_basket"}}, {"type": "node", "id": 8762221810, "lat": 40.3769935, "lon": -105.518329, "tags": {"amenity": "waste_basket"}}, {"type": "node", "id": 8762221811, "lat": 40.3770008, "lon": -105.5181655, "tags": {"amenity": "waste_basket"}}, {"type": "node", "id": 8762221812, "lat": 40.3769548, "lon": -105.5182561, "tags": {"amenity": "vending_machine", "vending": "excrement_bags"}}, {"type": "node", "id": 8762221813, "lat": 40.3769572, "lon": -105.5182169, "tags": {"amenity": "bench", "backrest": "yes", "material": "metal", "seats": "4"}}, {"type": "node", "id": 8762221814, "lat": 40.3769946, "lon": -105.5181131, "tags": {"amenity": "bench", "backrest": "yes", "material": "wood", "seats": "4"}}, {"type": "node", "id": 8762221815, "lat": 40.3769845, "lon": -105.5180028, "tags": {"amenity": "bench", "backrest": "yes", "material": "metal", "seats": "4"}}, {"type": "node", "id": 8762221816, "lat": 40.37702, "lon": -105.5178823, "tags": {"amenity": "bench", "backrest": "yes", "material": "metal", "seats": "4"}}, {"type": "node", "id": 8762275117, "lat": 40.3770297, "lon": -105.5176322, "tags": {"amenity": "bench", "backrest": "yes", "material": "metal", "seats": "4"}}, {"type": "node", "id": 8762275118, "lat": 40.3770509, "lon": -105.5174904, "tags": {"amenity": "bench", "backrest": "yes", "material": "metal", "seats": "4"}}, {"type": "node", "id": 8762275119, "lat": 40.3770983, "lon": -105.5173127, "tags": {"amenity": "waste_basket"}}, {"type": "node", "id": 8762275120, "lat": 40.3771149, "lon": -105.5172586, "tags": {"amenity": "bench", "backrest": "no", "material": "metal", "seats": "4"}}, {"type": "node", "id": 8762275121, "lat": 40.3771415, "lon": -105.5171923, "tags": {"amenity": "bench", "backrest": "yes", "material": "metal", "seats": "4"}}, {"type": "node", "id": 8762275122, "lat": 40.3771508, "lon": -105.5171659, "tags": {"amenity": "bench", "backrest": "yes", "material": "metal", "seats": "4"}}, {"type": "node", "id": 8762275123, "lat": 40.3771573, "lon": -105.5171492, "tags": {"amenity": "bench", "backrest": "yes", "material": "metal", "seats": "4"}}, {"type": "node", "id": 8777815711, "lat": 40.3751958, "lon": -105.5221724, "tags": {"amenity": "waste_basket", "material": "metal", "waste": "trash"}}, {"type": "node", "id": 8777815712, "lat": 40.3752029, "lon": -105.5221677, "tags": {"amenity": "recycling", "recycling:cans": "yes", "recycling:plastic": "yes", "recycling_type": "container"}}, {"type": "node", "id": 8777855612, "lat": 40.3772448, "lon": -105.5175943, "tags": {"addr:city": "Estes Park", "addr:housenumber": "400", "addr:postcode": "80517", "addr:state": "CO", "addr:street": "East Elkhorn Avenue", "email": "rockymountainserenitea@gmail.com", "name": "Rocky Mountain SereniTEA", "opening_hours": "Su-Th 11:00-17:00; Fr,Sa 10:00-17:00", "phone": "+1-970-308-8248", "shop": "tea", "website": "https://rockymountainserenitea.com/"}}, {"type": "node", "id": 8839114702, "lat": 40.3766742, "lon": -105.5220901, "tags": {"name": "Dakotah Jewelry of Estes Park", "shop": "jewelry"}}, {"type": "node", "id": 8839181469, "lat": 40.3766648, "lon": -105.5207728, "tags": {"addr:city": "Estes Park", "addr:housenumber": "218", "addr:postcode": "80517", "addr:state": "CO", "addr:street": "East Elkhorn Avenue", "air_conditioning": "yes", "amenity": "fast_food", "brand": "Dairy Queen", "brand:wikidata": "Q1141226", "cuisine": "ice_cream", "delivery": "no", "drive_through": "no", "name": "Dairy Queen", "opening_hours": "Mo-We 11:00-20:00; Th-Su 11:00-21:00", "outdoor_seating": "yes", "payment:american_express": "yes", "payment:cash": "yes", "payment:coins": "yes", "payment:credit_cards": "yes", "payment:debit_cards": "yes", "payment:maestro": "yes", "payment:mastercard": "yes", "payment:visa": "yes", "phone": "+1 970-586-4939", "takeaway": "yes", "website": "https://www.dairyqueen.com/en-us/locations/co/estes-park/218-e-elkhorn-ave/3917/"}}, {"type": "node", "id": 8839181470, "lat": 40.376613, "lon": -105.5211, "tags": {"amenity": "bench", "backrest": "yes", "material": "metal"}}, {"type": "node", "id": 8839189290, "lat": 40.3764034, "lon": -105.5229937, "tags": {"name": "Elkins Colorado Whiskey", "shop": "alcohol"}}, {"type": "node", "id": 8839193527, "lat": 40.376468, "lon": -105.5207, "tags": {"fixme": "tag", "name": "Wildside 4x4 Tours", "office": "guide"}}, {"type": "node", "id": 8839195739, "lat": 40.3764313, "lon": -105.5216487, "tags": {"amenity": "fast_food", "cuisine": "smoothie", "name": "Inta Juice", "opening_hours": "Mo-Th 10:00-15:00; Fr 10:00-17:00; Sa 10:00-19:00; Su 10:00-18:00"}}, {"type": "node", "id": 8839196337, "lat": 40.3766667, "lon": -105.5216558, "tags": {"amenity": "waste_basket"}}, {"type": "node", "id": 8839204720, "lat": 40.3767645, "lon": -105.522121, "tags": {"name": "Beef Jerky Outlet", "shop": "butcher"}}, {"type": "node", "id": 8839205029, "lat": 40.3763405, "lon": -105.5206422, "tags": {"amenity": "restaurant", "cuisine": "mexican", "description": "Authentic Mexican dining experience with Cantina", "name": "Casa Grande", "opening_hours": "Mo-Su 11:00-20:00"}}, {"type": "node", "id": 8839205326, "lat": 40.3763958, "lon": -105.5206708, "tags": {"name": "high desert tattoo", "shop": "tattoo"}}, {"type": "node", "id": 8839205506, "lat": 40.3774253, "lon": -105.5217394, "tags": {"addr:housenumber": "250", "addr:street": "Park Lane", "amenity": "restaurant", "name": "Seasoned", "opening_hours": "We-Sa 05:00-21:00; Su 10:00-14:00"}}, {"type": "node", "id": 8839206226, "lat": 40.3769246, "lon": -105.522215, "tags": {"name": "Sugar Shack", "shop": "confectionery"}}, {"type": "node", "id": 8839209271, "lat": 40.3766194, "lon": -105.5210627, "tags": {"amenity": "waste_basket"}}, {"type": "node", "id": 8923512876, "lat": 40.3761608, "lon": -105.5225494, "tags": {"amenity": "bar", "check_date:opening_hours": "2023-05-22", "min_age": "21", "name": "The Wheel", "opening_hours": "PH,Mo-Su 10:00-02:00"}}, {"type": "node", "id": 8923512877, "lat": 40.3764795, "lon": -105.5226889, "tags": {"amenity": "restaurant", "cuisine": "mexican", "name": "Chelito's"}}, {"type": "node", "id": 8923512878, "lat": 40.3765041, "lon": -105.5226353, "tags": {"amenity": "bar"}}, {"type": "node", "id": 8995958626, "lat": 40.3744315, "lon": -105.5093131}, {"type": "node", "id": 8995958627, "lat": 40.374118, "lon": -105.5090777}, {"type": "node", "id": 8995958628, "lat": 40.37393, "lon": -105.509509}, {"type": "node", "id": 8995958629, "lat": 40.3740864, "lon": -105.5096265}, {"type": "node", "id": 8995958630, "lat": 40.3740683, "lon": -105.5096682}, {"type": "node", "id": 8995958631, "lat": 40.3742253, "lon": -105.5097861}, {"type": "node", "id": 8999681181, "lat": 40.3790815, "lon": -105.5164821, "tags": {"amenity": "fast_food", "cuisine": "sandwich;smoothie", "name": "Shake's Alive", "opening_hours": "We-Su 10:00-17:00"}}, {"type": "node", "id": 8999681182, "lat": 40.3791714, "lon": -105.5163774, "tags": {"name": "Glow Salon And Spa", "shop": "beauty", "website": "https://www.GlowEP.com"}}, {"type": "node", "id": 8999681183, "lat": 40.3793021, "lon": -105.5161588, "tags": {"brand": "Rocky Mountain Chocolate Factory", "brand:wikidata": "Q7355878", "name": "Rocky Mountain Chocolate Factory", "opening_hours": "Su-Th 11:00-18:00; Fr-Sa 11:00-19:00", "shop": "confectionery"}}, {"type": "node", "id": 8999681184, "lat": 40.3797613, "lon": -105.5150847, "tags": {"amenity": "bank", "brand": "KeyBank", "brand:wikidata": "Q1740314", "name": "KeyBank", "opening_hours": "24/7"}}, {"type": "node", "id": 8999681185, "lat": 40.3798405, "lon": -105.5149679, "tags": {"name": "Rocky Mountain Deli", "opening_hours": "Mo-Sa 07:00-18:00; Su 07:30-17:00", "phone": "+1-970-586-4791", "shop": "deli"}}, {"type": "node", "id": 8999681186, "lat": 40.3798458, "lon": -105.5148057, "tags": {"amenity": "restaurant", "cuisine": "pizza", "name": "Village Pizza"}}, {"type": "node", "id": 8999711585, "lat": 40.3811842, "lon": -105.5147729, "tags": {"amenity": "cafe", "cuisine": "bakery;coffee_shop", "name": "Notchtop Bakery and Cafe", "opening_hours": "Mo-Su 07:00-15:00"}}, {"type": "node", "id": 8999711586, "lat": 40.3812578, "lon": -105.514907, "tags": {"brand": "Cost Cutters", "brand:wikidata": "Q62029366", "name": "Cost Cutters", "opening_hours": "Tu-Sa 09:00-16:30", "shop": "hairdresser"}}, {"type": "node", "id": 8999711587, "lat": 40.3813824, "lon": -105.5152959, "tags": {"name": "Estes Park Team Realty", "office": "estate_agent"}}, {"type": "node", "id": 8999711588, "lat": 40.3813068, "lon": -105.5153844, "tags": {"addr:city": "Estes Park", "addr:housenumber": "457", "addr:postcode": "80517", "addr:state": "CO", "addr:street": "East Wonderview Avenue", "addr:unit": "C2", "amenity": "fast_food", "brand": "Domino's", "brand:wikidata": "Q839466", "cuisine": "pizza", "name": "Domino's", "opening_hours": "Mo-Th 10:00-24:00; Fr-Sa 10:30-01:00; Su 10:30-24:00", "phone": "+1 970-586-8181", "ref": "6366", "takeaway": "yes", "website": "https://pizza.dominos.com/colorado/estes-park/457-e-wonderview-ave--c2"}}, {"type": "node", "id": 8999711589, "lat": 40.3811536, "lon": -105.5155105, "tags": {"name": "Rocky Mountain Escrow and Title", "office": "estate_agent"}}, {"type": "node", "id": 8999711590, "lat": 40.3809717, "lon": -105.5156661, "tags": {"name": "Estes Park Pet Supply Company", "opening_hours": "Mo-Sa 09:00-18:00; Su 10:00-17:00", "shop": "pet"}}, {"type": "node", "id": 8999711591, "lat": 40.3808144, "lon": -105.515886, "tags": {"name": "Bart's Liquor", "opening_hours": "Mo-Th 09:00-21:0; Fr-Sa 09:00-22:00; Su 09:00-20:00", "shop": "alcohol"}}, {"type": "node", "id": 8999765137, "lat": 40.3773182, "lon": -105.5172924, "tags": {"amenity": "ice_cream", "name": "Cliff's Scop Shop", "opening_hours": "Mo-Su 12:00-17:00"}}, {"type": "node", "id": 8999765138, "lat": 40.3773067, "lon": -105.5173578, "tags": {"name": "Rocky Mountain Gifts and T-Shirts", "shop": "gift"}}, {"type": "node", "id": 8999765139, "lat": 40.377288, "lon": -105.5174138, "tags": {"name": "Frames Games and Things Unnamed", "opening_hours": "Su-Th 10:00-18:00; Fr-Sa 10:00-19:00", "shop": "games"}}, {"type": "node", "id": 8999765140, "lat": 40.377272, "lon": -105.5174769, "tags": {"name": "Wildlife Photo Art", "shop": "art"}}, {"type": "node", "id": 8999765141, "lat": 40.3772631, "lon": -105.5175294, "tags": {"name": "Mystic Mountain", "shop": "jewelry"}}, {"type": "node", "id": 8999978524, "lat": 40.3774886, "lon": -105.5216783, "tags": {"amenity": "restaurant", "name": "Stella's Palace"}}, {"type": "node", "id": 9000026240, "lat": 40.3776607, "lon": -105.5216613}, {"type": "node", "id": 9000026241, "lat": 40.377535, "lon": -105.521609}, {"type": "node", "id": 9000026242, "lat": 40.3775697, "lon": -105.5215098}, {"type": "node", "id": 9000026243, "lat": 40.3776882, "lon": -105.5215621}, {"type": "node", "id": 9000026244, "lat": 40.3769788, "lon": -105.5194499}, {"type": "node", "id": 9000026245, "lat": 40.3769249, "lon": -105.5194134}, {"type": "node", "id": 9000026246, "lat": 40.3769418, "lon": -105.5193406}, {"type": "node", "id": 9000026247, "lat": 40.3770117, "lon": -105.5193534}, {"type": "node", "id": 9000026248, "lat": 40.3770089, "lon": -105.5194174}, {"type": "node", "id": 9000026249, "lat": 40.3768258, "lon": -105.5192467, "tags": {"amenity": "restaurant", "name": "Poppy's Pizza and Grill"}}, {"type": "node", "id": 9000026250, "lat": 40.3771599, "lon": -105.5184541, "tags": {"brand": "Rocket Fizz", "brand:wikidata": "Q17107987", "name": "Rocket Fizz", "official_name": "Rocket Fizz Soda Pop & Candy Shop", "opening_hours": "Mo-Su 10:00-21:00", "shop": "confectionery"}}, {"type": "node", "id": 9000026251, "lat": 40.377165, "lon": -105.5186606, "tags": {"name": "Thirty Below Leather", "opening_hours": "Mo,We-Sa 10:00-17:00", "shop": "leather"}}, {"type": "node", "id": 9000026252, "lat": 40.3772851, "lon": -105.5181282, "tags": {"name": "Mary Jane's", "opening_hours": "Mo-Su 10:00-19:00", "shop": "clothes"}}, {"type": "node", "id": 9000026254, "lat": 40.3773448, "lon": -105.5178915, "tags": {"name": "Sticks N Stones", "opening_hours": "Mo-Su 10:00-18:00", "shop": "furniture"}}, {"type": "node", "id": 9000026255, "lat": 40.3769264, "lon": -105.5197275, "tags": {"name": "The Christmas Shoppe", "opening_hours": "Mo-Sa 10:00-20:00; Su 10:00-18:00", "shop": "interior_decoration"}}, {"type": "node", "id": 9000026257, "lat": 40.3767608, "lon": -105.5204396, "tags": {"name": "Funky Moose", "shop": "gift"}}, {"type": "node", "id": 9000026258, "lat": 40.3767598, "lon": -105.5205026, "tags": {"name": "Kirks Mountain Adventures", "shop": "outdoor"}}, {"type": "node", "id": 9000026259, "lat": 40.3767373, "lon": -105.5205764, "tags": {"amenity": "car_rental", "name": "Razor Jeep Rentals"}}, {"type": "node", "id": 9002468036, "lat": 40.3750368, "lon": -105.522837, "tags": {"name": "Goat House", "opening_hours": "We-Su 11:00-17:00", "shop": "clothes"}}, {"type": "node", "id": 9002481910, "lat": 40.3743013, "lon": -105.5231418, "tags": {"addr:city": "Estes Park", "addr:housenumber": "215", "addr:postcode": "80517", "addr:state": "CO", "addr:street": "West Riverside Drive", "check_date:opening_hours": "2023-05-22", "name": "Komito Boots", "opening_hours": "Mo-Sa 10:00-18:00", "shop": "shoes"}}, {"type": "node", "id": 9002481911, "lat": 40.3744071, "lon": -105.5230873, "tags": {"amenity": "restaurant", "cuisine": "thai;vietnamese", "name": "Cafe de Pho-Thai", "opening_hours": "Mo-Su 00:00-20:00"}}, {"type": "node", "id": 9148129717, "lat": 40.3762632, "lon": -105.5241241, "tags": {"addr:housenumber": "103", "addr:street": "West Elkhorn Avenue", "name": "Real West Old Time Portraits", "opening_hours": "Mo-Sa 11:00-17:00; Su 12:00-17:00", "shop": "photo"}}, {"type": "node", "id": 9148129718, "lat": 40.3765442, "lon": -105.522692, "tags": {"addr:housenumber": "141", "addr:postcode": "80517", "addr:street": "East Elkhorn Avenue", "name": "Earthwood Collections", "opening_hours": "Mo-Th 10:00-18:00; Fr-Sa 10:00-19:00; Su 10:00-17:00", "shop": "art", "website": "https://www.earthwoodgalleries.com/earthwood-collections/"}}, {"type": "node", "id": 9148129719, "lat": 40.3762781, "lon": -105.523838, "tags": {"addr:housenumber": "101A", "addr:street": "West Elkhorn Avenue", "name": "Mountain Blown Glass", "shop": "art", "website": "https://business.facebook.com/mountainblownglass/"}}, {"type": "node", "id": 9148129817, "lat": 40.3754955, "lon": -105.5234617, "tags": {"addr:housenumber": "130", "addr:street": "Moraine Avenue", "amenity": "cinema", "name": "Park Theatre"}}, {"type": "node", "id": 9210196576, "lat": 40.3777458, "lon": -105.513239, "tags": {"access": "yes", "amenity": "charging_station", "brand": "ChargePoint", "brand:wikidata": "Q5176149", "capacity": "4", "charging_station:output": "6.6kW", "mapillary": "4406302986133724", "name": "ChargePoint", "note": "2 x CT4020", "operator": "ChargePoint", "operator:wikidata": "Q5176149", "operator:wikipedia": "en:ChargePoint"}}, {"type": "node", "id": 9214734874, "lat": 40.3780591, "lon": -105.5196348, "tags": {"amenity": "charging_station", "brand": "ChargePoint", "brand:wikidata": "Q5176149", "capacity": "2", "fee": "varies", "name": "ChargePoint", "operator": "ChargePoint", "operator:wikidata": "Q5176149", "operator:wikipedia": "en:ChargePoint"}}, {"type": "node", "id": 9246767952, "lat": 40.3740798, "lon": -105.5238448, "tags": {"addr:housenumber": "251", "addr:street": "Moraine Avenue", "amenity": "pub", "name": "The Barrel", "smoking": "no", "website": "https://www.thebarrel.beer"}}, {"type": "node", "id": 9250952814, "lat": 40.3757353, "lon": -105.5238358, "tags": {"addr:unit": "A", "name": "Estes Park Knife Company", "opening_hours": "Sa 10:00-17:30; Su 10:00-17:00", "phone": "+1-970-586-4786", "shop": "weapons", "website": "https://epknife.com/"}}, {"type": "node", "id": 9251032986, "lat": 40.3764887, "lon": -105.5242059}, {"type": "node", "id": 9251032987, "lat": 40.3764888, "lon": -105.5240958}, {"type": "node", "id": 9251032988, "lat": 40.3764016, "lon": -105.5240957}, {"type": "node", "id": 9251032989, "lat": 40.3764279, "lon": -105.5242058}, {"type": "node", "id": 9251032990, "lat": 40.3762601, "lon": -105.5246945, "tags": {"addr:housenumber": "129", "addr:street": "West Elkhorn Avenue", "name": "Simply Christmas", "phone": "+1-970-586-8990", "shop": "gift", "website": "https://simply-christmas.com/"}}, {"type": "node", "id": 9287062006, "lat": 40.3823725, "lon": -105.5205919, "tags": {"amenity": "charging_station", "capacity": "4", "mapillary": "1048454575726319", "note": "4 spots/2 Tesla destination chargers"}}, {"type": "node", "id": 9287138023, "lat": 40.378953, "lon": -105.513481, "tags": {"access": "yes", "amenity": "charging_station", "brand": "ChargePoint", "brand:wikidata": "Q5176149", "capacity": "6", "mapillary": "229667315934370", "name": "ChargePoint", "note": "2021-11-28 Need recent sat images for accurate position", "operator": "ChargePoint", "operator:wikidata": "Q5176149", "operator:wikipedia": "en:ChargePoint"}}, {"type": "node", "id": 9686152426, "lat": 40.3763693, "lon": -105.525245, "tags": {"addr:city": "Estes Park", "addr:full": "157 W Elkhorn Ave, Estes Park, CO 80517, USA", "addr:housenumber": "157", "addr:postcode": "80517", "addr:state": "CO", "addr:street": "West Elkhorn Avenue", "amenity": "restaurant", "name": "Wild Rose Restaurant", "opening_hours": "Mo-Su 11:00-22:00", "payment:american_express": "yes", "payment:cash": "yes", "payment:discover_card": "yes", "payment:mastercard": "yes", "payment:visa": "yes", "phone": "+1-970-586-2806", "website": "https://wildroserestaurant.net"}}, {"type": "node", "id": 9765201830, "lat": 40.3749873, "lon": -105.5228438, "tags": {"addr:city": "Estes Park", "addr:housenumber": "181", "addr:postcode": "80517", "addr:state": "CO", "addr:street": "West Riverside Drive", "amenity": "restaurant", "cuisine": "sandwich", "name": "Chester's Philly", "not:brand:wikidata": "Q5093401", "opening_hours": "Mo-Su 11:00-20:00", "phone": "+1-970-577-8888"}}, {"type": "node", "id": 9765228558, "lat": 40.3769378, "lon": -105.5208007, "tags": {"amenity": "waste_basket"}}, {"type": "node", "id": 9765228559, "lat": 40.3769163, "lon": -105.5208862, "tags": {"amenity": "bench", "backrest": "yes", "material": "metal"}}, {"type": "node", "id": 9765228560, "lat": 40.3769683, "lon": -105.5208871, "tags": {"amenity": "bench", "backrest": "yes", "material": "metal"}}, {"type": "node", "id": 9765228561, "lat": 40.3769801, "lon": -105.5208225, "tags": {"amenity": "bench", "backrest": "yes", "material": "metal"}}, {"type": "node", "id": 9765243044, "lat": 40.3762322, "lon": -105.5209976, "tags": {"amenity": "waste_basket", "waste": "trash"}}, {"type": "node", "id": 9770999893, "lat": 40.3775808, "lon": -105.5111273, "tags": {"amenity": "bench", "material": "wood"}}, {"type": "node", "id": 9770999894, "lat": 40.3785133, "lon": -105.5085671, "tags": {"amenity": "bench", "backrest": "no", "material": "wood"}}, {"type": "node", "id": 9770999895, "lat": 40.3784377, "lon": -105.5087812, "tags": {"amenity": "vending_machine", "bin": "no", "fee": "no", "vending": "excrement_bags"}}, {"type": "node", "id": 9770999907, "lat": 40.3786719, "lon": -105.5071597, "tags": {"amenity": "bench", "backrest": "no", "material": "wood"}}, {"type": "node", "id": 9770999908, "lat": 40.3777422, "lon": -105.5116439, "tags": {"amenity": "vending_machine", "bin": "yes", "fee": "no", "vending": "excrement_bags"}}, {"type": "node", "id": 9770999909, "lat": 40.3777295, "lon": -105.5116751, "tags": {"amenity": "waste_basket"}}, {"type": "node", "id": 9770999910, "lat": 40.3777075, "lon": -105.5116943, "tags": {"amenity": "recycling", "recycling_type": "container"}}, {"type": "node", "id": 9770999911, "lat": 40.3777614, "lon": -105.51328}, {"type": "node", "id": 9770999912, "lat": 40.377612, "lon": -105.512965}, {"type": "node", "id": 9770999913, "lat": 40.3775415, "lon": -105.5124746}, {"type": "node", "id": 9770999914, "lat": 40.3776062, "lon": -105.5124388}, {"type": "node", "id": 9770999915, "lat": 40.3776953, "lon": -105.5129311}, {"type": "node", "id": 9770999916, "lat": 40.3778174, "lon": -105.5132215}, {"type": "node", "id": 9771008064, "lat": 40.3788644, "lon": -105.5144916, "tags": {"amenity": "bench", "backrest": "yes", "material": "metal"}}, {"type": "node", "id": 9771008065, "lat": 40.3788745, "lon": -105.514458, "tags": {"amenity": "bench", "backrest": "yes", "material": "metal"}}, {"type": "node", "id": 9771008066, "lat": 40.3788859, "lon": -105.5144619, "tags": {"amenity": "bench", "backrest": "yes", "material": "metal"}}, {"type": "node", "id": 9771008067, "lat": 40.3788891, "lon": -105.5144962, "tags": {"amenity": "post_box", "drive_through": "yes", "operator": "United States Postal Service", "operator:short": "USPS", "operator:type": "public", "operator:website": "https://www.usps.com", "operator:wikidata": "Q668687", "operator:wikipedia": "en:United States Postal Service"}}, {"type": "node", "id": 9771008068, "lat": 40.3788792, "lon": -105.5144821, "tags": {"amenity": "recycling", "recycling:cans": "yes", "recycling:plastic": "yes", "recycling_type": "container"}}, {"type": "node", "id": 9771008069, "lat": 40.3788774, "lon": -105.5144903, "tags": {"amenity": "waste_basket"}}, {"type": "node", "id": 9771008070, "lat": 40.3787783, "lon": -105.5146363, "tags": {"access": "yes", "amenity": "bicycle_parking", "bicycle_parking": "stands", "capacity": "8", "covered": "no", "fee": "no"}}, {"type": "node", "id": 9771008072, "lat": 40.3786113, "lon": -105.5147794, "tags": {"amenity": "waste_basket"}}, {"type": "node", "id": 9771008073, "lat": 40.3786132, "lon": -105.5147711, "tags": {"amenity": "recycling", "recycling_type": "container"}}, {"type": "node", "id": 9771008074, "lat": 40.3785685, "lon": -105.5145733, "tags": {"amenity": "bench", "backrest": "no", "material": "stone"}}, {"type": "node", "id": 9771023521, "lat": 40.3781347, "lon": -105.5133544, "tags": {"amenity": "waste_basket"}}, {"type": "node", "id": 9771023522, "lat": 40.378151, "lon": -105.5133244, "tags": {"amenity": "bench", "backrest": "yes", "material": "metal"}}, {"type": "node", "id": 9771023525, "lat": 40.3786722, "lon": -105.5138639, "tags": {"amenity": "vending_machine", "bin": "no", "check_date": "2025-08-17", "fee": "no", "vending": "excrement_bags"}}, {"type": "node", "id": 9771023526, "lat": 40.3787997, "lon": -105.5139092, "tags": {"amenity": "waste_basket"}}, {"type": "node", "id": 9771023527, "lat": 40.3788019, "lon": -105.513896, "tags": {"amenity": "recycling", "recycling:cans": "yes", "recycling:plastic": "yes", "recycling_type": "container"}}, {"type": "node", "id": 9771023528, "lat": 40.3787866, "lon": -105.5140007, "tags": {"amenity": "bench", "backrest": "yes", "material": "metal"}}, {"type": "node", "id": 9771023529, "lat": 40.3787917, "lon": -105.5139663, "tags": {"amenity": "bench", "backrest": "yes", "material": "metal"}}, {"type": "node", "id": 9771023530, "lat": 40.3788217, "lon": -105.5139736, "tags": {"amenity": "bench", "backrest": "yes", "material": "metal"}}, {"type": "node", "id": 9771023531, "lat": 40.3787995, "lon": -105.5139159, "tags": {"amenity": "waste_basket"}}, {"type": "node", "id": 9771023532, "lat": 40.3787349, "lon": -105.5141344, "tags": {"amenity": "bench", "backrest": "yes", "material": "metal"}}, {"type": "node", "id": 9771023534, "lat": 40.3787165, "lon": -105.514274, "tags": {"amenity": "vending_machine", "drink:soft_drink": "yes", "vending": "drinks"}}, {"type": "node", "id": 9871475315, "lat": 40.3765896, "lon": -105.5223027, "tags": {"addr:city": "Estes Park", "addr:housenumber": "157", "addr:postcode": "80517", "addr:state": "CO", "addr:street": "East Elkhorn Avenue", "air_conditioning": "yes", "name": "Wear Me Out T\u2019s", "payment:american_express": "yes", "payment:cash": "yes", "payment:coins": "yes", "payment:credit_cards": "yes", "payment:debit_cards": "yes", "payment:maestro": "yes", "payment:mastercard": "yes", "payment:visa": "yes", "phone": "+1-970-586-2433", "shop": "gift"}}, {"type": "node", "id": 9871475316, "lat": 40.3764257, "lon": -105.5218115, "tags": {"addr:city": "Estes Park", "addr:housenumber": "184", "addr:postcode": "80517", "addr:state": "CO", "addr:street": "East Elkhorn Avenue", "air_conditioning": "yes", "name": "Awesome Shirtworks", "opening_hours": "Mo-Su 10:00-18:00", "payment:american_express": "yes", "payment:cash": "yes", "payment:coins": "yes", "payment:credit_cards": "yes", "payment:debit_cards": "yes", "payment:maestro": "yes", "payment:mastercard": "yes", "payment:visa": "yes", "phone": "+1-970-586-5017", "shop": "gift"}}, {"type": "node", "id": 9871535259, "lat": 40.3759788, "lon": -105.5238101, "tags": {"addr:city": "Estes Park", "addr:housenumber": "100", "addr:postcode": "80517", "addr:state": "CO", "addr:street": "West Elkhorn Avenue", "air_conditioning": "yes", "name": "Estes Village", "phone": "+1-970-584-3949", "shop": "gift"}}, {"type": "node", "id": 10922347336, "lat": 40.3757389, "lon": -105.5228168}, {"type": "node", "id": 10922347337, "lat": 40.3754833, "lon": -105.5227125}, {"type": "node", "id": 10922347338, "lat": 40.3754248, "lon": -105.5229596}, {"type": "node", "id": 10922347339, "lat": 40.3756804, "lon": -105.5230639}, {"type": "node", "id": 10924302948, "lat": 40.3739812, "lon": -105.5048275}, {"type": "node", "id": 10924302949, "lat": 40.3735094, "lon": -105.5051566}, {"type": "node", "id": 10924302950, "lat": 40.3734618, "lon": -105.5050391}, {"type": "node", "id": 10924302951, "lat": 40.3734036, "lon": -105.5050797}, {"type": "node", "id": 10924302952, "lat": 40.3733429, "lon": -105.5049298}, {"type": "node", "id": 10924302953, "lat": 40.3735279, "lon": -105.5048007}, {"type": "node", "id": 10924302954, "lat": 40.3735549, "lon": -105.5048674}, {"type": "node", "id": 10924302955, "lat": 40.3736796, "lon": -105.5047803}, {"type": "node", "id": 10924302956, "lat": 40.3736582, "lon": -105.5047273}, {"type": "node", "id": 10924302957, "lat": 40.3738012, "lon": -105.5046274}, {"type": "node", "id": 10924302958, "lat": 40.3738243, "lon": -105.5046843}, {"type": "node", "id": 10924302959, "lat": 40.3739015, "lon": -105.5046304}, {"type": "node", "id": 10924302960, "lat": 40.3732127, "lon": -105.5053002}, {"type": "node", "id": 10924302961, "lat": 40.3731836, "lon": -105.5053864}, {"type": "node", "id": 10924302962, "lat": 40.3725578, "lon": -105.5050224}, {"type": "node", "id": 10924302963, "lat": 40.3725896, "lon": -105.5049282}, {"type": "node", "id": 10924302964, "lat": 40.3727088, "lon": -105.5049975}, {"type": "node", "id": 10924302965, "lat": 40.3727699, "lon": -105.5048164}, {"type": "node", "id": 10924302966, "lat": 40.3730397, "lon": -105.5049732}, {"type": "node", "id": 10924302967, "lat": 40.3730328, "lon": -105.5050288}, {"type": "node", "id": 10924302968, "lat": 40.3730859, "lon": -105.5050597}, {"type": "node", "id": 10924302969, "lat": 40.3730388, "lon": -105.505199}, {"type": "node", "id": 10924302970, "lat": 40.3728187, "lon": -105.5046259}, {"type": "node", "id": 10924302971, "lat": 40.3724974, "lon": -105.5048554}, {"type": "node", "id": 10924302972, "lat": 40.372459, "lon": -105.5047627}, {"type": "node", "id": 10924302973, "lat": 40.3723058, "lon": -105.5048721}, {"type": "node", "id": 10924302974, "lat": 40.3721835, "lon": -105.5045772}, {"type": "node", "id": 10924302975, "lat": 40.3722967, "lon": -105.5044964}, {"type": "node", "id": 10924302976, "lat": 40.3722259, "lon": -105.5043255}, {"type": "node", "id": 10924302977, "lat": 40.3722719, "lon": -105.5042927}, {"type": "node", "id": 10924302978, "lat": 40.3719932, "lon": -105.5036199}, {"type": "node", "id": 10924302979, "lat": 40.3719551, "lon": -105.5036471}, {"type": "node", "id": 10924302980, "lat": 40.3718658, "lon": -105.5034314}, {"type": "node", "id": 10924302981, "lat": 40.3719547, "lon": -105.5033679}, {"type": "node", "id": 10924302982, "lat": 40.3719202, "lon": -105.5032848}, {"type": "node", "id": 10924302983, "lat": 40.3721331, "lon": -105.5031328}, {"type": "node", "id": 10924302984, "lat": 40.3721601, "lon": -105.5031979}, {"type": "node", "id": 10924302985, "lat": 40.3722115, "lon": -105.5031612}, {"type": "node", "id": 10924302986, "lat": 40.3721181, "lon": -105.5028107}, {"type": "node", "id": 10924302987, "lat": 40.3717841, "lon": -105.5030438}, {"type": "node", "id": 10924302988, "lat": 40.3714962, "lon": -105.5023331}, {"type": "node", "id": 10924302989, "lat": 40.3718303, "lon": -105.5020999}, {"type": "node", "id": 10924302990, "lat": 40.3760042, "lon": -105.505635}, {"type": "node", "id": 10924302991, "lat": 40.375666, "lon": -105.5057028}, {"type": "node", "id": 10924302992, "lat": 40.3756217, "lon": -105.5053219}, {"type": "node", "id": 10924302993, "lat": 40.3758852, "lon": -105.5052691}, {"type": "node", "id": 10924302994, "lat": 40.3759152, "lon": -105.5055273}, {"type": "node", "id": 10924302995, "lat": 40.3759899, "lon": -105.5055123}, {"type": "node", "id": 10924303000, "lat": 40.3750654, "lon": -105.5001661}, {"type": "node", "id": 10924303001, "lat": 40.3749972, "lon": -105.5001602}, {"type": "node", "id": 10924303002, "lat": 40.3750155, "lon": -105.4997956}, {"type": "node", "id": 10924303003, "lat": 40.3750837, "lon": -105.4998015}, {"type": "node", "id": 10924303004, "lat": 40.3765116, "lon": -105.5072827}, {"type": "node", "id": 10924304405, "lat": 40.3763135, "lon": -105.5073535}, {"type": "node", "id": 10924304406, "lat": 40.3762973, "lon": -105.5072757}, {"type": "node", "id": 10924304407, "lat": 40.3764955, "lon": -105.507205}, {"type": "node", "id": 10924304408, "lat": 40.376138, "lon": -105.5071569}, {"type": "node", "id": 10924304409, "lat": 40.376089, "lon": -105.5071759}, {"type": "node", "id": 10924304410, "lat": 40.3760151, "lon": -105.5068471}, {"type": "node", "id": 10924304411, "lat": 40.3760641, "lon": -105.5068281}, {"type": "node", "id": 10927719892, "lat": 40.3761922, "lon": -105.5226641, "tags": {"addr:city": "Estes Park", "addr:housenumber": "130", "addr:postcode": "80517", "addr:state": "CO", "addr:street": "East Elkhorn Avenue", "amenity": "ice_cream", "name": "The Munchin House", "outdoor_seating": "yes", "phone": "+1-970-586-8483", "website": "https://www.themunchinhouse.com/"}}, {"type": "node", "id": 11043347630, "lat": 40.3800978, "lon": -105.4930461}, {"type": "node", "id": 11043347631, "lat": 40.3793431, "lon": -105.493046}, {"type": "node", "id": 11043347632, "lat": 40.3793451, "lon": -105.4928266}, {"type": "node", "id": 11043347633, "lat": 40.3800488, "lon": -105.4928301}, {"type": "node", "id": 11043347634, "lat": 40.3800488, "lon": -105.4928867}, {"type": "node", "id": 11043347635, "lat": 40.3800986, "lon": -105.4929743}, {"type": "node", "id": 11124279403, "lat": 40.371751, "lon": -105.5238906}, {"type": "node", "id": 11124279404, "lat": 40.3719333, "lon": -105.5238514}, {"type": "node", "id": 11415483328, "lat": 40.3779122, "lon": -105.5142869}, {"type": "node", "id": 11415483329, "lat": 40.3779008, "lon": -105.5143207}, {"type": "node", "id": 11415483330, "lat": 40.377927, "lon": -105.5145784}, {"type": "node", "id": 11415483331, "lat": 40.3779791, "lon": -105.5145793}, {"type": "node", "id": 11415483332, "lat": 40.37799, "lon": -105.5146204}, {"type": "node", "id": 11415483333, "lat": 40.3781431, "lon": -105.5145955}, {"type": "node", "id": 11415483334, "lat": 40.3781402, "lon": -105.5145207}, {"type": "node", "id": 11415483335, "lat": 40.3781913, "lon": -105.5145374}, {"type": "node", "id": 11415483336, "lat": 40.3782651, "lon": -105.5142122}, {"type": "node", "id": 11415483337, "lat": 40.378218, "lon": -105.5142033}, {"type": "node", "id": 12004392605, "lat": 40.3759291, "lon": -105.5056501}, {"type": "node", "id": 12004392622, "lat": 40.3769223, "lon": -105.5065876}, {"type": "node", "id": 12004392623, "lat": 40.3770051, "lon": -105.5066726}, {"type": "node", "id": 12004392624, "lat": 40.3769347, "lon": -105.5066819}, {"type": "node", "id": 12004392625, "lat": 40.3768995, "lon": -105.5064138}, {"type": "node", "id": 12004392626, "lat": 40.3769676, "lon": -105.5064015}, {"type": "node", "id": 12004773118, "lat": 40.3707419, "lon": -105.5261801}, {"type": "node", "id": 12004773119, "lat": 40.3707477, "lon": -105.5259983}, {"type": "node", "id": 12004773120, "lat": 40.3707325, "lon": -105.5258258}, {"type": "node", "id": 12004773121, "lat": 40.3707536, "lon": -105.5257765}, {"type": "node", "id": 12004773127, "lat": 40.3715777, "lon": -105.5257252}, {"type": "node", "id": 12004773128, "lat": 40.3715779, "lon": -105.5258855}, {"type": "node", "id": 12004773129, "lat": 40.3715181, "lon": -105.5258886}, {"type": "node", "id": 12004773130, "lat": 40.3715165, "lon": -105.5257266}, {"type": "node", "id": 12004773131, "lat": 40.3713756, "lon": -105.5257391}, {"type": "node", "id": 12004773132, "lat": 40.3712547, "lon": -105.5257446}, {"type": "node", "id": 12004773133, "lat": 40.3713738, "lon": -105.5256997}, {"type": "node", "id": 12004773134, "lat": 40.3712466, "lon": -105.5257782}, {"type": "node", "id": 12004773135, "lat": 40.371084, "lon": -105.5257827}, {"type": "node", "id": 12004773136, "lat": 40.3710025, "lon": -105.525781}, {"type": "node", "id": 12004773137, "lat": 40.3709038, "lon": -105.5261739}, {"type": "node", "id": 12004773138, "lat": 40.3709085, "lon": -105.5257888}, {"type": "node", "id": 12004773141, "lat": 40.3708126, "lon": -105.5257812}, {"type": "node", "id": 12004774015, "lat": 40.376494, "lon": -105.5238251}, {"type": "node", "id": 12004774016, "lat": 40.3764117, "lon": -105.5238247}, {"type": "node", "id": 12004789823, "lat": 40.3718403, "lon": -105.523877}, {"type": "node", "id": 12033850212, "lat": 40.3799429, "lon": -105.5145933}, {"type": "node", "id": 12033850213, "lat": 40.3799599, "lon": -105.5145741}, {"type": "node", "id": 12033850214, "lat": 40.3799635, "lon": -105.5145795}, {"type": "node", "id": 12033850215, "lat": 40.3799367, "lon": -105.5145838}, {"type": "node", "id": 12033850231, "lat": 40.3764015, "lon": -105.5241408}, {"type": "node", "id": 12033850232, "lat": 40.376428, "lon": -105.5241408}, {"type": "node", "id": 12049644261, "lat": 40.381909, "lon": -105.4949305, "tags": {"addr:city": "Estes Park", "addr:housenumber": "521", "addr:postcode": "80517", "addr:state": "CO", "addr:street": "Lone Pine Drive", "name": "Estes Ark", "phone": "+1 970-586-6483", "shop": "gift", "website": "https://www.estesark.com/"}}, {"type": "node", "id": 12060121121, "lat": 40.3798119, "lon": -105.492682, "tags": {"amenity": "restaurant", "name": "Hunter's Chop House"}}, {"type": "node", "id": 12117733343, "lat": 40.3838192, "lon": -105.5164914}, {"type": "node", "id": 12117733344, "lat": 40.3836455, "lon": -105.5165665}, {"type": "node", "id": 12117733345, "lat": 40.3834229, "lon": -105.5159282}, {"type": "node", "id": 12117733346, "lat": 40.3834515, "lon": -105.5158799}, {"type": "node", "id": 12117733347, "lat": 40.3833534, "lon": -105.5157994}, {"type": "node", "id": 12117733348, "lat": 40.3832328, "lon": -105.5158262}, {"type": "node", "id": 12117733349, "lat": 40.3832165, "lon": -105.5162232}, {"type": "node", "id": 12117733350, "lat": 40.383049, "lon": -105.5162071}, {"type": "node", "id": 12117733351, "lat": 40.3830449, "lon": -105.516309}, {"type": "node", "id": 12117733352, "lat": 40.3828181, "lon": -105.5162849}, {"type": "node", "id": 12117733353, "lat": 40.3827793, "lon": -105.5163439}, {"type": "node", "id": 12117733354, "lat": 40.3825361, "lon": -105.5160945}, {"type": "node", "id": 12117733355, "lat": 40.3826485, "lon": -105.515896}, {"type": "node", "id": 12117733356, "lat": 40.3829386, "lon": -105.5156653}, {"type": "node", "id": 12117733357, "lat": 40.3830857, "lon": -105.5156063}, {"type": "node", "id": 12117733358, "lat": 40.3833125, "lon": -105.5156304}, {"type": "node", "id": 12117733359, "lat": 40.3834269, "lon": -105.5156894}, {"type": "node", "id": 12117733360, "lat": 40.3835168, "lon": -105.5158101}, {"type": "node", "id": 12117733361, "lat": 40.3835536, "lon": -105.5157645}, {"type": "node", "id": 12117733362, "lat": 40.3837068, "lon": -105.5160649}, {"type": "node", "id": 12117733363, "lat": 40.3837784, "lon": -105.5162742}, {"type": "node", "id": 12117733364, "lat": 40.382846, "lon": -105.5164045, "tags": {"amenity": "restaurant", "cuisine": "american", "name": "The Post Chicken & Beer", "website": "https://www.postchickenandbeer.com/location/estes-park/"}}, {"type": "node", "id": 12117733365, "lat": 40.3821864, "lon": -105.5185772}, {"type": "node", "id": 12117733369, "lat": 40.3838322, "lon": -105.5197339}, {"type": "node", "id": 12117733370, "lat": 40.3836605, "lon": -105.5198327}, {"type": "node", "id": 12117733371, "lat": 40.3837443, "lon": -105.5201319}, {"type": "node", "id": 12117733372, "lat": 40.3838841, "lon": -105.5199796}, {"type": "node", "id": 12117733393, "lat": 40.3835575, "lon": -105.5195784}, {"type": "node", "id": 12117733394, "lat": 40.3833778, "lon": -105.5195668}, {"type": "node", "id": 12117733395, "lat": 40.3833719, "lon": -105.5190369}, {"type": "node", "id": 12117733396, "lat": 40.3834338, "lon": -105.518596}, {"type": "node", "id": 12117733397, "lat": 40.3835398, "lon": -105.5182789}, {"type": "node", "id": 12117733398, "lat": 40.3836842, "lon": -105.5183446}, {"type": "node", "id": 12117733399, "lat": 40.3835988, "lon": -105.5186463}, {"type": "node", "id": 12117733400, "lat": 40.3835487, "lon": -105.5190408}, {"type": "node", "id": 12134496789, "lat": 40.3775026, "lon": -105.5220055}, {"type": "node", "id": 12134496790, "lat": 40.379622, "lon": -105.5134707}, {"type": "node", "id": 12134496792, "lat": 40.3787063, "lon": -105.5135168}, {"type": "node", "id": 12134496793, "lat": 40.3790034, "lon": -105.514024}, {"type": "node", "id": 12134496794, "lat": 40.3768805, "lon": -105.5208709}, {"type": "node", "id": 12134496795, "lat": 40.3775944, "lon": -105.521076}, {"type": "node", "id": 12134496796, "lat": 40.3772339, "lon": -105.5220144}, {"type": "node", "id": 12134496797, "lat": 40.3801586, "lon": -105.5221341}, {"type": "node", "id": 12134496798, "lat": 40.3788216, "lon": -105.5146178}, {"type": "node", "id": 12134496799, "lat": 40.3787708, "lon": -105.515136}, {"type": "node", "id": 12134496800, "lat": 40.377177, "lon": -105.5216045}, {"type": "node", "id": 12134524701, "lat": 40.3772445, "lon": -105.5215502}, {"type": "node", "id": 12134524702, "lat": 40.3800281, "lon": -105.5220269}, {"type": "node", "id": 12134524703, "lat": 40.3772331, "lon": -105.5219733}, {"type": "node", "id": 12134524704, "lat": 40.3769075, "lon": -105.5208817}, {"type": "node", "id": 12134524705, "lat": 40.3797727, "lon": -105.5219488}, {"type": "node", "id": 12134524706, "lat": 40.3784338, "lon": -105.5155699}, {"type": "node", "id": 12134524707, "lat": 40.3784375, "lon": -105.5211565}, {"type": "node", "id": 12134524708, "lat": 40.3789695, "lon": -105.5214595}, {"type": "node", "id": 12134524709, "lat": 40.3771774, "lon": -105.5215189}, {"type": "node", "id": 12134524710, "lat": 40.3793366, "lon": -105.513364}, {"type": "node", "id": 12134524711, "lat": 40.3784514, "lon": -105.5154818}, {"type": "node", "id": 12134524712, "lat": 40.3786479, "lon": -105.514839}, {"type": "node", "id": 12134524713, "lat": 40.3768002, "lon": -105.521214}, {"type": "node", "id": 12134524714, "lat": 40.3789033, "lon": -105.5145448}, {"type": "node", "id": 12134524715, "lat": 40.3779648, "lon": -105.5209614}, {"type": "node", "id": 12134524716, "lat": 40.3768271, "lon": -105.5212249}, {"type": "node", "id": 12134524717, "lat": 40.3787223, "lon": -105.5147953}, {"type": "node", "id": 12134524718, "lat": 40.3801041, "lon": -105.5221541}, {"type": "node", "id": 12134524719, "lat": 40.3775695, "lon": -105.5209972}, {"type": "node", "id": 12134524720, "lat": 40.3794779, "lon": -105.5217309}, {"type": "node", "id": 12134524721, "lat": 40.3786986, "lon": -105.5137245}, {"type": "node", "id": 12134524722, "lat": 40.3787484, "lon": -105.5135517}, {"type": "node", "id": 12134524723, "lat": 40.3775018, "lon": -105.5219644}, {"type": "node", "id": 12134524724, "lat": 40.3798313, "lon": -105.5219177}, {"type": "node", "id": 12134524725, "lat": 40.3791741, "lon": -105.5143208}, {"type": "node", "id": 12134524726, "lat": 40.3789304, "lon": -105.5133493}, {"type": "node", "id": 12134524727, "lat": 40.3788602, "lon": -105.5132663}, {"type": "node", "id": 12134524728, "lat": 40.3784646, "lon": -105.5156663}, {"type": "node", "id": 12134524729, "lat": 40.378005, "lon": -105.5209307}, {"type": "node", "id": 12134524730, "lat": 40.3787283, "lon": -105.5136661}, {"type": "node", "id": 12136576507, "lat": 40.3769224, "lon": -105.5283781, "tags": {"access": "yes", "amenity": "toilets"}}, {"type": "node", "id": 12154160665, "lat": 40.375399, "lon": -105.522487, "tags": {"amenity": "parking_entrance"}}, {"type": "node", "id": 12154160666, "lat": 40.3772044, "lon": -105.5217197}, {"type": "node", "id": 12154160667, "lat": 40.3776065, "lon": -105.5211868}, {"type": "node", "id": 12154160668, "lat": 40.3776674, "lon": -105.5211259}, {"type": "node", "id": 12154160669, "lat": 40.3776674, "lon": -105.5212007}, {"type": "node", "id": 12154160670, "lat": 40.377302, "lon": -105.5217019}, {"type": "node", "id": 12154160671, "lat": 40.377188, "lon": -105.5217958}, {"type": "node", "id": 12154160672, "lat": 40.3772886, "lon": -105.5216398}, {"type": "node", "id": 12154160681, "lat": 40.3781652, "lon": -105.5214482}, {"type": "node", "id": 12154160682, "lat": 40.3784165, "lon": -105.5215801}, {"type": "node", "id": 12154160683, "lat": 40.3785469, "lon": -105.5215814}, {"type": "node", "id": 12154160684, "lat": 40.3786252, "lon": -105.5216106}, {"type": "node", "id": 12154160685, "lat": 40.3786252, "lon": -105.5215129}, {"type": "node", "id": 12154160686, "lat": 40.3786832, "lon": -105.5215497}, {"type": "node", "id": 12154160687, "lat": 40.3786871, "lon": -105.521844}, {"type": "node", "id": 12154160688, "lat": 40.3786687, "lon": -105.5218745}, {"type": "node", "id": 12154160689, "lat": 40.3781942, "lon": -105.5216118}, {"type": "node", "id": 12154160695, "lat": 40.3782572, "lon": -105.5212176}, {"type": "node", "id": 12154160696, "lat": 40.3785617, "lon": -105.5213876}, {"type": "node", "id": 12154160697, "lat": 40.3785501, "lon": -105.5214384}, {"type": "node", "id": 12154160698, "lat": 40.3782408, "lon": -105.5212671}, {"type": "node", "id": 12155991957, "lat": 40.3754857, "lon": -105.5229845}, {"type": "node", "id": 12157530560, "lat": 40.3714661, "lon": -105.5241757, "tags": {"amenity": "restaurant", "cuisine": "italian", "name": "Sweet Basilico"}}, {"type": "node", "id": 12157530565, "lat": 40.3714182, "lon": -105.5243402}, {"type": "node", "id": 12157530566, "lat": 40.3714227, "lon": -105.5239838}, {"type": "node", "id": 12157530567, "lat": 40.371484, "lon": -105.5239872}, {"type": "node", "id": 12157530568, "lat": 40.371478, "lon": -105.5238476}, {"type": "node", "id": 12157530569, "lat": 40.371454, "lon": -105.5237205}, {"type": "node", "id": 12157530570, "lat": 40.3712669, "lon": -105.5238086}, {"type": "node", "id": 12157530571, "lat": 40.3711445, "lon": -105.5242749}, {"type": "node", "id": 12157530572, "lat": 40.3712054, "lon": -105.5242837}, {"type": "node", "id": 12157530573, "lat": 40.3712104, "lon": -105.5243351}, {"type": "node", "id": 12157530580, "lat": 40.3723225, "lon": -105.5238899}, {"type": "node", "id": 12157530581, "lat": 40.3723143, "lon": -105.523735}, {"type": "node", "id": 12157530582, "lat": 40.3717334, "lon": -105.5236517}, {"type": "node", "id": 12157530583, "lat": 40.371746, "lon": -105.5238914}, {"type": "node", "id": 12157530584, "lat": 40.3719528, "lon": -105.5239166}, {"type": "node", "id": 12157530585, "lat": 40.3720145, "lon": -105.5239051}, {"type": "node", "id": 12157530586, "lat": 40.3719412, "lon": -105.5238493}, {"type": "node", "id": 12157530598, "lat": 40.3718369, "lon": -105.523458}, {"type": "node", "id": 12157530599, "lat": 40.3723786, "lon": -105.5233037}, {"type": "node", "id": 12157530600, "lat": 40.3724484, "lon": -105.5232308}, {"type": "node", "id": 12157537901, "lat": 40.3724856, "lon": -105.5231526}, {"type": "node", "id": 12157537902, "lat": 40.3724809, "lon": -105.5230576}, {"type": "node", "id": 12157537903, "lat": 40.3723782, "lon": -105.5230591}, {"type": "node", "id": 12157537904, "lat": 40.3723727, "lon": -105.5228818}, {"type": "node", "id": 12157537905, "lat": 40.3723522, "lon": -105.522784}, {"type": "node", "id": 12157537906, "lat": 40.3722614, "lon": -105.5226689}, {"type": "node", "id": 12157537907, "lat": 40.3722614, "lon": -105.5226175}, {"type": "node", "id": 12157537908, "lat": 40.3721755, "lon": -105.5225126}, {"type": "node", "id": 12157537909, "lat": 40.3720707, "lon": -105.5225023}, {"type": "node", "id": 12157537910, "lat": 40.3719941, "lon": -105.5225287}, {"type": "node", "id": 12157537911, "lat": 40.3719426, "lon": -105.5225724}, {"type": "node", "id": 12157537912, "lat": 40.3719026, "lon": -105.5226131}, {"type": "node", "id": 12157537913, "lat": 40.3718422, "lon": -105.5226807}, {"type": "node", "id": 12157537914, "lat": 40.3718313, "lon": -105.5227188}, {"type": "node", "id": 12157537915, "lat": 40.3719381, "lon": -105.5227643}, {"type": "node", "id": 12157537916, "lat": 40.3718366, "lon": -105.5231376}, {"type": "node", "id": 12177483304, "lat": 40.3775598, "lon": -105.5203746, "tags": {"addr:city": "Estes Park", "addr:housenumber": "170", "addr:postcode": "80517", "addr:state": "CO", "addr:street": "Macgregor Avenue", "amenity": "polling_station", "opening_hours": "24/7", "polling_station": "ballot_box"}}, {"type": "node", "id": 12179616987, "lat": 40.3708648, "lon": -105.5218004}, {"type": "node", "id": 12179616988, "lat": 40.3707871, "lon": -105.5221424}, {"type": "node", "id": 12187389354, "lat": 40.3775623, "lon": -105.5209067, "tags": {"amenity": "polling_station", "location": "outdoor", "opening_hours": "24/7", "polling_station": "ballot_box"}}, {"type": "node", "id": 12189761344, "lat": 40.3773634, "lon": -105.5287222, "tags": {"addr:city": "Estes Park", "addr:housenumber": "435", "addr:postcode": "80517", "addr:state": "CO", "addr:street": "West Elkhorn Avenue", "amenity": "theatre", "name": "Performance Park", "theatre:type": "amphi"}}, {"type": "node", "id": 12294670383, "lat": 40.3783706, "lon": -105.5007183}, {"type": "node", "id": 12294670384, "lat": 40.3785193, "lon": -105.5006514}, {"type": "node", "id": 12294670385, "lat": 40.3786224, "lon": -105.5010644}, {"type": "node", "id": 12294670386, "lat": 40.3787548, "lon": -105.5013122}, {"type": "node", "id": 12294670387, "lat": 40.3785008, "lon": -105.5012739}, {"type": "node", "id": 12294670388, "lat": 40.3784828, "lon": -105.5012065}, {"type": "node", "id": 12294670391, "lat": 40.378546, "lon": -105.501369}, {"type": "node", "id": 12294670392, "lat": 40.3786848, "lon": -105.5014033}, {"type": "node", "id": 12294670393, "lat": 40.3786233, "lon": -105.5014214}, {"type": "node", "id": 12294670394, "lat": 40.3787511, "lon": -105.5013855}, {"type": "node", "id": 12294670395, "lat": 40.3787503, "lon": -105.5011098}, {"type": "node", "id": 12294704703, "lat": 40.3787176, "lon": -105.5016078}, {"type": "node", "id": 12294704704, "lat": 40.3787103, "lon": -105.5015565}, {"type": "node", "id": 12294704705, "lat": 40.3786591, "lon": -105.5015685}, {"type": "node", "id": 12294704706, "lat": 40.3786667, "lon": -105.5016178}, {"type": "node", "id": 12387407932, "lat": 40.3768711, "lon": -105.5194581, "tags": {"amenity": "atm", "drive_through": "no"}}, {"type": "node", "id": 12387407933, "lat": 40.3767527, "lon": -105.5198942, "tags": {"addr:city": "Estes Park", "addr:housenumber": "320", "addr:street": "East Elkhorn Avenue", "brand": "Keller Williams Realty", "brand:wikidata": "Q6385689", "name": "Keller Williams Realty", "office": "estate_agent", "website": "https://www.signaturehometeam.com/"}}, {"type": "node", "id": 12387407934, "lat": 40.3766843, "lon": -105.5200779, "tags": {"addr:housenumber": "300", "addr:street": "East Elkhorn Avenue", "clothes": "women;men;children", "level": "1", "name": "The Mountain Vault", "opening_hours": "Mo-Su 10:00-18:00", "shop": "clothes", "website": "https://www.themountainvault.com/"}}, {"type": "node", "id": 12387407935, "lat": 40.3766209, "lon": -105.5200457, "tags": {"addr:housenumber": "312", "addr:street": "East Elkhorn Avenue", "level": "2", "name": "Sky Pond Architecture", "office": "architect", "website": "https://skypondengineering.com/"}}, {"type": "node", "id": 12387407937, "lat": 40.376293, "lon": -105.5215665, "tags": {"addr:housenumber": "184", "addr:street": "East Elkhorn Avenue", "addr:unit": "J", "amenity": "restaurant", "cuisine": "breakfast", "name": "Rocky Mountain Crepe", "phone": "+1-970-591-2917", "website": "https://rockymtncrepe.co/"}}, {"type": "node", "id": 12387407938, "lat": 40.3768881, "lon": -105.5221472}, {"type": "node", "id": 12387407939, "lat": 40.3768643, "lon": -105.5222449}, {"type": "node", "id": 12387407940, "lat": 40.3768819, "lon": -105.5222523}, {"type": "node", "id": 12387407941, "lat": 40.3770859, "lon": -105.5222275}, {"type": "node", "id": 12387407942, "lat": 40.3770769, "lon": -105.522162}, {"type": "node", "id": 12387407943, "lat": 40.3771465, "lon": -105.5221456}, {"type": "node", "id": 12387407944, "lat": 40.3771555, "lon": -105.5222111}, {"type": "node", "id": 12387407945, "lat": 40.3773419, "lon": -105.5222458, "tags": {"addr:housenumber": "165", "addr:street": "Virginia Drive", "name": "Purple Points Tour Company", "office": "guide", "phone": "+1-970-235-4061", "website": "https://www.purplepointstourcompany.com/"}}, {"type": "node", "id": 12387407946, "lat": 40.3776116, "lon": -105.5222351, "tags": {"addr:housenumber": "165", "addr:street": "Virginia Drive", "amenity": "restaurant", "cuisine": "mexican;grill", "level": "2", "name": "La Caba\u00f1a Mexican Bar and Grill", "opening_hours": "Fr-We 11:00-20:30", "phone": "+1-970-236-2499", "website": "https://www.lacabanabarandgrill.com/"}}, {"type": "node", "id": 12708702288, "lat": 40.3830114, "lon": -105.5057068}, {"type": "node", "id": 12708702289, "lat": 40.3828852, "lon": -105.5061421}, {"type": "node", "id": 12708702290, "lat": 40.3827552, "lon": -105.5060395}, {"type": "node", "id": 12708702291, "lat": 40.3828297, "lon": -105.5056247}, {"type": "node", "id": 12788100899, "lat": 40.3720481, "lon": -105.5236652}, {"type": "node", "id": 12788103002, "lat": 40.3722481, "lon": -105.5233886}, {"type": "node", "id": 12788103003, "lat": 40.3720388, "lon": -105.5234527}, {"type": "node", "id": 12788103014, "lat": 40.3732153, "lon": -105.5244015}, {"type": "node", "id": 12788103015, "lat": 40.3732219, "lon": -105.5241307}, {"type": "node", "id": 12788103016, "lat": 40.3730491, "lon": -105.5241098}, {"type": "node", "id": 12788103017, "lat": 40.3728176, "lon": -105.5243819}, {"type": "node", "id": 12856664912, "lat": 40.3810761, "lon": -105.512702, "tags": {"addr:city": "Estes Park", "addr:housenumber": "420", "addr:postcode": "80517", "addr:state": "CO", "addr:street": "Steamer Drive", "amenity": "clinic", "healthcare": "clinic", "healthcare:speciality": "emergency;physiotherapy", "name": "Estes Park Health Urgent Care Center", "opening_hours": "Mo-Su 08:00-18:00", "operator": "Estes Park Health"}}, {"type": "node", "id": 12856684826, "lat": 40.3810659, "lon": -105.5131621, "tags": {"addr:city": "Estes Park", "addr:housenumber": "420", "addr:postcode": "80517", "addr:state": "CO", "addr:street": "Steamer Drive", "amenity": "fast_food", "brand": "Jimmy John's", "brand:wikidata": "Q1689380", "cuisine": "sandwich", "drive_through": "yes", "name": "Jimmy John's", "official_name": "Jimmy John's Gourmet Sandwiches", "opening_hours": "Mo-Su 10:30-21:00", "phone": "+1-970-586-4930", "takeaway": "yes", "website": "https://locations.jimmyjohns.com/co/estespark/sandwiches-4040.html?utm_source=google%20my%20business&utm_medium=organic&utm_campaign=website%20link"}}, {"type": "node", "id": 12856687426, "lat": 40.381062, "lon": -105.5145589, "tags": {"addr:city": "Estes Park", "addr:housenumber": "461", "addr:postcode": "80517", "addr:state": "CO", "addr:street": "E Wonderview Ave", "brand": "Dollar Tree", "brand:wikidata": "Q5289230", "name": "Dollar Tree", "opening_hours": "Mo-Su 08:00-21:00", "phone": "+1-970-235-0623", "shop": "variety_store", "website": "https://locations.dollartree.com/co/estes-park/461-e-wonderview-ave?utm_source=google&utm_medium=organic&utm_campaign=maps"}}, {"type": "node", "id": 12856702525, "lat": 40.3771375, "lon": -105.5175631, "tags": {"addr:city": "Estes Park", "addr:housenumber": "400", "addr:postcode": "80517", "addr:state": "CO", "addr:street": "B E Elkhorn Ave", "cuisine": "bakery", "name": "Mountain Berry Bakery", "opening_hours": "Fr-Su 09:30-17:30", "phone": "+1-563-581-2303", "shop": "bakery", "website": "https://mountainberrybakery.com/"}}, {"type": "node", "id": 12860034153, "lat": 40.3762699, "lon": -105.5232795, "tags": {"amenity": "waste_basket"}}, {"type": "node", "id": 12860034154, "lat": 40.3762209, "lon": -105.523523, "tags": {"amenity": "waste_basket"}}, {"type": "node", "id": 12860034155, "lat": 40.3762491, "lon": -105.5233493, "tags": {"amenity": "waste_basket"}}, {"type": "node", "id": 12860034156, "lat": 40.3762474, "lon": -105.5233604, "tags": {"amenity": "waste_basket"}}, {"type": "node", "id": 12860034157, "lat": 40.3762541, "lon": -105.5233362, "tags": {"amenity": "bench", "armrest": "yes", "backrest": "yes", "material": "metal"}}, {"type": "node", "id": 12860034158, "lat": 40.3762479, "lon": -105.5233751, "tags": {"amenity": "bench", "armrest": "yes", "backrest": "yes", "material": "metal"}}, {"type": "node", "id": 12860034159, "lat": 40.3763837, "lon": -105.5227923, "tags": {"amenity": "waste_basket"}}, {"type": "node", "id": 12860034160, "lat": 40.3763969, "lon": -105.5227406, "tags": {"amenity": "bench", "armrest": "yes", "backrest": "yes", "material": "metal"}}, {"type": "node", "id": 12860034161, "lat": 40.3764151, "lon": -105.5226808, "tags": {"amenity": "bench", "armrest": "yes", "backrest": "yes", "material": "metal"}}, {"type": "node", "id": 12860034162, "lat": 40.3763928, "lon": -105.5227648, "tags": {"amenity": "bench", "armrest": "yes", "backrest": "yes", "material": "metal"}}, {"type": "node", "id": 12860034163, "lat": 40.3764289, "lon": -105.5226524, "tags": {"amenity": "waste_basket"}}, {"type": "node", "id": 12860034164, "lat": 40.3765043, "lon": -105.5223351, "tags": {"amenity": "waste_basket"}}, {"type": "node", "id": 12860034165, "lat": 40.3765202, "lon": -105.5222724, "tags": {"amenity": "bench", "armrest": "yes", "backrest": "yes", "material": "metal"}}, {"type": "node", "id": 12860034166, "lat": 40.3765306, "lon": -105.5222512, "tags": {"amenity": "bench", "armrest": "yes", "backrest": "yes", "material": "metal"}}, {"type": "node", "id": 12860034167, "lat": 40.376633, "lon": -105.521941, "tags": {"amenity": "waste_basket"}}, {"type": "node", "id": 12860034168, "lat": 40.3766128, "lon": -105.5219773, "tags": {"amenity": "bench", "armrest": "yes", "backrest": "yes", "material": "metal"}}, {"type": "node", "id": 12860034169, "lat": 40.376361, "lon": -105.5221984, "tags": {"amenity": "waste_basket"}}, {"type": "node", "id": 12860034170, "lat": 40.3763792, "lon": -105.5222465, "tags": {"amenity": "bench", "armrest": "yes", "backrest": "yes", "material": "metal"}}, {"type": "node", "id": 12860034171, "lat": 40.3763763, "lon": -105.5222658, "tags": {"amenity": "bench", "armrest": "yes", "backrest": "yes", "material": "metal"}}, {"type": "node", "id": 12860034172, "lat": 40.3763534, "lon": -105.5223702, "tags": {"amenity": "waste_basket"}}, {"type": "node", "id": 12860034173, "lat": 40.3763261, "lon": -105.5224757, "tags": {"amenity": "bench", "armrest": "yes", "backrest": "yes", "material": "metal"}}, {"type": "node", "id": 12860034174, "lat": 40.3763068, "lon": -105.5225334, "tags": {"amenity": "waste_basket"}}, {"type": "node", "id": 12860034175, "lat": 40.3763005, "lon": -105.5225527, "tags": {"amenity": "bench", "armrest": "yes", "backrest": "yes", "material": "metal"}}, {"type": "node", "id": 12860034176, "lat": 40.3762434, "lon": -105.5227875, "tags": {"amenity": "bench", "armrest": "yes", "backrest": "yes", "material": "metal"}}, {"type": "node", "id": 12860034177, "lat": 40.3762773, "lon": -105.5226741, "tags": {"amenity": "waste_basket"}}, {"type": "node", "id": 12860034178, "lat": 40.3762743, "lon": -105.522688, "tags": {"amenity": "bench", "armrest": "yes", "backrest": "yes", "material": "metal"}}, {"type": "node", "id": 12860034179, "lat": 40.3761772, "lon": -105.5230602, "tags": {"amenity": "waste_basket"}}, {"type": "node", "id": 12860034180, "lat": 40.3761668, "lon": -105.5231041, "tags": {"amenity": "bench"}}, {"type": "node", "id": 12860034181, "lat": 40.3761612, "lon": -105.5231316, "tags": {"amenity": "bench", "armrest": "yes", "backrest": "yes", "material": "metal"}}, {"type": "node", "id": 12860034182, "lat": 40.3761561, "lon": -105.5231557, "tags": {"amenity": "waste_basket"}}, {"type": "node", "id": 12860034183, "lat": 40.3761505, "lon": -105.5231812, "tags": {"amenity": "bench", "armrest": "yes", "backrest": "yes", "material": "metal"}}, {"type": "node", "id": 12860034184, "lat": 40.3761464, "lon": -105.5232154, "tags": {"amenity": "bench", "backrest": "yes"}}, {"type": "node", "id": 12860034185, "lat": 40.3761209, "lon": -105.5232738, "tags": {"amenity": "waste_basket"}}, {"type": "node", "id": 12860034186, "lat": 40.3761216, "lon": -105.5232995, "tags": {"amenity": "waste_basket"}}, {"type": "node", "id": 12860034187, "lat": 40.376096, "lon": -105.5234114, "tags": {"amenity": "waste_basket"}}, {"type": "node", "id": 13062767810, "lat": 40.3819378, "lon": -105.5089796}, {"type": "node", "id": 13062767811, "lat": 40.381931, "lon": -105.5089021}, {"type": "node", "id": 13062767812, "lat": 40.3821904, "lon": -105.5083197}, {"type": "node", "id": 13062767813, "lat": 40.3823122, "lon": -105.5081886}, {"type": "node", "id": 13062767814, "lat": 40.3823132, "lon": -105.5078075}, {"type": "node", "id": 13062767815, "lat": 40.3821382, "lon": -105.5076503}, {"type": "node", "id": 13062767816, "lat": 40.3820432, "lon": -105.5076917}, {"type": "node", "id": 13062767817, "lat": 40.3819955, "lon": -105.5076858}, {"type": "node", "id": 13062767818, "lat": 40.3819783, "lon": -105.5077818}, {"type": "node", "id": 13062767819, "lat": 40.3819896, "lon": -105.5086602}, {"type": "node", "id": 13062767820, "lat": 40.3819289, "lon": -105.5087521}, {"type": "node", "id": 13062767821, "lat": 40.3817237, "lon": -105.5087841}, {"type": "node", "id": 13062767822, "lat": 40.3818814, "lon": -105.5078826}, {"type": "node", "id": 13062767823, "lat": 40.3817081, "lon": -105.5077457}, {"type": "node", "id": 13062767824, "lat": 40.3816163, "lon": -105.5079455}, {"type": "node", "id": 13062767825, "lat": 40.3814685, "lon": -105.5078432}, {"type": "node", "id": 13062767826, "lat": 40.3816848, "lon": -105.5073783}, {"type": "node", "id": 13062767827, "lat": 40.3820009, "lon": -105.5076387}, {"type": "node", "id": 13162296270, "lat": 40.378592, "lon": -105.4923651}, {"type": "node", "id": 13162296271, "lat": 40.378547, "lon": -105.4922667}, {"type": "node", "id": 13162296272, "lat": 40.3784713, "lon": -105.4923262}, {"type": "node", "id": 13162296273, "lat": 40.3785163, "lon": -105.4924247}, {"type": "node", "id": 13162296274, "lat": 40.378514, "lon": -105.4922927, "tags": {"access": "yes", "amenity": "drinking_water", "fee": "no"}}, {"type": "node", "id": 13167998346, "lat": 40.3821605, "lon": -105.5187875}, {"type": "node", "id": 13167998352, "lat": 40.3824976, "lon": -105.5177816}, {"type": "node", "id": 13167998355, "lat": 40.3826192, "lon": -105.5176878}, {"type": "node", "id": 13167998357, "lat": 40.3822361, "lon": -105.5188357}, {"type": "node", "id": 13167998358, "lat": 40.382091, "lon": -105.5187231}, {"type": "node", "id": 13167998359, "lat": 40.3822688, "lon": -105.5183771}, {"type": "node", "id": 13167998360, "lat": 40.3822994, "lon": -105.5182698}, {"type": "node", "id": 13167998361, "lat": 40.3823342, "lon": -105.5180955}, {"type": "node", "id": 13167998362, "lat": 40.382373, "lon": -105.5178782}, {"type": "node", "id": 13167998363, "lat": 40.382422, "lon": -105.5177736}, {"type": "node", "id": 13167998364, "lat": 40.3824772, "lon": -105.51772}, {"type": "node", "id": 13167998365, "lat": 40.3825324, "lon": -105.5178541}, {"type": "node", "id": 13167998366, "lat": 40.3825181, "lon": -105.5180552}, {"type": "node", "id": 13167998367, "lat": 40.3824935, "lon": -105.5182027}, {"type": "node", "id": 13167998368, "lat": 40.3824629, "lon": -105.518353}, {"type": "node", "id": 13167998369, "lat": 40.3823975, "lon": -105.5185407}, {"type": "node", "id": 13167998370, "lat": 40.3823536, "lon": -105.5186634}, {"type": "node", "id": 13167998371, "lat": 40.382279, "lon": -105.5188036}, {"type": "node", "id": 13168625167, "lat": 40.3769486, "lon": -105.5187625}, {"type": "node", "id": 13168625168, "lat": 40.3769753, "lon": -105.5186464}, {"type": "node", "id": 13168625169, "lat": 40.3771917, "lon": -105.5187133}, {"type": "node", "id": 13168625170, "lat": 40.3771754, "lon": -105.5187914}, {"type": "node", "id": 13168625171, "lat": 40.3771471, "lon": -105.5187834}, {"type": "node", "id": 13168625172, "lat": 40.3771306, "lon": -105.5188519}, {"type": "node", "id": 13168625173, "lat": 40.376995, "lon": -105.518791}, {"type": "node", "id": 13168625174, "lat": 40.3768575, "lon": -105.5200869}, {"type": "node", "id": 13168625175, "lat": 40.3768832, "lon": -105.5199986}, {"type": "node", "id": 13168625176, "lat": 40.3766252, "lon": -105.5195996}, {"type": "node", "id": 13168625177, "lat": 40.3765456, "lon": -105.5199119}, {"type": "node", "id": 13168625178, "lat": 40.3767365, "lon": -105.5199944}, {"type": "node", "id": 13168625179, "lat": 40.3767273, "lon": -105.5200384}, {"type": "node", "id": 13168625180, "lat": 40.3768072, "lon": -105.5200711}, {"type": "node", "id": 13168625192, "lat": 40.3764229, "lon": -105.5203078}, {"type": "node", "id": 13168625193, "lat": 40.3764845, "lon": -105.5200885}, {"type": "node", "id": 13168625194, "lat": 40.3767137, "lon": -105.5201838}, {"type": "node", "id": 13168625195, "lat": 40.3768212, "lon": -105.5202304}, {"type": "node", "id": 13168625196, "lat": 40.376814, "lon": -105.520255}, {"type": "node", "id": 13168670624, "lat": 40.3782121, "lon": -105.5189991}, {"type": "node", "id": 13191405641, "lat": 40.3768085, "lon": -105.5214083}, {"type": "node", "id": 13191405642, "lat": 40.3768433, "lon": -105.5214435}, {"type": "node", "id": 13191405666, "lat": 40.3768556, "lon": -105.5213354}, {"type": "node", "id": 13191405667, "lat": 40.3768654, "lon": -105.5213596}, {"type": "node", "id": 13191405704, "lat": 40.3767996, "lon": -105.5213442}, {"type": "node", "id": 13191405705, "lat": 40.3767996, "lon": -105.5213832}, {"type": "node", "id": 13191405706, "lat": 40.3768058, "lon": -105.5214014}, {"type": "node", "id": 13192858560, "lat": 40.3745439, "lon": -105.5237267}, {"type": "node", "id": 13192858561, "lat": 40.3745411, "lon": -105.5240999}, {"type": "node", "id": 13360580354, "lat": 40.3838332, "lon": -105.5200031}, {"type": "node", "id": 13360580355, "lat": 40.383775, "lon": -105.5197535}, {"type": "node", "id": 13360580356, "lat": 40.3838515, "lon": -105.520081}, {"type": "node", "id": 13360580357, "lat": 40.3837179, "lon": -105.5198043}, {"type": "node", "id": 13360634228, "lat": 40.3839337, "lon": -105.5188252}, {"type": "node", "id": 13360634229, "lat": 40.3839199, "lon": -105.518956}, {"type": "node", "id": 13360634230, "lat": 40.3838165, "lon": -105.5184421}, {"type": "way", "id": 59519935, "nodes": [738164248, 738164249, 738164250, 738164251, 738164248], "tags": {"amenity": "parking"}}, {"type": "way", "id": 131005775, "nodes": [1442476480, 1442476474, 1442476493, 5928003581, 1442476463, 1442476464, 1442476465, 3270081955, 1442476482, 3270081947, 1442476503, 1442476472, 1442476499, 3270081959, 3270081958, 3270082108, 3270082103, 1442476471, 1442476480], "tags": {"access": "customers", "amenity": "parking", "fee": "no", "parking": "surface"}}, {"type": "way", "id": 224001141, "nodes": [2328343801, 2328343788, 2328343786, 2328343787, 2328343789, 2328343799, 2328343801], "tags": {"addr:city": "Estes Park", "addr:housenumber": "401", "addr:postcode": "80517", "addr:state": "CO", "addr:street": "South Saint Vrain Avenue", "amenity": "restaurant", "building": "yes", "cuisine": "thai", "name": "Thai Kitchen & Bar", "phone": "+1-970-577-7112", "website": "www.thaikitchenestespark.com"}}, {"type": "way", "id": 229125522, "nodes": [2377575250, 2377575252, 2377575248, 2377575247, 2377575253, 2377575246, 2377575254, 2377575257, 2377575255, 2377575245, 2377575249, 2377575251, 2377575256, 2377575250], "tags": {"addr:city": "Estes Park", "addr:housenumber": "470", "addr:postcode": "80517", "addr:state": "CO", "addr:street": "Prospect Village Drive", "amenity": "restaurant", "building": "restaurant", "name": "Estes Park Brewery", "website": "https://www.epbrewery.com/"}}, {"type": "way", "id": 229126603, "nodes": [2377595852, 2377595839, 51085598, 2377595837, 2377595856, 3362696588, 2377595850, 2377595831, 2377595841, 2377595827, 3362696586, 2377595845, 2377595835, 2377595852], "tags": {"access": "yes", "amenity": "parking", "capacity": "130", "capacity:disabled": "4", "fee": "yes", "parking": "surface", "source": "Bing", "supervised": "no", "surface": "asphalt"}}, {"type": "way", "id": 229126622, "nodes": [2377595957, 2377595953, 2377595965, 2377595959, 2377595962, 2377595951, 2377595952, 2377595954, 2377595946, 2377595955, 2377595964, 2377595956, 2377595950, 2377595948, 2377595958, 2377595963, 12154160665, 3362715516, 2377595957], "tags": {"access": "yes", "amenity": "parking", "capacity": "160", "capacity:disabled": "4", "fee": "yes", "parking": "surface", "source": "Bing", "supervised": "no", "surface": "asphalt"}}, {"type": "way", "id": 229126694, "nodes": [2377596450, 2377596436, 2377596447, 2377596439, 2377596433, 2377596441, 2377596438, 2377596442, 2377596443, 2377596445, 2377596449, 2377596444, 2377596452, 2377596456, 2377596437, 2377596434, 2377596435, 2377596453, 2377596454, 2377596448, 2377596440, 2377596446, 2377596455, 2377596451, 2377596450], "tags": {"access": "customers", "amenity": "parking", "fee": "no", "parking": "surface"}}, {"type": "way", "id": 229128148, "nodes": [2377606421, 2377606413, 2377606418, 2377606422, 2377606417, 3362789203, 2377606420, 2377606415, 2377606416, 2377606414, 2377606419, 2377606421], "tags": {"access": "yes", "amenity": "parking", "capacity": "40", "fee": "no", "parking": "surface", "source": "Bing", "supervised": "no", "surface": "asphalt"}}, {"type": "way", "id": 253710717, "nodes": [13192858560, 13192858561, 2596007459, 2596007467, 2596007469, 2596007483, 2596007479, 2596007495, 2596007503, 2596007509, 2596007515, 2596007511, 2596007513, 2596007507, 2596007501, 2596007499, 2596007491, 2596009447, 2596007485, 2596007475, 2596007473, 2596029898, 3362700801, 13192858560]}, {"type": "way", "id": 281708868, "nodes": [6759806389, 2856860372, 2856860371, 2856860369, 2856860368, 2856860356, 2856860357, 2856860345, 2856860347, 2856860346, 2856860348, 2856860349, 2856860350, 2856860353, 2856860354, 2856860361, 6759806389], "tags": {"addr:city": "Estes Park", "addr:housenumber": "537", "addr:postcode": "80517", "addr:state": "CO", "addr:street": "Big Thompson Avenue", "amenity": "cafe", "branch": "Estes Park - Wonderview and US", "brand": "Starbucks", "brand:wikidata": "Q37158", "building": "retail", "cuisine": "coffee_shop", "name": "Starbucks", "official_name": "Starbucks Coffee", "opening_hours": "Mo-Su 05:00-18:00", "phone": "+1 970-586-1600", "ref": "1021952", "takeaway": "yes", "website": "https://www.starbucks.com/store-locator/store/1021952/estes-park-wonderview-and-us-537-big-thompson-ave-estes-park-co-805179651-us"}}, {"type": "way", "id": 281708885, "nodes": [2856860301, 2856856799, 2856860302, 2856860306, 2856860305, 2856860304, 2856860303, 2856856800, 2856860301], "tags": {"addr:city": "Estes Park", "addr:housenumber": "501", "addr:postcode": "80517", "addr:state": "CO", "addr:street": "Big Thompson Avenue", "amenity": "fast_food", "brand": "McDonald's", "brand:website": "https://www.mcdonalds.com/", "brand:wikidata": "Q38076", "building": "retail", "building:levels": "1", "cuisine": "burger", "drive_through": "yes", "name": "McDonald's", "opening_hours": "Mo-Su 05:00-24:00", "roof:shape": "flat", "takeaway": "yes", "website": "https://www.mcdonalds.com/us/en-us/location/co/estes-park/501-big-thompson-ave/10128.html"}}, {"type": "way", "id": 281708886, "nodes": [2856860399, 2856860501, 2856860505, 2856860507, 2856860519, 2856860508, 12033850214, 12033850213, 12033850212, 12033850215, 2856860391, 2856860398, 2856860399], "tags": {"amenity": "cinema", "building": "retail", "name": "Reel Mountain", "wikidata": "Q42385723"}}, {"type": "way", "id": 281750897, "nodes": [2857333566, 2857333567, 2857333568, 2857333569, 2857333570, 2857333571, 2857333572, 2857333566], "tags": {"amenity": "parking", "parking": "surface"}}, {"type": "way", "id": 281750904, "nodes": [2857333583, 2857333584, 2857333585, 2857333586, 2857333598, 2857333597, 2857333599, 2857333587, 2857333588, 2857333589, 2857333590, 2857333591, 2857333592, 2857333593, 2857333594, 2857333595, 2857333596, 2857333583], "tags": {"access": "yes", "amenity": "parking", "check_date:fee": "2021-08-05", "fee": "no", "parking": "surface"}}, {"type": "way", "id": 281750913, "nodes": [2857334329, 2857334330, 2857334331, 2857334332, 2857334333, 2857334334, 2857334335, 2857334336, 2857334341, 2857334337, 2857334338, 2857334339, 2857334340, 2857334329], "tags": {"access": "customers", "amenity": "parking", "fee": "no", "parking": "surface"}}, {"type": "way", "id": 281750923, "nodes": [2857334369, 2857334370, 2857334371, 2857334372, 2857334373, 2857334374, 2857334375, 2857334376, 2857334377, 2857334378, 2857334379, 2857334380, 2857334381, 2857334382, 2857334383, 2857334384, 2857334385, 2857334386, 2857334387, 2857334388, 2857334389, 2857334390, 2857334391, 2857334392, 2857334393, 2857334369], "tags": {"access": "customers", "amenity": "parking", "fee": "no", "parking": "surface", "surface": "asphalt"}}, {"type": "way", "id": 281750931, "nodes": [2857334419, 2857334420, 2857334421, 2857334422, 2857334423, 2857334424, 2857334425, 2857334426, 2857334427, 2857334428, 2857334429, 2857334430, 2857334431, 2857334432, 2857334433, 2857334434, 2857334435, 2857334436, 2857334419], "tags": {"access": "yes", "amenity": "parking", "fee": "no", "parking": "surface"}}, {"type": "way", "id": 281755381, "nodes": [2857412237, 2857412243, 2857412245, 2857412244, 2857412246, 2857412240, 2857412238, 2857412223, 2857412224, 2857412225, 2857412228, 2857412235, 2857412242, 2857412239, 2857412241, 2857412232, 2857412234, 2857412227, 2857412226, 2857412222, 2857412216, 2857412217, 2857412215, 2857412220, 2857412218, 2857412213, 2857412214, 2857412212, 2857412219, 2857412221, 2857412231, 2857412230, 2857412233, 2857412229, 2857412236, 2857412237], "tags": {"amenity": "townhall", "building": "yes", "name": "Town Hall"}}, {"type": "way", "id": 281875133, "nodes": [2858368596, 2858368597, 2858368598, 2858368599, 2858368600, 2858368701, 2858368702, 2858368703, 2858368704, 13168670624, 2858368705, 2858368706, 2858368707, 3362789244, 2858368708, 2858368709, 2858368710, 2858368711, 2858368712, 2858368596], "tags": {"access": "yes", "amenity": "parking", "capacity": "350", "fee": "no", "parking": "surface", "source": "Bing", "supervised": "no", "surface": "asphalt"}}, {"type": "way", "id": 281875134, "nodes": [2858368713, 2858368714, 2858368715, 2858368716, 2858368717, 2858368718, 2858368719, 2858368720, 2858368721, 2858368722, 2858368723, 2858368724, 2858368725, 2858368713], "tags": {"access": "yes", "amenity": "parking", "capacity": "40", "fee": "no", "parking": "surface", "source": "Bing", "supervised": "no", "surface": "asphalt"}}, {"type": "way", "id": 281875135, "nodes": [2858368726, 2858368727, 3362788770, 3362789249, 3362789272, 2858368728, 2858368729, 2858368730, 2858368731, 2858368732, 2858368733, 2858368726], "tags": {"access": "yes", "amenity": "parking", "capacity": "50", "fee": "no", "parking": "surface", "source": "Bing", "supervised": "no", "surface": "asphalt"}}, {"type": "way", "id": 281875138, "nodes": [2858368740, 2858368741, 2858368742, 2858368743, 2858368744, 2858368745, 2858368746, 2858368747, 2858368740], "tags": {"access": "customers", "amenity": "parking", "fee": "no", "parking": "surface"}}, {"type": "way", "id": 281875139, "nodes": [2858368748, 2858368749, 2858368750, 2858368751, 2858368752, 2858368753, 2858368754, 2858368755, 2858368756, 2858368757, 2858368758, 2858368748], "tags": {"access": "customers", "amenity": "parking", "fee": "no", "parking": "surface"}}, {"type": "way", "id": 312298089, "nodes": [3181510502, 3181510495, 3463470744, 3181510494, 3181510496, 3463470750, 3181510497, 3181510498, 3181510499, 3181510504, 3181510505, 3181510500, 3181510502], "tags": {"amenity": "parking", "parking": "surface", "surface": "gravel"}}, {"type": "way", "id": 321269017, "nodes": [3280121317, 3280121314, 3280125178, 3280121352, 3280125173, 3280125167, 3280121350, 3280125175, 3280121331, 3280121289, 3280121351, 3280121347, 3280121286, 3280121302, 3280121317], "tags": {"addr:city": "Estes Park", "addr:housenumber": "920", "addr:postcode": "80517", "addr:state": "CO", "addr:street": "Big Thompson Avenue", "amenity": "place_of_worship", "building": "church", "denomination": "roman_catholic", "diocese": "Denver", "fax": "+1 970-586-8112", "name": "Our Lady of the Mountains Catholic Church", "phone": "+1 970-586-8111", "religion": "christian", "website": "https://www.olmestes.org/"}}, {"type": "way", "id": 321852546, "nodes": [3286261605, 3286261812, 3286260702, 3286261590, 3286261683, 3286261626, 3286261605], "tags": {"addr:city": "Estes Park", "addr:housenumber": "215", "addr:postcode": "80517", "addr:state": "CO", "addr:street": "West Riverside Drive", "amenity": "post_office", "building": "public", "building:levels": "1", "name": "United States Post Office", "opening_hours": "Mo-Fr 08:30-16:30; Sa 10:00-13:00", "operator": "United States Postal Service", "operator:short": "USPS", "operator:type": "public", "operator:website": "https://www.usps.com", "operator:wikidata": "Q668687", "operator:wikipedia": "en:United States Postal Service", "roof:shape": "flat", "short_name": "USPS", "source": "Esri beta"}}, {"type": "way", "id": 322069616, "nodes": [3288269909, 3288271193, 3288269953, 3288271166, 3288269909], "tags": {"building": "retail", "roof:shape": "gabled"}}, {"type": "way", "id": 322069623, "nodes": [3288271185, 3288269894, 3288269930, 3288271163, 3288269875, 3288271185], "tags": {"amenity": "veterinary", "building": "yes", "name": "Animal Hospital", "website": "https://www.estesparkpetvet.com/"}}, {"type": "way", "id": 322269092, "nodes": [3290423657, 3290423600, 3290421637, 3290421613, 3290421620, 3290423657], "tags": {"access": "yes", "addr:city": "Estes Park", "addr:housenumber": "691", "addr:postcode": "80517", "addr:state": "CO", "addr:street": "North Saint Vrain Avenue", "amenity": "parking", "building": "parking", "building:levels": "1", "fee": "no", "layer": "1", "name": "Estes Park Visitors Center Parking Garage", "opening_hours": "Mo-Sa 09:00-16:00; Su 10:00-16:00", "operator": "City of Estes Park", "parking": "multi-storey", "roof:shape": "gabled", "surface": "asphalt"}}, {"type": "way", "id": 326068531, "nodes": [3326881525, 3326879777, 3326881149, 3326879784, 3326881185, 3326879769, 3326881525], "tags": {"addr:city": "Estes Park", "addr:housenumber": "150", "addr:postcode": "80517", "addr:state": "CO", "addr:street": "East Elkhorn Avenue", "amenity": "cafe", "building": "retail", "building:levels": "1", "cuisine": "coffee_shop", "internet_access": "wlan", "internet_access:fee": "customers", "internet_access:ssid": "inkwell", "name": "Inkwell & Brew", "opening_hours": "Mo-Su 07:00-20:00", "outdoor_seating": "yes", "phone": "+1-970-342-1297", "roof:shape": "gabled", "website": "https://inkwellbrew.com/"}}, {"type": "way", "id": 328375524, "nodes": [3351976919, 3351976921, 3351976904, 3351976927, 3351976916, 3351976905, 3362715509, 3351976910, 3351976909, 3351976903, 3351976906, 3351976925, 3351976919], "tags": {"access": "yes", "amenity": "parking", "capacity": "40", "capacity:disabled": "4", "fee": "no", "parking": "surface", "source": "Bing", "supervised": "no", "surface": "asphalt"}}, {"type": "way", "id": 328384521, "nodes": [3352044042, 3352043656, 3352044251, 3352044377, 3352044042], "tags": {"amenity": "restaurant", "building": "yes", "name": "Claire's Restaurant"}}, {"type": "way", "id": 328384559, "nodes": [3352043672, 3352044307, 3352044286, 3352044501, 3352044232, 3352043672], "tags": {"addr:housenumber": "201", "addr:state": "CO", "addr:street": "Park Lane", "building": "retail", "name": "Bear's Den", "shop": "gift"}}, {"type": "way", "id": 328384560, "nodes": [3352044254, 3352044378, 3352044086, 3352044082, 3352044036, 3352043686, 3352044292, 3352044005, 3352044007, 3352044305, 3352044254], "tags": {"amenity": "bank", "building": "yes", "name": "Bank of Estes Park"}}, {"type": "way", "id": 329393908, "nodes": [3362692783, 3362692750, 3362692772, 3362692780, 3362692775, 3362692770, 3362692761, 3362692778, 3362692776, 3362692783], "tags": {"access": "customers", "amenity": "parking", "capacity:disabled": "no", "fee": "no", "parking": "surface", "source": "Bing", "supervised": "no", "surface": "asphalt"}}, {"type": "way", "id": 329393911, "nodes": [3362692757, 3362692774, 3362692786, 3362692764, 3362692756, 3362692768, 3362692779, 3362692787, 3362692766, 3362692763, 3362692757], "tags": {"access": "yes", "amenity": "parking", "capacity": "50", "capacity:disabled": "no", "fee": "no", "parking": "surface", "source": "Bing", "supervised": "no", "surface": "asphalt"}}, {"type": "way", "id": 329393913, "nodes": [3362692773, 3362692749, 3362692769, 3362692752, 3362692767, 3362692754, 3362692762, 3362692773], "tags": {"amenity": "parking", "capacity:disabled": "no", "parking": "surface", "source": "Bing", "supervised": "no", "surface": "asphalt"}}, {"type": "way", "id": 329394103, "nodes": [3362693572, 3362693578, 3362693575, 3362693577, 3362693568, 3362693583, 3362693565, 3362693579, 3362693581, 3362693585, 3362693587, 3362693567, 3362693588, 3362693571, 3362693580, 3362693586, 3362693573, 3362693572], "tags": {"access": "yes", "amenity": "parking", "capacity": "80", "capacity:disabled": "no", "fee": "no", "parking": "surface", "source": "Bing", "supervised": "no", "surface": "asphalt"}}, {"type": "way", "id": 329394863, "nodes": [3326881125, 3362700285, 3362700795, 3362700263, 3326879762, 3326879759, 3326881170, 3326881125], "tags": {"access": "no", "amenity": "parking", "capacity": "5", "parking": "surface", "source": "Bing", "supervised": "no", "surface": "asphalt"}}, {"type": "way", "id": 329394867, "nodes": [3362700258, 3362700257, 3362700287, 3362700799, 3362700264, 3362700254, 3362700268, 3362700280, 3362700289, 3362700291, 3362700274, 3362700258], "tags": {"access": "customers", "amenity": "parking", "capacity": "40", "capacity:disabled": "no", "parking": "surface", "source": "Bing", "supervised": "no", "surface": "asphalt"}}, {"type": "way", "id": 329394869, "nodes": [3362700259, 3362700797, 3362700284, 3362700269, 3362700281, 3362700286, 3362700271, 3362700262, 3362700270, 3362700283, 3362700259], "tags": {"access": "yes", "amenity": "parking", "capacity": "50", "capacity:disabled": "no", "parking": "surface", "source": "Bing", "supervised": "no", "surface": "asphalt"}}, {"type": "way", "id": 329395123, "nodes": [3362696587, 3362696591, 3362696584, 3362696585, 3362696592, 3362696587], "tags": {"access": "no", "amenity": "parking", "capacity": "2", "parking": "surface", "source": "Bing", "supervised": "no", "surface": "asphalt"}}, {"type": "way", "id": 329395745, "nodes": [3362715522, 3362715537, 3362715512, 3362715533, 3362715523, 3362715522], "tags": {"access": "private", "amenity": "parking", "capacity": "10", "parking": "surface", "source": "Bing", "supervised": "no", "surface": "asphalt"}}, {"type": "way", "id": 329398885, "nodes": [3362788769, 3362789242, 3362789254, 3362789199, 3362788785, 3362788756, 3362789243, 3362788761, 3362788769], "tags": {"access": "yes", "amenity": "parking", "capacity": "20", "fee": "yes", "parking": "surface", "source": "Bing", "supervised": "no", "surface": "asphalt"}}, {"type": "way", "id": 329398887, "nodes": [3362789259, 3362789209, 3362788739, 3362788774, 3362789251, 3362789253, 3362788754, 3290423592, 3290423580, 3290423642, 3362789268, 3362788791, 3362788792, 3362789228, 3290424067, 3290423867, 3290423934, 3362789217, 3362789232, 3362789205, 3362789214, 3362788741, 3362788758, 3362789262, 3362789259], "tags": {"source": "Bing"}}, {"type": "way", "id": 329398899, "nodes": [3362788780, 3362789245, 3290423647, 3290423612, 3290423640, 3290421641, 3362788780]}, {"type": "way", "id": 329418100, "nodes": [3362988924, 3362988854, 3362985655, 3362988925, 3362988926, 3362985650, 12179616987, 12179616988, 3362985645, 3362988894, 3362988924], "tags": {"access": "customers", "amenity": "parking", "fee": "no", "parking": "surface"}}, {"type": "way", "id": 389323796, "nodes": [3924757180, 3924757181, 3924757179, 3924757178, 3924757180], "tags": {"access": "yes", "amenity": "toilets", "building": "toilets", "fee": "no", "toilets:disposal": "flush", "unisex": "yes", "wheelchair": "yes"}}, {"type": "way", "id": 470078901, "nodes": [4643214142, 4643214141, 4643214140, 4643214139, 7500131287, 4643214138, 7500131394, 7500131264, 7500131398, 4643214137, 4643214136, 7500131397, 4643214135, 7500131443, 4643214134, 7500131369, 7500131370, 4643214133, 4643214132, 7500131383, 4643214131, 4643214130, 4643214129, 7500131251, 4643214128, 4643214127, 4643214126, 4643214125, 3269634631, 7500131343, 4643214124, 4643214123, 4643214122, 4643214121, 4643214142], "tags": {"addr:city": "Estes Park", "addr:housenumber": "555", "addr:postcode": "80517", "addr:state": "CO", "addr:street": "Prospect Avenue", "amenity": "hospital", "beds": "25", "emergency": "yes", "healthcare": "hospital", "name": "Estes Park Medical Center", "opening_hours": "24/7", "phone": "+1 970 586 2317", "website": "https://www.epmedcenter.com/", "wikidata": "Q49410808"}}, {"type": "way", "id": 496509213, "nodes": [4882111763, 4882111764, 4882111765, 4882111766, 4882111763], "tags": {"access": "yes", "amenity": "parking", "fee": "yes", "parking": "surface"}}, {"type": "way", "id": 496512565, "nodes": [4882139809, 4882139810, 4882139811, 4882139812, 4882139813, 4882139814, 4882139809], "tags": {"access": "customers", "amenity": "parking", "fee": "no", "parking": "surface"}}, {"type": "way", "id": 727196332, "nodes": [6815012776, 6815012777, 7844893639, 6815012778, 6815012779, 6815012776], "tags": {"access": "customers", "amenity": "parking", "fee": "no", "parking": "surface"}}, {"type": "way", "id": 728254681, "nodes": [6824472511, 6824472510, 6824472509, 6824472508, 6824472507, 12004773136, 12004773135, 12004773134, 12004773132, 12004773131, 12004773133, 6824472506, 12004773130, 12004773127, 12004773128, 12004773129, 6824472511], "tags": {"access": "customers", "amenity": "parking", "fee": "no", "parking": "surface"}}, {"type": "way", "id": 801848321, "nodes": [7500129461, 7500129462, 7500129463, 7500129464, 7500129465, 7500131400, 7500131399, 7500131395, 7500129467, 7500129468, 7500129469, 7500129470, 7500129471, 7500129472, 7500129473, 7500129474, 51330222, 7500129475, 7500129476, 7500129477, 7500129478, 7500129479, 7500129480, 7500129481, 7500129482, 7500129483, 7500129484, 7500131185, 7500131186, 7500131187, 7500131188, 7500131189, 7500131190, 7500131191, 7500131192, 7500131193, 7500131194, 7500131197, 7500131196, 7500131198, 7500131199, 7500131195, 7500131201, 7500131200, 7500129461], "tags": {"amenity": "parking"}}, {"type": "way", "id": 801848324, "nodes": [7500131208, 7500131209, 7500131210, 51126279, 7500131211, 7500131212, 7500131213, 7500131214, 7500131208], "tags": {"amenity": "parking"}}, {"type": "way", "id": 801848325, "nodes": [7500131215, 7500131216, 7500131217, 7500131218, 7500131219, 7500131220, 7500131221, 7500131215], "tags": {"amenity": "parking"}}, {"type": "way", "id": 801848326, "nodes": [7500131222, 7500131223, 7500131224, 7500131225, 7500131226, 7500131227, 7500131222], "tags": {"amenity": "parking"}}, {"type": "way", "id": 801848348, "nodes": [7500131335, 7500131336, 7500131337, 7500131338, 7500131339, 7500131340, 7500131341, 7500131335], "tags": {"amenity": "parking", "capacity": "13", "capacity:disabled": "13"}}, {"type": "way", "id": 801848360, "nodes": [7500131402, 7500131403, 7500131404, 7500131405, 7500131406, 7500131407, 7500131408, 7500131409, 7500131410, 7500131411, 7500131412, 7500131413, 7500131414, 7500131415, 7500131416, 7500131417, 7500131418, 7500131419, 7500131420, 7500131421, 7500131402], "tags": {"amenity": "parking"}}, {"type": "way", "id": 840736871, "nodes": [3022979166, 7844893586, 7844893587, 7844893588, 3022979166], "tags": {"addr:city": "Estes Park", "addr:housenumber": "510", "addr:postcode": "80517", "addr:state": "CO", "addr:street": "Moraine Avenue", "amenity": "cafe", "building": "retail", "cuisine": "coffee_shop", "internet_access": "wlan", "internet_access:fee": "no", "name": "Coffee on the Rocks", "note": "Nifty coffee shop, lots of great seating and good views of the water and the river. For 1$ you can buy corn to feed the ducks and geese. Geese excrement is EVERYWHERE on the grounds. This is just a warning not to wear flip-flops or bring small kids that l", "opening_hours": "Mo-Su 06:00-20:00", "opening_hours:covid19": "Mo-Su 07:00-16:00", "phone": "+1-970-586-5181"}}, {"type": "way", "id": 840736872, "nodes": [7844893614, 7844893617, 7844893615, 7844893616, 7844893614], "tags": {"access": "customers", "amenity": "parking", "fee": "no", "parking": "surface"}}, {"type": "way", "id": 841483344, "nodes": [7851241891, 7851201579, 7851241890, 7851241889, 411910441, 7851241888, 7851241887, 7851241886, 7869949641, 13167998355, 7851201583, 7851201582, 7851201581, 7851201580, 7851241891], "tags": {"access": "permissive", "amenity": "parking", "lit": "yes", "parking": "surface", "surface": "asphalt"}}, {"type": "way", "id": 843687915, "nodes": [7869949594, 7869949595, 7869949596, 7869949597, 7869949598, 7869949599, 7869949600, 7869949601, 7869949602, 7869949603, 7869949604, 7869949594], "tags": {"amenity": "parking"}}, {"type": "way", "id": 843687916, "nodes": [7869949605, 7869949606, 7869949607, 7869949608, 7869949609, 7869949610, 7869949611, 7869949612, 7869949613, 7869949614, 7869949615, 7869949616, 7869949617, 7869949605], "tags": {"amenity": "parking", "parking": "surface"}}, {"type": "way", "id": 843687917, "nodes": [7869949618, 7869949619, 7869949620, 7869949621, 7869949622, 13360634230, 7869949623, 7869949624, 7869949625, 7869949626, 7869949627, 13360634228, 13360634229, 7869949618], "tags": {"amenity": "parking", "parking": "surface"}}, {"type": "way", "id": 971966325, "nodes": [8995958626, 8995958627, 8995958628, 8995958629, 8995958630, 8995958631, 8995958626], "tags": {"addr:city": "Estes Park", "addr:housenumber": "201", "addr:postcode": "80517", "addr:state": "CO", "addr:street": "South Saint Vrain Avenue", "addr:unit": "#6317", "amenity": "conference_centre", "building": "yes", "name": "Estes Park Conference Center"}}, {"type": "way", "id": 972418369, "nodes": [9000026240, 9000026241, 9000026242, 9000026243, 9000026240], "tags": {"building": "retail", "name": "joy house", "shop": "gift"}}, {"type": "way", "id": 972418370, "nodes": [9000026244, 9000026245, 9000026246, 9000026247, 9000026248, 9000026244], "tags": {"addr:housenumber": "340", "addr:street": "East Elkhorn Avenue", "building": "retail", "building:levels": "1", "name": "Sierra Smallbird Jewelry", "opening_hours": "Mo-Su 10:00-17:00", "phone": "+1-970-888-2155", "roof:shape": "pyramidal", "shop": "jewelry", "website": "https://jewelrystoreestespark.com/"}}, {"type": "way", "id": 1002368881, "nodes": [9251032986, 9251032987, 9251032988, 12033850231, 12033850232, 9251032989, 9251032986], "tags": {"addr:housenumber": "100", "addr:state": "CO", "addr:street": "Cleave Street", "amenity": "fast_food", "building": "yes", "cuisine": "sandwich", "name": "The Sandwich Mafia", "phone": "+1-970-591-2400", "website": "https://www.sandwich-mafia.com/"}}, {"type": "way", "id": 1063780538, "nodes": [9770999911, 9770999912, 9770999913, 9770999914, 9770999915, 9770999916, 9770999911], "tags": {"access": "yes", "amenity": "parking", "fee": "no", "parking": "surface", "surface": "asphalt"}}, {"type": "way", "id": 1175411838, "nodes": [10922347336, 10922347337, 10922347338, 12155991957, 10922347339, 10922347336], "tags": {"access": "private", "amenity": "parking", "capacity": "16", "parking": "surface"}}, {"type": "way", "id": 1175642447, "nodes": [10924302948, 10924302949, 10924302950, 10924302951, 10924302952, 10924302953, 10924302954, 10924302955, 10924302956, 10924302957, 10924302958, 10924302959, 10924302948], "tags": {"access": "yes", "amenity": "parking", "fee": "no", "parking": "surface", "surface": "asphalt"}}, {"type": "way", "id": 1175642448, "nodes": [10924302960, 10924302961, 10924302962, 10924302963, 10924302964, 10924302965, 10924302966, 10924302967, 10924302968, 10924302969, 10924302960], "tags": {"access": "yes", "amenity": "parking", "fee": "no", "parking": "surface", "surface": "asphalt"}}, {"type": "way", "id": 1175642449, "nodes": [10924302970, 10924302971, 10924302972, 10924302973, 10924302974, 10924302975, 10924302976, 10924302977, 10924302978, 10924302979, 10924302980, 10924302981, 10924302982, 10924302983, 10924302984, 10924302985, 10924302970], "tags": {"access": "yes", "amenity": "parking", "fee": "no", "parking": "surface", "surface": "asphalt"}}, {"type": "way", "id": 1175642450, "nodes": [10924302986, 10924302987, 10924302988, 10924302989, 10924302986], "tags": {"access": "yes", "amenity": "parking", "fee": "no", "parking": "surface", "surface": "asphalt"}}, {"type": "way", "id": 1175642451, "nodes": [10924302990, 12004392605, 10924302991, 10924302992, 10924302993, 10924302994, 10924302995, 10924302990], "tags": {"access": "permit", "amenity": "parking", "fee": "yes", "parking": "surface", "surface": "asphalt"}}, {"type": "way", "id": 1175642453, "nodes": [10924303000, 10924303001, 10924303002, 10924303003, 10924303000], "tags": {"access": "permit", "amenity": "parking", "fee": "yes", "parking": "surface", "surface": "asphalt"}}, {"type": "way", "id": 1175642454, "nodes": [10924303004, 10924304405, 10924304406, 10924304407, 10924303004], "tags": {"amenity": "parking", "parking": "surface", "surface": "asphalt"}}, {"type": "way", "id": 1175642455, "nodes": [10924304408, 10924304409, 10924304410, 10924304411, 10924304408], "tags": {"amenity": "parking", "parking": "surface", "surface": "asphalt"}}, {"type": "way", "id": 1189293069, "nodes": [11043347630, 11043347631, 11043347632, 11043347633, 11043347634, 11043347635, 11043347630], "tags": {"amenity": "parking", "parking": "street_side"}}, {"type": "way", "id": 1230928184, "nodes": [11415483328, 11415483329, 11415483330, 11415483331, 11415483332, 11415483333, 11415483334, 11415483335, 11415483336, 11415483337, 11415483328], "tags": {"amenity": "parking", "parking": "surface"}}, {"type": "way", "id": 1295453811, "nodes": [12004392623, 12004392624, 12004392622, 12004392625, 12004392626, 12004392623], "tags": {"amenity": "parking"}}, {"type": "way", "id": 1295487769, "nodes": [3362788783, 12004774015, 12004774016, 3362788740, 3362788783], "tags": {"addr:city": "Estes Park", "addr:housenumber": "101", "addr:state": "CO", "addr:street": "West Elkhorn Avenue", "amenity": "restaurant", "building": "yes", "cuisine": "thai;kebab", "name": "Himalayan Curry & Kebob", "opening_hours": "11:00-21:00", "phone": "+1-970-586-6226", "website": "https://www.himalayancurryandkebob.com/"}}, {"type": "way", "id": 1295490929, "nodes": [12004773137, 12004773118, 12004773119, 12004773120, 12004773121, 12004773141, 12004773138, 12004773137], "tags": {"amenity": "parking"}}, {"type": "way", "id": 1308531681, "nodes": [12117733343, 12117733344, 12117733345, 12117733346, 12117733347, 12117733348, 12117733349, 12117733350, 12117733351, 12117733352, 12117733353, 12117733354, 12117733355, 12117733356, 12117733357, 12117733358, 12117733359, 12117733360, 12117733361, 12117733362, 12117733363, 12117733343], "tags": {"amenity": "parking"}}, {"type": "way", "id": 1308531683, "nodes": [12117733369, 13360580355, 13360580357, 12117733370, 12117733371, 13360580356, 13360580354, 12117733372, 12117733369], "tags": {"amenity": "parking"}}, {"type": "way", "id": 1308531686, "nodes": [12117733393, 12117733394, 12117733395, 12117733396, 12117733397, 12117733398, 12117733399, 12117733400, 12117733393], "tags": {"amenity": "parking"}}, {"type": "way", "id": 1310920008, "nodes": [12134524715, 12134524705, 12134524718, 12134496797, 12134524702, 12134524724, 12134524720, 12134524708, 12134524707, 12134524729, 12134524715], "tags": {"amenity": "parking", "parking": "street_side"}}, {"type": "way", "id": 1310920009, "nodes": [12134496800, 12134524701, 12134496795, 12134524719, 12134524709, 12134496800], "tags": {"amenity": "parking", "parking": "street_side"}}, {"type": "way", "id": 1310920010, "nodes": [12134524716, 12134524704, 12134496794, 12134524713, 12134524716], "tags": {"amenity": "parking", "capacity": "4", "parking": "street_side"}}, {"type": "way", "id": 1310920011, "nodes": [12134496789, 12134496796, 12134524703, 12134524723, 12134496789], "tags": {"amenity": "parking", "capacity": "4", "parking": "street_side"}}, {"type": "way", "id": 1310920012, "nodes": [12134524728, 12134524706, 12134524711, 12134524712, 12134524717, 12134496798, 12134524714, 12134496793, 12134524721, 12134524730, 12134524722, 12134496792, 12134524727, 12134524726, 12134524710, 12134496790, 12134524725, 12134496799, 12134524728], "tags": {"amenity": "parking", "parking": "surface"}}, {"type": "way", "id": 1313083537, "nodes": [12154160666, 12154160672, 12154160667, 12154160668, 12154160669, 12154160670, 12154160671, 12154160666], "tags": {"amenity": "parking", "parking": "street_side"}}, {"type": "way", "id": 1313083539, "nodes": [12154160681, 12154160682, 12154160683, 12154160684, 12154160685, 12154160686, 12154160687, 12154160688, 12154160689, 12154160681], "tags": {"access": "customers", "amenity": "parking", "parking": "surface"}}, {"type": "way", "id": 1313083541, "nodes": [12154160695, 12154160696, 12154160697, 12154160698, 12154160695], "tags": {"amenity": "parking", "parking": "street_side"}}, {"type": "way", "id": 1313463723, "nodes": [12157530565, 12157530566, 12157530567, 12157530568, 12157530569, 12157530570, 12157530571, 12157530572, 12157530573, 12157530565], "tags": {"access": "customers", "amenity": "parking", "parking": "surface"}}, {"type": "way", "id": 1313463726, "nodes": [12157530580, 12157530581, 12788100899, 12157530582, 12157530583, 11124279403, 12004789823, 11124279404, 12157530586, 12157530584, 12157530585, 12157530580], "tags": {"access": "customers", "amenity": "parking", "parking": "surface"}}, {"type": "way", "id": 1313463728, "nodes": [12157537916, 12157530598, 12788103003, 12788103002, 12157530599, 12157530600, 12157537901, 12157537902, 12157537903, 12157537904, 12157537905, 12157537906, 12157537907, 12157537908, 12157537909, 12157537910, 12157537911, 12157537912, 12157537913, 12157537914, 12157537915, 12157537916]}, {"type": "way", "id": 1328892798, "nodes": [12294670383, 12294670384, 12294670385, 12294670395, 12294670386, 12294670394, 12294670392, 12294670393, 12294670391, 12294670387, 12294670388, 12294670383], "tags": {"amenity": "parking", "capacity:disabled": "3", "fee": "no", "parking": "surface", "surface": "asphalt"}}, {"type": "way", "id": 1328892801, "nodes": [12294704703, 12294704704, 12294704705, 12294704706, 12294704703], "tags": {"amenity": "toilets", "building": "yes"}}, {"type": "way", "id": 1339152184, "nodes": [3326881181, 12387407938, 12387407939, 12387407940, 3326881181], "tags": {"addr:housenumber": "151", "addr:street": "Virginia Drive", "building": "yes", "hairdresser": "barber", "male": "yes", "name": "The Vortex Barbershop", "opening_hours": "Tu-Fr 10:00-15:00; Sa 12:00-16:00", "phone": "+1-970-646-0583", "shop": "hairdresser", "website": "https://thevortexbarbershop.com/"}}, {"type": "way", "id": 1339152185, "nodes": [12387407941, 12387407942, 12387407943, 12387407944, 12387407941], "tags": {"addr:housenumber": "161", "addr:street": "Virginia Drive", "building": "yes", "name": "Rapid Transit Rafting", "office": "guide", "phone": "+1-970-577-7238", "website": "https://rapidtransitrafting.com/"}}, {"type": "way", "id": 1372566751, "nodes": [12708702288, 12708702289, 12708702290, 12708702291, 12708702288], "tags": {"amenity": "parking"}}, {"type": "way", "id": 1381375921, "nodes": [12788103014, 12788103015, 12788103016, 12788103017, 12788103014], "tags": {"access": "customers", "amenity": "parking", "parking": "surface"}}, {"type": "way", "id": 1421463598, "nodes": [7053599338, 13062767810, 13062767811, 13062767812, 13062767813, 13062767814, 13062767815, 13062767816, 13062767817, 13062767818, 13062767819, 13062767820, 13062767821, 7053599338], "tags": {"access": "destination", "amenity": "parking", "capacity:disabled": "yes", "operator": "Our Lady of the Mountains Catholic Church", "surface": "asphalt"}}, {"type": "way", "id": 1421463599, "nodes": [13062767822, 13062767823, 13062767824, 13062767825, 13062767826, 13062767827, 13062767822], "tags": {"access": "destination", "amenity": "parking", "capacity:disabled": "yes", "operator": "Our Lady of the Mountains Catholic Church", "surface": "asphalt"}}, {"type": "way", "id": 1432003405, "nodes": [13162296270, 13162296271, 13162296274, 13162296272, 13162296273, 13162296270], "tags": {"access": "yes", "amenity": "toilets", "building": "yes", "toilets:disposal": "flush"}}, {"type": "way", "id": 1432601729, "nodes": [13167998357, 13167998346, 13167998358, 12117733365, 13167998359, 13167998360, 13167998361, 13167998362, 13167998363, 13167998364, 13167998352, 13167998365, 13167998366, 13167998367, 13167998368, 13167998369, 13167998370, 13167998371, 13167998357], "tags": {"amenity": "parking", "parking": "surface", "surface": "unpaved"}}, {"type": "way", "id": 1432669881, "nodes": [13168625167, 13168625168, 3317523232, 13168625169, 13168625170, 13168625171, 13168625172, 13168625173, 13168625167], "tags": {"amenity": "parking"}}, {"type": "way", "id": 1432669882, "nodes": [13168625174, 13168625175, 3317523178, 13168625176, 13168625177, 13168625178, 13168625179, 13168625180, 13168625174], "tags": {"amenity": "parking", "parking": "surface", "surface": "asphalt"}}, {"type": "way", "id": 1432669885, "nodes": [3317523173, 13168625192, 13168625193, 13168625194, 13168625195, 13168625196, 3317523235, 3317523478, 3317523173], "tags": {"amenity": "parking", "surface": "asphalt"}}, {"type": "way", "id": 1435179347, "nodes": [13191405642, 3362789224, 13191405667, 13191405666, 13191405704, 13191405705, 13191405706, 13191405641, 13191405642], "tags": {"amenity": "shelter", "building": "yes", "layer": "1"}}, {"type": "relation", "id": 4611402, "members": [{"type": "way", "ref": 329398887, "role": "outer"}, {"type": "way", "ref": 329398899, "role": "inner"}], "tags": {"access": "yes", "amenity": "parking", "capacity": "80", "capacity:disabled": "no", "parking": "surface", "supervised": "no", "surface": "asphalt", "type": "multipolygon"}}, {"type": "relation", "id": 18010110, "members": [{"type": "way", "ref": 1313463728, "role": "outer"}, {"type": "way", "ref": 322069616, "role": "outer"}], "tags": {"access": "customers", "amenity": "parking", "parking": "surface", "type": "multipolygon"}}, {"type": "relation", "id": 19677395, "members": [{"type": "way", "ref": 253710717, "role": "outer"}], "tags": {"access": "yes", "amenity": "parking", "capacity": "130", "capacity:disabled": "6", "fee": "no", "fee:conditional": "yes @ (Mo-Sa 10:00-18:00)", "parking": "surface", "source": "Bing", "supervised": "no", "surface": "asphalt", "type": "multipolygon"}}]}