{"version": 0.6, "generator": "Overpass API 0.7.62.8 e802775f", "osm3s": {"timestamp_osm_base": "2025-12-06T22:09:00Z", "copyright": "The data included in this document is from www.openstreetmap.org. The data is made available under ODbL."}, "elements": [{"type": "node", "id": 356543957, "lat": 47.0922901, "lon": -117.0461604, "tags": {"amenity": "school", "ele": "808", "gnis:feature_id": "1515590", "name": "Farmington Seventh Day Adventist School"}}, {"type": "node", "id": 2677663585, "lat": 47.092292, "lon": -117.0452143}, {"type": "node", "id": 2677663615, "lat": 47.0923413, "lon": -117.0451732}, {"type": "node", "id": 2677663653, "lat": 47.0923974, "lon": -117.0451671}, {"type": "node", "id": 2677663666, "lat": 47.0923407, "lon": -117.0454135}, {"type": "node", "id": 2677663667, "lat": 47.0924094, "lon": -117.0454061}, {"type": "node", "id": 2677663685, "lat": 47.0921787, "lon": -117.0453914}, {"type": "node", "id": 2677663690, "lat": 47.0923387, "lon": -117.0453741}, {"type": "node", "id": 2677663696, "lat": 47.0922795, "lon": -117.044965}, {"type": "node", "id": 2677663704, "lat": 47.092158, "lon": -117.0449782}, {"type": "node", "id": 2677663715, "lat": 47.0923431, "lon": -117.0452088}, {"type": "node", "id": 3667015654, "lat": 47.0902889, "lon": -117.0453643}, {"type": "node", "id": 3667015655, "lat": 47.090312, "lon": -117.0457143}, {"type": "node", "id": 3667015656, "lat": 47.0901981, "lon": -117.0457273}, {"type": "node", "id": 3667015658, "lat": 47.0901824, "lon": -117.0454163}, {"type": "node", "id": 3667015662, "lat": 47.0902617, "lon": -117.0463134}, {"type": "node", "id": 3667015664, "lat": 47.0902581, "lon": -117.046183}, {"type": "node", "id": 3667015666, "lat": 47.0901759, "lon": -117.0461878}, {"type": "node", "id": 3667015667, "lat": 47.0901795, "lon": -117.0463183}, {"type": "node", "id": 3667015668, "lat": 47.0900021, "lon": -117.0472488}, {"type": "node", "id": 3667015669, "lat": 47.0899938, "lon": -117.0472318}, {"type": "node", "id": 3667015670, "lat": 47.0899371, "lon": -117.0472368}, {"type": "node", "id": 3667015671, "lat": 47.0898903, "lon": -117.0472438}, {"type": "node", "id": 3667015672, "lat": 47.0898869, "lon": -117.0472418}, {"type": "node", "id": 3667015673, "lat": 47.0898898, "lon": -117.0473538}, {"type": "node", "id": 3667015674, "lat": 47.0900048, "lon": -117.0473378}, {"type": "node", "id": 3667015687, "lat": 47.0895928, "lon": -117.0458016}, {"type": "node", "id": 3667015688, "lat": 47.0895138, "lon": -117.04581}, {"type": "node", "id": 3667015689, "lat": 47.0895054, "lon": -117.0456389}, {"type": "node", "id": 3667015690, "lat": 47.0895844, "lon": -117.0456305}, {"type": "node", "id": 7455407282, "lat": 47.0902964, "lon": -117.0454053}, {"type": "node", "id": 7455407283, "lat": 47.090291, "lon": -117.0454063}, {"type": "node", "id": 7455407284, "lat": 47.090197, "lon": -117.0453743}, {"type": "node", "id": 7455407385, "lat": 47.0901991, "lon": -117.0454143}, {"type": "node", "id": 7455407386, "lat": 47.0902445, "lon": -117.0454766, "tags": {"addr:city": "Farmingtion", "addr:housenumber": "203", "addr:postcode": "99128", "addr:state": "WA", "addr:street": "East Main Street", "amenity": "library", "name": "Farmington Public Library", "operator": "Whitman County Library District"}}, {"type": "node", "id": 8526481506, "lat": 47.0897715, "lon": -117.0455475}, {"type": "node", "id": 8526481507, "lat": 47.0897613, "lon": -117.0455685}, {"type": "node", "id": 8526481508, "lat": 47.089747, "lon": -117.0455834}, {"type": "node", "id": 8526481509, "lat": 47.0897302, "lon": -117.0455906}, {"type": "node", "id": 8526481510, "lat": 47.0897127, "lon": -117.0455892}, {"type": "node", "id": 8526481511, "lat": 47.0896828, "lon": -117.0454665}, {"type": "node", "id": 8526481512, "lat": 47.0896953, "lon": -117.0454496}, {"type": "node", "id": 8526481513, "lat": 47.0897109, "lon": -117.0454394}, {"type": "node", "id": 8526481514, "lat": 47.0897278, "lon": -117.0454371}, {"type": "node", "id": 8526481515, "lat": 47.0897443, "lon": -117.0454428}, {"type": "node", "id": 8526481516, "lat": 47.0896965, "lon": -117.0455795}, {"type": "node", "id": 8526515617, "lat": 47.0896833, "lon": -117.0455624}, {"type": "node", "id": 8526515618, "lat": 47.0896748, "lon": -117.0455399}, {"type": "node", "id": 8526515619, "lat": 47.0896717, "lon": -117.0455146}, {"type": "node", "id": 8526515620, "lat": 47.0896745, "lon": -117.0454892}, {"type": "node", "id": 8526515621, "lat": 47.0897588, "lon": -117.045456}, {"type": "node", "id": 8526515622, "lat": 47.0897696, "lon": -117.0454753}, {"type": "node", "id": 8526515623, "lat": 47.0897756, "lon": -117.0454986}, {"type": "node", "id": 8526515624, "lat": 47.0897763, "lon": -117.0455236}, {"type": "node", "id": 12580489102, "lat": 47.0891162, "lon": -117.046854}, {"type": "node", "id": 12580489103, "lat": 47.0891089, "lon": -117.0466153}, {"type": "node", "id": 12580489104, "lat": 47.0889007, "lon": -117.0466448}, {"type": "node", "id": 12580489105, "lat": 47.0889171, "lon": -117.0468835}, {"type": "node", "id": 12901280194, "lat": 47.0938748, "lon": -117.0460999}, {"type": "node", "id": 12901280197, "lat": 47.0938735, "lon": -117.0459371}, {"type": "node", "id": 12901280198, "lat": 47.0937008, "lon": -117.04594}, {"type": "node", "id": 12901280199, "lat": 47.0937037, "lon": -117.0461065}, {"type": "node", "id": 12901280200, "lat": 47.0924563, "lon": -117.0446774}, {"type": "node", "id": 12901353001, "lat": 47.0921754, "lon": -117.0446969}, {"type": "node", "id": 12901353002, "lat": 47.0921832, "lon": -117.0449396}, {"type": "node", "id": 12901353003, "lat": 47.0924641, "lon": -117.0449201}, {"type": "node", "id": 12901353004, "lat": 47.0924645, "lon": -117.0454813}, {"type": "node", "id": 12901353005, "lat": 47.0924339, "lon": -117.0449567}, {"type": "node", "id": 12901353006, "lat": 47.0924756, "lon": -117.0449514}, {"type": "node", "id": 12901353007, "lat": 47.0925062, "lon": -117.0454761}, {"type": "node", "id": 12901353008, "lat": 47.0921624, "lon": -117.0455358}, {"type": "node", "id": 12901353009, "lat": 47.092462, "lon": -117.0454956}, {"type": "node", "id": 12901353010, "lat": 47.0924699, "lon": -117.0456237}, {"type": "node", "id": 12901353011, "lat": 47.0921703, "lon": -117.0456637}, {"type": "node", "id": 12901353012, "lat": 47.0924006, "lon": -117.0457708}, {"type": "node", "id": 12901353013, "lat": 47.0921112, "lon": -117.0458014}, {"type": "node", "id": 12901353014, "lat": 47.0921047, "lon": -117.0456693}, {"type": "node", "id": 12901353015, "lat": 47.0923941, "lon": -117.0456386}, {"type": "way", "id": 262118857, "nodes": [2677663696, 2677663704, 2677663685, 2677663690, 2677663666, 2677663667, 2677663653, 2677663615, 2677663715, 2677663585, 2677663696], "tags": {"addr:city": "Farmington", "addr:housenumber": "404", "addr:postcode": "99128", "addr:state": "WA", "addr:street": "2nd St", "amenity": "place_of_worship", "building": "church", "denomination": "seventh_day_adventist", "name": "Seventh Day Adventist Church", "opening_hours": "SA 09:00-13:00", "religion": "christian", "service_times": "Saturday 10:45 am", "website": "https://www.farmingtonadventist.org/"}}, {"type": "way", "id": 362379424, "nodes": [3667015654, 7455407283, 7455407282, 3667015655, 3667015656, 3667015658, 7455407385, 7455407284, 3667015654], "tags": {"addr:city": "Farmingtion", "addr:housenumber": "E 203", "addr:postcode": "99128", "addr:state": "WA", "addr:street": "Main Street", "amenity": "townhall", "building": "yes", "name": "Farmington City Hall", "operator": "City of Farmington"}}, {"type": "way", "id": 362379426, "nodes": [3667015662, 3667015664, 3667015666, 3667015667, 3667015662], "tags": {"amenity": "post_office", "building": "yes", "name": "Post Office, 99128", "operator": "United States Postal Service", "operator:short": "USPS", "operator:type": "public", "operator:website": "https://www.usps.com", "operator:wikidata": "Q668687", "operator:wikipedia": "en:United States Postal Service", "short_name": "USPS"}}, {"type": "way", "id": 362379427, "nodes": [3667015668, 3667015669, 3667015670, 3667015671, 3667015672, 3667015673, 3667015674, 3667015668], "tags": {"addr:housenumber": "103", "addr:street": "East Main Street", "amenity": "bank", "building": "yes", "level": "1", "name": "Farmington State Bank Building - NOW CLOSED", "wheelchair": "no"}}, {"type": "way", "id": 362379430, "nodes": [3667015687, 3667015688, 3667015689, 3667015690, 3667015687], "tags": {"access": "yes", "amenity": "toilets", "building": "yes", "fee": "no", "operator": "City of Farmington", "toilets:disposal": "flush", "unisex": "yes"}}, {"type": "way", "id": 918053846, "nodes": [8526515621, 8526515622, 8526515623, 8526515624, 8526481506, 8526481507, 8526481508, 8526481509, 8526481510, 8526481516, 8526515617, 8526515618, 8526515619, 8526515620, 8526481511, 8526481512, 8526481513, 8526481514, 8526481515, 8526515621], "tags": {"amenity": "shelter", "building": "yes", "shelter_type": "picnic_shelter"}}, {"type": "way", "id": 1359181239, "nodes": [12580489102, 12580489103, 12580489104, 12580489105, 12580489102], "tags": {"addr:city": "Farmington", "addr:housenumber": "102", "addr:postcode": "99128", "addr:state": "WA", "addr:street": "East Washington Street", "amenity": "fire_station", "building": "yes", "name": "Farmington Volunteer Fire Department", "operator": "Whitman County Fire Protection District 10"}}, {"type": "way", "id": 1393745612, "nodes": [12901280197, 12901280198, 12901280199, 12901280194, 12901280197], "tags": {"access": "private", "amenity": "parking", "capacity": "5", "operator": "Audio Pile", "operator:type": "private_for_profit", "parking": "surface", "surface": "asphalt"}}, {"type": "way", "id": 1393745613, "nodes": [12901280200, 12901353001, 12901353002, 12901353003, 12901280200], "tags": {"access": "private", "amenity": "parking", "operator": "Farmington SDA Church", "operator:type": "private_non_profit", "parking": "surface", "surface": "gravel"}}, {"type": "way", "id": 1393745614, "nodes": [12901353004, 12901353005, 12901353006, 12901353007, 12901353004], "tags": {"access": "private", "amenity": "parking", "operator": "Farmington SDA Church", "operator:type": "private_non_profit", "orientation": "parallel", "parking": "street_side", "surface": "gravel"}}, {"type": "way", "id": 1393745615, "nodes": [12901353008, 12901353009, 12901353010, 12901353015, 12901353011, 12901353008], "tags": {"access": "private", "amenity": "parking", "operator": "Framington SDA Church", "operator:type": "private_non_profit", "orientation": "perpendicular", "parking": "street_side", "surface": "gravel"}}, {"type": "way", "id": 1393745616, "nodes": [12901353012, 12901353013, 12901353014, 12901353015, 12901353012], "tags": {"amenity": "parking", "operator": "Farmington SDA School", "operator:type": "private_non_profit", "orientation": "perpendicular", "parking": "street_side", "surface": "gravel"}}]}