{"version": 0.6, "generator": "Overpass API 0.7.62.8 e802775f", "osm3s": {"timestamp_osm_base": "2025-12-06T04:18:14Z", "copyright": "The data included in this document is from www.openstreetmap.org. The data is made available under ODbL."}, "elements": [{"type": "node", "id": 3412015404, "lat": 46.3925612, "lon": -105.823203}, {"type": "node", "id": 3412015405, "lat": 46.3925789, "lon": -105.8232141}, {"type": "node", "id": 3412015411, "lat": 46.3926763, "lon": -105.8232834}, {"type": "node", "id": 3412015420, "lat": 46.3927183, "lon": -105.8232319}, {"type": "node", "id": 3412015422, "lat": 46.3925787, "lon": -105.8231442}, {"type": "node", "id": 3412015428, "lat": 46.3925968, "lon": -105.8235492}, {"type": "node", "id": 3412015432, "lat": 46.3924974, "lon": -105.8234866}, {"type": "node", "id": 3412015447, "lat": 46.3926986, "lon": -105.8232975}, {"type": "node", "id": 3412999580, "lat": 46.401366, "lon": -105.8214472}, {"type": "node", "id": 3412999583, "lat": 46.4012841, "lon": -105.8212762}, {"type": "node", "id": 3413007895, "lat": 46.3962259, "lon": -105.8222063}, {"type": "node", "id": 3413007897, "lat": 46.3967634, "lon": -105.8228719}, {"type": "node", "id": 3413007904, "lat": 46.3964391, "lon": -105.8222075}, {"type": "node", "id": 3413007910, "lat": 46.4012815, "lon": -105.8214463}, {"type": "node", "id": 3413007912, "lat": 46.3971219, "lon": -105.8216222}, {"type": "node", "id": 3413007919, "lat": 46.3975705, "lon": -105.8231443}, {"type": "node", "id": 3413007922, "lat": 46.4017537, "lon": -105.824915}, {"type": "node", "id": 3413007930, "lat": 46.4015918, "lon": -105.821388}, {"type": "node", "id": 3413007931, "lat": 46.3968334, "lon": -105.8220028}, {"type": "node", "id": 3413007932, "lat": 46.4013665, "lon": -105.8213843}, {"type": "node", "id": 3413007933, "lat": 46.3974629, "lon": -105.8228856}, {"type": "node", "id": 3413007934, "lat": 46.3967633, "lon": -105.823204}, {"type": "node", "id": 3413007938, "lat": 46.395567, "lon": -105.8220735, "tags": {"addr:city": "Miles City", "addr:housenumber": "1406", "addr:postcode": "59301-5760", "addr:state": "MT", "addr:street": "South Haynes Avenue", "amenity": "restaurant", "cuisine": "american", "name": "Grammy's Kitchen", "phone": "+1-406-679-4816"}}, {"type": "node", "id": 3413007944, "lat": 46.4022888, "lon": -105.8249812}, {"type": "node", "id": 3413007946, "lat": 46.4017577, "lon": -105.8240085}, {"type": "node", "id": 3413007952, "lat": 46.3968345, "lon": -105.8216214}, {"type": "node", "id": 3413007957, "lat": 46.3965916, "lon": -105.8229176}, {"type": "node", "id": 3413007959, "lat": 46.3964397, "lon": -105.8219941}, {"type": "node", "id": 3413007961, "lat": 46.396592, "lon": -105.8231512}, {"type": "node", "id": 3413007968, "lat": 46.3974638, "lon": -105.8231451}, {"type": "node", "id": 3413007971, "lat": 46.4024284, "lon": -105.8249826}, {"type": "node", "id": 3413007974, "lat": 46.3965915, "lon": -105.8230279}, {"type": "node", "id": 3413007975, "lat": 46.396536, "lon": -105.8231511}, {"type": "node", "id": 3413007977, "lat": 46.3962262, "lon": -105.8220682}, {"type": "node", "id": 3413007979, "lat": 46.4024322, "lon": -105.8240091}, {"type": "node", "id": 3413007982, "lat": 46.4015969, "lon": -105.8207352}, {"type": "node", "id": 3413007983, "lat": 46.3962975, "lon": -105.8219933}, {"type": "node", "id": 3413007984, "lat": 46.4022881, "lon": -105.8249162}, {"type": "node", "id": 3413007992, "lat": 46.3965361, "lon": -105.8230278}, {"type": "node", "id": 3413008096, "lat": 46.3966207, "lon": -105.8228717}, {"type": "node", "id": 3413008097, "lat": 46.3965922, "lon": -105.8232038}, {"type": "node", "id": 3413008100, "lat": 46.3972555, "lon": -105.8220028}, {"type": "node", "id": 3413008112, "lat": 46.3962974, "lon": -105.8220686}, {"type": "node", "id": 3413008115, "lat": 46.3975697, "lon": -105.8228848}, {"type": "node", "id": 3413017145, "lat": 46.402918, "lon": -105.8185561}, {"type": "node", "id": 3413017146, "lat": 46.4041491, "lon": -105.8192978}, {"type": "node", "id": 3413017148, "lat": 46.4041489, "lon": -105.8192197}, {"type": "node", "id": 3413017149, "lat": 46.4033157, "lon": -105.8193025}, {"type": "node", "id": 3413017151, "lat": 46.4037558, "lon": -105.817936}, {"type": "node", "id": 3413017152, "lat": 46.4030257, "lon": -105.8221224}, {"type": "node", "id": 3413017155, "lat": 46.4028367, "lon": -105.8191672}, {"type": "node", "id": 3413017156, "lat": 46.4041805, "lon": -105.8192196}, {"type": "node", "id": 3413017157, "lat": 46.4031458, "lon": -105.82212}, {"type": "node", "id": 3413017158, "lat": 46.4041802, "lon": -105.8191281}, {"type": "node", "id": 3413017159, "lat": 46.4042791, "lon": -105.8218616, "tags": {"brand": "O'Reilly Auto Parts", "brand:wikidata": "Q7071951", "name": "O'Reilly Auto Parts", "shop": "car_parts", "website": "https://locations.oreillyauto.com/mt/milescity/autoparts-1557.html"}}, {"type": "node", "id": 3413017160, "lat": 46.4028395, "lon": -105.8183509}, {"type": "node", "id": 3413017161, "lat": 46.4026837, "lon": -105.8185574}, {"type": "node", "id": 3413017164, "lat": 46.4028355, "lon": -105.8187205}, {"type": "node", "id": 3413017165, "lat": 46.4030235, "lon": -105.8217851}, {"type": "node", "id": 3413017166, "lat": 46.4043018, "lon": -105.8191274}, {"type": "node", "id": 3413017169, "lat": 46.4042987, "lon": -105.817933}, {"type": "node", "id": 3413017171, "lat": 46.4029184, "lon": -105.81872}, {"type": "node", "id": 3413017172, "lat": 46.4028394, "lon": -105.818302}, {"type": "node", "id": 3413017173, "lat": 46.4026831, "lon": -105.8183518}, {"type": "node", "id": 3413017175, "lat": 46.4031436, "lon": -105.8217834}, {"type": "node", "id": 3413017176, "lat": 46.4033154, "lon": -105.8191645}, {"type": "node", "id": 3413017177, "lat": 46.4029332, "lon": -105.8183015}, {"type": "node", "id": 3413017178, "lat": 46.4037564, "lon": -105.8181568}, {"type": "node", "id": 3413017179, "lat": 46.4029329, "lon": -105.8181613}, {"type": "node", "id": 9979052874, "lat": 46.3962128, "lon": -105.82355, "tags": {"addr:city": "Miles City", "addr:housenumber": "1219", "addr:postcode": "59301-5731", "addr:state": "MT", "addr:street": "South Haynes Avenue", "amenity": "restaurant", "cuisine": "american;grill;barbecue", "name": "Black Iron Grill Rotisserie", "phone": "+1-406-234-4766", "toilets": "yes", "website": "https://www.milescityrestaurant.com/"}}, {"type": "node", "id": 11986519979, "lat": 46.4023711, "lon": -105.8220985, "tags": {"addr:city": "Miles City", "addr:housenumber": "3008", "addr:postcode": "59301-5782", "addr:state": "MT", "addr:street": "Stower Street", "shop": "vacant"}}, {"type": "node", "id": 12576895697, "lat": 46.399282, "lon": -105.8218871, "tags": {"addr:city": "Miles City", "addr:housenumber": "902", "addr:postcode": "59301-5724", "addr:state": "MT", "addr:street": "South Haynes Avenue", "name": "Conlin's Furniture", "phone": "+1-406-234-5410", "shop": "furniture", "website": "https://www.conlins.com/"}}, {"type": "node", "id": 12779950229, "lat": 46.4028966, "lon": -105.8240832}, {"type": "node", "id": 12779950230, "lat": 46.4028966, "lon": -105.8247789}, {"type": "node", "id": 12779950231, "lat": 46.4030889, "lon": -105.8247781}, {"type": "node", "id": 12779950232, "lat": 46.4030888, "lon": -105.8248441}, {"type": "node", "id": 12779950233, "lat": 46.4034823, "lon": -105.8248445}, {"type": "node", "id": 12779950234, "lat": 46.4034824, "lon": -105.8247431}, {"type": "node", "id": 12779950235, "lat": 46.4035526, "lon": -105.8247433}, {"type": "node", "id": 12779950236, "lat": 46.4035536, "lon": -105.8240796}, {"type": "node", "id": 12779950237, "lat": 46.4017554, "lon": -105.8247069}, {"type": "node", "id": 12963991512, "lat": 46.4039961, "lon": -105.8237968}, {"type": "node", "id": 12963991513, "lat": 46.40379, "lon": -105.8237992}, {"type": "node", "id": 12963991514, "lat": 46.4037858, "lon": -105.8230471}, {"type": "node", "id": 12963991515, "lat": 46.4041202, "lon": -105.8230432}, {"type": "node", "id": 12963991516, "lat": 46.4041211, "lon": -105.8232087}, {"type": "node", "id": 12963991517, "lat": 46.4039929, "lon": -105.8232102}, {"type": "node", "id": 12978568326, "lat": 46.4046561, "lon": -105.8220407, "tags": {"addr:city": "Miles City", "addr:housenumber": "320", "addr:postcode": "59301-4764", "addr:state": "MT", "addr:street": "South Haynes Avenue", "brand": "Sherwin-Williams", "brand:wikidata": "Q48881", "name": "Sherwin-Williams", "phone": "+1-406-232-3267", "shop": "paint", "website": "https://www.sherwin-williams.com/store-locator/paint-store/miles-city/mt/703985"}}, {"type": "node", "id": 12987204624, "lat": 46.4050817, "lon": -105.8205056, "tags": {"addr:city": "Miles City", "addr:housenumber": "306", "addr:postcode": "59301-9237", "addr:state": "MT", "addr:street": "Roger Lane", "brand": "Maurices", "brand:wikidata": "Q6793571", "clothes": "women", "name": "Maurices", "phone": "+1-406-232-5931", "shop": "clothes", "website": "https://locations.maurices.com/us/mt/miles-city/306-roger-lane"}}, {"type": "node", "id": 12987204887, "lat": 46.4016668, "lon": -105.81912}, {"type": "node", "id": 12987204888, "lat": 46.4014459, "lon": -105.8191199}, {"type": "node", "id": 12987204889, "lat": 46.4014459, "lon": -105.8189599}, {"type": "node", "id": 12987204890, "lat": 46.401455, "lon": -105.8182105}, {"type": "node", "id": 12987204891, "lat": 46.4016561, "lon": -105.8182106}, {"type": "node", "id": 12987204892, "lat": 46.4016559, "lon": -105.8189541}, {"type": "node", "id": 12987204893, "lat": 46.4016668, "lon": -105.8189541}, {"type": "node", "id": 12987204894, "lat": 46.4014548, "lon": -105.8189599}, {"type": "node", "id": 12987219814, "lat": 46.4060955, "lon": -105.822059, "tags": {"addr:city": "Miles City", "addr:housenumber": "204", "addr:postcode": "59301-4761", "addr:state": "MT", "addr:street": "South Haynes Avenue", "alt_name": "Verizon Wireless", "brand": "Verizon", "brand:wikidata": "Q919641", "name": "Verizon", "phone": "+1-406-234-9161", "shop": "mobile_phone", "website": "https://www.cellularplus.com/locations/miles-city/"}}, {"type": "node", "id": 12987257438, "lat": 46.4023249, "lon": -105.8191952}, {"type": "node", "id": 12987257439, "lat": 46.4021881, "lon": -105.8191954}, {"type": "node", "id": 12987257440, "lat": 46.4021882, "lon": -105.8192725}, {"type": "node", "id": 12987257441, "lat": 46.4020209, "lon": -105.8192728}, {"type": "node", "id": 12987257442, "lat": 46.4020209, "lon": -105.8191884}, {"type": "node", "id": 12987257443, "lat": 46.4018849, "lon": -105.8191878}, {"type": "node", "id": 12987257444, "lat": 46.4018872, "lon": -105.8182197}, {"type": "node", "id": 12987257445, "lat": 46.401989, "lon": -105.8182195}, {"type": "node", "id": 12987257446, "lat": 46.401989, "lon": -105.8182891}, {"type": "node", "id": 12987257447, "lat": 46.4023245, "lon": -105.8182887}, {"type": "node", "id": 13013120104, "lat": 46.4012282, "lon": -105.8231942}, {"type": "node", "id": 13013120105, "lat": 46.4011152, "lon": -105.8231937}, {"type": "node", "id": 13013120106, "lat": 46.401116, "lon": -105.8229294}, {"type": "node", "id": 13013120107, "lat": 46.4012282, "lon": -105.8229296}, {"type": "node", "id": 13014334855, "lat": 46.406152, "lon": -105.8235386}, {"type": "node", "id": 13014334856, "lat": 46.4061529, "lon": -105.8233815}, {"type": "node", "id": 13014334857, "lat": 46.4060694, "lon": -105.8233806}, {"type": "node", "id": 13014334858, "lat": 46.4060695, "lon": -105.8233695}, {"type": "node", "id": 13014334859, "lat": 46.4059747, "lon": -105.8233685}, {"type": "node", "id": 13014334860, "lat": 46.4059738, "lon": -105.8235466}, {"type": "node", "id": 13014334861, "lat": 46.4060696, "lon": -105.8235476}, {"type": "node", "id": 13014334862, "lat": 46.4060696, "lon": -105.8235376}, {"type": "node", "id": 13014398331, "lat": 46.4056247, "lon": -105.8208981}, {"type": "node", "id": 13014398332, "lat": 46.405624, "lon": -105.8205971}, {"type": "node", "id": 13014398333, "lat": 46.4060993, "lon": -105.8205981}, {"type": "node", "id": 13014398334, "lat": 46.4061001, "lon": -105.8208956}, {"type": "node", "id": 13016825488, "lat": 46.4027217, "lon": -105.8214601}, {"type": "node", "id": 13016825489, "lat": 46.4021568, "lon": -105.821462}, {"type": "node", "id": 13016825490, "lat": 46.4021551, "lon": -105.8224814}, {"type": "node", "id": 13016825491, "lat": 46.4025966, "lon": -105.8224689}, {"type": "node", "id": 13016825492, "lat": 46.4026255, "lon": -105.8224546}, {"type": "node", "id": 13016825493, "lat": 46.4026497, "lon": -105.822434}, {"type": "node", "id": 13016825494, "lat": 46.4026759, "lon": -105.8224027}, {"type": "node", "id": 13016825495, "lat": 46.4026895, "lon": -105.8223712}, {"type": "node", "id": 13016825496, "lat": 46.4027076, "lon": -105.8223178}, {"type": "node", "id": 13016825497, "lat": 46.4027125, "lon": -105.8222895}, {"type": "node", "id": 13016825498, "lat": 46.4026989, "lon": -105.8223459}, {"type": "node", "id": 13016825499, "lat": 46.402666, "lon": -105.8224156}, {"type": "node", "id": 13016839206, "lat": 46.4024567, "lon": -105.8217574, "tags": {"addr:city": "Miles City", "addr:housenumber": "3012", "addr:postcode": "59301-5792", "addr:state": "MT", "addr:street": "Stower Street", "beauty": "nails", "name": "Spa Nails Salon", "phone": "+1-406-874-6868", "shop": "beauty"}}, {"type": "node", "id": 13016849271, "lat": 46.4024559, "lon": -105.8219561, "tags": {"addr:city": "Miles City", "addr:housenumber": "3010", "addr:postcode": "59301-5792", "addr:state": "MT", "addr:street": "Stower Street", "name": "Unique Creations", "phone": "+1-406-234-1008", "shop": "gift"}}, {"type": "node", "id": 13016865564, "lat": 46.4023162, "lon": -105.8217416, "tags": {"addr:city": "Miles City", "addr:housenumber": "3010", "addr:postcode": "59301-5792", "addr:state": "MT", "addr:street": "Stower Street", "name": "Miles City Marketplace", "phone": "+1-406-901-1245", "shop": "yes"}}, {"type": "node", "id": 13018305798, "lat": 46.4027203, "lon": -105.8215889}, {"type": "node", "id": 13018331724, "lat": 46.4021555, "lon": -105.8222629}, {"type": "node", "id": 13018543680, "lat": 46.4013111, "lon": -105.8208487}, {"type": "node", "id": 13018543681, "lat": 46.4012708, "lon": -105.8208481}, {"type": "node", "id": 13018543682, "lat": 46.4012717, "lon": -105.8207299}, {"type": "node", "id": 13019628057, "lat": 46.4013109, "lon": -105.8212765}, {"type": "node", "id": 13020115128, "lat": 46.4006459, "lon": -105.820213}, {"type": "node", "id": 13020115129, "lat": 46.4005292, "lon": -105.8202132}, {"type": "node", "id": 13020115130, "lat": 46.4005291, "lon": -105.8201211}, {"type": "node", "id": 13020115131, "lat": 46.4002292, "lon": -105.8201216}, {"type": "node", "id": 13020115132, "lat": 46.4002289, "lon": -105.8196932}, {"type": "node", "id": 13020115133, "lat": 46.4005804, "lon": -105.8196926}, {"type": "node", "id": 13020115134, "lat": 46.4005807, "lon": -105.8200559}, {"type": "node", "id": 13020115135, "lat": 46.4006458, "lon": -105.8200558}, {"type": "node", "id": 13020259981, "lat": 46.4017162, "lon": -105.817989}, {"type": "node", "id": 13020259982, "lat": 46.4011651, "lon": -105.8179873}, {"type": "node", "id": 13020259983, "lat": 46.4011652, "lon": -105.8178855}, {"type": "node", "id": 13020259984, "lat": 46.4017164, "lon": -105.8178871}, {"type": "node", "id": 13020259985, "lat": 46.4017156, "lon": -105.8177527}, {"type": "node", "id": 13020259986, "lat": 46.4011665, "lon": -105.8177527}, {"type": "node", "id": 13020259987, "lat": 46.4011665, "lon": -105.8175719}, {"type": "node", "id": 13020259988, "lat": 46.4017156, "lon": -105.8175718}, {"type": "node", "id": 13020263570, "lat": 46.4012826, "lon": -105.8185424}, {"type": "node", "id": 13020263571, "lat": 46.4011033, "lon": -105.8185439}, {"type": "node", "id": 13020263572, "lat": 46.4011023, "lon": -105.818283}, {"type": "node", "id": 13020263573, "lat": 46.4012815, "lon": -105.8182816}, {"type": "node", "id": 13026018094, "lat": 46.4059889, "lon": -105.8204407}, {"type": "node", "id": 13026018095, "lat": 46.4058147, "lon": -105.8204403}, {"type": "node", "id": 13026018096, "lat": 46.4059904, "lon": -105.8205989}, {"type": "node", "id": 13026018097, "lat": 46.4058141, "lon": -105.8205992}, {"type": "node", "id": 13027858046, "lat": 46.4001464, "lon": -105.8205492}, {"type": "node", "id": 13027858047, "lat": 46.3996743, "lon": -105.820542}, {"type": "node", "id": 13027858048, "lat": 46.3996755, "lon": -105.8203778}, {"type": "node", "id": 13027858049, "lat": 46.4001476, "lon": -105.8203851}, {"type": "node", "id": 13027863031, "lat": 46.4000943, "lon": -105.8212877}, {"type": "node", "id": 13027863032, "lat": 46.399867, "lon": -105.8212867}, {"type": "node", "id": 13027863033, "lat": 46.3998683, "lon": -105.8206786}, {"type": "node", "id": 13027863034, "lat": 46.4000955, "lon": -105.8206796}, {"type": "node", "id": 13027871050, "lat": 46.4027638, "lon": -105.8184473, "tags": {"addr:city": "Miles City", "addr:housenumber": "3205", "addr:postcode": "59301-5785", "addr:state": "MT", "addr:street": "Stower Street", "name": "Walmart Auto Center", "opening_hours": "Mo-Su 07:00-19:00", "operator": "Walmart", "phone": "+1-406-232-7305", "service:vehicle:batteries": "yes", "service:vehicle:oil_change": "yes", "service:vehicle:repair": "yes", "service:vehicle:tyres": "yes", "service:vehicle:tyres_repair": "yes", "shop": "car_repair"}}, {"type": "node", "id": 13030670321, "lat": 46.3990086, "lon": -105.8189402}, {"type": "node", "id": 13030670322, "lat": 46.3988744, "lon": -105.8189874}, {"type": "node", "id": 13030670323, "lat": 46.3988156, "lon": -105.8186386}, {"type": "node", "id": 13030670324, "lat": 46.3989503, "lon": -105.8185912}, {"type": "node", "id": 13030670325, "lat": 46.3987232, "lon": -105.818933}, {"type": "node", "id": 13030670326, "lat": 46.3987091, "lon": -105.8188487}, {"type": "node", "id": 13030670327, "lat": 46.3988428, "lon": -105.8188017}, {"type": "node", "id": 13030670328, "lat": 46.3988575, "lon": -105.8188858}, {"type": "node", "id": 13030680294, "lat": 46.3989968, "lon": -105.8184308}, {"type": "node", "id": 13030680295, "lat": 46.3988364, "lon": -105.8184854}, {"type": "node", "id": 13030680296, "lat": 46.3988223, "lon": -105.8183986}, {"type": "node", "id": 13030680297, "lat": 46.3989827, "lon": -105.818344}, {"type": "node", "id": 13030680298, "lat": 46.3988646, "lon": -105.8191319}, {"type": "node", "id": 13030680299, "lat": 46.3986772, "lon": -105.8191863}, {"type": "node", "id": 13030680300, "lat": 46.398663, "lon": -105.8190832}, {"type": "node", "id": 13030682052, "lat": 46.3990688, "lon": -105.8193454}, {"type": "node", "id": 13030682053, "lat": 46.3990378, "lon": -105.8191586}, {"type": "node", "id": 13030682054, "lat": 46.3989011, "lon": -105.8192064}, {"type": "node", "id": 13030682055, "lat": 46.3989321, "lon": -105.8193932}, {"type": "node", "id": 13030707401, "lat": 46.3988504, "lon": -105.8190289}, {"type": "node", "id": 13032334385, "lat": 46.4013565, "lon": -105.8241125, "tags": {"addr:city": "Miles City", "addr:housenumber": "717", "addr:postcode": "59301-4772", "addr:state": "MT", "addr:street": "South Haynes Avenue", "amenity": "restaurant", "cuisine": "mexican", "name": "Mexico Lindo", "opening_hours": "Tu-Sa 11:00-21:00; Su 11:00-20:30", "phone": "+1-406-234-3485", "website": "https://mexico-lindo-miles-city.edan.io/"}}, {"type": "node", "id": 13032493302, "lat": 46.4016517, "lon": -105.8241228, "tags": {"addr:city": "Miles City", "addr:housenumber": "713", "addr:postcode": "59301-4772", "addr:state": "MT", "addr:street": "South Haynes Avenue", "shop": "vacant"}}, {"type": "node", "id": 13032493303, "lat": 46.4013089, "lon": -105.824335, "tags": {"addr:city": "Miles City", "addr:housenumber": "2815", "addr:postcode": "59301-5754", "addr:state": "MT", "addr:street": "Comstock Street", "brand": "State Farm", "brand:wikidata": "Q2007336", "name": "State Farm / Tyler Chapmon", "office": "insurance", "opening_hours": "Mo-Fr 09:00-17:00", "phone": "+1-406-232-2572", "website": "https://tchapmoninsurance.com"}}, {"type": "node", "id": 13032541604, "lat": 46.4032587, "lon": -105.8248448}, {"type": "node", "id": 13032541605, "lat": 46.4032586, "lon": -105.8249064}, {"type": "node", "id": 13032541606, "lat": 46.4033063, "lon": -105.8249066}, {"type": "node", "id": 13032541607, "lat": 46.4033064, "lon": -105.824844}, {"type": "node", "id": 13032541608, "lat": 46.4034599, "lon": -105.8240793}, {"type": "node", "id": 13032541609, "lat": 46.40346, "lon": -105.8240368}, {"type": "node", "id": 13032541610, "lat": 46.4030973, "lon": -105.8240355}, {"type": "node", "id": 13032541611, "lat": 46.4030972, "lon": -105.8240839}, {"type": "node", "id": 13037822576, "lat": 46.4038587, "lon": -105.8191102, "tags": {"addr:city": "Miles City", "addr:housenumber": "3205", "addr:postcode": "59301-5785", "addr:state": "MT", "addr:street": "Stower Street", "brand": "Walmart Vision Center", "brand:wikidata": "Q483551", "name": "Walmart Vision Center", "opening_hours": "Mo-Sa 09:00-18:00", "phone": "+1-406-232-1233", "shop": "optician"}}, {"type": "node", "id": 13037822577, "lat": 46.4033406, "lon": -105.818484, "tags": {"addr:city": "Miles City", "addr:housenumber": "3205", "addr:postcode": "59301-5785", "addr:state": "MT", "addr:street": "Stower Street", "alt_name": "Verizon Wireless", "brand": "Verizon", "brand:wikidata": "Q919641", "name": "Verizon Wireless", "opening_hours": "Mo-Sa 10:00-20:00; Su 12:00-18:00", "operator": "Walmart", "phone": "+1-406-232-1266", "shop": "mobile_phone"}}, {"type": "node", "id": 13037881431, "lat": 46.4046487, "lon": -105.8203921, "tags": {"addr:city": "Miles City", "addr:housenumber": "330", "addr:postcode": "59301-9239", "addr:state": "MT", "addr:street": "Roger Lane", "addr:unit": "6", "brand": "H&R Block", "brand:wikidata": "Q5627799", "name": "H&R Block", "office": "tax_advisor", "phone": "+1-406-234-2299", "website": "https://www.hrblock.com/tax-office-near-me/montana/miles-city/17879/"}}, {"type": "node", "id": 13043466802, "lat": 46.3971219, "lon": -105.8215792}, {"type": "node", "id": 13043466803, "lat": 46.3972563, "lon": -105.8215781}, {"type": "node", "id": 13043466804, "lat": 46.3970711, "lon": -105.8220043}, {"type": "node", "id": 13043466805, "lat": 46.3970708, "lon": -105.8220436}, {"type": "node", "id": 13043466806, "lat": 46.3971083, "lon": -105.8220429}, {"type": "node", "id": 13043466807, "lat": 46.3971086, "lon": -105.822003}, {"type": "node", "id": 13043466808, "lat": 46.3969556, "lon": -105.8220059}, {"type": "node", "id": 13043466809, "lat": 46.396955, "lon": -105.8220372}, {"type": "node", "id": 13043466810, "lat": 46.396882, "lon": -105.8220384}, {"type": "node", "id": 13043466811, "lat": 46.3968823, "lon": -105.8220036}, {"type": "node", "id": 13043466812, "lat": 46.3968366, "lon": -105.8218837}, {"type": "node", "id": 13043466813, "lat": 46.3968188, "lon": -105.8218822}, {"type": "node", "id": 13043466814, "lat": 46.3968177, "lon": -105.8217787}, {"type": "node", "id": 13043466815, "lat": 46.3968323, "lon": -105.8217787}, {"type": "node", "id": 13045028822, "lat": 46.3975436, "lon": -105.8229193, "tags": {"addr:city": "Miles City", "addr:housenumber": "1115", "addr:postcode": "59301-5729", "addr:state": "MT", "addr:street": "South Haynes Avenue", "description": "Self Service Dog Wash", "name": "Sage's Dog Wash", "note": "Self Service", "opening_hours": "24/7", "phone": "+1-406-234-2424", "shop": "pet_grooming", "website": "https://expresslaundrymc.com/dog-wash/"}}, {"type": "node", "id": 13046986264, "lat": 46.3938862, "lon": -105.8215724}, {"type": "node", "id": 13046986265, "lat": 46.3938862, "lon": -105.8215204}, {"type": "node", "id": 13046986266, "lat": 46.3939173, "lon": -105.8215204}, {"type": "node", "id": 13046986267, "lat": 46.3939173, "lon": -105.8214511}, {"type": "node", "id": 13046986268, "lat": 46.3938902, "lon": -105.821451}, {"type": "node", "id": 13046986269, "lat": 46.3938902, "lon": -105.821266}, {"type": "node", "id": 13046986270, "lat": 46.3939171, "lon": -105.821266}, {"type": "node", "id": 13046986271, "lat": 46.3939171, "lon": -105.821202}, {"type": "node", "id": 13046986272, "lat": 46.3938903, "lon": -105.821202}, {"type": "node", "id": 13046986273, "lat": 46.3938903, "lon": -105.8211781}, {"type": "node", "id": 13046986274, "lat": 46.3937586, "lon": -105.8211781}, {"type": "node", "id": 13046986275, "lat": 46.3937586, "lon": -105.8213303}, {"type": "node", "id": 13046986276, "lat": 46.3937201, "lon": -105.8213302}, {"type": "node", "id": 13046986277, "lat": 46.3937201, "lon": -105.8215187}, {"type": "node", "id": 13046986278, "lat": 46.3937582, "lon": -105.8215188}, {"type": "node", "id": 13046986279, "lat": 46.3937582, "lon": -105.8215723}, {"type": "node", "id": 13047627460, "lat": 46.3966753, "lon": -105.8232046}, {"type": "node", "id": 13047627461, "lat": 46.3966749, "lon": -105.8232582}, {"type": "node", "id": 13047627462, "lat": 46.3966326, "lon": -105.8232582}, {"type": "node", "id": 13047627463, "lat": 46.3966321, "lon": -105.8232036}, {"type": "node", "id": 13057258003, "lat": 46.3913426, "lon": -105.8239571}, {"type": "node", "id": 13057258004, "lat": 46.3911243, "lon": -105.823959}, {"type": "node", "id": 13057258005, "lat": 46.3911249, "lon": -105.8235775}, {"type": "node", "id": 13057258006, "lat": 46.3913426, "lon": -105.8235784}, {"type": "node", "id": 13057538400, "lat": 46.3908632, "lon": -105.8233923, "tags": {"addr:city": "Miles City", "addr:housenumber": "1815", "addr:postcode": "58301-5835", "addr:state": "MT", "addr:street": "South Haynes Avenue", "name": "Cenex ZipTrip LPG", "opening_hours": "24/7", "phone": "+1-406-232-4553", "shop": "gas"}}, {"type": "node", "id": 13060913946, "lat": 46.39538, "lon": -105.8234341}, {"type": "node", "id": 13060913947, "lat": 46.3956696, "lon": -105.8234384}, {"type": "node", "id": 13060913948, "lat": 46.3956677, "lon": -105.8237019}, {"type": "node", "id": 13060913949, "lat": 46.3953781, "lon": -105.8236975}, {"type": "node", "id": 13060936045, "lat": 46.3954089, "lon": -105.8235748, "tags": {"addr:city": "Miles City", "addr:housenumber": "1321", "addr:postcode": "59301-5733", "addr:state": "MT", "addr:street": "South Haynes Avenue", "amenity": "cafe", "cuisine": "coffee_shop", "name": "Mountain Mudd Espresso", "opening_hours": "Mo-Su 05:30-20:00", "phone": "+1-406-225-5657", "website": "https://www.mtnmudd.com"}}, {"type": "node", "id": 13073413608, "lat": 46.3864262, "lon": -105.8198039}, {"type": "node", "id": 13073413609, "lat": 46.3851505, "lon": -105.8197961}, {"type": "node", "id": 13073413610, "lat": 46.3852042, "lon": -105.817476}, {"type": "node", "id": 13073413611, "lat": 46.3864409, "lon": -105.8174733}, {"type": "node", "id": 13073438061, "lat": 46.3856349, "lon": -105.8193002}, {"type": "node", "id": 13073438062, "lat": 46.3855196, "lon": -105.8192999}, {"type": "node", "id": 13073438063, "lat": 46.3855217, "lon": -105.8187604}, {"type": "node", "id": 13073438064, "lat": 46.3856342, "lon": -105.8187601}, {"type": "node", "id": 13073438089, "lat": 46.3855402, "lon": -105.8192694, "tags": {"addr:city": "Miles City", "addr:housenumber": "10", "addr:postcode": "59301", "addr:state": "MT", "addr:street": "South Tractor Avenue", "brand": "U-Haul", "brand:wikidata": "Q7862902", "name": "U-Haul", "opening_hours": "Mo-Sa 08:00-17:00", "operator": "Horizon Storage", "phone": "+1-406-232-0007", "shop": "rental", "website": "https://www.uhaul.com/Locations/Truck-Rentals-near-Miles-City-MT-59301/011605/"}}, {"type": "node", "id": 13073623781, "lat": 46.3839693, "lon": -105.8173946}, {"type": "node", "id": 13073623782, "lat": 46.3830508, "lon": -105.817381}, {"type": "node", "id": 13073623783, "lat": 46.3830377, "lon": -105.8166854}, {"type": "node", "id": 13073623784, "lat": 46.3839749, "lon": -105.8166777}, {"type": "node", "id": 13075463998, "lat": 46.3834656, "lon": -105.8216674, "tags": {"addr:city": "Miles City", "addr:housenumber": "2712", "addr:postcode": "59301-5838", "addr:state": "MT", "addr:street": "South Haynes Avenue", "name": "Odinborn Precision Firearms", "opening_hours": "Tu-Fr 09:00-18:00; Sa 10:00-16:00", "operator": "Odinborn Precision Firearms, LLC", "phone": "+1-406-233-9944", "shop": "weapons", "website": "https://odinborn.com"}}, {"type": "node", "id": 13075468019, "lat": 46.3835746, "lon": -105.821737}, {"type": "node", "id": 13075468020, "lat": 46.3832165, "lon": -105.8217427}, {"type": "node", "id": 13075468021, "lat": 46.3832165, "lon": -105.8214041}, {"type": "node", "id": 13075468022, "lat": 46.383572, "lon": -105.8214022}, {"type": "node", "id": 13076379075, "lat": 46.3848049, "lon": -105.8235115}, {"type": "node", "id": 13076379076, "lat": 46.3845882, "lon": -105.8235113}, {"type": "node", "id": 13076379077, "lat": 46.3845885, "lon": -105.8229582}, {"type": "node", "id": 13076379078, "lat": 46.3848531, "lon": -105.8229585}, {"type": "node", "id": 13076379079, "lat": 46.3848529, "lon": -105.8233557}, {"type": "node", "id": 13076379080, "lat": 46.3848049, "lon": -105.8233556}, {"type": "node", "id": 13076434872, "lat": 46.3864316, "lon": -105.8231662}, {"type": "node", "id": 13076434873, "lat": 46.3861345, "lon": -105.8231699}, {"type": "node", "id": 13076434874, "lat": 46.3861345, "lon": -105.8237286}, {"type": "node", "id": 13076434875, "lat": 46.3863288, "lon": -105.8237242}, {"type": "node", "id": 13076434876, "lat": 46.3863282, "lon": -105.8238591}, {"type": "node", "id": 13076434877, "lat": 46.3864082, "lon": -105.8238565}, {"type": "node", "id": 13076434878, "lat": 46.3864066, "lon": -105.8237267}, {"type": "node", "id": 13076434879, "lat": 46.3864314, "lon": -105.8237254}, {"type": "way", "id": 334108405, "nodes": [3412015428, 3412015411, 3412015447, 3412015420, 3412015422, 3412015404, 3412015405, 3412015432, 3412015428], "tags": {"amenity": "restaurant", "building": "yes", "cuisine": "chinese", "name": "New Hunan Restaurant"}}, {"type": "way", "id": 334201798, "nodes": [3413007919, 3413008115, 3413007933, 3413007968, 3413007919], "tags": {"addr:city": "Miles City", "addr:housenumber": "1115", "addr:postcode": "59301-5729", "addr:state": "MT", "addr:street": "South Haynes Avenue", "building": "yes", "name": "Express Laundry Center", "opening_hours": "24/7", "phone": "+1-406-234-2424", "shop": "laundry", "website": "https://expresslaundrymc.com"}}, {"type": "way", "id": 334201804, "nodes": [3413008100, 13043466803, 13043466802, 3413007912, 3413007952, 13043466815, 13043466814, 13043466813, 13043466812, 3413007931, 13043466811, 13043466810, 13043466809, 13043466808, 13043466804, 13043466805, 13043466806, 13043466807, 3413008100], "tags": {"addr:city": "Miles City", "addr:housenumber": "1210", "addr:postcode": "59301-5730", "addr:state": "MT", "addr:street": "South Haynes Avenue", "brand": "Town Pump", "brand:wikidata": "Q7830004", "building": "yes", "name": "Town Pump", "opening_hours": "24/7", "phone": "+1-406-232-2582", "shop": "convenience", "website": "https://locations.pilotflyingj.com/us/mt/miles-city/1210-south-haynes"}}, {"type": "way", "id": 334201805, "nodes": [3413007944, 3413007971, 3413007979, 3413007946, 12779950237, 3413007922, 3413007984, 3413007944], "tags": {"addr:city": "Miles City", "addr:housenumber": "611", "addr:state": "MT", "addr:street": "South Haynes Avenue", "addr:unit": "59301-4770", "building": "yes", "name": "Steadman's Ace Hardware", "opening_hours": "Mo-Sa 08:00-18:00; Su 13:00-17:00", "phone": "+1-406-234-4168", "shop": "hardware", "website": "https://milescityachttps://milescityacehardware.com"}}, {"type": "way", "id": 334201807, "nodes": [3413007934, 3413007897, 3413008096, 3413007957, 3413007974, 3413007992, 3413007975, 3413007961, 3413008097, 13047627463, 13047627462, 13047627461, 13047627460, 3413007934], "tags": {"addr:city": "Miles City", "addr:housenumber": "1215", "addr:postcode": "59301-5731", "addr:state": "MT", "addr:street": "South Haynes Avenue", "alt_name": "Gallagher's Family Restaurant", "amenity": "restaurant", "building": "commercial", "cuisine": "american;breakfast", "name": "Gallagher's Game Time Grill", "opening_hours": "Su-Th 06:00-21:00; Fr-Sa 06:00-22:00", "phone": "+1-406-232-0099", "short_name": "Gallagher's", "takeaway": "yes"}}, {"type": "way", "id": 334201808, "nodes": [3413007930, 3413007982, 13018543682, 13018543681, 13018543680, 13019628057, 3412999583, 3413007910, 3412999580, 3413007932, 3413007930], "tags": {"addr:city": "Miles City", "addr:housenumber": "700", "addr:postcode": "59301-4771", "addr:state": "MT", "addr:street": "South Haynes Avenue", "building": "yes", "name": "Red Rock Sporting Goods", "phone": "+1-406-232-2716", "shop": "sports"}}, {"type": "way", "id": 334201815, "nodes": [3413007904, 3413007959, 3413007983, 3413008112, 3413007977, 3413007895, 3413007904], "tags": {"addr:city": "Miles City", "addr:housenumber": "1308", "addr:postcode": "59301-5756", "addr:state": "MT", "addr:street": "South Haynes Avenue", "alt_name": "Snack Shoppe", "brand": "Conoco", "brand:wikidata": "Q109341187", "building": "yes", "name": "Conoco", "official_name": "Frank's Quik Stop Conoco", "phone": "+1-406-232-7006", "reg_name": "Quik Stop Conoco", "shop": "convenience", "website": "https://www.conoco.com/station/con-franks-quick-stop-llc-0000881685/"}}, {"type": "way", "id": 334203216, "nodes": [3413017166, 3413017169, 3413017151, 3413017178, 3413017179, 3413017177, 3413017172, 3413017160, 3413017173, 3413017161, 3413017145, 3413017171, 3413017164, 3413017155, 3413017176, 3413017149, 3413017146, 3413017148, 3413017156, 3413017158, 3413017166], "tags": {"addr:city": "Miles City", "addr:country": "US", "addr:housenumber": "3205", "addr:postcode": "59301-5785", "addr:state": "MT", "addr:street": "Stower Street", "brand": "Walmart", "brand:wikidata": "Q483551", "building": "retail", "name": "Walmart Supercenter", "opening_hours": "Mo-Su 06:00-23:00", "operator": "Walmart", "payment:app:walmart": "yes", "payment:apple_pay": "no", "payment:google_pay": "no", "payment:samsung_pay": "no", "phone": "+1 406-232-0022", "ref": "2608", "ref:walmart": "2608", "sensory_friendly:accommodation": "dimmed_light;static_screens;no_pa", "sensory_friendly:conditional": "yes @ 08:00-10:00", "shop": "supermarket", "website": "https://www.walmart.com/store/2608-miles-city-mt"}}, {"type": "way", "id": 334203217, "nodes": [3413017157, 3413017175, 3413017165, 3413017152, 3413017157], "tags": {"addr:city": "Miles City", "addr:housenumber": "3009", "addr:postcode": "59301", "addr:state": "MT", "addr:street": "Stower", "amenity": "restaurant", "brand": "Pizza Hut", "brand:wikidata": "Q191615", "building": "yes", "cuisine": "pizza", "name": "Pizza Hut", "phone": "+1 406-232-6130", "website": "https://locations.pizzahut.com/mt/miles-city/3009-stower"}}, {"type": "way", "id": 1380446569, "nodes": [12779950229, 12779950230, 12779950231, 12779950232, 13032541604, 13032541605, 13032541606, 13032541607, 12779950233, 12779950234, 12779950235, 12779950236, 13032541608, 13032541609, 13032541610, 13032541611, 12779950229], "tags": {"addr:city": "Miles City", "addr:housenumber": "519", "addr:postcode": "59301-4768", "addr:state": "MT", "addr:street": "South Haynes Avenue", "brand": "Albertsons", "brand:wikidata": "Q2831861", "building": "yes", "name": "Albertsons", "opening_hours": "Mo-Su 07:00-22:00", "phone": "+1-406-232-2580", "shop": "supermarket", "website": "https://local.albertsons.com/mt/miles-city/519-s-haynes-ave.html"}}, {"type": "way", "id": 1410849701, "nodes": [12963991512, 12963991513, 12963991514, 12963991515, 12963991516, 12963991517, 12963991512], "tags": {"addr:city": "Miles City", "addr:housenumber": "405", "addr:postcode": "59301", "addr:state": "MT", "addr:street": "South Haynes Avenue", "building": "yes", "name": "Frank's Body Shop & Auto Sales / American Lube", "phone": "+1-406-234-1206", "service:vehicle:body_repair": "yes", "service:vehicle:car_repair": "yes", "service:vehicle:oil_change": "yes", "service:vehicle:used_car_sales": "yes", "shop": "car_repair"}}, {"type": "way", "id": 1413204800, "nodes": [12987204887, 12987204888, 12987204889, 12987204894, 12987204890, 12987204891, 12987204892, 12987204893, 12987204887], "tags": {"addr:city": "Miles City", "addr:housenumber": "710", "addr:postcode": "59301-5791", "addr:state": "MT", "addr:street": "Meadows Drive", "brand": "Chevrolet", "brand:wikidata": "Q29570", "building": "yes", "name": "Chevrolet", "operator": "Notbohm Motors", "phone": "+1-406-234-4480", "second_hand": "yes", "service:vehicle:car_parts": "yes", "service:vehicle:car_repair": "yes", "service:vehicle:diagnostics": "yes", "service:vehicle:new_car_sales": "yes", "service:vehicle:used_car_sales": "yes", "shop": "car", "website": "https://www.notbohmmotors.com/"}}, {"type": "way", "id": 1413205630, "nodes": [12987257438, 12987257439, 12987257440, 12987257441, 12987257442, 12987257443, 12987257444, 12987257445, 12987257446, 12987257447, 12987257438], "tags": {"addr:city": "Miles City", "addr:housenumber": "620", "addr:postcode": "59301-5787", "addr:state": "MT", "addr:street": "Meadows Drive", "building": "yes", "name": "Murdoch's Ranch & Home Supply", "operator": "Murdoch's", "phone": "+1-406-232-3422", "shop": "department_store", "website": "https://www.murdochs.com/stores/miles-city/"}}, {"type": "way", "id": 1416039923, "nodes": [13013120104, 13013120105, 13013120106, 13013120107, 13013120104], "tags": {"addr:city": "Miles City", "addr:housenumber": "719", "addr:postcode": "59301-4772", "addr:state": "MT", "addr:street": "South Haynes Avenue", "amenity": "cafe", "building": "yes", "cuisine": "coffee_shop", "drive_through": "yes", "internet_access": "yes", "internet_access:fee": "no", "name": "City Brew Coffeee", "opening_hours": "Mo-Su 05:30-21:00", "outdoor_seating": "yes", "phone": "+1-406-234-6106", "website": "https://citybrew.com/"}}, {"type": "way", "id": 1416181680, "nodes": [13014334855, 13014334856, 13014334857, 13014334858, 13014334859, 13014334860, 13014334861, 13014334862, 13014334855], "tags": {"addr:city": "Miles City", "addr:housenumber": "2911", "addr:postcode": "59301-8526", "addr:state": "MT", "addr:street": "Mallet Lane", "building": "yes", "name": "Jack's Auto Sales", "phone": "+1-406-234-5225", "second_hand": "only", "shop": "car", "website": "https://www.jacksautosalesmilescity.com/"}}, {"type": "way", "id": 1416182544, "nodes": [13014398331, 13014398332, 13026018097, 13026018095, 13026018094, 13026018096, 13014398333, 13014398334, 13014398331], "tags": {"addr:city": "Miles City", "addr:housenumber": "220", "addr:postcode": "59301", "addr:state": "MT", "addr:street": "Roger Lane", "brand": "Les Schwab Tire Center", "brand:wikidata": "Q6529977", "building": "yes", "layer": "1", "name": "Les Schwab Tire Center", "phone": "+1-406-233-6083", "shop": "tyres", "website": "https://www.lesschwab.com/stores/mt/miles-city/220-roger-ln"}}, {"type": "way", "id": 1416473331, "nodes": [13016825488, 13016825489, 13018331724, 13016825490, 13016825491, 13016825492, 13016825493, 13016825499, 13016825494, 13016825495, 13016825498, 13016825496, 13016825497, 13018305798, 13016825488], "tags": {"layer": "-1", "name": "Mathis Square", "shop": "mall"}}, {"type": "way", "id": 1416882880, "nodes": [13020115128, 13020115129, 13020115130, 13020115131, 13020115132, 13020115133, 13020115134, 13020115135, 13020115128], "tags": {"addr:city": "Miles City", "addr:housenumber": "3200", "addr:postcode": "59301-5748", "addr:state": "MT", "addr:street": "Comstock Street", "brand": "Point S", "brand:wikidata": "Q3393358", "building": "yes", "name": "Rolling Rubber Point S Tire & Auto Service", "operator": "Rolling Rubber", "phone": "+1-406-874-8473", "service:vehicle:alignment": "yes", "service:vehicle:car_repair": "yes", "service:vehicle:tyres": "yes", "service:vehicle:wheels": "yes", "shop": "car_repair", "website": "https://gillspointstire.com/locations/3200-comstock-st-tire-store-429"}}, {"type": "way", "id": 1416896912, "nodes": [13020259981, 13020259982, 13020259983, 13020259984, 13020259981], "tags": {"building": "yes", "shop": "storage_rental"}}, {"type": "way", "id": 1416896913, "nodes": [13020259985, 13020259986, 13020259987, 13020259988, 13020259985], "tags": {"building": "yes", "shop": "storage_rental"}}, {"type": "way", "id": 1416897716, "nodes": [13020263570, 13020263571, 13020263572, 13020263573, 13020263570], "tags": {"addr:city": "Miles City", "addr:housenumber": "710", "addr:postcode": "59301-5791", "addr:state": "MT", "addr:street": "Meadows Drive", "brand": "Chevrolet", "brand:wikidata": "Q29570", "building": "yes", "name": "Notbohm Chevrolet Quick Lube Center", "operator": "Notbohm Motors", "phone": "+1-406-234-4480", "service:vehicle:oil_change": "yes", "shop": "car_repair"}}, {"type": "way", "id": 1417666621, "nodes": [13027858046, 13027858047, 13027858048, 13027858049, 13027858046], "tags": {"addr:city": "Miles City", "addr:housenumber": "820", "addr:postcode": "59301-5766", "addr:state": "MT", "addr:street": "South Haynes Avenue", "building": "yes", "shop": "storage_rental"}}, {"type": "way", "id": 1417666735, "nodes": [13027863031, 13027863032, 13027863033, 13027863034, 13027863031], "tags": {"addr:city": "Miles City", "addr:housenumber": "805", "addr:postcode": "59301-5766", "addr:state": "MT", "addr:street": "South Haynes Avenue", "building": "yes", "name": "Auto Advantage", "phone": "+1-406-234-8265", "second_hand": "only", "shop": "car", "website": "https://www.autoadvantagemilescity.com"}}, {"type": "way", "id": 1417969246, "nodes": [13030670321, 13030670322, 13030670328, 13030670325, 13030670326, 13030670327, 13030670323, 13030670324, 13030670321], "tags": {"addr:city": "Miles City", "addr:housenumber": "3220", "addr:postcode": "59301-5761", "addr:state": "MT", "addr:street": "Love Street", "building": "yes", "name": "Les's Repair", "opening_hours": "Mo-Fr 09:00-18:00", "phone": "+1-406-234-4701", "shop": "car_repair"}}, {"type": "way", "id": 1417969423, "nodes": [13030682052, 13030682053, 13030682054, 13030682055, 13030682052], "tags": {"addr:city": "Miles City", "addr:housenumber": "3220", "addr:postcode": "59301-5761", "addr:state": "MT", "addr:street": "Love Street", "building": "yes", "name": "Les's Repair", "opening_hours": "Mo-Fr 09:00-18:00", "phone": "+1-406-234-4701", "shop": "car_repair"}}, {"type": "way", "id": 1417969494, "nodes": [13030680294, 13030680295, 13030680296, 13030680297, 13030680294], "tags": {"addr:city": "Miles City", "addr:housenumber": "3220", "addr:postcode": "59301-5761", "addr:state": "MT", "addr:street": "Love Street", "building": "yes", "name": "S&L Storage", "phone": "+1-406-234-4873", "shop": "storage_rental"}}, {"type": "way", "id": 1417969495, "nodes": [13030680298, 13030680299, 13030680300, 13030707401, 13030680298], "tags": {"addr:city": "Miles City", "addr:housenumber": "3220", "addr:postcode": "59301-5761", "addr:state": "MT", "addr:street": "Love Street", "building": "yes", "name": "S&L Storage", "phone": "+1-406-234-4873", "shop": "storage_rental"}}, {"type": "way", "id": 1419755882, "nodes": [13046986264, 13046986265, 13046986266, 13046986267, 13046986268, 13046986269, 13046986270, 13046986271, 13046986272, 13046986273, 13046986274, 13046986275, 13046986276, 13046986277, 13046986278, 13046986279, 13046986264], "tags": {"addr:city": "Miles City", "addr:housenumber": "3105", "addr:postcode": "59301", "addr:state": "MT", "addr:street": "Steel Street", "amenity": "restaurant", "bar": "yes", "building": "yes", "cuisine": "barbecue;steak_house;pizza;wings", "name": "Uncle Mike's BBQ & Grill", "opening_hours": "Tu-We 11:00-20:00; Th 11:00-21:00; Fr-Sa 11:00-22:00", "outdoor_seating": "yes", "phone": "+1-406-970-9529", "takeaway": "yes"}}, {"type": "way", "id": 1420853754, "nodes": [13057258003, 13057258004, 13057258005, 13057258006, 13057258003], "tags": {"addr:city": "Miles City", "addr:housenumber": "1815", "addr:postcode": "58301-5835", "addr:state": "MT", "addr:street": "South Haynes Avenue", "brand": "Cenex", "brand:wikidata": "Q62127191", "building": "yes", "name": "Cenex", "opening_hours": "24/7", "phone": "+1-406-232-4553", "shop": "convenience"}}, {"type": "way", "id": 1421261030, "nodes": [13060913946, 13060913947, 13060913948, 13060913949, 13060913946], "tags": {"addr:city": "Miles City", "addr:housenumber": "1321", "addr:postcode": "59301-5733", "addr:state": "MT", "addr:street": "South Haynes Avenue", "brand": "Cenex", "brand:wikidata": "Q62127191", "building": "yes", "name": "Cenex", "official_name": "Cenex Zip Trip", "opening_hours": "24/7", "operator": "Cenex Zip Trip", "phone": "+1-406-820-2121", "shop": "convenience", "website": "https://www.cenexziptrip.com"}}, {"type": "way", "id": 1422573982, "nodes": [13073413608, 13073413609, 13073413610, 13073413611, 13073413608], "tags": {"addr:city": "Miles City", "addr:housenumber": "10", "addr:postcode": "59301", "addr:state": "MT", "addr:street": "South Tractor Avenue", "landuse": "commercial", "name": "Horizon Self-Storage", "phone": "+1-406-234-6066", "shop": "storage_rental"}}, {"type": "way", "id": 1422574969, "nodes": [13073438061, 13073438062, 13073438063, 13073438064, 13073438061], "tags": {"addr:city": "Miles City", "addr:housenumber": "10", "addr:postcode": "59301", "addr:state": "MT", "addr:street": "South Tractor Avenue", "building": "warehouse", "name": "Horizon Storage Office", "office": "yes", "opening_hours": "Mo-Sa 08:00-17:00", "phone": "+1-406-234-6066"}}, {"type": "way", "id": 1422594702, "nodes": [13073623781, 13073623782, 13073623783, 13073623784, 13073623781], "tags": {"addr:city": "Miles City", "addr:housenumber": "501", "addr:postcode": "59301", "addr:state": "MT", "addr:street": "Parkhill Drive", "landuse": "commercial", "name": "Southgate Storage", "shop": "storage_rental"}}, {"type": "way", "id": 1422784582, "nodes": [13075468019, 13075468020, 13075468021, 13075468022, 13075468019], "tags": {"addr:city": "Miles City", "addr:housenumber": "2712", "addr:postcode": "59301-5838", "addr:state": "MT", "addr:street": "South Haynes Avenue", "building": "commercial", "name": "EMS Truck Repair and Heavy Towing", "opening_hours": "24/7", "phone": "+1-406-234-8766", "shop": "car_repair", "smoking": "separated", "website": "https://www.emsfixit.com"}}, {"type": "way", "id": 1422888793, "nodes": [13076379075, 13076379076, 13076379077, 13076379078, 13076379079, 13076379080, 13076379075], "tags": {"addr:city": "Miles City", "addr:housenumber": "2514", "addr:postcode": "59301-5825", "addr:state": "MT", "addr:street": "South Haynes Avenue", "brand": "John Deere", "brand:wikidata": "Q496302", "building": "yes", "name": "John Deere", "opening_hours": "Mo-Fr 08:00-17:00; Sa 08:00-12:00", "operator": "C&B Operations LLC", "phone": "+1-406-232-3211", "shop": "trade", "trade": "agricultural_equipment", "website": "https://www.deerequipment.com/locations/miles_city/"}}, {"type": "way", "id": 1422898454, "nodes": [13076434872, 13076434873, 13076434874, 13076434875, 13076434876, 13076434877, 13076434878, 13076434879, 13076434872], "tags": {"addr:city": "Miles City", "addr:housenumber": "2323", "addr:postcode": "58301-5806", "addr:state": "MT", "addr:street": "South Haynes Avenue", "brand": "BearTracker;Can-Am;G3;Honda;;Kawasaki;KingFisher;Midsota;Polaris;Sea-Doo;Suncatcher;Yamaha;", "building": "yes", "name": "Riverside Marine & Cycle", "opening_hours": "Mo-Fr 08:30-17:30; Sa 08:30-16:00; Su 13:00-16:00", "phone": "+1-406-232-3300", "shop": "boat", "website": "https://www.rmcmilescity.com"}}]}