{"version": 0.6, "generator": "Overpass API 0.7.62.8 e802775f", "osm3s": {"timestamp_osm_base": "2025-12-13T00:26:11Z", "copyright": "The data included in this document is from www.openstreetmap.org. The data is made available under ODbL."}, "elements": [{"type": "node", "id": 5057441916, "lat": 38.9390081, "lon": -104.7975875, "tags": {"addr:city": "Colorado Springs", "addr:housenumber": "7469", "addr:postcode": "80920", "addr:state": "CO", "addr:street": "North Academy Boulevard", "brand": "Orangetheory Fitness", "brand:wikidata": "Q25005163", "leisure": "fitness_centre", "name": "Orangetheory Fitness", "phone": "+1 719-204-4442", "ref": "1978"}}, {"type": "node", "id": 5070450487, "lat": 38.9270757, "lon": -104.7928132, "tags": {"addr:city": "Colorado Springs", "addr:country": "US", "addr:housenumber": "6551", "addr:postcode": "80918", "addr:state": "CO", "addr:street": "North Academy Boulevard", "leisure": "fitness_centre", "name": "Bio Adapt Fit"}}, {"type": "node", "id": 7201819475, "lat": 38.9242091, "lon": -104.7928204, "tags": {"addr:city": "Colorado Springs", "addr:housenumber": "1834", "addr:postcode": "80918", "addr:state": "CO", "addr:street": "Dominion Way", "check_date": "2025-12-06", "leisure": "fitness_centre", "name": "JAKTMuscle Training Facility", "phone": "+1-719-203-5538", "website": "http://www.jaktmuscle.com/"}}, {"type": "node", "id": 10689427074, "lat": 38.9313665, "lon": -104.806588, "tags": {"brand": "Planet Fitness", "brand:wikidata": "Q7201095", "leisure": "fitness_centre", "name": "Planet Fitness", "opening_hours": "24/7", "phone": "+1-719-600-5999", "website": "https://www.planetfitness.com/gyms/colorado-springs-e-woodmen-rd-co"}}, {"type": "node", "id": 10824753112, "lat": 38.9270587, "lon": -104.8307364, "tags": {"leisure": "fitness_centre", "name": "Bad and Boozy Yoga Studio", "sport": "yoga"}}, {"type": "node", "id": 11375605752, "lat": 38.9454919, "lon": -104.8024089, "tags": {"addr:city": "Colorado Springs", "addr:housenumber": "1424", "addr:postcode": "80920", "addr:state": "CO", "addr:street": "Kelly Johnson Boulevard", "leisure": "fitness_centre", "name": "Prime BJJ", "sport": "jiu-jitsu"}}, {"type": "node", "id": 13310426508, "lat": 38.9406556, "lon": -104.7979835, "tags": {"addr:city": "Colorado Springs", "addr:housenumber": "7587", "addr:postcode": "80920", "addr:state": "CO", "addr:street": "North Academy Boulevard", "addr:unit": "110", "brand": "Starting Strength Gyms", "brand:wikidata": "Q110761553", "check_date": "2025-11-16", "leisure": "fitness_centre", "name": "Starting Strength", "phone": "+1-719-888-3532", "website": "https://www.startingstrengthgyms.com/cosprings/"}}]}