{"version": 0.6, "generator": "Overpass API 0.7.62.8 e802775f", "osm3s": {"timestamp_osm_base": "2025-12-06T05:22:42Z", "copyright": "The data included in this document is from www.openstreetmap.org. The data is made available under ODbL."}, "elements": [{"type": "node", "id": 10252302221, "lat": 47.732269, "lon": -116.7911399, "tags": {"addr:city": "Coeur d\u2019Alene", "addr:housenumber": "200", "addr:postcode": "83815", "addr:state": "ID", "addr:street": "West Canfield Avenue", "brand": "Planet Fitness", "brand:wikidata": "Q7201095", "leisure": "fitness_centre", "name": "Planet Fitness", "opening_hours": "24/7"}}, {"type": "node", "id": 11049703976, "lat": 47.7284959, "lon": -116.7905368}, {"type": "node", "id": 11049703977, "lat": 47.7287709, "lon": -116.7905404}, {"type": "node", "id": 11049703978, "lat": 47.728768, "lon": -116.7910385}, {"type": "node", "id": 11049703979, "lat": 47.728493, "lon": -116.7910349}, {"type": "node", "id": 11054193885, "lat": 47.7324481, "lon": -116.7864019, "tags": {"leisure": "fitness_centre", "name": "Christian Karate Association", "sport": "karate"}}, {"type": "node", "id": 11054194016, "lat": 47.7340592, "lon": -116.7855537, "tags": {"leisure": "fitness_centre", "name": "Upnorth Fitness"}}, {"type": "node", "id": 11244001419, "lat": 47.7296652, "lon": -116.7843502}, {"type": "node", "id": 11244001420, "lat": 47.7293528, "lon": -116.784339}, {"type": "node", "id": 11244001421, "lat": 47.729351, "lon": -116.7844552}, {"type": "node", "id": 11244001422, "lat": 47.7294725, "lon": -116.7844595}, {"type": "node", "id": 11244001423, "lat": 47.7294711, "lon": -116.7845405}, {"type": "node", "id": 11244001424, "lat": 47.729662, "lon": -116.7845473}, {"type": "way", "id": 1190017622, "nodes": [11049703976, 11049703977, 11049703978, 11049703979, 11049703976], "tags": {"building": "yes", "leisure": "sports_hall", "name": "Avant Coeur Gymnastics"}}, {"type": "way", "id": 1213639771, "nodes": [11244001419, 11244001420, 11244001421, 11244001422, 11244001423, 11244001424, 11244001419], "tags": {"building": "yes", "leisure": "fitness_centre", "name": "Wildland CrossFit"}}]}