{"version": 0.6, "generator": "Overpass API 0.7.62.8 e802775f", "osm3s": {"timestamp_osm_base": "2025-12-06T06:11:08Z", "copyright": "The data included in this document is from www.openstreetmap.org. The data is made available under ODbL."}, "elements": [{"type": "node", "id": 360422316, "lat": 43.617929, "lon": -116.2002675}, {"type": "node", "id": 360422317, "lat": 43.6179395, "lon": -116.2002882}, {"type": "node", "id": 360422318, "lat": 43.6181043, "lon": -116.200103}, {"type": "node", "id": 360423571, "lat": 43.6181522, "lon": -116.200057}, {"type": "node", "id": 360423572, "lat": 43.6180333, "lon": -116.1998227}, {"type": "node", "id": 360423573, "lat": 43.618006, "lon": -116.1998492}, {"type": "node", "id": 360423579, "lat": 43.6180727, "lon": -116.199615}, {"type": "node", "id": 360423580, "lat": 43.6179276, "lon": -116.1993259}, {"type": "node", "id": 360423583, "lat": 43.6178032, "lon": -116.1994482}, {"type": "node", "id": 360423584, "lat": 43.617749, "lon": -116.1993361}, {"type": "node", "id": 360423585, "lat": 43.617778, "lon": -116.1993081}, {"type": "node", "id": 360423594, "lat": 43.617431, "lon": -116.1992859}, {"type": "node", "id": 360423596, "lat": 43.6173854, "lon": -116.1993299}, {"type": "node", "id": 360423598, "lat": 43.6175079, "lon": -116.1995693}, {"type": "node", "id": 360423599, "lat": 43.6175378, "lon": -116.1995405}, {"type": "node", "id": 360423601, "lat": 43.6177941, "lon": -116.200051}, {"type": "node", "id": 360423602, "lat": 43.617768, "lon": -116.200076}, {"type": "node", "id": 1183476169, "lat": 43.6136241, "lon": -116.2068342, "tags": {"addr:city": "Boise", "addr:housenumber": "855", "addr:postcode": "83702", "addr:state": "ID", "addr:street": "West Broad Street", "addr:unit": "203", "amenity": "restaurant", "brand": "Bonefish Grill", "brand:wikidata": "Q4941599", "cuisine": "seafood", "ele": "822", "name": "Bonefish Grill", "source": "collected by Volker Bartheld, converted and imported by malenki"}}, {"type": "node", "id": 1891952693, "lat": 43.6138649, "lon": -116.2019956, "tags": {"amenity": "restaurant", "cuisine": "basque", "name": "Leku Ona"}}, {"type": "node", "id": 2012535781, "lat": 43.6170404, "lon": -116.2071545, "tags": {"addr:city": "Boise", "addr:housenumber": "106", "addr:postcode": "83702", "addr:state": "ID", "addr:street": "South 11th Street", "designation": "Skateboard Shop", "name": "Prestige Skateboards", "shop": "clothes", "website": "https://www.prestigeskateboards.com/"}}, {"type": "node", "id": 2012535784, "lat": 43.6002432, "lon": -116.1937957, "tags": {"addr:city": "Boise", "addr:housenumber": "1021", "addr:postcode": "83706", "addr:state": "ID", "addr:street": "South Broadway Avenue", "designation": "skateboard shop", "name": "Newt & Harolds", "shop": "clothes"}}, {"type": "node", "id": 2383763406, "lat": 43.6000739, "lon": -116.1939417}, {"type": "node", "id": 2383763410, "lat": 43.5999914, "lon": -116.1937599}, {"type": "node", "id": 2383763412, "lat": 43.6000733, "lon": -116.1937593}, {"type": "node", "id": 2383763414, "lat": 43.5999018, "lon": -116.1939249}, {"type": "node", "id": 2383763416, "lat": 43.5999921, "lon": -116.1939234}, {"type": "node", "id": 2383763418, "lat": 43.5999004, "lon": -116.1937614}, {"type": "node", "id": 2383763433, "lat": 43.6008626, "lon": -116.1942148}, {"type": "node", "id": 2383763435, "lat": 43.6007079, "lon": -116.1942165}, {"type": "node", "id": 2383763437, "lat": 43.6007072, "lon": -116.1940875}, {"type": "node", "id": 2383763439, "lat": 43.6008619, "lon": -116.1940858}, {"type": "node", "id": 2401842890, "lat": 43.6136364, "lon": -116.205708, "tags": {"addr:city": "Boise", "addr:housenumber": "391", "addr:postcode": "83702", "addr:state": "ID", "addr:street": "South 8th Street", "amenity": "restaurant", "brand": "P.F. Chang's", "brand:wikidata": "Q5360181", "cuisine": "asian", "name": "P.F. Chang's", "official_name": "P.F. Chang's China Bistro"}}, {"type": "node", "id": 2401842893, "lat": 43.6134332, "lon": -116.205304, "tags": {"addr:city": "Boise", "addr:housenumber": "794", "addr:postcode": "83702", "addr:state": "ID", "addr:street": "West Broad Street", "amenity": "cafe", "cuisine": "coffee_shop", "name": "Caffe D'Arte", "phone": "+1-208-343-2953"}}, {"type": "node", "id": 2401842903, "lat": 43.61331, "lon": -116.205197, "tags": {"addr:city": "Boise", "addr:housenumber": "778", "addr:postcode": "83702", "addr:state": "ID", "addr:street": "West Broad Street", "name": "Voxn Clothing", "shop": "clothes"}}, {"type": "node", "id": 2401852623, "lat": 43.6127651, "lon": -116.2047695, "tags": {"addr:city": "Boise", "addr:housenumber": "405", "addr:postcode": "83702", "addr:state": "ID", "addr:street": "South Capitol Boulevard", "amenity": "restaurant", "cuisine": "japanese", "name": "Yoi Tomo Sushi and Grill", "phone": "+1 208-344-3375", "reservation": "no", "website": "https://yoitomo.us/"}}, {"type": "node", "id": 2401896124, "lat": 43.6159845, "lon": -116.2039404}, {"type": "node", "id": 2401896130, "lat": 43.6161114, "lon": -116.2024796}, {"type": "node", "id": 2541928309, "lat": 43.6182685, "lon": -116.1979913}, {"type": "node", "id": 2541928310, "lat": 43.6179943, "lon": -116.19826}, {"type": "node", "id": 2541928311, "lat": 43.6183149, "lon": -116.1988867}, {"type": "node", "id": 2541928789, "lat": 43.616983, "lon": -116.1979539}, {"type": "node", "id": 2541928791, "lat": 43.6168154, "lon": -116.1977856}, {"type": "node", "id": 2541928794, "lat": 43.6169319, "lon": -116.1976754}, {"type": "node", "id": 2541928796, "lat": 43.6168699, "lon": -116.1975502}, {"type": "node", "id": 2541928799, "lat": 43.6166187, "lon": -116.1977902}, {"type": "node", "id": 2541928803, "lat": 43.6168773, "lon": -116.1983102}, {"type": "node", "id": 2542106221, "lat": 43.6167483, "lon": -116.1960634, "tags": {"name": "Idaho Health and Welfare", "office": "government"}}, {"type": "node", "id": 2542107473, "lat": 43.6166875, "lon": -116.195171, "tags": {"description": "Also houses the Idaho Commission on Aging.", "name": "Idaho Commission for the Blind and Visually Impaired", "office": "government", "phone": "+1-208-334-3220", "website": "http://www.icbvi.state.id.us/"}}, {"type": "node", "id": 2542118013, "lat": 43.6171275, "lon": -116.2022855, "tags": {"addr:city": "Boise", "addr:housenumber": "801", "addr:postcode": "83702", "addr:state": "ID", "addr:street": "West Bannock Street", "amenity": "restaurant", "cuisine": "mexican;asian;indian;american", "name": "tHe Funky tAco", "note": "Yes, that's the actual name, capitalization and all. Don't try to \"fix\" it.", "website": "https://www.thefunkytaco.com/"}}, {"type": "node", "id": 2542404397, "lat": 43.6169642, "lon": -116.2055134, "tags": {"addr:city": "Boise", "addr:housenumber": "104", "addr:postcode": "83702", "addr:state": "ID", "addr:street": "North 10th Street", "amenity": "bar", "name": "10th Street Station", "phone": "+1-208-344-2677"}}, {"type": "node", "id": 2542405733, "lat": 43.6134398, "lon": -116.2061958, "tags": {"addr:city": "Boise", "addr:housenumber": "405", "addr:postcode": "83702", "addr:state": "ID", "addr:street": "South 8th Street", "addr:unit": "100", "amenity": "restaurant", "name": "Solid Restaurant", "website": "http://solidboise.com"}}, {"type": "node", "id": 2542406810, "lat": 43.6133897, "lon": -116.2063218, "tags": {"amenity": "bar", "name": "Liquid Laughs Comedy Club"}}, {"type": "node", "id": 2544030411, "lat": 43.6167138, "lon": -116.1976908}, {"type": "node", "id": 2567156562, "lat": 43.6168782, "lon": -116.1963111, "tags": {"name": "Northwest Power Planning Council", "office": "government"}}, {"type": "node", "id": 2567161406, "lat": 43.6135124, "lon": -116.2065884, "tags": {"addr:city": "Boise", "addr:housenumber": "855", "addr:postcode": "83702", "addr:state": "ID", "addr:street": "West Broad Street", "addr:unit": "250", "amenity": "restaurant", "cuisine": "italian", "name": "Deluca's"}}, {"type": "node", "id": 2704214097, "lat": 43.6183151, "lon": -116.2068048}, {"type": "node", "id": 2704214098, "lat": 43.618037, "lon": -116.2070737}, {"type": "node", "id": 2704214100, "lat": 43.6181709, "lon": -116.2065173}, {"type": "node", "id": 3117833731, "lat": 43.6131322, "lon": -116.2034817}, {"type": "node", "id": 3117833732, "lat": 43.6128419, "lon": -116.2037559}, {"type": "node", "id": 3117833733, "lat": 43.6129565, "lon": -116.204086}, {"type": "node", "id": 3117833734, "lat": 43.6132375, "lon": -116.2038512}, {"type": "node", "id": 3655855981, "lat": 43.6094632, "lon": -116.1972333}, {"type": "node", "id": 3655855982, "lat": 43.6095054, "lon": -116.1973165}, {"type": "node", "id": 3655855983, "lat": 43.6086155, "lon": -116.1981729}, {"type": "node", "id": 3655855984, "lat": 43.6087155, "lon": -116.1980761}, {"type": "node", "id": 3655855985, "lat": 43.6094501, "lon": -116.19737}, {"type": "node", "id": 3655855986, "lat": 43.6090614, "lon": -116.198758}, {"type": "node", "id": 3655855987, "lat": 43.609825, "lon": -116.198109}, {"type": "node", "id": 3655855988, "lat": 43.6096418, "lon": -116.1981925}, {"type": "node", "id": 3655855989, "lat": 43.6097531, "lon": -116.1982511}, {"type": "node", "id": 3655855990, "lat": 43.6098172, "lon": -116.1981921}, {"type": "node", "id": 3655855991, "lat": 43.6092761, "lon": -116.1985502}, {"type": "node", "id": 3655855992, "lat": 43.609392, "lon": -116.1984341}, {"type": "node", "id": 3655855993, "lat": 43.6094686, "lon": -116.1985851}, {"type": "node", "id": 3655855994, "lat": 43.6093513, "lon": -116.1986985}, {"type": "node", "id": 3655857348, "lat": 43.6081754, "lon": -116.1948481}, {"type": "node", "id": 3655857349, "lat": 43.6082537, "lon": -116.1947726}, {"type": "node", "id": 3655857350, "lat": 43.6079978, "lon": -116.1942664}, {"type": "node", "id": 3655857351, "lat": 43.6080376, "lon": -116.1942281}, {"type": "node", "id": 3655857352, "lat": 43.6079723, "lon": -116.194099}, {"type": "node", "id": 3655857353, "lat": 43.6074801, "lon": -116.1945733}, {"type": "node", "id": 3655857354, "lat": 43.6079528, "lon": -116.1949534}, {"type": "node", "id": 3655864135, "lat": 43.60799, "lon": -116.1941339}, {"type": "node", "id": 3655864136, "lat": 43.6081207, "lon": -116.1947398}, {"type": "node", "id": 3902035430, "lat": 43.6148398, "lon": -116.1992929, "tags": {"addr:unit": "100", "amenity": "cafe", "name": "Flying M Coffeehouse", "phone": "+1-208-345-4320", "website": "https://www.flyingmcoffee.com/"}}, {"type": "node", "id": 3960786975, "lat": 43.6146863, "lon": -116.2032254}, {"type": "node", "id": 3960786976, "lat": 43.6147276, "lon": -116.2033075}, {"type": "node", "id": 3960786978, "lat": 43.6150475, "lon": -116.2032978}, {"type": "node", "id": 3960786979, "lat": 43.6150921, "lon": -116.202984}, {"type": "node", "id": 3960786980, "lat": 43.6150455, "lon": -116.2028793}, {"type": "node", "id": 3960786981, "lat": 43.6148261, "lon": -116.2028284}, {"type": "node", "id": 3960786982, "lat": 43.6147329, "lon": -116.2029169}, {"type": "node", "id": 4218593292, "lat": 43.6130372, "lon": -116.2055402, "tags": {"addr:city": "Boise", "addr:housenumber": "404", "addr:postcode": "83702", "addr:state": "ID", "addr:street": "South 8th Street", "amenity": "bar", "name": "Bodovino"}}, {"type": "node", "id": 4365167789, "lat": 43.6106527, "lon": -116.1993639}, {"type": "node", "id": 4391791528, "lat": 43.6165664, "lon": -116.1954103}, {"type": "node", "id": 4391791529, "lat": 43.6164988, "lon": -116.1952703}, {"type": "node", "id": 4391791530, "lat": 43.6162554, "lon": -116.1955063}, {"type": "node", "id": 4467349914, "lat": 43.6191925, "lon": -116.210037, "tags": {"addr:city": "Boise", "addr:housenumber": "1320", "addr:postcode": "83702", "addr:state": "ID", "addr:street": "West Main Street", "name": "Hurless Brothers Foreign Car Service", "phone": "+1-208-385-0200", "shop": "car_repair", "website": "https://hurlessbros.com/"}}, {"type": "node", "id": 4577804286, "lat": 43.6191498, "lon": -116.2034362}, {"type": "node", "id": 4577804489, "lat": 43.61892, "lon": -116.2029862}, {"type": "node", "id": 4709814627, "lat": 43.6198891, "lon": -116.2048483}, {"type": "node", "id": 4709814628, "lat": 43.6198866, "lon": -116.2048941}, {"type": "node", "id": 4709814629, "lat": 43.6199487, "lon": -116.2050152}, {"type": "node", "id": 4709814630, "lat": 43.6201062, "lon": -116.2046473}, {"type": "node", "id": 4709814631, "lat": 43.6201759, "lon": -116.2047918}, {"type": "node", "id": 4709825202, "lat": 43.615442, "lon": -116.1992993}, {"type": "node", "id": 4709825210, "lat": 43.6155587, "lon": -116.1991881}, {"type": "node", "id": 4709825216, "lat": 43.6156802, "lon": -116.1997622}, {"type": "node", "id": 4709825223, "lat": 43.6157914, "lon": -116.1996531}, {"type": "node", "id": 4846554921, "lat": 43.6128437, "lon": -116.1983791}, {"type": "node", "id": 4846554922, "lat": 43.61281, "lon": -116.1984047}, {"type": "node", "id": 4846554923, "lat": 43.6126521, "lon": -116.1980856}, {"type": "node", "id": 4846554924, "lat": 43.6126974, "lon": -116.1980407}, {"type": "node", "id": 4846554925, "lat": 43.6126045, "lon": -116.1978578}, {"type": "node", "id": 4846554926, "lat": 43.6124037, "lon": -116.1980578}, {"type": "node", "id": 4846554927, "lat": 43.6126277, "lon": -116.1985248}, {"type": "node", "id": 4846554928, "lat": 43.6125948, "lon": -116.1985532}, {"type": "node", "id": 4846554929, "lat": 43.6126853, "lon": -116.1987434}, {"type": "node", "id": 4846554930, "lat": 43.6127552, "lon": -116.1986796}, {"type": "node", "id": 4846554931, "lat": 43.6128487, "lon": -116.198857}, {"type": "node", "id": 4846554932, "lat": 43.612824, "lon": -116.198884}, {"type": "node", "id": 4846554933, "lat": 43.6128528, "lon": -116.1989408}, {"type": "node", "id": 4848489243, "lat": 43.6155795, "lon": -116.2065317}, {"type": "node", "id": 4848489288, "lat": 43.6162506, "lon": -116.2032082}, {"type": "node", "id": 4848489289, "lat": 43.6162867, "lon": -116.2032799}, {"type": "node", "id": 4848489293, "lat": 43.6164124, "lon": -116.2035296}, {"type": "node", "id": 4848489379, "lat": 43.616936, "lon": -116.2035787}, {"type": "node", "id": 4848489380, "lat": 43.6172113, "lon": -116.203313}, {"type": "node", "id": 4848489381, "lat": 43.6171349, "lon": -116.2031613}, {"type": "node", "id": 4848489383, "lat": 43.6167831, "lon": -116.2032752}, {"type": "node", "id": 4848489384, "lat": 43.6170253, "lon": -116.203041}, {"type": "node", "id": 4848489385, "lat": 43.6171018, "lon": -116.2031929}, {"type": "node", "id": 4848489418, "lat": 43.6158218, "lon": -116.2004642}, {"type": "node", "id": 4848489521, "lat": 43.6159373, "lon": -116.1998893}, {"type": "node", "id": 4848489522, "lat": 43.6156642, "lon": -116.2001548}, {"type": "node", "id": 4848489577, "lat": 43.6133177, "lon": -116.2025102}, {"type": "node", "id": 4848489579, "lat": 43.6134598, "lon": -116.202781}, {"type": "node", "id": 4848489580, "lat": 43.6135104, "lon": -116.2027303}, {"type": "node", "id": 4848489581, "lat": 43.6133314, "lon": -116.2023893}, {"type": "node", "id": 4848489630, "lat": 43.6099, "lon": -116.1952251}, {"type": "node", "id": 4848489631, "lat": 43.6104016, "lon": -116.1962945}, {"type": "node", "id": 4848489632, "lat": 43.6101214, "lon": -116.1965626}, {"type": "node", "id": 4848489633, "lat": 43.6096169, "lon": -116.1954785}, {"type": "node", "id": 4848489634, "lat": 43.6097938, "lon": -116.194999}, {"type": "node", "id": 4848489635, "lat": 43.6094403, "lon": -116.19422}, {"type": "node", "id": 4848489636, "lat": 43.6091426, "lon": -116.1944707}, {"type": "node", "id": 4848489637, "lat": 43.6095105, "lon": -116.1952699}, {"type": "node", "id": 4848489690, "lat": 43.6106163, "lon": -116.1936285}, {"type": "node", "id": 4848489691, "lat": 43.6106488, "lon": -116.1938517}, {"type": "node", "id": 4848489692, "lat": 43.6107621, "lon": -116.1938202}, {"type": "node", "id": 4848489752, "lat": 43.6179855, "lon": -116.2034081}, {"type": "node", "id": 4848489753, "lat": 43.6182612, "lon": -116.2031464}, {"type": "node", "id": 4848489755, "lat": 43.6179162, "lon": -116.2032687}, {"type": "node", "id": 4848489764, "lat": 43.618552, "lon": -116.2022663}, {"type": "node", "id": 4848489765, "lat": 43.6188167, "lon": -116.202007}, {"type": "node", "id": 4848489766, "lat": 43.6187388, "lon": -116.2018552}, {"type": "node", "id": 4848489769, "lat": 43.6190525, "lon": -116.2015481}, {"type": "node", "id": 4848489770, "lat": 43.6187798, "lon": -116.2018107}, {"type": "node", "id": 4848489842, "lat": 43.6213168, "lon": -116.2069312}, {"type": "node", "id": 4848489843, "lat": 43.6211918, "lon": -116.2070417}, {"type": "node", "id": 4848489844, "lat": 43.6213143, "lon": -116.2072851}, {"type": "node", "id": 4848489845, "lat": 43.621293, "lon": -116.2073075}, {"type": "node", "id": 4848489846, "lat": 43.6215642, "lon": -116.2078512}, {"type": "node", "id": 4848489848, "lat": 43.6226384, "lon": -116.2094255}, {"type": "node", "id": 4848489849, "lat": 43.6223388, "lon": -116.2097154}, {"type": "node", "id": 4848489850, "lat": 43.6226428, "lon": -116.2103311}, {"type": "node", "id": 4848489880, "lat": 43.625189, "lon": -116.20986}, {"type": "node", "id": 4848489881, "lat": 43.625426, "lon": -116.2096339}, {"type": "node", "id": 4848489882, "lat": 43.6249627, "lon": -116.2087129}, {"type": "node", "id": 4848489883, "lat": 43.624573, "lon": -116.2090873}, {"type": "node", "id": 4848489884, "lat": 43.6246554, "lon": -116.2092509}, {"type": "node", "id": 4848489885, "lat": 43.6246377, "lon": -116.2092678}, {"type": "node", "id": 4848489886, "lat": 43.6248957, "lon": -116.2097837}, {"type": "node", "id": 4848489887, "lat": 43.6249386, "lon": -116.2097427}, {"type": "node", "id": 4848489888, "lat": 43.6249846, "lon": -116.2098349}, {"type": "node", "id": 4848489957, "lat": 43.6188498, "lon": -116.2086295}, {"type": "node", "id": 4848489959, "lat": 43.6187835, "lon": -116.2077423}, {"type": "node", "id": 4848489960, "lat": 43.6185266, "lon": -116.2079899}, {"type": "node", "id": 4848489979, "lat": 43.6195106, "lon": -116.2069982}, {"type": "node", "id": 4848489980, "lat": 43.6196062, "lon": -116.2071868}, {"type": "node", "id": 4848489981, "lat": 43.6195847, "lon": -116.2072076}, {"type": "node", "id": 4848489982, "lat": 43.6196241, "lon": -116.2072851}, {"type": "node", "id": 4848489983, "lat": 43.6194376, "lon": -116.2074656}, {"type": "node", "id": 4848490101, "lat": 43.613218, "lon": -116.2084055}, {"type": "node", "id": 4848490102, "lat": 43.6134221, "lon": -116.2088157}, {"type": "node", "id": 4848490103, "lat": 43.6135326, "lon": -116.2087109}, {"type": "node", "id": 4848490107, "lat": 43.6132791, "lon": -116.2085291}, {"type": "node", "id": 4848490131, "lat": 43.6119273, "lon": -116.2057357}, {"type": "node", "id": 4848490132, "lat": 43.6118772, "lon": -116.2057328}, {"type": "node", "id": 4848490133, "lat": 43.6118208, "lon": -116.2056143}, {"type": "node", "id": 4848490134, "lat": 43.6119064, "lon": -116.2055365}, {"type": "node", "id": 4848490135, "lat": 43.6119566, "lon": -116.2055394}, {"type": "node", "id": 4848490136, "lat": 43.6113897, "lon": -116.2055478}, {"type": "node", "id": 4848490137, "lat": 43.6114726, "lon": -116.2054678}, {"type": "node", "id": 4848490138, "lat": 43.6113522, "lon": -116.20523}, {"type": "node", "id": 4848490139, "lat": 43.6112054, "lon": -116.2053717}, {"type": "node", "id": 4848490140, "lat": 43.6112637, "lon": -116.2054868}, {"type": "node", "id": 4848490141, "lat": 43.6112973, "lon": -116.2054544}, {"type": "node", "id": 4848490142, "lat": 43.6113492, "lon": -116.2054677}, {"type": "node", "id": 4906874770, "lat": 43.615028, "lon": -116.1991745, "tags": {"addr:city": "Boise", "addr:housenumber": "235", "addr:postcode": "83702", "addr:state": "ID", "addr:street": "North 5th Street", "amenity": "restaurant", "name": "Guido's Pizza"}}, {"type": "node", "id": 4927563581, "lat": 43.6158885, "lon": -116.201292, "tags": {"addr:city": "Boise", "addr:housenumber": "200", "addr:postcode": "83702", "addr:state": "ID", "addr:street": "North Capitol Boulevard", "amenity": "bar", "name": "Spacebar"}}, {"type": "node", "id": 4927563582, "lat": 43.6160213, "lon": -116.201149, "tags": {"addr:city": "Boise", "addr:housenumber": "204", "addr:postcode": "83702", "addr:state": "ID", "addr:street": "North Capitol Boulevard", "addr:unit": "102", "amenity": "restaurant", "name": "Waffle Me Up"}}, {"type": "node", "id": 4983631821, "lat": 43.6297841, "lon": -116.2032682}, {"type": "node", "id": 4985653923, "lat": 43.6139719, "lon": -116.202076, "tags": {"addr:city": "Boise", "addr:housenumber": "608", "addr:postcode": "83702", "addr:state": "ID", "addr:street": "West Grove Street", "amenity": "restaurant", "cuisine": "basque", "name": "The Basque Market"}}, {"type": "node", "id": 5105701743, "lat": 43.6188967, "lon": -116.2094032, "tags": {"addr:city": "Boise", "addr:housenumber": "1310", "addr:postcode": "83702", "addr:state": "ID", "addr:street": "West Main Street", "name": "Idaho Mountain Touring", "shop": "bicycle"}}, {"type": "node", "id": 5308969128, "lat": 43.6307167, "lon": -116.203155}, {"type": "node", "id": 5339376411, "lat": 43.6253769, "lon": -116.2087212}, {"type": "node", "id": 5339376412, "lat": 43.6254787, "lon": -116.2086212}, {"type": "node", "id": 5339376413, "lat": 43.6253483, "lon": -116.2083676}, {"type": "node", "id": 5339376414, "lat": 43.6252464, "lon": -116.2084676}, {"type": "node", "id": 5400141644, "lat": 43.6179483, "lon": -116.2025098}, {"type": "node", "id": 5400141657, "lat": 43.6177839, "lon": -116.2030037}, {"type": "node", "id": 5400141659, "lat": 43.6180626, "lon": -116.2027418}, {"type": "node", "id": 5470127567, "lat": 43.6300183, "lon": -116.203634}, {"type": "node", "id": 5557105316, "lat": 43.6175559, "lon": -116.1997839}, {"type": "node", "id": 5557206105, "lat": 43.6177371, "lon": -116.1999376}, {"type": "node", "id": 5557206113, "lat": 43.6181134, "lon": -116.200121}, {"type": "node", "id": 5557206116, "lat": 43.6175997, "lon": -116.1990875}, {"type": "node", "id": 5561045098, "lat": 43.6175885, "lon": -116.1997005}, {"type": "node", "id": 5574148347, "lat": 43.6174188, "lon": -116.1992619}, {"type": "node", "id": 5574910188, "lat": 43.6176576, "lon": -116.1990672}, {"type": "node", "id": 5662495825, "lat": 43.6160071, "lon": -116.2011853, "tags": {"addr:city": "Boise", "addr:housenumber": "204", "addr:postcode": "83702", "addr:state": "ID", "addr:street": "North Capitol Boulevard", "addr:unit": "101", "amenity": "restaurant", "cuisine": "burger", "name": "Boise Fry Company"}}, {"type": "node", "id": 5662511022, "lat": 43.6174238, "lon": -116.2066638, "tags": {"addr:city": "Boise", "addr:housenumber": "1022", "addr:postcode": "83702", "addr:state": "ID", "addr:street": "West Main Street", "amenity": "pub", "microbrewery": "yes", "name": "Barbarian Brewing", "shop": "beverages"}}, {"type": "node", "id": 5718490634, "lat": 43.6199833, "lon": -116.2033834}, {"type": "node", "id": 5718490635, "lat": 43.6199335, "lon": -116.2032839}, {"type": "node", "id": 5718490636, "lat": 43.6198595, "lon": -116.2030932}, {"type": "node", "id": 5718490637, "lat": 43.6195695, "lon": -116.2033704}, {"type": "node", "id": 5721043793, "lat": 43.619948, "lon": -116.2032699}, {"type": "node", "id": 5766404797, "lat": 43.6156723, "lon": -116.198031}, {"type": "node", "id": 5766404798, "lat": 43.6155917, "lon": -116.1978768}, {"type": "node", "id": 5766404799, "lat": 43.6153169, "lon": -116.198141}, {"type": "node", "id": 5775178885, "lat": 43.6130863, "lon": -116.2035254}, {"type": "node", "id": 5826128681, "lat": 43.600413, "lon": -116.1932892}, {"type": "node", "id": 5826128682, "lat": 43.6004136, "lon": -116.1931146}, {"type": "node", "id": 5826128683, "lat": 43.6003324, "lon": -116.1931129}, {"type": "node", "id": 5826128684, "lat": 43.6003319, "lon": -116.1932899}, {"type": "node", "id": 5901065355, "lat": 43.6296664, "lon": -116.2034766}, {"type": "node", "id": 6197915296, "lat": 43.6301313, "lon": -116.2030193}, {"type": "node", "id": 6197915297, "lat": 43.6301311, "lon": -116.2032673}, {"type": "node", "id": 6197915299, "lat": 43.6297838, "lon": -116.2030656}, {"type": "node", "id": 6197915300, "lat": 43.6298442, "lon": -116.2030654}, {"type": "node", "id": 6197915301, "lat": 43.6298442, "lon": -116.2030894}, {"type": "node", "id": 6197915302, "lat": 43.6299118, "lon": -116.2030892}, {"type": "node", "id": 6197915303, "lat": 43.6299119, "lon": -116.2031538}, {"type": "node", "id": 6197915305, "lat": 43.630044, "lon": -116.2031233}, {"type": "node", "id": 6197915306, "lat": 43.6300441, "lon": -116.2030192}, {"type": "node", "id": 6197915308, "lat": 43.630948, "lon": -116.2029974}, {"type": "node", "id": 6197915309, "lat": 43.6309567, "lon": -116.2029974}, {"type": "node", "id": 6197915310, "lat": 43.6309566, "lon": -116.2030618}, {"type": "node", "id": 6197915311, "lat": 43.6307854, "lon": -116.2030611}, {"type": "node", "id": 6197915312, "lat": 43.6307854, "lon": -116.2030329}, {"type": "node", "id": 6197915313, "lat": 43.6307487, "lon": -116.2030328}, {"type": "node", "id": 6197915314, "lat": 43.630749, "lon": -116.2028782}, {"type": "node", "id": 6206412373, "lat": 43.6229839, "lon": -116.1978498}, {"type": "node", "id": 6206412374, "lat": 43.6227686, "lon": -116.1978515}, {"type": "node", "id": 6206412375, "lat": 43.6227686, "lon": -116.1979241}, {"type": "node", "id": 6206412381, "lat": 43.6226351, "lon": -116.1979223}, {"type": "node", "id": 6206412382, "lat": 43.6226382, "lon": -116.1980805}, {"type": "node", "id": 6206412383, "lat": 43.6226044, "lon": -116.198078}, {"type": "node", "id": 6206412384, "lat": 43.622591, "lon": -116.1983796}, {"type": "node", "id": 6206412685, "lat": 43.6226059, "lon": -116.1985483}, {"type": "node", "id": 6206412686, "lat": 43.6226377, "lon": -116.1985492}, {"type": "node", "id": 6206412687, "lat": 43.6226406, "lon": -116.1986193}, {"type": "node", "id": 6206412738, "lat": 43.6104217, "lon": -116.1988827}, {"type": "node", "id": 6206412739, "lat": 43.6101332, "lon": -116.1991607}, {"type": "node", "id": 6206412740, "lat": 43.6103735, "lon": -116.1996264}, {"type": "node", "id": 6208568341, "lat": 43.6044891, "lon": -116.192958}, {"type": "node", "id": 6208568342, "lat": 43.6045969, "lon": -116.1927171}, {"type": "node", "id": 6208568343, "lat": 43.6045547, "lon": -116.1926813}, {"type": "node", "id": 6208568344, "lat": 43.6045669, "lon": -116.1926781}, {"type": "node", "id": 6208568345, "lat": 43.6045567, "lon": -116.1925977}, {"type": "node", "id": 6208568346, "lat": 43.604514, "lon": -116.1926089}, {"type": "node", "id": 6208568347, "lat": 43.6045563, "lon": -116.192516}, {"type": "node", "id": 6208568348, "lat": 43.6044135, "lon": -116.1923906}, {"type": "node", "id": 6208568349, "lat": 43.6043226, "lon": -116.1925887}, {"type": "node", "id": 6208568350, "lat": 43.6043353, "lon": -116.1926639}, {"type": "node", "id": 6208568351, "lat": 43.6043048, "lon": -116.1926737}, {"type": "node", "id": 6208568352, "lat": 43.6043188, "lon": -116.1927572}, {"type": "node", "id": 6208568353, "lat": 43.6043494, "lon": -116.1927474}, {"type": "node", "id": 6208568354, "lat": 43.6043673, "lon": -116.1928543}, {"type": "node", "id": 6208886038, "lat": 43.6229289, "lon": -116.2079}, {"type": "node", "id": 6208886039, "lat": 43.6227906, "lon": -116.2080295}, {"type": "node", "id": 6208886040, "lat": 43.6228502, "lon": -116.208151}, {"type": "node", "id": 6208886059, "lat": 43.6225092, "lon": -116.208667}, {"type": "node", "id": 6208886060, "lat": 43.6224807, "lon": -116.2086599}, {"type": "node", "id": 6208886061, "lat": 43.6224882, "lon": -116.208602}, {"type": "node", "id": 6208886062, "lat": 43.6225027, "lon": -116.2086056}, {"type": "node", "id": 6208886063, "lat": 43.6225054, "lon": -116.2085849}, {"type": "node", "id": 6208886064, "lat": 43.6226072, "lon": -116.2086101}, {"type": "node", "id": 6208886065, "lat": 43.6226042, "lon": -116.2086334}, {"type": "node", "id": 6208886066, "lat": 43.6226173, "lon": -116.2086366}, {"type": "node", "id": 6208886067, "lat": 43.6226099, "lon": -116.2086938}, {"type": "node", "id": 6208886068, "lat": 43.6225865, "lon": -116.208688}, {"type": "node", "id": 6208886069, "lat": 43.6225796, "lon": -116.2087409}, {"type": "node", "id": 6208886070, "lat": 43.6226356, "lon": -116.2087547}, {"type": "node", "id": 6208886071, "lat": 43.6226289, "lon": -116.2088067}, {"type": "node", "id": 6208886072, "lat": 43.6225706, "lon": -116.2087923}, {"type": "node", "id": 6208886073, "lat": 43.6225687, "lon": -116.2088071}, {"type": "node", "id": 6209314616, "lat": 43.6212012, "lon": -116.2045448}, {"type": "node", "id": 6209314617, "lat": 43.6210828, "lon": -116.2046592}, {"type": "node", "id": 6209314618, "lat": 43.6212126, "lon": -116.2049154}, {"type": "node", "id": 6209314619, "lat": 43.6212126, "lon": -116.2048952}, {"type": "node", "id": 6209314631, "lat": 43.6221764, "lon": -116.2068144}, {"type": "node", "id": 6209314632, "lat": 43.6220773, "lon": -116.2069071}, {"type": "node", "id": 6209314633, "lat": 43.6220353, "lon": -116.2068214}, {"type": "node", "id": 6209314672, "lat": 43.6235585, "lon": -116.2083256}, {"type": "node", "id": 6209314673, "lat": 43.6234673, "lon": -116.208411}, {"type": "node", "id": 6209314674, "lat": 43.6235576, "lon": -116.208595}, {"type": "node", "id": 6209314687, "lat": 43.6251533, "lon": -116.2122855}, {"type": "node", "id": 6209314688, "lat": 43.6250375, "lon": -116.2123995}, {"type": "node", "id": 6209314689, "lat": 43.6250669, "lon": -116.2124565}, {"type": "node", "id": 6209314690, "lat": 43.625076, "lon": -116.2124475}, {"type": "node", "id": 6209314691, "lat": 43.6251208, "lon": -116.2125342}, {"type": "node", "id": 6209721449, "lat": 43.6307045, "lon": -116.2031551}, {"type": "node", "id": 6209721450, "lat": 43.6307047, "lon": -116.2032008}, {"type": "node", "id": 6209721451, "lat": 43.6306393, "lon": -116.2032016}, {"type": "node", "id": 6209721452, "lat": 43.630638, "lon": -116.202999}, {"type": "node", "id": 6209721453, "lat": 43.6307157, "lon": -116.202998}, {"type": "node", "id": 6209721467, "lat": 43.6297015, "lon": -116.2031485}, {"type": "node", "id": 6209721468, "lat": 43.6297389, "lon": -116.2031486}, {"type": "node", "id": 6209721469, "lat": 43.6297391, "lon": -116.203011}, {"type": "node", "id": 6209721470, "lat": 43.6297283, "lon": -116.203011}, {"type": "node", "id": 6209721471, "lat": 43.6297283, "lon": -116.2029843}, {"type": "node", "id": 6209721472, "lat": 43.6296295, "lon": -116.2029841}, {"type": "node", "id": 6209721473, "lat": 43.6296293, "lon": -116.2031488}, {"type": "node", "id": 6209721474, "lat": 43.6296612, "lon": -116.2031489}, {"type": "node", "id": 6209721475, "lat": 43.6296612, "lon": -116.2031825}, {"type": "node", "id": 6209721477, "lat": 43.6296019, "lon": -116.2032163}, {"type": "node", "id": 6209721478, "lat": 43.6295235, "lon": -116.2032159}, {"type": "node", "id": 6209721479, "lat": 43.6295242, "lon": -116.2029929}, {"type": "node", "id": 6209721489, "lat": 43.6296652, "lon": -116.2036903}, {"type": "node", "id": 6209721490, "lat": 43.6297368, "lon": -116.2036911}, {"type": "node", "id": 6209721495, "lat": 43.6299987, "lon": -116.2036338}, {"type": "node", "id": 6209721496, "lat": 43.630051, "lon": -116.2036232}, {"type": "node", "id": 6209721497, "lat": 43.6300502, "lon": -116.2038109}, {"type": "node", "id": 6209721498, "lat": 43.6301347, "lon": -116.2038116}, {"type": "node", "id": 6212026700, "lat": 43.6147259, "lon": -116.2029635}, {"type": "node", "id": 6212506119, "lat": 43.6117514, "lon": -116.2035389}, {"type": "node", "id": 6212506123, "lat": 43.6114435, "lon": -116.2036061}, {"type": "node", "id": 6212506126, "lat": 43.6114285, "lon": -116.2032286}, {"type": "node", "id": 6212506127, "lat": 43.6114159, "lon": -116.2032036}, {"type": "node", "id": 6212506133, "lat": 43.6116188, "lon": -116.2030771}, {"type": "node", "id": 6212506135, "lat": 43.6115473, "lon": -116.2034096}, {"type": "node", "id": 6212506136, "lat": 43.6116444, "lon": -116.2033162}, {"type": "node", "id": 6212506137, "lat": 43.6117012, "lon": -116.2034289}, {"type": "node", "id": 6212506138, "lat": 43.6116387, "lon": -116.203489}, {"type": "node", "id": 6212506139, "lat": 43.6116708, "lon": -116.2035526}, {"type": "node", "id": 6212506140, "lat": 43.6117297, "lon": -116.2034959}, {"type": "node", "id": 6212506485, "lat": 43.6098886, "lon": -116.1986756}, {"type": "node", "id": 6212506488, "lat": 43.6128665, "lon": -116.2039039}, {"type": "node", "id": 6212506489, "lat": 43.6128997, "lon": -116.2038727}, {"type": "node", "id": 6212506490, "lat": 43.6132272, "lon": -116.2038305}, {"type": "node", "id": 6212506491, "lat": 43.6133158, "lon": -116.2037772}, {"type": "node", "id": 6212506492, "lat": 43.6132771, "lon": -116.203699}, {"type": "node", "id": 6212506493, "lat": 43.6132603, "lon": -116.2037149}, {"type": "node", "id": 6212506494, "lat": 43.6132486, "lon": -116.2036915}, {"type": "node", "id": 6212506495, "lat": 43.6132407, "lon": -116.203699}, {"type": "node", "id": 6212506509, "lat": 43.6168934, "lon": -116.1977855}, {"type": "node", "id": 6212506728, "lat": 43.6164641, "lon": -116.1883339}, {"type": "node", "id": 6212506729, "lat": 43.6164203, "lon": -116.1883729}, {"type": "node", "id": 6212506730, "lat": 43.6163328, "lon": -116.1881928}, {"type": "node", "id": 6212506731, "lat": 43.6163902, "lon": -116.1881391}, {"type": "node", "id": 6212506732, "lat": 43.6162997, "lon": -116.187943}, {"type": "node", "id": 6212506733, "lat": 43.6166022, "lon": -116.1877173}, {"type": "node", "id": 6212506734, "lat": 43.6166868, "lon": -116.1879497}, {"type": "node", "id": 6212506735, "lat": 43.6167286, "lon": -116.1879269}, {"type": "node", "id": 6212506736, "lat": 43.616752, "lon": -116.1879712}, {"type": "node", "id": 6212506737, "lat": 43.616715, "lon": -116.1880088}, {"type": "node", "id": 6212506738, "lat": 43.6168298, "lon": -116.1882117}, {"type": "node", "id": 6212506740, "lat": 43.6164588, "lon": -116.187466}, {"type": "node", "id": 6212506741, "lat": 43.6163917, "lon": -116.1874615}, {"type": "node", "id": 6212506742, "lat": 43.6163911, "lon": -116.1874767}, {"type": "node", "id": 6212506743, "lat": 43.6162922, "lon": -116.1874702}, {"type": "node", "id": 6212506744, "lat": 43.6162926, "lon": -116.187459}, {"type": "node", "id": 6212506745, "lat": 43.6162397, "lon": -116.1874556}, {"type": "node", "id": 6212506746, "lat": 43.6162408, "lon": -116.187423}, {"type": "node", "id": 6212506747, "lat": 43.6162111, "lon": -116.1874211}, {"type": "node", "id": 6212506748, "lat": 43.6162204, "lon": -116.187147}, {"type": "node", "id": 6212506749, "lat": 43.6162527, "lon": -116.1871491}, {"type": "node", "id": 6212506750, "lat": 43.6162537, "lon": -116.1871197}, {"type": "node", "id": 6212506751, "lat": 43.6163077, "lon": -116.1871232}, {"type": "node", "id": 6212506752, "lat": 43.6163082, "lon": -116.1871084}, {"type": "node", "id": 6212506753, "lat": 43.6164004, "lon": -116.1871144}, {"type": "node", "id": 6212506754, "lat": 43.6164001, "lon": -116.1871242}, {"type": "node", "id": 6212506755, "lat": 43.6164688, "lon": -116.1871287}, {"type": "node", "id": 6212506756, "lat": 43.6164653, "lon": -116.1872302}, {"type": "node", "id": 6212506757, "lat": 43.6164986, "lon": -116.1872324}, {"type": "node", "id": 6212506758, "lat": 43.616494, "lon": -116.1873651}, {"type": "node", "id": 6214632490, "lat": 43.6112226, "lon": -116.2068177}, {"type": "node", "id": 6214632492, "lat": 43.6110625, "lon": -116.2067358}, {"type": "node", "id": 6214632493, "lat": 43.6109377, "lon": -116.2064909}, {"type": "node", "id": 6214632497, "lat": 43.6108157, "lon": -116.2072135}, {"type": "node", "id": 6214632498, "lat": 43.6107347, "lon": -116.2070545}, {"type": "node", "id": 6214632522, "lat": 43.6121206, "lon": -116.2081572}, {"type": "node", "id": 6214632523, "lat": 43.6120444, "lon": -116.2082294}, {"type": "node", "id": 6214632524, "lat": 43.6120917, "lon": -116.2083246}, {"type": "node", "id": 6218029732, "lat": 43.6203122, "lon": -116.1948367}, {"type": "node", "id": 6218029733, "lat": 43.6210001, "lon": -116.1941538}, {"type": "node", "id": 6218029734, "lat": 43.6207978, "lon": -116.193765}, {"type": "node", "id": 6219095319, "lat": 43.6014963, "lon": -116.1932433}, {"type": "node", "id": 6219095320, "lat": 43.6014701, "lon": -116.1932099}, {"type": "node", "id": 6219095321, "lat": 43.601447, "lon": -116.1932445}, {"type": "node", "id": 6219095322, "lat": 43.6013648, "lon": -116.1931399}, {"type": "node", "id": 6219095323, "lat": 43.6013926, "lon": -116.1930984}, {"type": "node", "id": 6219095324, "lat": 43.6013327, "lon": -116.1930222}, {"type": "node", "id": 6219095325, "lat": 43.6014326, "lon": -116.1928724}, {"type": "node", "id": 6219937779, "lat": 43.6305359, "lon": -116.2036684}, {"type": "node", "id": 6219937780, "lat": 43.6305235, "lon": -116.2036684}, {"type": "node", "id": 6219937781, "lat": 43.6305235, "lon": -116.2036139}, {"type": "node", "id": 6219937782, "lat": 43.6305127, "lon": -116.203614}, {"type": "node", "id": 6219937783, "lat": 43.6305081, "lon": -116.2036019}, {"type": "node", "id": 6219937784, "lat": 43.6304628, "lon": -116.203602}, {"type": "node", "id": 6219937885, "lat": 43.6304629, "lon": -116.2037297}, {"type": "node", "id": 6219937891, "lat": 43.6307041, "lon": -116.203823}, {"type": "node", "id": 6219937892, "lat": 43.6307028, "lon": -116.2037308}, {"type": "node", "id": 6219937893, "lat": 43.6306833, "lon": -116.2037313}, {"type": "node", "id": 6219937894, "lat": 43.6306822, "lon": -116.2036487}, {"type": "node", "id": 6219937895, "lat": 43.630693, "lon": -116.2036484}, {"type": "node", "id": 6219937896, "lat": 43.6306925, "lon": -116.2036153}, {"type": "node", "id": 6219937897, "lat": 43.6307709, "lon": -116.2036134}, {"type": "node", "id": 6219937898, "lat": 43.6307724, "lon": -116.2037301}, {"type": "node", "id": 6219937899, "lat": 43.6307427, "lon": -116.2037308}, {"type": "node", "id": 6238949235, "lat": 43.6139825, "lon": -116.2009336}, {"type": "node", "id": 6238949236, "lat": 43.61412, "lon": -116.200799}, {"type": "node", "id": 6238949237, "lat": 43.614161, "lon": -116.2008794}, {"type": "node", "id": 6238949238, "lat": 43.6140234, "lon": -116.2010134}, {"type": "node", "id": 6247479439, "lat": 43.6100545, "lon": -116.1999043}, {"type": "node", "id": 6247479440, "lat": 43.6099911, "lon": -116.1997792}, {"type": "node", "id": 6247479443, "lat": 43.6100347, "lon": -116.1997375}, {"type": "node", "id": 6247479444, "lat": 43.6099278, "lon": -116.1995242}, {"type": "node", "id": 6247479445, "lat": 43.6098162, "lon": -116.1996308}, {"type": "node", "id": 6257387701, "lat": 43.6186362, "lon": -116.2037565}, {"type": "node", "id": 6257387702, "lat": 43.6189074, "lon": -116.2034966}, {"type": "node", "id": 6257387703, "lat": 43.6189675, "lon": -116.2036197}, {"type": "node", "id": 6257387718, "lat": 43.6191925, "lon": -116.2027237}, {"type": "node", "id": 6257387721, "lat": 43.619419, "lon": -116.2031761}, {"type": "node", "id": 6260315697, "lat": 43.6166837, "lon": -116.2016081}, {"type": "node", "id": 6260315698, "lat": 43.6165388, "lon": -116.2017446}, {"type": "node", "id": 6260315699, "lat": 43.6165516, "lon": -116.2017703}, {"type": "node", "id": 6260315700, "lat": 43.6165752, "lon": -116.2017481}, {"type": "node", "id": 6260315701, "lat": 43.6166152, "lon": -116.2018291}, {"type": "node", "id": 6260315702, "lat": 43.6155869, "lon": -116.1992429}, {"type": "node", "id": 6260315703, "lat": 43.6156009, "lon": -116.1992292}, {"type": "node", "id": 6260315704, "lat": 43.6157704, "lon": -116.1996123}, {"type": "node", "id": 6260315705, "lat": 43.6157888, "lon": -116.1995942}, {"type": "node", "id": 6268388099, "lat": 43.6133104, "lon": -116.2025176}, {"type": "node", "id": 6269021119, "lat": 43.6170056, "lon": -116.2023688}, {"type": "node", "id": 6269021120, "lat": 43.6171193, "lon": -116.2025911}, {"type": "node", "id": 6269021123, "lat": 43.6169164, "lon": -116.2024539}, {"type": "node", "id": 6269021124, "lat": 43.6170714, "lon": -116.2027636}, {"type": "node", "id": 6269021126, "lat": 43.6170922, "lon": -116.202617}, {"type": "node", "id": 6269021128, "lat": 43.6171024, "lon": -116.2028256}, {"type": "node", "id": 6269021129, "lat": 43.6170439, "lon": -116.2028805}, {"type": "node", "id": 6294999791, "lat": 43.6133219, "lon": -116.208306}, {"type": "node", "id": 6306351265, "lat": 43.617401, "lon": -116.2033531, "tags": {"addr:city": "Boise", "addr:housenumber": "212", "addr:postcode": "83702", "addr:state": "ID", "addr:street": "North 9th Street", "amenity": "cafe", "name": "Boise Boba"}}, {"type": "node", "id": 6306351270, "lat": 43.6168886, "lon": -116.204539, "tags": {"amenity": "restaurant", "name": "BACON", "note": "Yes, that's the restaurant's name."}}, {"type": "node", "id": 6306351271, "lat": 43.6173818, "lon": -116.2037594, "tags": {"addr:city": "Boise", "addr:housenumber": "237", "addr:postcode": "83702", "addr:state": "ID", "addr:street": "North 9th Street", "amenity": "restaurant", "contact:facebook": "https://www.facebook.com/paddlesuppoke/", "cuisine": "poke", "name": "Paddles Up Pok\u00e9", "website": "https://www.paddlesuppoke.com/"}}, {"type": "node", "id": 6391702986, "lat": 43.6131116, "lon": -116.2066704}, {"type": "node", "id": 6391702987, "lat": 43.6129189, "lon": -116.2062906}, {"type": "node", "id": 6391702988, "lat": 43.6131966, "lon": -116.2065869}, {"type": "node", "id": 6391702990, "lat": 43.613005, "lon": -116.2062093}, {"type": "node", "id": 6391703033, "lat": 43.6138763, "lon": -116.20638, "tags": {"addr:city": "Boise", "addr:housenumber": "874", "addr:postcode": "83702", "addr:state": "ID", "addr:street": "West Broad Street", "name": "Lunatic Fringe Salon", "shop": "hairdresser"}}, {"type": "node", "id": 6391703035, "lat": 43.6138991, "lon": -116.2063805, "tags": {"name": "Swank Boutique", "shop": "clothes"}}, {"type": "node", "id": 6391703042, "lat": 43.612282, "lon": -116.206527}, {"type": "node", "id": 6391703043, "lat": 43.6120834, "lon": -116.2061318}, {"type": "node", "id": 6391703044, "lat": 43.6122086, "lon": -116.2060121}, {"type": "node", "id": 6391703046, "lat": 43.6119664, "lon": -116.206244}, {"type": "node", "id": 6391703059, "lat": 43.6116753, "lon": -116.2027703, "tags": {"amenity": "cafe", "name": "Form & Function", "opening_hours": "07:30-16:00", "phone": "+1 208-922-7824", "website": "https://formandfunctioncoffee.com/"}}, {"type": "node", "id": 6391703060, "lat": 43.6115112, "lon": -116.2024967, "tags": {"amenity": "restaurant", "cuisine": "pizza", "name": "The Wylder"}}, {"type": "node", "id": 6391703077, "lat": 43.6100268, "lon": -116.19577}, {"type": "node", "id": 6391703078, "lat": 43.6098937, "lon": -116.1958878}, {"type": "node", "id": 6391703079, "lat": 43.609954, "lon": -116.1960177}, {"type": "node", "id": 6391703080, "lat": 43.6100871, "lon": -116.1958999}, {"type": "node", "id": 6391703081, "lat": 43.6095052, "lon": -116.1950135}, {"type": "node", "id": 6391703082, "lat": 43.6094811, "lon": -116.1949605}, {"type": "node", "id": 6391703083, "lat": 43.6094871, "lon": -116.1949553}, {"type": "node", "id": 6391703084, "lat": 43.6094737, "lon": -116.1949257}, {"type": "node", "id": 6391703185, "lat": 43.6094665, "lon": -116.194932}, {"type": "node", "id": 6391703186, "lat": 43.6094412, "lon": -116.1948761}, {"type": "node", "id": 6391703187, "lat": 43.6096335, "lon": -116.1949026}, {"type": "node", "id": 6391703188, "lat": 43.6096085, "lon": -116.1948472}, {"type": "node", "id": 6391703189, "lat": 43.6095988, "lon": -116.1948556}, {"type": "node", "id": 6391703190, "lat": 43.6095827, "lon": -116.19482}, {"type": "node", "id": 6391703191, "lat": 43.6095916, "lon": -116.1948124}, {"type": "node", "id": 6391703192, "lat": 43.60957, "lon": -116.1947647}, {"type": "node", "id": 6391703193, "lat": 43.6094336, "lon": -116.1944686}, {"type": "node", "id": 6391703194, "lat": 43.6094552, "lon": -116.1945162}, {"type": "node", "id": 6391703195, "lat": 43.6094463, "lon": -116.1945239}, {"type": "node", "id": 6391703196, "lat": 43.6094624, "lon": -116.1945594}, {"type": "node", "id": 6391703197, "lat": 43.609472, "lon": -116.1945511}, {"type": "node", "id": 6391703198, "lat": 43.6094971, "lon": -116.1946064}, {"type": "node", "id": 6391703199, "lat": 43.6093687, "lon": -116.1947173}, {"type": "node", "id": 6391703200, "lat": 43.6093447, "lon": -116.1946643}, {"type": "node", "id": 6391703201, "lat": 43.6093507, "lon": -116.1946591}, {"type": "node", "id": 6391703202, "lat": 43.6093373, "lon": -116.1946296}, {"type": "node", "id": 6391703203, "lat": 43.6093301, "lon": -116.1946358}, {"type": "node", "id": 6391703204, "lat": 43.6093047, "lon": -116.1945799}, {"type": "node", "id": 6391703205, "lat": 43.6101644, "lon": -116.1960657}, {"type": "node", "id": 6391703206, "lat": 43.6100313, "lon": -116.1961835}, {"type": "node", "id": 6391703207, "lat": 43.6100916, "lon": -116.1963134}, {"type": "node", "id": 6391703208, "lat": 43.6102247, "lon": -116.1961956}, {"type": "node", "id": 6391703209, "lat": 43.6098857, "lon": -116.1954836}, {"type": "node", "id": 6391703210, "lat": 43.6097526, "lon": -116.1956014}, {"type": "node", "id": 6391703211, "lat": 43.6098129, "lon": -116.1957314}, {"type": "node", "id": 6391703212, "lat": 43.609946, "lon": -116.1956135}, {"type": "node", "id": 6400971024, "lat": 43.6288314, "lon": -116.2037159}, {"type": "node", "id": 6400971025, "lat": 43.6287707, "lon": -116.2037156}, {"type": "node", "id": 6400971026, "lat": 43.628771, "lon": -116.2036016}, {"type": "node", "id": 6562421886, "lat": 43.6131705, "lon": -116.206093, "tags": {"addr:city": "Boise", "addr:housenumber": "405", "addr:postcode": "83702", "addr:state": "ID", "addr:street": "South 8th Street", "addr:unit": "155", "amenity": "cafe", "cuisine": "coffee_shop", "name": "Slow by Slow Coffee", "website": "https://www.slowbyslow.com/"}}, {"type": "node", "id": 6704565570, "lat": 43.6078164, "lon": -116.1942492}, {"type": "node", "id": 6748852282, "lat": 43.6012303, "lon": -116.193195, "tags": {"addr:city": "Boise", "addr:housenumber": "974", "addr:postcode": "83706", "addr:state": "ID", "addr:street": "South Broadway Avenue", "brand": "T-Mobile", "brand:wikidata": "Q3511885", "name": "T-Mobile", "shop": "mobile_phone", "website": "https://www.t-mobile.com/stores/bd/t-mobile-boise-id-83706-8479"}}, {"type": "node", "id": 6748852283, "lat": 43.6011397, "lon": -116.1931955, "tags": {"addr:city": "Boise", "addr:housenumber": "980", "addr:postcode": "83706", "addr:state": "ID", "addr:street": "South Broadway Avenue", "amenity": "restaurant", "brand": "Cafe Rio", "brand:wikidata": "Q5017108", "cuisine": "mexican", "name": "Cafe Rio", "official_name": "Cafe Rio Mexican Grill", "opening_hours": "Mo-Sa 10:30-21:00; Su 11:00-21:00", "takeaway": "yes"}}, {"type": "node", "id": 6748901113, "lat": 43.6011728, "lon": -116.2026458, "tags": {"amenity": "restaurant", "name": "SouthFork Market", "opening_hours": "Mo-Th 07:00-22:00; Fr 07:00-21:00; Sa 09:00-21:00; Su 09:00-22:00"}}, {"type": "node", "id": 6766969946, "lat": 43.611176, "lon": -116.206301, "tags": {"addr:city": "Boise", "addr:housenumber": "701", "addr:postcode": "83702", "addr:state": "ID", "addr:street": "West Fulton Street", "amenity": "restaurant", "cuisine": "american", "name": "Smoke & Thyme", "website": "https://smokeandthymeboise.com/"}}, {"type": "node", "id": 6767074694, "lat": 43.6146409, "lon": -116.2043061, "tags": {"amenity": "bar", "name": "The Zone Bar & Grill"}}, {"type": "node", "id": 6767074704, "lat": 43.6150042, "lon": -116.203326, "tags": {"name": "Deli At the Grove", "opening_hours": "Mo-Fr 08:00-14:30", "phone": "+1-208-336-3500", "shop": "deli"}}, {"type": "node", "id": 6767483151, "lat": 43.6012292, "lon": -116.2012578, "tags": {"name": "Bronco Shop", "shop": "clothes"}}, {"type": "node", "id": 6848917839, "lat": 43.6019134, "lon": -116.2018794, "tags": {"amenity": "cafe", "branch": "Boise State Univ. Student Unio", "brand": "Starbucks", "brand:wikidata": "Q37158", "cuisine": "coffee_shop", "level": "0", "name": "Starbucks", "official_name": "Starbucks Coffee", "phone": "+1 208-426-7827", "ref": "1019300", "takeaway": "yes", "website": "https://www.starbucks.com/store-locator/store/1019300/boise-state-univ-student-unio-1700-university-drive-boise-id-83725-us"}}, {"type": "node", "id": 6848917841, "lat": 43.6016596, "lon": -116.2006449, "tags": {"amenity": "restaurant", "name": "Boise River Cafe"}}, {"type": "node", "id": 6898755913, "lat": 43.616396, "lon": -116.1882147, "tags": {"government": "yes", "name": "Bureau of Reclamtion Snake River Area Office", "office": "government"}}, {"type": "node", "id": 6898755914, "lat": 43.6164294, "lon": -116.1883025, "tags": {"government": "yes", "name": "Geological Survey Idaho Water Science Center", "office": "government"}}, {"type": "node", "id": 6898755916, "lat": 43.6160573, "lon": -116.1869352}, {"type": "node", "id": 6898755917, "lat": 43.6160729, "lon": -116.186936}, {"type": "node", "id": 6898755918, "lat": 43.6160712, "lon": -116.1869994}, {"type": "node", "id": 6898755919, "lat": 43.6160599, "lon": -116.1869989}, {"type": "node", "id": 6898755920, "lat": 43.616057, "lon": -116.1871077}, {"type": "node", "id": 6898755921, "lat": 43.615913, "lon": -116.1871002}, {"type": "node", "id": 6898755922, "lat": 43.615919, "lon": -116.18688}, {"type": "node", "id": 6899238217, "lat": 43.6239038, "lon": -116.211675, "tags": {"addr:city": "Boise", "addr:housenumber": "1701", "addr:postcode": "83702", "addr:state": "ID", "addr:street": "West State Street", "brand": "Cartridge World", "brand:wikidata": "Q5047439", "name": "Cartridge World", "shop": "printer_ink"}}, {"type": "node", "id": 6899238218, "lat": 43.6239599, "lon": -116.2117886, "tags": {"addr:city": "Boise", "addr:housenumber": "1717", "addr:postcode": "83702", "addr:state": "ID", "addr:street": "West State Street", "name": "Relax Massage", "shop": "massage"}}, {"type": "node", "id": 6899238219, "lat": 43.6239929, "lon": -116.2118553, "tags": {"addr:city": "Boise", "addr:housenumber": "1749", "addr:postcode": "83702", "addr:state": "ID", "addr:street": "West State Street", "brand": "Sport Clips", "brand:wikidata": "Q7579310", "name": "Sport Clips", "shop": "hairdresser"}}, {"type": "node", "id": 6899238220, "lat": 43.6240269, "lon": -116.211924, "tags": {"addr:city": "Boise", "addr:housenumber": "1757", "addr:postcode": "83702", "addr:state": "ID", "addr:street": "West State Street", "brand": "Jackson Hewitt", "brand:wikidata": "Q6117132", "name": "Jackson Hewitt", "office": "tax_advisor", "official_name": "Jackson Hewitt Tax Service"}}, {"type": "node", "id": 6899238221, "lat": 43.6240761, "lon": -116.2120237, "tags": {"addr:city": "Boise", "addr:housenumber": "1763", "addr:postcode": "83702", "addr:state": "ID", "addr:street": "West State Street", "beauty": "nails", "name": "Nails & Spa at 17th", "shop": "beauty"}}, {"type": "node", "id": 6943640577, "lat": 43.600129, "lon": -116.1937579}, {"type": "node", "id": 6943640579, "lat": 43.6003259, "lon": -116.1939797, "tags": {"addr:city": "Boise", "addr:housenumber": "1011", "addr:postcode": "83706", "addr:state": "ID", "addr:street": "South Broadway Avenue", "amenity": "restaurant", "cuisine": "teriyaki", "name": "Happy Teriyaki", "opening_hours": "Mo-Th 11:00-21:00; Fr-Sa 11:00-23:00", "phone": "+1-208-342-1587", "website": "https://www.ilovehappyteriyaki.com"}}, {"type": "node", "id": 6943640580, "lat": 43.6003272, "lon": -116.194081, "tags": {"addr:city": "Boise", "addr:housenumber": "1017", "addr:postcode": "83706", "addr:state": "ID", "addr:street": "South Broadway Avenue", "alt_name": "Verizon Wireless", "brand": "Verizon", "brand:wikidata": "Q919641", "name": "Verizon", "opening_hours": "Mo-Sa 10:00-20:00; Su 11:00-18:00", "operator": "Go Wireless", "shop": "mobile_phone"}}, {"type": "node", "id": 6943723435, "lat": 43.6050494, "lon": -116.1928531, "tags": {"addr:city": "Boise", "addr:housenumber": "577", "addr:postcode": "83712", "addr:state": "ID", "addr:street": "East Park Boulevard", "addr:unit": "120", "beauty": "tanning", "brand": "Palm Beach Tan", "brand:wikidata": "Q64027086", "name": "Palm Beach Tan", "opening_hours": "Mo-Fr 07:00-22:00; Sa 08:00-22:00; Su 09:00-21:00", "shop": "beauty", "website": "https://palmbeachtan.com/locations/ID/Boise-South-Broadway"}}, {"type": "node", "id": 6943723436, "lat": 43.6051385, "lon": -116.1928541, "tags": {"addr:unit": "110", "name": "Valentino's Hair Cut Up", "phone": "+1-208-331-2751", "shop": "hairdresser"}}, {"type": "node", "id": 6943723437, "lat": 43.6052782, "lon": -116.1926657, "tags": {"addr:city": "Boise", "addr:housenumber": "577", "addr:postcode": "83712", "addr:state": "ID", "addr:street": "East Park Boulevard", "addr:unit": "110", "amenity": "restaurant", "cuisine": "thai", "name": "Nahm Thai & Burmese Cuisine", "opening_hours": "Tu-Sa 11:00-14:00, 16:30-21:00", "phone": "+1-208-388-8638", "website": "https://nahmboise.com/"}}, {"type": "node", "id": 6943723438, "lat": 43.605322, "lon": -116.1925683, "tags": {"addr:city": "Boise", "addr:housenumber": "577", "addr:postcode": "83712", "addr:state": "ID", "addr:street": "East Park Boulevard", "addr:unit": "100", "cannabis:cbd": "only", "name": "Your Cbd Store", "opening_hours": "Mo-Sa 10:00-21:00", "phone": "+1-208-917-1299", "shop": "cannabis"}}, {"type": "node", "id": 6946765502, "lat": 43.6099878, "lon": -116.19397, "tags": {"addr:city": "Boise", "addr:housenumber": "129", "addr:postcode": "83702", "addr:state": "ID", "addr:street": "South Broadway Avenue", "amenity": "restaurant", "cuisine": "soup", "name": "Cafe Zupas", "opening_hours": "Mo-Th 11:00-21:00; Fr-Sa 11:00-22:00"}}, {"type": "node", "id": 7097084674, "lat": 43.6298148, "lon": -116.2035036, "tags": {"addr:city": "Boise", "addr:housenumber": "1511", "addr:postcode": "83702", "addr:state": "ID", "addr:street": "North 13th Street", "amenity": "cafe", "name": "Certified Kitchen + Bakery", "shop": "bakery", "website": "https://www.certifiedboise.com/"}}, {"type": "node", "id": 7097084675, "lat": 43.6303931, "lon": -116.203499, "tags": {"addr:city": "Boise", "addr:housenumber": "1605", "addr:postcode": "83702", "addr:state": "ID", "addr:street": "North 13th Street", "addr:unit": "B", "amenity": "restaurant", "cuisine": "mexican", "name": "Casa Mexico"}}, {"type": "node", "id": 7097084684, "lat": 43.6293925, "lon": -116.202961}, {"type": "node", "id": 7097164285, "lat": 43.6293938, "lon": -116.2032035}, {"type": "node", "id": 7097164286, "lat": 43.6294002, "lon": -116.2032035}, {"type": "node", "id": 7097164287, "lat": 43.6294004, "lon": -116.2032316}, {"type": "node", "id": 7097164288, "lat": 43.6294713, "lon": -116.2032308}, {"type": "node", "id": 7097164289, "lat": 43.6294707, "lon": -116.2031215}, {"type": "node", "id": 7097164290, "lat": 43.6294843, "lon": -116.2031214}, {"type": "node", "id": 7097164291, "lat": 43.6294839, "lon": -116.2030495}, {"type": "node", "id": 7097164292, "lat": 43.6294762, "lon": -116.2030496}, {"type": "node", "id": 7097164293, "lat": 43.629476, "lon": -116.2030243}, {"type": "node", "id": 7097164294, "lat": 43.629468, "lon": -116.2030244}, {"type": "node", "id": 7138157596, "lat": 43.6246906, "lon": -116.2023557}, {"type": "node", "id": 7138157726, "lat": 43.6213654, "lon": -116.1976347}, {"type": "node", "id": 7138158489, "lat": 43.6247816, "lon": -116.2024957}, {"type": "node", "id": 7138161817, "lat": 43.6213214, "lon": -116.1975488}, {"type": "node", "id": 7138166319, "lat": 43.6246906, "lon": -116.2024957}, {"type": "node", "id": 7138166455, "lat": 43.6214629, "lon": -116.1975394}, {"type": "node", "id": 7161574997, "lat": 43.6179481, "lon": -116.1997341}, {"type": "node", "id": 7161574999, "lat": 43.6179688, "lon": -116.1997135}, {"type": "node", "id": 7161575000, "lat": 43.6180387, "lon": -116.199648}, {"type": "node", "id": 7161575001, "lat": 43.6180453, "lon": -116.199661}, {"type": "node", "id": 7161575002, "lat": 43.6179762, "lon": -116.199728}, {"type": "node", "id": 7161575003, "lat": 43.6180611, "lon": -116.199592}, {"type": "node", "id": 7161575004, "lat": 43.6180683, "lon": -116.199585}, {"type": "node", "id": 7161575005, "lat": 43.617946, "lon": -116.1993439}, {"type": "node", "id": 7161575006, "lat": 43.6179398, "lon": -116.1993499}, {"type": "node", "id": 7161575007, "lat": 43.6178978, "lon": -116.1993547}, {"type": "node", "id": 7161575008, "lat": 43.6178903, "lon": -116.1993398}, {"type": "node", "id": 7161575009, "lat": 43.6177598, "lon": -116.1992721}, {"type": "node", "id": 7161575010, "lat": 43.6177711, "lon": -116.1992611}, {"type": "node", "id": 7161575011, "lat": 43.6176859, "lon": -116.1990925}, {"type": "node", "id": 7161575012, "lat": 43.6176755, "lon": -116.1991025}, {"type": "node", "id": 7161575013, "lat": 43.6178187, "lon": -116.1994299}, {"type": "node", "id": 7161575014, "lat": 43.6178116, "lon": -116.1994159}, {"type": "node", "id": 7161575015, "lat": 43.6174041, "lon": -116.1993669}, {"type": "node", "id": 7161575016, "lat": 43.6173926, "lon": -116.1993779}, {"type": "node", "id": 7161575017, "lat": 43.6174764, "lon": -116.1995437}, {"type": "node", "id": 7161575018, "lat": 43.6174888, "lon": -116.1995317}, {"type": "node", "id": 7161575026, "lat": 43.6176556, "lon": -116.1999211}, {"type": "node", "id": 7161575027, "lat": 43.6175875, "lon": -116.1996562}, {"type": "node", "id": 7161575028, "lat": 43.6175934, "lon": -116.1996505}, {"type": "node", "id": 7161575029, "lat": 43.6175601, "lon": -116.1997279}, {"type": "node", "id": 7161575030, "lat": 43.6175777, "lon": -116.1997628}, {"type": "node", "id": 7161575032, "lat": 43.6176736, "lon": -116.1999569}, {"type": "node", "id": 7161575033, "lat": 43.6177159, "lon": -116.1999155}, {"type": "node", "id": 7161575035, "lat": 43.6177872, "lon": -116.200114}, {"type": "node", "id": 7161575036, "lat": 43.6177737, "lon": -116.200127}, {"type": "node", "id": 7161575037, "lat": 43.6178538, "lon": -116.200286}, {"type": "node", "id": 7161575038, "lat": 43.6178678, "lon": -116.2002725}, {"type": "node", "id": 7161575075, "lat": 43.61792, "lon": -116.2032297}, {"type": "node", "id": 7184824678, "lat": 43.618474, "lon": -116.2021145}, {"type": "node", "id": 7184829378, "lat": 43.6181537, "lon": -116.2069609}, {"type": "node", "id": 7184829381, "lat": 43.6178806, "lon": -116.2067762}, {"type": "node", "id": 7184829382, "lat": 43.6180052, "lon": -116.2066582}, {"type": "node", "id": 7184829383, "lat": 43.6177108, "lon": -116.2069927, "tags": {"addr:city": "Boise", "addr:housenumber": "1112", "addr:postcode": "83702", "addr:state": "ID", "addr:street": "West Main Street", "addr:unit": "101", "name": "Taylor Law Offices", "office": "lawyer"}}, {"type": "node", "id": 7184829384, "lat": 43.6173011, "lon": -116.207395, "tags": {"addr:city": "Boise", "addr:housenumber": "1109", "addr:postcode": "83702", "addr:state": "ID", "addr:street": "West Main Street", "amenity": "restaurant", "cuisine": "steak_house", "name": "Owyhee Tavern Steak & Sea", "phone": "+1-208-639-0440"}}, {"type": "node", "id": 7184834485, "lat": 43.6171399, "lon": -116.2067888, "tags": {"addr:city": "Boise", "addr:housenumber": "1023", "addr:postcode": "83702", "addr:state": "ID", "addr:street": "West Main Street", "name": "Iron Wolf Tattoo", "shop": "tattoo"}}, {"type": "node", "id": 7184834486, "lat": 43.6176419, "lon": -116.2065863, "tags": {"addr:city": "Boise", "addr:housenumber": "110", "addr:postcode": "83702", "addr:state": "ID", "addr:street": "North 11th Street", "amenity": "restaurant", "cuisine": "mexican", "name": "Calle 75 Street Tacos"}}, {"type": "node", "id": 7184834487, "lat": 43.6171157, "lon": -116.2061008, "tags": {"addr:city": "Boise", "addr:housenumber": "1002", "addr:postcode": "83702", "addr:state": "ID", "addr:street": "West Main Street", "amenity": "restaurant", "name": "Stardust", "website": "https://stardustboise.com/"}}, {"type": "node", "id": 7184834488, "lat": 43.6170166, "lon": -116.2059158, "tags": {"addr:city": "Boise", "addr:housenumber": "1000", "addr:postcode": "83702", "addr:state": "ID", "addr:street": "West Main Street", "amenity": "restaurant", "cuisine": "japanese", "name": "Zen Bento"}}, {"type": "node", "id": 7184834489, "lat": 43.6168302, "lon": -116.205516, "tags": {"addr:city": "Boise", "addr:housenumber": "928", "addr:postcode": "83702", "addr:state": "ID", "addr:street": "West Main Street", "addr:unit": "102", "amenity": "restaurant", "cuisine": "indian", "name": "Bombay Grill", "phone": "+1-208-345-7888"}}, {"type": "node", "id": 7184834490, "lat": 43.616904, "lon": -116.2063744, "tags": {"addr:city": "Boise", "addr:housenumber": "1007", "addr:postcode": "83702", "addr:state": "ID", "addr:street": "West Main Street", "name": "Bodega Boise", "shop": "convenience"}}, {"type": "node", "id": 7212369887, "lat": 43.6141189, "lon": -116.206443, "tags": {"addr:city": "Boise", "addr:housenumber": "314", "addr:postcode": "83702", "addr:state": "ID", "addr:street": "South 9th Street", "addr:unit": "90;100", "name": "Proof Eyewear", "opening_hours": "Mo-Fr 10:00-17:00; Sa 11:00-17:00", "phone": "+1-208-629-8099", "shop": "optician", "website": "https://www.iwantproof.com/"}}, {"type": "node", "id": 7212369901, "lat": 43.6153685, "lon": -116.2061374}, {"type": "node", "id": 7212369902, "lat": 43.6156173, "lon": -116.206544}, {"type": "node", "id": 7212369914, "lat": 43.6156235, "lon": -116.2065062}, {"type": "node", "id": 7212369915, "lat": 43.6156099, "lon": -116.2064821}, {"type": "node", "id": 7212369916, "lat": 43.6156196, "lon": -116.2064218}, {"type": "node", "id": 7212369917, "lat": 43.615608, "lon": -116.2064204}, {"type": "node", "id": 7212369918, "lat": 43.6156206, "lon": -116.206336}, {"type": "node", "id": 7212369919, "lat": 43.6156128, "lon": -116.206332}, {"type": "node", "id": 7212369920, "lat": 43.6156206, "lon": -116.2062582}, {"type": "node", "id": 7212369921, "lat": 43.6156002, "lon": -116.2062528}, {"type": "node", "id": 7212369922, "lat": 43.6156041, "lon": -116.206222}, {"type": "node", "id": 7212369923, "lat": 43.6154401, "lon": -116.2061737}, {"type": "node", "id": 7212369924, "lat": 43.6154313, "lon": -116.206155}, {"type": "node", "id": 7212369925, "lat": 43.6153663, "lon": -116.2061188}, {"type": "node", "id": 7234148988, "lat": 43.6001294, "lon": -116.1939422}, {"type": "node", "id": 7248142165, "lat": 43.6215256, "lon": -116.2096504}, {"type": "node", "id": 7248142166, "lat": 43.6215319, "lon": -116.2096631}, {"type": "node", "id": 7248142167, "lat": 43.6214451, "lon": -116.2097461}, {"type": "node", "id": 7248142168, "lat": 43.6214402, "lon": -116.2097364}, {"type": "node", "id": 7248142169, "lat": 43.621411, "lon": -116.2097643}, {"type": "node", "id": 7248142170, "lat": 43.6213627, "lon": -116.2096679}, {"type": "node", "id": 7248142171, "lat": 43.6215012, "lon": -116.2095316}, {"type": "node", "id": 7844710680, "lat": 43.618157, "lon": -116.202431, "tags": {"addr:city": "Boise", "addr:housenumber": "350", "addr:postcode": "83702", "addr:state": "ID", "addr:street": "West Jefferson Street", "addr:unit": "B60", "name": "Branched Roots", "office": "advertising_agency"}}, {"type": "node", "id": 7951534913, "lat": 43.6166907, "lon": -116.2016222}, {"type": "node", "id": 7965164125, "lat": 43.6110841, "lon": -116.1947139}, {"type": "node", "id": 7965164126, "lat": 43.611005, "lon": -116.1941379}, {"type": "node", "id": 7965164127, "lat": 43.6106258, "lon": -116.1942375}, {"type": "node", "id": 7965164128, "lat": 43.6105454, "lon": -116.1943207}, {"type": "node", "id": 7965164129, "lat": 43.6105584, "lon": -116.1944006}, {"type": "node", "id": 7965164130, "lat": 43.6105927, "lon": -116.1943925}, {"type": "node", "id": 7965164131, "lat": 43.6106116, "lon": -116.1945083}, {"type": "node", "id": 7965164132, "lat": 43.6108396, "lon": -116.194443}, {"type": "node", "id": 7965164133, "lat": 43.6108892, "lon": -116.1947987}, {"type": "node", "id": 7965164134, "lat": 43.6108136, "lon": -116.1948558}, {"type": "node", "id": 7965164135, "lat": 43.6109057, "lon": -116.1950941}, {"type": "node", "id": 8331500605, "lat": 43.6177299, "lon": -116.2079121, "tags": {"addr:city": "Boise", "addr:housenumber": "1197", "addr:postcode": "83702", "addr:state": "ID", "addr:street": "West Main Street", "beauty": "hair;nails;skin_care;massage", "branch": "Salon Suites", "brand": "Sola Salons", "brand:wikidata": "Q64337426", "name": "Sola Salons", "shop": "beauty", "website": "https://www.solasalonstudios.com/locations/owyhee"}}, {"type": "node", "id": 8331500610, "lat": 43.6149717, "lon": -116.203367}, {"type": "node", "id": 8331500615, "lat": 43.6163684, "lon": -116.202355, "tags": {"addr:city": "Boise", "addr:housenumber": "780", "addr:postcode": "83702", "addr:state": "ID", "addr:street": "West Idaho Street", "amenity": "restaurant", "cuisine": "vietnamese", "name": "Pho Nouveau"}}, {"type": "node", "id": 8331527211, "lat": 43.61673, "lon": -116.2061715, "tags": {"addr:city": "Boise", "addr:housenumber": "109", "addr:postcode": "83702", "addr:state": "ID", "addr:street": "South 10th Street", "amenity": "cafe", "cuisine": "breakfast", "internet_access": "wlan", "name": "\u0101 caf\u00e9", "opening_hours": "Mo-Sa 08:00-15:00", "website": "https://acafeboise.com/"}}, {"type": "node", "id": 8331534400, "lat": 43.6247872, "lon": -116.2119235, "tags": {"addr:city": "Boise", "addr:housenumber": "1798", "addr:postcode": "83702", "addr:state": "ID", "addr:street": "West State Street", "brand": "Supercuts", "brand:wikidata": "Q7643239", "name": "Supercuts", "phone": "+1-208-429-1101", "shop": "hairdresser", "website": "https://www.supercuts.com/locations/id/boise/marketplace-shopping-center-haircuts-80017.html"}}, {"type": "node", "id": 8331535783, "lat": 43.6199344, "lon": -116.2101377, "tags": {"addr:city": "Boise", "addr:housenumber": "175", "addr:postcode": "83702", "addr:state": "ID", "addr:street": "North 14th Street", "amenity": "restaurant", "cuisine": "basque", "name": "Txikiteo", "opening_hours": "We-Su 11:00-21:00", "phone": "+1-208-813-6178", "website": "https://txikiteo.com/"}}, {"type": "node", "id": 8331537599, "lat": 43.6219049, "lon": -116.209993}, {"type": "node", "id": 8331537646, "lat": 43.6097341, "lon": -116.193967, "tags": {"addr:city": "Boise", "addr:housenumber": "143", "addr:postcode": "83702", "addr:state": "ID", "addr:street": "South Broadway Avenue", "brand": "Great Clips", "brand:wikidata": "Q5598967", "name": "Great Clips", "opening_hours": "Mo-Fr 08:00-20:00; Sa 09:00-18:00; Su 10:00-17:00", "shop": "hairdresser"}}, {"type": "node", "id": 8331542094, "lat": 43.6176696, "lon": -116.202771}, {"type": "node", "id": 8331542182, "lat": 43.6148651, "lon": -116.207097, "tags": {"addr:city": "Boise", "addr:housenumber": "959", "addr:postcode": "83702", "addr:state": "ID", "addr:street": "West Front Street", "amenity": "restaurant", "cuisine": "seafood", "name": "Anthony's"}}, {"type": "node", "id": 8331543913, "lat": 43.6288316, "lon": -116.203601}, {"type": "node", "id": 8331544706, "lat": 43.6164624, "lon": -116.187363}, {"type": "node", "id": 8331545270, "lat": 43.629374, "lon": -116.203707, "tags": {"addr:city": "Boise", "addr:housenumber": "1304", "addr:postcode": "83702", "addr:state": "ID", "addr:street": "West Alturas Street", "name": "Hyde Park Fine Wines", "shop": "wine"}}, {"type": "node", "id": 8331545271, "lat": 43.6293801, "lon": -116.203808, "tags": {"addr:city": "Boise", "addr:housenumber": "1306", "addr:postcode": "83702", "addr:state": "ID", "addr:street": "West Alturas Street", "name": "Joyride Cycles", "shop": "bicycle"}}, {"type": "node", "id": 8331545369, "lat": 43.6155976, "lon": -116.2020832, "tags": {"addr:city": "Boise", "addr:housenumber": "161", "addr:postcode": "83702", "addr:state": "ID", "addr:street": "North Capitol Boulevard", "name": "JD's Bodega", "shop": "convenience", "website": "https://jdsbodega.com/"}}, {"type": "node", "id": 8331545370, "lat": 43.6172799, "lon": -116.202628, "tags": {"addr:city": "Boise", "addr:housenumber": "805", "addr:postcode": "83702", "addr:state": "ID", "addr:street": "West Bannock Street", "name": "The Chocolat Bar", "note": "Yes, it's spelled this way, don't try to \"fix\" the spelling.", "shop": "confectionery"}}, {"type": "node", "id": 8331545460, "lat": 43.617183, "lon": -116.2057752, "tags": {"addr:city": "Boise", "addr:housenumber": "103", "addr:postcode": "83702", "addr:state": "ID", "addr:street": "North 10th Street", "amenity": "restaurant", "name": "Don & Charly's", "website": "https://www.donandcharlys.com/"}}, {"type": "node", "id": 8331545617, "lat": 43.6183103, "lon": -116.204706, "tags": {"addr:city": "Boise", "addr:housenumber": "219", "addr:postcode": "83702", "addr:state": "ID", "addr:street": "North 10th Street", "amenity": "cafe", "name": "The District Coffee House", "opening_hours": "Mo-Fr 07:00-17:00; Sa-Su 08:00-16:00", "phone": "+1 208-343-1089", "website": "https://www.districtcoffeehouse.com/"}}, {"type": "node", "id": 8331546891, "lat": 43.6111586, "lon": -116.194906}, {"type": "node", "id": 8331547081, "lat": 43.6127867, "lon": -116.2064465, "tags": {"addr:city": "Boise", "addr:housenumber": "421", "addr:postcode": "83702", "addr:state": "ID", "addr:street": "South 8th Street", "addr:unit": "114;115", "name": "Exceed Legal", "office": "lawyer", "website": "https://exceed.legal/"}}, {"type": "node", "id": 8331549112, "lat": 43.6141983, "lon": -116.205546, "tags": {"addr:city": "Boise", "addr:housenumber": "835", "addr:postcode": "83702", "addr:state": "ID", "addr:street": "West Front Street", "name": "Practice in Your Pocket", "office": "company"}}, {"type": "node", "id": 8331604822, "lat": 43.6016009, "lon": -116.193086}, {"type": "node", "id": 8331607507, "lat": 43.6165769, "lon": -116.188489}, {"type": "node", "id": 8331607604, "lat": 43.6160586, "lon": -116.186887}, {"type": "node", "id": 8331608681, "lat": 43.6170215, "lon": -116.203664, "tags": {"addr:city": "Boise", "addr:housenumber": "840", "addr:postcode": "83702", "addr:state": "ID", "addr:street": "West Idaho Street", "amenity": "cafe", "name": "Sarah's Bagel Cafe"}}, {"type": "node", "id": 8331608684, "lat": 43.6172277, "lon": -116.2034955, "tags": {"addr:city": "Boise", "addr:housenumber": "206", "addr:postcode": "83702", "addr:state": "ID", "addr:street": "North 9th Street", "amenity": "bar", "name": "9th Street Nook"}}, {"type": "node", "id": 8331608693, "lat": 43.6167632, "lon": -116.2021995, "tags": {"addr:city": "Boise", "addr:housenumber": "274", "addr:postcode": "83702", "addr:state": "ID", "addr:street": "North 8th Street", "amenity": "restaurant", "cuisine": "german", "name": "Prost German Pub"}}, {"type": "node", "id": 8331608694, "lat": 43.6168088, "lon": -116.202146, "tags": {"addr:city": "Boise", "addr:housenumber": "276", "addr:postcode": "83702", "addr:state": "ID", "addr:street": "North 8th Street", "amenity": "cafe", "name": "Wild Root Cafe and Market"}}, {"type": "node", "id": 8331608702, "lat": 43.6124241, "lon": -116.2051015, "tags": {"addr:city": "Boise", "addr:housenumber": "473", "addr:postcode": "83702", "addr:state": "ID", "addr:street": "South Capitol Boulevard", "brand": "Berkshire Hathaway HomeServices", "brand:short": "Berkshire Hathaway", "brand:wikidata": "Q5887960", "name": "Silverhawk Realty", "office": "estate_agent", "website": "https://www.bhhssilverhawkrealty.com/"}}, {"type": "node", "id": 8331608703, "lat": 43.6126106, "lon": -116.20498, "tags": {"addr:city": "Boise", "addr:housenumber": "439", "addr:postcode": "83702", "addr:state": "ID", "addr:street": "South Capitol Boulevard", "name": "Van Dyck Frame Design", "shop": "frame"}}, {"type": "node", "id": 8331608707, "lat": 43.6128755, "lon": -116.205011, "tags": {"addr:city": "Boise", "addr:housenumber": "755", "addr:postcode": "83702", "addr:state": "ID", "addr:street": "West Broad Street", "name": "Ava Rae Boutique", "shop": "clothes"}}, {"type": "node", "id": 8331608740, "lat": 43.6140236, "lon": -116.202191, "tags": {"addr:city": "Boise", "addr:housenumber": "610", "addr:postcode": "83702", "addr:state": "ID", "addr:street": "West Grove Street", "amenity": "restaurant", "cuisine": "basque", "name": "Bardenay", "takeaway": "no", "wheelchair": "yes"}}, {"type": "node", "id": 8331608741, "lat": 43.6172187, "lon": -116.205739, "tags": {"addr:city": "Boise", "addr:housenumber": "105", "addr:postcode": "83702", "addr:state": "ID", "addr:street": "North 10th Street", "hairdresser": "barber", "name": "10th Street Barbershop", "shop": "hairdresser", "website": "https://www.bestboisebarbers.com/"}}, {"type": "node", "id": 8331608745, "lat": 43.6167304, "lon": -116.2027005, "tags": {"addr:city": "Boise", "addr:housenumber": "205", "addr:postcode": "83702", "addr:state": "ID", "addr:street": "North 8th Street", "amenity": "restaurant", "cuisine": "pizza", "name": "Pie Hole"}}, {"type": "node", "id": 8331608748, "lat": 43.6119364, "lon": -116.203239, "tags": {"addr:city": "Boise", "addr:housenumber": "523", "addr:postcode": "83702", "addr:state": "ID", "addr:street": "West Broad Street", "name": "Boise Weekly", "office": "newspaper"}}, {"type": "node", "id": 8331608757, "lat": 43.6166154, "lon": -116.202838, "tags": {"addr:city": "Boise", "addr:housenumber": "802", "addr:postcode": "83702", "addr:state": "ID", "addr:street": "West Idaho Street", "alt_name": "North Face", "brand": "The North Face", "brand:wikidata": "Q152784", "clothes": "outdoor", "name": "The North Face", "shop": "clothes"}}, {"type": "node", "id": 8331608761, "lat": 43.6172567, "lon": -116.2025625, "tags": {"addr:city": "Boise", "addr:housenumber": "803", "addr:postcode": "83702", "addr:state": "ID", "addr:street": "West Bannock Street", "name": "City Peanut Shop", "shop": "edible_seeds"}}, {"type": "node", "id": 8331608763, "lat": 43.6173946, "lon": -116.202844, "tags": {"addr:city": "Boise", "addr:housenumber": "815", "addr:postcode": "83702", "addr:state": "ID", "addr:street": "West Bannock Street", "amenity": "restaurant", "cuisine": "ramen", "name": "Nara Ramen", "website": "https://nararamen.com/downtown-boise-menu/"}}, {"type": "node", "id": 8331608772, "lat": 43.6146491, "lon": -116.2007008, "tags": {"addr:city": "Boise", "addr:housenumber": "108", "addr:postcode": "83702", "addr:state": "ID", "addr:street": "North 6th Street", "email": "IdahoMade@gmail.com", "name": "Idaho Made", "shop": "gift", "website": "https://www.idahomadegoods.com/"}}, {"type": "node", "id": 8331608780, "lat": 43.6160949, "lon": -116.2001988}, {"type": "node", "id": 8331608787, "lat": 43.61726, "lon": -116.2034665, "tags": {"addr:city": "Boise", "addr:housenumber": "208", "addr:postcode": "83702", "addr:state": "ID", "addr:street": "North 9th Street", "amenity": "cafe", "name": "Moss Coffee & Tea"}}, {"type": "node", "id": 8331608796, "lat": 43.6163254, "lon": -116.202253, "tags": {"addr:city": "Boise", "addr:housenumber": "750", "addr:postcode": "83702", "addr:state": "ID", "addr:street": "West Idaho Street", "amenity": "restaurant", "cuisine": "thai", "name": "Mai Thai"}}, {"type": "node", "id": 8331608799, "lat": 43.6085748, "lon": -116.198092}, {"type": "node", "id": 8331608800, "lat": 43.6093476, "lon": -116.19748, "tags": {"addr:city": "Boise", "addr:housenumber": "105", "addr:postcode": "83702", "addr:state": "ID", "addr:street": "East Front Street", "beauty": "nails", "name": "Hannah Nail & Spa", "shop": "beauty"}}, {"type": "node", "id": 8331608803, "lat": 43.6167365, "lon": -116.201714}, {"type": "node", "id": 8331608817, "lat": 43.6164426, "lon": -116.2031781, "tags": {"addr:city": "Boise", "addr:housenumber": "807", "addr:postcode": "83702", "addr:state": "ID", "addr:street": "West Idaho Street", "amenity": "restaurant", "name": "Alavita"}}, {"type": "node", "id": 8331608823, "lat": 43.6166181, "lon": -116.202312, "tags": {"addr:city": "Boise", "addr:housenumber": "246", "addr:postcode": "83702", "addr:state": "ID", "addr:street": "North 8th Street", "amenity": "restaurant", "name": "Bittercreek Alehouse/Red Feather Lounge"}}, {"type": "node", "id": 8331608848, "lat": 43.6170301, "lon": -116.202422, "tags": {"addr:city": "Boise", "addr:housenumber": "219", "addr:postcode": "83702", "addr:state": "ID", "addr:street": "North 8th Street", "amenity": "cafe", "cuisine": "coffee_shop", "internet_access": "wlan", "internet_access:fee": "customers", "internet_access:ssid": "Dawson Taylor Guest", "name": "Dawson Taylor Coffee Roasters", "opening_hours": "Mo-Su 07:00-17:00", "outdoor_seating": "yes", "phone": "+1-208-336-5633", "website": "https://dawsontaylor.com/", "wheelchair": "yes"}}, {"type": "node", "id": 8331608852, "lat": 43.6121808, "lon": -116.2075703, "tags": {"addr:city": "Boise", "addr:housenumber": "850", "addr:postcode": "83702", "addr:state": "ID", "addr:street": "West Fulton Street", "content": "wine", "name": "WineKeeper Idaho", "shop": "storage_rental", "website": "https://winekeeperidaho.com/"}}, {"type": "node", "id": 8331608854, "lat": 43.6163075, "lon": -116.2030476, "tags": {"addr:city": "Boise", "addr:housenumber": "199", "addr:postcode": "83702", "addr:state": "ID", "addr:street": "North 8th Street", "amenity": "restaurant", "name": "Fork"}}, {"type": "node", "id": 8331608863, "lat": 43.6126047, "lon": -116.20797}, {"type": "node", "id": 8331608871, "lat": 43.6098626, "lon": -116.1939705, "tags": {"addr:city": "Boise", "addr:housenumber": "135", "addr:postcode": "83702", "addr:state": "ID", "addr:street": "South Broadway Avenue", "brand": "AT&T", "brand:wikidata": "Q298594", "name": "AT&T", "opening_hours": "Mo-Sa 10:00-20:00; Su 11:00-18:00", "shop": "mobile_phone"}}, {"type": "node", "id": 8331608876, "lat": 43.6103442, "lon": -116.1939897, "tags": {"addr:city": "Boise", "addr:housenumber": "115", "addr:postcode": "83702", "addr:state": "ID", "addr:street": "South Broadway Avenue", "amenity": "restaurant", "cuisine": "tacos", "name": "Tin Roof Tacos", "opening_hours": "Mo-Su 06:30-22:00"}}, {"type": "node", "id": 8331608885, "lat": 43.6130318, "lon": -116.198755}, {"type": "node", "id": 8331608886, "lat": 43.6143394, "lon": -116.2006475, "tags": {"addr:city": "Boise", "addr:housenumber": "570", "addr:postcode": "83702", "addr:state": "ID", "addr:street": "West Main Street", "amenity": "restaurant", "name": "Wiseguy Pizza Pie"}}, {"type": "node", "id": 8331608929, "lat": 43.6185904, "lon": -116.1986185}, {"type": "node", "id": 8331608944, "lat": 43.6114578, "lon": -116.203232}, {"type": "node", "id": 8331608983, "lat": 43.6134711, "lon": -116.2000082, "tags": {"addr:city": "Boise", "addr:housenumber": "114", "addr:postcode": "83702", "addr:state": "ID", "addr:street": "South 5th Street", "level": "0", "name": "Collective Concept", "shop": "hairdresser", "website": "https://www.collectivecoboise.com/"}}, {"type": "node", "id": 8331609000, "lat": 43.6132735, "lon": -116.202447}, {"type": "node", "id": 8331609004, "lat": 43.6153956, "lon": -116.198292}, {"type": "node", "id": 8331609014, "lat": 43.6161996, "lon": -116.202002, "tags": {"addr:city": "Boise", "addr:housenumber": "712", "addr:postcode": "83702", "addr:state": "ID", "addr:street": "West Idaho Street", "amenity": "restaurant", "cuisine": "american", "name": "Moon's Kitchen Cafe"}}, {"type": "node", "id": 8331609031, "lat": 43.6165433, "lon": -116.204936, "tags": {"addr:city": "Boise", "addr:housenumber": "908", "addr:postcode": "83702", "addr:state": "ID", "addr:street": "West Main Street", "amenity": "cafe", "name": "Alia's Coffee House"}}, {"type": "node", "id": 8331609033, "lat": 43.6164626, "lon": -116.204793, "tags": {"addr:city": "Boise", "addr:housenumber": "904", "addr:postcode": "83702", "addr:state": "ID", "addr:street": "West Main Street", "amenity": "restaurant", "cuisine": "sandwich;italian", "name": "Main Street Deli/Il Sugo"}}, {"type": "node", "id": 8331609051, "lat": 43.612165, "lon": -116.206639}, {"type": "node", "id": 8331609056, "lat": 43.6128998, "lon": -116.2063567, "tags": {"addr:city": "Boise", "addr:housenumber": "415", "addr:postcode": "83702", "addr:state": "ID", "addr:street": "South 8th Street", "name": "R Grey Gallery", "shop": "jewelry", "website": "https://rgreygallery.com/"}}, {"type": "node", "id": 8331609091, "lat": 43.6139952, "lon": -116.200784, "tags": {"addr:city": "Boise", "addr:housenumber": "513", "addr:postcode": "83702", "addr:state": "ID", "addr:street": "West Main Street", "amenity": "bar", "name": "Pengilly\u2019s Saloon"}}, {"type": "node", "id": 8331609093, "lat": 43.6146607, "lon": -116.202457, "tags": {"addr:city": "Boise", "addr:housenumber": "108", "addr:postcode": "83702", "addr:state": "ID", "addr:street": "South Capitol Boulevard", "amenity": "restaurant", "cuisine": "breakfast", "name": "Goldy's", "name:en": "Goldy's Breakfast Bistro", "opening_hours": "Tu-Fr 07:00-14:00; Sa-Mo 07:30-14:00", "phone": "+1 208-345-4100", "website": "http://goldysbreakfastbistro.com/"}}, {"type": "node", "id": 8331609123, "lat": 43.6168583, "lon": -116.2025118}, {"type": "node", "id": 8331609128, "lat": 43.6181398, "lon": -116.204336, "tags": {"addr:city": "Boise", "addr:housenumber": "224", "addr:postcode": "83702", "addr:state": "ID", "addr:street": "North 10th Street", "amenity": "restaurant", "diet:pescetarian": "yes", "diet:vegan": "yes", "diet:vegetarian": "yes", "name": "Lemon Tree Co.", "opening_hours": "Mo, Sa, Su 11:00-16:00; Tu-Fr 11:00-19:00"}}, {"type": "node", "id": 8331609138, "lat": 43.6172579, "lon": -116.2056989, "tags": {"addr:city": "Boise", "addr:housenumber": "109", "addr:postcode": "83702", "addr:state": "ID", "addr:street": "North 10th Street", "name": "Riebe's Shoe Repair", "shop": "shoe_repair", "website": "https://www.riebeshoes.com/"}}, {"type": "node", "id": 8331609221, "lat": 43.6178861, "lon": -116.2003088}, {"type": "node", "id": 8331609229, "lat": 43.6107296, "lon": -116.193597}, {"type": "node", "id": 8331609234, "lat": 43.612407, "lon": -116.206406}, {"type": "node", "id": 8331609272, "lat": 43.611411, "lon": -116.1958545, "tags": {"addr:city": "Boise", "addr:housenumber": "111", "addr:postcode": "83702", "addr:state": "ID", "addr:street": "West Main Street", "name": "Les Bois Building", "office": "yes"}}, {"type": "node", "id": 8331609273, "lat": 43.6115418, "lon": -116.1960864, "tags": {"addr:city": "Boise", "addr:housenumber": "115", "addr:postcode": "83702", "addr:state": "ID", "addr:street": "West Main Street", "office": "yes"}}, {"type": "node", "id": 8331609404, "lat": 43.6146506, "lon": -116.202006, "tags": {"addr:city": "Boise", "addr:housenumber": "615", "addr:postcode": "83702", "addr:state": "ID", "addr:street": "West Main Street", "amenity": "restaurant", "cuisine": "mexican", "name": "Coa De Jima"}}, {"type": "node", "id": 8331609408, "lat": 43.6153727, "lon": -116.20045, "tags": {"addr:city": "Boise", "addr:housenumber": "602", "addr:postcode": "83702", "addr:state": "ID", "addr:street": "West Idaho Street", "name": "Spa Urbana", "shop": "beauty", "website": "https://www.spaurbana.com/"}}, {"type": "node", "id": 8331609428, "lat": 43.6186986, "lon": -116.203877}, {"type": "node", "id": 8331609450, "lat": 43.6168399, "lon": -116.20851, "tags": {"addr:city": "Boise", "addr:housenumber": "1115", "addr:postcode": "83702", "addr:state": "ID", "addr:street": "West Grove Street", "name": "Hi-Tech Color", "shop": "copyshop", "website": "https://www.hi-techcolor.com/"}}, {"type": "node", "id": 8331609461, "lat": 43.6191066, "lon": -116.208382}, {"type": "node", "id": 8331609483, "lat": 43.6101968, "lon": -116.198402}, {"type": "node", "id": 8331609491, "lat": 43.6099864, "lon": -116.19997}, {"type": "node", "id": 8331609526, "lat": 43.6121679, "lon": -116.208252}, {"type": "node", "id": 8331609579, "lat": 43.6133336, "lon": -116.20831}, {"type": "node", "id": 8331609589, "lat": 43.6120133, "lon": -116.205655}, {"type": "node", "id": 8331617051, "lat": 43.6299327, "lon": -116.2035151, "tags": {"addr:city": "Boise", "addr:housenumber": "1517", "addr:postcode": "83702", "addr:state": "ID", "addr:street": "North 13th Street", "name": "Euphoria Salon", "shop": "hairdresser"}}, {"type": "node", "id": 8331617056, "lat": 43.6255125, "lon": -116.211252, "tags": {"addr:city": "Boise", "addr:housenumber": "1758", "addr:postcode": "83702", "addr:state": "ID", "addr:street": "West State Street", "name": "Shu's Idaho Running Company", "phone": "+1-208-344-6604", "shop": "sports", "sport": "running", "website": "https://idahorunningcompany.com/"}}, {"type": "node", "id": 8331617095, "lat": 43.6298431, "lon": -116.203513, "tags": {"addr:city": "Boise", "addr:housenumber": "1513", "addr:postcode": "83702", "addr:state": "ID", "addr:street": "North 13th Street", "amenity": "restaurant", "cuisine": "pizza", "name": "North End Neighborhood Pizza", "opening_hours": "Mo 16:00-21:00; Su, Tu-Th 12:00-21:00; Fr-Sa 12:00-22:00", "phone": "+1-208-345-5669", "website": "https://www.northendpizzaboise.com/", "website:menu": "https://www.northendpizzaboise.com/new-page"}}, {"type": "node", "id": 8331617189, "lat": 43.625039, "lon": -116.211608, "tags": {"addr:city": "Boise", "addr:housenumber": "1780", "addr:postcode": "83702", "addr:state": "ID", "addr:street": "West State Street", "name": "Prints Plus", "phone": "+1-208-345-7882", "shop": "frame", "website": "https://www.printsplusidaho.com/"}}, {"type": "node", "id": 8331617193, "lat": 43.6251919, "lon": -116.211419, "tags": {"addr:city": "Boise", "addr:housenumber": "1772", "addr:postcode": "83702", "addr:state": "ID", "addr:street": "West State Street", "amenity": "restaurant", "cuisine": "mediterranean", "name": "Mazzah Mediterranean Grill", "outdoor_seating": "yes", "takeaway": "yes", "website": "https://mazzahboise.com/"}}, {"type": "node", "id": 8331617196, "lat": 43.6254559, "lon": -116.21019, "tags": {"addr:city": "Boise", "addr:housenumber": "1734", "addr:postcode": "83702", "addr:state": "ID", "addr:street": "West State Street", "name": "Idaho State Liquor Store", "opening_hours": "Fr,Sa 10:00-21:00; Su 12:00-18:00; Mo-Th 11:00-20:00", "operator": "Idaho State Liquor Division", "phone": "+1-208-334-2412", "shop": "alcohol"}}, {"type": "node", "id": 8331617243, "lat": 43.6201099, "lon": -116.194447}, {"type": "node", "id": 8331617687, "lat": 43.6214188, "lon": -116.1974534}, {"type": "node", "id": 8331618207, "lat": 43.6189733, "lon": -116.2013912}, {"type": "node", "id": 8331618276, "lat": 43.6247816, "lon": -116.202355}, {"type": "node", "id": 8331618357, "lat": 43.6309483, "lon": -116.202879}, {"type": "node", "id": 8331618358, "lat": 43.6294677, "lon": -116.20296}, {"type": "node", "id": 8331618360, "lat": 43.6297014, "lon": -116.203182}, {"type": "node", "id": 8331618361, "lat": 43.6296026, "lon": -116.202993}, {"type": "node", "id": 8331618362, "lat": 43.6300226, "lon": -116.203154}, {"type": "node", "id": 8331618396, "lat": 43.6304237, "lon": -116.203499, "tags": {"addr:city": "Boise", "addr:housenumber": "1605", "addr:postcode": "83702", "addr:state": "ID", "addr:street": "North 13th Street", "addr:unit": "A", "name": "Fidcuiary Financial Group", "office": "financial_advisor"}}, {"type": "node", "id": 8331618397, "lat": 43.630369, "lon": -116.203499, "tags": {"addr:city": "Boise", "addr:housenumber": "1603", "addr:postcode": "83702", "addr:state": "ID", "addr:street": "North 13th Street", "name": "Sage Properties", "office": "estate_agent"}}, {"type": "node", "id": 8331618406, "lat": 43.6307439, "lon": -116.203822}, {"type": "node", "id": 8331618413, "lat": 43.6301361, "lon": -116.2034811}, {"type": "node", "id": 8331618416, "lat": 43.630536, "lon": -116.203729}, {"type": "node", "id": 8331618425, "lat": 43.6294132, "lon": -116.2035256, "tags": {"addr:city": "Boise", "addr:housenumber": "1501", "addr:postcode": "83702", "addr:state": "ID", "addr:street": "North 13th Street", "amenity": "restaurant", "cuisine": "american", "name": "Hyde Park Pub and Grill"}}, {"type": "node", "id": 8331618427, "lat": 43.6297856, "lon": -116.20351, "tags": {"addr:city": "Boise", "addr:housenumber": "1509", "addr:postcode": "83702", "addr:state": "ID", "addr:street": "North 13th Street", "amenity": "bar", "name": "The Royal"}}, {"type": "node", "id": 8331619167, "lat": 43.6193026, "lon": -116.207199}, {"type": "node", "id": 8331619207, "lat": 43.6217153, "lon": -116.207697}, {"type": "node", "id": 8331619218, "lat": 43.6254628, "lon": -116.2076712}, {"type": "node", "id": 8331619266, "lat": 43.6229885, "lon": -116.208021}, {"type": "node", "id": 8331619296, "lat": 43.6224935, "lon": -116.208788}, {"type": "node", "id": 8331619371, "lat": 43.622951, "lon": -116.210035}, {"type": "node", "id": 8331619377, "lat": 43.6215499, "lon": -116.209627}, {"type": "node", "id": 8331619490, "lat": 43.6255827, "lon": -116.211185, "tags": {"addr:city": "Boise", "addr:housenumber": "1754", "addr:postcode": "83702", "addr:state": "ID", "addr:street": "West State Street", "amenity": "cafe", "name": "Janjou P\u00e2tisserie", "phone": "+1-208-297-5853", "website": "https://www.janjou.com/"}}, {"type": "node", "id": 8331619605, "lat": 43.6252274, "lon": -116.212429}, {"type": "node", "id": 8421858059, "lat": 43.6159144, "lon": -116.2003742}, {"type": "node", "id": 8672317702, "lat": 43.6162502, "lon": -116.205758, "tags": {"addr:city": "Boise", "addr:housenumber": "999", "addr:postcode": "83702", "addr:state": "ID", "addr:street": "West Main Street", "addr:unit": "1101", "name": "Wilner & O'Reilly", "office": "lawyer", "website": "https://www.wilneroreilly.com/"}}, {"type": "node", "id": 8672361402, "lat": 43.6139287, "lon": -116.199496, "tags": {"addr:city": "Boise", "addr:housenumber": "420", "addr:postcode": "83702", "addr:state": "ID", "addr:street": "West Main Street", "addr:unit": "205", "name": "Strategies 360", "office": "company", "website": "https://www.strategies360.com/"}}, {"type": "node", "id": 8672361403, "lat": 43.6139432, "lon": -116.1995316, "tags": {"addr:city": "Boise", "addr:housenumber": "420", "addr:postcode": "83702", "addr:state": "ID", "addr:street": "West Main Street", "addr:unit": "204", "brand": "Guaranteed Rate", "brand:wikidata": "Q5613923", "name": "Guaranteed Rate", "office": "mortgage", "website": "https://www.rate.com/loan-officers/michelle-goldsmith-1040541"}}, {"type": "node", "id": 8672361404, "lat": 43.6139676, "lon": -116.1995951, "tags": {"addr:city": "Boise", "addr:housenumber": "420", "addr:postcode": "83702", "addr:state": "ID", "addr:street": "West Main Street", "addr:unit": "202", "brand": "Robert Half", "brand:wikidata": "Q2157448", "name": "Robert Half", "office": "employment_agency", "website": "https://www.roberthalf.com/us/en/locations/id-boise/420-main-st"}}, {"type": "node", "id": 8672361405, "lat": 43.6137827, "lon": -116.1994433, "tags": {"addr:city": "Boise", "addr:housenumber": "420", "addr:postcode": "83702", "addr:state": "ID", "addr:street": "West Main Street", "addr:unit": "102", "level": "0", "name": "Ralston Group Properties", "office": "estate_agent", "website": "https://www.ralstongroupproperties.com/"}}, {"type": "node", "id": 8672370494, "lat": 43.6156482, "lon": -116.2021813, "tags": {"addr:city": "Boise", "addr:housenumber": "199", "addr:postcode": "83702", "addr:state": "ID", "addr:street": "North Capitol Boulevard", "addr:unit": "602", "level": "5", "name": "Byron W. Folwell", "office": "architect", "website": "https://www.byronfolwell.com/"}}, {"type": "node", "id": 8672370495, "lat": 43.6156873, "lon": -116.2020971, "tags": {"addr:city": "Boise", "addr:housenumber": "199", "addr:postcode": "83702", "addr:state": "ID", "addr:street": "North Capitol Boulevard", "addr:unit": "601", "level": "5", "name": "Cox Law, PLLC", "office": "lawyer", "website": "https://coxlawboise.com/"}}, {"type": "node", "id": 8672370496, "lat": 43.6157448, "lon": -116.2020344, "tags": {"addr:city": "Boise", "addr:housenumber": "199", "addr:postcode": "83702", "addr:state": "ID", "addr:street": "North Capitol Boulevard", "addr:unit": "600", "level": "5", "name": "Davison, Copple, Copple & Copple", "office": "lawyer", "website": "https://www.davisoncopple.com/"}}, {"type": "node", "id": 8672370498, "lat": 43.6157375, "lon": -116.2020204, "tags": {"addr:city": "Boise", "addr:housenumber": "199", "addr:postcode": "83702", "addr:state": "ID", "addr:street": "North Capitol Boulevard", "addr:unit": "500", "level": "4", "name": "Riverstone Estate Planning", "office": "lawyer", "website": "https://www.riverstoneestateplanningandprobate.com/"}}, {"type": "node", "id": 8672370503, "lat": 43.6157287, "lon": -116.2020029, "tags": {"addr:city": "Boise", "addr:housenumber": "199", "addr:postcode": "83702", "addr:state": "ID", "addr:street": "North Capitol Boulevard", "addr:unit": "300", "level": "2", "name": "Retail West", "office": "company", "website": "https://retailwest.com/"}}, {"type": "node", "id": 8672370504, "lat": 43.6157034, "lon": -116.2020193, "tags": {"addr:city": "Boise", "addr:housenumber": "199", "addr:postcode": "83702", "addr:state": "ID", "addr:street": "North Capitol Boulevard", "addr:unit": "200", "level": "1", "name": "Johnson May Law", "office": "lawyer", "website": "https://www.johnsonmaylaw.com/boise-lawyer"}}, {"type": "node", "id": 8672371178, "lat": 43.6177518, "lon": -116.2071826, "tags": {"addr:city": "Boise", "addr:housenumber": "1112", "addr:postcode": "83702", "addr:state": "ID", "addr:street": "West Main Street", "addr:unit": "105", "name": "Idaho Employment Lawyers", "office": "lawyer", "website": "https://www.idemploymentlawyers.com/"}}, {"type": "node", "id": 8672371455, "lat": 43.6157634, "lon": -116.2048314, "tags": {"addr:city": "Boise", "addr:housenumber": "877", "addr:postcode": "83702", "addr:state": "ID", "addr:street": "West Main Street", "addr:unit": "704", "name": "Mountain Pacific Investment Advisors", "office": "financial_advisor", "website": "https://mountain-pacific.com/"}}, {"type": "node", "id": 8672371472, "lat": 43.6160309, "lon": -116.201186, "tags": {"addr:city": "Boise", "addr:housenumber": "204", "addr:postcode": "83702", "addr:state": "ID", "addr:street": "North Capitol Boulevard", "addr:unit": "10", "amenity": "bar", "name": "Devil's Den"}}, {"type": "node", "id": 8672371888, "lat": 43.615075, "lon": -116.203798, "tags": {"addr:city": "Boise", "addr:housenumber": "777", "addr:postcode": "83702", "addr:state": "ID", "addr:street": "West Main Street", "addr:unit": "130", "amenity": "restaurant", "brand": "Buffalo Wild Wings", "brand:wikidata": "Q509255", "cuisine": "wings", "name": "Buffalo Wild Wings", "opening_hours": "Mo-Su 11:00-24:00", "short_name": "BW3"}}, {"type": "node", "id": 8672371890, "lat": 43.6154642, "lon": -116.2035095, "tags": {"addr:city": "Boise", "addr:housenumber": "777", "addr:postcode": "83702", "addr:state": "ID", "addr:street": "West Main Street", "addr:unit": "110", "amenity": "cafe", "branch": "Boise", "brand": "Dutch Bros. Coffee", "brand:wikidata": "Q5317253", "cuisine": "coffee_shop", "name": "Dutch Bros. Coffee", "ref": "DB275", "takeaway": "only", "website": "https://locations.dutchbros.com/dutch-bros-coffee-dd6cef9bf649"}}, {"type": "node", "id": 8672371893, "lat": 43.615277, "lon": -116.2032355, "tags": {"addr:city": "Boise", "addr:housenumber": "777", "addr:postcode": "83702", "addr:state": "ID", "addr:street": "West Main Street", "addr:unit": "160", "name": "Bronco Shop", "shop": "clothes"}}, {"type": "node", "id": 8672372268, "lat": 43.616428, "lon": -116.205579, "tags": {"addr:city": "Boise", "addr:housenumber": "999", "addr:postcode": "83702", "addr:state": "ID", "addr:street": "West Main Street", "addr:unit": "100", "association": "Utah State Bar", "language:de": "yes", "language:en": "yes", "language:es": "yes", "name": "Sawtooth Defense Lawyers", "office": "lawyer", "opening_hours": "Mo-Sa 09:00-18:00; Su off", "phone": "+1-208-644-8893", "website": "https://sawtoothdefenselawyers.com/"}}, {"type": "node", "id": 8672372333, "lat": 43.6174664, "lon": -116.2075164, "tags": {"addr:city": "Boise", "addr:housenumber": "1109", "addr:postcode": "83702", "addr:state": "ID", "addr:street": "West Main Street", "addr:unit": "115", "name": "Baby Blues and Pink", "shop": "clothes", "website": "https://babybluesandpink.com/"}}, {"type": "node", "id": 8672372624, "lat": 43.6158117, "lon": -116.2045, "tags": {"addr:city": "Boise", "addr:housenumber": "877", "addr:postcode": "83702", "addr:state": "ID", "addr:street": "West Main Street", "addr:unit": "700", "name": "Golbon", "office": "company", "phone": "+1-208-342-7771", "website": "https://www.golbon.com/"}}, {"type": "node", "id": 8672373985, "lat": 43.6151904, "lon": -116.203625, "tags": {"addr:city": "Boise", "addr:housenumber": "777", "addr:postcode": "83702", "addr:state": "ID", "addr:street": "West Main Street", "addr:unit": "900", "level": "4-9", "name": "Clearwater Analytics", "office": "it", "phone": "+1-208-918-2400", "website": "https://www.clearwater-analytics.com/"}}, {"type": "node", "id": 8672374152, "lat": 43.6136131, "lon": -116.206714, "tags": {"addr:city": "Boise", "addr:housenumber": "855", "addr:postcode": "83702", "addr:state": "ID", "addr:street": "West Broad Street", "addr:unit": "300", "name": "Hawkins Companies", "office": "estate_agent", "website": "https://www.hawkinscompanies.com/"}}, {"type": "node", "id": 8672374174, "lat": 43.6154213, "lon": -116.20043, "tags": {"addr:city": "Boise", "addr:housenumber": "223", "addr:postcode": "83702", "addr:state": "ID", "addr:street": "North 6th Street", "addr:unit": "110", "amenity": "cafe", "name": "Java"}}, {"type": "node", "id": 8672374299, "lat": 43.6165733, "lon": -116.20632, "tags": {"addr:city": "Boise", "addr:housenumber": "117", "addr:postcode": "83702", "addr:state": "ID", "addr:street": "South 10th Street", "amenity": "cafe", "name": "Neckar Coffee"}}, {"type": "node", "id": 8672374329, "lat": 43.6001511, "lon": -116.1940582, "tags": {"addr:city": "Boise", "addr:housenumber": "1021", "addr:postcode": "83706", "addr:state": "ID", "addr:street": "South Broadway Avenue", "name": "Uptown Cheapskate", "second_hand": "only", "shop": "clothes"}}, {"type": "node", "id": 8672374422, "lat": 43.6154573, "lon": -116.2038085, "tags": {"addr:city": "Boise", "addr:housenumber": "801", "addr:postcode": "83702", "addr:state": "ID", "addr:street": "West Main Street", "addr:unit": "103", "name": "Snake River Tea", "shop": "tea"}}, {"type": "node", "id": 8672374423, "lat": 43.6153998, "lon": -116.203959, "tags": {"addr:city": "Boise", "addr:housenumber": "801", "addr:postcode": "83702", "addr:state": "ID", "addr:street": "West Main Street", "addr:unit": "105", "name": "Taters", "opening_hours": "Mo-Fr 10:00-18:00; Sa 10:00-17:00; Su 11:00-16:00", "phone": "+1-208-338-1062", "shop": "gift", "website": "https://www.idahotaters.com/"}}, {"type": "node", "id": 8672375078, "lat": 43.6158383, "lon": -116.2046957, "tags": {"addr:city": "Boise", "addr:housenumber": "877", "addr:postcode": "83702", "addr:state": "ID", "addr:street": "West Main Street", "addr:unit": "800", "name": "Eide Bailly", "office": "financial_advisor", "website": "https://www.eidebailly.com/locations/boise"}}, {"type": "node", "id": 8672375380, "lat": 43.6160101, "lon": -116.203358, "tags": {"addr:city": "Boise", "addr:housenumber": "800", "addr:postcode": "83702", "addr:state": "ID", "addr:street": "West Main Street", "addr:unit": "110", "amenity": "restaurant", "brand": "Ruth's Chris Steak House", "brand:wikidata": "Q7382829", "cuisine": "american;steak_house", "name": "Ruth's Chris Steak House"}}, {"type": "node", "id": 8672379332, "lat": 43.6130424, "lon": -116.206247, "tags": {"addr:city": "Boise", "addr:housenumber": "409", "addr:postcode": "83702", "addr:state": "ID", "addr:street": "South 8th Street", "addr:unit": "101", "name": "Atomic Treasures", "shop": "antiques"}}, {"type": "node", "id": 8672379916, "lat": 43.6132214, "lon": -116.206566, "tags": {"addr:city": "Boise", "addr:housenumber": "409", "addr:postcode": "83702", "addr:state": "ID", "addr:street": "South 8th Street", "addr:unit": "103", "amenity": "restaurant", "cuisine": "american", "name": "Double Tap Pub"}}, {"type": "node", "id": 8672380267, "lat": 43.6136489, "lon": -116.2068206, "tags": {"addr:city": "Boise", "addr:housenumber": "855", "addr:postcode": "83702", "addr:state": "ID", "addr:street": "West Broad Street", "addr:unit": "103", "name": "Natural Intelligence", "office": "yes", "website": "https://www.naturalintelligence.ai/"}}, {"type": "node", "id": 8672380268, "lat": 43.6135654, "lon": -116.2066524, "tags": {"addr:city": "Boise", "addr:housenumber": "855", "addr:postcode": "83702", "addr:state": "ID", "addr:street": "West Broad Street", "addr:unit": "101", "name": "Unisearch", "office": "yes", "website": "https://www.unisearch.com/"}}, {"type": "node", "id": 8672381986, "lat": 43.6171351, "lon": -116.2027028}, {"type": "node", "id": 8672382010, "lat": 43.6161905, "lon": -116.2030888}, {"type": "node", "id": 8672382018, "lat": 43.6163264, "lon": -116.195646}, {"type": "node", "id": 8672382023, "lat": 43.6170669, "lon": -116.198119}, {"type": "node", "id": 8672382032, "lat": 43.61818, "lon": -116.202983}, {"type": "node", "id": 8672382035, "lat": 43.607764, "lon": -116.195135}, {"type": "node", "id": 8672382318, "lat": 43.6229837, "lon": -116.198619}, {"type": "node", "id": 8672382370, "lat": 43.6197078, "lon": -116.2036466}, {"type": "node", "id": 8672382372, "lat": 43.6213241, "lon": -116.204787}, {"type": "node", "id": 8672382380, "lat": 43.6221343, "lon": -116.206728}, {"type": "node", "id": 8672382383, "lat": 43.6236488, "lon": -116.208509}, {"type": "node", "id": 8672382389, "lat": 43.6251145, "lon": -116.20971}, {"type": "node", "id": 8942110256, "lat": 43.6178082, "lon": -116.205147, "tags": {"addr:city": "Boise", "addr:housenumber": "205", "addr:postcode": "83702", "addr:state": "ID", "addr:street": "North 10th Street", "addr:unit": "600", "brand": "KPMG", "brand:wikidata": "Q493751", "consulting": "accounting", "name": "KPMG", "office": "consulting", "phone": "+1-208-389-6500", "website": "https://kpmg.com/"}}, {"type": "node", "id": 8982371358, "lat": 43.6176351, "lon": -116.1999408}, {"type": "node", "id": 8982371362, "lat": 43.617603, "lon": -116.1996866}, {"type": "node", "id": 8982371363, "lat": 43.6177304, "lon": -116.1999441}, {"type": "node", "id": 8982371364, "lat": 43.6176118, "lon": -116.1991114}, {"type": "node", "id": 8982371365, "lat": 43.618133, "lon": -116.2000171}, {"type": "node", "id": 8982371366, "lat": 43.6181444, "lon": -116.2000061}, {"type": "node", "id": 8982371367, "lat": 43.618065, "lon": -116.19985}, {"type": "node", "id": 8982371368, "lat": 43.618053, "lon": -116.1998616}, {"type": "node", "id": 8982375782, "lat": 43.6175745, "lon": -116.199714}, {"type": "node", "id": 8982375816, "lat": 43.6176919, "lon": -116.1999392}, {"type": "node", "id": 8982375970, "lat": 43.6180199, "lon": -116.1994897}, {"type": "node", "id": 8982375971, "lat": 43.617995, "lon": -116.1994405}, {"type": "node", "id": 8982375981, "lat": 43.617619, "lon": -116.1991044}, {"type": "node", "id": 8982375983, "lat": 43.6181194, "lon": -116.2000886}, {"type": "node", "id": 8982375984, "lat": 43.6180734, "lon": -116.2001595}, {"type": "node", "id": 8982375985, "lat": 43.6174237, "lon": -116.1992572}, {"type": "node", "id": 8982375988, "lat": 43.6175521, "lon": -116.1991333}, {"type": "node", "id": 8982376035, "lat": 43.6179843, "lon": -116.2002451}, {"type": "node", "id": 8982376064, "lat": 43.617466, "lon": -116.1992164}, {"type": "node", "id": 8982376212, "lat": 43.6177033, "lon": -116.1999282}, {"type": "node", "id": 8982376313, "lat": 43.6175045, "lon": -116.1991792, "tags": {"entrance": "main"}}, {"type": "node", "id": 8982376316, "lat": 43.6175945, "lon": -116.1998604, "tags": {"entrance": "main"}}, {"type": "node", "id": 8982376346, "lat": 43.6180079, "lon": -116.1994659, "tags": {"entrance": "main"}}, {"type": "node", "id": 8982376372, "lat": 43.6180288, "lon": -116.2002024, "tags": {"entrance": "main"}}, {"type": "node", "id": 8982376382, "lat": 43.6177727, "lon": -116.1992976}, {"type": "node", "id": 8982462437, "lat": 43.61757, "lon": -116.1997475}, {"type": "node", "id": 8982462446, "lat": 43.6176632, "lon": -116.1999363}, {"type": "node", "id": 8982462552, "lat": 43.6173891, "lon": -116.1993371}, {"type": "node", "id": 8983709868, "lat": 43.6176618, "lon": -116.1990756}, {"type": "node", "id": 8983709871, "lat": 43.6181508, "lon": -116.2000521}, {"type": "node", "id": 8984940643, "lat": 43.6166538, "lon": -116.1977566}, {"type": "node", "id": 8984940645, "lat": 43.6168685, "lon": -116.1977356}, {"type": "node", "id": 8984940646, "lat": 43.6168522, "lon": -116.197859}, {"type": "node", "id": 8984940647, "lat": 43.6168774, "lon": -116.197835}, {"type": "node", "id": 8984940648, "lat": 43.6169359, "lon": -116.1979519}, {"type": "node", "id": 8984940649, "lat": 43.6169197, "lon": -116.1979195}, {"type": "node", "id": 8984940650, "lat": 43.6168969, "lon": -116.1978743}, {"type": "node", "id": 8984940651, "lat": 43.6169245, "lon": -116.1979607}, {"type": "node", "id": 8984940652, "lat": 43.616941, "lon": -116.1979942}, {"type": "node", "id": 8984940653, "lat": 43.6169202, "lon": -116.1982847}, {"type": "node", "id": 8984940655, "lat": 43.6170039, "lon": -116.1982048}, {"type": "node", "id": 8984940656, "lat": 43.6169985, "lon": -116.1981939}, {"type": "node", "id": 8984940657, "lat": 43.6170446, "lon": -116.1981498}, {"type": "node", "id": 8984940658, "lat": 43.6170418, "lon": -116.1981433}, {"type": "node", "id": 8984940659, "lat": 43.616728, "lon": -116.1980086}, {"type": "node", "id": 8984940660, "lat": 43.6167105, "lon": -116.1980271}, {"type": "node", "id": 8984940661, "lat": 43.6166824, "lon": -116.1977207}, {"type": "node", "id": 8984940679, "lat": 43.6167228, "lon": -116.1980161}, {"type": "node", "id": 8984940680, "lat": 43.6167219, "lon": -116.1980144}, {"type": "node", "id": 8984940681, "lat": 43.6167475, "lon": -116.198101}, {"type": "node", "id": 8984940682, "lat": 43.6167692, "lon": -116.1980934}, {"type": "node", "id": 8984940684, "lat": 43.6167595, "lon": -116.1980895}, {"type": "node", "id": 8984940685, "lat": 43.6167667, "lon": -116.1980892}, {"type": "node", "id": 8984940686, "lat": 43.6167618, "lon": -116.1980939}, {"type": "node", "id": 8984940754, "lat": 43.6167748, "lon": -116.1981055}, {"type": "node", "id": 8984940789, "lat": 43.6167224, "lon": -116.1979973}, {"type": "node", "id": 8984940814, "lat": 43.6169196, "lon": -116.1976869}, {"type": "node", "id": 8984940815, "lat": 43.6169445, "lon": -116.1977368}, {"type": "node", "id": 8984940817, "lat": 43.616926, "lon": -116.1978463}, {"type": "node", "id": 8984940818, "lat": 43.6169488, "lon": -116.1978915}, {"type": "node", "id": 8984940837, "lat": 43.616729, "lon": -116.198064, "tags": {"entrance": "main"}}, {"type": "node", "id": 8984940858, "lat": 43.6166976, "lon": -116.1977063, "tags": {"entrance": "secondary"}}, {"type": "node", "id": 8984940860, "lat": 43.617023, "lon": -116.1981705, "tags": {"entrance": "secondary"}}, {"type": "node", "id": 8984940863, "lat": 43.6170169, "lon": -116.1981763}, {"type": "node", "id": 8984940864, "lat": 43.6170291, "lon": -116.1981647}, {"type": "node", "id": 8984940865, "lat": 43.6169379, "lon": -116.1978699, "tags": {"entrance": "main"}}, {"type": "node", "id": 8984940866, "lat": 43.6169913, "lon": -116.1979703, "tags": {"entrance": "staircase"}}, {"type": "node", "id": 8984940867, "lat": 43.6169186, "lon": -116.1977615, "tags": {"entrance": "staircase"}}, {"type": "node", "id": 8989010765, "lat": 43.6168328, "lon": -116.1978207}, {"type": "node", "id": 8989010767, "lat": 43.6170075, "lon": -116.1980018}, {"type": "node", "id": 8989010771, "lat": 43.6166509, "lon": -116.1977508}, {"type": "node", "id": 8989010772, "lat": 43.6167422, "lon": -116.1976638}, {"type": "node", "id": 8989010773, "lat": 43.6167845, "lon": -116.1976309}, {"type": "node", "id": 8989010774, "lat": 43.6167825, "lon": -116.1976269}, {"type": "node", "id": 8989010775, "lat": 43.616915, "lon": -116.1982743}, {"type": "node", "id": 8990384421, "lat": 43.6185812, "lon": -116.206229, "tags": {"addr:city": "Boise", "addr:housenumber": "1100", "addr:postcode": "83702", "addr:state": "ID", "addr:street": "West Idaho Street", "addr:unit": "105", "amenity": "cafe", "cuisine": "coffee_shop", "name": "Broadcast Coffee", "website": "https://broadcastcoffeeroasters.com/"}}, {"type": "node", "id": 9287467245, "lat": 43.6219803, "lon": -116.2099292}, {"type": "node", "id": 9287467246, "lat": 43.6219606, "lon": -116.2098839}, {"type": "node", "id": 9287467247, "lat": 43.6220653, "lon": -116.2097947}, {"type": "node", "id": 9287467248, "lat": 43.6221179, "lon": -116.2099146}, {"type": "node", "id": 9287467249, "lat": 43.6220039, "lon": -116.2100122}, {"type": "node", "id": 9287467250, "lat": 43.6220209, "lon": -116.2100498}, {"type": "node", "id": 9287467251, "lat": 43.6219549, "lon": -116.210106}, {"type": "node", "id": 9319991186, "lat": 43.6124523, "lon": -116.2076721}, {"type": "node", "id": 9319991187, "lat": 43.6125425, "lon": -116.2080307}, {"type": "node", "id": 9319991188, "lat": 43.6123916, "lon": -116.2077313}, {"type": "node", "id": 9397952055, "lat": 43.6164343, "lon": -116.2055212, "tags": {"addr:city": "Boise", "addr:housenumber": "999", "addr:postcode": "83702", "addr:state": "ID", "addr:street": "West Main Street", "addr:unit": "P101", "amenity": "restaurant", "name": "KIN", "opening_hours": "We-Th 17:00-23:00, Fr-Sa 17:00-00:00", "phone": "+1-208-342-0600", "website": "https://www.kinboise.com/"}}, {"type": "node", "id": 9432487125, "lat": 43.6154838, "lon": -116.2003954, "tags": {"addr:city": "Boise", "addr:housenumber": "223", "addr:postcode": "83702", "addr:state": "ID", "addr:street": "North 6th Street", "addr:unit": "440", "name": "Larsen Law Office", "office": "lawyer", "website": "https://larsencriminaldefense.com/"}}, {"type": "node", "id": 9432487137, "lat": 43.6115955, "lon": -116.2030309}, {"type": "node", "id": 9432487138, "lat": 43.6116393, "lon": -116.2036468}, {"type": "node", "id": 9432487139, "lat": 43.6115212, "lon": -116.2037604}, {"type": "node", "id": 9432487140, "lat": 43.6115048, "lon": -116.2035472}, {"type": "node", "id": 9432487141, "lat": 43.611582, "lon": -116.2037019}, {"type": "node", "id": 9459235974, "lat": 43.6297379, "lon": -116.2034773}, {"type": "node", "id": 9459235979, "lat": 43.6299994, "lon": -116.2034799}, {"type": "node", "id": 9459235980, "lat": 43.6300366, "lon": -116.2036231}, {"type": "node", "id": 9459235981, "lat": 43.6300184, "lon": -116.2036139}, {"type": "node", "id": 9459235982, "lat": 43.6300366, "lon": -116.2036141}, {"type": "node", "id": 9459235983, "lat": 43.6300372, "lon": -116.2034802}, {"type": "node", "id": 9459235984, "lat": 43.6299772, "lon": -116.2035164, "tags": {"addr:city": "Boise", "addr:housenumber": "1517 1/2", "addr:postcode": "83702", "addr:state": "ID", "addr:street": "North 13th Street", "name": "Lit & Co. Candles", "shop": "candles"}}, {"type": "node", "id": 9459235985, "lat": 43.629912, "lon": -116.2032678}, {"type": "node", "id": 9467345929, "lat": 43.6157874, "lon": -116.2012578, "tags": {"addr:city": "Boise", "addr:housenumber": "622", "addr:postcode": "83702", "addr:state": "ID", "addr:street": "West Idaho Street", "amenity": "bar", "name": "Press and Pony"}}, {"type": "node", "id": 9501088416, "lat": 43.6110169, "lon": -116.206414}, {"type": "node", "id": 9501096721, "lat": 43.6110178, "lon": -116.2070169}, {"type": "node", "id": 9501096722, "lat": 43.6109385, "lon": -116.2068564}, {"type": "node", "id": 9501096724, "lat": 43.6131765, "lon": -116.20723, "tags": {"addr:city": "Boise", "addr:housenumber": "418", "addr:postcode": "83702", "addr:state": "ID", "addr:street": "South 9th Street", "addr:unit": "208", "name": "TMN Events", "office": "yes"}}, {"type": "node", "id": 9501096727, "lat": 43.6141396, "lon": -116.2064129, "tags": {"addr:city": "Boise", "addr:housenumber": "314", "addr:postcode": "83702", "addr:state": "ID", "addr:street": "South 9th Street", "addr:unit": "300", "name": "Mark D. Perison, P.A.", "office": "lawyer", "website": "https://www.markperison.com/"}}, {"type": "node", "id": 9501096728, "lat": 43.6141299, "lon": -116.2064349, "tags": {"addr:city": "Boise", "addr:housenumber": "314", "addr:postcode": "83702", "addr:state": "ID", "addr:street": "South 9th Street", "addr:unit": "200", "name": "Rizen Creative", "office": "advertising_agency", "website": "https://rizencreative.com/"}}, {"type": "node", "id": 9501096749, "lat": 43.6253562, "lon": -116.2077732}, {"type": "node", "id": 9501096750, "lat": 43.6254, "lon": -116.2078607}, {"type": "node", "id": 9501096751, "lat": 43.6255066, "lon": -116.2077587}, {"type": "node", "id": 9583503537, "lat": 43.6144981, "lon": -116.200431, "tags": {"addr:city": "Boise", "addr:housenumber": "560", "addr:postcode": "83702", "addr:state": "ID", "addr:street": "West Main Street", "amenity": "restaurant", "cuisine": "basque", "name": "Ansots Basque Chorizos & Catering", "opening_hours": "We-Sa 10:00-15:00", "phone": "+1-208-336-9166", "website": "https://ansots.com/"}}, {"type": "node", "id": 9592747751, "lat": 43.6187006, "lon": -116.2016538}, {"type": "node", "id": 9632491716, "lat": 43.6186855, "lon": -116.2064079, "tags": {"addr:city": "Boise", "addr:housenumber": "1100", "addr:postcode": "83702", "addr:state": "ID", "addr:street": "West Idaho Street", "addr:unit": "110", "name": "Parkside Market", "opening_hours": "Mo-Fr 10:00-18:00; Sa 10:00-15:00; Su off", "shop": "convenience"}}, {"type": "node", "id": 9632506417, "lat": 43.6186753, "lon": -116.2066328, "tags": {"addr:city": "Boise", "addr:housenumber": "1100", "addr:postcode": "83702", "addr:state": "ID", "addr:street": "West Idaho Street", "name": "Cradlepoint", "office": "company"}}, {"type": "node", "id": 9632506418, "lat": 43.6186464, "lon": -116.2065741, "tags": {"addr:city": "Boise", "addr:housenumber": "1100", "addr:postcode": "83702", "addr:state": "ID", "addr:street": "West Idaho Street", "name": "Idaho First Bank", "office": "financial"}}, {"type": "node", "id": 9632506419, "lat": 43.6186176, "lon": -116.2065159, "tags": {"addr:city": "Boise", "addr:housenumber": "1100", "addr:postcode": "83702", "addr:state": "ID", "addr:street": "West Idaho Street", "name": "USLI", "office": "insurance"}}, {"type": "node", "id": 9632506420, "lat": 43.6185922, "lon": -116.2064643, "tags": {"addr:city": "Boise", "addr:housenumber": "1100", "addr:postcode": "83702", "addr:state": "ID", "addr:street": "West Idaho Street", "name": "Regence BlueShield", "office": "insurance"}}, {"type": "node", "id": 9632506421, "lat": 43.618564, "lon": -116.2064073, "tags": {"addr:city": "Boise", "addr:housenumber": "1100", "addr:postcode": "83702", "addr:state": "ID", "addr:street": "West Idaho Street", "name": "ams OSRAM", "office": "company"}}, {"type": "node", "id": 9632506422, "lat": 43.6185388, "lon": -116.2063561, "tags": {"addr:city": "Boise", "addr:housenumber": "1100", "addr:postcode": "83702", "addr:state": "ID", "addr:street": "West Idaho Street", "name": "Teleo Capital", "office": "financial"}}, {"type": "node", "id": 9646712037, "lat": 43.6248371, "lon": -116.2095097, "tags": {"addr:city": "Boise", "addr:housenumber": "1650", "addr:postcode": "83702", "addr:state": "ID", "addr:street": "West State Street", "amenity": "cafe", "branch": "Albertsons Boise 101", "brand": "Starbucks", "brand:wikidata": "Q37158", "cuisine": "coffee_shop", "name": "Starbucks", "official_name": "Starbucks Coffee", "opening_hours": "Mo-Su 06:00-19:00", "phone": "+1 208-342-5651", "ref": "12361", "takeaway": "yes", "website": "https://www.starbucks.com/store-locator/store/12361/albertsons-boise-101-1650-w-state-st-boise-id-837024040-us"}}, {"type": "node", "id": 9765450900, "lat": 43.6170191, "lon": -116.207182, "tags": {"addr:city": "Boise", "addr:housenumber": "108", "addr:postcode": "83702", "addr:state": "ID", "addr:street": "South 11th Street", "amenity": "bar", "name": "The Atlas Bar"}}, {"type": "node", "id": 9948830072, "lat": 43.6163662, "lon": -116.2034379}, {"type": "node", "id": 10098458281, "lat": 43.6184196, "lon": -116.203661, "tags": {"addr:city": "Boise", "addr:housenumber": "950", "addr:postcode": "83702", "addr:state": "ID", "addr:street": "West Bannock Street", "addr:unit": "1163", "brand": "Morgan & Morgan", "brand:wikidata": "Q111597979", "office": "lawyer", "opening_hours": "24/7", "phone": "+1-208-202-3030", "website": "https://www.forthepeople.com/boise/"}}, {"type": "node", "id": 10808931218, "lat": 43.613954, "lon": -116.1992907, "tags": {"addr:city": "Boise", "addr:housenumber": "420", "addr:postcode": "83702", "addr:state": "ID", "addr:street": "West Main Street", "addr:unit": "303", "name": "Northwest Integrity Housing", "office": "association", "website": "https://nwintegrityhousing.com/"}}, {"type": "node", "id": 10808931239, "lat": 43.6138613, "lon": -116.199421, "tags": {"addr:city": "Boise", "addr:housenumber": "420", "addr:postcode": "83702", "addr:state": "ID", "addr:street": "West Main Street", "addr:unit": "305", "name": "Ahrens DeAngeli Law Group", "office": "lawyer", "website": "https://www.adlawgroup.com/"}}, {"type": "node", "id": 11082312260, "lat": 43.6158076, "lon": -116.2031352}, {"type": "node", "id": 11082312261, "lat": 43.6157404, "lon": -116.2029978}, {"type": "node", "id": 11082312262, "lat": 43.6157739, "lon": -116.2029673}, {"type": "node", "id": 11082312273, "lat": 43.6157465, "lon": -116.2029114}, {"type": "node", "id": 11082312274, "lat": 43.6157271, "lon": -116.2029293}, {"type": "node", "id": 11082312275, "lat": 43.6157152, "lon": -116.2029061}, {"type": "node", "id": 11082312277, "lat": 43.6155594, "lon": -116.2030121}, {"type": "node", "id": 11082312278, "lat": 43.6156634, "lon": -116.2032231}, {"type": "node", "id": 11082312279, "lat": 43.6156736, "lon": -116.2032137}, {"type": "node", "id": 11082312281, "lat": 43.6156996, "lon": -116.2032197}, {"type": "node", "id": 11082312282, "lat": 43.6157059, "lon": -116.2032321}, {"type": "node", "id": 11082312283, "lat": 43.6158438, "lon": -116.2029683}, {"type": "node", "id": 11082312284, "lat": 43.6160495, "lon": -116.20296}, {"type": "node", "id": 11082312295, "lat": 43.615854, "lon": -116.2029481}, {"type": "node", "id": 11082312300, "lat": 43.6158411, "lon": -116.2029961}, {"type": "node", "id": 11082312301, "lat": 43.6160692, "lon": -116.2025939}, {"type": "node", "id": 11082312302, "lat": 43.6160789, "lon": -116.2026142}, {"type": "node", "id": 11082312304, "lat": 43.6161177, "lon": -116.202587}, {"type": "node", "id": 11082315605, "lat": 43.6161505, "lon": -116.2025569}, {"type": "node", "id": 11082315607, "lat": 43.6161141, "lon": -116.2025795}, {"type": "node", "id": 11082315610, "lat": 43.6160441, "lon": -116.2026165}, {"type": "node", "id": 11082315612, "lat": 43.6159785, "lon": -116.2026541}, {"type": "node", "id": 11082315613, "lat": 43.6159343, "lon": -116.2026957}, {"type": "node", "id": 11082315614, "lat": 43.6159542, "lon": -116.2027383}, {"type": "node", "id": 11082315616, "lat": 43.6161058, "lon": -116.2029063}, {"type": "node", "id": 11082315618, "lat": 43.6158777, "lon": -116.2030809}, {"type": "node", "id": 11082315619, "lat": 43.6158834, "lon": -116.2029206}, {"type": "node", "id": 11082315620, "lat": 43.6159631, "lon": -116.2026227}, {"type": "node", "id": 11082315622, "lat": 43.6158892, "lon": -116.2030699}, {"type": "node", "id": 11082315624, "lat": 43.6161101, "lon": -116.2027494}, {"type": "node", "id": 11082315625, "lat": 43.6158751, "lon": -116.2030417}, {"type": "node", "id": 11082315627, "lat": 43.6160192, "lon": -116.2025686}, {"type": "node", "id": 11082315628, "lat": 43.6158871, "lon": -116.2030303}, {"type": "node", "id": 11082315629, "lat": 43.6158714, "lon": -116.2029989}, {"type": "node", "id": 11082315630, "lat": 43.615882, "lon": -116.2029888}, {"type": "node", "id": 11082315632, "lat": 43.616161, "lon": -116.2028531}, {"type": "node", "id": 11082315633, "lat": 43.6162029, "lon": -116.2026604}, {"type": "node", "id": 11082444059, "lat": 43.6161904, "lon": -116.2027228}, {"type": "node", "id": 11084749906, "lat": 43.6154901, "lon": -116.2026797}, {"type": "node", "id": 11084749910, "lat": 43.6160629, "lon": -116.2023838}, {"type": "node", "id": 11084749911, "lat": 43.6153923, "lon": -116.2027736}, {"type": "node", "id": 11084749924, "lat": 43.6154588, "lon": -116.2029056}, {"type": "node", "id": 11084749925, "lat": 43.6160134, "lon": -116.2022856}, {"type": "node", "id": 11084749926, "lat": 43.6154816, "lon": -116.2028861}, {"type": "node", "id": 11084749927, "lat": 43.6153942, "lon": -116.2027772}, {"type": "node", "id": 11084749928, "lat": 43.6154884, "lon": -116.2028999}, {"type": "node", "id": 11084749930, "lat": 43.6155103, "lon": -116.2028794}, {"type": "node", "id": 11084749931, "lat": 43.6155183, "lon": -116.2028952}, {"type": "node", "id": 11098868805, "lat": 43.6158664, "lon": -116.2029576}, {"type": "node", "id": 11098987606, "lat": 43.6158722, "lon": -116.202574}, {"type": "node", "id": 11098987608, "lat": 43.6158677, "lon": -116.2025634}, {"type": "node", "id": 11098987609, "lat": 43.6155377, "lon": -116.2027852}, {"type": "node", "id": 11098987610, "lat": 43.6155207, "lon": -116.2028016}, {"type": "node", "id": 11098989107, "lat": 43.6159006, "lon": -116.2023953}, {"type": "node", "id": 11098989505, "lat": 43.6158778, "lon": -116.2024167}, {"type": "node", "id": 11098989506, "lat": 43.6155508, "lon": -116.2028623}, {"type": "node", "id": 11098989605, "lat": 43.6158775, "lon": -116.202947}, {"type": "node", "id": 11099008088, "lat": 43.6158316, "lon": -116.2028553}, {"type": "node", "id": 11099008089, "lat": 43.615945, "lon": -116.2028887}, {"type": "node", "id": 11099008090, "lat": 43.6158852, "lon": -116.2028041}, {"type": "node", "id": 11099008091, "lat": 43.6158456, "lon": -116.2028444}, {"type": "node", "id": 11099008094, "lat": 43.6160384, "lon": -116.2029706}, {"type": "node", "id": 11099008096, "lat": 43.6158936, "lon": -116.2031099}, {"type": "node", "id": 11099015906, "lat": 43.6157692, "lon": -116.2032309}, {"type": "node", "id": 11099015908, "lat": 43.6160257, "lon": -116.2029469}, {"type": "node", "id": 11099015909, "lat": 43.6159603, "lon": -116.2029192}, {"type": "node", "id": 11099015911, "lat": 43.6159433, "lon": -116.2027478}, {"type": "node", "id": 11099015912, "lat": 43.6158233, "lon": -116.2028398}, {"type": "node", "id": 11099017209, "lat": 43.6156921, "lon": -116.2030779}, {"type": "node", "id": 11099017210, "lat": 43.6157694, "lon": -116.2032308}, {"type": "node", "id": 11099017211, "lat": 43.6157474, "lon": -116.2030244}, {"type": "node", "id": 11099017212, "lat": 43.6158255, "lon": -116.2031767}, {"type": "node", "id": 11099017213, "lat": 43.6157105, "lon": -116.2029468}, {"type": "node", "id": 11099017214, "lat": 43.615768, "lon": -116.2028933}, {"type": "node", "id": 11099017306, "lat": 43.615883, "lon": -116.2031202}, {"type": "node", "id": 11099017307, "lat": 43.6159992, "lon": -116.202927}, {"type": "node", "id": 11099017405, "lat": 43.6160145, "lon": -116.2029576}, {"type": "node", "id": 11099017406, "lat": 43.615987, "lon": -116.2029386}, {"type": "node", "id": 11099017407, "lat": 43.6159718, "lon": -116.2029082}, {"type": "node", "id": 11099017505, "lat": 43.6159332, "lon": -116.2029}, {"type": "node", "id": 11099023908, "lat": 43.6160486, "lon": -116.2025402}, {"type": "node", "id": 11099029106, "lat": 43.6161858, "lon": -116.2027587}, {"type": "node", "id": 11099029107, "lat": 43.6161924, "lon": -116.2027714}, {"type": "node", "id": 11099029108, "lat": 43.6160875, "lon": -116.2028673}, {"type": "node", "id": 11099029109, "lat": 43.6160897, "lon": -116.2025005}, {"type": "node", "id": 11099029110, "lat": 43.6158074, "lon": -116.2031349}, {"type": "node", "id": 11099029111, "lat": 43.615809, "lon": -116.2027713}, {"type": "node", "id": 11099029905, "lat": 43.6160077, "lon": -116.2027081}, {"type": "node", "id": 11099030105, "lat": 43.6159632, "lon": -116.202749}, {"type": "node", "id": 11099030106, "lat": 43.6159205, "lon": -116.2026638}, {"type": "node", "id": 11099030109, "lat": 43.6157467, "lon": -116.2029116}, {"type": "node", "id": 11099030205, "lat": 43.6161977, "lon": -116.2027171}, {"type": "node", "id": 11099030507, "lat": 43.6156997, "lon": -116.2029213}, {"type": "node", "id": 11099030606, "lat": 43.6158435, "lon": -116.2030303}, {"type": "node", "id": 11099030705, "lat": 43.6158482, "lon": -116.2030521}, {"type": "node", "id": 11099030706, "lat": 43.6158608, "lon": -116.2030846}, {"type": "node", "id": 11099030707, "lat": 43.6157272, "lon": -116.2029292}, {"type": "node", "id": 11099030708, "lat": 43.6156856, "lon": -116.2028904}, {"type": "node", "id": 11099034180, "lat": 43.6160369, "lon": -116.2024091}, {"type": "node", "id": 11099034185, "lat": 43.6157975, "lon": -116.203203, "tags": {"entrance": "yes"}}, {"type": "node", "id": 11099034186, "lat": 43.6158542, "lon": -116.2031485, "tags": {"entrance": "yes"}}, {"type": "node", "id": 11099034187, "lat": 43.6160779, "lon": -116.202933, "tags": {"entrance": "yes"}}, {"type": "node", "id": 11099034188, "lat": 43.6161335, "lon": -116.2028796, "tags": {"entrance": "yes"}}, {"type": "node", "id": 11099034189, "lat": 43.6161764, "lon": -116.2026082, "tags": {"entrance": "yes"}}, {"type": "node", "id": 11229846243, "lat": 43.609689, "lon": -116.206476, "tags": {"addr:city": "Boise", "addr:housenumber": "670", "addr:postcode": "83702", "addr:state": "ID", "addr:street": "West Julia Davis Drive", "name": "BAM Store", "operator": "Boise Art Museum", "phone": "+1 208-345-8330", "shop": "art"}}, {"type": "node", "id": 11782028511, "lat": 43.615763, "lon": -116.2034961}, {"type": "node", "id": 11782028512, "lat": 43.6157971, "lon": -116.2035645}, {"type": "node", "id": 11782028516, "lat": 43.6158122, "lon": -116.2034493}, {"type": "node", "id": 11782028517, "lat": 43.6163763, "lon": -116.2035642}, {"type": "node", "id": 11782028518, "lat": 43.6159979, "lon": -116.2039275}, {"type": "node", "id": 12728134074, "lat": 43.6181569, "lon": -116.2065145}, {"type": "node", "id": 12753799725, "lat": 43.6226028, "lon": -116.1982318}, {"type": "node", "id": 12761771240, "lat": 43.6156411, "lon": -116.2022247, "tags": {"addr:city": "Boise", "addr:housenumber": "199", "addr:postcode": "83702", "addr:state": "ID", "addr:street": "North Capitol Boulevard", "addr:unit": "503", "level": "4", "name": "Idaho School Boards Association", "office": "yes", "website": "https://www.idsba.org/"}}, {"type": "node", "id": 12761899637, "lat": 43.6128136, "lon": -116.2064393, "tags": {"name": "Anthology", "office": "estate_agent", "website": "https://www.anthology.realestate/"}}, {"type": "node", "id": 12764557970, "lat": 43.6134684, "lon": -116.1997863, "tags": {"addr:city": "Boise", "addr:housenumber": "465", "addr:postcode": "83702", "addr:state": "ID", "addr:street": "West Main Street", "level": "0", "name": "Law Office of Jeffrey T. Sheehan", "office": "lawyer", "website": "https://idahofamilylaw.com/"}}, {"type": "node", "id": 12765521437, "lat": 43.6139961, "lon": -116.1995147, "tags": {"addr:city": "Boise", "addr:housenumber": "420", "addr:postcode": "83702", "addr:state": "ID", "addr:street": "West Main Street", "addr:unit": "101", "level": "0", "office": "vacant"}}, {"type": "node", "id": 13161053801, "lat": 43.610274, "lon": -116.1835777, "tags": {"addr:housenumber": "311", "addr:postcode": "83712", "addr:street": "North Elm Avenue", "amenity": "cafe", "contact:instagram": "therooseveltmarketboise", "cuisine": "coffee_shop;ice_cream;sandwich", "email": "listening@therooseveltmarket.com", "internet_access": "wlan", "name": "The Roosevelt Market", "opening_hours": "Mo-Sa 07:30-19:00; Su 07:30-18:00", "website": "https://www.therooseveltmarket.com/", "website:menu": "https://www.therooseveltmarket.com/menu"}}, {"type": "node", "id": 13300398573, "lat": 43.6174868, "lon": -116.2023183, "tags": {"addr:city": "Boise", "addr:housenumber": "810", "addr:postcode": "83702", "addr:state": "ID", "addr:street": "West Bannock Street", "check_date": "2025-11-12", "currency:XBT": "yes", "name": "Two Zero Eight Salon and Spa", "payment:lightning": "yes", "payment:lightning:operator": "square", "payment:lightning_contactless": "no", "payment:onchain": "no", "shop": "beauty"}}, {"type": "node", "id": 13314834783, "lat": 43.6138339, "lon": -116.2039687, "tags": {"addr:city": "Boise", "addr:housenumber": "245", "addr:postcode": "83702", "addr:state": "ID", "addr:street": "South Capitol Boulevard", "amenity": "restaurant", "cuisine": "american", "name": "Trillium", "website": "https://www.trilliumboise.com/"}}, {"type": "node", "id": 13314834784, "lat": 43.6158873, "lon": -116.204554, "tags": {"addr:city": "Boise", "addr:housenumber": "877", "addr:postcode": "83702", "addr:state": "ID", "addr:street": "West Main Street", "addr:unit": "200", "name": "Hawley Troxell", "office": "lawyer", "website": "https://hawleytroxell.com/"}}, {"type": "way", "id": 32113664, "nodes": [8331609221, 360422316, 360422317, 8982376035, 8982376372, 8982375984, 5557206113, 360422318, 8982375983, 360423571, 8983709871, 8982371365, 8982371366, 8982371367, 8982371368, 360423572, 360423573, 7161574997, 7161574999, 7161575002, 7161575001, 7161575000, 360423579, 7161575003, 7161575004, 8982375970, 8982376346, 8982375971, 7161575005, 7161575006, 360423580, 7161575007, 7161575008, 7161575014, 7161575013, 360423583, 360423584, 360423585, 8982376382, 7161575009, 7161575010, 7161575011, 7161575012, 8983709868, 5574910188, 8982375981, 8982371364, 5557206116, 8982375988, 8982376313, 8982376064, 8982375985, 5574148347, 360423594, 360423596, 8982462552, 7161575015, 7161575016, 7161575017, 7161575018, 360423598, 360423599, 7161575028, 7161575027, 8982371362, 5561045098, 8982375782, 7161575029, 8982462437, 7161575030, 5557105316, 8982376316, 8982371358, 7161575026, 8982462446, 7161575032, 8982375816, 8982376212, 7161575033, 8982371363, 5557206105, 360423601, 360423602, 7161575035, 7161575036, 7161575037, 7161575038, 8331609221], "tags": {"addr:city": "Boise", "addr:county": "Ada", "addr:housenumber": "700", "addr:postcode": "83702", "addr:state": "ID", "addr:street": "West Jefferson Street", "building": "government", "building:levels": "7", "government": "yes", "height": "63", "name": "Idaho State Capitol", "office": "government", "website": "https://capitolcommission.idaho.gov/", "wikidata": "Q1491417", "wikipedia": "en:Idaho State Capitol"}}, {"type": "way", "id": 229832928, "nodes": [2383763414, 2383763416, 2383763410, 2383763418, 2383763414], "tags": {"addr:city": "Boise", "addr:housenumber": "1041", "addr:postcode": "83706", "addr:state": "ID", "addr:street": "South Broadway Avenue", "amenity": "bar", "building": "yes", "name": "R Bar", "opening_hours": "Mo-Su 15:00-02:00", "outdoor_seating": "yes"}}, {"type": "way", "id": 229832931, "nodes": [2383763433, 2383763435, 2383763437, 2383763439, 2383763433], "tags": {"brand": "Jacksons", "brand:wikidata": "Q64617393", "building": "yes", "name": "Jacksons", "shop": "convenience"}}, {"type": "way", "id": 247278227, "nodes": [8331608929, 2541928309, 2541928310, 2541928311, 8331608929], "tags": {"addr:city": "Boise", "addr:county": "Ada", "addr:housenumber": "650", "addr:postcode": "83702", "addr:state": "ID", "addr:street": "West State Street", "building": "public", "building:levels": "3", "name": "Len B. Jordan Building", "office": "government", "website": "https://adm.idaho.gov/"}}, {"type": "way", "id": 247278312, "nodes": [8984940815, 8984940814, 2541928794, 2541928796, 8989010773, 8989010774, 8989010772, 2544030411, 8984940858, 8984940661, 8989010771, 8984940643, 2541928799, 8984940789, 8984940659, 8984940680, 8984940679, 8984940660, 8984940837, 8984940681, 8984940684, 8984940686, 8984940685, 8984940682, 8984940754, 2541928803, 8989010775, 8984940653, 8984940655, 8984940656, 8984940863, 8984940860, 8984940864, 8984940657, 8984940658, 8672382023, 8989010767, 8984940866, 2541928789, 8984940652, 8984940651, 8984940648, 8984940649, 8984940818, 8984940865, 8984940817, 8984940650, 8984940647, 8984940646, 8989010765, 2541928791, 8984940645, 6212506509, 8984940867, 8984940815], "tags": {"addr:city": "Boise", "addr:housenumber": "514", "addr:postcode": "83702", "addr:state": "ID", "addr:street": "West Jefferson Street", "building": "government", "building:levels": "9", "name": "Idaho Capitol Annex", "office": "government"}}, {"type": "way", "id": 264773814, "nodes": [2704214097, 7184829378, 7184829382, 12728134074, 2704214100, 2704214097], "tags": {"addr:city": "Boise", "addr:housenumber": "1105;1101", "addr:postcode": "83702-5625", "addr:state": "ID", "addr:street": "West Idaho Street", "building": "yes", "name": "The Record Exchange", "opening_hours": "Mo-Th, Su 10:00-19:00; Fr, Sa 10:00-20:00", "phone": "+1 208 344 8010", "shop": "music", "website": "https://therecordexchange.com/"}}, {"type": "way", "id": 306783526, "nodes": [3117833734, 6212506491, 6212506492, 6212506493, 6212506494, 6212506495, 3117833731, 5775178885, 3117833732, 6212506489, 6212506488, 3117833733, 6212506490, 3117833734], "tags": {"addr:city": "Boise", "addr:housenumber": "300", "addr:postcode": "83702", "addr:state": "ID", "addr:street": "South Capitol Boulevard", "branch": "Boise", "brand": "Trader Joe's", "brand:wikidata": "Q688825", "building": "commercial", "building:levels": "1", "name": "Trader Joe's", "opening_hours": "Mo-Su 08:00-21:00", "phone": "+1 208-336-7282", "ref": "360", "shop": "supermarket", "website": "https://locations.traderjoes.com/id/boise/360/"}}, {"type": "way", "id": 361063061, "nodes": [8331608799, 3655855981, 3655855982, 3655855985, 3655855987, 3655855990, 3655855989, 3655855988, 3655855992, 3655855993, 3655855994, 3655855991, 3655855986, 3655855984, 3655855983, 8331608799], "tags": {"addr:city": "Boise", "addr:housenumber": "110", "addr:postcode": "83702", "addr:state": "ID", "addr:street": "East Myrtle Street", "brand": "WinCo Foods", "brand:wikidata": "Q8023592", "building": "yes", "name": "WinCo Foods", "opening_hours": "24/7", "phone": "+1 208-424-1634", "shop": "supermarket", "website": "https://www.wincofoods.com/stores/win-co-foods-downtown-boise-1/4659"}}, {"type": "way", "id": 361063278, "nodes": [8672382035, 3655857354, 3655864136, 3655857348, 3655857349, 3655857350, 3655857351, 3655864135, 3655857352, 6704565570, 3655857353, 8672382035], "tags": {"addr:city": "Boise", "addr:housenumber": "401", "addr:postcode": "83702", "addr:state": "ID", "addr:street": "South Broadway Avenue", "branch": "Boise", "brand": "Whole Foods Market", "brand:wikidata": "Q1809448", "building": "yes", "check_date": "2024-10-03", "check_date:opening_hours": "2024-10-03", "name": "Whole Foods Market", "opening_hours": "Mo-Su 08:00-21:00", "phone": "+1 208-287-4600", "ref": "boise", "shop": "supermarket", "website": "https://www.wholefoodsmarket.com/stores/boise"}}, {"type": "way", "id": 392883247, "nodes": [3960786975, 3960786976, 8331500610, 3960786978, 3960786979, 3960786980, 3960786981, 3960786982, 6212026700, 3960786975], "tags": {"addr:city": "Boise", "addr:housenumber": "101", "addr:postcode": "83702", "addr:state": "ID", "addr:street": "South Capitol Boulevard", "building": "office", "building:levels": "19", "height": "81", "name": "US Bank Plaza", "office": "yes", "wikidata": "Q7863080"}}, {"type": "way", "id": 441437384, "nodes": [8672382018, 4391791528, 4391791529, 4391791530, 8672382018], "tags": {"addr:city": "Boise", "addr:housenumber": "502", "addr:postcode": "83702", "addr:state": "ID", "addr:street": "North 4th Street", "building": "office", "building:levels": "2", "name": "Idaho Division of Public Works", "office": "government", "opening_hours": "Mo-Fr 08:00-17:00", "phone": "+1-208-332-1900", "website": "https://dpw.idaho.gov/"}}, {"type": "way", "id": 462379316, "nodes": [4577804286, 6257387721, 6257387718, 4577804489, 4577804286], "tags": {"addr:city": "Boise", "addr:housenumber": "954", "addr:postcode": "83702", "addr:state": "ID", "addr:street": "West Jefferson Street", "building": "yes", "building:levels": "3", "government": "ministry", "name": "Idaho Department of Juvenile Corrections", "office": "government"}}, {"type": "way", "id": 477675639, "nodes": [4709825223, 4709825216, 4709825202, 4709825210, 6260315702, 6260315703, 6260315705, 6260315704, 4709825223], "tags": {"building": "yes", "building:levels": "1", "office": "yes"}}, {"type": "way", "id": 477677044, "nodes": [4709814631, 4709814629, 4709814628, 4709814627, 4709814630, 4709814631], "tags": {"addr:city": "Boise", "addr:housenumber": "1100", "addr:postcode": "83702", "addr:state": "ID", "addr:street": "West Jefferson Street", "amenity": "restaurant", "building": "yes", "cuisine": "steak_house", "name": "Lock Stock & Barrel", "phone": "+1-208-336-4266", "website": "https://www.lsbboise.com/"}}, {"type": "way", "id": 492668085, "nodes": [8331608885, 4846554921, 4846554922, 4846554923, 4846554924, 4846554925, 4846554926, 4846554927, 4846554928, 4846554929, 4846554930, 4846554931, 4846554932, 4846554933, 8331608885], "tags": {"addr:city": "Boise", "addr:housenumber": "317", "addr:postcode": "83702", "addr:state": "ID", "addr:street": "West Main Street", "building": "yes", "building:levels": "4", "name": "State of Idaho Department of Labor", "office": "government"}}, {"type": "way", "id": 492879307, "nodes": [9319991187, 8331608863, 9319991186, 9319991188, 9319991187], "tags": {"addr:city": "Boise", "addr:housenumber": "518", "addr:postcode": "83702", "addr:state": "ID", "addr:street": "South 9th Street", "building": "warehouse", "building:levels": "2", "name": "VELOX Media", "office": "advertising_agency"}}, {"type": "way", "id": 492879355, "nodes": [8331608780, 4848489521, 4848489522, 4848489418, 8421858059, 8331608780], "tags": {"addr:city": "Boise", "addr:housenumber": "601", "addr:postcode": "83702", "addr:state": "ID", "addr:street": "West Bannock Street", "building": "yes", "building:levels": "3", "name": "Givens Pursley LLP", "office": "lawyer", "website": "https://www.givenspursley.com/"}}, {"type": "way", "id": 492879380, "nodes": [8331609000, 6268388099, 4848489577, 4848489579, 4848489580, 4848489581, 8331609000], "tags": {"addr:city": "Boise", "addr:housenumber": "211", "addr:postcode": "83702", "addr:state": "ID", "addr:street": "South 6th Street", "amenity": "cafe", "building": "yes", "name": "Rise and Grind"}}, {"type": "way", "id": 492879388, "nodes": [4848489630, 4848489631, 4848489632, 4848489633, 4848489630]}, {"type": "way", "id": 492879389, "nodes": [4848489634, 4848489635, 4848489636, 4848489637, 4848489634]}, {"type": "way", "id": 492879400, "nodes": [8331609229, 4848489690, 4848489691, 4848489692, 8331609229], "tags": {"addr:city": "Boise", "addr:housenumber": "107", "addr:postcode": "83702", "addr:state": "ID", "addr:street": "South Broadway Avenue", "brand": "ExtraMile", "brand:wikidata": "Q64224605", "building": "yes", "name": "ExtraMile", "operator": "Jacksons Food Stores", "ref": "125", "shop": "convenience"}}, {"type": "way", "id": 492879414, "nodes": [4848489752, 4848489753, 8672382032, 7161575075, 4848489755, 4848489752], "tags": {"addr:city": "Boise", "addr:housenumber": "305", "addr:postcode": "83702", "addr:state": "ID", "addr:street": "North 9th Street", "amenity": "restaurant", "building": "commercial", "building:levels": "1", "cuisine": "chinese", "name": "Yen Ching"}}, {"type": "way", "id": 492879416, "nodes": [4848489764, 4848489765, 4848489766, 7184824678, 4848489764], "tags": {"addr:city": "Boise", "addr:housenumber": "822", "addr:postcode": "83702", "addr:state": "ID", "addr:street": "West Jefferson Street", "building": "yes", "building:levels": "2", "name": "McU Sports", "opening_hours": "Mo-Fr 09:30-18:00; Sa 09:00-18:00; Su 11:00-18:00", "phone": "+1 208-342-7734", "shop": "sports", "website": "https://mcusports.com/"}}, {"type": "way", "id": 492879417, "nodes": [4848489769, 8331618207, 9592747751, 4848489770, 4848489769], "tags": {"addr:city": "Boise", "addr:housenumber": "821", "addr:postcode": "83702", "addr:state": "ID", "addr:street": "West State Street", "building": "yes", "government": "administrative", "office": "government"}}, {"type": "way", "id": 492879427, "nodes": [8331619207, 4848489842, 4848489843, 4848489844, 4848489845, 4848489846, 8331619207], "tags": {"addr:city": "Boise", "addr:housenumber": "1324", "addr:postcode": "83702", "addr:state": "ID", "addr:street": "West Jefferson Street", "brand": "Les Schwab Tire Center", "brand:wikidata": "Q6529977", "building": "yes", "name": "Les Schwab Tire Center", "shop": "tyres"}}, {"type": "way", "id": 492879428, "nodes": [8331619371, 4848489848, 4848489849, 4848489850, 8331619371], "tags": {"addr:city": "Boise", "addr:housenumber": "1515", "addr:postcode": "83702", "addr:state": "ID", "addr:street": "West State Street", "brand": "Rite Aid", "brand:wikidata": "Q3433273", "building": "yes", "building:levels": "1", "check_date": "2024-06-19", "check_date:opening_hours": "2024-06-19", "name": "Rite Aid", "opening_hours": "Mo-Fr 07:00-24:00; Sa-Su 08:00-23:00", "shop": "chemist", "website": "https://www.riteaid.com/locations/id/boise/1515-west-state-street.html"}}, {"type": "way", "id": 492879433, "nodes": [8672382389, 4848489880, 4848489881, 4848489882, 4848489883, 4848489884, 4848489885, 4848489886, 4848489887, 4848489888, 8672382389], "tags": {"addr:city": "Boise", "addr:housenumber": "1650", "addr:postcode": "83702", "addr:state": "ID", "addr:street": "West State Street", "brand": "Albertsons", "brand:wikidata": "Q2831861", "building": "commercial", "building:levels": "2", "name": "Albertsons", "opening_hours": "Mo-Su 06:00-23:00", "phone": "+1-208-342-5651", "ref": "101", "shop": "supermarket", "website": "https://local.albertsons.com/id/boise/1650-w-state-st.html"}}, {"type": "way", "id": 492879452, "nodes": [4848489957, 8331609461, 4848489959, 4848489960, 4848489957], "tags": {"addr:city": "Boise", "addr:housenumber": "1221", "addr:postcode": "83702", "addr:state": "ID", "addr:street": "West Idaho Street", "building": "office", "building:levels": "9", "name": "Idaho Power Company", "office": "energy_supplier", "website": "https://www.idahopower.com/"}}, {"type": "way", "id": 492879457, "nodes": [8331619167, 4848489979, 4848489980, 4848489981, 4848489982, 4848489983, 8331619167], "tags": {"addr:city": "Boise", "addr:housenumber": "1205", "addr:postcode": "83702", "addr:state": "ID", "addr:street": "West Bannock Street", "building": "yes", "name": "Summers Funeral Home", "shop": "funeral_directors"}}, {"type": "way", "id": 492879484, "nodes": [8331609579, 6294999791, 4848490101, 4848490107, 4848490102, 4848490103, 8331609579], "tags": {"addr:city": "Boise", "addr:housenumber": "426", "addr:postcode": "83702", "addr:state": "ID", "addr:street": "South 10th Street", "building": "yes", "building:levels": "1", "name": "Proud Source Water", "office": "yes"}}, {"type": "way", "id": 492879490, "nodes": [8331609589, 4848490131, 4848490132, 4848490133, 4848490134, 4848490135, 8331609589], "tags": {"addr:city": "Boise", "addr:housenumber": "505", "addr:postcode": "83702", "addr:state": "ID", "addr:street": "South Capitol Boulevard", "brand": "Jacksons", "brand:wikidata": "Q64617393", "building": "yes", "name": "Jacksons", "shop": "convenience"}}, {"type": "way", "id": 492879491, "nodes": [4848490136, 4848490137, 4848490138, 4848490139, 4848490140, 4848490141, 4848490142, 4848490136], "tags": {"addr:city": "Boise", "addr:housenumber": "516", "addr:postcode": "83702", "addr:state": "ID", "addr:street": "South Capitol Boulevard", "brand": "Coldwell Banker", "brand:wikidata": "Q738853", "building": "yes", "name": "Coldwell Banker", "office": "estate_agent"}}, {"type": "way", "id": 553096196, "nodes": [5339376411, 5339376412, 5339376413, 5339376414, 5339376411], "tags": {"addr:city": "Boise", "addr:housenumber": "1602", "addr:postcode": "83702", "addr:state": "ID", "addr:street": "West Franklin Street", "building": "commercial", "building:levels": "2", "name": "Wilson Harris & Company", "office": "company", "smoking": "no"}}, {"type": "way", "id": 555744347, "nodes": [4848489288, 8672382010, 11782028516, 11782028511, 11782028512, 2401896124, 11782028518, 11782028517, 4848489293, 9948830072, 4848489289, 4848489288], "tags": {"addr:city": "Boise", "addr:housenumber": "800", "addr:postcode": "83702", "addr:state": "ID", "addr:street": "West Main Street", "building": "yes", "height": "98", "name": "Eighth & Main", "office": "yes", "start_date": "2013", "wikidata": "Q14687360"}}, {"type": "way", "id": 559935010, "nodes": [8331542094, 5400141644, 5400141659, 5400141657, 8331542094], "tags": {"addr:city": "Boise", "addr:housenumber": "826", "addr:postcode": "83702", "addr:state": "ID", "addr:street": "West Bannock Street", "amenity": "restaurant", "building": "yes", "cuisine": "american", "name": "10 Barrel Brewpub and Restaurant", "toilets:wheelchair": "yes", "wheelchair": "yes"}}, {"type": "way", "id": 601805281, "nodes": [8672382370, 5718490634, 5718490635, 5721043793, 5718490636, 5718490637, 8672382370], "tags": {"addr:city": "Boise", "addr:housenumber": "421", "addr:postcode": "83702", "addr:state": "ID", "addr:street": "North 10th Street", "building": "yes", "name": "Idaho Sporting Goods", "shop": "sports"}}, {"type": "way", "id": 608703154, "nodes": [8331609004, 5766404797, 5766404798, 5766404799, 8331609004], "tags": {"addr:city": "Boise", "addr:housenumber": "310", "addr:postcode": "83702", "addr:state": "ID", "addr:street": "North 5th Street", "building": "yes", "building:levels": "1", "name": "Erstad Architects", "office": "architect"}}, {"type": "way", "id": 616199365, "nodes": [5826128681, 5826128682, 5826128683, 5826128684, 5826128681], "tags": {"addr:city": "Boise", "addr:housenumber": "1016", "addr:postcode": "83706", "addr:state": "ID", "addr:street": "South Broadway Avenue", "amenity": "restaurant", "building": "yes", "cuisine": "pizza", "name": "Pie Hole"}}, {"type": "way", "id": 662026436, "nodes": [9459235985, 6197915303, 8331618362, 6197915305, 6197915306, 6197915296, 6197915297, 9459235985], "tags": {"addr:city": "Boise", "addr:housenumber": "1520", "addr:postcode": "83702", "addr:state": "ID", "addr:street": "North 13th Street", "amenity": "restaurant", "building": "yes", "cuisine": "american", "name": "13th Street Pub and Grill"}}, {"type": "way", "id": 662026438, "nodes": [8331618357, 6197915308, 6197915309, 6197915310, 6197915311, 6197915312, 6197915313, 6197915314, 8331618357], "tags": {"addr:city": "Boise", "addr:housenumber": "1620", "addr:postcode": "83702", "addr:state": "ID", "addr:street": "North 13th Street", "brand": "Stinker", "brand:wikidata": "Q95990164", "building": "yes", "name": "Stinker", "shop": "convenience"}}, {"type": "way", "id": 663000278, "nodes": [8672382318, 6206412373, 6206412374, 6206412375, 6206412381, 6206412382, 6206412383, 12753799725, 6206412384, 6206412685, 6206412686, 6206412687, 8672382318], "tags": {"addr:city": "Boise", "addr:housenumber": "888", "addr:postcode": "83702", "addr:state": "ID", "addr:street": "West Fort Street", "brand:wikidata": "Q65048328", "building": "yes", "name": "Boise Co-op", "opening_hours": "07:00-22:00", "phone": "+1-208-472-4500", "shop": "supermarket", "start_date": "1995", "website": "https://www.boise.coop/", "wheelchair:description": "I think that the co op is fully accessible but want to check first."}}, {"type": "way", "id": 663000302, "nodes": [4365167789, 6206412738, 6206412739, 6206412740, 4365167789], "tags": {"addr:city": "Boise", "addr:housenumber": "312", "addr:postcode": "83702", "addr:state": "ID", "addr:street": "South 3rd Street", "brand": "Cannondale Bicycle Corporation;Yuba", "building": "commercial", "name": "George's Cycles", "name:en": "George's Cycles", "phone": "+1 208-343-3782", "shop": "bicycle", "website": "https://www.georgescycles.com/"}}, {"type": "way", "id": 663270142, "nodes": [6208568341, 6208568342, 6208568343, 6208568344, 6208568345, 6208568346, 6208568347, 6208568348, 6208568349, 6208568350, 6208568351, 6208568352, 6208568353, 6208568354, 6208568341], "tags": {"amenity": "restaurant", "building": "yes", "name": "RAM Restaurant & Brewery"}}, {"type": "way", "id": 663309159, "nodes": [8331619266, 6208886038, 6208886039, 6208886040, 8331619266], "tags": {"addr:city": "Boise", "addr:housenumber": "1470", "addr:postcode": "83702", "addr:state": "ID", "addr:street": "West State Street", "brand": "Chevron", "brand:wikidata": "Q319642", "building": "yes", "name": "Chevron", "shop": "convenience"}}, {"type": "way", "id": 663309167, "nodes": [8331619296, 6208886059, 6208886060, 6208886061, 6208886062, 6208886063, 6208886064, 6208886065, 6208886066, 6208886067, 6208886068, 6208886069, 6208886070, 6208886071, 6208886072, 6208886073, 8331619296], "tags": {"addr:city": "Boise", "addr:housenumber": "1423", "addr:postcode": "83702", "addr:state": "ID", "addr:street": "West State Street", "amenity": "cafe", "branch": "Boise", "brand": "Dutch Bros. Coffee", "brand:wikidata": "Q5317253", "building": "yes", "cuisine": "coffee_shop", "name": "Dutch Bros. Coffee", "opening_hours": "Mo-Th 05:00-22:00; Fr-Sa 05:00-23:00; Su 05:00-22:00", "ref": "DB253", "takeaway": "only", "website": "https://locations.dutchbros.com/dutch-bros-coffee-3e5a8d959864"}}, {"type": "way", "id": 663363419, "nodes": [8672382372, 6209314616, 6209314617, 6209314618, 6209314619, 8672382372], "tags": {"addr:city": "Boise", "addr:housenumber": "1190", "addr:postcode": "83702", "addr:state": "ID", "addr:street": "West State Street", "brand": "Commercial Tire", "brand:wikidata": "Q28403810", "building": "yes", "name": "Commercial Tire", "opening_hours": "Mo-Fr 07:30-18:00; Sa 07:30-16:00", "phone": "+1 208-342-5643", "shop": "tyres", "website": "https://commercialtire.com/"}}, {"type": "way", "id": 663363422, "nodes": [8672382380, 6209314631, 6209314632, 6209314633, 8672382380], "tags": {"addr:city": "Boise", "addr:housenumber": "1310", "addr:postcode": "83702", "addr:state": "ID", "addr:street": "West State Street", "building": "detached", "name": "Once And Future Books", "old_name": "Rainbow Books", "shop": "books"}}, {"type": "way", "id": 663363430, "nodes": [8672382383, 6209314672, 6209314673, 6209314674, 8672382383], "tags": {"addr:city": "Boise", "addr:housenumber": "1503", "addr:postcode": "83702", "addr:state": "ID", "addr:street": "West Washington Street", "building": "yes", "name": "Martinizing Dry Cleaners", "shop": "dry_cleaning"}}, {"type": "way", "id": 663363435, "nodes": [8331619605, 6209314687, 6209314688, 6209314689, 6209314690, 6209314691, 8331619605], "tags": {"addr:city": "Boise", "addr:housenumber": "1806", "addr:postcode": "83702", "addr:state": "ID", "addr:street": "West State Street", "amenity": "restaurant", "building": "yes", "building:levels": "1", "cuisine": "chinese", "name": "North End Chinese Restaurant"}}, {"type": "way", "id": 663425431, "nodes": [5308969128, 6209721449, 6209721450, 6209721451, 6209721452, 6209721453, 5308969128], "tags": {"addr:city": "Boise", "addr:housenumber": "1612", "addr:postcode": "83702", "addr:state": "ID", "addr:street": "North 13th Street", "amenity": "cafe", "building": "yes", "cuisine": "coffee_shop;breakfast", "internet_access": "wlan", "internet_access:fee": "no", "name": "Java Hyde Park", "opening_hours": "Mo-Fr 06:00-18:00; Sa 07:00-18:00; Su 07:00-18:00", "opening_hours:kitchen": "Mo-Fr 06:00-14:00; Sa-Su 07:00-14:00", "outdoor_seating": "yes", "phone": "+1-208-345-4777", "website": "https://www.javaidaho.com/"}}, {"type": "way", "id": 663425436, "nodes": [8331618360, 6209721467, 6209721468, 6209721469, 6209721470, 6209721471, 6209721472, 6209721473, 6209721474, 6209721475, 8331618360], "tags": {"addr:city": "Boise", "addr:housenumber": "1510", "addr:postcode": "83702", "addr:state": "ID", "addr:street": "North 13th Street", "building": "detached", "name": "Tri Town Bicycles", "shop": "bicycle", "website": "https://www.tritownboise.com/"}}, {"type": "way", "id": 663425437, "nodes": [8331618361, 6209721477, 6209721478, 6209721479, 8331618361], "tags": {"addr:city": "Boise", "addr:housenumber": "1508", "addr:postcode": "83702", "addr:state": "ID", "addr:street": "North 13th Street", "building": "detached", "name": "G. Willikers Toy Merchant", "shop": "toys"}}, {"type": "way", "id": 663425439, "nodes": [9459235974, 5901065355, 6209721489, 6209721490, 9459235974], "tags": {"addr:city": "Boise", "addr:housenumber": "1507", "addr:postcode": "83702", "addr:state": "ID", "addr:street": "North 13th Street", "amenity": "cafe", "building": "yes", "name": "Hyde Perk", "opening_hours": "Mo-Fr 05:30-20:00; Sa-Su 06:00-20:00", "outdoor_seating": "Limited", "phone": "+1 208-345-2046"}}, {"type": "way", "id": 663723223, "nodes": [6206412738, 8331609483, 6212506485, 6206412739, 6206412738], "tags": {"addr:city": "Boise", "addr:housenumber": "200", "addr:postcode": "83702", "addr:state": "ID", "addr:street": "West Broad Street", "building": "yes", "name": "CSHQA", "office": "architect"}}, {"type": "way", "id": 663723297, "nodes": [8331607507, 6212506728, 6212506729, 6212506730, 6212506731, 6212506732, 6212506733, 6212506734, 6212506735, 6212506736, 6212506737, 6212506738, 8331607507], "tags": {"addr:city": "Boise", "addr:housenumber": "230", "addr:postcode": "83702", "addr:state": "ID", "addr:street": "North Collins Road", "building": "yes", "name": "F. H. Newell Building", "office": "government", "operator": "US Department of the Interior"}}, {"type": "way", "id": 663723299, "nodes": [8331544706, 6212506740, 6212506741, 6212506742, 6212506743, 6212506744, 6212506745, 6212506746, 6212506747, 6212506748, 6212506749, 6212506750, 6212506751, 6212506752, 6212506753, 6212506754, 6212506755, 6212506756, 6212506757, 6212506758, 8331544706], "tags": {"addr:city": "Boise", "addr:housenumber": "300", "addr:postcode": "83702", "addr:state": "ID", "addr:street": "East Garrison Road", "building": "yes", "name": "Idaho Water Science Center - Boise Field Office", "office": "government"}}, {"type": "way", "id": 663963900, "nodes": [8331609526, 6214632522, 6214632523, 6214632524, 8331609526], "tags": {"addr:city": "Boise", "addr:housenumber": "600", "addr:postcode": "83702", "addr:state": "ID", "addr:street": "South 9th Street", "building": "yes", "name": "Neamah's Barber Shop", "shop": "hairdresser"}}, {"type": "way", "id": 664339078, "nodes": [8331617243, 6218029732, 6218029733, 6218029734, 8331617243], "tags": {"addr:city": "Boise", "addr:housenumber": "550", "addr:postcode": "83702", "addr:state": "ID", "addr:street": "West Fort Street", "building": "office", "building:levels": "7", "name": "James A. McClure Federal Building", "office": "government"}}, {"type": "way", "id": 664460245, "nodes": [8331604822, 6219095319, 6219095320, 6219095321, 6219095322, 6219095323, 6219095324, 6219095325, 8331604822], "tags": {"addr:city": "Boise", "addr:housenumber": "916", "addr:postcode": "83706", "addr:state": "ID", "addr:street": "South Broadway Avenue", "amenity": "restaurant", "brand": "Chili's", "brand:wikidata": "Q1072948", "building": "yes", "cuisine": "tex-mex", "name": "Chili's", "official_name": "Chili's Grill & Bar"}}, {"type": "way", "id": 664548722, "nodes": [8331618416, 6219937779, 6219937780, 6219937781, 6219937782, 6219937783, 6219937784, 6219937885, 8331618416], "tags": {"addr:city": "Boise", "addr:housenumber": "1607", "addr:postcode": "83702", "addr:state": "ID", "addr:street": "North 13th Street", "amenity": "restaurant", "building": "detached", "cuisine": "american", "name": "The Hyde House"}}, {"type": "way", "id": 664548724, "nodes": [8331618406, 6219937891, 6219937892, 6219937893, 6219937894, 6219937895, 6219937896, 6219937897, 6219937898, 6219937899, 8331618406], "tags": {"addr:city": "Boise", "addr:housenumber": "1611", "addr:postcode": "83702", "addr:state": "ID", "addr:street": "North 13th Street", "building": "detached", "name": "Hyde Park Mercantile", "shop": "general"}}, {"type": "way", "id": 666386234, "nodes": [6238949236, 6238949237, 6238949238, 6238949235, 6238949236], "tags": {"addr:city": "Boise", "addr:housenumber": "517", "addr:postcode": "83702", "addr:state": "ID", "addr:street": "West Main Street", "amenity": "bar", "building": "yes", "name": "Cactus Bar"}}, {"type": "way", "id": 667257373, "nodes": [8331609491, 6247479439, 6247479440, 6247479443, 6247479444, 6247479445, 8331609491], "tags": {"addr:city": "Boise", "addr:housenumber": "406", "addr:postcode": "83702", "addr:state": "ID", "addr:street": "South 3rd Street", "building": "yes", "clothes": "children", "name": "Lone Cone", "shop": "clothes", "website": "https://www.lonecone.com/"}}, {"type": "way", "id": 668199485, "nodes": [8331609428, 6257387701, 6257387702, 6257387703, 8331609428], "tags": {"addr:city": "Boise", "addr:housenumber": "921", "addr:postcode": "83702", "addr:state": "ID", "addr:street": "West Jefferson Street", "building": "yes", "name": "Hal Davis Jewelers", "shop": "jewelry"}}, {"type": "way", "id": 668506959, "nodes": [8331608803, 7951534913, 6260315697, 6260315698, 6260315699, 6260315700, 6260315701, 8331608803], "tags": {"addr:city": "Boise", "addr:housenumber": "705", "addr:postcode": "83702", "addr:state": "ID", "addr:street": "West Bannock Street", "amenity": "restaurant", "building": "yes", "name": "Saint Lawrence Gridiron"}}, {"type": "way", "id": 669451246, "nodes": [6269021123, 6269021124, 8672381986, 6269021126, 6269021120, 6269021119, 6269021123], "tags": {"addr:city": "Boise", "addr:housenumber": "215", "addr:postcode": "83702", "addr:state": "ID", "addr:street": "North 8th Street", "amenity": "restaurant", "building:part": "yes", "cuisine": "mexican", "name": "The Matador"}}, {"type": "way", "id": 669451247, "nodes": [8331609123, 6269021123, 6269021124, 6269021128, 6269021129, 8331609123], "tags": {"addr:city": "Boise", "addr:housenumber": "211", "addr:postcode": "83702", "addr:state": "ID", "addr:street": "North 8th Street", "amenity": "restaurant", "building:part": "yes", "name": "Juniper"}}, {"type": "way", "id": 673412648, "nodes": [4848489380, 4848489379, 4848489383, 4848489384, 4848489385, 4848489381, 4848489380], "tags": {"addr:state": "ID", "brand": "west elm", "brand:wikidata": "Q7985021", "building": "yes", "name": "west elm", "shop": "furniture"}}, {"type": "way", "id": 682509216, "nodes": [6391702988, 6391702986, 6391702987, 6391702990, 6391702988], "tags": {"addr:city": "Boise", "addr:housenumber": "413", "addr:postcode": "83702", "addr:state": "ID", "addr:street": "South 8th Street", "building": "yes", "name": "Buns in the Oven", "shop": "baby_goods"}}, {"type": "way", "id": 682509223, "nodes": [8331609234, 6391703042, 6391703043, 6391703044, 8331609234], "tags": {"addr:city": "Boise", "addr:housenumber": "500", "addr:postcode": "83702", "addr:state": "ID", "addr:street": "South 8th Street", "building": "yes", "name": "Trailhead", "office": "coworking"}}, {"type": "way", "id": 682509224, "nodes": [6391703042, 8331609051, 6391703046, 6391703043, 6391703042], "tags": {"addr:city": "Boise", "addr:housenumber": "508", "addr:postcode": "83702", "addr:state": "ID", "addr:street": "South 8th Street", "building": "yes", "building:levels": "1", "name": "Appdetex", "office": "yes"}}, {"type": "way", "id": 682509234, "nodes": [6391703077, 6391703078, 6391703079, 6391703080, 6391703077]}, {"type": "way", "id": 682509235, "nodes": [6391703192, 6391703191, 6391703190, 6391703189, 6391703188, 6391703187, 6391703081, 6391703082, 6391703083, 6391703084, 6391703185, 6391703186, 6391703192]}, {"type": "way", "id": 682509236, "nodes": [6391703193, 6391703194, 6391703195, 6391703196, 6391703197, 6391703198, 6391703199, 6391703200, 6391703201, 6391703202, 6391703203, 6391703204, 6391703193]}, {"type": "way", "id": 682509237, "nodes": [6391703205, 6391703206, 6391703207, 6391703208, 6391703205]}, {"type": "way", "id": 682509238, "nodes": [6391703209, 6391703210, 6391703211, 6391703212, 6391703209]}, {"type": "way", "id": 683397823, "nodes": [8331543913, 6400971024, 6400971025, 6400971026, 8331543913], "tags": {"addr:city": "Boise", "addr:housenumber": "1409", "addr:postcode": "83702", "addr:state": "ID", "addr:street": "North 13th Street", "building": "detached", "name": "North End Real Estate", "office": "estate_agent"}}, {"type": "way", "id": 736857620, "nodes": [8331607604, 6898755916, 6898755917, 6898755918, 6898755919, 6898755920, 6898755921, 6898755922, 8331607604], "tags": {"addr:city": "Boise", "addr:housenumber": "110", "addr:postcode": "83702", "addr:state": "ID", "addr:street": "North Scout Lane", "building": "yes", "office": "government"}}, {"type": "way", "id": 759744202, "nodes": [8331618358, 7097084684, 7097164285, 7097164286, 7097164287, 7097164288, 7097164289, 7097164290, 7097164291, 7097164292, 7097164293, 7097164294, 8331618358], "tags": {"addr:city": "Boise", "addr:housenumber": "1502", "addr:postcode": "83702", "addr:state": "ID", "addr:street": "North 13th Street", "building": "detached", "name": "Goody's Soda Fountain", "shop": "confectionery"}}, {"type": "way", "id": 764053385, "nodes": [8331617687, 7138166455, 7138157726, 7138161817, 8331617687], "tags": {"addr:city": "Boise", "addr:housenumber": "818", "addr:postcode": "83702", "addr:state": "ID", "addr:street": "North 8th Street", "brand": "Jacksons", "brand:wikidata": "Q64617393", "building": "yes", "name": "Jacksons", "ref": "36", "shop": "convenience", "source": "microsoft/BuildingFootprints"}}, {"type": "way", "id": 764054449, "nodes": [8331618276, 7138158489, 7138166319, 7138157596, 8331618276], "tags": {"addr:city": "Boise", "addr:housenumber": "917", "addr:postcode": "83702", "addr:state": "ID", "addr:street": "North 12th Street", "building": "yes", "name": "12th Street Laundry", "self_service": "yes", "shop": "laundry", "source": "microsoft/BuildingFootprints"}}, {"type": "way", "id": 769707380, "nodes": [7184829378, 2704214098, 7184829381, 7184829382, 7184829378], "tags": {"addr:city": "Boise", "addr:housenumber": "111", "addr:postcode": "83702", "addr:state": "ID", "addr:street": "North 11th Street", "amenity": "bar", "building": "yes", "name": "Neurolux"}}, {"type": "way", "id": 772505472, "nodes": [7212369902, 7212369914, 7212369915, 7212369916, 7212369917, 7212369918, 7212369919, 7212369920, 7212369921, 7212369922, 7212369923, 7212369924, 7212369925, 7212369901, 4848489243, 7212369902], "tags": {"amenity": "restaurant", "building": "yes", "cuisine": "steak_house;seafood", "name": "Chandlers Steakhouse", "phone": "+1-208-383-4300", "website": "https://www.chandlersboise.com/"}}, {"type": "way", "id": 775411555, "nodes": [2383763412, 6943640577, 7234148988, 2383763406, 2383763412], "tags": {"building": "yes", "name": "Pyramid Tattoo Co.", "opening_hours": "Tu-Sa 12:00-19:00", "phone": "+1-208-996-7575", "shop": "tattoo"}}, {"type": "way", "id": 776808903, "nodes": [8331619377, 7248142165, 7248142166, 7248142167, 7248142168, 7248142169, 7248142170, 7248142171, 8331619377], "tags": {"addr:city": "Boise", "addr:housenumber": "308", "addr:postcode": "83702", "addr:state": "ID", "addr:street": "North 15th Street", "building": "yes", "building:levels": "2", "name": "Falash & Company", "office": "architect", "website": "https://www.falashcompanyinc.com/"}}, {"type": "way", "id": 854077777, "nodes": [8331546891, 7965164125, 7965164126, 7965164127, 7965164128, 7965164129, 7965164130, 7965164131, 7965164132, 7965164133, 7965164134, 7965164135, 8331546891], "tags": {"addr:city": "Boise", "addr:housenumber": "139", "addr:postcode": "83712", "addr:state": "ID", "addr:street": "East Warm Springs Avenue", "building": "yes", "building:levels": "2", "name": "Ronald McDonald House Charities", "office": "charity"}}, {"type": "way", "id": 1006650640, "nodes": [8331537599, 9287467245, 9287467246, 9287467247, 9287467248, 9287467249, 9287467250, 9287467251, 8331537599], "tags": {"addr:city": "Boise", "addr:housenumber": "1501", "addr:postcode": "83702", "addr:state": "ID", "addr:street": "West Jefferson Street", "amenity": "cafe", "building": "detached", "name": "The Sturiale Place", "source": "microsoft/BuildingFootprints", "website": "https://www.thesturialeplace.com/"}}, {"type": "way", "id": 1022742719, "nodes": [9432487137, 6212506133, 8331608944, 6212506135, 6212506136, 6212506137, 6212506138, 6212506139, 6212506140, 6212506119, 9432487138, 6212506126, 6212506127, 9432487137], "tags": {"addr:city": "Boise", "addr:housenumber": "406", "addr:postcode": "83702", "addr:state": "ID", "addr:street": "South 6th Street", "building": "yes", "building:levels": "1", "name": "Jordan Wilcomb Construction", "office": "construction_company"}}, {"type": "way", "id": 1022742720, "nodes": [9432487141, 9432487139, 6212506123, 9432487140, 9432487141], "tags": {"addr:city": "Boise", "addr:housenumber": "418", "addr:postcode": "83702", "addr:state": "ID", "addr:street": "South 6th Street", "building": "yes", "shop": "hairdresser"}}, {"type": "way", "id": 1025975124, "nodes": [8331618413, 9459235983, 9459235982, 9459235980, 6209721496, 6209721497, 6209721498, 8331618413], "tags": {"addr:city": "Boise", "addr:housenumber": "1521", "addr:postcode": "83702", "addr:state": "ID", "addr:street": "North 13th Street", "building": "retail", "building:name": "C. H. Waymire Building", "name": "Hyde and Seek", "opening_hours": "Mo-Su 10:00-18:00", "shop": "antiques", "subject:wikidata": "Q65117472", "subject:wikipedia": "en:C. H. Waymire Building"}}, {"type": "way", "id": 1025975125, "nodes": [9459235979, 6209721495, 5470127567, 9459235981, 9459235982, 9459235983, 9459235979], "tags": {"addr:city": "Boise", "addr:housenumber": "1519", "addr:postcode": "83702", "addr:state": "ID", "addr:street": "North 13th Street", "building": "yes", "name": "Vince's Barber Shop", "shop": "hairdresser"}}, {"type": "way", "id": 1025975126, "nodes": [9459235985, 4983631821, 6197915299, 6197915300, 6197915301, 6197915302, 6197915303, 9459235985], "tags": {"addr:city": "Boise", "addr:housenumber": "1512", "addr:postcode": "83702", "addr:state": "ID", "addr:street": "North 13th Street", "amenity": "restaurant", "building": "yes", "cuisine": "mexican", "name": "Parrilla Grill"}}, {"type": "way", "id": 1030737956, "nodes": [9501096721, 9501096722, 6214632498, 6214632497, 9501096721], "tags": {"addr:city": "Boise", "addr:housenumber": "691", "addr:postcode": "83702", "addr:state": "ID", "addr:street": "South Capitol Boulevard", "amenity": "post_office", "brand": "FedEx", "brand:wikidata": "Q459477", "name": "FedEx", "operator": "FedEx", "operator:type": "private", "operator:wikidata": "Q459477", "operator:wikipedia": "en:FedEx", "shop": "copyshop"}}, {"type": "way", "id": 1030737957, "nodes": [9501096722, 9501096721, 6214632490, 9501088416, 6214632493, 6214632492, 9501096722], "tags": {"addr:city": "Boise", "addr:housenumber": "671", "addr:postcode": "83702", "addr:state": "ID", "addr:street": "South Capitol Boulevard", "name": "Boise Gear Collective", "shop": "outdoor"}}, {"type": "way", "id": 1030737962, "nodes": [8331619218, 9501096749, 9501096750, 9501096751, 8331619218], "tags": {"addr:city": "Boise", "addr:housenumber": "1523", "addr:postcode": "83702", "addr:state": "ID", "addr:street": "West Hays Street", "building": "detached", "building:use": "office", "name": "Idaho Homeland Real Estate", "office": "estate_agent", "website": "https://www.idahohomelandrealestate.com/"}}, {"type": "way", "id": 1193887250, "nodes": [11099030205, 11082444059, 11099029106, 11099029107, 11099029108, 11099029905, 11099030105, 11099030106, 11099029109, 11099030205], "tags": {"addr:city": "Boise", "addr:housenumber": "150", "addr:postcode": "83702", "addr:state": "ID", "addr:street": "North 8th Street", "addr:unit": "226", "amenity": "bar", "indoor": "room", "level": "1", "min_age": "21", "name": "The Balcony Club", "opening_hours": "Th-Mo 16:00-02:00", "phone": "+1-208-336-1313", "website": "https://www.thebalconyclub.com"}}, {"type": "way", "id": 1193887252, "nodes": [11082312283, 11082312300, 11099030606, 11099030705, 11099030706, 11099029110, 11082312261, 11082312262, 11099030109, 11099030707, 11082312275, 11099030507, 11099030708, 11099029111, 11099008091, 11082315619, 11082312295, 11082312283], "tags": {"addr:city": "Boise", "addr:housenumber": "150", "addr:postcode": "83702", "addr:state": "ID", "addr:street": "North 8th Street", "addr:unit": "220", "amenity": "restaurant", "cuisine": "barbecue", "indoor": "room", "level": "1", "name": "R & R Barbeque", "opening_hours": "Mo-Sa 11:00-21:00; Su 12:00-19:00", "phone": "+1-208-957-7708", "room": "restaurant", "website": "https://locations.randrbbq.com/id/boise/boise"}}, {"type": "way", "id": 1193887253, "nodes": [11082312260, 11082312282, 11082312281, 11082312279, 11082312278, 11082312277, 11099030708, 11099030507, 11082312275, 11082312274, 11099030707, 11082312273, 11099030109, 11082312262, 11082312261, 11099029110, 11082312260], "tags": {"addr:city": "Boise", "addr:housenumber": "150", "addr:postcode": "83702", "addr:state": "ID", "addr:street": "North 8th Street", "addr:unit": "200", "amenity": "restaurant", "cuisine": "american", "indoor": "room", "level": "1", "name": "Tupelo Honey", "opening_hours": "Mo-Th 11:00-21:00; Fr 11:00-22:00; Sa 10:00-22:00; Su 10:00-20:00", "phone": "+1-208-803-6721", "room": "restaurant", "website": "https://tupelohoneycafe.com/restaurant/boise"}}, {"type": "way", "id": 1193887256, "nodes": [11099015906, 11099017209, 11099017211, 11099017212, 11099034185, 11099017210, 11099015906], "tags": {"addr:city": "Boise", "addr:housenumber": "120", "addr:postcode": "83702", "addr:state": "ID", "addr:street": "North 8th Street", "indoor": "room", "level": "0", "name": "Fantastic Games", "phone": "+1-208-345-0204", "room": "shop", "shop": "games", "website": "https://www.fantasticgames.com"}}, {"type": "way", "id": 1193887257, "nodes": [11099017212, 11099017213, 11099017214, 11099017306, 11099034186, 11099017212], "tags": {"addr:city": "Boise", "addr:housenumber": "130", "addr:postcode": "83702", "addr:state": "ID", "addr:street": "North 8th Street", "contact:facebook": "rubylouclothingboutique", "email": "rubylouboise@gmail.com", "indoor": "room", "level": "0", "name": "Ruby Lou Clothing Boutique", "room": "shop", "shop": "clothes", "website": "https://www.shoprubylou.com"}}, {"type": "way", "id": 1193887258, "nodes": [11082312284, 11099008094, 11099015908, 11099017405, 11099017307, 11099017406, 11099017407, 11099015909, 11099008089, 11099017505, 11099008090, 11099015911, 11082312284], "tags": {"addr:city": "Boise", "addr:housenumber": "160", "addr:postcode": "83702", "addr:state": "ID", "addr:street": "North 8th Street", "amenity": "restaurant", "cuisine": "seafood", "indoor": "room", "level": "0", "name": "Little Pearl Oyster Bar", "opening_hours": "Tu-Sa 16:30-21:00", "phone": "+1-208-433-5593", "room": "restaurant", "website": "https://littlepearlboise.com"}}, {"type": "way", "id": 1193887259, "nodes": [11099017306, 11099017214, 11099015912, 11099008088, 11098989605, 11098868805, 11082315630, 11082315629, 11082315628, 11082315625, 11082315622, 11082315618, 11099008096, 11099017306], "tags": {"addr:city": "Boise", "addr:housenumber": "132", "addr:postcode": "83702", "addr:state": "ID", "addr:street": "North 8th Street", "amenity": "restaurant", "cuisine": "seafood", "indoor": "room", "level": "0", "name": "Little Pearl Oyster Bar", "opening_hours": "Tu-Sa 16:30-21:00", "phone": "+1-208-433-5593", "room": "restaurant", "website": "https://littlepearlboise.com"}}, {"type": "way", "id": 1193887260, "nodes": [11082315616, 11099034187, 11082312284, 11099015911, 11082315614, 11082315613, 11082315612, 11082315616], "tags": {"addr:city": "Boise", "addr:housenumber": "170", "addr:postcode": "83702", "addr:state": "ID", "addr:street": "North 8th Street", "indoor": "room", "level": "0", "name": "Title Nine Outlet", "room": "shop", "shop": "clothes", "website": "https://www.titlenine.com"}}, {"type": "way", "id": 1193887262, "nodes": [11082315616, 11082315620, 11082315627, 11082315610, 11082312301, 11082312302, 11082315607, 11082312304, 11082315605, 11099034189, 11082315633, 11082315624, 11082315632, 11099034188, 11082315616], "tags": {"addr:city": "Boise", "addr:housenumber": "180", "addr:postcode": "83702", "addr:state": "ID", "addr:street": "North 8th Street", "indoor": "room", "level": "0", "name": "Rediscovered Books", "phone": "+1-208-376-4229", "shop": "books", "website": "https://www.rdbooks.org"}}, {"type": "way", "id": 1193887264, "nodes": [11082315605, 11082312304, 11082315607, 11082312302, 11082312301, 11082315610, 11082315627, 11099023908, 2401896130, 11082315605], "tags": {"addr:city": "Boise", "addr:housenumber": "783", "addr:postcode": "83702", "addr:state": "ID", "addr:street": "West Idaho Street", "indoor": "room", "level": "0", "name": "The Electric Chair Salon", "opening_hours": "Mo-Sa 09:00-19:00", "phone": "+1-208-331-2588", "shop": "hairdresser", "website": "https://theelectricchairsalon.com"}}, {"type": "way", "id": 1194160524, "nodes": [11084749910, 11099034180, 11098987606, 11098987608, 11098989505, 11098989107, 11084749925, 11084749910], "tags": {"indoor": "room", "level": "0", "name": "Fluff Hardware", "room": "shop", "shop": "jewelry", "website": "https://fluffhardware.com"}}, {"type": "way", "id": 1194160526, "nodes": [11098987609, 11098987610, 11098989506, 11084749931, 11084749930, 11084749928, 11084749926, 11084749924, 11084749927, 11084749911, 11084749906, 11098987609], "tags": {"addr:city": "Boise", "addr:housenumber": "760", "addr:postcode": "83702", "addr:state": "ID", "addr:street": "West Main Street", "amenity": "restaurant", "indoor": "room", "level": "0", "room": "restaurant"}}, {"type": "relation", "id": 9469530, "members": [{"type": "way", "ref": 492879388, "role": "outer"}, {"type": "way", "ref": 682509234, "role": "inner"}, {"type": "way", "ref": 682509238, "role": "inner"}, {"type": "way", "ref": 682509237, "role": "inner"}], "tags": {"addr:city": "Boise", "addr:housenumber": "190", "addr:postcode": "83702", "addr:state": "ID", "addr:street": "East Front Street", "building": "yes", "building:levels": "7", "office": "government", "type": "multipolygon"}}, {"type": "relation", "id": 9469531, "members": [{"type": "way", "ref": 492879389, "role": "outer"}, {"type": "way", "ref": 682509236, "role": "inner"}, {"type": "way", "ref": 682509235, "role": "inner"}], "tags": {"addr:city": "Boise", "addr:housenumber": "252", "addr:postcode": "83702", "addr:state": "ID", "addr:street": "East Front Street", "building": "yes", "building:levels": "6", "office": "government", "type": "multipolygon"}}]}