{"version": 0.6, "generator": "Overpass API 0.7.62.8 e802775f", "osm3s": {"timestamp_osm_base": "2025-12-12T23:12:30Z", "copyright": "The data included in this document is from www.openstreetmap.org. The data is made available under ODbL."}, "elements": [{"type": "node", "id": 4053513994, "lat": 38.1360529, "lon": -105.457461}, {"type": "node", "id": 4053513995, "lat": 38.1362552, "lon": -105.4571547}, {"type": "node", "id": 4053513996, "lat": 38.136479, "lon": -105.456982}, {"type": "node", "id": 4053513997, "lat": 38.1364811, "lon": -105.4569174}, {"type": "node", "id": 4053513998, "lat": 38.1362078, "lon": -105.4570476}, {"type": "node", "id": 4053513999, "lat": 38.1362755, "lon": -105.4574395}, {"type": "node", "id": 4053514000, "lat": 38.1365373, "lon": -105.4571533}, {"type": "node", "id": 4053528392, "lat": 38.1365359, "lon": -105.4571452}, {"type": "node", "id": 4053528591, "lat": 38.136259, "lon": -105.457453}, {"type": "node", "id": 4053528889, "lat": 38.1365339, "lon": -105.4569788}, {"type": "node", "id": 4053528890, "lat": 38.1362051, "lon": -105.4569316}, {"type": "node", "id": 4053528891, "lat": 38.1360461, "lon": -105.4570547}, {"type": "node", "id": 4053528892, "lat": 38.1365423, "lon": -105.4574319}, {"type": "node", "id": 4053528893, "lat": 38.1362706, "lon": -105.4571609}, {"type": "node", "id": 5406090960, "lat": 38.1362679, "lon": -105.4479784}, {"type": "node", "id": 5406090961, "lat": 38.1360417, "lon": -105.4479814}, {"type": "node", "id": 5406090962, "lat": 38.1360435, "lon": -105.4482045}, {"type": "node", "id": 5406090963, "lat": 38.1362697, "lon": -105.4482015}, {"type": "node", "id": 5406090968, "lat": 38.1359448, "lon": -105.4442701}, {"type": "node", "id": 5406090969, "lat": 38.1359427, "lon": -105.4440086}, {"type": "node", "id": 5406090970, "lat": 38.136199, "lon": -105.4440052}, {"type": "node", "id": 5406090971, "lat": 38.1362011, "lon": -105.4442667}, {"type": "node", "id": 5996940156, "lat": 38.1361978, "lon": -105.4446036}, {"type": "node", "id": 5996940157, "lat": 38.1362419, "lon": -105.444602}, {"type": "node", "id": 5996940158, "lat": 38.1362361, "lon": -105.4443406}, {"type": "node", "id": 5996940159, "lat": 38.1360882, "lon": -105.444346}, {"type": "node", "id": 5996940160, "lat": 38.1360867, "lon": -105.4442793}, {"type": "node", "id": 5996940161, "lat": 38.1359494, "lon": -105.4442902}, {"type": "node", "id": 5996940162, "lat": 38.135957, "lon": -105.4447185}, {"type": "node", "id": 5996940163, "lat": 38.1362002, "lon": -105.4447098}, {"type": "node", "id": 5996940174, "lat": 38.1362652, "lon": -105.4585752}, {"type": "node", "id": 5996940175, "lat": 38.1360351, "lon": -105.4585844}, {"type": "node", "id": 5996940176, "lat": 38.1360756, "lon": -105.4579418}, {"type": "node", "id": 5996940177, "lat": 38.1364371, "lon": -105.4579274}, {"type": "node", "id": 5996940178, "lat": 38.1364908, "lon": -105.4579252}, {"type": "node", "id": 5996940179, "lat": 38.1364946, "lon": -105.4580798}, {"type": "node", "id": 5996940180, "lat": 38.1362533, "lon": -105.4580895}, {"type": "node", "id": 5996940181, "lat": 38.1362703, "lon": -105.4581064}, {"type": "node", "id": 5996940182, "lat": 38.1364606, "lon": -105.458101}, {"type": "node", "id": 5996940183, "lat": 38.1364689, "lon": -105.4585716}, {"type": "node", "id": 5996940184, "lat": 38.1362786, "lon": -105.4585771}, {"type": "node", "id": 6708395234, "lat": 38.1296597, "lon": -105.4452136, "tags": {"addr:city": "Silver Cliff", "addr:country": "US", "addr:housenumber": "920", "addr:postcode": "81252", "addr:state": "CO", "addr:street": "Mill Street", "agrarian": "feed", "contact:facebook": "https://www.facebook.com/Valley-Feeds-345987825601420/", "contact:phone": "+1 719 7832399", "name": "Valley Feeds", "opening_hours": "Mo-Fr 08:30-17:00; Sa 09:30-13:30", "shop": "agrarian"}}, {"type": "node", "id": 6708406282, "lat": 38.1361294, "lon": -105.4449332}, {"type": "node", "id": 6708406283, "lat": 38.1360244, "lon": -105.4449343}, {"type": "node", "id": 6708406284, "lat": 38.1360239, "lon": -105.4448419}, {"type": "node", "id": 6708459985, "lat": 38.1361288, "lon": -105.4448409}, {"type": "node", "id": 6708459986, "lat": 38.1361369, "lon": -105.4448408}, {"type": "node", "id": 6708459987, "lat": 38.1360035, "lon": -105.4448421}, {"type": "node", "id": 6708459988, "lat": 38.1360028, "lon": -105.4447321}, {"type": "node", "id": 6708459989, "lat": 38.1361362, "lon": -105.4447307}, {"type": "node", "id": 6708460031, "lat": 38.1364744, "lon": -105.444923}, {"type": "node", "id": 6708460032, "lat": 38.1364838, "lon": -105.4453789}, {"type": "node", "id": 6708460033, "lat": 38.1364152, "lon": -105.4449249}, {"type": "node", "id": 6708460034, "lat": 38.1364246, "lon": -105.4453809}, {"type": "node", "id": 7217168297, "lat": 38.1353319, "lon": -105.4527731}, {"type": "node", "id": 7217168298, "lat": 38.1354005, "lon": -105.4523456}, {"type": "node", "id": 7217168299, "lat": 38.1354553, "lon": -105.4525776}, {"type": "node", "id": 7217168300, "lat": 38.1353984, "lon": -105.4525374}, {"type": "node", "id": 7217168301, "lat": 38.135372, "lon": -105.4524609}, {"type": "node", "id": 7217168302, "lat": 38.1353825, "lon": -105.4523831}, {"type": "node", "id": 7217168303, "lat": 38.1354342, "lon": -105.4523174}, {"type": "node", "id": 7217168304, "lat": 38.1355133, "lon": -105.4523027}, {"type": "node", "id": 7217168305, "lat": 38.1355397, "lon": -105.4522557}, {"type": "node", "id": 7217168306, "lat": 38.1355629, "lon": -105.451954}, {"type": "node", "id": 7217168307, "lat": 38.1350502, "lon": -105.4519601}, {"type": "node", "id": 7217168308, "lat": 38.1350703, "lon": -105.4527466}, {"type": "node", "id": 7217168309, "lat": 38.1351948, "lon": -105.4529102}, {"type": "node", "id": 7217168310, "lat": 38.1354564, "lon": -105.452772}, {"type": "node", "id": 7217168436, "lat": 38.1353278, "lon": -105.4556791}, {"type": "node", "id": 7217168437, "lat": 38.1349283, "lon": -105.4556124}, {"type": "node", "id": 7217168438, "lat": 38.1348852, "lon": -105.4561335}, {"type": "node", "id": 7217168439, "lat": 38.1353359, "lon": -105.4561201}, {"type": "node", "id": 7217168449, "lat": 38.1355785, "lon": -105.4538908}, {"type": "node", "id": 7217168450, "lat": 38.1355848, "lon": -105.4542905}, {"type": "node", "id": 7217168451, "lat": 38.135642, "lon": -105.4538892}, {"type": "node", "id": 7217168452, "lat": 38.1356484, "lon": -105.4542888}, {"type": "node", "id": 7217168453, "lat": 38.1352439, "lon": -105.4541953}, {"type": "node", "id": 7217168454, "lat": 38.1355098, "lon": -105.4541926}, {"type": "node", "id": 7217168455, "lat": 38.1352443, "lon": -105.454258}, {"type": "node", "id": 7217168456, "lat": 38.1355101, "lon": -105.4542553}, {"type": "node", "id": 7315570522, "lat": 38.1357322, "lon": -105.4586106}, {"type": "node", "id": 7315570523, "lat": 38.1353836, "lon": -105.4586106}, {"type": "node", "id": 7315570524, "lat": 38.1357322, "lon": -105.4584651}, {"type": "node", "id": 7315570525, "lat": 38.1353836, "lon": -105.4584651}, {"type": "node", "id": 7315570541, "lat": 38.1355112, "lon": -105.4588345}, {"type": "node", "id": 7315570542, "lat": 38.1355112, "lon": -105.4586273}, {"type": "node", "id": 7315570543, "lat": 38.1356753, "lon": -105.4586273}, {"type": "node", "id": 7315570544, "lat": 38.1356753, "lon": -105.4588345}, {"type": "node", "id": 7316066151, "lat": 38.1360787, "lon": -105.45807}, {"type": "node", "id": 7316066152, "lat": 38.1360225, "lon": -105.4580722}, {"type": "node", "id": 7330647018, "lat": 38.133299, "lon": -105.437952}, {"type": "node", "id": 7330647019, "lat": 38.13329, "lon": -105.437705}, {"type": "node", "id": 7330647020, "lat": 38.133132, "lon": -105.437715}, {"type": "node", "id": 7330647021, "lat": 38.133142, "lon": -105.437962}, {"type": "node", "id": 7332076424, "lat": 38.136581, "lon": -105.445006}, {"type": "node", "id": 7332076425, "lat": 38.136585, "lon": -105.445262}, {"type": "node", "id": 7332076426, "lat": 38.136676, "lon": -105.44526}, {"type": "node", "id": 7332076427, "lat": 38.136672, "lon": -105.445004}, {"type": "node", "id": 7332076486, "lat": 38.135278, "lon": -105.443712}, {"type": "node", "id": 7332076487, "lat": 38.135217, "lon": -105.443712}, {"type": "node", "id": 7332076488, "lat": 38.135217, "lon": -105.443824}, {"type": "node", "id": 7332076489, "lat": 38.135362, "lon": -105.443824}, {"type": "node", "id": 7332076490, "lat": 38.135362, "lon": -105.44362}, {"type": "node", "id": 7332076491, "lat": 38.135278, "lon": -105.44362}, {"type": "node", "id": 7332077096, "lat": 38.1355595, "lon": -105.4553225}, {"type": "node", "id": 7332077097, "lat": 38.1355595, "lon": -105.4554775}, {"type": "node", "id": 7332077098, "lat": 38.1356265, "lon": -105.4554775}, {"type": "node", "id": 7332077099, "lat": 38.1356265, "lon": -105.4553225}, {"type": "node", "id": 7332077226, "lat": 38.135538, "lon": -105.453054}, {"type": "node", "id": 7332077227, "lat": 38.135538, "lon": -105.452849}, {"type": "node", "id": 7332077228, "lat": 38.135447, "lon": -105.452849}, {"type": "node", "id": 7332077229, "lat": 38.135447, "lon": -105.453054}, {"type": "node", "id": 9480086548, "lat": 38.1359721, "lon": -105.4447505, "tags": {"amenity": "charging_station", "frequency": "60", "socket:type1": "1", "socket:type2": "2"}}, {"type": "node", "id": 9773035118, "lat": 38.1353736, "lon": -105.4552202, "tags": {"amenity": "restaurant", "name": "Tacos El Tapatio", "opening_hours": "Mo-Sa 08:00-20:00"}}, {"type": "node", "id": 10263558146, "lat": 38.1350486, "lon": -105.456189}, {"type": "node", "id": 10263558147, "lat": 38.1350476, "lon": -105.4561353}, {"type": "node", "id": 10263558148, "lat": 38.1350191, "lon": -105.4561362}, {"type": "node", "id": 10263558149, "lat": 38.1350202, "lon": -105.4561899}, {"type": "node", "id": 10263558150, "lat": 38.1348756, "lon": -105.4556139}, {"type": "node", "id": 10263558151, "lat": 38.1349297, "lon": -105.455691}, {"type": "node", "id": 10264328724, "lat": 38.1354068, "lon": -105.4541501, "tags": {"amenity": "veterinary", "name": "The Cliffes Veterinary Clinic", "owner": "Rachel Gaarde"}}, {"type": "node", "id": 10264328725, "lat": 38.1352876, "lon": -105.4541279, "tags": {"addr:city": "Silver Cliff", "addr:housenumber": "10", "addr:postcode": "81252", "addr:street": "Hermit Lane", "addr:unit": "5", "amenity": "doctors", "contact:email": "publichealth@custercounty-co.gov", "contact:fax": "+1 719 7830959", "contact:phone": "+1 719 7833369", "contact:website": "https://www.custercounty-co.gov/publichealth", "healthcare": "doctor", "name": "Custer County Public Health Agency", "opening_hours": "Mo-Fr 09:00-16:00"}}, {"type": "node", "id": 10264328730, "lat": 38.1353751, "lon": -105.4554221, "tags": {"name": "The Country Store", "opening_hours": "Mo-Su 06:00-20:00", "shop": "general"}}, {"type": "node", "id": 10264350826, "lat": 38.1355946, "lon": -105.4587688}, {"type": "node", "id": 10264350827, "lat": 38.1355616, "lon": -105.4587688}, {"type": "node", "id": 10264350828, "lat": 38.1355616, "lon": -105.4588345}, {"type": "node", "id": 10264350829, "lat": 38.1355946, "lon": -105.4588345}, {"type": "node", "id": 11352280503, "lat": 38.1366155, "lon": -105.4475559}, {"type": "node", "id": 11352280504, "lat": 38.1366141, "lon": -105.4475055}, {"type": "node", "id": 11352280505, "lat": 38.1365487, "lon": -105.4475055}, {"type": "node", "id": 11352280506, "lat": 38.1365501, "lon": -105.4475568}, {"type": "way", "id": 402956673, "nodes": [4053513994, 4053528591, 4053513995, 4053528392, 4053528889, 4053513996, 4053513997, 4053528890, 4053513998, 4053528891, 4053513994], "tags": {"access": "customers", "amenity": "parking", "fee": "no", "parking": "surface"}}, {"type": "way", "id": 402956679, "nodes": [4053513999, 4053528892, 4053514000, 4053528893, 4053513999], "tags": {"addr:housenumber": "35", "addr:state": "CO", "addr:street": "East Main Street", "brand": "Family Dollar", "brand:wikidata": "Q5433101", "building": "supermarket", "name": "Family Dollar", "shop": "variety_store"}}, {"type": "way", "id": 560576258, "nodes": [5406090963, 5406090960, 5406090961, 5406090962, 5406090963], "tags": {"amenity": "restaurant", "building": "yes", "cuisine": "american", "name": "Roadhouse", "outdoor_seating": "yes"}}, {"type": "way", "id": 560576261, "nodes": [5406090971, 5406090970, 5406090969, 5406090968, 5406090971], "tags": {"addr:housenumber": "630", "addr:state": "CO", "addr:street": "East Main Street", "amenity": "restaurant", "building": "yes", "cuisine": "italian", "delivery": "no", "internet_access": "wlan", "internet_access:fee": "no", "name": "Tony's Pizza", "smoking": "no", "takeaway": "yes"}}, {"type": "way", "id": 635850181, "nodes": [5996940163, 5996940162, 5996940161, 5996940160, 5996940159, 5996940158, 5996940157, 5996940156, 5996940163], "tags": {"amenity": "parking", "parking": "surface"}}, {"type": "way", "id": 635850203, "nodes": [5996940175, 5996940174, 5996940180, 5996940179, 5996940178, 5996940177, 5996940176, 7316066151, 7316066152, 5996940175], "tags": {"access": "customers", "amenity": "parking", "fee": "no", "parking": "surface"}}, {"type": "way", "id": 635850204, "nodes": [5996940184, 5996940183, 5996940182, 5996940181, 5996940184], "tags": {"brand": "Dollar General", "brand:wikidata": "Q145168", "building": "supermarket", "name": "Dollar General", "shop": "variety_store", "website": "https://www.dollargeneral.com/store-directory/co/silver-cliff/19371"}}, {"type": "way", "id": 713484994, "nodes": [6708459989, 6708459988, 6708459987, 6708406284, 6708406283, 6708406282, 6708459985, 6708459986, 6708459989], "tags": {"addr:housenumber": "612", "addr:state": "CO", "addr:street": "East Main Street", "amenity": "townhall", "building": "yes", "name": "Silver Cliff Townhall"}}, {"type": "way", "id": 713485002, "nodes": [6708460034, 6708460032, 6708460031, 6708460033, 6708460034], "tags": {"access": "customers", "amenity": "parking", "parking": "surface"}}, {"type": "way", "id": 772983769, "nodes": [7217168310, 7217168297, 7217168309, 7217168308, 7217168307, 7217168306, 7217168305, 7217168304, 7217168303, 7217168298, 7217168302, 7217168301, 7217168300, 7217168299, 7217168310], "tags": {"amenity": "parking", "area": "yes", "highway": "service", "parking": "surface"}}, {"type": "way", "id": 772983784, "nodes": [7217168439, 7217168438, 10263558150, 7217168437, 10263558151, 7217168436, 7217168439], "tags": {"access": "yes", "amenity": "parking", "fee": "no", "parking": "surface"}}, {"type": "way", "id": 772983787, "nodes": [7217168452, 7217168450, 7217168449, 7217168451, 7217168452], "tags": {"access": "customers", "amenity": "parking", "fee": "no", "parking": "surface"}}, {"type": "way", "id": 772983788, "nodes": [7217168456, 7217168454, 7217168453, 7217168455, 7217168456], "tags": {"access": "customers", "amenity": "parking", "fee": "no", "parking": "surface"}}, {"type": "way", "id": 783332510, "nodes": [7315570525, 7315570523, 7315570522, 7315570524, 7315570525], "tags": {"amenity": "parking", "parking": "surface"}}, {"type": "way", "id": 783332514, "nodes": [7315570544, 7315570543, 7315570542, 7315570541, 10264350828, 10264350827, 10264350826, 10264350829, 7315570544], "tags": {"addr:housenumber": "1000", "addr:state": "CO", "addr:street": "Main Street", "amenity": "townhall", "building": "yes", "disused:amenity": "bank", "name": "Westcliffe Townhall"}}, {"type": "way", "id": 784672660, "nodes": [7330647021, 7330647020, 7330647019, 7330647018, 7330647021], "tags": {"addr:housenumber": "1200", "addr:state": "CO", "addr:street": "Broadway Street", "amenity": "veterinary", "building": "yes", "name": "High Peaks Animal Hospital"}}, {"type": "way", "id": 784817694, "nodes": [7332076427, 7332076426, 7332076425, 7332076424, 7332076427], "tags": {"addr:housenumber": "601", "addr:state": "CO", "addr:street": "East Main Street", "building": "yes", "name": "B&D Automotive", "shop": "car_repair"}}, {"type": "way", "id": 784817708, "nodes": [7332076486, 7332076491, 7332076490, 7332076489, 7332076488, 7332076487, 7332076486], "tags": {"addr:housenumber": "700", "addr:state": "CO", "addr:street": "Ohio Street", "amenity": "restaurant", "building": "yes", "cuisine": "american", "internet_access": "wlan", "internet_access:fee": "no", "name": "Silver Cliff Moutain Inn", "operator": "Willie", "smoking": "no"}}, {"type": "way", "id": 784817835, "nodes": [7332077099, 7332077098, 7332077097, 7332077096, 7332077099], "tags": {"addr:housenumber": "60", "addr:state": "CO", "addr:street": "East Main Street", "amenity": "fuel", "brand": "Conoco", "brand:wikidata": "Q109341187", "building": "roof", "capacity": "4", "fuel:HGV_diesel": "no", "fuel:diesel": "yes", "fuel:octane_85": "yes", "fuel:octane_87": "yes", "fuel:octane_91": "yes", "full_service": "no", "maxheight": "13 ft", "name": "Conoco", "opening_hours": "24/7", "self_service": "yes", "shop": "no"}}, {"type": "way", "id": 784817863, "nodes": [7332077229, 7332077228, 7332077227, 7332077226, 7332077229], "tags": {"addr:housenumber": "104", "addr:state": "CO", "addr:street": "East Main Street", "amenity": "car_wash", "building": "yes", "self_service": "yes"}}, {"type": "way", "id": 1122175834, "nodes": [10263558149, 10263558146, 10263558147, 10263558148, 10263558149], "tags": {"amenity": "recycling", "building": "shed", "fee": "yes", "note": "Bags must be purchased at the desk", "opening_hours": "24/7", "operator": "Altitude Community Fitness", "recycling:plastic": "yes", "recycling:plastic_bags": "no", "recycling:plastic_packaging": "yes", "recycling_type": "container", "wheelchair": "limited"}}, {"type": "way", "id": 1223910067, "nodes": [11352280503, 11352280504, 11352280505, 11352280506, 11352280503], "tags": {"building": "yes", "name": "Twice the Ice", "shop": "water"}}]}