{"version": 0.6, "generator": "Overpass API 0.7.62.8 e802775f", "osm3s": {"timestamp_osm_base": "2025-11-30T00:47:22Z", "copyright": "The data included in this document is from www.openstreetmap.org. The data is made available under ODbL."}, "elements": [{"type": "node", "id": 7674587871, "lat": 36.2105294, "lon": -92.2870645}, {"type": "node", "id": 9208943062, "lat": 36.2105266, "lon": -92.2870238}, {"type": "node", "id": 9208943063, "lat": 36.2105344, "lon": -92.287004}, {"type": "node", "id": 9208943064, "lat": 36.2105191, "lon": -92.2869467}, {"type": "node", "id": 9208943065, "lat": 36.2103879, "lon": -92.2869538}, {"type": "node", "id": 9208943066, "lat": 36.2103828, "lon": -92.2869838}, {"type": "node", "id": 9208943067, "lat": 36.2103895, "lon": -92.2870795}, {"type": "way", "id": 997322702, "nodes": [7674587871, 9208943062, 9208943063, 9208943064, 9208943065, 9208943066, 9208943067, 7674587871], "tags": {"addr:city": "Norfork", "addr:housenumber": "13775", "addr:postcode": "72658", "addr:state": "AR", "addr:street": "Highway 5 South", "description": "The two-story dogtrot structure was constructed by Jacob Wolf in 1829 as the first permanent courthouse for Izard County in Arkansas Territory. The Wolf House sits in present-day Norfork (Baxter County) above where the White and Norfork rivers meet.", "dog": "leashed", "leisure": "park", "name": "Jacob Wolf House Historic Site", "opening_hours": "Tu-Sa 08:00-16:30", "operator": "The Department of Arkansas Heritage", "smoking": "no", "website": "https://www.arkansaspreservation.com/Historic-Properties/jacobwolfhouse", "wikidata": "Q21014392", "wikipedia": "en:Jacob Wolf House"}}]}