{"version": 0.6, "generator": "Overpass API 0.7.62.8 e802775f", "osm3s": {"timestamp_osm_base": "2025-12-12T18:43:21Z", "copyright": "The data included in this document is from www.openstreetmap.org. The data is made available under ODbL."}, "elements": [{"type": "node", "id": 1929114217, "lat": 37.8483749, "lon": -106.9243427, "tags": {"amenity": "fuel"}}, {"type": "node", "id": 2356742532, "lat": 37.8516495, "lon": -106.9245458}, {"type": "node", "id": 3169766561, "lat": 37.8570426, "lon": -106.928188, "tags": {"addr:city": "Creede", "addr:housenumber": "1201", "addr:postcode": "81130", "addr:state": "CO", "addr:street": "North Main Street", "amenity": "fire_station", "name": "Creede Volunteer Fire Station"}}, {"type": "node", "id": 5031185944, "lat": 37.8504697, "lon": -106.9240201}, {"type": "node", "id": 5031185945, "lat": 37.8486741, "lon": -106.9242916}, {"type": "node", "id": 5031185946, "lat": 37.8515241, "lon": -106.9251406}, {"type": "node", "id": 5031185947, "lat": 37.8487681, "lon": -106.9237144}, {"type": "node", "id": 5214791090, "lat": 37.8526461, "lon": -106.926924}, {"type": "node", "id": 5214791091, "lat": 37.8527509, "lon": -106.926925}, {"type": "node", "id": 5214791092, "lat": 37.8527522, "lon": -106.926746}, {"type": "node", "id": 5214791093, "lat": 37.8526473, "lon": -106.926745}, {"type": "node", "id": 5214791098, "lat": 37.8524984, "lon": -106.9269075, "tags": {"amenity": "telephone", "source_date": "Sep 2012"}}, {"type": "node", "id": 5362299289, "lat": 37.8544052, "lon": -106.9274762}, {"type": "node", "id": 5362299290, "lat": 37.8544171, "lon": -106.9272089}, {"type": "node", "id": 5362299291, "lat": 37.8540294, "lon": -106.9271811}, {"type": "node", "id": 5362299292, "lat": 37.8540187, "lon": -106.927419}, {"type": "node", "id": 5362299293, "lat": 37.8536327, "lon": -106.9270131}, {"type": "node", "id": 5362299294, "lat": 37.8536279, "lon": -106.9266562}, {"type": "node", "id": 5362299295, "lat": 37.853726, "lon": -106.9266582}, {"type": "node", "id": 5362299296, "lat": 37.853726, "lon": -106.9266883}, {"type": "node", "id": 5362299297, "lat": 37.8537973, "lon": -106.9266883}, {"type": "node", "id": 5362299298, "lat": 37.8537973, "lon": -106.9267164}, {"type": "node", "id": 5362299299, "lat": 37.8538321, "lon": -106.9267184}, {"type": "node", "id": 5362299300, "lat": 37.8538488, "lon": -106.9268261}, {"type": "node", "id": 5362299301, "lat": 37.853839, "lon": -106.9270313}, {"type": "node", "id": 5362299302, "lat": 37.8515651, "lon": -106.9274618}, {"type": "node", "id": 5362299303, "lat": 37.8516759, "lon": -106.9269368}, {"type": "node", "id": 5362299304, "lat": 37.8519608, "lon": -106.9270248}, {"type": "node", "id": 5362299305, "lat": 37.8519228, "lon": -106.9271998}, {"type": "node", "id": 5362299306, "lat": 37.8518643, "lon": -106.9271838}, {"type": "node", "id": 5362299307, "lat": 37.8518168, "lon": -106.9274098}, {"type": "node", "id": 5362299308, "lat": 37.851774, "lon": -106.9273998}, {"type": "node", "id": 5362299309, "lat": 37.8517471, "lon": -106.9275218}, {"type": "node", "id": 5362299310, "lat": 37.8553072, "lon": -106.9276875}, {"type": "node", "id": 5362299311, "lat": 37.8552856, "lon": -106.9275022}, {"type": "node", "id": 5362299312, "lat": 37.8553552, "lon": -106.9275022}, {"type": "node", "id": 5362299313, "lat": 37.8553696, "lon": -106.9276815}, {"type": "node", "id": 6582285128, "lat": 37.8533656, "lon": -106.926997}, {"type": "node", "id": 6582285129, "lat": 37.8533686, "lon": -106.9268231}, {"type": "node", "id": 6582285135, "lat": 37.8530146, "lon": -106.9268103}, {"type": "node", "id": 6582285136, "lat": 37.8530146, "lon": -106.9266989}, {"type": "node", "id": 6582285137, "lat": 37.852915, "lon": -106.9266989}, {"type": "node", "id": 6582285138, "lat": 37.852915, "lon": -106.9268103}, {"type": "node", "id": 6582285139, "lat": 37.8532103, "lon": -106.9269927}, {"type": "node", "id": 6582285140, "lat": 37.8532148, "lon": -106.9267368}, {"type": "node", "id": 6582285141, "lat": 37.85337, "lon": -106.9267411}, {"type": "node", "id": 7280308091, "lat": 37.845243, "lon": -106.924736}, {"type": "node", "id": 7280308092, "lat": 37.845363, "lon": -106.924752}, {"type": "node", "id": 7280308093, "lat": 37.84537, "lon": -106.924661}, {"type": "node", "id": 7280308094, "lat": 37.845251, "lon": -106.924645}, {"type": "node", "id": 8266263371, "lat": 37.8516273, "lon": -106.9272577, "tags": {"amenity": "atm", "currency:USD": "yes", "network": "Allpoint"}}, {"type": "node", "id": 8808028294, "lat": 37.8518122, "lon": -106.9271833}, {"type": "node", "id": 8808028296, "lat": 37.8519361, "lon": -106.9271925}, {"type": "node", "id": 8808028301, "lat": 37.8518092, "lon": -106.9272489}, {"type": "node", "id": 8808028304, "lat": 37.8519331, "lon": -106.9272581}, {"type": "node", "id": 8858975450, "lat": 37.8515883, "lon": -106.9274694}, {"type": "node", "id": 8858975451, "lat": 37.8509032, "lon": -106.9276446}, {"type": "node", "id": 8858975452, "lat": 37.8508896, "lon": -106.9271746}, {"type": "node", "id": 8858975453, "lat": 37.8512631, "lon": -106.9271769}, {"type": "node", "id": 8858975454, "lat": 37.8514545, "lon": -106.9271466}, {"type": "node", "id": 8858975455, "lat": 37.8515131, "lon": -106.9268833}, {"type": "node", "id": 8858975456, "lat": 37.8516512, "lon": -106.9269309}, {"type": "node", "id": 8858975457, "lat": 37.8515433, "lon": -106.9274864}, {"type": "node", "id": 8858975458, "lat": 37.8517812, "lon": -106.9275411}, {"type": "node", "id": 8858975459, "lat": 37.8517829, "lon": -106.9276472}, {"type": "node", "id": 9670566095, "lat": 37.8496829, "lon": -106.9259985, "tags": {"amenity": "restaurant", "name": "Kip's Grill", "outdoor_seating": "yes"}}, {"type": "node", "id": 9670566096, "lat": 37.8474885, "lon": -106.9252242, "tags": {"name": "Mines & Memories", "shop": "second_hand"}}, {"type": "node", "id": 9670566097, "lat": 37.8503937, "lon": -106.9261478, "tags": {"amenity": "place_of_worship", "building": "church", "name": "Creede Community Church", "religion": "christian"}}, {"type": "node", "id": 9670566098, "lat": 37.8493827, "lon": -106.9259107, "tags": {"amenity": "place_of_worship", "building": "church", "name": "Saint Augustine's Episcopal Church", "religion": "christian"}}, {"type": "node", "id": 9670566099, "lat": 37.8469846, "lon": -106.924958, "tags": {"amenity": "charging_station", "amperage": "32", "brand": "ChargePoint", "capacity": "1", "fee": "yes", "frequency": "0", "name": "ChargePoint", "operator": "ChargePoint", "operator:wikidata": "Q5176149", "operator:wikipedia": "en:ChargePoint", "socket:chademo": "1", "socket:type2_combo": "1", "voltage": "400"}}, {"type": "node", "id": 10218649983, "lat": 37.8543321, "lon": -106.9273708, "tags": {"amenity": "police", "name": "Mineral County Sheriffs Office"}}, {"type": "node", "id": 11332323742, "lat": 37.8542689, "lon": -106.9274664}, {"type": "node", "id": 11332323743, "lat": 37.8542702, "lon": -106.927437}, {"type": "node", "id": 12200448590, "lat": 37.8540087, "lon": -106.9273242, "tags": {"amenity": "bench"}}, {"type": "node", "id": 12200448591, "lat": 37.8540155, "lon": -106.9273593, "tags": {"amenity": "bicycle_parking"}}, {"type": "node", "id": 12200448594, "lat": 37.8539518, "lon": -106.9273294, "tags": {"amenity": "polling_station", "location": "outdoor", "opening_hours": "24/7", "polling_station": "ballot_box"}}, {"type": "node", "id": 12641429648, "lat": 37.8521637, "lon": -106.9270998, "tags": {"amenity": "drinking_water"}}, {"type": "node", "id": 13033435344, "lat": 37.8518314, "lon": -106.9285002}, {"type": "node", "id": 13033435345, "lat": 37.8516355, "lon": -106.9284848}, {"type": "node", "id": 13033435346, "lat": 37.8516411, "lon": -106.9283706}, {"type": "node", "id": 13033435347, "lat": 37.851837, "lon": -106.9283861}, {"type": "node", "id": 13033435382, "lat": 37.8505253, "lon": -106.9248371}, {"type": "node", "id": 13033435383, "lat": 37.8501673, "lon": -106.9247262}, {"type": "node", "id": 13033435384, "lat": 37.8502066, "lon": -106.9245225}, {"type": "node", "id": 13033435385, "lat": 37.8505647, "lon": -106.9246333}, {"type": "way", "id": 515089839, "nodes": [5031185946, 5031185945, 5031185947, 5031185944, 2356742532, 5031185946], "tags": {"amenity": "school"}}, {"type": "way", "id": 538812747, "nodes": [5214791090, 5214791091, 5214791092, 5214791093, 5214791090], "tags": {"addr:city": "Creede", "addr:housenumber": "10", "addr:postcode": "81130", "addr:state": "CO", "addr:street": "South Main Street", "amenity": "post_office", "building": "yes", "name": "Creede Post Office", "operator": "United States Postal Service", "operator:short": "USPS", "operator:type": "public", "operator:website": "https://www.usps.com", "operator:wikidata": "Q668687", "operator:wikipedia": "en:United States Postal Service", "short_name": "USPS"}}, {"type": "way", "id": 555838539, "nodes": [5362299289, 5362299290, 5362299291, 5362299292, 11332323743, 11332323742, 5362299289], "tags": {"addr:city": "Creede", "addr:housenumber": "1201", "addr:postcode": "81130", "addr:state": "CO", "addr:street": "North Main Street", "amenity": "courthouse", "building": "yes", "emergency": "psap", "name": "Mineral County Courthouse", "wikidata": "Q123366431"}}, {"type": "way", "id": 555838540, "nodes": [5362299293, 5362299294, 5362299295, 5362299296, 5362299297, 5362299298, 5362299299, 5362299300, 5362299301, 5362299293], "tags": {"addr:city": "Creede", "addr:housenumber": "124", "addr:postcode": "81130", "addr:state": "CO", "addr:street": "North Main Street", "amenity": "theatre", "building": "yes", "contact:instagram": "creederep", "email": "boxoffice@creederep.com", "name": "Creede Repertory Theatre", "outdoor_seating": "no", "phone": "+1 719-658-2540", "website": "https://creederep.org", "wikidata": "Q5183841", "wikipedia": "en:Creede Repertory Theatre"}}, {"type": "way", "id": 555838541, "nodes": [5362299302, 5362299303, 5362299304, 5362299305, 5362299306, 5362299307, 5362299308, 5362299309, 8858975450, 5362299302], "tags": {"addr:city": "Creede", "addr:housenumber": "103", "addr:postcode": "81130", "addr:state": "CO", "addr:street": "West 2nd Street", "addr:unit": "P.O Box 819", "building": "yes", "description": "HOMETOWN GROCERY STORE WITH COMPETITIVE PRICING, FOR ALL YOUR SHOPPING NEEDS--FRESH PRODUCE, CHOICE MEATS,GROCERY, ICE, FISHING AND PICNIC SUPPLIES. Kay and Ron Fief purchased the store in 2002 and have attempted to grow and meet the needs of a growing", "email": "kentuckybelle@ymail.com", "name": "Kentucky Bell Market", "opening_hours": "Mo-Sa 08:00-18:00 open \"summer hours\", Su 10:00-16:00 open \"summer hours\"; Nov-Feb Mo-Sa 08:00-18:00 open \"winter hours\"; Nov-Feb Su closed", "payment:cash": "yes", "payment:credit_cards": "yes", "shop": "supermarket", "wheelchair": "yes"}}, {"type": "way", "id": 555838542, "nodes": [5362299310, 5362299311, 5362299312, 5362299313, 5362299310], "tags": {"amenity": "townhall", "building": "yes"}}, {"type": "way", "id": 700901111, "nodes": [6582285135, 6582285136, 6582285137, 6582285138, 6582285135], "tags": {"addr:city": "Creede", "addr:housenumber": "107", "addr:postcode": "81130", "addr:state": "CO", "addr:street": "Wall Street", "amenity": "bar", "brewery": "various;BUD_LIGHT;MILLER_HIGH_LIFE;BLUE_MOON;ALAMOSA_AMBER", "building": "yes", "name": "Tommyknocker Tavern"}}, {"type": "way", "id": 700901112, "nodes": [6582285128, 6582285139, 6582285140, 6582285141, 6582285129, 6582285128], "tags": {"building": "yes", "shop": "fishing"}}, {"type": "way", "id": 779647860, "nodes": [7280308094, 7280308093, 7280308092, 7280308091, 7280308094], "tags": {"amenity": "toilets", "building": "yes"}}, {"type": "way", "id": 951593908, "nodes": [8808028296, 8808028304, 8808028301, 8808028294, 8808028296], "tags": {"amenity": "toilets"}}, {"type": "way", "id": 957398468, "nodes": [8858975451, 8858975452, 8858975453, 8858975454, 8858975455, 8858975456, 8858975457, 8858975458, 8858975459, 8858975451], "tags": {"amenity": "parking"}}, {"type": "way", "id": 1418264598, "nodes": [13033435344, 13033435345, 13033435346, 13033435347, 13033435344], "tags": {"amenity": "parking"}}, {"type": "way", "id": 1418264604, "nodes": [13033435382, 13033435383, 13033435384, 13033435385, 13033435382], "tags": {"amenity": "parking"}}]}