{"version": 0.6, "generator": "Overpass API 0.7.62.8 e802775f", "osm3s": {"timestamp_osm_base": "2025-12-12T16:59:35Z", "copyright": "The data included in this document is from www.openstreetmap.org. The data is made available under ODbL."}, "elements": [{"type": "node", "id": 4769116426, "lat": 39.7656819, "lon": -104.9773897, "tags": {"addr:city": "Denver", "addr:housenumber": "3300", "addr:postcode": "80205", "addr:state": "CO", "addr:street": "Walnut Street", "leisure": "fitness_centre", "name": "Brooklyn Boulders"}}, {"type": "node", "id": 4769116431, "lat": 39.7658282, "lon": -104.9774362, "tags": {"addr:city": "Denver", "addr:housenumber": "3300", "addr:postcode": "80205", "addr:state": "CO", "addr:street": "Walnut Street", "leisure": "fitness_centre", "name": "Fight Gravity Fitness"}}, {"type": "node", "id": 5087536361, "lat": 39.7677422, "lon": -104.9738249, "tags": {"addr:city": "Denver", "addr:housenumber": "3563", "addr:postcode": "80205", "addr:state": "CO", "addr:street": "Larimer Street", "leisure": "fitness_centre", "name": "Kindness Yoga"}}, {"type": "node", "id": 6788195854, "lat": 39.7656693, "lon": -104.9784131, "tags": {"addr:city": "Denver", "addr:housenumber": "3201", "addr:postcode": "80205", "addr:state": "CO", "addr:street": "Walnut Street", "leisure": "fitness_centre", "name": "Movement RiNo Climbing + Fitness", "opening_hours": "Mo-Fr 06:00-23:00, Sa 08:00-20:00, Su 08:00-18:00", "phone": "+1-720-667-3059", "sport": "climbing", "website": "https://movementgyms.com/rino/"}}, {"type": "node", "id": 9650864651, "lat": 39.7386493, "lon": -104.9754536, "tags": {"addr:city": "Denver", "addr:housenumber": "1409", "addr:postcode": "80218", "addr:state": "CO", "addr:street": "Ogden Street", "leisure": "fitness_centre", "name": "Rooted Heart Yoga and Wellness", "sport": "yoga", "website": "https://rootedheartyw.com/", "wheelchair": "yes"}}, {"type": "node", "id": 12993931796, "lat": 39.7404182, "lon": -104.9757281, "tags": {"addr:city": "Denver", "addr:housenumber": "1516", "addr:postcode": "80218", "addr:state": "CO", "addr:street": "Emerson Street", "contact:email": "info@colfaxstrong.com", "contact:facebook": "https://www.facebook.com/colfaxstrong", "contact:instagram": "https://www.instagram.com/colfaxstrongdenver/", "language:en": "yes", "leisure": "fitness_centre", "name": "Colfax Strong Strength & Conditioning", "opening_hours": "Mo, We 05:30-19:30; Tu, Th 05:30-20:00; Fr 05:30-18:30; Sa 08:00-12:30; Su 09:00-12:00", "payment:credit_cards": "yes", "phone": "+1-303-832-7263", "start_date": "2013-01-01", "website": "https://www.colfaxstrong.com"}}]}