{"version": 0.6, "generator": "Overpass API 0.7.62.8 e802775f", "osm3s": {"timestamp_osm_base": "2025-12-06T22:28:30Z", "copyright": "The data included in this document is from www.openstreetmap.org. The data is made available under ODbL."}, "elements": [{"type": "node", "id": 356544002, "lat": 47.6771324, "lon": -122.1692615}, {"type": "node", "id": 1591107434, "lat": 47.666877, "lon": -122.163307, "tags": {"addr:city": "Redmond", "addr:housenumber": "13200", "addr:postcode": "98052", "addr:state": "WA", "addr:street": "Old Redmond Road", "addr:unit": "Ste 101", "brand": "Great Clips", "brand:wikidata": "Q5598967", "name": "Great Clips", "opening_hours:covid19": "Sa-Su 09:00-17:00; Mo-Fr 09:00-19:00", "payment:cash": "yes", "payment:contactless": "yes", "payment:credit_cards": "yes", "phone": "+1-425-883-6486", "shop": "hairdresser", "website": "https://salons.greatclips.com/us/wa/redmond/13200-old-redmond-rd"}}, {"type": "node", "id": 1739814404, "lat": 47.6665047, "lon": -122.1644574}, {"type": "node", "id": 1930093021, "lat": 47.6772323, "lon": -122.1667432}, {"type": "node", "id": 1930093022, "lat": 47.6754228, "lon": -122.169192}, {"type": "node", "id": 1930093023, "lat": 47.6754179, "lon": -122.166626}, {"type": "node", "id": 2089599016, "lat": 47.6660705, "lon": -122.1645812}, {"type": "node", "id": 2133260858, "lat": 47.6649828, "lon": -122.165892, "tags": {"addr:city": "Kirkland", "addr:housenumber": "6613", "addr:postcode": "98033", "addr:state": "WA", "addr:street": "132nd Avenue Northeast", "brand": "Ace Hardware", "brand:wikidata": "Q4672981", "name": "Westlake Ace Hardware", "opening_hours": "Mo-Sa 08:00-19:00; Su 09:00-18:00", "phone": "+1-425-968-8784", "ref": "17918", "shop": "doityourself", "website": "https://westlakehardware.com"}}, {"type": "node", "id": 2142181934, "lat": 47.6646914, "lon": -122.164879, "tags": {"addr:city": "Kirkland", "addr:housenumber": "6515", "addr:postcode": "98033", "addr:street": "132nd Avenue Northeast", "name": "Chiropractic & Massage", "shop": "massage"}}, {"type": "node", "id": 2142181935, "lat": 47.6653141, "lon": -122.1658986, "tags": {"addr:city": "Kirkland", "addr:housenumber": "6619", "addr:postcode": "98033", "addr:street": "132nd Avenue Northeast", "amenity": "pharmacy", "brand": "Bartell Drugs", "brand:wikidata": "Q4865152", "dispensing": "yes", "healthcare": "pharmacy", "name": "Bartell Drugs", "opening_hours": "Mo-Fr 07:00-22:00; Sa 08:00-20:00; Su 09:00-19:00", "phone": "+1-425-881-5678", "website": "https://bartelldrugs.com/store/bridle-trails/"}}, {"type": "node", "id": 2142181946, "lat": 47.6657608, "lon": -122.165911, "tags": {"addr:city": "Kirkland", "addr:housenumber": "6625", "addr:postcode": "98033", "addr:street": "132nd Avenue Northeast", "brand": "Grocery Outlet", "brand:wikidata": "Q5609934", "name": "Grocery Outlet", "official_name": "Grocery Outlet Bargain Market", "opening_hours": "Mo-Su 08:00-21:00", "shop": "supermarket"}}, {"type": "node", "id": 2142181956, "lat": 47.6646888, "lon": -122.1644158, "tags": {"addr:city": "Kirkland", "addr:housenumber": "6507", "addr:postcode": "98033", "addr:street": "132nd Avenue Northeast", "amenity": "dentist", "healthcare": "dentist", "name": "Bridle Trails Family Dentistry"}}, {"type": "node", "id": 2142181957, "lat": 47.6646948, "lon": -122.1647837, "tags": {"addr:city": "Kirkland", "addr:housenumber": "6513", "addr:postcode": "98033", "addr:street": "132nd Avenue Northeast", "amenity": "post_office", "brand": "The UPS Store", "brand:wikidata": "Q7771029", "email": "store5365@theupsstore.com", "name": "The UPS Store", "opening_hours": "Mo-Fr 08:00-18:00; Sa 09:00-17:00; Su 09:00-17:00", "phone": "+1-425-869-7130", "short_name": "UPS", "website": "https://kirkland-wa-5365.theupsstorelocal.com"}}, {"type": "node", "id": 2142181958, "lat": 47.6646991, "lon": -122.1652187, "tags": {"addr:city": "Kirkland", "addr:housenumber": "6521", "addr:postcode": "98033", "addr:street": "132nd Avenue Northeast", "name": "U.S. Cleaners", "opening_hours": "Mo-Fr 07:00-19:00; Sa 09:00-17:00", "shop": "dry_cleaning"}}, {"type": "node", "id": 2481906241, "lat": 47.6659814, "lon": -122.1657973}, {"type": "node", "id": 2481906252, "lat": 47.6648083, "lon": -122.1658129}, {"type": "node", "id": 2481906253, "lat": 47.6647465, "lon": -122.1657064}, {"type": "node", "id": 2481906257, "lat": 47.6647376, "lon": -122.1642502}, {"type": "node", "id": 2481906792, "lat": 47.6666506, "lon": -122.1655735}, {"type": "node", "id": 2481906793, "lat": 47.6665372, "lon": -122.1659414}, {"type": "node", "id": 2481906794, "lat": 47.6666409, "lon": -122.1660283}, {"type": "node", "id": 2481906795, "lat": 47.6665376, "lon": -122.1660294}, {"type": "node", "id": 2481906797, "lat": 47.6662012, "lon": -122.1651375}, {"type": "node", "id": 2481906798, "lat": 47.6661902, "lon": -122.1659095}, {"type": "node", "id": 2481906799, "lat": 47.6666003, "lon": -122.1651709}, {"type": "node", "id": 2481906801, "lat": 47.6666407, "lon": -122.165574}, {"type": "node", "id": 2584438698, "lat": 47.665124, "lon": -122.165899, "tags": {"addr:city": "Kirkland", "addr:housenumber": "6617", "addr:postcode": "98033", "addr:street": "132nd Avenue Northeast", "amenity": "cafe", "cuisine": "bubble_tea", "name": "BobaLust", "opening_hours": "Su-Th 13:00-22:00; Fr,Sa 13:00-23:00", "website": "https://www.bobalustteahouse.com/"}}, {"type": "node", "id": 2584464389, "lat": 47.6660714, "lon": -122.1646947}, {"type": "node", "id": 2584464390, "lat": 47.6660675, "lon": -122.1644079}, {"type": "node", "id": 2584464391, "lat": 47.6661933, "lon": -122.1644058}, {"type": "node", "id": 2584464392, "lat": 47.6662011, "lon": -122.1645412}, {"type": "node", "id": 2584464393, "lat": 47.666201, "lon": -122.1645238}, {"type": "node", "id": 2584464395, "lat": 47.6661882, "lon": -122.1645854}, {"type": "node", "id": 2584464396, "lat": 47.6661893, "lon": -122.164736}, {"type": "node", "id": 2584467425, "lat": 47.666958, "lon": -122.1665545}, {"type": "node", "id": 2584467426, "lat": 47.6669528, "lon": -122.1662321}, {"type": "node", "id": 2584467429, "lat": 47.6670619, "lon": -122.1662283}, {"type": "node", "id": 2584467435, "lat": 47.6670336, "lon": -122.1665383}, {"type": "node", "id": 2584467436, "lat": 47.6670338, "lon": -122.1665518}, {"type": "node", "id": 2821756489, "lat": 47.6654644, "lon": -122.1646178}, {"type": "node", "id": 2821756490, "lat": 47.6653433, "lon": -122.1646207}, {"type": "node", "id": 2821756491, "lat": 47.6653432, "lon": -122.1646073}, {"type": "node", "id": 2821756492, "lat": 47.6652667, "lon": -122.1646092}, {"type": "node", "id": 2821756493, "lat": 47.6652647, "lon": -122.1644445}, {"type": "node", "id": 2821756496, "lat": 47.6652622, "lon": -122.1643619}, {"type": "node", "id": 2821756497, "lat": 47.6652614, "lon": -122.1642738}, {"type": "node", "id": 2821756498, "lat": 47.6652955, "lon": -122.1642729}, {"type": "node", "id": 2821756499, "lat": 47.6653069, "lon": -122.1642524}, {"type": "node", "id": 2821756500, "lat": 47.6654166, "lon": -122.1642497}, {"type": "node", "id": 2821757901, "lat": 47.6654107, "lon": -122.1644661}, {"type": "node", "id": 2821757902, "lat": 47.665473, "lon": -122.1644646}, {"type": "node", "id": 2821757903, "lat": 47.665474, "lon": -122.1645472}, {"type": "node", "id": 2821757904, "lat": 47.6654639, "lon": -122.1645654}, {"type": "node", "id": 2821789855, "lat": 47.6664968, "lon": -122.1647316}, {"type": "node", "id": 2821789856, "lat": 47.6665138, "lon": -122.1647105}, {"type": "node", "id": 2821789857, "lat": 47.6665237, "lon": -122.164728}, {"type": "node", "id": 2821789858, "lat": 47.6666023, "lon": -122.1646306}, {"type": "node", "id": 2821789859, "lat": 47.6665633, "lon": -122.164561}, {"type": "node", "id": 2821789860, "lat": 47.6666764, "lon": -122.1644201}, {"type": "node", "id": 2821789861, "lat": 47.6666179, "lon": -122.1643164}, {"type": "node", "id": 2821789863, "lat": 47.6664866, "lon": -122.1644249}, {"type": "node", "id": 2821789864, "lat": 47.66641, "lon": -122.1645198}, {"type": "node", "id": 2821789865, "lat": 47.6664545, "lon": -122.164599}, {"type": "node", "id": 2821789866, "lat": 47.6664354, "lon": -122.1646226}, {"type": "node", "id": 3339098886, "lat": 47.6796795, "lon": -122.1708641, "tags": {"addr:city": "Kirkland", "addr:housenumber": "12640", "addr:postcode": "98033", "addr:street": "Northeast 85th Street", "brand": "O'Reilly Auto Parts", "brand:wikidata": "Q7071951", "name": "O'Reilly Auto Parts", "opening_hours": "Mo-Sa 7:30-21:00;Su 8:00-20:00", "phone": "+1-425-827-9595", "shop": "car_parts", "website": "https://locations.oreillyauto.com/wa/kirkland/autoparts-3691.html"}}, {"type": "node", "id": 3339112365, "lat": 47.6796541, "lon": -122.1709921}, {"type": "node", "id": 3339112376, "lat": 47.679665, "lon": -122.16598}, {"type": "node", "id": 3339112383, "lat": 47.6796613, "lon": -122.1702902}, {"type": "node", "id": 3339112385, "lat": 47.6796691, "lon": -122.165751}, {"type": "node", "id": 3339112545, "lat": 47.6797168, "lon": -122.1659821}, {"type": "node", "id": 3339112547, "lat": 47.6797171, "lon": -122.1659652}, {"type": "node", "id": 3339112563, "lat": 47.6797305, "lon": -122.1657806}, {"type": "node", "id": 3339112564, "lat": 47.6797311, "lon": -122.1657535}, {"type": "node", "id": 3339112571, "lat": 47.6797253, "lon": -122.1714082}, {"type": "node", "id": 3339112734, "lat": 47.679795, "lon": -122.1659683}, {"type": "node", "id": 3339112737, "lat": 47.679796, "lon": -122.1659136}, {"type": "node", "id": 3339112770, "lat": 47.6798277, "lon": -122.170182}, {"type": "node", "id": 3339112782, "lat": 47.6798337, "lon": -122.1695996}, {"type": "node", "id": 3339112906, "lat": 47.6798549, "lon": -122.165916}, {"type": "node", "id": 3339112911, "lat": 47.6798573, "lon": -122.1657857}, {"type": "node", "id": 3340942282, "lat": 47.6669554, "lon": -122.1655635, "tags": {"addr:city": "Kirkland", "addr:housenumber": "13029", "addr:postcode": "98033", "addr:state": "WA", "addr:street": "Northeast 70th Place", "name": "Earl's Barber Shop", "opening_hours": "Mo-Fr 08:00-18:00; Sa-Su 08:00-16:00", "phone": "+1-425-822-4274", "shop": "hairdresser"}}, {"type": "node", "id": 3340942286, "lat": 47.6660735, "lon": -122.1652882}, {"type": "node", "id": 3340942477, "lat": 47.6646944, "lon": -122.1650599, "tags": {"addr:city": "Kirkland", "addr:housenumber": "6519", "addr:postcode": "98033", "addr:street": "132nd Avenue Northeast", "amenity": "fast_food", "brand": "Papa Murphy's", "brand:wikidata": "Q7132349", "cuisine": "pizza", "name": "Papa Murphy's", "official_name": "Papa Murphy's Take 'N' Bake Pizza", "opening_hours": "Mo-Su 02:00-20:00", "takeaway": "only"}}, {"type": "node", "id": 3340942498, "lat": 47.664701, "lon": -122.1656817, "tags": {"addr:city": "Kirkland", "addr:housenumber": "6531", "addr:postcode": "98033", "addr:street": "132nd Avenue Northeast", "amenity": "fast_food", "cuisine": "chicken;korean", "drive_through": "no", "name": "Chicko Chicken", "phone": "+1-425-242-1125", "website": "https://www.chicko-wa.com/"}}, {"type": "node", "id": 3340945668, "lat": 47.6651977, "lon": -122.1642403}, {"type": "node", "id": 3340945669, "lat": 47.6651992, "lon": -122.164676}, {"type": "node", "id": 3340945856, "lat": 47.6654103, "lon": -122.1644289}, {"type": "node", "id": 3340945860, "lat": 47.6654184, "lon": -122.1644143}, {"type": "node", "id": 3340945907, "lat": 47.665581, "lon": -122.1641797}, {"type": "node", "id": 3340945908, "lat": 47.6654948, "lon": -122.1646673}, {"type": "node", "id": 3340946148, "lat": 47.6661914, "lon": -122.166326}, {"type": "node", "id": 3340946183, "lat": 47.6660482, "lon": -122.1641831}, {"type": "node", "id": 3340946185, "lat": 47.6660513, "lon": -122.1647685}, {"type": "node", "id": 3340946192, "lat": 47.666061, "lon": -122.1645436}, {"type": "node", "id": 3340946193, "lat": 47.6660613, "lon": -122.1645814}, {"type": "node", "id": 3340946198, "lat": 47.6660685, "lon": -122.1645435}, {"type": "node", "id": 3340946204, "lat": 47.666074, "lon": -122.1653826}, {"type": "node", "id": 3340946217, "lat": 47.6661089, "lon": -122.1652877}, {"type": "node", "id": 3340946218, "lat": 47.6661094, "lon": -122.1653821}, {"type": "node", "id": 3340946232, "lat": 47.6661444, "lon": -122.1646935}, {"type": "node", "id": 3340946234, "lat": 47.6661447, "lon": -122.1647368}, {"type": "node", "id": 3340946250, "lat": 47.6661752, "lon": -122.1653302}, {"type": "node", "id": 3340946251, "lat": 47.6661761, "lon": -122.1655108}, {"type": "node", "id": 3340946258, "lat": 47.6661883, "lon": -122.1655227}, {"type": "node", "id": 3340946263, "lat": 47.6661942, "lon": -122.1645239}, {"type": "node", "id": 3340946264, "lat": 47.6662021, "lon": -122.1653299}, {"type": "node", "id": 3340946265, "lat": 47.6662031, "lon": -122.1655105}, {"type": "node", "id": 3340946266, "lat": 47.6662032, "lon": -122.1655225}, {"type": "node", "id": 3340946274, "lat": 47.6662165, "lon": -122.164541}, {"type": "node", "id": 3340946275, "lat": 47.6662165, "lon": -122.164585}, {"type": "node", "id": 3340946293, "lat": 47.6662334, "lon": -122.1645407}, {"type": "node", "id": 3340946295, "lat": 47.6662338, "lon": -122.1645847}, {"type": "node", "id": 3340946321, "lat": 47.6662961, "lon": -122.1647685}, {"type": "node", "id": 3340946322, "lat": 47.6663061, "lon": -122.1649233}, {"type": "node", "id": 3340946421, "lat": 47.6665064, "lon": -122.1659063}, {"type": "node", "id": 3340946422, "lat": 47.6665066, "lon": -122.1659417}, {"type": "node", "id": 3340946541, "lat": 47.6666019, "lon": -122.1655216}, {"type": "node", "id": 3340946547, "lat": 47.66663, "lon": -122.1651331}, {"type": "node", "id": 3340946548, "lat": 47.6666302, "lon": -122.1651706}, {"type": "node", "id": 3340946552, "lat": 47.6666401, "lon": -122.1658452}, {"type": "node", "id": 3340946554, "lat": 47.6666426, "lon": -122.1656431}, {"type": "node", "id": 3340946557, "lat": 47.6666515, "lon": -122.1655236}, {"type": "node", "id": 3340946559, "lat": 47.6666626, "lon": -122.165735}, {"type": "node", "id": 3340946560, "lat": 47.6666628, "lon": -122.1657018}, {"type": "node", "id": 3340946562, "lat": 47.666675, "lon": -122.1657019}, {"type": "node", "id": 3340946564, "lat": 47.6666757, "lon": -122.1656418}, {"type": "node", "id": 3340946566, "lat": 47.6666767, "lon": -122.1657357}, {"type": "node", "id": 3340946567, "lat": 47.6666768, "lon": -122.1657784}, {"type": "node", "id": 3340946572, "lat": 47.6666845, "lon": -122.165779}, {"type": "node", "id": 3340946573, "lat": 47.6666845, "lon": -122.1658448}, {"type": "node", "id": 3340946624, "lat": 47.6667439, "lon": -122.1651303}, {"type": "node", "id": 3340946643, "lat": 47.666912, "lon": -122.1654422}, {"type": "node", "id": 3340946654, "lat": 47.6669505, "lon": -122.1654256}, {"type": "node", "id": 3340946655, "lat": 47.6669568, "lon": -122.1656709}, {"type": "node", "id": 3340946660, "lat": 47.666969, "lon": -122.1656656}, {"type": "node", "id": 3340946694, "lat": 47.6670506, "lon": -122.1660576}, {"type": "node", "id": 3340946702, "lat": 47.6670668, "lon": -122.1665371}, {"type": "node", "id": 3340946723, "lat": 47.6671065, "lon": -122.1660509}, {"type": "node", "id": 3340946745, "lat": 47.6672166, "lon": -122.1663069}, {"type": "node", "id": 3340946746, "lat": 47.667218, "lon": -122.1665898}, {"type": "node", "id": 3343029704, "lat": 47.6672899, "lon": -122.164933, "tags": {"addr:city": "Kirkland", "addr:housenumber": "13102", "addr:postcode": "98033", "addr:street": "Northeast 70th Place", "addr:unit": "A", "amenity": "pub", "name": "Thirsty Hop", "opening_hours": "Tu-Th 15:00-20:00; Fr-Sa 12:00-20:00; Su 12:00-18:00", "phone": "+1-425-896-8320", "website": "http://thirstyhop.com/"}}, {"type": "node", "id": 3343029706, "lat": 47.6672427, "lon": -122.164608, "tags": {"addr:city": "Kirkland", "addr:housenumber": "13108", "addr:postcode": "98033", "addr:street": "Northeast 70th Place", "amenity": "restaurant", "cuisine": "vietnamese", "name": "Cafe 79", "phone": "+1-425-896-7626", "website": "https://www.cafe79kirkland.com/"}}, {"type": "node", "id": 3343188641, "lat": 47.6791269, "lon": -122.1670778, "tags": {"addr:city": "Kirkland", "addr:housenumber": "12859", "addr:postcode": "98033", "addr:street": "Northeast 85th Street", "amenity": "pub", "name": "Pub 85"}}, {"type": "node", "id": 3343188642, "lat": 47.6791282, "lon": -122.1669694, "tags": {"addr:city": "Kirkland", "addr:housenumber": "12861", "addr:postcode": "98033", "addr:street": "Northeast 85th Street", "amenity": "restaurant", "name": "Couzin's Cafe"}}, {"type": "node", "id": 3343188842, "lat": 47.6754617, "lon": -122.1690342}, {"type": "node", "id": 3343188849, "lat": 47.6754643, "lon": -122.1687018}, {"type": "node", "id": 3343188973, "lat": 47.6755344, "lon": -122.1691148}, {"type": "node", "id": 3343188981, "lat": 47.6755394, "lon": -122.1686036}, {"type": "node", "id": 3343189485, "lat": 47.6758698, "lon": -122.1679713}, {"type": "node", "id": 3343189552, "lat": 47.6759254, "lon": -122.1679499}, {"type": "node", "id": 3343189582, "lat": 47.6759458, "lon": -122.1683534}, {"type": "node", "id": 3343189588, "lat": 47.6759493, "lon": -122.1686075}, {"type": "node", "id": 3343189593, "lat": 47.6759522, "lon": -122.1684249}, {"type": "node", "id": 3343189622, "lat": 47.6760065, "lon": -122.1683404}, {"type": "node", "id": 3343189623, "lat": 47.676007, "lon": -122.1691207}, {"type": "node", "id": 3343189633, "lat": 47.6760126, "lon": -122.1684166}, {"type": "node", "id": 3343192043, "lat": 47.678511, "lon": -122.1652981}, {"type": "node", "id": 3343192044, "lat": 47.6785151, "lon": -122.1666676}, {"type": "node", "id": 3343192047, "lat": 47.6785248, "lon": -122.1653329}, {"type": "node", "id": 3343192048, "lat": 47.6785252, "lon": -122.1654099}, {"type": "node", "id": 3343192067, "lat": 47.6785664, "lon": -122.1653319}, {"type": "node", "id": 3343192068, "lat": 47.6785669, "lon": -122.1654089}, {"type": "node", "id": 3343192093, "lat": 47.6786489, "lon": -122.1664657}, {"type": "node", "id": 3343192103, "lat": 47.6786563, "lon": -122.1661357}, {"type": "node", "id": 3343192105, "lat": 47.6786591, "lon": -122.1665067}, {"type": "node", "id": 3343192106, "lat": 47.67866, "lon": -122.1664667}, {"type": "node", "id": 3343192136, "lat": 47.6786905, "lon": -122.1661377}, {"type": "node", "id": 3343192138, "lat": 47.6786919, "lon": -122.1660777}, {"type": "node", "id": 3343192180, "lat": 47.6787511, "lon": -122.1661477}, {"type": "node", "id": 3343192181, "lat": 47.6787526, "lon": -122.1660807}, {"type": "node", "id": 3343192187, "lat": 47.6787683, "lon": -122.1665127}, {"type": "node", "id": 3343192188, "lat": 47.6787692, "lon": -122.1664697}, {"type": "node", "id": 3343192194, "lat": 47.6787797, "lon": -122.1664697}, {"type": "node", "id": 3343192201, "lat": 47.6787869, "lon": -122.1661487}, {"type": "node", "id": 3343192277, "lat": 47.67894, "lon": -122.1723816}, {"type": "node", "id": 3343192281, "lat": 47.6789429, "lon": -122.1722257}, {"type": "node", "id": 3343192282, "lat": 47.6789523, "lon": -122.1719627}, {"type": "node", "id": 3343192285, "lat": 47.6789551, "lon": -122.1717943}, {"type": "node", "id": 3343192287, "lat": 47.6789558, "lon": -122.1666734}, {"type": "node", "id": 3343192291, "lat": 47.6789634, "lon": -122.1653033}, {"type": "node", "id": 3343192317, "lat": 47.6790159, "lon": -122.1686875}, {"type": "node", "id": 3343192321, "lat": 47.6790205, "lon": -122.1684314}, {"type": "node", "id": 3343192331, "lat": 47.6790465, "lon": -122.1686953}, {"type": "node", "id": 3343192332, "lat": 47.6790466, "lon": -122.1686887}, {"type": "node", "id": 3343192333, "lat": 47.6790477, "lon": -122.1719744}, {"type": "node", "id": 3343192334, "lat": 47.6790478, "lon": -122.1719661}, {"type": "node", "id": 3343192335, "lat": 47.6790536, "lon": -122.1684327}, {"type": "node", "id": 3343192336, "lat": 47.6790541, "lon": -122.1684065}, {"type": "node", "id": 3343192364, "lat": 47.6791054, "lon": -122.1719765}, {"type": "node", "id": 3343192365, "lat": 47.6791055, "lon": -122.1719698}, {"type": "node", "id": 3343192404, "lat": 47.6791459, "lon": -122.1719713}, {"type": "node", "id": 3343192410, "lat": 47.6791487, "lon": -122.1718012}, {"type": "node", "id": 3343192412, "lat": 47.679156, "lon": -122.1647848}, {"type": "node", "id": 3343192416, "lat": 47.6791567, "lon": -122.1649625}, {"type": "node", "id": 3343192433, "lat": 47.6791683, "lon": -122.1649624}, {"type": "node", "id": 3343192434, "lat": 47.6791684, "lon": -122.1649763}, {"type": "node", "id": 3343192436, "lat": 47.67917, "lon": -122.1647067}, {"type": "node", "id": 3343192437, "lat": 47.6791703, "lon": -122.1647847}, {"type": "node", "id": 3343192444, "lat": 47.679173, "lon": -122.172391}, {"type": "node", "id": 3343192445, "lat": 47.6791758, "lon": -122.1722351}, {"type": "node", "id": 3343192454, "lat": 47.6791914, "lon": -122.1684704}, {"type": "node", "id": 3343192455, "lat": 47.6791924, "lon": -122.1684119}, {"type": "node", "id": 3343192466, "lat": 47.6792053, "lon": -122.1687015}, {"type": "node", "id": 3343192468, "lat": 47.6792094, "lon": -122.1684711}, {"type": "node", "id": 3343192470, "lat": 47.6792219, "lon": -122.1646913}, {"type": "node", "id": 3343192471, "lat": 47.679222, "lon": -122.1647062}, {"type": "node", "id": 3343192544, "lat": 47.6793179, "lon": -122.1646904}, {"type": "node", "id": 3343192546, "lat": 47.679319, "lon": -122.164975}, {"type": "node", "id": 3343199192, "lat": 47.6790134, "lon": -122.1723846}, {"type": "node", "id": 3343199693, "lat": 47.6790163, "lon": -122.1722287}, {"type": "node", "id": 3343218617, "lat": 47.6717533, "lon": -122.1648184}, {"type": "node", "id": 3343218618, "lat": 47.6717549, "lon": -122.165298}, {"type": "node", "id": 3343218633, "lat": 47.6718032, "lon": -122.1647153}, {"type": "node", "id": 3343218634, "lat": 47.6718036, "lon": -122.164818}, {"type": "node", "id": 3343218728, "lat": 47.6719088, "lon": -122.1649539}, {"type": "node", "id": 3343218730, "lat": 47.67191, "lon": -122.1652969}, {"type": "node", "id": 3343218765, "lat": 47.6719575, "lon": -122.1647142}, {"type": "node", "id": 3343218766, "lat": 47.6719575, "lon": -122.1647286}, {"type": "node", "id": 3343218843, "lat": 47.6720523, "lon": -122.1649389}, {"type": "node", "id": 3343218844, "lat": 47.6720524, "lon": -122.1649528}, {"type": "node", "id": 3343218845, "lat": 47.6720579, "lon": -122.1646779}, {"type": "node", "id": 3343218846, "lat": 47.6720581, "lon": -122.1647278}, {"type": "node", "id": 3343218848, "lat": 47.6720677, "lon": -122.1649524}, {"type": "node", "id": 3343218849, "lat": 47.6720679, "lon": -122.1650236}, {"type": "node", "id": 3343218864, "lat": 47.6720958, "lon": -122.164441}, {"type": "node", "id": 3343218865, "lat": 47.6720966, "lon": -122.1646776}, {"type": "node", "id": 3343218869, "lat": 47.672099, "lon": -122.1649385}, {"type": "node", "id": 3343218870, "lat": 47.672099, "lon": -122.1649522}, {"type": "node", "id": 3343218874, "lat": 47.6720999, "lon": -122.1650234}, {"type": "node", "id": 3343218875, "lat": 47.6721003, "lon": -122.1651353}, {"type": "node", "id": 3343218962, "lat": 47.6722077, "lon": -122.1649907}, {"type": "node", "id": 3343218963, "lat": 47.6722078, "lon": -122.1649975}, {"type": "node", "id": 3343218965, "lat": 47.6722084, "lon": -122.1651108}, {"type": "node", "id": 3343218966, "lat": 47.6722085, "lon": -122.1651345}, {"type": "node", "id": 3343218974, "lat": 47.6722183, "lon": -122.1652699}, {"type": "node", "id": 3343218976, "lat": 47.672221, "lon": -122.1658678}, {"type": "node", "id": 3343218977, "lat": 47.6722303, "lon": -122.1647635}, {"type": "node", "id": 3343218979, "lat": 47.6722311, "lon": -122.1649905}, {"type": "node", "id": 3343218987, "lat": 47.6722412, "lon": -122.1650803}, {"type": "node", "id": 3343218989, "lat": 47.6722418, "lon": -122.1650331}, {"type": "node", "id": 3343219004, "lat": 47.6722588, "lon": -122.1644398}, {"type": "node", "id": 3343219005, "lat": 47.6722597, "lon": -122.1647019}, {"type": "node", "id": 3343219006, "lat": 47.6722605, "lon": -122.1650329}, {"type": "node", "id": 3343219007, "lat": 47.6722606, "lon": -122.1650801}, {"type": "node", "id": 3343219009, "lat": 47.672262, "lon": -122.1651576}, {"type": "node", "id": 3343219051, "lat": 47.6723009, "lon": -122.1645158}, {"type": "node", "id": 3343219052, "lat": 47.6723009, "lon": -122.1647262}, {"type": "node", "id": 3343219053, "lat": 47.6723021, "lon": -122.1651822}, {"type": "node", "id": 3343219089, "lat": 47.6723361, "lon": -122.1644827}, {"type": "node", "id": 3343219132, "lat": 47.6723978, "lon": -122.1644246}, {"type": "node", "id": 3343219250, "lat": 47.6725675, "lon": -122.1644274}, {"type": "node", "id": 3343219252, "lat": 47.67257, "lon": -122.1658665}, {"type": "node", "id": 3343244986, "lat": 47.6791177, "lon": -122.1723888}, {"type": "node", "id": 3343244987, "lat": 47.6791206, "lon": -122.1722329}, {"type": "node", "id": 4318534662, "lat": 47.6667105, "lon": -122.165123}, {"type": "node", "id": 4318534684, "lat": 47.6667057, "lon": -122.1649146}, {"type": "node", "id": 4318534686, "lat": 47.6668675, "lon": -122.1651284}, {"type": "node", "id": 4318537447, "lat": 47.6662934, "lon": -122.1649954}, {"type": "node", "id": 4318537454, "lat": 47.6667074, "lon": -122.1650644}, {"type": "node", "id": 4318537607, "lat": 47.6669229, "lon": -122.1652059}, {"type": "node", "id": 4318537609, "lat": 47.6663068, "lon": -122.1649968}, {"type": "node", "id": 4318537618, "lat": 47.666879, "lon": -122.1652114}, {"type": "node", "id": 4979850101, "lat": 47.6795009, "lon": -122.1701555}, {"type": "node", "id": 4979850103, "lat": 47.6795023, "lon": -122.169718}, {"type": "node", "id": 4979850111, "lat": 47.6795152, "lon": -122.1711127}, {"type": "node", "id": 4979850112, "lat": 47.6795169, "lon": -122.1697095}, {"type": "node", "id": 4979850113, "lat": 47.6795199, "lon": -122.1706513}, {"type": "node", "id": 4979850114, "lat": 47.6795206, "lon": -122.170583}, {"type": "node", "id": 4979850115, "lat": 47.6795228, "lon": -122.1703693}, {"type": "node", "id": 4979850120, "lat": 47.6795241, "lon": -122.1725008}, {"type": "node", "id": 4979851421, "lat": 47.6795377, "lon": -122.169629}, {"type": "node", "id": 4979851422, "lat": 47.6795411, "lon": -122.1713285}, {"type": "node", "id": 4979851423, "lat": 47.6795442, "lon": -122.1701571}, {"type": "node", "id": 4979851424, "lat": 47.6795446, "lon": -122.170122}, {"type": "node", "id": 4979851425, "lat": 47.679545, "lon": -122.1700809}, {"type": "node", "id": 4979851433, "lat": 47.679578, "lon": -122.1726123}, {"type": "node", "id": 4979851434, "lat": 47.6795883, "lon": -122.1706529}, {"type": "node", "id": 4979851435, "lat": 47.6795791, "lon": -122.1725013}, {"type": "node", "id": 4979851436, "lat": 47.679589, "lon": -122.1705845}, {"type": "node", "id": 4979851437, "lat": 47.6795912, "lon": -122.1703708}, {"type": "node", "id": 4979851438, "lat": 47.679592, "lon": -122.1702886}, {"type": "node", "id": 4979851441, "lat": 47.679596, "lon": -122.1698943}, {"type": "node", "id": 4979851442, "lat": 47.6795987, "lon": -122.1696304}, {"type": "node", "id": 4979851448, "lat": 47.6796223, "lon": -122.1713303}, {"type": "node", "id": 4979851450, "lat": 47.6796237, "lon": -122.1711974}, {"type": "node", "id": 4979851451, "lat": 47.6796241, "lon": -122.1711595}, {"type": "node", "id": 4979851452, "lat": 47.6796536, "lon": -122.1710379}, {"type": "node", "id": 4979851454, "lat": 47.6796566, "lon": -122.1700834}, {"type": "node", "id": 4979851456, "lat": 47.6796586, "lon": -122.1698957}, {"type": "node", "id": 4979851457, "lat": 47.6796832, "lon": -122.1719812}, {"type": "node", "id": 4979851459, "lat": 47.679685, "lon": -122.1718024}, {"type": "node", "id": 4979851463, "lat": 47.6797041, "lon": -122.1726114}, {"type": "node", "id": 4979851464, "lat": 47.6797058, "lon": -122.1724756}, {"type": "node", "id": 4979851465, "lat": 47.6797072, "lon": -122.1723905}, {"type": "node", "id": 4979851466, "lat": 47.6797105, "lon": -122.1719818}, {"type": "node", "id": 4979851467, "lat": 47.6797123, "lon": -122.171803}, {"type": "node", "id": 4979851468, "lat": 47.6797163, "lon": -122.171408}, {"type": "node", "id": 4979851475, "lat": 47.6798215, "lon": -122.1714103}, {"type": "node", "id": 4979851476, "lat": 47.679824, "lon": -122.171164}, {"type": "node", "id": 4979851480, "lat": 47.6798682, "lon": -122.1711206}, {"type": "node", "id": 4979851481, "lat": 47.679869, "lon": -122.1710427}, {"type": "node", "id": 5732604877, "lat": 47.6616951, "lon": -122.1580796}, {"type": "node", "id": 5732604878, "lat": 47.6618622, "lon": -122.158064}, {"type": "node", "id": 5732604879, "lat": 47.6618583, "lon": -122.1577437}, {"type": "node", "id": 5732604880, "lat": 47.6616941, "lon": -122.1577337}, {"type": "node", "id": 5740007221, "lat": 47.6669193, "lon": -122.1635848, "tags": {"addr:city": "Redmond", "addr:housenumber": "13200", "addr:postcode": "98052", "addr:state": "WA", "addr:street": "Old Redmond Road", "addr:unit": "Suite 150", "amenity": "cafe", "cuisine": "coffee", "name": "Down Pour Coffee Bar", "opening_hours": "Mo-Fr 06:00-17:00; Sa-Su 07:00-17:00", "opening_hours:covid19": "Mo-Su 08:00-14:00", "outdoor_seating": "yes", "website": "https://www.downpourcoffeebars.com/"}}, {"type": "node", "id": 5880376222, "lat": 47.6655354, "lon": -122.1659376, "tags": {"addr:city": "Kirkland", "addr:housenumber": "12030", "addr:postcode": "98033", "addr:street": "Northeast 85th Street", "addr:unit": "6623", "brand": "Dollar Tree", "brand:wikidata": "Q5289230", "check_date": "2024-07-11", "name": "Dollar Tree", "opening_hours": "Mo-Su 08:00-21:00", "shop": "variety_store", "website": "https://www.dollartree.com/locations/wa/kirkland/7396/", "wheelchair": "yes"}}, {"type": "node", "id": 6852791890, "lat": 47.6737923, "lon": -122.1700399, "tags": {"amenity": "bench"}}, {"type": "node", "id": 8214225453, "lat": 47.6639905, "lon": -122.1576751}, {"type": "node", "id": 8214225454, "lat": 47.6638241, "lon": -122.1576683}, {"type": "node", "id": 8214225457, "lat": 47.6638195, "lon": -122.1580433}, {"type": "node", "id": 8214225458, "lat": 47.6639856, "lon": -122.158048}, {"type": "node", "id": 8214225479, "lat": 47.6659419, "lon": -122.1581254}, {"type": "node", "id": 8214225480, "lat": 47.6659409, "lon": -122.1580408}, {"type": "node", "id": 8214225481, "lat": 47.6656723, "lon": -122.1580474}, {"type": "node", "id": 8214225482, "lat": 47.6656728, "lon": -122.1581287}, {"type": "node", "id": 8348472987, "lat": 47.6658429, "lon": -122.1648518}, {"type": "node", "id": 8348472988, "lat": 47.6658437, "lon": -122.1644715}, {"type": "node", "id": 8348472989, "lat": 47.66576, "lon": -122.1644711}, {"type": "node", "id": 8348472990, "lat": 47.66576, "lon": -122.1644898}, {"type": "node", "id": 8348472991, "lat": 47.6656949, "lon": -122.1644895}, {"type": "node", "id": 8348472992, "lat": 47.6656948, "lon": -122.1645046}, {"type": "node", "id": 8348472993, "lat": 47.6656594, "lon": -122.1645045}, {"type": "node", "id": 8348472994, "lat": 47.6656591, "lon": -122.1646251}, {"type": "node", "id": 8348472995, "lat": 47.6657005, "lon": -122.1646253}, {"type": "node", "id": 8348472996, "lat": 47.6657, "lon": -122.1648511}, {"type": "node", "id": 9112423513, "lat": 47.6772189, "lon": -122.1680871}, {"type": "node", "id": 9112423514, "lat": 47.6771376, "lon": -122.1680852}, {"type": "node", "id": 9377941184, "lat": 47.6668133, "lon": -122.1665542}, {"type": "node", "id": 9377941185, "lat": 47.6665275, "lon": -122.1665493}, {"type": "node", "id": 9377941186, "lat": 47.6661923, "lon": -122.1665571}, {"type": "node", "id": 9377941187, "lat": 47.6660661, "lon": -122.1663638}, {"type": "node", "id": 9377941188, "lat": 47.6660981, "lon": -122.1663231}, {"type": "node", "id": 9377941189, "lat": 47.6659855, "lon": -122.1650214}, {"type": "node", "id": 9377941190, "lat": 47.6670695, "lon": -122.1665767}, {"type": "node", "id": 9377941191, "lat": 47.6667749, "lon": -122.1661491}, {"type": "node", "id": 9377941192, "lat": 47.6670684, "lon": -122.1662289}, {"type": "node", "id": 9377941193, "lat": 47.6670047, "lon": -122.1660601}, {"type": "node", "id": 9377941194, "lat": 47.6669175, "lon": -122.166005}, {"type": "node", "id": 9377941195, "lat": 47.6671225, "lon": -122.1661209}, {"type": "node", "id": 9379735007, "lat": 47.6655855, "lon": -122.1643604}, {"type": "node", "id": 9379735008, "lat": 47.6657595, "lon": -122.1643517}, {"type": "node", "id": 9379735009, "lat": 47.6657652, "lon": -122.1644366}, {"type": "node", "id": 9379735010, "lat": 47.6658567, "lon": -122.1644413}, {"type": "node", "id": 9379735011, "lat": 47.6658583, "lon": -122.1648281}, {"type": "node", "id": 9379735012, "lat": 47.6658647, "lon": -122.1651396}, {"type": "node", "id": 9379735013, "lat": 47.6655078, "lon": -122.1651344}, {"type": "node", "id": 9379735014, "lat": 47.6659666, "lon": -122.1648258}, {"type": "node", "id": 9379735015, "lat": 47.6659669, "lon": -122.1651405}, {"type": "node", "id": 9379736163, "lat": 47.6661415, "lon": -122.1650196}, {"type": "node", "id": 9379736164, "lat": 47.6660571, "lon": -122.1657695}, {"type": "node", "id": 9379736165, "lat": 47.666133, "lon": -122.1656316}, {"type": "node", "id": 9379736166, "lat": 47.6661673, "lon": -122.1652907}, {"type": "node", "id": 9379736167, "lat": 47.6661435, "lon": -122.1652889}, {"type": "node", "id": 9379736168, "lat": 47.6661694, "lon": -122.1656295}, {"type": "node", "id": 9719881188, "lat": 47.6797047, "lon": -122.1725525}, {"type": "node", "id": 9720186091, "lat": 47.6799119, "lon": -122.1696007}, {"type": "node", "id": 9720186092, "lat": 47.6799088, "lon": -122.1701838}, {"type": "node", "id": 10789199156, "lat": 47.6798223, "lon": -122.1647027}, {"type": "node", "id": 11126131930, "lat": 47.6790929, "lon": -122.1716053, "tags": {"amenity": "car_wash", "name": "Rosehill Car Wash"}}, {"type": "node", "id": 11382127790, "lat": 47.6824994, "lon": -122.1653809}, {"type": "node", "id": 11382127791, "lat": 47.6823308, "lon": -122.1653842}, {"type": "node", "id": 11382127792, "lat": 47.6823295, "lon": -122.1652316}, {"type": "node", "id": 11382127793, "lat": 47.6824981, "lon": -122.1652283}, {"type": "node", "id": 11382127794, "lat": 47.6822908, "lon": -122.1645889}, {"type": "node", "id": 11382127795, "lat": 47.6820726, "lon": -122.1645946}, {"type": "node", "id": 11382127796, "lat": 47.6820674, "lon": -122.1645717}, {"type": "node", "id": 11382127797, "lat": 47.6818874, "lon": -122.1645778}, {"type": "node", "id": 11382127798, "lat": 47.6818862, "lon": -122.1644072}, {"type": "node", "id": 11382127799, "lat": 47.6819438, "lon": -122.1644053}, {"type": "node", "id": 11382127800, "lat": 47.6819477, "lon": -122.1644885}, {"type": "node", "id": 11382127801, "lat": 47.6820571, "lon": -122.1644818}, {"type": "node", "id": 11382127802, "lat": 47.6820829, "lon": -122.1643594}, {"type": "node", "id": 11382127803, "lat": 47.6822676, "lon": -122.1643565}, {"type": "node", "id": 11382127804, "lat": 47.6823178, "lon": -122.164367}, {"type": "node", "id": 11598763833, "lat": 47.6765273, "lon": -122.1649103}, {"type": "node", "id": 11598763834, "lat": 47.6764287, "lon": -122.1649056}, {"type": "node", "id": 11598763835, "lat": 47.6764326, "lon": -122.1647253}, {"type": "node", "id": 11598763836, "lat": 47.6765312, "lon": -122.1647301}, {"type": "node", "id": 11612496296, "lat": 47.6798951, "lon": -122.1649729}, {"type": "node", "id": 11612496297, "lat": 47.6798993, "lon": -122.1647054}, {"type": "node", "id": 11612496298, "lat": 47.6797469, "lon": -122.1647001}, {"type": "node", "id": 11612496299, "lat": 47.6797364, "lon": -122.165361}, {"type": "node", "id": 11612496300, "lat": 47.679784, "lon": -122.1653627}, {"type": "node", "id": 11612496301, "lat": 47.6797825, "lon": -122.1654585}, {"type": "node", "id": 11612496302, "lat": 47.6798488, "lon": -122.1654608}, {"type": "node", "id": 11612496303, "lat": 47.6798565, "lon": -122.1649716}, {"type": "node", "id": 12158693628, "lat": 47.6796412, "lon": -122.1647533, "tags": {"access": "yes", "amenity": "bicycle_parking", "bicycle_parking": "stands", "capacity": "10", "colour": "silver", "covered": "no", "fee": "no", "indoor": "no"}}, {"type": "node", "id": 12158693629, "lat": 47.6796582, "lon": -122.1645724, "tags": {"access": "yes", "amenity": "bicycle_parking", "bicycle_parking": "stands", "capacity": "8", "colour": "silver", "covered": "no", "fee": "no", "indoor": "no"}}, {"type": "node", "id": 12289806609, "lat": 47.6664227, "lon": -122.1628339}, {"type": "node", "id": 12289806610, "lat": 47.6661747, "lon": -122.1628936}, {"type": "node", "id": 12289806622, "lat": 47.6664169, "lon": -122.1628353, "tags": {"entrance": "yes"}}, {"type": "node", "id": 12289806623, "lat": 47.6664135, "lon": -122.1621986}, {"type": "node", "id": 12289806624, "lat": 47.6660457, "lon": -122.1622168}, {"type": "node", "id": 12289806625, "lat": 47.6660709, "lon": -122.1629168}, {"type": "node", "id": 12289806626, "lat": 47.6664191, "lon": -122.1625622}, {"type": "node", "id": 12324440449, "lat": 47.6659741, "lon": -122.1658476, "tags": {"amenity": "bicycle_parking", "bicycle_parking": "wave", "capacity": "5", "covered": "yes", "fee": "no"}}, {"type": "node", "id": 12324440450, "lat": 47.6647862, "lon": -122.1658373, "tags": {"amenity": "bicycle_parking", "bicycle_parking": "wave", "capacity": "5", "covered": "yes", "fee": "no"}}, {"type": "node", "id": 12324440451, "lat": 47.6656764, "lon": -122.1644046, "tags": {"amenity": "bicycle_parking", "bicycle_parking": "staple", "capacity": "2", "covered": "no", "fee": "no"}}, {"type": "node", "id": 12736500202, "lat": 47.6653602, "lon": -122.1657743, "tags": {"amenity": "post_box"}}, {"type": "node", "id": 12872079131, "lat": 47.6703739, "lon": -122.1661282, "tags": {"amenity": "public_bookcase", "brand": "Little Free Library", "brand:wikidata": "Q6650101"}}, {"type": "way", "id": 182648719, "nodes": [1930093021, 1930093023, 1930093022, 356544002, 9112423514, 9112423513, 1930093021], "tags": {"addr:city": "Kirkland", "addr:housenumber": "8110", "addr:postcode": "98033", "addr:street": "128th Avenue Northeast", "amenity": "school", "ele": "128", "gnis:feature_id": "1515636", "mascot": "Raccoons", "name": "Rose Hill Elementary School"}}, {"type": "way", "id": 240453279, "nodes": [3340946559, 3340946560, 3340946562, 3340946564, 3340946554, 2481906801, 2481906792, 3340946557, 3340946541, 2481906799, 3340946548, 3340946547, 2481906797, 3340946264, 3340946250, 3340946251, 3340946265, 3340946266, 3340946258, 2481906798, 3340946421, 3340946422, 2481906793, 2481906795, 2481906794, 3340946552, 3340946573, 3340946572, 3340946567, 3340946566, 3340946559], "tags": {"addr:city": "Kirkland", "addr:housenumber": "13033", "addr:postcode": "98033", "addr:street": "Northeast 70th Place", "building": "yes", "disused:leisure": "bowling_alley", "old_name": "Tech City Bowl"}}, {"type": "way", "id": 252388896, "nodes": [2584464391, 2584464390, 3340946198, 3340946192, 3340946193, 2089599016, 2584464389, 3340946232, 3340946234, 2584464396, 2584464395, 3340946275, 3340946295, 3340946293, 3340946274, 2584464392, 2584464393, 3340946263, 2584464391], "tags": {"addr:city": "Kirkland", "addr:housenumber": "6811", "addr:postcode": "98033", "addr:street": "132nd Avenue Northeast", "amenity": "bank", "atm": "yes", "brand": "Chase", "brand:wikidata": "Q524629", "building": "yes", "drive_through": "yes", "name": "Chase", "phone": "+1-425-376-2808"}}, {"type": "way", "id": 252389044, "nodes": [2584467429, 2584467426, 2584467425, 2584467436, 2584467435, 3340946702, 2584467429], "tags": {"addr:city": "Kirkland", "addr:housenumber": "13005", "addr:postcode": "98033", "addr:street": "Northeast 70th Place", "amenity": "restaurant", "brand": "Pagliacci Pizza", "brand:wikidata": "Q7124370", "building": "yes", "cuisine": "pizza", "name": "Pagliacci Pizza", "opening_hours": "Su-Th 11:00-23:00; Fr-Sa 11:00-00:00", "phone": "+1-206-726-1717", "website": "https://www.pagliacci.com/location/kirkland-bridle-trails"}}, {"type": "way", "id": 277707509, "nodes": [2821756496, 2821756493, 2821756492, 2821756491, 2821756490, 2821756489, 2821757904, 2821757903, 2821757902, 2821757901, 3340945856, 3340945860, 2821756500, 2821756499, 2821756498, 2821756497, 2821756496], "tags": {"addr:city": "Kirkland", "addr:housenumber": "6615", "addr:postcode": "98033", "addr:street": "132nd Avenue Northeast", "amenity": "bank", "brand": "Wells Fargo", "brand:wikidata": "Q744149", "building": "commercial", "name": "Wells Fargo", "phone": "+1-425-558-1100", "website": "https://www.wellsfargo.com/"}}, {"type": "way", "id": 277710038, "nodes": [2821789859, 1739814404, 2821789863, 2821789864, 2821789865, 2821789866, 2821789855, 2821789856, 2821789857, 2821789858, 2821789859], "tags": {"brand": "ampm", "brand:wikidata": "Q306960", "building": "retail", "name": "ampm", "shop": "convenience", "website": "https://www.ampm.com/"}}, {"type": "way", "id": 327181715, "nodes": [3339112563, 3339112564, 3339112385, 3339112376, 3339112545, 3339112547, 3339112734, 3339112737, 3339112906, 3339112911, 3339112563], "tags": {"addr:city": "Kirkland", "addr:housenumber": "13020", "addr:postcode": "98033", "addr:state": "WA", "addr:street": "Northeast 85th Street", "amenity": "veterinary", "building": "yes", "name": "Northwest Animal Eye Specialists", "opening_hours": "Mo-Th 08:30-17:30", "payment:cards": "yes", "payment:cash": "yes", "payment:contactless": "yes", "payment:credit_cards": "yes", "payment:debit_cards": "yes", "phone": "+1-425-827-3966", "website": "https://www.northwestanimaleye.com"}}, {"type": "way", "id": 327347926, "nodes": [9377941187, 9377941188, 3340946148, 9377941186, 9377941185, 9377941184, 9377941191, 9377941194, 9377941193, 9377941192, 9377941190, 3340946746, 3340946745, 9377941195, 3340946723, 3340946694, 3340946660, 3340946655, 3340946643, 3340946654, 4318537607, 4318537618, 4318534686, 3340946624, 4318534662, 4318537454, 4318534684, 3340946322, 4318537609, 4318537447, 3340946321, 3340946185, 3340946183, 3340945907, 9379735007, 9379735008, 9379735009, 9379735010, 9379735011, 9379735014, 9379735015, 9379735012, 9379735013, 3340945908, 3340945669, 3340945668, 2481906257, 2481906253, 2481906252, 2481906241, 9377941189, 9379736163, 9379736167, 9379736166, 9379736168, 9379736165, 9379736164, 9377941187]}, {"type": "way", "id": 327348187, "nodes": [3340946217, 3340942286, 3340946204, 3340946218, 3340946217], "tags": {"addr:city": "Kirkland", "addr:housenumber": "13039", "addr:postcode": "98033", "addr:street": "Northeast 70th Place", "amenity": "cafe", "building": "yes", "cuisine": "coffee_shop", "name": "The Green Beanery", "opening_hours": "Mo-Fr 06:00-17:00; Sa-Su 07:00-16:00", "phone": "+1-425-893-9760", "website": "http://the-green-beanery.com"}}, {"type": "way", "id": 327351396, "nodes": [1739814404, 2821789859, 2821789860, 2821789861, 1739814404], "tags": {"addr:city": "Kirkland", "addr:housenumber": "13055", "addr:postcode": "98033", "addr:street": "Northeast 70th Place", "amenity": "fuel", "brand": "Arco", "brand:wikidata": "Q304769", "building": "roof", "compressed_air": "yes", "layer": "1", "name": "Arco", "website": "https://www.arco.com/"}}, {"type": "way", "id": 327527968, "nodes": [3343189623, 3343188973, 3343188842, 3343188849, 3343188981, 3343189588, 3343189593, 3343189582, 3343189485, 3343189552, 3343189622, 3343189633, 3343189623], "tags": {"amenity": "parking"}}, {"type": "way", "id": 327527969, "nodes": [3343192287, 3343192291, 3343192043, 3343192044, 3343192287]}, {"type": "way", "id": 327527992, "nodes": [3343192410, 3343192285, 3343192282, 3343192334, 3343192333, 3343192364, 3343192365, 3343192404, 3343192410], "tags": {"addr:city": "Kirkland", "addr:housenumber": "12607", "addr:postcode": "98033", "addr:street": "Northeast 85th Street", "brand": "ExtraMile", "brand:wikidata": "Q64224605", "building": "retail", "name": "ExtraMile", "shop": "convenience"}}, {"type": "way", "id": 327528042, "nodes": [3343192468, 3343192454, 3343192455, 3343192336, 3343192335, 3343192321, 3343192317, 3343192332, 3343192331, 3343192466, 3343192468], "tags": {"addr:city": "Kirkland", "addr:housenumber": "12821", "addr:postcode": "98033", "addr:street": "Northeast 85th Street", "amenity": "restaurant", "building": "yes", "cuisine": "mexican", "name": "Tres Hermanos"}}, {"type": "way", "id": 327528069, "nodes": [3343192201, 3343192180, 3343192181, 3343192138, 3343192136, 3343192103, 3343192093, 3343192106, 3343192105, 3343192187, 3343192188, 3343192194, 3343192201], "tags": {"addr:city": "Kirkland", "addr:housenumber": "13000", "addr:postcode": "98033", "addr:state": "WA", "addr:street": "Northeast 84th Street", "amenity": "place_of_worship", "building": "yes", "name": "American Evergreen Buddhist Association Chi Yuan Temple", "religion": "buddhist"}}, {"type": "way", "id": 327528101, "nodes": [3343192470, 3343192471, 3343192436, 3343192437, 3343192412, 3343192416, 3343192433, 3343192434, 3343192546, 3343192544, 3343192470], "tags": {"addr:city": "Kirkland", "addr:housenumber": "13111", "addr:postcode": "98033", "addr:state": "WA", "addr:street": "Northeast 85th Street", "amenity": "childcare", "building": "yes", "check_date": "2023-07-20", "name": "The Discovery Center"}}, {"type": "way", "id": 327528228, "nodes": [3343192281, 3343192277, 3343199192, 3343244986, 3343192444, 3343192445, 3343244987, 3343199693, 3343192281], "tags": {"amenity": "fuel", "brand": "Chevron", "brand:wikidata": "Q319642", "building": "roof", "layer": "1", "name": "Chevron"}}, {"type": "way", "id": 327528261, "nodes": [3343192067, 3343192047, 3343192048, 3343192068, 3343192067], "tags": {"building": "yes"}}, {"type": "way", "id": 327531580, "nodes": [3343218976, 3343219252, 3343219250, 3343219132, 3343219089, 3343219051, 3343219052, 3343219053, 3343219009, 3343218974, 3343218976], "tags": {"access": "customers", "amenity": "parking"}}, {"type": "way", "id": 327531807, "nodes": [3343218989, 3343218963, 3343218962, 3343218979, 3343218977, 3343219005, 3343219004, 3343218864, 3343218865, 3343218845, 3343218846, 3343218766, 3343218765, 3343218633, 3343218634, 3343218617, 3343218618, 3343218730, 3343218728, 3343218844, 3343218843, 3343218869, 3343218870, 3343218848, 3343218849, 3343218874, 3343218875, 3343218966, 3343218965, 3343218987, 3343219007, 3343219006, 3343218989], "tags": {"addr:city": "Kirkland", "addr:housenumber": "7525", "addr:postcode": "98033", "addr:street": "132nd Avenue Northeast", "amenity": "place_of_worship", "building": "church", "denomination": "methodist", "name": "Lake Washington United Methodist Church", "religion": "christian"}}, {"type": "way", "id": 508735041, "nodes": [4979851421, 4979851442, 4979851441, 4979851456, 4979851454, 4979851425, 4979851424, 4979851423, 4979850101, 4979850103, 4979850112, 4979851421], "tags": {"access": "customers", "amenity": "parking"}}, {"type": "way", "id": 508735042, "nodes": [4979851452, 4979851481, 4979851480, 4979850111, 4979850113, 4979851434, 4979851436, 4979850114, 4979850115, 4979851437, 4979851438, 3339112383, 3339112365, 4979851452], "tags": {"access": "customers", "amenity": "parking"}}, {"type": "way", "id": 508735045, "nodes": [4979851464, 9719881188, 4979851463, 4979851433, 4979851435, 4979850120, 4979851422, 4979851448, 4979851450, 4979851451, 4979851476, 4979851475, 3339112571, 4979851468, 4979851467, 4979851459, 4979851457, 4979851466, 4979851465, 4979851464], "tags": {"access": "customers", "amenity": "parking"}}, {"type": "way", "id": 508735046, "nodes": [3339112770, 3339112782, 9720186091, 9720186092, 3339112770], "tags": {"access": "customers", "amenity": "parking"}}, {"type": "way", "id": 604049557, "nodes": [5732604877, 5732604878, 5732604879, 5732604880, 5732604877], "tags": {"access": "private", "amenity": "parking", "capacity": "18", "fee": "no", "park_ride": "no", "parking": "surface"}}, {"type": "way", "id": 883282163, "nodes": [8214225453, 8214225454, 8214225457, 8214225458, 8214225453], "tags": {"access": "private", "amenity": "parking", "capacity": "22", "parking": "surface"}}, {"type": "way", "id": 883282168, "nodes": [8214225479, 8214225480, 8214225481, 8214225482, 8214225479], "tags": {"amenity": "parking_space", "capacity": "10"}}, {"type": "way", "id": 898367069, "nodes": [8348472987, 8348472988, 8348472989, 8348472990, 8348472991, 8348472992, 8348472993, 8348472994, 8348472995, 8348472996, 8348472987], "tags": {"addr:city": "Kirkland", "addr:housenumber": "6735", "addr:postcode": "98033", "addr:state": "WA", "addr:street": "132nd Avenue Northeast", "addr:unit": "100", "amenity": "cafe", "branch": "Bridle Trails", "brand": "Starbucks", "brand:wikidata": "Q37158", "building": "yes", "cuisine": "coffee_shop", "name": "Starbucks", "official_name": "Starbucks Coffee", "phone": "+1-425-881-8265", "ref": "1028121", "takeaway": "yes", "website": "https://www.starbucks.com/store-locator/store/1028121/bridle-trails-6735-132nd-ave-ne-100-kirkland-wa-980334920-us"}}, {"type": "way", "id": 1227417029, "nodes": [11382127790, 11382127791, 11382127792, 11382127793, 11382127790], "tags": {"access": "private", "amenity": "parking", "parking": "surface"}}, {"type": "way", "id": 1227417030, "nodes": [11382127794, 11382127795, 11382127796, 11382127797, 11382127798, 11382127799, 11382127800, 11382127801, 11382127802, 11382127803, 11382127804, 11382127794], "tags": {"amenity": "parking", "parking": "surface"}}, {"type": "way", "id": 1247709204, "nodes": [11598763833, 11598763834, 11598763835, 11598763836, 11598763833], "tags": {"amenity": "parking", "parking": "surface"}}, {"type": "way", "id": 1249366447, "nodes": [11612496296, 11612496297, 10789199156, 11612496298, 11612496299, 11612496300, 11612496301, 11612496302, 11612496303, 11612496296], "tags": {"amenity": "parking"}}, {"type": "way", "id": 1328341156, "nodes": [12289806609, 12289806626, 12289806623, 12289806624, 12289806625, 12289806610, 12289806622, 12289806609], "tags": {"amenity": "parking", "parking": "surface", "surface": "compacted"}}, {"type": "relation", "id": 4575420, "members": [{"type": "way", "ref": 327348187, "role": "outer"}, {"type": "way", "ref": 327347926, "role": "outer"}, {"type": "way", "ref": 240453279, "role": "inner"}], "tags": {"amenity": "parking", "parking": "surface", "type": "multipolygon"}}, {"type": "relation", "id": 4578842, "members": [{"type": "way", "ref": 327528261, "role": "inner"}, {"type": "way", "ref": 327527969, "role": "outer"}, {"type": "way", "ref": 327528069, "role": "inner"}], "tags": {"amenity": "parking", "type": "multipolygon"}}]}