{"version": 0.6, "generator": "Overpass API 0.7.62.8 e802775f", "osm3s": {"timestamp_osm_base": "2025-12-06T04:25:34Z", "copyright": "The data included in this document is from www.openstreetmap.org. The data is made available under ODbL."}, "elements": [{"type": "node", "id": 1860838944, "lat": 45.8277181, "lon": -108.4872948, "tags": {"name": "ConoMart", "shop": "convenience"}}, {"type": "node", "id": 1860844736, "lat": 45.8294335, "lon": -108.470562, "tags": {"alt_name": "Sally Beauty Supply", "brand": "Sally Beauty", "brand:wikidata": "Q7405065", "name": "Sally Beauty", "old_name": "Payless", "shop": "hairdresser_supply"}}, {"type": "node", "id": 1860844739, "lat": 45.8290937, "lon": -108.4666399}, {"type": "node", "id": 1860844743, "lat": 45.8294384, "lon": -108.4703751, "tags": {"brand": "GameStop", "brand:wikidata": "Q202210", "name": "GameStop", "shop": "video_games"}}, {"type": "node", "id": 1868199607, "lat": 45.8296783, "lon": -108.4678604}, {"type": "node", "id": 1868199608, "lat": 45.8296831, "lon": -108.4663961}, {"type": "node", "id": 1868199609, "lat": 45.8295821, "lon": -108.4663954}, {"type": "node", "id": 1868199610, "lat": 45.8295813, "lon": -108.4666432}, {"type": "node", "id": 1868199611, "lat": 45.8283909, "lon": -108.4666352}, {"type": "node", "id": 1868199612, "lat": 45.8283899, "lon": -108.4669405}, {"type": "node", "id": 1868199613, "lat": 45.8283115, "lon": -108.46694}, {"type": "node", "id": 1868199614, "lat": 45.8283113, "lon": -108.4669897}, {"type": "node", "id": 1868199615, "lat": 45.8280705, "lon": -108.4669881}, {"type": "node", "id": 1868199616, "lat": 45.8280698, "lon": -108.4671976}, {"type": "node", "id": 1868199617, "lat": 45.8282998, "lon": -108.4671992}, {"type": "node", "id": 1868199618, "lat": 45.8282986, "lon": -108.4675272}, {"type": "node", "id": 1868199619, "lat": 45.8281042, "lon": -108.4675259}, {"type": "node", "id": 1868199620, "lat": 45.8281022, "lon": -108.468117}, {"type": "node", "id": 1868199621, "lat": 45.8283033, "lon": -108.4681184}, {"type": "node", "id": 1868199622, "lat": 45.8283041, "lon": -108.4678958}, {"type": "node", "id": 1868199623, "lat": 45.8286248, "lon": -108.467898}, {"type": "node", "id": 1868199624, "lat": 45.8286241, "lon": -108.4680983}, {"type": "node", "id": 1868199625, "lat": 45.8287557, "lon": -108.4680992, "tags": {"entrance": "yes"}}, {"type": "node", "id": 1868199626, "lat": 45.8288017, "lon": -108.4680998}, {"type": "node", "id": 1868199627, "lat": 45.8288021, "lon": -108.4680214}, {"type": "node", "id": 1868199628, "lat": 45.8293222, "lon": -108.4680275, "tags": {"entrance": "yes"}}, {"type": "node", "id": 1868199629, "lat": 45.8295413, "lon": -108.468029}, {"type": "node", "id": 1868199630, "lat": 45.8295418, "lon": -108.4678595}, {"type": "node", "id": 1868201735, "lat": 45.8271081, "lon": -108.4694785}, {"type": "node", "id": 1868201737, "lat": 45.8263747, "lon": -108.4694229}, {"type": "node", "id": 1868201743, "lat": 45.8256684, "lon": -108.4691109}, {"type": "node", "id": 1868201744, "lat": 45.8258005, "lon": -108.4691115}, {"type": "node", "id": 1868201745, "lat": 45.8258006, "lon": -108.469058}, {"type": "node", "id": 1868201746, "lat": 45.8257653, "lon": -108.4690578}, {"type": "node", "id": 1868201747, "lat": 45.8257656, "lon": -108.4689396}, {"type": "node", "id": 1868201749, "lat": 45.8259076, "lon": -108.4689403}, {"type": "node", "id": 1868201752, "lat": 45.8263806, "lon": -108.4687443}, {"type": "node", "id": 1868201754, "lat": 45.8268042, "lon": -108.4687697}, {"type": "node", "id": 2999141417, "lat": 45.824741, "lon": -108.4717396}, {"type": "node", "id": 2999141418, "lat": 45.8247416, "lon": -108.4719387}, {"type": "node", "id": 2999141544, "lat": 45.8250941, "lon": -108.4717375}, {"type": "node", "id": 4359438548, "lat": 45.8413543, "lon": -108.4665438, "tags": {"name": "Blue Basket", "shop": "convenience", "source": "Bing"}}, {"type": "node", "id": 4359438565, "lat": 45.8271081, "lon": -108.4701338, "tags": {"name": "Zip Trip", "shop": "convenience", "source": "Bing"}}, {"type": "node", "id": 4359438577, "lat": 45.8229776, "lon": -108.4714123, "tags": {"shop": "convenience", "source": "Bing"}}, {"type": "node", "id": 4359438581, "lat": 45.824886, "lon": -108.470253, "tags": {"name": "3-G's Convenience Center", "shop": "convenience", "source": "Bing"}}, {"type": "node", "id": 4359438990, "lat": 45.8404927, "lon": -108.4688293, "tags": {"shop": "convenience", "source": "Bing"}}, {"type": "node", "id": 4359438993, "lat": 45.8208598, "lon": -108.470355, "tags": {"brand": "Conoco", "brand:wikidata": "Q1126518", "name": "Conoco", "shop": "convenience", "source": "Bing"}}, {"type": "node", "id": 4359449389, "lat": 45.8280405, "lon": -108.4550675, "tags": {"name": "3-G's", "shop": "convenience", "source": "Bing"}}, {"type": "node", "id": 4359457321, "lat": 45.8281942, "lon": -108.4670912, "tags": {"name": "Walmart Auto Center", "shop": "car_repair", "source": "Bing"}}, {"type": "node", "id": 4359457323, "lat": 45.8283063, "lon": -108.4677189, "tags": {"brand": "Walmart", "brand:wikidata": "Q483551", "name": "Walmart Garden Center", "shop": "garden_centre", "source": "Bing"}}, {"type": "node", "id": 6434754789, "lat": 45.8263797, "lon": -108.4688461}, {"type": "node", "id": 6434754790, "lat": 45.8271082, "lon": -108.4688009}, {"type": "node", "id": 6434754806, "lat": 45.8259065, "lon": -108.4694305}, {"type": "node", "id": 6434754807, "lat": 45.8256677, "lon": -108.4694293}, {"type": "node", "id": 6550796311, "lat": 45.82691, "lon": -108.4688009}, {"type": "node", "id": 6550796312, "lat": 45.82691, "lon": -108.4688514}, {"type": "node", "id": 6550796313, "lat": 45.8268042, "lon": -108.4688514}, {"type": "node", "id": 6550796314, "lat": 45.826708, "lon": -108.4687696}, {"type": "node", "id": 6550796315, "lat": 45.8267079, "lon": -108.4688463}, {"type": "node", "id": 6550796316, "lat": 45.8263598, "lon": -108.4694814}, {"type": "node", "id": 6550796317, "lat": 45.8263603, "lon": -108.4694227}, {"type": "node", "id": 6550796318, "lat": 45.8259471, "lon": -108.4694741}, {"type": "node", "id": 6550796319, "lat": 45.8259475, "lon": -108.4694271}, {"type": "node", "id": 6550796320, "lat": 45.8259097, "lon": -108.4687359}, {"type": "node", "id": 6550796321, "lat": 45.8268345, "lon": -108.469475}, {"type": "node", "id": 6550796322, "lat": 45.8269231, "lon": -108.4694785}, {"type": "node", "id": 6550796323, "lat": 45.8269231, "lon": -108.4694174}, {"type": "node", "id": 6550796324, "lat": 45.8268345, "lon": -108.4694174}, {"type": "node", "id": 6550796325, "lat": 45.8265609, "lon": -108.469475}, {"type": "node", "id": 6550796326, "lat": 45.8265609, "lon": -108.469418}, {"type": "node", "id": 6550796327, "lat": 45.8264678, "lon": -108.4694179}, {"type": "node", "id": 6550796328, "lat": 45.8264678, "lon": -108.4694618}, {"type": "node", "id": 6550796329, "lat": 45.8264387, "lon": -108.4694618}, {"type": "node", "id": 6550796330, "lat": 45.8264387, "lon": -108.4694216}, {"type": "node", "id": 7943345068, "lat": 45.8296728, "lon": -108.4724022}, {"type": "node", "id": 7943345069, "lat": 45.8295056, "lon": -108.4724011}, {"type": "node", "id": 7943345070, "lat": 45.829506, "lon": -108.4722892}, {"type": "node", "id": 7943345071, "lat": 45.829269, "lon": -108.4722875}, {"type": "node", "id": 7943345072, "lat": 45.8292695, "lon": -108.4721478}, {"type": "node", "id": 7943345073, "lat": 45.8293406, "lon": -108.4721483}, {"type": "node", "id": 7943345074, "lat": 45.8293421, "lon": -108.4716726}, {"type": "node", "id": 7943345075, "lat": 45.8296752, "lon": -108.4716748}, {"type": "node", "id": 7943353061, "lat": 45.8332051, "lon": -108.4738162}, {"type": "node", "id": 7943353062, "lat": 45.8331, "lon": -108.4738149}, {"type": "node", "id": 7943353063, "lat": 45.8331004, "lon": -108.4737445}, {"type": "node", "id": 7943353064, "lat": 45.8324932, "lon": -108.4737372}, {"type": "node", "id": 7943353065, "lat": 45.8324968, "lon": -108.4731292}, {"type": "node", "id": 7943353066, "lat": 45.8325822, "lon": -108.4731302}, {"type": "node", "id": 7943353067, "lat": 45.8325828, "lon": -108.4730321}, {"type": "node", "id": 7943353068, "lat": 45.8328125, "lon": -108.4730349}, {"type": "node", "id": 7943353069, "lat": 45.8328128, "lon": -108.4729735}, {"type": "node", "id": 7943353070, "lat": 45.8329996, "lon": -108.4729758}, {"type": "node", "id": 7943353071, "lat": 45.8329993, "lon": -108.4730257}, {"type": "node", "id": 7943353072, "lat": 45.8331875, "lon": -108.4730281}, {"type": "node", "id": 7943353073, "lat": 45.8331868, "lon": -108.4731355}, {"type": "node", "id": 7943353074, "lat": 45.8333014, "lon": -108.4731369}, {"type": "node", "id": 7943353075, "lat": 45.8332978, "lon": -108.4737363}, {"type": "node", "id": 7943353076, "lat": 45.8332056, "lon": -108.4737352}, {"type": "node", "id": 8431052856, "lat": 45.8198952, "lon": -108.4701674, "tags": {"brand": "U-Haul", "brand:wikidata": "Q7862902", "name": "U-Haul", "shop": "rental"}}, {"type": "node", "id": 8431052866, "lat": 45.8203221, "lon": -108.4703511, "tags": {"brand": "Carquest", "brand:wikidata": "Q5045948", "name": "Carquest", "official_name": "Carquest Auto Parts", "shop": "car_parts"}}, {"type": "node", "id": 8431052867, "lat": 45.8206288, "lon": -108.4700985, "tags": {"brand": "Franz", "brand:wikidata": "Q7889571", "name": "Franz Bakery Outlet", "shop": "bakery"}}, {"type": "node", "id": 8431052868, "lat": 45.8206182, "lon": -108.4703894, "tags": {"name": "Sweetheart Bread", "shop": "bakery"}}, {"type": "node", "id": 8431052869, "lat": 45.8207062, "lon": -108.4713616, "tags": {"amenity": "bar", "name": "Diamond Jubilee Bar"}}, {"type": "node", "id": 8431052875, "lat": 45.8213303, "lon": -108.4713699, "tags": {"amenity": "cafe", "name": "City Brew Coffee"}}, {"type": "node", "id": 8431052876, "lat": 45.8221632, "lon": -108.4690892, "tags": {"name": "Forgotten Realm Bookstore", "shop": "books"}}, {"type": "node", "id": 8431052877, "lat": 45.8224755, "lon": -108.4697764, "tags": {"brand": "Dollar Tree", "brand:wikidata": "Q5289230", "check_date": "2024-07-11", "check_date:opening_hours": "2024-07-11", "name": "Dollar Tree", "opening_hours": "Mo-Sa 08:00-22:00; Su 09:00-20:00", "shop": "variety_store", "website": "https://www.dollartree.com/locations/mt/billings/2828/"}}, {"type": "node", "id": 8431052878, "lat": 45.8221562, "lon": -108.4719376, "tags": {"amenity": "restaurant", "name": "Fork & Fuel"}}, {"type": "node", "id": 8431052879, "lat": 45.8230863, "lon": -108.4704636, "tags": {"name": "MasterLube", "shop": "car_repair"}}, {"type": "node", "id": 8431052880, "lat": 45.8233743, "lon": -108.4714695, "tags": {"brand": "Carstar", "brand:wikidata": "Q64187891", "name": "Carstar", "service:vehicle:body_repair": "yes", "shop": "car_repair"}}, {"type": "node", "id": 8431052903, "lat": 45.8238871, "lon": -108.4702546, "tags": {"amenity": "restaurant", "cuisine": "mexican", "name": "Guadalajara Mexican Restaurant"}}, {"type": "node", "id": 8431087069, "lat": 45.8244717, "lon": -108.4716023, "tags": {"name": "National Pawn", "shop": "pawnbroker"}}, {"type": "node", "id": 8431087092, "lat": 45.8250947, "lon": -108.471936}, {"type": "node", "id": 8431087094, "lat": 45.8264522, "lon": -108.4718319, "tags": {"name": "Magic Diamond Liquor Store", "shop": "alcohol"}}, {"type": "node", "id": 8431087101, "lat": 45.8277679, "lon": -108.4694044, "tags": {"name": "First National Pawn", "shop": "pawnbroker"}}, {"type": "node", "id": 8431087103, "lat": 45.8303782, "lon": -108.4725094, "tags": {"amenity": "restaurant", "name": "F.O.E. of Billings"}}, {"type": "node", "id": 8431087104, "lat": 45.8309214, "lon": -108.4704189, "tags": {"name": "G & J Diesel", "shop": "car_repair"}}, {"type": "node", "id": 8431094625, "lat": 45.8345368, "lon": -108.4702682, "tags": {"name": "Aaliby Auto Repair and Towing", "shop": "car_repair"}}, {"type": "node", "id": 8431094700, "lat": 45.8428215, "lon": -108.4681267, "tags": {"addr:city": "Billings", "addr:housenumber": "2376", "addr:postcode": "59105", "addr:state": "MT", "addr:street": "Main Street", "addr:unit": "818", "amenity": "restaurant", "cuisine": "mexican", "name": "Santiago's Mexican Restaurant", "opening_hours": "Mo-Su 08:00-22:00", "website": "https://santiagosmexicanrestaurantmt.com/"}}, {"type": "node", "id": 9025142385, "lat": 45.8221979, "lon": -108.4694772, "tags": {"air_conditioning": "yes", "name": "Dancing Oven Bakery", "phone": "+1 406-591-2751", "shop": "bakery"}}, {"type": "node", "id": 10093552320, "lat": 45.8277507, "lon": -108.488088, "tags": {"name": "Laundry Time", "shop": "laundry"}}, {"type": "node", "id": 10093552326, "lat": 45.8280726, "lon": -108.4885305, "tags": {"name": "Homestead Self Storage\\", "shop": "storage_rental"}}, {"type": "node", "id": 10093608761, "lat": 45.8219142, "lon": -108.4686916, "tags": {"name": "Shamrock Foodservice Warehouse", "shop": "wholesale"}}, {"type": "node", "id": 10093608764, "lat": 45.8226641, "lon": -108.4697891, "tags": {"amenity": "restaurant", "brand": "Pizza Ranch", "brand:wikidata": "Q7199978", "cuisine": "pizza", "name": "Pizza Ranch"}}, {"type": "node", "id": 10093608766, "lat": 45.8236285, "lon": -108.4682527, "tags": {"name": "Chassis Works, Inc.", "shop": "car_repair"}}, {"type": "node", "id": 10093608767, "lat": 45.823898, "lon": -108.4693812, "tags": {"name": "Law Dog Hat Company", "shop": "fashion_accessories"}}, {"type": "node", "id": 10093608768, "lat": 45.8242694, "lon": -108.4703733, "tags": {"addr:city": "Billings", "addr:housenumber": "1419", "addr:postcode": "59105", "addr:state": "MT", "addr:street": "Main Street", "amenity": "restaurant", "brand": "Pizza Hut", "brand:wikidata": "Q191615", "cuisine": "pizza", "name": "Pizza Hut", "phone": "+1 406-259-8424", "source": "microsoft/BuildingFootprints", "website": "https://locations.pizzahut.com/mt/billings/1419-main-st"}}, {"type": "way", "id": 176273513, "nodes": [1868199607, 1868199608, 1868199609, 1868199610, 1860844739, 1868199611, 1868199612, 1868199613, 1868199614, 1868199615, 1868199616, 1868199617, 1868199618, 1868199619, 1868199620, 1868199621, 1868199622, 1868199623, 1868199624, 1868199625, 1868199626, 1868199627, 1868199628, 1868199629, 1868199630, 1868199607], "tags": {"addr:city": "Billings", "addr:country": "US", "addr:housenumber": "1649", "addr:postcode": "59105", "addr:state": "MT", "addr:street": "Main Street", "brand": "Walmart", "brand:wikidata": "Q483551", "building": "retail", "building:levels": "1", "diet:halal": "no", "diet:kosher": "yes", "name": "Walmart Supercenter", "opening_hours": "24/7", "operator": "Walmart", "operator:wikidata": "Q483551", "payment:app:walmart": "yes", "payment:apple_pay": "no", "payment:google_pay": "no", "payment:samsung_pay": "no", "phone": "+1 406-254-2842", "ref": "2923", "ref:walmart": "2923", "roof:levels": "0", "roof:shape": "flat", "sensory_friendly:accommodation": "dimmed_light;static_screens;no_pa", "sensory_friendly:conditional": "yes @ 08:00-10:00", "shop": "supermarket", "source": "Bing", "website": "https://www.walmart.com/store/2923-billings-mt", "wheelchair": "yes"}}, {"type": "way", "id": 296128437, "nodes": [8431087092, 2999141544, 2999141417, 2999141418, 8431087092], "tags": {"amenity": "restaurant", "building": "yes", "name": "Play Inn"}}, {"type": "way", "id": 686510534, "nodes": [1868201737, 6434754789, 6550796315, 6550796314, 1868201754, 6550796313, 6550796312, 6550796311, 6434754790, 1868201735, 6550796322, 6550796323, 6550796324, 6550796321, 6550796325, 6550796326, 6550796327, 6550796328, 6550796329, 6550796330, 1868201737], "tags": {"addr:city": "Billings", "addr:housenumber": "1547", "addr:postcode": "59105", "addr:state": "MT", "addr:street": "Main Street", "brand": "Ace Hardware", "brand:wikidata": "Q4672981", "building": "yes", "name": "Ace Hardware", "opening_hours": "Mo-Fr 08:00-20:00; Sa 08:00-19:00; Su 09:00-18:00", "phone": "+1 406-245-0756", "ref": "08747", "shop": "doityourself"}}, {"type": "way", "id": 686510535, "nodes": [6550796317, 6550796316, 6550796318, 6550796319, 6434754806, 1868201749, 6550796320, 1868201752, 6434754789, 1868201737, 6550796317], "tags": {"addr:city": "Billings", "addr:housenumber": "1537", "addr:postcode": "59105", "addr:state": "MT", "addr:street": "Main Street", "brand": "PetSmart", "brand:wikidata": "Q3307147", "building": "yes", "name": "PetSmart", "opening_hours": "Mo-Sa 09:00-21:00; Su 10:00-18:00", "phone": "+1 406-371-4890", "ref": "3027", "shop": "pet", "website": "https://www.petsmart.com/stores/us/mt/billings-store3027.html"}}, {"type": "way", "id": 686510537, "nodes": [6434754806, 6434754807, 1868201743, 1868201744, 1868201745, 1868201746, 1868201747, 1868201749, 6434754806], "tags": {"addr:city": "Billings", "addr:housenumber": "1515", "addr:postcode": "59105", "addr:state": "MT", "addr:street": "Main Street", "brand": "Big Lots", "brand:wikidata": "Q4905973", "building": "yes", "name": "Big Lots", "opening_hours": "09:00-21:00", "phone": "+1 406-896-9680", "shop": "department_store", "website": "https://local.biglots.com/mt/billings/1515-main-st"}}, {"type": "way", "id": 851663125, "nodes": [7943353061, 7943353062, 7943353063, 7943353064, 7943353065, 7943353066, 7943353067, 7943353068, 7943353069, 7943353070, 7943353071, 7943353072, 7943353073, 7943353074, 7943353075, 7943353076, 7943353061], "tags": {"building": "yes", "name": "Shipton's Big R Heights", "shop": "agrarian"}}, {"type": "way", "id": 851664648, "nodes": [7943345068, 7943345069, 7943345070, 7943345071, 7943345072, 7943345073, 7943345074, 7943345075, 7943345068], "tags": {"brand": "Goodwill", "brand:wikidata": "Q5583655", "building": "yes", "name": "Goodwill", "shop": "charity"}}]}