{"version": 0.6, "generator": "Overpass API 0.7.62.8 e802775f", "osm3s": {"timestamp_osm_base": "2025-12-06T05:14:51Z", "copyright": "The data included in this document is from www.openstreetmap.org. The data is made available under ODbL."}, "elements": [{"type": "node", "id": 2923585670, "lat": 43.650192, "lon": -116.280102}, {"type": "node", "id": 2923585673, "lat": 43.6517819, "lon": -116.2810104, "tags": {"addr:city": "Garden City", "addr:housenumber": "5157", "addr:postcode": "83714", "addr:state": "ID", "addr:street": "North Glenwood Street", "name": "Talon Tattoo Company", "shop": "tattoo"}}, {"type": "node", "id": 2923585675, "lat": 43.6517944, "lon": -116.2803864, "tags": {"addr:city": "Garden City", "addr:housenumber": "5173", "addr:postcode": "83714", "addr:state": "ID", "addr:street": "North Glenwood Street", "name": "Coin Laundry", "shop": "laundry"}}, {"type": "node", "id": 4931466206, "lat": 43.6546399, "lon": -116.2955985, "tags": {"addr:city": "Garden City", "addr:housenumber": "9115", "addr:postcode": "83714", "addr:state": "ID", "addr:street": "West Chinden Boulevard", "addr:unit": "105", "name": "Home Brew Stuff", "shop": "brewing_supplies"}}, {"type": "node", "id": 5116400621, "lat": 43.656704, "lon": -116.302274}, {"type": "node", "id": 5472037666, "lat": 43.6665736, "lon": -116.2799754}, {"type": "node", "id": 5472037667, "lat": 43.6662001, "lon": -116.2799096}, {"type": "node", "id": 5472037668, "lat": 43.6662004, "lon": -116.2803438}, {"type": "node", "id": 6247480155, "lat": 43.6646471, "lon": -116.2776511}, {"type": "node", "id": 6247480156, "lat": 43.6646461, "lon": -116.2779384}, {"type": "node", "id": 6247480166, "lat": 43.6646194, "lon": -116.2779208}, {"type": "node", "id": 6247480167, "lat": 43.6645083, "lon": -116.2779201}, {"type": "node", "id": 6247480168, "lat": 43.6645081, "lon": -116.2779628}, {"type": "node", "id": 6247480169, "lat": 43.6642633, "lon": -116.2779612}, {"type": "node", "id": 6247480170, "lat": 43.6642634, "lon": -116.2779181}, {"type": "node", "id": 6247480171, "lat": 43.6640958, "lon": -116.2779172}, {"type": "node", "id": 6247480172, "lat": 43.6640958, "lon": -116.2779319}, {"type": "node", "id": 6247480173, "lat": 43.6640673, "lon": -116.2779318}, {"type": "node", "id": 6247480174, "lat": 43.6640673, "lon": -116.2778603}, {"type": "node", "id": 6247480175, "lat": 43.6640838, "lon": -116.2778603}, {"type": "node", "id": 6247480176, "lat": 43.6640838, "lon": -116.2775709}, {"type": "node", "id": 6247480177, "lat": 43.6640275, "lon": -116.277571}, {"type": "node", "id": 6247480178, "lat": 43.6640274, "lon": -116.2772446}, {"type": "node", "id": 6247480179, "lat": 43.664647, "lon": -116.2772443}, {"type": "node", "id": 6296545132, "lat": 43.6665559, "lon": -116.2799831}, {"type": "node", "id": 6296545133, "lat": 43.6665734, "lon": -116.2799495}, {"type": "node", "id": 6296545134, "lat": 43.6665285, "lon": -116.2798885}, {"type": "node", "id": 6296545135, "lat": 43.6663088, "lon": -116.2799095}, {"type": "node", "id": 6296545136, "lat": 43.6663088, "lon": -116.2798888}, {"type": "node", "id": 6296545137, "lat": 43.6662225, "lon": -116.2803438}, {"type": "node", "id": 6296545138, "lat": 43.6662984, "lon": -116.2803402}, {"type": "node", "id": 6296545139, "lat": 43.6662984, "lon": -116.2804034}, {"type": "node", "id": 6296545140, "lat": 43.6662225, "lon": -116.2804034}, {"type": "node", "id": 6296545207, "lat": 43.6682194, "lon": -116.2797791}, {"type": "node", "id": 6296545208, "lat": 43.668287, "lon": -116.2798911}, {"type": "node", "id": 6296545209, "lat": 43.668278, "lon": -116.2799014}, {"type": "node", "id": 6296545210, "lat": 43.6683119, "lon": -116.2799575}, {"type": "node", "id": 6296545211, "lat": 43.6683273, "lon": -116.2799398}, {"type": "node", "id": 6296545212, "lat": 43.6683816, "lon": -116.2800298}, {"type": "node", "id": 6296545213, "lat": 43.6684117, "lon": -116.2799951}, {"type": "node", "id": 6296545214, "lat": 43.668438, "lon": -116.2800386}, {"type": "node", "id": 6296545215, "lat": 43.6685152, "lon": -116.2799494}, {"type": "node", "id": 6296545216, "lat": 43.6684877, "lon": -116.2799038}, {"type": "node", "id": 6296545217, "lat": 43.6685053, "lon": -116.2798835}, {"type": "node", "id": 6296545299, "lat": 43.6652364, "lon": -116.2802956}, {"type": "node", "id": 6296545300, "lat": 43.6650294, "lon": -116.280294}, {"type": "node", "id": 6296545301, "lat": 43.6650309, "lon": -116.2799469}, {"type": "node", "id": 6296545302, "lat": 43.6652377, "lon": -116.2799485}, {"type": "node", "id": 6296545305, "lat": 43.6649656, "lon": -116.2800031}, {"type": "node", "id": 6296545307, "lat": 43.6650307, "lon": -116.2799819}, {"type": "node", "id": 6321306114, "lat": 43.6708695, "lon": -116.2837531}, {"type": "node", "id": 6321306115, "lat": 43.6707463, "lon": -116.2835627}, {"type": "node", "id": 6321306116, "lat": 43.6698655, "lon": -116.2846329}, {"type": "node", "id": 6321306117, "lat": 43.669978, "lon": -116.2848046}, {"type": "node", "id": 6321306118, "lat": 43.6698999, "lon": -116.2848998}, {"type": "node", "id": 6321306119, "lat": 43.6695177, "lon": -116.284299}, {"type": "node", "id": 6321306120, "lat": 43.6694411, "lon": -116.2843861}, {"type": "node", "id": 6321306121, "lat": 43.6692713, "lon": -116.2841193}, {"type": "node", "id": 6321306122, "lat": 43.6691155, "lon": -116.2843084}, {"type": "node", "id": 6321306123, "lat": 43.6688428, "lon": -116.2838926}, {"type": "node", "id": 6321306124, "lat": 43.6691396, "lon": -116.2835305}, {"type": "node", "id": 6321306125, "lat": 43.6692473, "lon": -116.2836914}, {"type": "node", "id": 6321306126, "lat": 43.6693453, "lon": -116.2835734}, {"type": "node", "id": 6321306127, "lat": 43.6692337, "lon": -116.2834031}, {"type": "node", "id": 6321306128, "lat": 43.6694685, "lon": -116.2831121}, {"type": "node", "id": 6321306129, "lat": 43.6694889, "lon": -116.283151}, {"type": "node", "id": 6321306130, "lat": 43.6696897, "lon": -116.2829056}, {"type": "node", "id": 6321306131, "lat": 43.6696703, "lon": -116.2828693}, {"type": "node", "id": 6321306132, "lat": 43.6699438, "lon": -116.28253}, {"type": "node", "id": 6321306133, "lat": 43.6699642, "lon": -116.2825676}, {"type": "node", "id": 6321306134, "lat": 43.6699807, "lon": -116.2825528}, {"type": "node", "id": 6321306135, "lat": 43.6700738, "lon": -116.282699}, {"type": "node", "id": 6321306136, "lat": 43.6702145, "lon": -116.2825153}, {"type": "node", "id": 6400938503, "lat": 43.6697995, "lon": -116.282709, "tags": {"entrance": "main"}}, {"type": "node", "id": 6400938504, "lat": 43.6693174, "lon": -116.283299, "tags": {"entrance": "main"}}, {"type": "node", "id": 6400938505, "lat": 43.6708154, "lon": -116.283669, "tags": {"access": "private", "amenity": "loading_dock", "entrance": "service"}}, {"type": "node", "id": 6400938506, "lat": 43.6699196, "lon": -116.284715, "tags": {"access": "private", "amenity": "loading_dock", "entrance": "service"}}, {"type": "node", "id": 6559431726, "lat": 43.6588365, "lon": -116.2809059}, {"type": "node", "id": 6559431727, "lat": 43.6588336, "lon": -116.2807396}, {"type": "node", "id": 6559431728, "lat": 43.6590654, "lon": -116.2807319}, {"type": "node", "id": 6901411805, "lat": 43.6528515, "lon": -116.2802829}, {"type": "node", "id": 6901411806, "lat": 43.6528515, "lon": -116.2801887}, {"type": "node", "id": 6901411807, "lat": 43.6528266, "lon": -116.2801887}, {"type": "node", "id": 6901411808, "lat": 43.6528266, "lon": -116.2801152}, {"type": "node", "id": 6901411809, "lat": 43.6528483, "lon": -116.2801152}, {"type": "node", "id": 6901411810, "lat": 43.6528483, "lon": -116.2799861}, {"type": "node", "id": 6901411811, "lat": 43.6529547, "lon": -116.2799861}, {"type": "node", "id": 6960875268, "lat": 43.6737892, "lon": -116.284146}, {"type": "node", "id": 6961233652, "lat": 43.6718861, "lon": -116.2841083}, {"type": "node", "id": 6961233654, "lat": 43.6733257, "lon": -116.2881838}, {"type": "node", "id": 6961233655, "lat": 43.6737309, "lon": -116.2881601}, {"type": "node", "id": 7036484379, "lat": 43.656786, "lon": -116.3013056}, {"type": "node", "id": 7036484380, "lat": 43.6585235, "lon": -116.3004772}, {"type": "node", "id": 7036513785, "lat": 43.6591018, "lon": -116.3027481}, {"type": "node", "id": 7076298861, "lat": 43.6677915, "lon": -116.2786384}, {"type": "node", "id": 7076298862, "lat": 43.6676961, "lon": -116.278488}, {"type": "node", "id": 7076298863, "lat": 43.6674751, "lon": -116.278756}, {"type": "node", "id": 7076298865, "lat": 43.6675898, "lon": -116.278444}, {"type": "node", "id": 7076298866, "lat": 43.6675189, "lon": -116.2783347}, {"type": "node", "id": 7076298867, "lat": 43.6675473, "lon": -116.2782983}, {"type": "node", "id": 7076298868, "lat": 43.6674966, "lon": -116.278217}, {"type": "node", "id": 7076298869, "lat": 43.6674682, "lon": -116.2782507}, {"type": "node", "id": 7076298870, "lat": 43.6674115, "lon": -116.278161}, {"type": "node", "id": 7076298871, "lat": 43.6673101, "lon": -116.2782815}, {"type": "node", "id": 7215553298, "lat": 43.655408, "lon": -116.298515}, {"type": "node", "id": 7215553759, "lat": 43.655367, "lon": -116.298309}, {"type": "node", "id": 7215553871, "lat": 43.655326, "lon": -116.298547}, {"type": "node", "id": 7215569422, "lat": 43.666941, "lon": -116.277879}, {"type": "node", "id": 7215570540, "lat": 43.66709, "lon": -116.277927}, {"type": "node", "id": 7215571569, "lat": 43.667181, "lon": -116.278039}, {"type": "node", "id": 7215572003, "lat": 43.667026, "lon": -116.277788}, {"type": "node", "id": 7215573098, "lat": 43.667121, "lon": -116.27798}, {"type": "node", "id": 7215573481, "lat": 43.666975, "lon": -116.27794}, {"type": "node", "id": 7215574212, "lat": 43.667064, "lon": -116.278164}, {"type": "node", "id": 7215574654, "lat": 43.667099, "lon": -116.277918}, {"type": "node", "id": 7215575738, "lat": 43.667137, "lon": -116.277962}, {"type": "node", "id": 7304336622, "lat": 43.650076, "lon": -116.280102}, {"type": "node", "id": 7304340159, "lat": 43.650076, "lon": -116.280271}, {"type": "node", "id": 8245782488, "lat": 43.6574005, "lon": -116.3036136}, {"type": "node", "id": 8304227182, "lat": 43.656151, "lon": -116.300579}, {"type": "node", "id": 8304228098, "lat": 43.656123, "lon": -116.300394}, {"type": "node", "id": 8304230467, "lat": 43.655516, "lon": -116.299666}, {"type": "node", "id": 8304230685, "lat": 43.655641, "lon": -116.299663}, {"type": "node", "id": 8304230851, "lat": 43.655645, "lon": -116.299949}, {"type": "node", "id": 8304231665, "lat": 43.655923, "lon": -116.300451}, {"type": "node", "id": 8343039101, "lat": 43.6549681, "lon": -116.2977412, "tags": {"addr:city": "Garden City", "addr:housenumber": "9225", "addr:postcode": "83714", "addr:state": "ID", "addr:street": "West Chinden Boulevard", "addr:unit": "E", "name": "Instrument Technologies", "office": "it", "website": "https://www.instrumentti.com/"}}, {"type": "node", "id": 8343039104, "lat": 43.6551401, "lon": -116.297529, "tags": {"addr:city": "Garden City", "addr:housenumber": "9225", "addr:postcode": "83714", "addr:state": "ID", "addr:street": "West Chinden Boulevard", "addr:unit": "A", "name": "Big Smoke", "ref": "104", "shop": "tobacco"}}, {"type": "node", "id": 8343073122, "lat": 43.6649385, "lon": -116.2779031, "tags": {"addr:city": "Garden City", "addr:housenumber": "6728", "addr:postcode": "83714", "addr:state": "ID", "addr:street": "North Glenwood Street", "beauty": "nails", "shop": "beauty"}}, {"type": "node", "id": 8343073123, "lat": 43.6658897, "lon": -116.277726, "tags": {"addr:city": "Garden City", "addr:housenumber": "6762", "addr:postcode": "83714", "addr:state": "ID", "addr:street": "North Glenwood Street", "brand": "Big 5 Sporting Goods", "brand:wikidata": "Q4904902", "name": "Big 5 Sporting Goods", "shop": "sports"}}, {"type": "node", "id": 8343073129, "lat": 43.6649894, "lon": -116.2779036, "tags": {"addr:city": "Garden City", "addr:housenumber": "6732", "addr:postcode": "83714", "addr:state": "ID", "addr:street": "North Glenwood Street", "shop": "pet_grooming"}}, {"type": "node", "id": 8343073141, "lat": 43.6683506, "lon": -116.279627}, {"type": "node", "id": 8343073142, "lat": 43.6665561, "lon": -116.28034}, {"type": "node", "id": 8343073192, "lat": 43.6646193, "lon": -116.277938}, {"type": "node", "id": 8343073222, "lat": 43.666952, "lon": -116.277965}, {"type": "node", "id": 8343073223, "lat": 43.6671434, "lon": -116.2790012, "tags": {"addr:city": "Garden City", "addr:housenumber": "6826", "addr:postcode": "83714", "addr:state": "ID", "addr:street": "North Glenwood Street", "amenity": "restaurant", "cuisine": "italian", "name": "Uncle Giuseppe's", "website": "https://unclegiuseppesidaho.be3.dev/"}}, {"type": "node", "id": 8343073224, "lat": 43.6675706, "lon": -116.2789063}, {"type": "node", "id": 8343073226, "lat": 43.6638955, "lon": -116.2798802}, {"type": "node", "id": 8343073791, "lat": 43.650192, "lon": -116.280271}, {"type": "node", "id": 8343073833, "lat": 43.6529547, "lon": -116.280282}, {"type": "node", "id": 8343074983, "lat": 43.6801429, "lon": -116.307956, "tags": {"addr:city": "Garden City", "addr:housenumber": "10015", "addr:postcode": "83714", "addr:state": "ID", "addr:street": "West State Street", "amenity": "cafe", "brand": "The Human Bean", "brand:wikidata": "Q7740821", "cuisine": "coffee_shop", "name": "The Human Bean", "takeaway": "yes"}}, {"type": "node", "id": 8343075239, "lat": 43.6769952, "lon": -116.2990727, "tags": {"addr:city": "Garden City", "addr:housenumber": "9165", "addr:postcode": "83714", "addr:state": "ID", "addr:street": "West State Street", "name": "Tradewinds General Contracting", "office": "company"}}, {"type": "node", "id": 8343075430, "lat": 43.6770508, "lon": -116.299397, "tags": {"addr:city": "Garden City", "addr:housenumber": "9171", "addr:postcode": "83714", "addr:state": "ID", "addr:street": "West State Street", "brand": "Century 21", "brand:wikidata": "Q1054480", "name": "Century 21", "office": "estate_agent"}}, {"type": "node", "id": 8343075563, "lat": 43.680138, "lon": -116.309295}, {"type": "node", "id": 8343075842, "lat": 43.6590683, "lon": -116.280898}, {"type": "node", "id": 8343076450, "lat": 43.6545748, "lon": -116.295353, "tags": {"addr:city": "Garden City", "addr:housenumber": "9115", "addr:postcode": "83714", "addr:state": "ID", "addr:street": "West Chinden Boulevard", "addr:unit": "103", "government": "yes", "name": "Ada County DMV", "office": "government"}}, {"type": "node", "id": 8343076451, "lat": 43.6545374, "lon": -116.295209, "tags": {"addr:city": "Garden City", "addr:housenumber": "9115", "addr:postcode": "83714", "addr:state": "ID", "addr:street": "West Chinden Boulevard", "addr:unit": "102", "name": "Boise Furniture", "shop": "furniture", "website": "https://boisefurniturestore.com/"}}, {"type": "node", "id": 8343076453, "lat": 43.6550134, "lon": -116.2970796, "tags": {"addr:city": "Garden City", "addr:housenumber": "9165", "addr:postcode": "83714", "addr:state": "ID", "addr:street": "West Chinden Boulevard", "addr:unit": "106", "name": "Pop's Popcorn", "shop": "popcorn", "website": "https://popspopcornfactory.com/"}}, {"type": "node", "id": 8343076454, "lat": 43.6549876, "lon": -116.2969798, "tags": {"addr:city": "Garden City", "addr:housenumber": "9165", "addr:postcode": "83714", "addr:state": "ID", "addr:street": "West Chinden Boulevard", "addr:unit": "105", "name": "Apollo Screen and Shade", "shop": "screens", "website": "https://www.apolloscreen.com/boise"}}, {"type": "node", "id": 8343076455, "lat": 43.6549583, "lon": -116.2968665, "tags": {"addr:city": "Garden City", "addr:housenumber": "9165", "addr:postcode": "83714", "addr:state": "ID", "addr:street": "West Chinden Boulevard", "addr:unit": "104", "name": "The Paint Store", "shop": "paint", "website": "https://www.thepaintstoreboise.com/"}}, {"type": "node", "id": 8343076928, "lat": 43.6498976, "lon": -116.282407}, {"type": "node", "id": 8343076938, "lat": 43.6550106, "lon": -116.2978817, "tags": {"addr:city": "Garden City", "addr:housenumber": "9225", "addr:postcode": "83714", "addr:state": "ID", "addr:street": "West Chinden Boulevard", "addr:unit": "F", "name": "Intermountain 3D", "office": "design", "website": "https://www.intermountain3d.com/"}}, {"type": "node", "id": 8343076939, "lat": 43.6565042, "lon": -116.303027, "tags": {"addr:city": "Garden City", "addr:housenumber": "9751", "addr:postcode": "83714", "addr:state": "ID", "addr:street": "West Chinden Boulevard", "addr:unit": "200", "name": "AHJ Engineers", "office": "engineer", "website": "https://www.ahjengineers.com/"}}, {"type": "node", "id": 8343077168, "lat": 43.655519, "lon": -116.299952}, {"type": "node", "id": 8343077180, "lat": 43.655284, "lon": -116.298341}, {"type": "node", "id": 8343077184, "lat": 43.655951, "lon": -116.300636}, {"type": "node", "id": 8343077185, "lat": 43.6561752, "lon": -116.3007447}, {"type": "node", "id": 8343077186, "lat": 43.6563364, "lon": -116.301158}, {"type": "node", "id": 8343086982, "lat": 43.6713258, "lon": -116.2828313, "tags": {"addr:city": "Boise", "addr:housenumber": "7610", "addr:postcode": "83714", "addr:state": "ID", "addr:street": "West State Street", "addr:unit": "135", "brand": "Supercuts", "brand:wikidata": "Q7643239", "name": "Supercuts", "shop": "hairdresser"}}, {"type": "node", "id": 8343089488, "lat": 43.6718957, "lon": -116.284496}, {"type": "node", "id": 8644183339, "lat": 43.6649644, "lon": -116.2802936}, {"type": "node", "id": 8644183340, "lat": 43.6648949, "lon": -116.280293}, {"type": "node", "id": 8644183341, "lat": 43.6648961, "lon": -116.2800025}, {"type": "node", "id": 8672357889, "lat": 43.6674966, "lon": -116.278564}, {"type": "node", "id": 8672358318, "lat": 43.670951, "lon": -116.283655}, {"type": "node", "id": 8672373187, "lat": 43.6714064, "lon": -116.282808, "tags": {"addr:city": "Boise", "addr:housenumber": "7610", "addr:postcode": "83714", "addr:state": "ID", "addr:street": "West State Street", "addr:unit": "130", "amenity": "restaurant", "cuisine": "noodle", "name": "Nara Ramen", "phone": "+1-208-853-7081", "website": "https://nararamen.com/boise-menu/"}}, {"type": "node", "id": 9099602365, "lat": 43.677005, "lon": -116.2999296}, {"type": "node", "id": 9099602366, "lat": 43.6769789, "lon": -116.2996993}, {"type": "node", "id": 9099602367, "lat": 43.6770011, "lon": -116.2996945}, {"type": "node", "id": 9099602368, "lat": 43.6769509, "lon": -116.2992507}, {"type": "node", "id": 9099602369, "lat": 43.6769291, "lon": -116.2992554}, {"type": "node", "id": 9099602370, "lat": 43.6769037, "lon": -116.2990308}, {"type": "node", "id": 9099602371, "lat": 43.6770475, "lon": -116.2989998}, {"type": "node", "id": 9099602372, "lat": 43.6770498, "lon": -116.2990204}, {"type": "node", "id": 9099602373, "lat": 43.6770641, "lon": -116.2990173}, {"type": "node", "id": 9099602374, "lat": 43.6770866, "lon": -116.2992171}, {"type": "node", "id": 9099602375, "lat": 43.6770959, "lon": -116.2992151}, {"type": "node", "id": 9099602376, "lat": 43.6770988, "lon": -116.2992412}, {"type": "node", "id": 9099602377, "lat": 43.6771117, "lon": -116.2992384}, {"type": "node", "id": 9099602378, "lat": 43.6771571, "lon": -116.2996432}, {"type": "node", "id": 9099602379, "lat": 43.6771444, "lon": -116.2996459}, {"type": "node", "id": 9099602380, "lat": 43.6771474, "lon": -116.2996728}, {"type": "node", "id": 9099602381, "lat": 43.6771392, "lon": -116.2996745}, {"type": "node", "id": 9099602382, "lat": 43.6771617, "lon": -116.2998739}, {"type": "node", "id": 9099602383, "lat": 43.6771472, "lon": -116.299877}, {"type": "node", "id": 9099602384, "lat": 43.6771496, "lon": -116.2998983}, {"type": "node", "id": 9395919171, "lat": 43.680462, "lon": -116.309102}, {"type": "node", "id": 9395919172, "lat": 43.6805, "lon": -116.309224}, {"type": "node", "id": 9395919173, "lat": 43.680502, "lon": -116.309223}, {"type": "node", "id": 9395919174, "lat": 43.68054, "lon": -116.309345}, {"type": "node", "id": 9395919175, "lat": 43.680463, "lon": -116.309391}, {"type": "node", "id": 9395919176, "lat": 43.680446, "lon": -116.309336}, {"type": "node", "id": 9395919177, "lat": 43.680404, "lon": -116.309361}, {"type": "node", "id": 9395919178, "lat": 43.680392, "lon": -116.309321}, {"type": "node", "id": 9395919179, "lat": 43.68036, "lon": -116.30934}, {"type": "node", "id": 9395919180, "lat": 43.680373, "lon": -116.309383}, {"type": "node", "id": 9395919181, "lat": 43.680198, "lon": -116.309487}, {"type": "node", "id": 9411185748, "lat": 43.6568049, "lon": -116.302708}, {"type": "node", "id": 9411185749, "lat": 43.6566712, "lon": -116.3027674}, {"type": "node", "id": 9411185750, "lat": 43.6566065, "lon": -116.3024895}, {"type": "node", "id": 9411185751, "lat": 43.6564727, "lon": -116.302549}, {"type": "node", "id": 9411185752, "lat": 43.656441, "lon": -116.3024127}, {"type": "node", "id": 9411185753, "lat": 43.6564978, "lon": -116.3023875}, {"type": "node", "id": 9411185754, "lat": 43.6565033, "lon": -116.3024112}, {"type": "node", "id": 9411185755, "lat": 43.656575, "lon": -116.3023793}, {"type": "node", "id": 9411185756, "lat": 43.6565649, "lon": -116.302336}, {"type": "node", "id": 9473031055, "lat": 43.6498887, "lon": -116.2822505}, {"type": "node", "id": 9473031056, "lat": 43.6498532, "lon": -116.2822271}, {"type": "node", "id": 9473031057, "lat": 43.6498702, "lon": -116.282178}, {"type": "node", "id": 9473031058, "lat": 43.6498298, "lon": -116.2821524}, {"type": "node", "id": 9473031059, "lat": 43.6498145, "lon": -116.2822003}, {"type": "node", "id": 9473031060, "lat": 43.6497806, "lon": -116.2821769}, {"type": "node", "id": 9473031061, "lat": 43.6496821, "lon": -116.2822773}, {"type": "node", "id": 9473031062, "lat": 43.6496909, "lon": -116.2824369}, {"type": "node", "id": 9473031063, "lat": 43.6498007, "lon": -116.2825038}, {"type": "node", "id": 9473031064, "lat": 43.6498588, "lon": -116.282211, "tags": {"entrance": "main"}}, {"type": "node", "id": 9473031065, "lat": 43.6498183, "lon": -116.2821884, "tags": {"entrance": "main"}}, {"type": "node", "id": 9473070752, "lat": 43.6643198, "lon": -116.279986, "tags": {"addr:city": "Garden City", "addr:housenumber": "6625", "addr:postcode": "83714", "addr:state": "ID", "addr:street": "North Glenwood Street", "addr:unit": "101", "amenity": "restaurant", "name": "Moxie Java Cafe"}}, {"type": "node", "id": 9473070753, "lat": 43.6643084, "lon": -116.2800833, "tags": {"addr:city": "Garden City", "addr:housenumber": "6625", "addr:postcode": "83714", "addr:state": "ID", "addr:street": "North Glenwood Street", "addr:unit": "100", "alt_name": "Verizon Wireless", "brand": "Verizon", "brand:wikidata": "Q919641", "name": "Verizon", "operator": "Victra", "operator:website": "https://victra.com/stores/id-boise-glenwood/", "operator:wikidata": "Q118402656", "shop": "mobile_phone"}}, {"type": "node", "id": 10179193366, "lat": 43.6740794, "lon": -116.2924831}, {"type": "node", "id": 10179193367, "lat": 43.6741604, "lon": -116.29268}, {"type": "node", "id": 10179193368, "lat": 43.6741567, "lon": -116.292683}, {"type": "node", "id": 10179193369, "lat": 43.6742042, "lon": -116.2927986}, {"type": "node", "id": 10179193370, "lat": 43.6740772, "lon": -116.2928984}, {"type": "node", "id": 10179193371, "lat": 43.6739487, "lon": -116.2925858}, {"type": "node", "id": 10704347195, "lat": 43.6562679, "lon": -116.3010996}, {"type": "node", "id": 10704347196, "lat": 43.6561281, "lon": -116.3011693}, {"type": "node", "id": 10704347197, "lat": 43.6560355, "lon": -116.3008144}, {"type": "node", "id": 10704347199, "lat": 43.6564098, "lon": -116.3014159}, {"type": "node", "id": 10704347200, "lat": 43.6562304, "lon": -116.301585}, {"type": "node", "id": 10704347201, "lat": 43.6561474, "lon": -116.3012752}, {"type": "node", "id": 10704347202, "lat": 43.6562731, "lon": -116.3012108}, {"type": "node", "id": 10704347203, "lat": 43.6562684, "lon": -116.3011932}, {"type": "node", "id": 10704347204, "lat": 43.6564045, "lon": -116.3014124}, {"type": "node", "id": 10704347205, "lat": 43.6563679, "lon": -116.3015146}, {"type": "node", "id": 10704347206, "lat": 43.6563744, "lon": -116.3015188}, {"type": "node", "id": 11500717876, "lat": 43.6648564, "lon": -116.2778702, "tags": {"addr:city": "Garden City", "addr:housenumber": "6724", "addr:postcode": "83714", "addr:state": "ID", "addr:street": "North Glenwood Street", "amenity": "restaurant", "cuisine": "pizza", "name": "Idaho Pizza Company"}}, {"type": "node", "id": 11500717880, "lat": 43.6647619, "lon": -116.2778553, "tags": {"addr:city": "Garden City", "addr:housenumber": "6712", "addr:postcode": "83714", "addr:state": "ID", "addr:street": "North Glenwood Street", "name": "Johnson Floral & D\u00e9cor", "shop": "florist"}}, {"type": "node", "id": 12695431843, "lat": 43.6503515, "lon": -116.2836401, "tags": {"brand": "U-Haul", "brand:wikidata": "Q7862902", "name": "U-Haul", "shop": "rental"}}, {"type": "node", "id": 12695431844, "lat": 43.6541064, "lon": -116.2949837, "tags": {"name": "Republic Storage", "shop": "storage_rental"}}, {"type": "node", "id": 12745937652, "lat": 43.6578988, "lon": -116.300775}, {"type": "node", "id": 12761667420, "lat": 43.664048, "lon": -116.2798841}, {"type": "node", "id": 12761667421, "lat": 43.6640464, "lon": -116.2799994}, {"type": "node", "id": 12761667422, "lat": 43.6638939, "lon": -116.2799955}, {"type": "node", "id": 12791099924, "lat": 43.665468, "lon": -116.2808816, "tags": {"addr:city": "Garden City", "addr:housenumber": "6711", "addr:postcode": "83714", "addr:state": "ID", "addr:street": "North Glenwood Street", "addr:unit": "101", "amenity": "cafe", "cuisine": "bubble_tea", "name": "Boise Boba", "website": "https://www.boiseboba.com/"}}, {"type": "way", "id": 568828200, "nodes": [8343073142, 6296545138, 6296545139, 6296545140, 6296545137, 5472037668, 5472037667, 6296545135, 6296545136, 6296545134, 6296545133, 5472037666, 6296545132, 8343073142], "tags": {"addr:city": "Garden City", "addr:housenumber": "6725", "addr:postcode": "83714", "addr:state": "ID", "addr:street": "North Glenwood Street", "brand": "Walgreens", "brand:wikidata": "Q1591889", "building": "retail", "building:levels": "1", "name": "Walgreens", "opening_hours": "Mo-Su 08:00-22:00", "shop": "chemist", "website": "https://www.walgreens.com/locator/walgreens-6725+n+glenwood+st-boise-id-83714/id=1972"}}, {"type": "way", "id": 667257442, "nodes": [6247480156, 8343073192, 6247480166, 6247480167, 6247480168, 6247480169, 6247480170, 6247480171, 6247480172, 6247480173, 6247480174, 6247480175, 6247480176, 6247480177, 6247480178, 6247480179, 6247480155, 6247480156], "tags": {"addr:city": "Garden City", "addr:housenumber": "6650", "addr:postcode": "83714", "addr:state": "ID", "addr:street": "North Glenwood Street", "building": "yes", "name": "D&B Supply", "shop": "doityourself"}}, {"type": "way", "id": 672395418, "nodes": [8343073141, 6296545207, 6296545208, 6296545209, 6296545210, 6296545211, 6296545212, 6296545213, 6296545214, 6296545215, 6296545216, 6296545217, 8343073141], "tags": {"addr:city": "Garden City", "addr:housenumber": "7253", "addr:postcode": "83714", "addr:state": "ID", "addr:street": "West State Street", "amenity": "restaurant", "brand": "Applebee's Neighborhood Grill & Bar", "brand:wikidata": "Q621532", "building": "yes", "cuisine": "american", "name": "Applebee's", "official_name": "Applebee's Neighborhood Grill & Bar", "phone": "+1 208-853-2330", "website": "https://restaurants.applebees.com/en-us/id/garden-city/7025-n.-glenwood-street-85004", "website:menu": "https://www.applebees.com/en/menu?StoreNumber=85004&action=viewmenu"}}, {"type": "way", "id": 674982966, "nodes": [8672358318, 6321306114, 6400938505, 6321306115, 6321306116, 6400938506, 6321306117, 6321306118, 6321306119, 6321306120, 6321306121, 6321306122, 6321306123, 6321306124, 6321306125, 6321306126, 6321306127, 6400938504, 6321306128, 6321306129, 6321306130, 6321306131, 6400938503, 6321306132, 6321306133, 6321306134, 6321306135, 6321306136, 8672358318], "tags": {"addr:city": "Garden City", "addr:housenumber": "7319", "addr:postcode": "83714", "addr:state": "ID", "addr:street": "West State Street", "brand": "Walmart", "brand:wikidata": "Q483551", "building": "retail", "name": "Walmart Supercenter", "opening_hours": "Mo-Su 05:00-24:00", "operator": "Walmart", "operator:wikidata": "Q483551", "payment:app:walmart": "yes", "payment:apple_pay": "no", "payment:google_pay": "no", "payment:samsung_pay": "no", "phone": "+1 208-853-0541", "ref": "2861", "ref:walmart": "2861", "sensory_friendly:accommodation": "dimmed_light;static_screens;no_pa", "sensory_friendly:conditional": "yes @ 08:00-10:00", "shop": "supermarket", "website": "https://www.walmart.com/store/2861-garden-city-id"}}, {"type": "way", "id": 698460759, "nodes": [8343075842, 6559431728, 6559431727, 6559431726, 8343075842], "tags": {"addr:city": "Garden City", "addr:housenumber": "5985", "addr:postcode": "83714", "addr:state": "ID", "addr:street": "North Glenwood Street", "brand": "Jacksons", "brand:wikidata": "Q64617393", "building": "yes", "name": "Jacksons", "shop": "convenience"}}, {"type": "way", "id": 737172814, "nodes": [8343073833, 6901411805, 6901411806, 6901411807, 6901411808, 6901411809, 6901411810, 6901411811, 8343073833], "tags": {"addr:city": "Garden City", "addr:housenumber": "5285", "addr:postcode": "83714", "addr:state": "ID", "addr:street": "North Glenwood Street", "amenity": "restaurant", "building": "yes", "cuisine": "mexican", "name": "El Gallo Giro"}}, {"type": "way", "id": 743775170, "nodes": [6961233652, 8343089488, 6961233654, 6961233655, 6960875268, 6961233652], "tags": {"addr:city": "Boise", "addr:housenumber": "7800", "addr:postcode": "83714", "addr:state": "ID", "addr:street": "West State Street", "landuse": "industrial", "name": "Stor-It Self Storage", "shop": "storage_rental"}}, {"type": "way", "id": 757724649, "nodes": [8343073224, 7076298861, 7076298862, 7076298863, 8343073224], "tags": {"addr:city": "Garden City", "addr:housenumber": "7227", "addr:postcode": "83714", "addr:state": "ID", "addr:street": "West State Street", "branch": "Garden City State Street", "brand": "Mattress Firm", "brand:wikidata": "Q6791878", "building": "yes", "building:levels": "1", "contact:sms": "+1 208-273-9693", "delivery": "yes", "name": "Mattress Firm", "phone": "+1 208-853-1908", "ref": "18048", "roof:levels": "0", "shop": "bed", "website": "https://www.mattressfirm.com/en-us/stores/id/garden-city/082009/"}}, {"type": "way", "id": 757724650, "nodes": [8672357889, 7076298865, 7076298866, 7076298867, 7076298868, 7076298869, 7076298870, 7076298871, 8672357889], "tags": {"addr:city": "Garden City", "addr:housenumber": "7135", "addr:postcode": "83714", "addr:state": "ID", "addr:street": "West State Street", "amenity": "restaurant", "building": "yes"}}, {"type": "way", "id": 772827765, "nodes": [8343077180, 7215553759, 7215553298, 7215553871, 8343077180], "tags": {"addr:city": "Garden City", "addr:housenumber": "9275", "addr:postcode": "83714", "addr:state": "ID", "addr:street": "West Chinden Boulevard", "brand": "Mobil 1", "brand:wikidata": "Q837922", "building": "yes", "name": "Mobil 1 Lube Express", "shop": "car_repair", "source": "microsoft/BuildingFootprints"}}, {"type": "way", "id": 772831539, "nodes": [8343073222, 7215573481, 7215569422, 7215572003, 7215574654, 7215570540, 7215573098, 7215575738, 7215571569, 7215574212, 8343073222], "tags": {"addr:city": "Garden City", "addr:housenumber": "7107", "addr:postcode": "83714", "addr:state": "ID", "addr:street": "West State Street", "amenity": "restaurant", "building": "yes", "cuisine": "thai", "name": "Krungthai", "source": "microsoft/BuildingFootprints", "website": "https://www.krungthaiandsushi.com/"}}, {"type": "way", "id": 782224623, "nodes": [8343073791, 7304340159, 7304336622, 2923585670, 8343073791], "tags": {"addr:city": "Garden City", "addr:housenumber": "4971", "addr:postcode": "83714", "addr:state": "ID", "addr:street": "North Glenwood Street", "amenity": "cafe", "branch": "Glenwood & Chinden- Boise", "brand": "Starbucks", "brand:wikidata": "Q37158", "building": "yes", "cuisine": "coffee_shop", "internet_access": "yes", "name": "Starbucks", "official_name": "Starbucks Coffee", "phone": "+1 208-375-0447", "ref": "17250", "source": "microsoft/Buildingfootprints", "takeaway": "yes", "website": "https://www.starbucks.com/store-locator/store/17250/glenwood-chinden-boise-4971-n-glenwood-st-garden-city-id-837141325-us"}}, {"type": "way", "id": 886771894, "nodes": [7036484379, 8245782488, 7036513785, 7036484380, 12745937652, 7036484379], "tags": {"addr:city": "Garden City", "addr:housenumber": "9700", "addr:postcode": "83714", "addr:state": "ID", "addr:street": "West Chinden Boulevard", "landuse": "industrial", "name": "Republic Storage", "shop": "storage_rental", "website": "https://www.republicstorageidaho.com/"}}, {"type": "way", "id": 893498774, "nodes": [8343077184, 8304231665, 8304228098, 8304227182, 8343077184], "tags": {"addr:city": "Garden City", "addr:housenumber": "9545", "addr:postcode": "83714", "addr:state": "ID", "addr:street": "West Chinden Boulevard", "brand": "ExtraMile", "brand:wikidata": "Q64224605", "building": "yes", "name": "ExtraMile", "operator": "Jacksons Food Stores", "ref": "95", "shop": "convenience", "source": "microsoft/BuildingFootprints"}}, {"type": "way", "id": 893499263, "nodes": [8343077168, 8304230467, 8304230685, 8304230851, 8343077168], "tags": {"addr:city": "Garden City", "addr:housenumber": "9535", "addr:postcode": "83714", "addr:state": "ID", "addr:street": "North Mountain View Drive", "building": "yes", "name": "Premier Glass Tinting", "shop": "window_tinting", "source": "microsoft/BuildingFootprints", "website": "https://premierglasstintingboise.com/"}}, {"type": "way", "id": 932517463, "nodes": [6296545305, 8644183339, 8644183340, 8644183341, 6296545305], "tags": {"addr:city": "Garden City", "addr:housenumber": "6667", "addr:postcode": "83714", "addr:state": "ID", "addr:street": "North Glenwood Street", "addr:unit": "110", "brand": "AT&T", "brand:wikidata": "Q298594", "name": "AT&T", "shop": "mobile_phone"}}, {"type": "way", "id": 932517465, "nodes": [6296545307, 6296545301, 6296545302, 6296545299, 6296545300, 6296545307], "tags": {"addr:city": "Garden City", "addr:housenumber": "6667", "addr:postcode": "83714", "addr:state": "ID", "addr:street": "North Glenwood Street", "addr:unit": "115", "brand": "O'Reilly Auto Parts", "brand:wikidata": "Q7071951", "name": "O'Reilly Auto Parts", "shop": "car_parts", "website": "https://locations.oreillyauto.com/id/gardencity/autoparts-3824.html"}}, {"type": "way", "id": 984144553, "nodes": [9099602365, 9099602366, 9099602367, 9099602368, 9099602369, 9099602370, 9099602371, 9099602372, 9099602373, 9099602374, 9099602375, 9099602376, 9099602377, 9099602378, 9099602379, 9099602380, 9099602381, 9099602382, 9099602383, 9099602384, 9099602365], "tags": {"building": "yes", "office": "company"}}, {"type": "way", "id": 1018695546, "nodes": [8343075563, 9395919171, 9395919172, 9395919173, 9395919174, 9395919175, 9395919176, 9395919177, 9395919178, 9395919179, 9395919180, 9395919181, 8343075563], "tags": {"addr:city": "Garden City", "addr:housenumber": "10254", "addr:postcode": "83714", "addr:state": "ID", "addr:street": "West Carlton Bay Drive", "building": "yes", "shop": "funeral_directors", "source": "microsoft/BuildingFootprints"}}, {"type": "way", "id": 1020376623, "nodes": [5116400621, 9411185748, 9411185749, 9411185750, 9411185751, 9411185752, 9411185753, 9411185754, 9411185755, 9411185756, 5116400621], "tags": {"addr:city": "Garden City", "addr:housenumber": "9719", "addr:postcode": "83714", "addr:state": "ID", "addr:street": "West Chinden Boulevard", "amenity": "restaurant", "building": "yes", "name": "Powderhaus Brewing Company", "source": "microsoft/BuildingFootprints", "website": "https://www.powderhausbrewing.com/"}}, {"type": "way", "id": 1027573428, "nodes": [8343076928, 9473031055, 9473031056, 9473031064, 9473031057, 9473031058, 9473031065, 9473031059, 9473031060, 9473031061, 9473031062, 9473031063, 8343076928], "tags": {"addr:city": "Garden City", "addr:housenumber": "8121", "addr:postcode": "83714", "addr:state": "ID", "addr:street": "West Chinden Boulevard", "amenity": "restaurant", "branch": "Restaurant & Pies", "brand": "Shari's", "brand:wikidata": "Q7489612", "building": "yes", "cuisine": "american", "name": "Shari's", "opening_hours": "Su-Th 07:00-22:00; Fr-Sa 07:00-23:00"}}, {"type": "way", "id": 1112592952, "nodes": [10179193366, 10179193367, 10179193368, 10179193369, 10179193370, 10179193371, 10179193366], "tags": {"addr:city": "Garden City", "addr:housenumber": "8561", "addr:postcode": "83714", "addr:state": "ID", "addr:street": "West State Street", "brand": "Maverik", "brand:wikidata": "Q64149010", "building": "yes", "name": "Maverik", "shop": "convenience", "source": "microsoft/BuildingFootprints"}}, {"type": "way", "id": 1150700634, "nodes": [8343077185, 10704347195, 10704347196, 10704347197, 8343077185], "tags": {"addr:city": "Garden City", "addr:housenumber": "9603", "addr:postcode": "83714", "addr:state": "ID", "addr:street": "West Chinden Boulevard", "building": "yes", "name": "Fuhriman Insurance", "office": "insurance", "source": "microsoft/BuildingFootprints", "website": "https://www.insuremeplus.com/"}}, {"type": "way", "id": 1150700635, "nodes": [8343077186, 10704347204, 10704347199, 10704347206, 10704347205, 10704347200, 10704347201, 10704347202, 10704347203, 8343077186], "tags": {"addr:city": "Garden City", "addr:housenumber": "9661", "addr:postcode": "83714", "addr:state": "ID", "addr:street": "West Chinden Boulevard", "building": "yes", "name": "Bella Vida Funeral Home", "shop": "funeral_directors", "source": "microsoft/BuildingFootprints", "website": "https://www.bellavidafuneral.com/"}}, {"type": "way", "id": 1378257426, "nodes": [8343073226, 12761667420, 12761667421, 12761667422, 8343073226], "tags": {"addr:city": "Garden City", "addr:housenumber": "6543", "addr:postcode": "83714", "addr:state": "ID", "addr:street": "North Glenwood Street", "brand": "Take 5", "brand:wikidata": "Q112359190", "building": "yes", "name": "Take 5 Oil Change", "ref": "1404", "service:vehicle:oil_change": "yes", "shop": "car_repair", "source": "microsoft/BuildingFootprints", "website": "https://www.take5.com/locations/oil-change/idaho/garden-city/31404/"}}]}