{"version": 0.6, "generator": "Overpass API 0.7.62.8 e802775f", "osm3s": {"timestamp_osm_base": "2025-12-06T21:33:13Z", "copyright": "The data included in this document is from www.openstreetmap.org. The data is made available under ODbL."}, "elements": [{"type": "node", "id": 356543228, "lat": 47.6680652, "lon": -117.8762019}, {"type": "node", "id": 599340793, "lat": 47.6683131, "lon": -117.8749893}, {"type": "node", "id": 2503390184, "lat": 47.6677009, "lon": -117.8749269}, {"type": "node", "id": 2503390197, "lat": 47.6678087, "lon": -117.8752123}, {"type": "node", "id": 2503390201, "lat": 47.668311, "lon": -117.8749096}, {"type": "node", "id": 2503390202, "lat": 47.666986, "lon": -117.8763804}, {"type": "node", "id": 2503390220, "lat": 47.6669906, "lon": -117.8769717}, {"type": "node", "id": 2503390223, "lat": 47.6680652, "lon": -117.8752123}, {"type": "node", "id": 2503390229, "lat": 47.6683172, "lon": -117.8777298}, {"type": "node", "id": 2503390237, "lat": 47.6673149, "lon": -117.8776413}, {"type": "node", "id": 2503390241, "lat": 47.6670373, "lon": -117.876854}, {"type": "node", "id": 2503390244, "lat": 47.6682992, "lon": -117.8778881}, {"type": "node", "id": 2503390246, "lat": 47.6667895, "lon": -117.8763783}, {"type": "node", "id": 2503390257, "lat": 47.6672451, "lon": -117.87654}, {"type": "node", "id": 2503390265, "lat": 47.6683371, "lon": -117.8750342}, {"type": "node", "id": 2503390269, "lat": 47.6673158, "lon": -117.8774542}, {"type": "node", "id": 2503390273, "lat": 47.6668376, "lon": -117.877636}, {"type": "node", "id": 2503390277, "lat": 47.6683841, "lon": -117.8777379}, {"type": "node", "id": 2503390285, "lat": 47.666785, "lon": -117.8772581}, {"type": "node", "id": 2503390289, "lat": 47.6670371, "lon": -117.8773953}, {"type": "node", "id": 2503390291, "lat": 47.6672405, "lon": -117.8774534}, {"type": "node", "id": 2503390295, "lat": 47.6670384, "lon": -117.8769707}, {"type": "node", "id": 2503390297, "lat": 47.6677191, "lon": -117.8749976}, {"type": "node", "id": 2503390299, "lat": 47.6670378, "lon": -117.877261}, {"type": "node", "id": 2503390310, "lat": 47.6669895, "lon": -117.876855}, {"type": "node", "id": 2503390322, "lat": 47.6682974, "lon": -117.8778103}, {"type": "node", "id": 2503390338, "lat": 47.6678087, "lon": -117.8762019}, {"type": "node", "id": 2503390340, "lat": 47.6665443, "lon": -117.8777646}, {"type": "node", "id": 2503390346, "lat": 47.6665417, "lon": -117.8778479}, {"type": "node", "id": 2503390360, "lat": 47.6668388, "lon": -117.8773931}, {"type": "node", "id": 2503390364, "lat": 47.668399, "lon": -117.8750298}, {"type": "node", "id": 2503390366, "lat": 47.6669852, "lon": -117.8765372}, {"type": "node", "id": 2504246608, "lat": 47.6672118, "lon": -117.8790657}, {"type": "node", "id": 2504246609, "lat": 47.6699994, "lon": -117.8782885}, {"type": "node", "id": 2504246611, "lat": 47.6686023, "lon": -117.8821605}, {"type": "node", "id": 2504246615, "lat": 47.6685271, "lon": -117.8790409}, {"type": "node", "id": 2504246618, "lat": 47.6698586, "lon": -117.8782887}, {"type": "node", "id": 2504246625, "lat": 47.6696719, "lon": -117.8767793, "tags": {"amenity": "fuel", "fuel:diesel": "yes", "name": "Colville's Too"}}, {"type": "node", "id": 2504246646, "lat": 47.6685882, "lon": -117.8825287}, {"type": "node", "id": 2504246656, "lat": 47.6672114, "lon": -117.878908}, {"type": "node", "id": 2504246657, "lat": 47.6685891, "lon": -117.8824321}, {"type": "node", "id": 2504246659, "lat": 47.6698587, "lon": -117.8784876}, {"type": "node", "id": 2504246669, "lat": 47.6687262, "lon": -117.8825315}, {"type": "node", "id": 2504246684, "lat": 47.6669819, "lon": -117.8789093}, {"type": "node", "id": 2504246688, "lat": 47.6685069, "lon": -117.8822112}, {"type": "node", "id": 2504246689, "lat": 47.6699995, "lon": -117.8784874}, {"type": "node", "id": 2504246695, "lat": 47.6669824, "lon": -117.8790671}, {"type": "node", "id": 2504246703, "lat": 47.6687291, "lon": -117.8822141}, {"type": "node", "id": 2504246710, "lat": 47.6685879, "lon": -117.880996, "tags": {"amenity": "post_office", "name": "Rearden Post Office"}}, {"type": "node", "id": 2504246715, "lat": 47.6696394, "lon": -117.877569, "tags": {"amenity": "fuel", "brand": "Chevron", "brand:wikidata": "Q319642", "name": "Chevron"}}, {"type": "node", "id": 2504246725, "lat": 47.6687168, "lon": -117.8790393}, {"type": "node", "id": 2504246757, "lat": 47.6687152, "lon": -117.8786196}, {"type": "node", "id": 2504246759, "lat": 47.6686018, "lon": -117.8822132}, {"type": "node", "id": 2504246763, "lat": 47.6685255, "lon": -117.8786212}, {"type": "node", "id": 2504246774, "lat": 47.6685048, "lon": -117.8824304}, {"type": "node", "id": 2504272828, "lat": 47.6687021, "lon": -117.8803764, "tags": {"name": "Rearden Store", "shop": "supermarket"}}, {"type": "node", "id": 2504272830, "lat": 47.6691607, "lon": -117.8817827}, {"type": "node", "id": 4330458228, "lat": 47.6725737, "lon": -117.8743098}, {"type": "node", "id": 4330458229, "lat": 47.6725773, "lon": -117.8735092}, {"type": "node", "id": 4330458231, "lat": 47.6728654, "lon": -117.8723431, "tags": {"amenity": "bench", "backrest": "yes"}}, {"type": "node", "id": 4330458233, "lat": 47.6728988, "lon": -117.8743393}, {"type": "node", "id": 4330458234, "lat": 47.6729051, "lon": -117.8705366, "tags": {"amenity": "bench", "backrest": "yes"}}, {"type": "node", "id": 4330458235, "lat": 47.6729051, "lon": -117.874008}, {"type": "node", "id": 4330458237, "lat": 47.6729141, "lon": -117.8736781}, {"type": "node", "id": 4330458239, "lat": 47.67292, "lon": -117.8735226}, {"type": "node", "id": 4330458240, "lat": 47.6729222, "lon": -117.8736602}, {"type": "node", "id": 4330458241, "lat": 47.6729258, "lon": -117.8735972}, {"type": "node", "id": 4330458245, "lat": 47.6729471, "lon": -117.8736634}, {"type": "node", "id": 4330458246, "lat": 47.6729493, "lon": -117.8740094}, {"type": "node", "id": 4330458247, "lat": 47.6729507, "lon": -117.8736004}, {"type": "node", "id": 4330458248, "lat": 47.6729511, "lon": -117.8736795}, {"type": "node", "id": 4338081564, "lat": 47.6693022, "lon": -117.8804028, "tags": {"amenity": "bar", "name": "Bubba's Bar & Grill"}}, {"type": "node", "id": 4338082419, "lat": 47.6698865, "lon": -117.8800133}, {"type": "node", "id": 4338082420, "lat": 47.6698874, "lon": -117.8804625}, {"type": "node", "id": 4338082421, "lat": 47.6699167, "lon": -117.8706058}, {"type": "node", "id": 4338082422, "lat": 47.6699185, "lon": -117.870347}, {"type": "node", "id": 4338082423, "lat": 47.670017, "lon": -117.8706074}, {"type": "node", "id": 4338082424, "lat": 47.6700188, "lon": -117.8703486}, {"type": "node", "id": 4338082425, "lat": 47.6700482, "lon": -117.8800125}, {"type": "node", "id": 4338082426, "lat": 47.6700491, "lon": -117.8804618}, {"type": "node", "id": 4881178141, "lat": 47.6690627, "lon": -117.8817772}, {"type": "node", "id": 4881178142, "lat": 47.6690682, "lon": -117.8815613}, {"type": "node", "id": 4881178143, "lat": 47.6691661, "lon": -117.8815667}, {"type": "node", "id": 4994218556, "lat": 47.6695779, "lon": -117.8816459, "tags": {"amenity": "bench"}}, {"type": "node", "id": 10702910856, "lat": 47.6700365, "lon": -117.8814284}, {"type": "node", "id": 10702910857, "lat": 47.6700943, "lon": -117.8814298}, {"type": "node", "id": 10702910858, "lat": 47.6700899, "lon": -117.8818374}, {"type": "node", "id": 10702910859, "lat": 47.6700321, "lon": -117.881836}, {"type": "node", "id": 10702910860, "lat": 47.6701584, "lon": -117.8818397}, {"type": "node", "id": 10702910861, "lat": 47.6701615, "lon": -117.8814281}, {"type": "node", "id": 10702910862, "lat": 47.6702175, "lon": -117.8814291}, {"type": "node", "id": 10702910863, "lat": 47.6702143, "lon": -117.8818406}, {"type": "node", "id": 10702910864, "lat": 47.6701154, "lon": -117.8812286}, {"type": "node", "id": 10702910865, "lat": 47.6698176, "lon": -117.8812155}, {"type": "node", "id": 10702910866, "lat": 47.669821, "lon": -117.8810479}, {"type": "node", "id": 10702910867, "lat": 47.6700736, "lon": -117.881059}, {"type": "node", "id": 10702910868, "lat": 47.6700731, "lon": -117.8810846}, {"type": "node", "id": 10702910869, "lat": 47.6701182, "lon": -117.8810866}, {"type": "node", "id": 10702910874, "lat": 47.6704011, "lon": -117.881113}, {"type": "node", "id": 10702910875, "lat": 47.6703097, "lon": -117.881111}, {"type": "node", "id": 10702910876, "lat": 47.6703123, "lon": -117.8808536}, {"type": "node", "id": 10702910877, "lat": 47.6704036, "lon": -117.8808556}, {"type": "node", "id": 11034464234, "lat": 47.6698587, "lon": -117.8784272, "tags": {"amenity": "atm", "brand": "US Bank"}}, {"type": "node", "id": 11416289937, "lat": 47.6686499, "lon": -117.8822125}, {"type": "node", "id": 11416289938, "lat": 47.6686503, "lon": -117.8821615}, {"type": "node", "id": 11416289950, "lat": 47.6680735, "lon": -117.8826449}, {"type": "node", "id": 11416289951, "lat": 47.6680771, "lon": -117.8825743}, {"type": "node", "id": 11416289952, "lat": 47.6681754, "lon": -117.8826562}, {"type": "node", "id": 11416289953, "lat": 47.6682508, "lon": -117.8825486}, {"type": "node", "id": 11416289954, "lat": 47.6682164, "lon": -117.8824954}, {"type": "node", "id": 11416289955, "lat": 47.6681551, "lon": -117.882583}, {"type": "node", "id": 11417844094, "lat": 47.6693113, "lon": -117.8803319, "tags": {"amenity": "restaurant", "name": "The SpeedTrap Taphouse"}}, {"type": "node", "id": 11417844095, "lat": 47.6693082, "lon": -117.8802592, "tags": {"name": "Stitch!", "shop": "fabric"}}, {"type": "node", "id": 11417844096, "lat": 47.6693136, "lon": -117.8801547, "tags": {"name": "Bloom Salon & Spa", "shop": "hairdresser"}}, {"type": "way", "id": 242894607, "nodes": [356543228, 2503390223, 2503390197, 2503390338, 356543228], "tags": {"addr:city": "Reardan", "addr:housenumber": "215", "addr:postcode": "99029", "addr:state": "WA", "addr:street": "East Spokane Avenue", "amenity": "school", "building": "yes", "ele": "774", "gnis:feature_id": "1514806", "mascot": "Screaming Eagles", "name": "Reardan High School", "website": "https://www.reardan.net/home"}}, {"type": "way", "id": 242894608, "nodes": [2503390237, 2503390269, 2503390291, 2503390257, 2503390366, 2503390202, 2503390246, 2503390285, 2503390299, 2503390289, 2503390360, 2503390273, 2503390237]}, {"type": "way", "id": 242894610, "nodes": [2503390295, 2503390220, 2503390310, 2503390241, 2503390295]}, {"type": "way", "id": 242894611, "nodes": [2503390322, 2503390244, 2503390346, 2503390340, 2503390322], "tags": {"amenity": "parking"}}, {"type": "way", "id": 242894622, "nodes": [2503390364, 2503390265, 2503390229, 2503390277, 2503390364], "tags": {"amenity": "parking"}}, {"type": "way", "id": 242894625, "nodes": [599340793, 2503390201, 2503390184, 2503390297, 599340793], "tags": {"amenity": "parking"}}, {"type": "way", "id": 242988813, "nodes": [2504246669, 2504246703, 11416289937, 11416289938, 2504246611, 2504246759, 2504246688, 2504246774, 2504246657, 2504246646, 2504246669], "tags": {"addr:city": "Reardan", "addr:housenumber": "155", "addr:postcode": "99029", "addr:street": "South Oak Street", "amenity": "place_of_worship", "building": "church", "denomination": "methodist", "name": "United Methodist Church", "religion": "christian"}}, {"type": "way", "id": 242988814, "nodes": [2504246689, 2504246659, 11034464234, 2504246618, 2504246609, 2504246689], "tags": {"addr:city": "Reardan", "addr:housenumber": "100", "addr:postcode": "99029", "addr:state": "WA", "addr:street": "West Broadway Avenue", "amenity": "bank", "atm": "yes", "building": "yes", "name": "US Bank", "phone": "+1-509-796-2201"}}, {"type": "way", "id": 242988817, "nodes": [2504246725, 2504246757, 2504246763, 2504246615, 2504246725], "tags": {"addr:city": "Reardan", "addr:housenumber": "150", "addr:postcode": "99029", "addr:street": "West Spokane Avenue", "amenity": "place_of_worship", "building": "church", "denomination": "presbyterian", "name": "Presbyterian Church", "religion": "christian"}}, {"type": "way", "id": 242988818, "nodes": [2504246608, 2504246656, 2504246684, 2504246695, 2504246608], "tags": {"addr:city": "Reardan", "addr:housenumber": "155", "addr:postcode": "99029", "addr:street": "West Cottonwood Avenue", "amenity": "place_of_worship", "building": "yes", "denomination": "lutheran", "name": "Emmanuel Lutheran Church", "religion": "christian"}}, {"type": "way", "id": 435092257, "nodes": [4330458233, 4330458228, 4330458229, 4330458239, 4330458237, 4330458248, 4330458246, 4330458235, 4330458233], "tags": {"access": "permit", "amenity": "parking", "capacity:bus": "3", "capacity:disabled": "3", "fee": "yes", "lit": "no", "name": "Audubon Lake Wildlife Area", "opening_hours": "sunrise-sunset", "operator": "Washington Department of Fish and Wildlife", "parking": "surface", "supervised": "no", "surface": "gravel"}}, {"type": "way", "id": 435092258, "nodes": [4330458245, 4330458247, 4330458241, 4330458240, 4330458245], "tags": {"access": "yes", "amenity": "toilets", "building": "yes", "drinking_water": "no", "fee": "no", "toilets:disposal": "pitlatrine", "unisex": "yes", "wheelchair": "yes"}}, {"type": "way", "id": 435914238, "nodes": [4338082426, 4338082425, 4338082419, 4338082420, 4338082426], "tags": {"addr:city": "Reardan", "addr:housenumber": "120", "addr:postcode": "99029", "addr:street": "North Lake Street", "amenity": "community_centre", "building": "yes", "name": "Reardan Community Hall"}}, {"type": "way", "id": 435914239, "nodes": [4338082424, 4338082422, 4338082421, 4338082423, 4338082424], "tags": {"addr:city": "Reardan", "addr:housenumber": "550", "addr:postcode": "99029", "addr:street": "East Broadway Avenue", "amenity": "clinic", "building": "yes", "name": "Reardan Health Clinic"}}, {"type": "way", "id": 496407753, "nodes": [2504272830, 4881178143, 4881178142, 4881178141, 2504272830], "tags": {"addr:city": "Reardan", "addr:housenumber": "120", "addr:postcode": "99029", "addr:state": "WA", "addr:street": "South Oak Street", "amenity": "library", "building": "yes", "contact:email": "library@townofreardan.com", "name": "Rearden Memorial Library", "phone": "+1-509-994-9997", "website": "https://www.reardan.lib.wa.us/"}}, {"type": "way", "id": 1150559952, "nodes": [10702910856, 10702910857, 10702910858, 10702910859, 10702910856]}, {"type": "way", "id": 1150559953, "nodes": [10702910860, 10702910861, 10702910862, 10702910863, 10702910860]}, {"type": "way", "id": 1150559954, "nodes": [10702910864, 10702910865, 10702910866, 10702910867, 10702910868, 10702910869, 10702910864]}, {"type": "way", "id": 1150559956, "nodes": [10702910874, 10702910875, 10702910876, 10702910877, 10702910874], "tags": {"amenity": "police", "building": "yes", "name": "Reardan Police Department", "source": "microsoft/BuildingFootprints"}}, {"type": "way", "id": 1231000608, "nodes": [11416289951, 11416289950, 11416289952, 11416289953, 11416289954, 11416289955, 11416289951], "tags": {"amenity": "shelter", "building": "yes"}}, {"type": "relation", "id": 3283204, "members": [{"type": "way", "ref": 242894608, "role": "outer"}, {"type": "way", "ref": 242894610, "role": "inner"}], "tags": {"addr:city": "Reardan", "addr:housenumber": "310", "addr:postcode": "99029", "addr:street": "South Aspen Street", "amenity": "school", "building": "yes", "ele": "775", "gnis:feature_id": "1514812", "mascot": "Screamin' Eagles", "name": "Reardan Elementary School", "type": "multipolygon"}}, {"type": "relation", "id": 16822489, "members": [{"type": "way", "ref": 1150559952, "role": "outer"}, {"type": "way", "ref": 1150559953, "role": "outer"}, {"type": "way", "ref": 1150559954, "role": "outer"}], "tags": {"building": "yes", "name": "B.W.B Mini Storage", "shop": "storage_rental", "source": "microsoft/BuildingFootprints", "type": "multipolygon"}}]}