{"version": 0.6, "generator": "Overpass API 0.7.62.8 e802775f", "osm3s": {"timestamp_osm_base": "2025-12-06T17:32:22Z", "copyright": "The data included in this document is from www.openstreetmap.org. The data is made available under ODbL."}, "elements": [{"type": "node", "id": 356539754, "lat": 46.5708956, "lon": -120.5147169}, {"type": "node", "id": 356543642, "lat": 46.5722364, "lon": -120.4803818}, {"type": "node", "id": 618310435, "lat": 46.5625862, "lon": -120.4764533}, {"type": "node", "id": 618310436, "lat": 46.5625866, "lon": -120.4766726}, {"type": "node", "id": 618310437, "lat": 46.5627847, "lon": -120.4767204}, {"type": "node", "id": 618310438, "lat": 46.5627836, "lon": -120.4764525}, {"type": "node", "id": 741474057, "lat": 46.564959, "lon": -120.4822749, "tags": {"amenity": "fast_food", "cuisine": "mexican", "name": "El Porton"}}, {"type": "node", "id": 1206589167, "lat": 46.568397, "lon": -120.4814785}, {"type": "node", "id": 1206589184, "lat": 46.5663026, "lon": -120.4792859}, {"type": "node", "id": 1206589186, "lat": 46.5645228, "lon": -120.4789917}, {"type": "node", "id": 1206589189, "lat": 46.5656317, "lon": -120.478465}, {"type": "node", "id": 1206589191, "lat": 46.5646824, "lon": -120.4788596}, {"type": "node", "id": 1206589193, "lat": 46.5715109, "lon": -120.4851829}, {"type": "node", "id": 1206589214, "lat": 46.5711899, "lon": -120.4814251}, {"type": "node", "id": 1206589215, "lat": 46.5635044, "lon": -120.4761291}, {"type": "node", "id": 1206589272, "lat": 46.5624958, "lon": -120.4749034}, {"type": "node", "id": 1206589275, "lat": 46.5641553, "lon": -120.4801568}, {"type": "node", "id": 1206589320, "lat": 46.5642991, "lon": -120.4778943}, {"type": "node", "id": 1206589322, "lat": 46.5658799, "lon": -120.4780272}, {"type": "node", "id": 1206589371, "lat": 46.5626862, "lon": -120.4749028}, {"type": "node", "id": 1206589379, "lat": 46.5685458, "lon": -120.4817077}, {"type": "node", "id": 1206589385, "lat": 46.5626856, "lon": -120.4745493}, {"type": "node", "id": 1206589392, "lat": 46.5727489, "lon": -120.4851593}, {"type": "node", "id": 1206589401, "lat": 46.5726441, "lon": -120.4806043}, {"type": "node", "id": 1206589405, "lat": 46.5665463, "lon": -120.4794918}, {"type": "node", "id": 1206589411, "lat": 46.5707714, "lon": -120.4807745}, {"type": "node", "id": 1206589473, "lat": 46.5683949, "lon": -120.4807503}, {"type": "node", "id": 1206589482, "lat": 46.5641206, "lon": -120.4785429}, {"type": "node", "id": 1206589551, "lat": 46.5715202, "lon": -120.4862206}, {"type": "node", "id": 1206589553, "lat": 46.5646791, "lon": -120.4800968}, {"type": "node", "id": 1206589557, "lat": 46.5716121, "lon": -120.4816629}, {"type": "node", "id": 1206589561, "lat": 46.5705271, "lon": -120.4807799}, {"type": "node", "id": 1206589585, "lat": 46.5644633, "lon": -120.480503}, {"type": "node", "id": 1206589596, "lat": 46.5670775, "lon": -120.4732189}, {"type": "node", "id": 1206589598, "lat": 46.5638563, "lon": -120.4761482}, {"type": "node", "id": 1206589600, "lat": 46.564371, "lon": -120.4797506}, {"type": "node", "id": 1206589619, "lat": 46.5705298, "lon": -120.4810348}, {"type": "node", "id": 1206589626, "lat": 46.5716181, "lon": -120.4819159}, {"type": "node", "id": 1206589655, "lat": 46.5648842, "lon": -120.4767713}, {"type": "node", "id": 1206589656, "lat": 46.5728001, "lon": -120.4861965}, {"type": "node", "id": 1206589657, "lat": 46.5665616, "lon": -120.4788024}, {"type": "node", "id": 1206589658, "lat": 46.5666986, "lon": -120.4798233}, {"type": "node", "id": 1206589683, "lat": 46.5668708, "lon": -120.4736394}, {"type": "node", "id": 1206589687, "lat": 46.5653957, "lon": -120.4773407}, {"type": "node", "id": 1206589696, "lat": 46.566868, "lon": -120.4732218}, {"type": "node", "id": 1206589701, "lat": 46.5685448, "lon": -120.4815164}, {"type": "node", "id": 1206589704, "lat": 46.5666458, "lon": -120.4809765}, {"type": "node", "id": 1206589717, "lat": 46.5644021, "lon": -120.4780093}, {"type": "node", "id": 1206589722, "lat": 46.5651245, "lon": -120.477855}, {"type": "node", "id": 1206589746, "lat": 46.5711898, "lon": -120.4819173}, {"type": "node", "id": 1206589749, "lat": 46.5730279, "lon": -120.480894}, {"type": "node", "id": 1206589759, "lat": 46.5691626, "lon": -120.481704}, {"type": "node", "id": 1206589762, "lat": 46.5637024, "lon": -120.4770911}, {"type": "node", "id": 1206589773, "lat": 46.5624631, "lon": -120.4745501}, {"type": "node", "id": 1206589784, "lat": 46.5730316, "lon": -120.4816415}, {"type": "node", "id": 1206589785, "lat": 46.5726226, "lon": -120.4817884}, {"type": "node", "id": 1487735524, "lat": 46.5787851, "lon": -120.4891598}, {"type": "node", "id": 1487735525, "lat": 46.5788692, "lon": -120.4885381}, {"type": "node", "id": 1487735528, "lat": 46.5787788, "lon": -120.4885401}, {"type": "node", "id": 1487735534, "lat": 46.5788673, "lon": -120.4883451}, {"type": "node", "id": 1487735536, "lat": 46.5780289, "lon": -120.4891759}, {"type": "node", "id": 1487735537, "lat": 46.5780208, "lon": -120.4883631}, {"type": "node", "id": 1487737772, "lat": 46.5788176, "lon": -120.4885392}, {"type": "node", "id": 2260734753, "lat": 46.555961, "lon": -120.4785365}, {"type": "node", "id": 4179081748, "lat": 46.5616353, "lon": -120.4999036}, {"type": "node", "id": 4179081751, "lat": 46.5616721, "lon": -120.5017463}, {"type": "node", "id": 4179081753, "lat": 46.5619033, "lon": -120.4997751}, {"type": "node", "id": 4179081754, "lat": 46.5619056, "lon": -120.4998921}, {"type": "node", "id": 4179081755, "lat": 46.5620317, "lon": -120.4997181}, {"type": "node", "id": 4179081756, "lat": 46.5620327, "lon": -120.4997696}, {"type": "node", "id": 4179081761, "lat": 46.5623687, "lon": -120.501462}, {"type": "node", "id": 4179081762, "lat": 46.5623738, "lon": -120.5017166}, {"type": "node", "id": 4179081763, "lat": 46.5623918, "lon": -120.4997027}, {"type": "node", "id": 4179081764, "lat": 46.5623931, "lon": -120.4997678}, {"type": "node", "id": 4179081765, "lat": 46.5624641, "lon": -120.4997648}, {"type": "node", "id": 4179081767, "lat": 46.5625415, "lon": -120.5003825}, {"type": "node", "id": 4179081768, "lat": 46.5625628, "lon": -120.5014538}, {"type": "node", "id": 4179081769, "lat": 46.5626067, "lon": -120.4999588}, {"type": "node", "id": 4179081771, "lat": 46.5626151, "lon": -120.5003794}, {"type": "node", "id": 4440616315, "lat": 46.5639715, "lon": -120.4709953}, {"type": "node", "id": 4440616330, "lat": 46.5635403, "lon": -120.4713542}, {"type": "node", "id": 4440616496, "lat": 46.5640166, "lon": -120.4713546}, {"type": "node", "id": 4905206733, "lat": 46.5693618, "lon": -120.4786694, "tags": {"brand": "Old Navy", "brand:wikidata": "Q2735242", "name": "Old Navy", "shop": "clothes"}}, {"type": "node", "id": 4934743857, "lat": 46.5738989, "lon": -120.4890435}, {"type": "node", "id": 4934743858, "lat": 46.5738955, "lon": -120.4887672}, {"type": "node", "id": 4934743859, "lat": 46.5737992, "lon": -120.4887697}, {"type": "node", "id": 4934743860, "lat": 46.5738025, "lon": -120.489046}, {"type": "node", "id": 4934743861, "lat": 46.57492, "lon": -120.4887223, "tags": {"brand": "Goodwill", "brand:wikidata": "Q5583655", "name": "Goodwill", "shop": "charity"}}, {"type": "node", "id": 5046902326, "lat": 46.5661724, "lon": -120.4744689, "tags": {"addr:city": "Union Gap", "addr:housenumber": "2500", "addr:postcode": "98903", "addr:state": "WA", "addr:street": "Rudkin Road", "brand": "Dick's Sporting Goods", "brand:wikidata": "Q5272601", "name": "Dick's Sporting Goods", "opening_hours": "Mo-Sa 09:00-21:00; Su 10:00-19:00", "phone": "+1-509-654-9111", "ref": "1291", "shop": "sports", "website": "https://stores.dickssportinggoods.com/wa/union-gap/1291/"}}, {"type": "node", "id": 5046927324, "lat": 46.5682957, "lon": -120.473035, "tags": {"amenity": "fuel", "brand": "Chevron", "brand:wikidata": "Q319642", "name": "Chevron", "name:en": "Shell"}}, {"type": "node", "id": 5046927622, "lat": 46.5755789, "lon": -120.4729962, "tags": {"name": "Complete Suite Furniture", "name:en": "Complete Suite Furniture", "shop": "furniture"}}, {"type": "node", "id": 5046927623, "lat": 46.5625702, "lon": -120.4759706, "tags": {"brand": "ampm", "brand:wikidata": "Q306960", "name": "ampm", "name:en": "ampm", "shop": "convenience"}}, {"type": "node", "id": 5046928721, "lat": 46.5627193, "lon": -120.4756524, "tags": {"amenity": "fuel", "brand": "Arco", "brand:wikidata": "Q304769", "name": "Arco", "name:en": "ARCO"}}, {"type": "node", "id": 5046928722, "lat": 46.5670802, "lon": -120.4736365}, {"type": "node", "id": 5150102189, "lat": 46.5773932, "lon": -120.4815244}, {"type": "node", "id": 5150102190, "lat": 46.5773911, "lon": -120.4810328}, {"type": "node", "id": 5150102191, "lat": 46.5771573, "lon": -120.4810349}, {"type": "node", "id": 5150102192, "lat": 46.5771594, "lon": -120.4815266}, {"type": "node", "id": 5616378518, "lat": 46.5635418, "lon": -120.4709856}, {"type": "node", "id": 5616378721, "lat": 46.5640144, "lon": -120.4709926}, {"type": "node", "id": 5616378723, "lat": 46.5635411, "lon": -120.4711646}, {"type": "node", "id": 5616378736, "lat": 46.5636345, "lon": -120.4709877}, {"type": "node", "id": 5879996491, "lat": 46.5705351, "lon": -120.5098343, "tags": {"amenity": "fast_food", "cuisine": "burger;american", "delivery": "no", "drive_through": "yes", "name": "Major's", "outdoor_seating": "no", "takeaway": "yes"}}, {"type": "node", "id": 5879996497, "lat": 46.5711618, "lon": -120.509846, "tags": {"amenity": "fuel", "brand": "Arco", "brand:wikidata": "Q304769", "name": "Arco"}}, {"type": "node", "id": 5879996498, "lat": 46.5719626, "lon": -120.5080488}, {"type": "node", "id": 5879996499, "lat": 46.5709411, "lon": -120.5092874}, {"type": "node", "id": 5879996500, "lat": 46.5709363, "lon": -120.5088344}, {"type": "node", "id": 5879996501, "lat": 46.5709314, "lon": -120.5079779}, {"type": "node", "id": 5879996502, "lat": 46.5710968, "lon": -120.5079921}, {"type": "node", "id": 5879996503, "lat": 46.5711212, "lon": -120.5086008}, {"type": "node", "id": 5879996504, "lat": 46.5710968, "lon": -120.5092874}, {"type": "node", "id": 5879996505, "lat": 46.5704253, "lon": -120.509195, "tags": {"addr:city": "Union Gap", "addr:housenumber": "1903", "addr:postcode": "98903", "addr:state": "WA", "addr:street": "South 3rd Avenue", "amenity": "fast_food", "brand": "Domino's", "brand:wikidata": "Q839466", "cuisine": "pizza", "delivery": "yes", "drive_through": "no", "name": "Domino's", "opening_hours": "Mo-Th 10:30-24:00; Fr-Sa 10:30-01:00; Su 10:30-24:00", "outdoor_seating": "no", "phone": "+1-509-453-3000", "ref": "7164", "short_name": "Domino's", "takeaway": "yes", "website": "https://pizza.dominos.com/washington/union-gap/1903-s-3rd-ave"}}, {"type": "node", "id": 5879996507, "lat": 46.5711358, "lon": -120.4857518, "tags": {"addr:city": "Union Gap", "addr:housenumber": "1201", "addr:postcode": "98903-1669", "addr:state": "WA", "addr:street": "East Washington Avenue", "branch": "Union Gap", "brand": "Petco", "brand:wikidata": "Q7171798", "name": "Petco", "opening_hours": "Mo-Sa 09:00-21:00; Su 10:00-19:00", "phone": "+1-509-457-1043", "ref": "1223", "shop": "pet", "website": "https://stores.petco.com/wa/uniongap/pet-supplies-uniongap-wa-1223.html"}}, {"type": "node", "id": 5879996511, "lat": 46.5686375, "lon": -120.4817072}, {"type": "node", "id": 5879996512, "lat": 46.5686149, "lon": -120.4822621}, {"type": "node", "id": 5879996513, "lat": 46.5687221, "lon": -120.4823188}, {"type": "node", "id": 5879996514, "lat": 46.5687232, "lon": -120.4826219}, {"type": "node", "id": 5879996515, "lat": 46.5700701, "lon": -120.4787153, "tags": {"addr:city": "Union Gap", "addr:housenumber": "1700", "addr:postcode": "98903-1665", "addr:state": "WA", "addr:street": "East Washington Avenue", "brand": "Michaels", "brand:wikidata": "Q6835667", "name": "Michaels", "opening_hours": "Mo-Sa 09:00-21:00; Su 10:00-19:00", "phone": "+1-509-594-4171", "ref": "5068", "shop": "craft", "website": "https://locations.michaels.com/wa/union-gap/5068"}}, {"type": "node", "id": 5879996516, "lat": 46.5697003, "lon": -120.4786854, "tags": {"addr:city": "Union Gap", "addr:housenumber": "1708", "addr:postcode": "98903", "addr:state": "WA", "addr:street": "East Washington Avenue", "brand": "Ross", "brand:wikidata": "Q3442791", "name": "Ross", "official_name": "Ross Dress for Less", "opening_hours": "Mo-Th 09:00-22:30; Fr-Sa 09:00-23:00; Su 09:00-22:00", "phone": "+1-509-248-7677", "ref": "598", "shop": "department_store"}}, {"type": "node", "id": 5879996517, "lat": 46.5691285, "lon": -120.4787858, "tags": {"brand": "Famous Footwear", "brand:wikidata": "Q5433457", "name": "Famous Footwear", "shop": "shoes"}}, {"type": "node", "id": 5879996518, "lat": 46.5688326, "lon": -120.4787904, "tags": {"addr:city": "Union Gap", "addr:housenumber": "1734", "addr:postcode": "98903", "addr:state": "WA", "addr:street": "East Washington Avenue", "alt_name": "Ulta Skin Bar", "beauty": "skin_care", "brand": "Ulta Beauty", "brand:wikidata": "Q7880076", "name": "Ulta Beauty", "opening_hours": "Mo-We 10:00-20:00; Th-Sa 10:00-21:00; Su 11:00-18:00", "payment:american_express": "yes", "payment:cash": "yes", "payment:contactless": "yes", "payment:debit_cards": "yes", "payment:discover_card": "yes", "payment:mastercard": "yes", "payment:visa": "yes", "phone": "+1-509-457-7280", "ref": "394", "shop": "beauty", "website": "https://www.ulta.com/stores/union-gap-wa-394"}}, {"type": "node", "id": 5879996520, "lat": 46.5699192, "lon": -120.480145, "tags": {"brand": "Carter's", "brand:wikidata": "Q5047083", "clothes": "babies;children", "name": "Carter's", "shop": "clothes"}}, {"type": "node", "id": 5879996533, "lat": 46.5691667, "lon": -120.4826185}, {"type": "node", "id": 5879996534, "lat": 46.5691598, "lon": -120.4807456}, {"type": "node", "id": 5879996535, "lat": 46.5689859, "lon": -120.4801563, "tags": {"brand": "GameStop", "brand:wikidata": "Q202210", "name": "GameStop", "shop": "video_games", "website": "https://www.gamestop.com/store/us/wa/union-gap/2332/valley-plaza-gamestop"}}, {"type": "node", "id": 5879996536, "lat": 46.5686894, "lon": -120.480156, "tags": {"alt_name": "Sally Beauty Supply", "brand": "Sally Beauty", "brand:wikidata": "Q7405065", "name": "Sally Beauty", "shop": "hairdresser_supply"}}, {"type": "node", "id": 5879996537, "lat": 46.5689224, "lon": -120.4801501, "tags": {"amenity": "restaurant", "cuisine": "mongolian_grill", "name": "Mongolian Grill"}}, {"type": "node", "id": 5879996538, "lat": 46.5683081, "lon": -120.4789054, "tags": {"brand": "rue21", "brand:wikidata": "Q7377762", "name": "rue21", "shop": "clothes"}}, {"type": "node", "id": 5879996539, "lat": 46.5684945, "lon": -120.4786712, "tags": {"brand": "Bed Bath & Beyond", "brand:wikidata": "Q813782", "name": "Bed Bath & Beyond", "shop": "houseware"}}, {"type": "node", "id": 5879996546, "lat": 46.5707742, "lon": -120.4810294}, {"type": "node", "id": 5879996571, "lat": 46.568165, "lon": -120.4827505}, {"type": "node", "id": 5879996572, "lat": 46.567596, "lon": -120.482762}, {"type": "node", "id": 5879996573, "lat": 46.5675909, "lon": -120.4822339}, {"type": "node", "id": 5879996574, "lat": 46.5677437, "lon": -120.4822308}, {"type": "node", "id": 5879996575, "lat": 46.5677479, "lon": -120.4826671}, {"type": "node", "id": 5879996576, "lat": 46.5680683, "lon": -120.4826606}, {"type": "node", "id": 5879996797, "lat": 46.5680643, "lon": -120.4822427}, {"type": "node", "id": 5879996798, "lat": 46.5681602, "lon": -120.4822408}, {"type": "node", "id": 5879996816, "lat": 46.5645737, "lon": -120.4744171, "tags": {"brand": "At Home", "brand:wikidata": "Q5522290", "name": "At Home", "shop": "houseware"}}, {"type": "node", "id": 5879996818, "lat": 46.5637013, "lon": -120.476899}, {"type": "node", "id": 5879996819, "lat": 46.5635245, "lon": -120.4771057}, {"type": "node", "id": 5879996821, "lat": 46.5638609, "lon": -120.476897}, {"type": "node", "id": 5879996823, "lat": 46.5677194, "lon": -120.478762, "tags": {"brand": "TJ Maxx", "brand:wikidata": "Q10860683", "name": "TJ Maxx", "shop": "department_store"}}, {"type": "node", "id": 5879996824, "lat": 46.5667458, "lon": -120.480479, "tags": {"brand": "Macy's", "brand:wikidata": "Q629269", "name": "Macy's", "opening_hours": "Su 11:00-19:00; Mo-Sa 10:00-21:00", "shop": "department_store", "toilets": "yes", "website": "https://www.macys.com/stores/wa/uniongap/valley-mall_437.html"}}, {"type": "node", "id": 5879996825, "lat": 46.5660598, "lon": -120.4786444, "tags": {"addr:city": "Union Gap", "addr:housenumber": "2551", "addr:postcode": "98903", "addr:state": "WA", "addr:street": "Main Street", "branch": "Union Gap", "brand": "Kohl's", "brand:wikidata": "Q967265", "name": "Kohl's", "opening_hours": "Mo-Th 09:00-20:00; Fr-Sa 09:00-21:00; Su 09:00-20:00", "phone": "+1-509-225-7850", "ref": "1410", "shop": "department_store", "toilets": "yes", "website": "https://www.kohls.com/stores/wa/uniongap-1410.shtml"}}, {"type": "node", "id": 5879996839, "lat": 46.563692, "lon": -120.475694, "tags": {"addr:city": "Union Gap", "addr:housenumber": "21", "addr:postcode": "98903", "addr:state": "WA", "addr:street": "East Valley Mall Boulevard", "amenity": "fast_food", "brand": "Panera Bread", "brand:wikidata": "Q7130852", "cuisine": "sandwich;bakery", "name": "Panera Bread", "opening_hours": "07:00-21:00", "phone": "+1-509-426-6090", "short_name": "Panera", "takeaway": "yes", "website": "https://locations.panerabread.com/wa/union-gap/21-e-valley-mall-blvd.html"}}, {"type": "node", "id": 5879996840, "lat": 46.5664729, "lon": -120.482775, "tags": {"amenity": "fast_food", "cuisine": "burger", "delivery": "no", "drive_through": "yes", "name": "Miner Burger", "outdoor_seating": "yes", "takeaway": "yes"}}, {"type": "node", "id": 5879996841, "lat": 46.5671293, "lon": -120.4831613, "tags": {"addr:city": "Yakima", "addr:housenumber": "2409", "addr:postcode": "98903", "addr:state": "WA", "addr:street": "South First", "addr:unit": "P-11", "amenity": "cafe", "branch": "Valley Mall", "brand": "Starbucks", "brand:wikidata": "Q37158", "cuisine": "coffee_shop", "name": "Starbucks", "official_name": "Starbucks Coffee", "phone": "+1-509-453-3301", "ref": "9513", "takeaway": "yes", "website": "https://www.starbucks.com/store-locator/store/9513/valley-mall-2409-south-first-p-11-yakima-wa-989031603-us"}}, {"type": "node", "id": 5879996844, "lat": 46.5678928, "lon": -120.4833651, "tags": {"amenity": "fast_food", "brand": "Krispy Kreme", "brand:wikidata": "Q1192805", "cuisine": "donut", "name": "Krispy Kreme", "takeaway": "yes"}}, {"type": "node", "id": 5879996867, "lat": 46.5658591, "lon": -120.4820087, "tags": {"amenity": "restaurant", "name": "Fuji"}}, {"type": "node", "id": 5991735315, "lat": 46.5565902, "lon": -120.4758668}, {"type": "node", "id": 5991735316, "lat": 46.5565886, "lon": -120.4754445}, {"type": "node", "id": 5991735317, "lat": 46.556175, "lon": -120.4754478}, {"type": "node", "id": 5991735318, "lat": 46.5561766, "lon": -120.47587}, {"type": "node", "id": 5991735319, "lat": 46.5575619, "lon": -120.4776071}, {"type": "node", "id": 5991735320, "lat": 46.5575596, "lon": -120.4770715}, {"type": "node", "id": 5991735322, "lat": 46.557418, "lon": -120.4776084}, {"type": "node", "id": 6177947179, "lat": 46.5709318, "lon": -120.5080443}, {"type": "node", "id": 6334840700, "lat": 46.565312, "lon": -120.4826235, "tags": {"name": "Cascade Valley Lube", "shop": "car_repair"}}, {"type": "node", "id": 6334840701, "lat": 46.5644865, "lon": -120.4817513, "tags": {"name": "GAP Auto Parts", "shop": "car_parts"}}, {"type": "node", "id": 6334840702, "lat": 46.5642846, "lon": -120.4813254, "tags": {"amenity": "restaurant", "name": "New York Teriyaki & Burger House"}}, {"type": "node", "id": 6334840703, "lat": 46.5639242, "lon": -120.4809394, "tags": {"name": "Lex Go Wireless Plus", "shop": "mobile_phone"}}, {"type": "node", "id": 6334840704, "lat": 46.5636987, "lon": -120.4807235, "tags": {"name": "Watermill", "shop": "yes"}}, {"type": "node", "id": 6334840705, "lat": 46.5634067, "lon": -120.4802908, "tags": {"amenity": "restaurant", "name": "Old Town Station"}}, {"type": "node", "id": 6344108533, "lat": 46.5716179, "lon": -120.4818615}, {"type": "node", "id": 6344108534, "lat": 46.5716944, "lon": -120.4818611}, {"type": "node", "id": 6344108535, "lat": 46.5716941, "lon": -120.4817184}, {"type": "node", "id": 6344108536, "lat": 46.5716115, "lon": -120.481423}, {"type": "node", "id": 6708505658, "lat": 46.5775105, "lon": -120.4884029, "tags": {"shop": "storage_rental"}}, {"type": "node", "id": 6708505779, "lat": 46.5726012, "lon": -120.5121811}, {"type": "node", "id": 6708505780, "lat": 46.572616, "lon": -120.5147165}, {"type": "node", "id": 6708505821, "lat": 46.5708526, "lon": -120.5146568}, {"type": "node", "id": 6708505822, "lat": 46.5708406, "lon": -120.5136148}, {"type": "node", "id": 6708505823, "lat": 46.5714326, "lon": -120.5132755}, {"type": "node", "id": 6708505824, "lat": 46.5714882, "lon": -120.5132746}, {"type": "node", "id": 6708505825, "lat": 46.5714935, "lon": -120.5121819}, {"type": "node", "id": 6708505832, "lat": 46.5714847, "lon": -120.5127946}, {"type": "node", "id": 6708505833, "lat": 46.571435, "lon": -120.5136057}, {"type": "node", "id": 6708560862, "lat": 46.5654666, "lon": -120.4958184, "tags": {"shop": "storage_rental"}}, {"type": "node", "id": 6708560864, "lat": 46.5643531, "lon": -120.497253, "tags": {"brand": "Toyota", "brand:wikidata": "Q53268", "name": "Yakima Toyota", "shop": "car"}}, {"type": "node", "id": 6708560883, "lat": 46.562691, "lon": -120.493787, "tags": {"amenity": "car_wash", "name": "Splash Express"}}, {"type": "node", "id": 6708592891, "lat": 46.562846, "lon": -120.4969942, "tags": {"amenity": "fuel", "brand": "Costco Gasoline", "brand:wikidata": "Q715583", "name": "Costco Gasoline", "website": "https://www.costco.com/warehouse-locations/union-gap-wa-1013.html"}}, {"type": "node", "id": 6708592892, "lat": 46.562336, "lon": -120.503135, "tags": {"brand": "GMC", "brand:wikidata": "Q28993", "name": "Yakima Chrysler Dodge Jeep Ram", "shop": "car"}}, {"type": "node", "id": 6708592970, "lat": 46.569506, "lon": -120.5107436, "tags": {"shop": "storage_rental"}}, {"type": "node", "id": 6708935006, "lat": 46.575671, "lon": -120.4887581, "tags": {"brand": "Dollar Tree", "brand:wikidata": "Q5289230", "check_date": "2024-07-11", "check_date:opening_hours": "2024-07-11", "name": "Dollar Tree", "opening_hours": "Mo-Su 09:00-21:00", "shop": "variety_store", "website": "https://www.dollartree.com/locations/wa/yakima/7406/"}}, {"type": "node", "id": 6708935007, "lat": 46.5754694, "lon": -120.488749, "tags": {"brand": "Boot Barn", "brand:wikidata": "Q109825187", "clothes": "western", "name": "Boot Barn", "shop": "clothes"}}, {"type": "node", "id": 6708935008, "lat": 46.5744241, "lon": -120.4886961, "tags": {"addr:city": "Yakima", "addr:housenumber": "1911", "addr:postcode": "98903", "addr:state": "WA", "addr:street": "South 1st Street", "brand": "Harbor Freight Tools", "brand:wikidata": "Q5654601", "name": "Harbor Freight Tools", "opening_hours": "Mo-Sa 08:00-20:00; Su 09:00-18:00", "phone": "+1-509-452-0513", "shop": "hardware", "website": "https://www.harborfreight.com/storelocator/1911-south-1st-street-yakima-98903?number=533"}}, {"type": "node", "id": 6708935026, "lat": 46.573965, "lon": -120.4803724}, {"type": "node", "id": 6708935027, "lat": 46.5739587, "lon": -120.4778952}, {"type": "node", "id": 6708935028, "lat": 46.572225, "lon": -120.4778785}, {"type": "node", "id": 6708935029, "lat": 46.5722347, "lon": -120.4797375}, {"type": "node", "id": 6708935033, "lat": 46.5731353, "lon": -120.4803769}, {"type": "node", "id": 6708935052, "lat": 46.5715848, "lon": -120.4725851}, {"type": "node", "id": 6708935054, "lat": 46.5721421, "lon": -120.4725956}, {"type": "node", "id": 6708935055, "lat": 46.5721563, "lon": -120.4747143}, {"type": "node", "id": 6708935056, "lat": 46.571593, "lon": -120.474719}, {"type": "node", "id": 6708935102, "lat": 46.5745631, "lon": -120.4733436, "tags": {"name": "Alliance Repair", "shop": "car_repair"}}, {"type": "node", "id": 6708935103, "lat": 46.5737276, "lon": -120.4728226, "tags": {"name": "Spencer Fluid Power", "shop": "trade", "trade": "hydraulic_equipment"}}, {"type": "node", "id": 6708935207, "lat": 46.5718858, "lon": -120.4783587}, {"type": "node", "id": 6708935208, "lat": 46.5722028, "lon": -120.478353}, {"type": "node", "id": 6708935209, "lat": 46.5721988, "lon": -120.4778846}, {"type": "node", "id": 6708935210, "lat": 46.5718818, "lon": -120.4778903}, {"type": "node", "id": 6708935211, "lat": 46.5739369, "lon": -120.4778734}, {"type": "node", "id": 6927747273, "lat": 46.5729902, "lon": -120.481642}, {"type": "node", "id": 6927747274, "lat": 46.5729911, "lon": -120.4818189}, {"type": "node", "id": 6927747275, "lat": 46.5728284, "lon": -120.4818206}, {"type": "node", "id": 6927747276, "lat": 46.5728282, "lon": -120.4817727}, {"type": "node", "id": 6927747277, "lat": 46.572786, "lon": -120.4817731}, {"type": "node", "id": 6927747278, "lat": 46.5727834, "lon": -120.4817863}, {"type": "node", "id": 6927747279, "lat": 46.5726215, "lon": -120.4816197}, {"type": "node", "id": 6927747280, "lat": 46.5725915, "lon": -120.4816201}, {"type": "node", "id": 6927747281, "lat": 46.5725872, "lon": -120.4809329}, {"type": "node", "id": 6927747282, "lat": 46.5726199, "lon": -120.4809325}, {"type": "node", "id": 6927747283, "lat": 46.572645, "lon": -120.4807582}, {"type": "node", "id": 6927747284, "lat": 46.5726189, "lon": -120.4807586}, {"type": "node", "id": 6927763685, "lat": 46.5728191, "lon": -120.4806021}, {"type": "node", "id": 6927763686, "lat": 46.572819, "lon": -120.4805702}, {"type": "node", "id": 6927763687, "lat": 46.5729502, "lon": -120.4805687}, {"type": "node", "id": 6927763688, "lat": 46.572951, "lon": -120.4807213}, {"type": "node", "id": 6927763689, "lat": 46.5729759, "lon": -120.480721}, {"type": "node", "id": 6927763690, "lat": 46.5729767, "lon": -120.4808945}, {"type": "node", "id": 7039094943, "lat": 46.5610737, "lon": -120.4959837}, {"type": "node", "id": 7039094944, "lat": 46.5610659, "lon": -120.4946128}, {"type": "node", "id": 7039094945, "lat": 46.5604602, "lon": -120.4946202}, {"type": "node", "id": 7039094946, "lat": 46.5604635, "lon": -120.495182}, {"type": "node", "id": 7039094947, "lat": 46.5603499, "lon": -120.4951834}, {"type": "node", "id": 7039094948, "lat": 46.5603217, "lon": -120.4954936}, {"type": "node", "id": 7039094949, "lat": 46.5604103, "lon": -120.4956237}, {"type": "node", "id": 7039094950, "lat": 46.5603503, "lon": -120.4957101}, {"type": "node", "id": 7039094951, "lat": 46.5603507, "lon": -120.4957786}, {"type": "node", "id": 7039094952, "lat": 46.5604628, "lon": -120.4957773}, {"type": "node", "id": 7039094953, "lat": 46.560464, "lon": -120.4959911}, {"type": "node", "id": 7039094954, "lat": 46.5603507, "lon": -120.495314}, {"type": "node", "id": 7039094955, "lat": 46.5603207, "lon": -120.4953143}, {"type": "node", "id": 7039116461, "lat": 46.5628161, "lon": -120.4960493}, {"type": "node", "id": 7039116462, "lat": 46.5628199, "lon": -120.4958676}, {"type": "node", "id": 7039116463, "lat": 46.5625773, "lon": -120.4958872}, {"type": "node", "id": 7039116464, "lat": 46.5625848, "lon": -120.4960138}, {"type": "node", "id": 7708478189, "lat": 46.5724411, "lon": -120.4729481, "tags": {"name": "Clayton Homes", "shop": "trade"}}, {"type": "node", "id": 7708479689, "lat": 46.5682836, "lon": -120.4734174, "tags": {"amenity": "restaurant", "name": "Gearjammer Restaurant"}}, {"type": "node", "id": 7708479690, "lat": 46.577267, "lon": -120.4728141, "tags": {"name": "Pac Van", "office": "company"}}, {"type": "node", "id": 9053455615, "lat": 46.5655801, "lon": -120.474476, "tags": {"addr:city": "Union Gap", "addr:housenumber": "2520", "addr:postcode": "98903", "addr:state": "WA", "addr:street": "Rudkin Road", "alt_name": "Burlington Coat Factory", "brand": "Burlington", "brand:wikidata": "Q4999220", "name": "Burlington", "opening_hours": "Mo-Th 08:00-24:00; Fr-Sa 08:00-23:30; Su 08:00-23:00", "phone": "+1-509-452-8262", "ref": "881", "shop": "department_store", "toilets": "yes", "website": "https://stores.burlington.com/wa/union-gap/881"}}, {"type": "node", "id": 9156192105, "lat": 46.5570605, "lon": -120.475044, "tags": {"amenity": "fuel", "brand": "Shell", "brand:wikidata": "Q110716465", "compressed_air": "yes", "name": "Shell"}}, {"type": "node", "id": 9156192106, "lat": 46.5570009, "lon": -120.4746841, "tags": {"check_date": "2025-10-11", "name": "BJ's Get n Go", "shop": "convenience"}}, {"type": "node", "id": 9156192107, "lat": 46.5586614, "lon": -120.4762235, "tags": {"shop": "caravan"}}, {"type": "node", "id": 9156192120, "lat": 46.5603989, "lon": -120.4761567, "tags": {"shop": "caravan"}}, {"type": "node", "id": 9156192140, "lat": 46.5642613, "lon": -120.48008, "tags": {"amenity": "pharmacy", "brand": "Rite Aid", "brand:wikidata": "Q3433273", "check_date": "2024-06-19", "dispensing": "yes", "healthcare": "pharmacy", "name": "Rite Aid", "website": "https://www.riteaid.com/locations/wa/union-gap/2519-main-street.html"}}, {"type": "node", "id": 9156192157, "lat": 46.5627624, "lon": -120.4797876, "tags": {"name": "Frank's Point", "shop": "yes"}}, {"type": "node", "id": 9156192158, "lat": 46.5626066, "lon": -120.4797063, "tags": {"name": "Drive A Car", "shop": "car"}}, {"type": "node", "id": 9156192186, "lat": 46.5581992, "lon": -120.5092876, "tags": {"amenity": "fuel"}}, {"type": "node", "id": 9156192187, "lat": 46.5583984, "lon": -120.5091696, "tags": {"shop": "convenience"}}, {"type": "node", "id": 9156222707, "lat": 46.5580367, "lon": -120.4956267, "tags": {"addr:city": "Union Gap", "addr:housenumber": "1250", "addr:state": "WA", "addr:street": "Alder Street", "name": "Washington Department of Ecology - Southwest Region Office", "office": "government", "phone": "+1-509-575-2490", "website": "https://ecology.wa.gov/about-us/contact-us"}}, {"type": "node", "id": 9156222708, "lat": 46.5593318, "lon": -120.4941954, "tags": {"name": "Van Doren", "office": "company"}}, {"type": "node", "id": 9156222709, "lat": 46.5582272, "lon": -120.4970783, "tags": {"name": "BDI", "office": "company"}}, {"type": "node", "id": 9156246122, "lat": 46.5628075, "lon": -120.4953948, "tags": {"brand": "Sherwin-Williams", "brand:wikidata": "Q48881", "name": "Sherwin-Williams", "shop": "paint"}}, {"type": "node", "id": 9156246123, "lat": 46.5627568, "lon": -120.4925118, "tags": {"name": "The Slow Burn Real Estate", "office": "estate_agent"}}, {"type": "node", "id": 9156246124, "lat": 46.5624179, "lon": -120.4917395, "tags": {"name": "Wesrock", "office": "company"}}, {"type": "node", "id": 9156246125, "lat": 46.5647559, "lon": -120.5027565, "tags": {"name": "McKinney Glass", "office": "company"}}, {"type": "node", "id": 9156246380, "lat": 46.5780204, "lon": -120.4727116, "tags": {"name": "H&S Freight Agents", "office": "company"}}, {"type": "node", "id": 9207867915, "lat": 46.5618639, "lon": -120.4998107, "tags": {"access": "customers", "amenity": "compressed_air", "description": "Nitrogen", "fee": "no", "operator": "Costco"}}, {"type": "node", "id": 9207867916, "lat": 46.561828, "lon": -120.4998286, "tags": {"access": "customers", "amenity": "compressed_air", "description": "Nitrogen", "fee": "no", "operator": "Costco"}}, {"type": "node", "id": 9266721706, "lat": 46.5670779, "lon": -120.475612, "tags": {"addr:city": "Union Gap", "addr:housenumber": "1905", "addr:postcode": "98903", "addr:state": "WA", "addr:street": "Rainier Place", "contact:facebook": "https://www.facebook.com/brumbackottem/", "contact:phone": "+1-509-424-5194", "contact:website": "https://brumbackottem.com", "contact:youtube": "https://www.youtube.com/watch?v=aVeW6dYZ2jk", "name": "Brumback & Ottem Injury Law", "office": "lawyer", "opening_hours": "Mo-Th 08:00-17:30; Fr 08:00-17:00; Sa,Su off"}}, {"type": "node", "id": 9470830808, "lat": 46.5679861, "lon": -120.4818211}, {"type": "node", "id": 9470830809, "lat": 46.5679806, "lon": -120.4811418}, {"type": "node", "id": 9470844278, "lat": 46.5679462, "lon": -120.4811424}, {"type": "node", "id": 9496248166, "lat": 46.5713867, "lon": -120.5090792}, {"type": "node", "id": 9496248167, "lat": 46.5719497, "lon": -120.5080488}, {"type": "node", "id": 9496248168, "lat": 46.5711518, "lon": -120.5083935}, {"type": "node", "id": 9496248169, "lat": 46.5711521, "lon": -120.5080461}, {"type": "node", "id": 9496248170, "lat": 46.5711248, "lon": -120.508046}, {"type": "node", "id": 9496248171, "lat": 46.5711245, "lon": -120.5083935}, {"type": "node", "id": 9496248172, "lat": 46.5719497, "lon": -120.5079907}, {"type": "node", "id": 9496248173, "lat": 46.5714444, "lon": -120.5079898}, {"type": "node", "id": 9496248174, "lat": 46.5711522, "lon": -120.5079893}, {"type": "node", "id": 9496248175, "lat": 46.5711512, "lon": -120.5090788}, {"type": "node", "id": 9496248176, "lat": 46.5713867, "lon": -120.5091166}, {"type": "node", "id": 9496248177, "lat": 46.5719616, "lon": -120.5091177}, {"type": "node", "id": 9496341631, "lat": 46.5710209, "lon": -120.5100171}, {"type": "node", "id": 9496342261, "lat": 46.5708826, "lon": -120.5097689}, {"type": "node", "id": 9496342948, "lat": 46.5710201, "lon": -120.5097681}, {"type": "node", "id": 9496343068, "lat": 46.5708834, "lon": -120.5100179}, {"type": "node", "id": 9498663215, "lat": 46.5624956, "lon": -120.4747685}, {"type": "node", "id": 9498663216, "lat": 46.5626858, "lon": -120.4746659}, {"type": "node", "id": 9498666017, "lat": 46.5626861, "lon": -120.4748244}, {"type": "node", "id": 9498666018, "lat": 46.5627247, "lon": -120.4746658}, {"type": "node", "id": 9498666019, "lat": 46.5627249, "lon": -120.4748243}, {"type": "node", "id": 9498666020, "lat": 46.5624635, "lon": -120.4747687}, {"type": "node", "id": 9498666021, "lat": 46.5624952, "lon": -120.47455}, {"type": "node", "id": 9498666051, "lat": 46.5574382, "lon": -120.4772016}, {"type": "node", "id": 9498666052, "lat": 46.5574188, "lon": -120.477111}, {"type": "node", "id": 9498666053, "lat": 46.557419, "lon": -120.4771627}, {"type": "node", "id": 9498666054, "lat": 46.5574391, "lon": -120.4774173}, {"type": "node", "id": 9498666055, "lat": 46.5573973, "lon": -120.4771112}, {"type": "node", "id": 9498666056, "lat": 46.5573975, "lon": -120.4771629}, {"type": "node", "id": 9498666057, "lat": 46.5574192, "lon": -120.4772018}, {"type": "node", "id": 9498666058, "lat": 46.5574186, "lon": -120.4770728}, {"type": "node", "id": 9498666061, "lat": 46.5574172, "lon": -120.4774175}, {"type": "node", "id": 9498666185, "lat": 46.560401, "lon": -120.473011}, {"type": "node", "id": 9498666309, "lat": 46.560517, "lon": -120.472952}, {"type": "node", "id": 9498666333, "lat": 46.560591, "lon": -120.474528}, {"type": "node", "id": 9498666349, "lat": 46.560517, "lon": -120.473011}, {"type": "node", "id": 9498666519, "lat": 46.560822, "lon": -120.474176}, {"type": "node", "id": 9498666655, "lat": 46.560401, "lon": -120.472947}, {"type": "node", "id": 9498666739, "lat": 46.560737, "lon": -120.474969}, {"type": "node", "id": 9498666818, "lat": 46.560737, "lon": -120.474911}, {"type": "node", "id": 9498666950, "lat": 46.560619, "lon": -120.474971}, {"type": "node", "id": 9498667035, "lat": 46.560696, "lon": -120.472951}, {"type": "node", "id": 9498667087, "lat": 46.560328, "lon": -120.472574}, {"type": "node", "id": 9498667439, "lat": 46.560803, "lon": -120.474512}, {"type": "node", "id": 9498667744, "lat": 46.560328, "lon": -120.472377}, {"type": "node", "id": 9498667831, "lat": 46.560569, "lon": -120.474528}, {"type": "node", "id": 9498667876, "lat": 46.560583, "lon": -120.472595}, {"type": "node", "id": 9498668106, "lat": 46.560361, "lon": -120.472604}, {"type": "node", "id": 9498668261, "lat": 46.560595, "lon": -120.474915}, {"type": "node", "id": 9498668269, "lat": 46.560619, "lon": -120.474915}, {"type": "node", "id": 9498668419, "lat": 46.560582, "lon": -120.472376}, {"type": "node", "id": 9498668441, "lat": 46.560566, "lon": -120.474181}, {"type": "node", "id": 9498668448, "lat": 46.560361, "lon": -120.472574}, {"type": "node", "id": 9498668491, "lat": 46.560825, "lon": -120.474511}, {"type": "node", "id": 9498668574, "lat": 46.560299, "lon": -120.472604}, {"type": "node", "id": 9498668747, "lat": 46.560807, "lon": -120.47491}, {"type": "node", "id": 9498668788, "lat": 46.560299, "lon": -120.472947}, {"type": "node", "id": 9498668913, "lat": 46.560695, "lon": -120.472594}, {"type": "node", "id": 9498680194, "lat": 46.5558125, "lon": -120.4814235}, {"type": "node", "id": 9498680206, "lat": 46.5543411, "lon": -120.4814329}, {"type": "node", "id": 9498680207, "lat": 46.5543398, "lon": -120.4802804}, {"type": "node", "id": 9498680208, "lat": 46.5553224, "lon": -120.4802741}, {"type": "node", "id": 9498680209, "lat": 46.5553233, "lon": -120.4805781}, {"type": "node", "id": 9498680210, "lat": 46.5558785, "lon": -120.4805746}, {"type": "node", "id": 9498680211, "lat": 46.5558811, "lon": -120.481423}, {"type": "node", "id": 9498680212, "lat": 46.557205, "lon": -120.4800788}, {"type": "node", "id": 9498680213, "lat": 46.5572318, "lon": -120.4800653}, {"type": "node", "id": 9498680214, "lat": 46.5572447, "lon": -120.4800305}, {"type": "node", "id": 9498680215, "lat": 46.5572419, "lon": -120.4799473}, {"type": "node", "id": 9498680216, "lat": 46.5572235, "lon": -120.4799125}, {"type": "node", "id": 9498702917, "lat": 46.5571995, "lon": -120.4786237}, {"type": "node", "id": 9498702918, "lat": 46.5572059, "lon": -120.4785794}, {"type": "node", "id": 9498702919, "lat": 46.5572041, "lon": -120.4785526}, {"type": "node", "id": 9498702920, "lat": 46.5571939, "lon": -120.4785191}, {"type": "node", "id": 9498702921, "lat": 46.5571644, "lon": -120.4784922}, {"type": "node", "id": 9498702922, "lat": 46.5568186, "lon": -120.4785009}, {"type": "node", "id": 9498702923, "lat": 46.5567799, "lon": -120.4785472}, {"type": "node", "id": 9498702924, "lat": 46.555961, "lon": -120.4779464}, {"type": "node", "id": 9498702925, "lat": 46.5551476, "lon": -120.4779491}, {"type": "node", "id": 9498702926, "lat": 46.5551494, "lon": -120.4800466}, {"type": "node", "id": 9498829133, "lat": 46.5646713, "lon": -120.4788805}, {"type": "node", "id": 9498829134, "lat": 46.5658731, "lon": -120.4801883}, {"type": "node", "id": 9498829135, "lat": 46.5658503, "lon": -120.4802315}, {"type": "node", "id": 9498829136, "lat": 46.5659652, "lon": -120.4803597}, {"type": "node", "id": 9498829137, "lat": 46.5659864, "lon": -120.4803195}, {"type": "node", "id": 9498829138, "lat": 46.5660062, "lon": -120.4803416}, {"type": "node", "id": 9498829139, "lat": 46.5659955, "lon": -120.4803619}, {"type": "node", "id": 9498829140, "lat": 46.5660832, "lon": -120.4804598}, {"type": "node", "id": 9498829141, "lat": 46.5660953, "lon": -120.4804367}, {"type": "node", "id": 9498829142, "lat": 46.5661361, "lon": -120.4804822}, {"type": "node", "id": 9498829143, "lat": 46.5661616, "lon": -120.4804338}, {"type": "node", "id": 9498829144, "lat": 46.5663428, "lon": -120.4806361}, {"type": "node", "id": 9498829145, "lat": 46.5663382, "lon": -120.4806448}, {"type": "node", "id": 9498829146, "lat": 46.5664601, "lon": -120.4807809}, {"type": "node", "id": 9498829147, "lat": 46.566464, "lon": -120.4807736}, {"type": "node", "id": 9498829148, "lat": 46.5667998, "lon": -120.4806847}, {"type": "node", "id": 9498829149, "lat": 46.5668067, "lon": -120.4806925}, {"type": "node", "id": 9498829150, "lat": 46.5669009, "lon": -120.4805139}, {"type": "node", "id": 9498829151, "lat": 46.5668968, "lon": -120.4805093}, {"type": "node", "id": 9498829152, "lat": 46.567048, "lon": -120.4802226}, {"type": "node", "id": 9498829153, "lat": 46.5668635, "lon": -120.4800167}, {"type": "node", "id": 9498829154, "lat": 46.56687, "lon": -120.4800044}, {"type": "node", "id": 9498829155, "lat": 46.5667455, "lon": -120.4798654}, {"type": "node", "id": 9498829156, "lat": 46.5667421, "lon": -120.4798718}, {"type": "node", "id": 9498829157, "lat": 46.566779, "lon": -120.4796709}, {"type": "node", "id": 9498829158, "lat": 46.5666442, "lon": -120.4795205}, {"type": "node", "id": 9498829159, "lat": 46.5664691, "lon": -120.4798524}, {"type": "node", "id": 9498829160, "lat": 46.5664459, "lon": -120.4798266}, {"type": "node", "id": 9498829161, "lat": 46.5664643, "lon": -120.4797919}, {"type": "node", "id": 9498829162, "lat": 46.5664494, "lon": -120.4797753}, {"type": "node", "id": 9498829163, "lat": 46.5664742, "lon": -120.4797283}, {"type": "node", "id": 9498829164, "lat": 46.566441, "lon": -120.4796913}, {"type": "node", "id": 9498829165, "lat": 46.5664133, "lon": -120.4793434}, {"type": "node", "id": 9498829166, "lat": 46.5663477, "lon": -120.4794677}, {"type": "node", "id": 9498829167, "lat": 46.5661494, "lon": -120.4792464}, {"type": "node", "id": 9498829168, "lat": 46.566177, "lon": -120.479194}, {"type": "node", "id": 9498829169, "lat": 46.5661015, "lon": -120.4791096}, {"type": "node", "id": 9498829170, "lat": 46.5659925, "lon": -120.4793163}, {"type": "node", "id": 9498829171, "lat": 46.5658286, "lon": -120.4791334}, {"type": "node", "id": 9498829172, "lat": 46.5658404, "lon": -120.4791111}, {"type": "node", "id": 9498829173, "lat": 46.5659897, "lon": -120.4792778}, {"type": "node", "id": 9498829174, "lat": 46.566103, "lon": -120.4790631}, {"type": "node", "id": 9498829175, "lat": 46.5664058, "lon": -120.4790901}, {"type": "node", "id": 9498829176, "lat": 46.5664936, "lon": -120.4791881}, {"type": "node", "id": 9498829177, "lat": 46.5665326, "lon": -120.4791142}, {"type": "node", "id": 9498829178, "lat": 46.5664473, "lon": -120.4790191}, {"type": "node", "id": 9498829179, "lat": 46.5662073, "lon": -120.478407}, {"type": "node", "id": 9498829180, "lat": 46.5662207, "lon": -120.4783816}, {"type": "node", "id": 9498829181, "lat": 46.5660428, "lon": -120.478183}, {"type": "node", "id": 9498829182, "lat": 46.5660341, "lon": -120.4781994}, {"type": "node", "id": 9498829183, "lat": 46.5655041, "lon": -120.4787396}, {"type": "node", "id": 9498829184, "lat": 46.5656634, "lon": -120.4789173}, {"type": "node", "id": 9498829185, "lat": 46.5656526, "lon": -120.4789377}, {"type": "node", "id": 9498829186, "lat": 46.5654825, "lon": -120.4787479}, {"type": "node", "id": 9498829187, "lat": 46.5651773, "lon": -120.4779579}, {"type": "node", "id": 9498829188, "lat": 46.5651919, "lon": -120.4779302}, {"type": "node", "id": 9498829189, "lat": 46.5651905, "lon": -120.4771117}, {"type": "node", "id": 9498829190, "lat": 46.5652072, "lon": -120.4770801}, {"type": "node", "id": 9498829191, "lat": 46.5650972, "lon": -120.4769574}, {"type": "node", "id": 9498829192, "lat": 46.5650801, "lon": -120.4769899}, {"type": "node", "id": 9498829193, "lat": 46.5644941, "lon": -120.4775107}, {"type": "node", "id": 9498829194, "lat": 46.5644808, "lon": -120.4774958}, {"type": "node", "id": 9498829195, "lat": 46.5644366, "lon": -120.4775797}, {"type": "node", "id": 9498829196, "lat": 46.5644545, "lon": -120.4775997}, {"type": "node", "id": 9498829197, "lat": 46.5646148, "lon": -120.4788174}, {"type": "node", "id": 9498829198, "lat": 46.5670209, "lon": -120.4732197}, {"type": "node", "id": 9498829199, "lat": 46.5669236, "lon": -120.473221}, {"type": "node", "id": 9498829200, "lat": 46.5669235, "lon": -120.4732076}, {"type": "node", "id": 9498829201, "lat": 46.5670208, "lon": -120.4732063}, {"type": "node", "id": 9498829216, "lat": 46.5636349, "lon": -120.4761511}, {"type": "node", "id": 9498830017, "lat": 46.5636347, "lon": -120.4761274}, {"type": "node", "id": 9498830018, "lat": 46.5636041, "lon": -120.4770924}, {"type": "node", "id": 9498830019, "lat": 46.5636042, "lon": -120.4771047}, {"type": "node", "id": 9498830020, "lat": 46.5635229, "lon": -120.4768365}, {"type": "node", "id": 9498830021, "lat": 46.5635083, "lon": -120.4768367}, {"type": "node", "id": 9498830022, "lat": 46.5635073, "lon": -120.4766701}, {"type": "node", "id": 9498830023, "lat": 46.5635178, "lon": -120.47667}, {"type": "node", "id": 9498830024, "lat": 46.5635157, "lon": -120.4763152}, {"type": "node", "id": 9498830025, "lat": 46.5635056, "lon": -120.4763153}, {"type": "node", "id": 9498830060, "lat": 46.5707739, "lon": -120.481005}, {"type": "node", "id": 9498830061, "lat": 46.5707725, "lon": -120.4808707}, {"type": "node", "id": 9498830062, "lat": 46.5708115, "lon": -120.4808698}, {"type": "node", "id": 9498830063, "lat": 46.5708129, "lon": -120.4810041}, {"type": "node", "id": 9498830064, "lat": 46.5675776, "lon": -120.4818281}, {"type": "node", "id": 9498830065, "lat": 46.5677756, "lon": -120.4808308}, {"type": "node", "id": 9498830066, "lat": 46.5676573, "lon": -120.4808328}, {"type": "node", "id": 9498830067, "lat": 46.5677752, "lon": -120.4807889}, {"type": "node", "id": 9498830068, "lat": 46.567657, "lon": -120.4807909}, {"type": "node", "id": 9498830069, "lat": 46.5675696, "lon": -120.4808343}, {"type": "node", "id": 9498830070, "lat": 46.5679437, "lon": -120.4808279}, {"type": "node", "id": 9498830071, "lat": 46.5675721, "lon": -120.4811488}, {"type": "node", "id": 9498830092, "lat": 46.5702122, "lon": -120.4809943}, {"type": "node", "id": 9498830093, "lat": 46.5702104, "lon": -120.4808143}, {"type": "node", "id": 9498830094, "lat": 46.5700709, "lon": -120.4808451}, {"type": "node", "id": 9498830095, "lat": 46.5700718, "lon": -120.4809346}, {"type": "node", "id": 9498830096, "lat": 46.5700145, "lon": -120.4808462}, {"type": "node", "id": 9498830097, "lat": 46.5700154, "lon": -120.4809357}, {"type": "node", "id": 9498830098, "lat": 46.5702571, "lon": -120.4808133}, {"type": "node", "id": 9498830099, "lat": 46.5702588, "lon": -120.4809934}, {"type": "node", "id": 9498830100, "lat": 46.5702133, "lon": -120.4811106}, {"type": "node", "id": 9498830101, "lat": 46.5702096, "lon": -120.4807237}, {"type": "node", "id": 9498830102, "lat": 46.5700698, "lon": -120.4807265}, {"type": "node", "id": 9498830103, "lat": 46.5700735, "lon": -120.4811134}, {"type": "node", "id": 9498830144, "lat": 46.5691606, "lon": -120.4810011}, {"type": "node", "id": 9498830145, "lat": 46.5691617, "lon": -120.4813967}, {"type": "node", "id": 9498830146, "lat": 46.569191, "lon": -120.4812414}, {"type": "node", "id": 9498830147, "lat": 46.5691898, "lon": -120.4810008}, {"type": "node", "id": 9498830148, "lat": 46.5692006, "lon": -120.4812413}, {"type": "node", "id": 9498830149, "lat": 46.5692014, "lon": -120.4813962}, {"type": "node", "id": 9498833260, "lat": 46.566185, "lon": -120.483248}, {"type": "node", "id": 9498833261, "lat": 46.566091, "lon": -120.483185}, {"type": "node", "id": 9498833262, "lat": 46.566038, "lon": -120.48335}, {"type": "node", "id": 9498833263, "lat": 46.566132, "lon": -120.483414}, {"type": "node", "id": 9588025707, "lat": 46.5627845, "lon": -120.4766358}, {"type": "node", "id": 9588025708, "lat": 46.5627837, "lon": -120.4765384}, {"type": "node", "id": 9588025709, "lat": 46.562798, "lon": -120.4766358}, {"type": "node", "id": 9588025710, "lat": 46.5627979, "lon": -120.4765383}, {"type": "node", "id": 9588025711, "lat": 46.5626468, "lon": -120.476721}, {"type": "node", "id": 9588025712, "lat": 46.5626467, "lon": -120.4766724}, {"type": "node", "id": 9864625218, "lat": 46.5656531, "lon": -120.472827, "tags": {"amenity": "cafe", "name": "Espresso"}}, {"type": "node", "id": 9864625219, "lat": 46.5752668, "lon": -120.4727211, "tags": {"name": "Lacy Roofing", "office": "company"}}, {"type": "node", "id": 9864625317, "lat": 46.5652829, "lon": -120.4728622, "tags": {"name": "A&L Truck Supply", "shop": "car_parts"}}, {"type": "node", "id": 10115395170, "lat": 46.5727932, "lon": -120.4854209}, {"type": "node", "id": 10115395171, "lat": 46.5727513, "lon": -120.4854217}, {"type": "node", "id": 10698965391, "lat": 46.5623164, "lon": -120.4780778}, {"type": "node", "id": 10698965392, "lat": 46.5625045, "lon": -120.4777131}, {"type": "node", "id": 10698965393, "lat": 46.5626078, "lon": -120.4778257}, {"type": "node", "id": 10698965394, "lat": 46.5624197, "lon": -120.4781905}, {"type": "node", "id": 10698965395, "lat": 46.562523, "lon": -120.478456}, {"type": "node", "id": 10698965396, "lat": 46.5628051, "lon": -120.4779089}, {"type": "node", "id": 10698965397, "lat": 46.5628494, "lon": -120.4779571}, {"type": "node", "id": 10698965398, "lat": 46.5625672, "lon": -120.4785043}, {"type": "node", "id": 10698977103, "lat": 46.5626098, "lon": -120.4960107}, {"type": "node", "id": 10698977104, "lat": 46.5627569, "lon": -120.4958754}, {"type": "node", "id": 10698977105, "lat": 46.5628123, "lon": -120.4959855}, {"type": "node", "id": 10698977106, "lat": 46.5628267, "lon": -120.4959837}, {"type": "node", "id": 10698977107, "lat": 46.5627563, "lon": -120.4958649}, {"type": "node", "id": 10698977108, "lat": 46.5626135, "lon": -120.4960745}, {"type": "node", "id": 10701285815, "lat": 46.5738283, "lon": -120.4890453}, {"type": "node", "id": 10701285816, "lat": 46.5738696, "lon": -120.4890442}, {"type": "node", "id": 10701285817, "lat": 46.5738698, "lon": -120.4890591}, {"type": "node", "id": 10701285818, "lat": 46.5738285, "lon": -120.4890601}, {"type": "node", "id": 10701285888, "lat": 46.5668954, "lon": -120.4765517, "tags": {"name": "76 gas station", "shop": "convenience"}}, {"type": "node", "id": 10701285889, "lat": 46.5667884, "lon": -120.4765785, "tags": {"amenity": "fuel", "compressed_air": "yes", "name": "76"}}, {"type": "node", "id": 10701286990, "lat": 46.5785232, "lon": -120.4891654}, {"type": "node", "id": 10701286991, "lat": 46.5786283, "lon": -120.4891632}, {"type": "node", "id": 10701286992, "lat": 46.5781238, "lon": -120.4891739}, {"type": "node", "id": 10701286993, "lat": 46.5782392, "lon": -120.4891714}, {"type": "node", "id": 10701286994, "lat": 46.5782398, "lon": -120.489228}, {"type": "node", "id": 10701286995, "lat": 46.5781244, "lon": -120.4892305}, {"type": "node", "id": 10701286996, "lat": 46.5786286, "lon": -120.4891933}, {"type": "node", "id": 10701286997, "lat": 46.5785236, "lon": -120.4891956}, {"type": "node", "id": 10712730846, "lat": 46.5700097, "lon": -120.4824646}, {"type": "node", "id": 10712730847, "lat": 46.570011, "lon": -120.4826596}, {"type": "node", "id": 10712730848, "lat": 46.5699995, "lon": -120.4826598}, {"type": "node", "id": 10712730849, "lat": 46.5699999, "lon": -120.4827243}, {"type": "node", "id": 10712730850, "lat": 46.5693601, "lon": -120.4827333}, {"type": "node", "id": 10712730851, "lat": 46.5693597, "lon": -120.4826695}, {"type": "node", "id": 10712730852, "lat": 46.5693247, "lon": -120.48267}, {"type": "node", "id": 10712730853, "lat": 46.5693231, "lon": -120.4824237}, {"type": "node", "id": 10712730854, "lat": 46.5693312, "lon": -120.4824236}, {"type": "node", "id": 10712730855, "lat": 46.5693295, "lon": -120.4821747}, {"type": "node", "id": 10712730856, "lat": 46.5693441, "lon": -120.4821745}, {"type": "node", "id": 10712730857, "lat": 46.5693425, "lon": -120.4819242}, {"type": "node", "id": 10712730858, "lat": 46.5693535, "lon": -120.4819241}, {"type": "node", "id": 10712730859, "lat": 46.5693524, "lon": -120.4817574}, {"type": "node", "id": 10712730860, "lat": 46.5693416, "lon": -120.4817576}, {"type": "node", "id": 10712730861, "lat": 46.5693394, "lon": -120.4814357}, {"type": "node", "id": 10712730862, "lat": 46.5693519, "lon": -120.4814355}, {"type": "node", "id": 10712730863, "lat": 46.5693503, "lon": -120.4811881}, {"type": "node", "id": 10712730864, "lat": 46.5693363, "lon": -120.4811883}, {"type": "node", "id": 10712730865, "lat": 46.5693336, "lon": -120.48078}, {"type": "node", "id": 10712730866, "lat": 46.5693045, "lon": -120.4807804}, {"type": "node", "id": 10712730867, "lat": 46.5693027, "lon": -120.480509}, {"type": "node", "id": 10712730868, "lat": 46.5701303, "lon": -120.4804974}, {"type": "node", "id": 10712730869, "lat": 46.5701309, "lon": -120.4805861}, {"type": "node", "id": 10712730870, "lat": 46.5699123, "lon": -120.4805892}, {"type": "node", "id": 10712730871, "lat": 46.5699189, "lon": -120.4815823}, {"type": "node", "id": 10712730872, "lat": 46.5700288, "lon": -120.4815807}, {"type": "node", "id": 10712730873, "lat": 46.5700283, "lon": -120.4814961}, {"type": "node", "id": 10712730874, "lat": 46.5701848, "lon": -120.4814939}, {"type": "node", "id": 10712730875, "lat": 46.5701853, "lon": -120.4815722}, {"type": "node", "id": 10712730876, "lat": 46.570291, "lon": -120.4815707}, {"type": "node", "id": 10712730877, "lat": 46.5700375, "lon": -120.4824302}, {"type": "node", "id": 10712730878, "lat": 46.5702967, "lon": -120.4824265}, {"type": "node", "id": 10712730879, "lat": 46.5691659, "lon": -120.4824418}, {"type": "node", "id": 10712730880, "lat": 46.5691635, "lon": -120.4819073}, {"type": "node", "id": 10712730881, "lat": 46.5691966, "lon": -120.4822517}, {"type": "node", "id": 10712730882, "lat": 46.5691949, "lon": -120.4820871}, {"type": "node", "id": 10712730883, "lat": 46.5692125, "lon": -120.4820867}, {"type": "node", "id": 10712730884, "lat": 46.5692142, "lon": -120.4822513}, {"type": "node", "id": 10712730885, "lat": 46.569193, "lon": -120.4819067}, {"type": "node", "id": 10712730886, "lat": 46.5691985, "lon": -120.4824411}, {"type": "node", "id": 10712730887, "lat": 46.5686463, "lon": -120.482191}, {"type": "node", "id": 10712730888, "lat": 46.5686905, "lon": -120.4823171}, {"type": "node", "id": 10712730889, "lat": 46.570245, "lon": -120.4792826}, {"type": "node", "id": 10712730890, "lat": 46.5702547, "lon": -120.4803935}, {"type": "node", "id": 10712730891, "lat": 46.5702046, "lon": -120.4803944}, {"type": "node", "id": 10712730892, "lat": 46.5702051, "lon": -120.4804518}, {"type": "node", "id": 10712730893, "lat": 46.5700788, "lon": -120.4804541}, {"type": "node", "id": 10712730894, "lat": 46.5700756, "lon": -120.4800824}, {"type": "node", "id": 10712730895, "lat": 46.5697418, "lon": -120.4800885}, {"type": "node", "id": 10712730896, "lat": 46.569745, "lon": -120.4804572}, {"type": "node", "id": 10712730897, "lat": 46.569624, "lon": -120.4804594}, {"type": "node", "id": 10712730898, "lat": 46.5696231, "lon": -120.4803605}, {"type": "node", "id": 10712730899, "lat": 46.5690522, "lon": -120.480371}, {"type": "node", "id": 10712730900, "lat": 46.5690498, "lon": -120.4800961}, {"type": "node", "id": 10712730901, "lat": 46.5683121, "lon": -120.4801096}, {"type": "node", "id": 10712730902, "lat": 46.5683138, "lon": -120.480301}, {"type": "node", "id": 10712730903, "lat": 46.5682, "lon": -120.4803031}, {"type": "node", "id": 10712730904, "lat": 46.5661307, "lon": -120.4821349}, {"type": "node", "id": 10712778405, "lat": 46.567432, "lon": -120.4821011}, {"type": "node", "id": 10712778406, "lat": 46.5674172, "lon": -120.4805428}, {"type": "node", "id": 10712778407, "lat": 46.5680728, "lon": -120.4805334}, {"type": "node", "id": 10712778408, "lat": 46.5680838, "lon": -120.4804891}, {"type": "node", "id": 10712778409, "lat": 46.5680838, "lon": -120.4803845}, {"type": "node", "id": 10712778410, "lat": 46.5681986, "lon": -120.4803832}, {"type": "node", "id": 10712778411, "lat": 46.5681915, "lon": -120.4793202}, {"type": "node", "id": 10712778412, "lat": 46.5675131, "lon": -120.4793277}, {"type": "node", "id": 10712778413, "lat": 46.5675131, "lon": -120.4798991}, {"type": "node", "id": 10712778414, "lat": 46.5673619, "lon": -120.4799017}, {"type": "node", "id": 10712779208, "lat": 46.5563631, "lon": -120.4750201, "tags": {"shop": "shed"}}, {"type": "node", "id": 10712779237, "lat": 46.5565683, "lon": -120.4785444}, {"type": "node", "id": 10712779240, "lat": 46.556916, "lon": -120.4784985}, {"type": "node", "id": 10712806233, "lat": 46.5620051, "lon": -120.4731265}, {"type": "node", "id": 10712806234, "lat": 46.5614626, "lon": -120.4729199}, {"type": "node", "id": 10712806235, "lat": 46.5614792, "lon": -120.474312}, {"type": "node", "id": 10712806236, "lat": 46.5621427, "lon": -120.4743023}, {"type": "node", "id": 10712806250, "lat": 46.5620831, "lon": -120.4737836}, {"type": "node", "id": 10712806251, "lat": 46.5620002, "lon": -120.4737809}, {"type": "node", "id": 10712810327, "lat": 46.5675259, "lon": -120.4834637, "tags": {"name": "The Phone Shop", "shop": "mobile_phone"}}, {"type": "node", "id": 10712810328, "lat": 46.5675409, "lon": -120.4833667, "tags": {"brand": "AT&T", "brand:wikidata": "Q298594", "name": "AT&T", "shop": "mobile_phone"}}, {"type": "node", "id": 10712810329, "lat": 46.5675412, "lon": -120.4832601, "tags": {"brand": "Supercuts", "brand:wikidata": "Q7643239", "name": "Supercuts", "shop": "hairdresser"}}, {"type": "node", "id": 10712810330, "lat": 46.5675416, "lon": -120.4831757, "tags": {"alt_name": "Verizon Wireless", "brand": "Verizon", "brand:wikidata": "Q919641", "name": "Verizon", "shop": "mobile_phone"}}, {"type": "node", "id": 10712810331, "lat": 46.5660988, "lon": -120.4824989, "tags": {"brand": "Sleep Number", "brand:wikidata": "Q7447640", "name": "Sleep Number", "shop": "bed"}}, {"type": "node", "id": 10712810332, "lat": 46.5689459, "lon": -120.4788378, "tags": {"brand": "Torrid", "brand:wikidata": "Q7827120", "clothes": "oversize;women", "name": "Torrid", "shop": "clothes"}}, {"type": "node", "id": 10712810333, "lat": 46.5674391, "lon": -120.4788426, "tags": {"brand": "Skechers", "brand:wikidata": "Q2945643", "name": "Skechers", "shop": "shoes"}}, {"type": "node", "id": 10712810334, "lat": 46.5672493, "lon": -120.4788208, "tags": {"brand": "Maurices", "brand:wikidata": "Q6793571", "clothes": "women", "name": "Maurices", "shop": "clothes"}}, {"type": "node", "id": 10712810335, "lat": 46.5685847, "lon": -120.4801602, "tags": {"beauty": "nails", "name": "Fancy Nails", "shop": "beauty"}}, {"type": "node", "id": 10712810336, "lat": 46.5685194, "lon": -120.4801615, "tags": {"brand": "U.S. Cellular", "brand:wikidata": "Q2466256", "name": "U.S. Cellular", "shop": "mobile_phone"}}, {"type": "node", "id": 10712968421, "lat": 46.5700726, "lon": -120.5133623, "tags": {"shop": "storage_rental"}}, {"type": "node", "id": 12080663467, "lat": 46.5767144, "lon": -120.472727, "tags": {"brand": "United Rentals", "brand:wikidata": "Q7889101", "name": "United Rentals", "shop": "plant_hire"}}, {"type": "node", "id": 12161367607, "lat": 46.556688, "lon": -120.4768842, "tags": {"amenity": "polling_station", "location": "outdoor", "polling_station": "ballot_box"}}, {"type": "node", "id": 12671015913, "lat": 46.5686435, "lon": -120.4750013, "tags": {"amenity": "parking", "hgv": "yes"}}, {"type": "node", "id": 12671015914, "lat": 46.5685255, "lon": -120.4730085, "tags": {"amenity": "weighbridge", "brand": "CAT Scale", "brand:wikidata": "Q111631907", "name": "CAT Scale", "operator": "Gear Jammer Truck Plaza", "operator:phone": "+1 509-248-9640", "ref": "509", "website": "https://catscale.com/cat-scale-locator/?single=509"}}, {"type": "node", "id": 13050493822, "lat": 46.56107, "lon": -120.4953321, "tags": {"entrance": "main"}}, {"type": "node", "id": 13050493855, "lat": 46.561225, "lon": -120.4943452}, {"type": "node", "id": 13050493856, "lat": 46.5612229, "lon": -120.4944255}, {"type": "node", "id": 13050493857, "lat": 46.561202, "lon": -120.4944265}, {"type": "node", "id": 13050493858, "lat": 46.5612096, "lon": -120.4961128}, {"type": "node", "id": 13050493859, "lat": 46.5611041, "lon": -120.4961909}, {"type": "node", "id": 13050493860, "lat": 46.5611041, "lon": -120.4962885}, {"type": "node", "id": 13050493861, "lat": 46.5613641, "lon": -120.4962925}, {"type": "node", "id": 13050493862, "lat": 46.5613634, "lon": -120.4962021}, {"type": "node", "id": 13050493863, "lat": 46.5614472, "lon": -120.496199}, {"type": "node", "id": 13050493864, "lat": 46.5614486, "lon": -120.496011}, {"type": "node", "id": 13050493865, "lat": 46.5613927, "lon": -120.4960151}, {"type": "node", "id": 13050493866, "lat": 46.561392, "lon": -120.4959551}, {"type": "node", "id": 13050493867, "lat": 46.5614151, "lon": -120.4958595}, {"type": "node", "id": 13050493868, "lat": 46.561413, "lon": -120.4957569}, {"type": "node", "id": 13050493869, "lat": 46.5616261, "lon": -120.495761}, {"type": "node", "id": 13050493870, "lat": 46.5616241, "lon": -120.4958667}, {"type": "node", "id": 13050493871, "lat": 46.5616394, "lon": -120.4959531}, {"type": "node", "id": 13050493872, "lat": 46.5616436, "lon": -120.4960191}, {"type": "node", "id": 13050493873, "lat": 46.5615877, "lon": -120.4960171}, {"type": "node", "id": 13050493874, "lat": 46.5615912, "lon": -120.496196}, {"type": "node", "id": 13050493875, "lat": 46.5616506, "lon": -120.4961949}, {"type": "node", "id": 13050493876, "lat": 46.5616583, "lon": -120.4962793}, {"type": "node", "id": 13050493877, "lat": 46.5620461, "lon": -120.4962895}, {"type": "node", "id": 13050493878, "lat": 46.5620447, "lon": -120.4961949}, {"type": "node", "id": 13050493879, "lat": 46.562137, "lon": -120.4961909}, {"type": "node", "id": 13050493880, "lat": 46.5621356, "lon": -120.4954825}, {"type": "node", "id": 13050493881, "lat": 46.5619574, "lon": -120.4955867}, {"type": "node", "id": 13050493882, "lat": 46.5619532, "lon": -120.4954154}, {"type": "node", "id": 13050493883, "lat": 46.561986, "lon": -120.4953219}, {"type": "node", "id": 13050493884, "lat": 46.5619805, "lon": -120.4951217}, {"type": "node", "id": 13050493885, "lat": 46.5620203, "lon": -120.4951267}, {"type": "node", "id": 13050493886, "lat": 46.5620203, "lon": -120.4951694}, {"type": "node", "id": 13050493887, "lat": 46.56213, "lon": -120.4951705}, {"type": "node", "id": 13050493888, "lat": 46.56213, "lon": -120.4944214}, {"type": "node", "id": 13050493889, "lat": 46.5620147, "lon": -120.4944255}, {"type": "node", "id": 13050493890, "lat": 46.562014, "lon": -120.4945007}, {"type": "node", "id": 13050493891, "lat": 46.5619539, "lon": -120.4945078}, {"type": "node", "id": 13050493892, "lat": 46.5619539, "lon": -120.4943421}, {"type": "node", "id": 13050493893, "lat": 46.5620179, "lon": -120.4954858}, {"type": "node", "id": 13050493894, "lat": 46.562018, "lon": -120.4955831}, {"type": "node", "id": 13050493895, "lat": 46.5611812, "lon": -120.4961149}, {"type": "node", "id": 13050493896, "lat": 46.5611798, "lon": -120.4961906}, {"type": "node", "id": 13050493897, "lat": 46.5610572, "lon": -120.4960145}, {"type": "node", "id": 13050493898, "lat": 46.5610588, "lon": -120.4960946}, {"type": "node", "id": 13050493899, "lat": 46.5610509, "lon": -120.4962102}, {"type": "node", "id": 13050493900, "lat": 46.5610493, "lon": -120.4962918}, {"type": "node", "id": 13050513301, "lat": 46.5603523, "lon": -120.4962972}, {"type": "node", "id": 13050513302, "lat": 46.5604656, "lon": -120.4960916}, {"type": "node", "id": 13050513303, "lat": 46.5604651, "lon": -120.4960184}, {"type": "node", "id": 13050513304, "lat": 46.5603544, "lon": -120.4962144}, {"type": "node", "id": 13050513305, "lat": 46.5604492, "lon": -120.4960968}, {"type": "node", "id": 13050513330, "lat": 46.562527, "lon": -120.4998504, "tags": {"entrance": "main"}}, {"type": "node", "id": 13050513337, "lat": 46.5616205, "lon": -120.4979783}, {"type": "node", "id": 13050513338, "lat": 46.5616214, "lon": -120.4981527}, {"type": "node", "id": 13050513339, "lat": 46.5615974, "lon": -120.4981567}, {"type": "node", "id": 13050513340, "lat": 46.5616286, "lon": -120.4995828}, {"type": "node", "id": 13050513341, "lat": 46.5619064, "lon": -120.4995384}, {"type": "node", "id": 13050513342, "lat": 46.5619862, "lon": -120.4994947}, {"type": "node", "id": 13050513343, "lat": 46.5620822, "lon": -120.4994882}, {"type": "node", "id": 13050513344, "lat": 46.5621632, "lon": -120.4995262}, {"type": "node", "id": 13050513345, "lat": 46.5623896, "lon": -120.4995127}, {"type": "node", "id": 13050513346, "lat": 46.5623679, "lon": -120.4981653}, {"type": "node", "id": 13050513347, "lat": 46.5621289, "lon": -120.4981765}, {"type": "node", "id": 13050513348, "lat": 46.5621352, "lon": -120.4979498}, {"type": "node", "id": 13050513349, "lat": 46.5618137, "lon": -120.4995501}, {"type": "node", "id": 13201261080, "lat": 46.5669771, "lon": -120.4776088, "tags": {"amenity": "social_facility", "name": "Family Resource Home Care"}}, {"type": "node", "id": 13201261081, "lat": 46.5669643, "lon": -120.4773007, "tags": {"name": "PTI Transportation", "office": "company"}}, {"type": "way", "id": 48704392, "nodes": [618310435, 618310438, 9588025708, 9588025710, 9588025709, 9588025707, 618310437, 9588025711, 9588025712, 618310436, 618310435], "tags": {"addr:city": "Union Gap", "addr:housenumber": "16", "addr:postcode": "98903-1613", "addr:state": "WA", "addr:street": "E Valley Mall Boulevard", "amenity": "restaurant", "brand": "Shari's", "brand:wikidata": "Q7489612", "building": "yes", "cuisine": "american", "name": "Shari's", "phone": "+1-509-469-3686", "website": "https://www.sharis.com/"}}, {"type": "way", "id": 104577473, "nodes": [9498829199, 1206589696, 1206589683, 5046928722, 1206589596, 9498829198, 9498829201, 9498829200, 9498829199], "tags": {"amenity": "restaurant", "brand": "Outback Steakhouse", "brand:wikidata": "Q1064893", "building": "yes", "cuisine": "american;steak", "name": "Outback Steakhouse", "name:en": "Outback Steakhouse", "opening_hours": "Mo-Th 00:00-21:00; Fr,Sa 00:00-22:00; Su 00:00-20:00"}}, {"type": "way", "id": 104577476, "nodes": [9498663216, 1206589385, 9498666021, 1206589773, 9498666020, 9498663215, 1206589272, 1206589371, 9498666017, 9498666019, 9498666018, 9498663216], "tags": {"amenity": "restaurant", "brand": "Denny's", "brand:wikidata": "Q1189695", "building": "yes", "cuisine": "american", "name": "Denny's"}}, {"type": "way", "id": 104577477, "nodes": [9498830061, 1206589411, 1206589561, 1206589619, 5879996546, 9498830060, 9498830063, 9498830062, 9498830061], "tags": {"amenity": "restaurant", "brand": "Applebee's Neighborhood Grill & Bar", "brand:wikidata": "Q621532", "building": "commercial", "cuisine": "american", "name": "Applebee's", "official_name": "Applebee's Neighborhood Grill & Bar", "phone": "+1-509-469-2114", "website": "https://restaurants.applebees.com/en-us/wa/union-gap/1505-e.-washington-ave.-85022", "website:menu": "https://www.applebees.com/en/menu?StoreNumber=85022&action=viewmenu"}}, {"type": "way", "id": 104577489, "nodes": [5879996534, 1206589473, 1206589167, 1206589701, 1206589379, 5879996511, 1206589759, 9498830145, 9498830149, 9498830148, 9498830146, 9498830147, 9498830144, 5879996534], "tags": {"brand": "JCPenney", "brand:wikidata": "Q920037", "building": "commercial", "name": "JCPenney", "official_name": "J.C. Penney Company", "shop": "department_store"}}, {"type": "way", "id": 104577496, "nodes": [9498829197, 1206589186, 1206589482, 1206589717, 1206589320, 9498829196, 9498829195, 9498829194, 9498829193, 1206589655, 9498829192, 9498829191, 9498829190, 9498829189, 1206589687, 1206589722, 9498829188, 9498829187, 1206589189, 9498829186, 9498829185, 9498829184, 9498829183, 1206589322, 9498829182, 9498829181, 9498829180, 9498829179, 1206589657, 9498829178, 9498829177, 9498829176, 9498829175, 1206589184, 9498829174, 9498829173, 9498829172, 9498829171, 9498829170, 9498829169, 9498829168, 9498829167, 9498829166, 9498829165, 1206589405, 9498829164, 9498829163, 9498829162, 9498829161, 9498829160, 9498829159, 9498829158, 9498829157, 1206589658, 9498829156, 9498829155, 9498829154, 9498829153, 9498829152, 9498829151, 9498829150, 9498829149, 9498829148, 1206589704, 9498829147, 9498829146, 9498829145, 9498829144, 9498829143, 9498829142, 9498829141, 9498829140, 9498829139, 9498829138, 9498829137, 9498829136, 9498829135, 9498829134, 1206589191, 9498829133, 9498829197], "tags": {"building": "yes", "name": "Valley Mall", "shop": "mall"}}, {"type": "way", "id": 104577500, "nodes": [9498830095, 9498830103, 9498830100, 9498830092, 9498830099, 9498830098, 9498830093, 9498830101, 9498830102, 9498830094, 9498830096, 9498830097, 9498830095], "tags": {"amenity": "restaurant", "brand": "Famous Dave's", "brand:wikidata": "Q5433448", "building": "commercial", "cuisine": "barbecue", "name": "Famous Dave's"}}, {"type": "way", "id": 104577503, "nodes": [1206589656, 1206589551, 1206589193, 1206589392, 10115395171, 10115395170, 1206589656], "tags": {"addr:city": "Yakima", "addr:housenumber": "2115", "addr:postcode": "98903", "addr:state": "WA", "addr:street": "South First Street", "alt_name": "Home Depot", "branch": "Yakima", "brand": "The Home Depot", "brand:wikidata": "Q864407", "building": "yes", "name": "The Home Depot", "opening_hours": "Mo-Sa 06:00-22:00; Su 07:00-20:00", "phone": "+1-509-452-3016", "ref": "4727", "shop": "doityourself", "website": "https://www.homedepot.com/l/yakima/wa/yakima/98903/4727"}}, {"type": "way", "id": 104577510, "nodes": [1206589784, 6927747273, 6927747274, 6927747275, 6927747276, 6927747277, 6927747278, 1206589785, 6927747279, 6927747280, 6927747281, 6927747282, 6927747284, 6927747283, 1206589401, 6927763685, 6927763686, 6927763687, 6927763688, 6927763689, 6927763690, 1206589749, 1206589784], "tags": {"addr:city": "Union Gap", "addr:housenumber": "1919", "addr:state": "WA", "addr:street": "South 14th Street", "amenity": "cinema", "building": "yes", "name": "Majestic Theatre", "website": "https://yakimatheatres.com/majestic/", "wikidata": "Q43307023"}}, {"type": "way", "id": 104577511, "nodes": [1206589214, 1206589746, 1206589626, 6344108533, 6344108534, 6344108535, 1206589557, 6344108536, 1206589214], "tags": {"addr:city": "Union Gap", "addr:housenumber": "1403", "addr:postcode": "98903", "addr:state": "WA", "addr:street": "East Washington Avenue", "brand": "PetSmart", "brand:wikidata": "Q3307147", "building": "yes", "name": "PetSmart", "opening_hours": "Mo-Sa 09:00-21:00; Su 10:00-19:00", "phone": "+1-509-469-9933", "ref": "0396", "shop": "pet", "website": "https://www.petsmart.com/stores/us/wa/union-gap-store0396.html"}}, {"type": "way", "id": 104577526, "nodes": [5879996821, 5879996818, 1206589762, 9498830018, 9498830019, 5879996819, 9498830020, 9498830021, 9498830022, 9498830023, 9498830024, 9498830025, 1206589215, 9498830017, 9498829216, 1206589598, 5879996821], "tags": {"addr:city": "Union Gap", "addr:housenumber": "17", "addr:postcode": "98903", "addr:state": "WA", "addr:street": "East Valley Mall Boulevard", "addr:unit": "1", "branch": "Union Gap", "brand": "Party City", "brand:wikidata": "Q7140896", "building": "commercial", "name": "Party City", "phone": "+1-509-367-8098", "ref": "969", "shop": "party", "website": "https://stores.partycity.com/us/wa/uniongap/party-store-pc969.html"}}, {"type": "way", "id": 104577527, "nodes": [1206589585, 1206589275, 1206589600, 1206589553, 1206589585], "tags": {"brand": "Rite Aid", "brand:wikidata": "Q3433273", "building": "yes", "check_date": "2024-06-19", "check_date:opening_hours": "2024-06-19", "name": "Rite Aid", "opening_hours": "Mo-Fr 08:00-22:00; Sa-Su 09:00-22:00", "shop": "chemist", "website": "https://www.riteaid.com/locations/wa/union-gap/2519-main-street.html"}}, {"type": "way", "id": 135461169, "nodes": [1487735528, 1487737772, 1487735525, 1487735534, 1487735537, 1487735536, 10701286992, 10701286995, 10701286994, 10701286993, 10701286990, 10701286997, 10701286996, 10701286991, 1487735524, 1487735528], "tags": {"addr:city": "Yakima", "addr:housenumber": "905", "addr:postcode": "98903", "addr:state": "WA", "addr:street": "East Mead Avenue", "brand": "Safeway", "brand:wikidata": "Q1508234", "building": "yes", "designation": "Safeway 1660", "name": "Safeway", "opening_hours": "Mo 05:00-01:00; Tu-Fr 05:00-24:00; Sa-Su 05:00-24:00", "phone": "+1-509-457-6040", "shop": "supermarket", "website": "https://local.safeway.com/safeway/wa/yakima/905-e-meade-ave.html"}}, {"type": "way", "id": 417348613, "nodes": [4179081762, 4179081751, 4179081748, 4179081754, 4179081753, 4179081756, 4179081755, 4179081763, 4179081764, 4179081765, 13050513330, 4179081769, 4179081771, 4179081767, 4179081768, 4179081761, 4179081762], "tags": {"addr:city": "Union Gap", "addr:housenumber": "2310", "addr:postcode": "98903-1513", "addr:state": "WA", "addr:street": "Longfiber Avenue", "branch": "Union Gap", "brand": "Costco", "brand:wikidata": "Q715583", "building": "yes", "name": "Costco", "opening_hours": "Mo-Fr 10:00-20:30; Sa 09:30-18:00; Su 10:00-18:00", "operator": "Costco", "phone": "+1-509-454-5242", "ref": "1013", "shop": "wholesale", "website": "https://www.costco.com/warehouse-locations/union-gap-wa-1013.html"}}, {"type": "way", "id": 446838568, "nodes": [4440616315, 5616378721, 4440616496, 4440616330, 5616378723, 5616378518, 5616378736, 4440616315], "tags": {"amenity": "parking", "name": "Yakima Greenway Trailhead", "source": "Bing"}}, {"type": "way", "id": 503139829, "nodes": [4934743857, 4934743858, 4934743859, 4934743860, 10701285815, 10701285818, 10701285817, 10701285816, 4934743857], "tags": {"addr:city": "Yakima", "addr:housenumber": "1915", "addr:postcode": "98902", "addr:state": "WA", "addr:street": "South First Street", "amenity": "fast_food", "branch": "1st & Washington", "brand": "Panda Express", "brand:wikidata": "Q1358690", "building": "yes", "cuisine": "chinese", "name": "Panda Express", "opening_hours": "Mo-Th 09:30-21:30; Fr 09:00-22:30; Sa 09:30-22:30; Su 09:30-21:30", "phone": "+1-509-452-8092", "takeaway": "yes", "website": "https://www.pandaexpress.com/locations/wa/yakima/1725"}}, {"type": "way", "id": 530348682, "nodes": [5150102189, 5150102190, 5150102191, 5150102192, 5150102189], "tags": {"addr:city": "Yakima", "addr:housenumber": "1506", "addr:postcode": "98903", "addr:state": "WA", "addr:street": "East Mead Avenue", "building": "yes", "contact:email": "info@leavittmachinery.com", "contact:facebook": "https://www.facebook.com/LeavittMachinery", "contact:linkedin": "https://www.linkedin.com/company/leavitt-machinery", "contact:name": "Mandy James", "contact:phone": "+1-509-759-7340", "contact:twitter": "https://twitter.com/LeavittMachine", "contact:youtube": "https://www.youtube.com/user/TheLeavittMachinery?feature=mhee", "language": "English, French, Spanish, Arabic, Punjabi", "name": "Leavitt Machinery", "office": "company", "opening_hours": "Mo-Fr 08:00-17:00", "payment:mastercard": "yes", "payment:visa": "yes", "website": "https://www.leavittmachinery.com/"}}, {"type": "way", "id": 622497288, "nodes": [5879996499, 5879996500, 6177947179, 5879996501, 5879996502, 5879996503, 5879996504, 5879996499], "tags": {"amenity": "parking"}}, {"type": "way", "id": 622497289, "nodes": [5879996533, 10712730879, 10712730886, 10712730881, 10712730884, 10712730883, 10712730882, 10712730885, 10712730880, 1206589759, 5879996511, 10712730887, 5879996512, 10712730888, 5879996513, 5879996514, 5879996533], "tags": {"brand": "Cabela's", "brand:wikidata": "Q2793714", "building": "commercial", "name": "Cabela's", "shop": "outdoor"}}, {"type": "way", "id": 622497292, "nodes": [5879996571, 5879996572, 5879996573, 5879996574, 5879996575, 5879996576, 5879996797, 5879996798, 5879996571], "tags": {"amenity": "parking"}}, {"type": "way", "id": 635066819, "nodes": [5991735315, 5991735316, 5991735317, 5991735318, 5991735315], "tags": {"amenity": "gambling", "building": "yes", "gambling": "bingo", "name": "St. Joe's Bingo"}}, {"type": "way", "id": 635066822, "nodes": [9498666058, 9498666052, 9498666055, 9498666056, 9498666053, 9498666057, 9498666051, 9498666054, 9498666061, 5991735322, 5991735319, 5991735320, 9498666058], "tags": {"amenity": "fire_station", "building": "yes", "name": "Union Gap Fire Station"}}, {"type": "way", "id": 713490494, "nodes": [6708505780, 356539754, 6708505821, 6708505822, 6708505833, 6708505823, 6708505824, 6708505832, 6708505825, 6708505779, 6708505780], "tags": {"amenity": "school", "ele": "315", "gnis:feature_id": "1503558", "name": "Ridgeview Elementary School"}}, {"type": "way", "id": 713545200, "nodes": [356543642, 6708935033, 6708935026, 6708935027, 6708935211, 6708935028, 6708935029, 356543642], "tags": {"amenity": "school", "check_date": "2024-08-08", "ele": "306", "gnis:feature_id": "1515289", "mascot": "All Stars", "name": "Martin Luther King Junior Elementary School", "name:etymology:wikidata": "Q8027"}}, {"type": "way", "id": 713545206, "nodes": [6708935052, 6708935054, 6708935055, 6708935056, 6708935052], "tags": {"brand": "Peterbilt", "brand:wikidata": "Q944640", "landuse": "industrial", "name": "Peterbilt", "shop": "truck"}}, {"type": "way", "id": 713545233, "nodes": [6708935207, 6708935208, 6708935209, 6708935210, 6708935207], "tags": {"access": "customers", "amenity": "parking", "fee": "no", "parking": "surface"}}, {"type": "way", "id": 753367860, "nodes": [7039094943, 13050493822, 7039094944, 7039094945, 7039094946, 7039094947, 7039094954, 7039094955, 7039094948, 7039094949, 7039094950, 7039094951, 7039094952, 7039094953, 7039094943], "tags": {"addr:city": "Union Gap", "addr:housenumber": "2425", "addr:postcode": "98903-1503", "addr:state": "WA", "addr:street": "Longfiber Road", "brand": "WinCo Foods", "brand:wikidata": "Q8023592", "building": "supermarket", "name": "WinCo Foods", "opening_hours": "24/7", "phone": "+1-509-317-7630", "shop": "supermarket", "website": "https://www.wincofoods.com/stores/win-co-foods-union-gap-yakima-111/5807"}}, {"type": "way", "id": 753368021, "nodes": [10698977105, 10698977106, 7039116462, 10698977104, 10698977107, 7039116463, 7039116464, 10698977103, 10698977108, 7039116461, 10698977105], "tags": {"addr:city": "Union Gap", "addr:housenumber": "1255", "addr:postcode": "98903-2801", "addr:state": "WA", "addr:street": "Market Street", "alt_name": "Dairy Queen", "amenity": "fast_food", "brand": "DQ Grill & Chill", "brand:wikidata": "Q1141226", "building": "yes", "cuisine": "ice_cream;burger", "name": "DQ Grill & Chill", "phone": "+1-509-248-4425", "takeaway": "yes", "website": "https://www.dairyqueen.com/locations/wa/union-gap/1255-market-st/15256"}}, {"type": "way", "id": 1027302030, "nodes": [9498830071, 9498830064, 9470830808, 9470830809, 9470844278, 9498830071], "tags": {"brand": "Marshalls", "brand:wikidata": "Q15903261", "building": "yes", "name": "Marshalls", "shop": "department_store"}}, {"type": "way", "id": 1027302036, "nodes": [9498830066, 9498830069, 9498830071, 9470844278, 9498830070, 9498830065, 9498830067, 9498830068, 9498830066], "tags": {"brand": "Guitar Center", "brand:wikidata": "Q3622794", "building": "yes", "name": "Guitar Center", "shop": "musical_instrument"}}, {"type": "way", "id": 1030142963, "nodes": [9496248169, 9496248170, 9496248171, 9496248168, 9496248175, 9496248166, 9496248176, 9496248177, 5879996498, 9496248167, 9496248172, 9496248173, 9496248174, 9496248169], "tags": {"amenity": "post_office", "building": "yes", "name": "Yakima Post Office"}}, {"type": "way", "id": 1030149686, "nodes": [9496343068, 9496342261, 9496342948, 9496341631, 9496343068], "tags": {"building": "yes", "shop": "convenience", "source": "microsoft/BuildingFootprints"}}, {"type": "way", "id": 1030435821, "nodes": [9498668747, 9498666818, 9498666739, 9498666950, 9498668269, 9498668261, 9498666333, 9498667831, 9498668441, 9498666519, 9498668491, 9498667439, 9498668747], "tags": {"amenity": "police", "building": "yes", "name": "Washington State Patrol District 3", "operator": "Washington State Patrol", "operator:short": "WSP", "operator:wikidata": "Q3566523", "source": "microsoft/BuildingFootprints"}}, {"type": "way", "id": 1030435905, "nodes": [9498668419, 9498667876, 9498668913, 9498667035, 9498666309, 9498666349, 9498666185, 9498666655, 9498668788, 9498668574, 9498668106, 9498668448, 9498667087, 9498667744, 9498668419], "tags": {"building": "yes", "name": "Washington State Department of Licensing", "office": "government", "source": "microsoft/BuildingFootprints"}}, {"type": "way", "id": 1030439780, "nodes": [9498680211, 9498680210, 9498680209, 9498680208, 9498680207, 9498680206, 9498680194, 9498680211]}, {"type": "way", "id": 1030439781, "nodes": [9498702926, 9498702925, 9498702924, 2260734753, 10712779237, 9498702923, 9498702922, 10712779240, 9498702921, 9498702920, 9498702919, 9498702918, 9498702917, 9498680216, 9498680215, 9498680214, 9498680213, 9498680212, 9498702926]}, {"type": "way", "id": 1030458568, "nodes": [9498833263, 9498833262, 9498833261, 9498833260, 9498833263], "tags": {"building": "yes", "mapwithai:source": "MapWithAI", "name": "Blossom Shop", "shop": "florist", "source": "microsoft/BuildingFootprints"}}, {"type": "way", "id": 1150105852, "nodes": [10698965394, 10698965393, 10698965392, 10698965391, 10698965394], "tags": {"building": "yes", "shop": "convenience"}}, {"type": "way", "id": 1150105853, "nodes": [10698965398, 10698965397, 10698965396, 10698965395, 10698965398], "tags": {"amenity": "fuel", "building": "yes"}}, {"type": "way", "id": 1151592191, "nodes": [10712730877, 10712730846, 10712730847, 10712730848, 10712730849, 10712730850, 10712730851, 10712730852, 10712730853, 10712730854, 10712730855, 10712730856, 10712730857, 10712730858, 10712730859, 10712730860, 10712730861, 10712730862, 10712730863, 10712730864, 10712730865, 10712730866, 10712730867, 10712730868, 10712730869, 10712730870, 10712730871, 10712730872, 10712730873, 10712730874, 10712730875, 10712730876, 10712730878, 10712730877], "tags": {"amenity": "parking"}}, {"type": "way", "id": 1151592192, "nodes": [10712730903, 10712730902, 10712730901, 10712730900, 10712730899, 10712730898, 10712730897, 10712730896, 10712730895, 10712730894, 10712730893, 10712730892, 10712730891, 10712730890, 10712730889, 10712778411, 10712730903], "tags": {"amenity": "parking"}}, {"type": "way", "id": 1151592193, "nodes": [10712730904, 10712778414, 10712778413, 10712778412, 10712778411, 10712730903, 10712778410, 10712778409, 10712778408, 10712778407, 10712778406, 10712778405, 10712730904], "tags": {"access": "yes", "amenity": "parking", "fee": "no", "parking": "surface"}}, {"type": "way", "id": 1151594723, "nodes": [10712806236, 10712806235, 10712806234, 10712806233, 10712806251, 10712806250, 10712806236], "tags": {"amenity": "parking"}}, {"type": "way", "id": 1420226686, "nodes": [13050493855, 13050493856, 13050493857, 13050493858, 13050493895, 13050493896, 13050493859, 13050493860, 13050493861, 13050493862, 13050493863, 13050493864, 13050493865, 13050493866, 13050493867, 13050493868, 13050493869, 13050493870, 13050493871, 13050493872, 13050493873, 13050493874, 13050493875, 13050493876, 13050493877, 13050493878, 13050493879, 13050493880, 13050493893, 13050493894, 13050493881, 13050493882, 13050493883, 13050493884, 13050493885, 13050493886, 13050493887, 13050493888, 13050493889, 13050493890, 13050493891, 13050493892, 13050493855], "tags": {"amenity": "parking"}}, {"type": "way", "id": 1420226687, "nodes": [13050493897, 13050493898, 13050493899, 13050493900, 13050513301, 13050513304, 13050513305, 13050513302, 13050513303, 13050493897], "tags": {"amenity": "parking"}}, {"type": "way", "id": 1420226692, "nodes": [13050513337, 13050513338, 13050513339, 13050513340, 13050513349, 13050513341, 13050513342, 13050513343, 13050513344, 13050513345, 13050513346, 13050513347, 13050513348, 13050513337], "tags": {"amenity": "parking"}}, {"type": "relation", "id": 13793428, "members": [{"type": "way", "ref": 1030439780, "role": "outer"}, {"type": "way", "ref": 1030439781, "role": "outer"}], "tags": {"amenity": "school", "education": "school", "mascot": "Cubs", "name": "Union Gap School", "type": "multipolygon"}}]}