{"version": 0.6, "generator": "Overpass API 0.7.62.8 e802775f", "osm3s": {"timestamp_osm_base": "2025-12-06T04:25:34Z", "copyright": "The data included in this document is from www.openstreetmap.org. The data is made available under ODbL."}, "elements": [{"type": "node", "id": 7442024076, "lat": 45.5203248, "lon": -109.4429789, "tags": {"addr:city": "Absarokee", "addr:housenumber": "2", "addr:postcode": "59001", "addr:state": "MT", "addr:street": "South Woodard Avenue", "name": "Stillwater Market", "opening_hours": "Mo-Su 08:00-20:00", "shop": "supermarket"}}, {"type": "node", "id": 8220176793, "lat": 45.5190861, "lon": -109.4436147}, {"type": "node", "id": 8220176794, "lat": 45.5189887, "lon": -109.4434039}, {"type": "node", "id": 8220176795, "lat": 45.5190559, "lon": -109.4433407}, {"type": "node", "id": 8220176796, "lat": 45.5191533, "lon": -109.4435515}, {"type": "node", "id": 8220280153, "lat": 45.521735, "lon": -109.438546}, {"type": "node", "id": 8220280154, "lat": 45.521734, "lon": -109.438053}, {"type": "node", "id": 8220280155, "lat": 45.5218826, "lon": -109.4380529}, {"type": "node", "id": 8220280156, "lat": 45.5218828, "lon": -109.4381267}, {"type": "node", "id": 8220280157, "lat": 45.5217872, "lon": -109.4381272}, {"type": "node", "id": 8220280158, "lat": 45.521788, "lon": -109.438465}, {"type": "node", "id": 8220280159, "lat": 45.522077, "lon": -109.4384635}, {"type": "node", "id": 8220280160, "lat": 45.522077, "lon": -109.438544}, {"type": "node", "id": 8229442842, "lat": 45.5199049, "lon": -109.4431655, "tags": {"name": "Stillwater Printing", "shop": "copyshop"}}, {"type": "node", "id": 8229442843, "lat": 45.5196854, "lon": -109.4429622, "tags": {"name": "Quilt Shop", "shop": "interior_decoration"}}, {"type": "node", "id": 8229442845, "lat": 45.5200545, "lon": -109.4430169, "tags": {"name": "Absarokee Homes & Land", "office": "estate_agent", "phone": "+1-406-328-4453"}}, {"type": "node", "id": 8229442847, "lat": 45.5194739, "lon": -109.4432456, "tags": {"name": "American Enterprises, Inc.", "office": "yes"}}, {"type": "node", "id": 8229442848, "lat": 45.5197305, "lon": -109.443345, "tags": {"shop": "alcohol"}}, {"type": "node", "id": 8229442849, "lat": 45.5197925, "lon": -109.4432946, "tags": {"amenity": "cafe", "cuisine": "regional;sandwich", "name": "Rosebud Cafe"}}, {"type": "node", "id": 8229442850, "lat": 45.5194851, "lon": -109.4435677, "tags": {"beauty": "nails;hair;pedicure", "name": "Stillwater Lodge Salon", "phone": "+1-406-328-4899", "shop": "beauty"}}, {"type": "node", "id": 8229442851, "lat": 45.5193015, "lon": -109.443378, "tags": {"addr:city": "Absarokee", "addr:housenumber": "19", "addr:state": "MT", "addr:street": "South Woodard Avenue", "amenity": "cafe", "cuisine": "coffee_shop", "name": "Main Street Commons", "opening_hours": "Tu-Fr 09:00-14:00", "website": "http://www.mscommons.com/"}}, {"type": "node", "id": 8229442852, "lat": 45.520331, "lon": -109.4424038, "tags": {"amenity": "restaurant", "cuisine": "steak_house", "name": "Touch of Country"}}, {"type": "node", "id": 8229442856, "lat": 45.5204836, "lon": -109.4425971, "tags": {"amenity": "bar", "name": "Chrome Bar"}}, {"type": "node", "id": 8229442857, "lat": 45.5210158, "lon": -109.4432671, "tags": {"name": "Absaroka River Adventures", "office": "guide", "phone": "+1-406-328-7440"}}, {"type": "node", "id": 8229442866, "lat": 45.5220794, "lon": -109.4398061, "tags": {"beauty": "tanning", "name": "Upper Cut Salon", "shop": "beauty"}}, {"type": "node", "id": 8229442871, "lat": 45.5206571, "lon": -109.442414, "tags": {"name": "Montana Creatives", "phone": "+1-406-328-7740", "shop": "craft;florist"}}, {"type": "node", "id": 8229442873, "lat": 45.5205918, "lon": -109.4424829, "tags": {"name": "Teresa's Treasures", "shop": "second_hand"}}, {"type": "node", "id": 8229442875, "lat": 45.5204547, "lon": -109.4422901, "tags": {"amenity": "bar", "name": "5 Spot Bar"}}, {"type": "node", "id": 8229651749, "lat": 45.5223789, "lon": -109.4461516, "tags": {"name": "Town and Country Storage", "phone": "+1-406-328-9500", "shop": "storage_rental", "website": "https://debizel.com"}}, {"type": "node", "id": 10253863388, "lat": 45.5203383, "lon": -109.4423177, "tags": {"amenity": "restaurant", "name": "Touch of Country Resturant"}}, {"type": "node", "id": 10261735679, "lat": 45.5190698, "lon": -109.4435369, "tags": {"name": "Absarokee Fly Shop", "shop": "yes"}}, {"type": "way", "id": 883862750, "nodes": [8220176793, 8220176794, 8220176795, 8220176796, 8220176793], "tags": {"building": "yes", "name": "Fly Shop", "shop": "yes", "source": "microsoft/BuildingFootprints"}}, {"type": "way", "id": 883877845, "nodes": [8220280153, 8220280154, 8220280155, 8220280156, 8220280157, 8220280158, 8220280159, 8220280160, 8220280153], "tags": {"building": "yes", "shop": "storage_rental", "source": "microsoft/BuildingFootprints"}}]}