{"version": 0.6, "generator": "Overpass API 0.7.62.8 e802775f", "osm3s": {"timestamp_osm_base": "2025-12-06T05:29:12Z", "copyright": "The data included in this document is from www.openstreetmap.org. The data is made available under ODbL."}, "elements": [{"type": "node", "id": 4332886258, "lat": 42.6910527, "lon": -114.50985, "tags": {"name": "Farmore of Idaho", "shop": "agrarian"}}, {"type": "node", "id": 5276381583, "lat": 42.6943125, "lon": -114.5178859}, {"type": "node", "id": 5276381584, "lat": 42.6940661, "lon": -114.5178858}, {"type": "node", "id": 5276381585, "lat": 42.6940661, "lon": -114.5176523}, {"type": "node", "id": 5276381586, "lat": 42.6943125, "lon": -114.5176524}, {"type": "node", "id": 5276381588, "lat": 42.6947577, "lon": -114.515352}, {"type": "node", "id": 5276381589, "lat": 42.6947584, "lon": -114.5155801}, {"type": "node", "id": 5276381590, "lat": 42.6945504, "lon": -114.5155813}, {"type": "node", "id": 5276381591, "lat": 42.6945509, "lon": -114.5157426}, {"type": "node", "id": 5276381592, "lat": 42.6944132, "lon": -114.5157435}, {"type": "node", "id": 5276381593, "lat": 42.6944133, "lon": -114.5157967}, {"type": "node", "id": 5276381595, "lat": 42.6935787, "lon": -114.5144362}, {"type": "node", "id": 5276381596, "lat": 42.6945312, "lon": -114.5144301}, {"type": "node", "id": 5276381597, "lat": 42.6946313, "lon": -114.5146066}, {"type": "node", "id": 5276381598, "lat": 42.6945318, "lon": -114.5146072}, {"type": "node", "id": 5276381599, "lat": 42.6945439, "lon": -114.514855}, {"type": "node", "id": 5276381600, "lat": 42.6947847, "lon": -114.5148536}, {"type": "node", "id": 5276381601, "lat": 42.6934379, "lon": -114.5156525}, {"type": "node", "id": 5276381602, "lat": 42.6934343, "lon": -114.5146074}, {"type": "node", "id": 5276381603, "lat": 42.6935793, "lon": -114.5146065}, {"type": "node", "id": 5276381604, "lat": 42.6935739, "lon": -114.515802}, {"type": "node", "id": 5276381605, "lat": 42.6935734, "lon": -114.5156516}, {"type": "node", "id": 5276381606, "lat": 42.6947841, "lon": -114.5146524}, {"type": "node", "id": 5276381607, "lat": 42.6946315, "lon": -114.5146533}, {"type": "node", "id": 6554306861, "lat": 42.6918096, "lon": -114.5175455, "tags": {"addr:housenumber": "2816", "addr:state": "ID", "addr:street": "Lincoln Street", "name": "Oasis Stop 'N Go #5", "opening_hours": "24/7", "phone": "+1-208-736-8503", "shop": "convenience", "website": "https://www.oasisstopngo.com/"}}, {"type": "node", "id": 6566489133, "lat": 42.7106045, "lon": -114.5174086}, {"type": "node", "id": 6566489134, "lat": 42.7106055, "lon": -114.5166902}, {"type": "node", "id": 6566489135, "lat": 42.7103402, "lon": -114.5166895}, {"type": "node", "id": 6566489136, "lat": 42.7103401, "lon": -114.5167618}, {"type": "node", "id": 6566489137, "lat": 42.7101247, "lon": -114.5167612}, {"type": "node", "id": 6566489138, "lat": 42.7101238, "lon": -114.5174074}, {"type": "node", "id": 6604373961, "lat": 42.7052924, "lon": -114.5209591, "tags": {"addr:city": "Jerome", "addr:housenumber": "130", "addr:postcode": "83338", "addr:state": "ID", "addr:street": "Bridon Way", "name": "208 The Storage Place", "opening_hours": "Mo-Sa 09:00-18:00", "operator": "Elizabeth Briggs", "payment:american_express": "yes", "payment:cash": "yes", "payment:discover_card": "yes", "payment:mastercard": "yes", "payment:visa": "yes", "phone": "+1-208-324-3636", "shop": "storage_rental", "website": "https://www.208thestorageplace.com/"}}, {"type": "node", "id": 10081125432, "lat": 42.6945455, "lon": -114.5153532}, {"type": "node", "id": 10081125433, "lat": 42.6945283, "lon": -114.5154385, "tags": {"addr:city": "Jerome", "addr:country": "US", "addr:housenumber": "2680", "addr:postcode": "83338", "addr:state": "ID", "addr:street": "S Lincoln Ave", "brand": "Walmart", "brand:wikidata": "Q483551", "name": "Walmart Garden Center", "opening_hours": "Mo-Su 06:00-24:00", "operator": "Walmart", "phone": "+1-208-324-4333", "ref:walmart": "2831", "shop": "garden_centre", "website": "https://www.walmart.com/store/2831-jerome-id"}}, {"type": "node", "id": 10081125435, "lat": 42.6939574, "lon": -114.5153124, "tags": {"brand": "Regis", "brand:wikidata": "Q7309325", "name": "SmartStyle", "shop": "hairdresser"}}, {"type": "node", "id": 11161227515, "lat": 42.686227, "lon": -114.5193762, "tags": {"shop": "convenience"}}, {"type": "node", "id": 11955813139, "lat": 42.6926432, "lon": -114.5192133, "tags": {"amenity": "cafe", "cuisine": "coffee_shop"}}, {"type": "node", "id": 11955813141, "lat": 42.6914864, "lon": -114.5189891, "tags": {"shop": "convenience"}}, {"type": "node", "id": 11955817082, "lat": 42.6938308, "lon": -114.5190451, "tags": {"shop": "convenience"}}, {"type": "way", "id": 545939401, "nodes": [5276381583, 5276381584, 5276381585, 5276381586, 5276381583], "tags": {"addr:city": "Jerome", "addr:housenumber": "2645", "addr:postcode": "83338", "addr:state": "ID", "addr:street": "South Lincoln Avenue", "brand": "AutoZone", "brand:wikidata": "Q4826087", "building": "yes", "name": "AutoZone", "operator": "AutoZone", "shop": "car_parts", "website": "https://www.autozone.com/locations/id/jerome/2654-s-lincoln-ave.html"}}, {"type": "way", "id": 545939402, "nodes": [10081125432, 5276381588, 5276381589, 5276381590, 5276381591, 5276381592, 5276381593, 5276381604, 5276381605, 5276381601, 5276381602, 5276381603, 5276381595, 5276381596, 5276381598, 5276381597, 5276381607, 5276381606, 5276381600, 5276381599, 10081125432], "tags": {"addr:city": "Jerome", "addr:country": "US", "addr:housenumber": "2680", "addr:postcode": "83338", "addr:state": "ID", "addr:street": "South Lincoln Avenue", "brand": "Walmart", "brand:wikidata": "Q483551", "building": "yes", "name": "Walmart Supercenter", "opening_hours": "Mo-Su 06:00-24:00", "operator": "Walmart", "payment:app:walmart": "yes", "payment:apple_pay": "no", "payment:google_pay": "no", "payment:samsung_pay": "no", "phone": "+1 208-324-4333", "ref": "2831", "ref:walmart": "2831", "sensory_friendly:accommodation": "dimmed_light;static_screens;no_pa", "sensory_friendly:conditional": "yes @ 08:00-10:00", "shop": "supermarket", "website": "https://www.walmart.com/store/2831-jerome-id"}}, {"type": "way", "id": 699280942, "nodes": [6566489133, 6566489134, 6566489135, 6566489136, 6566489137, 6566489138, 6566489133], "tags": {"building": "yes", "name": "Valley Country Store", "shop": "convenience"}}]}