{"version": 0.6, "generator": "Overpass API 0.7.62.8 e802775f", "osm3s": {"timestamp_osm_base": "2025-12-06T04:21:20Z", "copyright": "The data included in this document is from www.openstreetmap.org. The data is made available under ODbL."}, "elements": [{"type": "node", "id": 357981959, "lat": 48.1990212, "lon": -114.3367088}, {"type": "node", "id": 2406457769, "lat": 48.1996186, "lon": -114.3293974, "tags": {"addr:city": "Kalispell", "addr:housenumber": "900", "addr:postcode": "59901", "addr:state": "MT", "addr:street": "West Idaho Street", "brand": "Albertsons", "brand:wikidata": "Q2831861", "name": "Albertsons", "opening_hours": "Mo-Fr 06:00-23:00; Sa 06:00-23:00; Su 06:00-23:00", "phone": "+1 406-257-7127", "shop": "supermarket", "website": "https://local.albertsons.com/mt/kalispell/900-w-idaho-st.html"}}, {"type": "node", "id": 4908359388, "lat": 48.1990215, "lon": -114.3369782}, {"type": "node", "id": 4908359389, "lat": 48.199041, "lon": -114.3369782}, {"type": "node", "id": 4908359390, "lat": 48.1990411, "lon": -114.3370081}, {"type": "node", "id": 4908359391, "lat": 48.1991046, "lon": -114.337008}, {"type": "node", "id": 4908359392, "lat": 48.1991045, "lon": -114.3369841}, {"type": "node", "id": 4908359393, "lat": 48.1993207, "lon": -114.3369835}, {"type": "node", "id": 4908359394, "lat": 48.1993204, "lon": -114.336708}, {"type": "node", "id": 5701166356, "lat": 48.197201, "lon": -114.3310568}, {"type": "node", "id": 5701166357, "lat": 48.1973875, "lon": -114.3310582}, {"type": "node", "id": 5701166358, "lat": 48.1973881, "lon": -114.33086}, {"type": "node", "id": 5701166359, "lat": 48.1972017, "lon": -114.3308586}, {"type": "node", "id": 5701188509, "lat": 48.2019218, "lon": -114.3337147}, {"type": "node", "id": 5701188510, "lat": 48.2030531, "lon": -114.3336911}, {"type": "node", "id": 5701188511, "lat": 48.2031142, "lon": -114.3341711}, {"type": "node", "id": 5701188512, "lat": 48.2029737, "lon": -114.3344037}, {"type": "node", "id": 5701188513, "lat": 48.2020726, "lon": -114.3344205}, {"type": "node", "id": 5701188514, "lat": 48.2020145, "lon": -114.3345919}, {"type": "node", "id": 5701188515, "lat": 48.2012799, "lon": -114.334602}, {"type": "node", "id": 5701188516, "lat": 48.2011957, "lon": -114.3344491}, {"type": "node", "id": 5701188517, "lat": 48.2006344, "lon": -114.3344594}, {"type": "node", "id": 5701188518, "lat": 48.2006274, "lon": -114.3338523}, {"type": "node", "id": 5701188519, "lat": 48.2007609, "lon": -114.3338544}, {"type": "node", "id": 5701188520, "lat": 48.2008453, "lon": -114.333194}, {"type": "node", "id": 5701189021, "lat": 48.2018404, "lon": -114.3331733}, {"type": "node", "id": 5701698429, "lat": 48.2011975, "lon": -114.3345088}, {"type": "node", "id": 5701698430, "lat": 48.201278, "lon": -114.3345052}, {"type": "node", "id": 5701698432, "lat": 48.2030674, "lon": -114.3339624}, {"type": "node", "id": 5701698434, "lat": 48.2019199, "lon": -114.3334817}, {"type": "node", "id": 5701698435, "lat": 48.2018432, "lon": -114.3334824}, {"type": "node", "id": 5750166018, "lat": 48.1905187, "lon": -114.3329461, "tags": {"name": "Wild Geese Gardens Flower Shop", "shop": "florist"}}, {"type": "node", "id": 5750167134, "lat": 48.1997423, "lon": -114.3290295, "tags": {"addr:city": "Kalispell", "addr:housenumber": "900", "addr:postcode": "59901", "addr:state": "MT", "addr:street": "West Idaho Street", "amenity": "cafe", "branch": "Albertsons Kalispell 18", "brand": "Starbucks", "brand:wikidata": "Q37158", "cuisine": "coffee_shop", "name": "Starbucks", "official_name": "Starbucks Coffee", "phone": "+1 406-257-7127", "ref": "1022232", "takeaway": "yes", "website": "https://www.starbucks.com/store-locator/store/1022232/albertsons-kalispell-18-900-w-idaho-street-kalispell-mt-59901-us"}}, {"type": "node", "id": 5772238504, "lat": 48.1967808, "lon": -114.3324896, "tags": {"addr:city": "Kalispell", "addr:housenumber": "19", "addr:postcode": "59901", "addr:state": "MT", "addr:street": "Appleway Drive", "contact:facebook": "https://www.facebook.com/Swiftcurrent-Consulting-Accounting-PC-393331394060934/", "fax": "+1-406-756-1457", "name": "Swiftcurrent Consulting & Accounting, P.C.", "office": "tax_advisor", "opening_hours": "Mo-Fr 08:30-17:00", "payment:cash": "yes", "payment:cheque": "yes", "payment:mastercard": "yes", "payment:visa": "yes", "phone": "+1-406-755-5428", "website": "https://www.swiftcurrentcpa.com/"}}, {"type": "node", "id": 6062635522, "lat": 48.1972028, "lon": -114.3555344, "tags": {"addr:city": "Kalispell", "addr:housenumber": "1649", "addr:postcode": "59901", "addr:state": "MT", "addr:street": "US Highway 2 West", "name": "Anacker Architects", "office": "architect", "opening_hours": "Mo-Fr 08:00-17:00", "payment:cash": "yes", "payment:cheque": "yes", "phone": "+1-406-257-7125", "website": "http://anackerarchitects.com"}}, {"type": "node", "id": 8178341110, "lat": 48.20801, "lon": -114.333883}, {"type": "node", "id": 8178341111, "lat": 48.20801, "lon": -114.333781}, {"type": "node", "id": 8178341112, "lat": 48.208061, "lon": -114.333781}, {"type": "node", "id": 8178341113, "lat": 48.208061, "lon": -114.333883}, {"type": "node", "id": 8601052575, "lat": 48.2010265, "lon": -114.3319166, "tags": {"amenity": "restaurant", "cuisine": "asian", "name": "Chinatown"}}, {"type": "node", "id": 8601052578, "lat": 48.201216, "lon": -114.3319576, "tags": {"name": "Ecig Vapor Juice Store", "shop": "e-cigarette"}}, {"type": "node", "id": 8601052579, "lat": 48.2012816, "lon": -114.3325978, "tags": {"name": "Mabuhay Oriental Market", "opening_hours": "Tu-Fr 11:00-17:00; Sa 11:00-15:00", "shop": "supermarket"}}, {"type": "node", "id": 8601052580, "lat": 48.2008197, "lon": -114.3327175, "tags": {"brand": "Sears Hometown", "brand:wikidata": "Q69926963", "name": "Sears Hometown", "shop": "department_store"}}, {"type": "node", "id": 8601052581, "lat": 48.2006339, "lon": -114.3327175, "tags": {"alt_name": "MetroPCS", "brand": "Metro by T-Mobile", "brand:wikidata": "Q1925685", "name": "Metro by T-Mobile", "shop": "mobile_phone", "website": "https://www.metrobyt-mobile.com/stores/bd/metro-by-t-mobile-kalispell-mt-10231965/"}}, {"type": "node", "id": 8601052583, "lat": 48.2016755, "lon": -114.330982, "tags": {"name": "Universal Athletics", "shop": "clothes"}}, {"type": "node", "id": 8601052681, "lat": 48.2009164, "lon": -114.336158, "tags": {"amenity": "cafe", "name": "The River Coffee Company"}}, {"type": "node", "id": 8601052682, "lat": 48.203113, "lon": -114.3376674, "tags": {"name": "Probation & Parole Office", "office": "government"}}, {"type": "node", "id": 8601091535, "lat": 48.1997023, "lon": -114.3371949, "tags": {"name": "Loren's Auto Repair", "shop": "car_repair"}}, {"type": "node", "id": 8601091596, "lat": 48.1988457, "lon": -114.3387966, "tags": {"name": "US Social Security Administration", "office": "government"}}, {"type": "node", "id": 8601091597, "lat": 48.1986289, "lon": -114.3388113, "tags": {"name": "Drivers Services Department", "office": "government"}}, {"type": "node", "id": 8601091598, "lat": 48.1984122, "lon": -114.3388083, "tags": {"government": "yes", "name": "Drivers Service Bureau", "office": "government"}}, {"type": "node", "id": 8601155355, "lat": 48.2066231, "lon": -114.3310394, "tags": {"name": "Crescent Electric Supply Company", "shop": "hardware"}}, {"type": "node", "id": 8601155356, "lat": 48.2059149, "lon": -114.3310053, "tags": {"name": "Montana Land & Real Estate Investments, Inc.", "office": "estate_agent"}}, {"type": "node", "id": 8601155359, "lat": 48.2070347, "lon": -114.3307344, "tags": {"name": "Dog Gone Clean", "shop": "pet_grooming"}}, {"type": "node", "id": 8601155361, "lat": 48.2069788, "lon": -114.3318986, "tags": {"name": "The Finer Things", "shop": "antiques"}}, {"type": "node", "id": 8601155362, "lat": 48.2075483, "lon": -114.3312472, "tags": {"name": "North Western Energy", "office": "energy_supplier"}}, {"type": "node", "id": 8601155363, "lat": 48.2083671, "lon": -114.3312762, "tags": {"name": "H & A Automotive Inc", "shop": "car_repair"}}, {"type": "node", "id": 10297828997, "lat": 48.1982766, "lon": -114.3308598, "tags": {"addr:city": "Kalispell", "addr:housenumber": "130", "addr:postcode": "59901-3848", "addr:state": "MT", "addr:street": "North Meridian Road", "brand": "Ace Hardware", "brand:wikidata": "Q4672981", "contact:phone": "+1 406 755 9701", "contact:website": "https://www.montanaace.com", "name": "Ace Hardware", "opening_hours": "Mo-Fr 07:00-21:00", "ref": "11940", "shop": "doityourself"}}, {"type": "node", "id": 10297839445, "lat": 48.1991672, "lon": -114.3300611, "tags": {"name": "Smoker Friendly", "shop": "e-cigarette"}}, {"type": "node", "id": 10725176266, "lat": 48.1973941, "lon": -114.3480655, "tags": {"name": "Flathead Janitorial Restoration & Cleaning", "shop": "wholesale"}}, {"type": "node", "id": 10725176364, "lat": 48.1964977, "lon": -114.3362636, "tags": {"name": "Appleway Storage", "shop": "storage_rental"}}, {"type": "node", "id": 10725176366, "lat": 48.1958933, "lon": -114.3372949, "tags": {"name": "Burrows Cabinetry Plus", "shop": "kitchen"}}, {"type": "node", "id": 10913586618, "lat": 48.199101, "lon": -114.3349755, "tags": {"amenity": "restaurant", "contact:phone": "+1 406 300-0286", "cuisine": "burger", "drive_through": "yes", "name": "Mud Man Burgers", "opening_hours": "Mo-Sa 07:00-20:00", "takeaway": "yes"}}, {"type": "node", "id": 11099772068, "lat": 48.2010388, "lon": -114.3344861}, {"type": "node", "id": 11099772069, "lat": 48.2007393, "lon": -114.3344902}, {"type": "node", "id": 11099772070, "lat": 48.2007411, "lon": -114.334458}, {"type": "node", "id": 11099772071, "lat": 48.2010379, "lon": -114.3344499}, {"type": "node", "id": 11099772072, "lat": 48.2007599, "lon": -114.3338082}, {"type": "node", "id": 11099772073, "lat": 48.2008529, "lon": -114.3337552}, {"type": "node", "id": 11099773839, "lat": 48.2008104, "lon": -114.3337794, "tags": {"amenity": "loading_dock"}}, {"type": "node", "id": 11099773841, "lat": 48.2007729, "lon": -114.3338008}, {"type": "node", "id": 11099780671, "lat": 48.2030546, "lon": -114.3339624}, {"type": "node", "id": 11099780672, "lat": 48.2030683, "lon": -114.3341163}, {"type": "node", "id": 11099780673, "lat": 48.203077, "lon": -114.334116}, {"type": "node", "id": 11099780674, "lat": 48.2020135, "lon": -114.3345458}, {"type": "node", "id": 11099780675, "lat": 48.2020748, "lon": -114.3345478}, {"type": "node", "id": 11099780696, "lat": 48.2002589, "lon": -114.3340208, "tags": {"contact:phone": "+1 406-756-2042", "name": "Flathead Liquor", "opening_hours": "Mo-Su 09:00-22:00", "shop": "alcohol"}}, {"type": "node", "id": 11100042135, "lat": 48.2011103, "lon": -114.3310234, "tags": {"amenity": "restaurant", "name": "La Casita"}}, {"type": "node", "id": 11100042137, "lat": 48.2010491, "lon": -114.3310247, "tags": {"name": "Michael's", "shop": "convenience"}}, {"type": "node", "id": 11107825538, "lat": 48.2037883, "lon": -114.3309751, "tags": {"government": "forestry", "name": "Fish Wildlife & Parks Department", "office": "government"}}, {"type": "node", "id": 11139491707, "lat": 48.1923746, "lon": -114.3333904, "tags": {"shop": "musical_instrument"}}, {"type": "node", "id": 11191435016, "lat": 48.1986637, "lon": -114.3289836, "tags": {"addr:unit": "Suite 105", "contact:email": "info@heroicrealms.com", "contact:phone": "+1 406 885-1243", "name": "Heroic Realms", "opening_hours": "Tu-Fr 13:00-21:00; Sa 12:00-20:00", "shop": "games"}}, {"type": "node", "id": 11435091669, "lat": 48.2006611, "lon": -114.3317965, "tags": {"amenity": "cafe", "cuisine": "coffee_shop", "delivery": "no", "drive_through": "yes", "name": "Kalispell Koffee", "takeaway": "only"}}, {"type": "node", "id": 11654088780, "lat": 48.1872425, "lon": -114.3320386, "tags": {"name": "Cinmar Auto Repair", "shop": "car_repair"}}, {"type": "way", "id": 499570763, "nodes": [357981959, 4908359394, 4908359393, 4908359392, 4908359391, 4908359390, 4908359389, 4908359388, 357981959], "tags": {"amenity": "restaurant", "building": "yes", "name": "Fatt Boys Bar and Grille"}}, {"type": "way", "id": 599135193, "nodes": [5701166356, 5701166357, 5701166358, 5701166359, 5701166356], "tags": {"building": "yes", "name": "Conoco", "shop": "convenience"}}, {"type": "way", "id": 599138213, "nodes": [5701188509, 5701188510, 11099780671, 5701698432, 11099780672, 11099780673, 5701188511, 5701188512, 5701188513, 11099780675, 11099780674, 5701188514, 5701188515, 5701698430, 5701698429, 5701188516, 11099772071, 11099772068, 11099772069, 11099772070, 5701188517, 5701188518, 5701188519, 11099772072, 11099773841, 11099773839, 11099772073, 5701188520, 5701189021, 5701698435, 5701698434, 5701188509], "tags": {"addr:housenumber": "1203", "addr:state": "MT", "addr:street": "West Idaho Street", "building": "yes", "name": "Gateway West Mall", "shop": "mall"}}, {"type": "way", "id": 879110637, "nodes": [8178341110, 8178341111, 8178341112, 8178341113, 8178341110], "tags": {"building": "yes", "shop": "storage_rental", "source": "microsoft/BuildingFootprints"}}]}