{"version": 0.6, "generator": "Overpass API 0.7.62.8 e802775f", "osm3s": {"timestamp_osm_base": "2025-12-06T04:25:34Z", "copyright": "The data included in this document is from www.openstreetmap.org. The data is made available under ODbL."}, "elements": [{"type": "node", "id": 1868211110, "lat": 45.8062919, "lon": -108.472745}, {"type": "node", "id": 1868211111, "lat": 45.805936, "lon": -108.472746}, {"type": "node", "id": 1868211112, "lat": 45.8059359, "lon": -108.4727079}, {"type": "node", "id": 1868211113, "lat": 45.8053317, "lon": -108.4727095}, {"type": "node", "id": 1868211114, "lat": 45.8053317, "lon": -108.4726826}, {"type": "node", "id": 1868211117, "lat": 45.8051994, "lon": -108.4723994}, {"type": "node", "id": 1868211118, "lat": 45.8051969, "lon": -108.4715777}, {"type": "node", "id": 1868211119, "lat": 45.8053763, "lon": -108.4715773}, {"type": "node", "id": 1868211120, "lat": 45.8053762, "lon": -108.4715303}, {"type": "node", "id": 1868211121, "lat": 45.8054617, "lon": -108.4715301}, {"type": "node", "id": 1868211122, "lat": 45.8054615, "lon": -108.4713833}, {"type": "node", "id": 1868211123, "lat": 45.8062901, "lon": -108.471381}, {"type": "node", "id": 1868211124, "lat": 45.8049177, "lon": -108.4726744}, {"type": "node", "id": 1868211125, "lat": 45.8049206, "lon": -108.4723935}, {"type": "node", "id": 1868211126, "lat": 45.8045765, "lon": -108.4726695}, {"type": "node", "id": 1868211127, "lat": 45.8045804, "lon": -108.4719472}, {"type": "node", "id": 1868211128, "lat": 45.8048246, "lon": -108.47195}, {"type": "node", "id": 1868211129, "lat": 45.8048249, "lon": -108.471889}, {"type": "node", "id": 1868211130, "lat": 45.8049228, "lon": -108.4718901}, {"type": "node", "id": 2999159790, "lat": 45.8074786, "lon": -108.4752095}, {"type": "node", "id": 2999159791, "lat": 45.8074857, "lon": -108.4746999}, {"type": "node", "id": 2999159792, "lat": 45.8078862, "lon": -108.4747113}, {"type": "node", "id": 2999159793, "lat": 45.8078869, "lon": -108.4746629}, {"type": "node", "id": 2999159794, "lat": 45.8079538, "lon": -108.4747169}, {"type": "node", "id": 2999159795, "lat": 45.8079545, "lon": -108.4746649}, {"type": "node", "id": 2999159796, "lat": 45.8080883, "lon": -108.4752269}, {"type": "node", "id": 2999159797, "lat": 45.8080954, "lon": -108.474721}, {"type": "node", "id": 4359438562, "lat": 45.817095, "lon": -108.4716939, "tags": {"name": "Holiday", "shop": "convenience", "source": "Bing"}}, {"type": "node", "id": 4359438584, "lat": 45.810176, "lon": -108.4734668, "tags": {"addr:city": "Billings", "addr:housenumber": "670", "addr:postcode": "59105", "addr:state": "MT", "addr:street": "Main Street", "brand": "Albertsons", "brand:wikidata": "Q2831861", "name": "Albertsons", "opening_hours": "Mo-Fr 06:00-23:00; Sa 06:00-23:00; Su 06:00-23:00", "phone": "+1 406-245-8792", "shop": "supermarket", "source": "Bing", "website": "https://local.albertsons.com/mt/billings/670-main-st.html"}}, {"type": "node", "id": 4359438588, "lat": 45.8035516, "lon": -108.478538, "tags": {"name": "Zip Trip", "shop": "convenience", "source": "Bing"}}, {"type": "node", "id": 5282640539, "lat": 45.8051965, "lon": -108.4726804}, {"type": "node", "id": 7223814257, "lat": 45.8030869, "lon": -108.4581511}, {"type": "node", "id": 7223814258, "lat": 45.8030871, "lon": -108.4581802}, {"type": "node", "id": 7223814259, "lat": 45.8030563, "lon": -108.4581807}, {"type": "node", "id": 7223814260, "lat": 45.8030561, "lon": -108.4581534}, {"type": "node", "id": 7223814261, "lat": 45.80305, "lon": -108.4581535}, {"type": "node", "id": 7223814262, "lat": 45.80305, "lon": -108.4581508}, {"type": "node", "id": 7223814263, "lat": 45.8030377, "lon": -108.458151}, {"type": "node", "id": 7223814264, "lat": 45.8030377, "lon": -108.4581411}, {"type": "node", "id": 7223814265, "lat": 45.8030226, "lon": -108.4581413}, {"type": "node", "id": 7223814266, "lat": 45.8030224, "lon": -108.4581093}, {"type": "node", "id": 7223814267, "lat": 45.8030362, "lon": -108.4581091}, {"type": "node", "id": 7223814268, "lat": 45.8030355, "lon": -108.4579981}, {"type": "node", "id": 7223814269, "lat": 45.8031182, "lon": -108.4579969}, {"type": "node", "id": 7223814270, "lat": 45.803118, "lon": -108.4579623}, {"type": "node", "id": 7223814271, "lat": 45.803205, "lon": -108.4579611}, {"type": "node", "id": 7223814272, "lat": 45.8032053, "lon": -108.4579928}, {"type": "node", "id": 7223814273, "lat": 45.8032067, "lon": -108.4579928}, {"type": "node", "id": 7223814274, "lat": 45.803208, "lon": -108.458149}, {"type": "node", "id": 7863333369, "lat": 45.801656, "lon": -108.480496}, {"type": "node", "id": 7863333370, "lat": 45.801566, "lon": -108.480528}, {"type": "node", "id": 7863333371, "lat": 45.801492, "lon": -108.4801}, {"type": "node", "id": 7863333372, "lat": 45.801656, "lon": -108.480042}, {"type": "node", "id": 7863333373, "lat": 45.801717, "lon": -108.480398}, {"type": "node", "id": 7863333374, "lat": 45.801643, "lon": -108.480424}, {"type": "node", "id": 7933505803, "lat": 45.806363, "lon": -108.475764}, {"type": "node", "id": 7933505804, "lat": 45.8063373, "lon": -108.4757629}, {"type": "node", "id": 7933505805, "lat": 45.8062647, "lon": -108.4758232}, {"type": "node", "id": 7933505806, "lat": 45.8062559, "lon": -108.4758014}, {"type": "node", "id": 7933505807, "lat": 45.8062353, "lon": -108.4758186}, {"type": "node", "id": 7933505808, "lat": 45.8062145, "lon": -108.4757673}, {"type": "node", "id": 7933505809, "lat": 45.8062043, "lon": -108.4757757}, {"type": "node", "id": 7933505810, "lat": 45.8061794, "lon": -108.4757143}, {"type": "node", "id": 7933505811, "lat": 45.8062516, "lon": -108.4756541}, {"type": "node", "id": 7933505812, "lat": 45.806241, "lon": -108.4756279}, {"type": "node", "id": 7933505813, "lat": 45.8062718, "lon": -108.4756021}, {"type": "node", "id": 7933505814, "lat": 45.8062767, "lon": -108.475614}, {"type": "node", "id": 7933505815, "lat": 45.8063526, "lon": -108.4755505}, {"type": "node", "id": 7933505816, "lat": 45.8063769, "lon": -108.4756102}, {"type": "node", "id": 7933505817, "lat": 45.806366, "lon": -108.4756193}, {"type": "node", "id": 7933505956, "lat": 45.8069648, "lon": -108.4733899}, {"type": "node", "id": 7933505957, "lat": 45.8071886, "lon": -108.4732184}, {"type": "node", "id": 7933505958, "lat": 45.8073732, "lon": -108.4737141}, {"type": "node", "id": 7933505959, "lat": 45.8071494, "lon": -108.4738856}, {"type": "node", "id": 7933532567, "lat": 45.8050937, "lon": -108.4725322, "tags": {"brand": "Party City", "brand:wikidata": "Q7140896", "name": "Party City", "shop": "party"}}, {"type": "node", "id": 7933532569, "lat": 45.8065945, "lon": -108.4743409, "tags": {"amenity": "restaurant", "cuisine": "pizza", "name": "MacKenzie River Pizza"}}, {"type": "node", "id": 7933565753, "lat": 45.813076, "lon": -108.473978}, {"type": "node", "id": 7933565754, "lat": 45.813294, "lon": -108.473981}, {"type": "node", "id": 7933565755, "lat": 45.813293, "lon": -108.474204}, {"type": "node", "id": 8316726061, "lat": 45.7949911, "lon": -108.4647208, "tags": {"name": "Metra RV Center", "shop": "caravan"}}, {"type": "node", "id": 8316726069, "lat": 45.7967172, "lon": -108.4630968, "tags": {"name": "Adventure RV", "shop": "caravan"}}, {"type": "node", "id": 8431052457, "lat": 45.8036969, "lon": -108.4767669, "tags": {"name": "Bottles & Shots Liquor Store", "shop": "alcohol"}}, {"type": "node", "id": 8431052535, "lat": 45.8042557, "lon": -108.4776912, "tags": {"amenity": "restaurant", "name": "Tippy Cow Cafe"}}, {"type": "node", "id": 8431052536, "lat": 45.8044372, "lon": -108.4785899, "tags": {"name": "Magic Diamond Liquor Store", "shop": "alcohol"}}, {"type": "node", "id": 8431052556, "lat": 45.8042456, "lon": -108.4800527, "tags": {"amenity": "restaurant", "name": "Chau Kitchen"}}, {"type": "node", "id": 8431052574, "lat": 45.8040711, "lon": -108.4763327, "tags": {"brand": "Sport Clips", "brand:wikidata": "Q7579310", "name": "Sport Clips", "shop": "hairdresser"}}, {"type": "node", "id": 8431052575, "lat": 45.8042562, "lon": -108.4763449, "tags": {"brand": "T-Mobile", "brand:wikidata": "Q3511885", "name": "T-Mobile", "shop": "mobile_phone", "website": "https://www.t-mobile.com/stores/bd/t-mobile-billings-mt-59105-802e"}}, {"type": "node", "id": 8431052576, "lat": 45.8058545, "lon": -108.4765544, "tags": {"name": "Spin Fresh Laundry", "self_service": "yes", "shop": "laundry"}}, {"type": "node", "id": 8431052579, "lat": 45.8073457, "lon": -108.4751461, "tags": {"name": "Town Pump", "shop": "convenience"}}, {"type": "node", "id": 8431052623, "lat": 45.8085984, "lon": -108.4724463, "tags": {"amenity": "restaurant", "cuisine": "mexican", "name": "Taco Del Sol"}}, {"type": "node", "id": 8431052624, "lat": 45.8088213, "lon": -108.4724457, "tags": {"brand": "Cricket Wireless", "brand:wikidata": "Q5184987", "name": "Cricket Wireless", "shop": "mobile_phone"}}, {"type": "node", "id": 8431052659, "lat": 45.8110872, "lon": -108.4712855, "tags": {"name": "Tobacco Row", "shop": "tobacco"}}, {"type": "node", "id": 8431052660, "lat": 45.811345, "lon": -108.4713314, "tags": {"name": "Off Main Deli & Bakery", "shop": "bakery"}}, {"type": "node", "id": 8431052661, "lat": 45.8115925, "lon": -108.4711285, "tags": {"name": "Auto Market", "second_hand": "only", "shop": "car"}}, {"type": "node", "id": 8431052662, "lat": 45.8112964, "lon": -108.4726405, "tags": {"amenity": "cafe", "name": "City Brew Coffee"}}, {"type": "node", "id": 8431052664, "lat": 45.8115571, "lon": -108.4732554, "tags": {"amenity": "restaurant", "name": "Montana Jack's"}}, {"type": "node", "id": 8431052677, "lat": 45.8125248, "lon": -108.4750178, "tags": {"name": "Ace Storage Center", "shop": "storage_rental"}}, {"type": "node", "id": 8431052679, "lat": 45.8126331, "lon": -108.470092, "tags": {"name": "Floor Craft", "shop": "hardware"}}, {"type": "node", "id": 8431052692, "lat": 45.8131058, "lon": -108.470662, "tags": {"addr:city": "Billings", "addr:housenumber": "611", "addr:postcode": "59105", "addr:state": "MT", "addr:street": "Hilltop Road", "alt_name": "Verizon Wireless", "brand": "Verizon", "brand:wikidata": "Q919641", "name": "Verizon", "shop": "mobile_phone"}}, {"type": "node", "id": 8431052718, "lat": 45.8132063, "lon": -108.4729654, "tags": {"amenity": "restaurant", "name": "Blues BBQ"}}, {"type": "node", "id": 8431052719, "lat": 45.8133941, "lon": -108.4729495, "tags": {"name": "Town Country Supply", "shop": "convenience"}}, {"type": "node", "id": 8431052743, "lat": 45.813074, "lon": -108.474201}, {"type": "node", "id": 8431052744, "lat": 45.8143418, "lon": -108.4703067, "tags": {"brand": "O'Reilly Auto Parts", "brand:wikidata": "Q7071951", "name": "O'Reilly Auto Parts", "shop": "car_parts", "website": "https://locations.oreillyauto.com/mt/billings/autoparts-1549.html"}}, {"type": "node", "id": 8431052745, "lat": 45.8148388, "lon": -108.470261, "tags": {"brand": "AT&T", "brand:wikidata": "Q298594", "name": "AT&T", "shop": "mobile_phone"}}, {"type": "node", "id": 8431052747, "lat": 45.8147602, "lon": -108.4702671, "tags": {"brand": "State Farm", "brand:wikidata": "Q2007336", "name": "State Farm", "office": "insurance"}}, {"type": "node", "id": 8431052748, "lat": 45.8149131, "lon": -108.470261, "tags": {"brand": "RadioShack", "brand:wikidata": "Q1195490", "name": "RadioShack", "shop": "electronics"}}, {"type": "node", "id": 8431052749, "lat": 45.8152444, "lon": -108.4702153, "tags": {"amenity": "restaurant", "brand": "Godfather's Pizza", "brand:wikidata": "Q5576353", "cuisine": "pizza", "name": "Godfather's Pizza"}}, {"type": "node", "id": 8431052759, "lat": 45.8158677, "lon": -108.4702549, "tags": {"name": "Tire-Rama", "shop": "tyres"}}, {"type": "node", "id": 8431052771, "lat": 45.8163696, "lon": -108.4714073, "tags": {"beauty": "tanning", "name": "Knock Out Beauty", "shop": "beauty"}}, {"type": "node", "id": 8431052772, "lat": 45.8164016, "lon": -108.4703278, "tags": {"name": "The Paint Doctor", "shop": "car_parts"}}, {"type": "node", "id": 8431052773, "lat": 45.8160948, "lon": -108.4721843, "tags": {"name": "Jasmine Massage", "shop": "massage"}}, {"type": "node", "id": 8431052774, "lat": 45.8167458, "lon": -108.4714187, "tags": {"brand": "Safelite AutoGlass", "brand:wikidata": "Q28797369", "name": "Safelite AutoGlass", "service:vehicle:glass": "yes", "shop": "car_repair"}}, {"type": "node", "id": 8431052821, "lat": 45.8170072, "lon": -108.4702245, "tags": {"brand": "Jiffy Lube", "brand:wikidata": "Q6192247", "name": "Jiffy Lube", "shop": "car_repair"}}, {"type": "node", "id": 8431052822, "lat": 45.8176635, "lon": -108.4703316, "tags": {"brand": "AutoZone", "brand:wikidata": "Q4826087", "name": "AutoZone", "shop": "car_parts", "website": "https://www.autozone.com/locations/mt/billings/1029-main-st.html"}}, {"type": "node", "id": 8431052824, "lat": 45.8176928, "lon": -108.4719891, "tags": {"brand": "H&R Block", "brand:wikidata": "Q5627799", "name": "H&R Block", "office": "tax_advisor"}}, {"type": "node", "id": 8431052825, "lat": 45.8179329, "lon": -108.4716829, "tags": {"name": "Kidz Dudz", "shop": "second_hand"}}, {"type": "node", "id": 8431052827, "lat": 45.8180877, "lon": -108.4701402, "tags": {"amenity": "bar", "name": "Stadium Club"}}, {"type": "node", "id": 8431052837, "lat": 45.8186933, "lon": -108.4702742, "tags": {"name": "Battery Systems of Billings", "shop": "car_parts"}}, {"type": "node", "id": 8431052838, "lat": 45.8185572, "lon": -108.4716369, "tags": {"name": "Magic City Markers", "shop": "tattoo"}}, {"type": "node", "id": 8431052839, "lat": 45.8185465, "lon": -108.4703967, "tags": {"name": "JM Insurance Group", "office": "insurance"}}, {"type": "node", "id": 8431052846, "lat": 45.8189989, "lon": -108.4702056, "tags": {"name": "Heights Automotive Services", "shop": "car_repair"}}, {"type": "node", "id": 8431052856, "lat": 45.8198952, "lon": -108.4701674, "tags": {"brand": "U-Haul", "brand:wikidata": "Q7862902", "name": "U-Haul", "shop": "rental"}}, {"type": "node", "id": 8431052866, "lat": 45.8203221, "lon": -108.4703511, "tags": {"brand": "Carquest", "brand:wikidata": "Q5045948", "name": "Carquest", "official_name": "Carquest Auto Parts", "shop": "car_parts"}}, {"type": "node", "id": 9680177700, "lat": 45.8123876, "lon": -108.473073, "tags": {"addr:city": "Billings", "addr:country": "US", "addr:housenumber": "515", "addr:postcode": "59105", "addr:state": "MT", "addr:street": "Hansen Lane", "name": "Generator Starter Shop", "opening_hours": "Mo-Fr 07:30-17:30; Sa 07:30-12:00", "operator": "Dani Bestrom", "payment:american_express": "yes", "payment:cash": "yes", "payment:cheque": "yes", "payment:discover_card": "yes", "payment:mastercard": "yes", "payment:visa": "yes", "phone": "+1-406-252-7342", "shop": "car_parts", "start_date": "2017", "website": "https://generatorstartershop.com"}}, {"type": "node", "id": 9704358167, "lat": 45.7959273, "lon": -108.4838365, "tags": {"addr:city": "Billings", "addr:housenumber": "813", "addr:postcode": "59101", "addr:state": "MT", "addr:street": "3rd Avenue North", "name": "Billings Overhead Door Co.", "opening_hours": "Mo-Fr 08:00-17:00", "phone": "+1 406-248-7785", "shop": "wholesale", "wholesale": "hardware"}}, {"type": "node", "id": 9704369315, "lat": 45.796277, "lon": -108.4834502, "tags": {"addr:city": "Billings", "addr:housenumber": "804", "addr:postcode": "59101", "addr:state": "MT", "addr:street": "4th Avenue North", "name": "Fischer Commercial Flooring", "opening_hours": "Mo-Fr 08:00-17:00", "shop": "flooring"}}, {"type": "node", "id": 9756180133, "lat": 45.7921974, "lon": -108.485289, "tags": {"addr:city": "Billings", "addr:housenumber": "300", "addr:postcode": "59102", "addr:state": "MT", "addr:street": "S 24th St W", "addr:unit": "E09", "name": "Better Body Fitness", "opening_hours": "Mo-Sa 10:00-21:00,Su 12:00-18:00", "phone": "+1 406-652-4233", "shop": "sports", "sport": "exercise_equipment;treadmills;elliptical;fitness_equipments;personal_trainer", "website": "https://betterbodymontana.com"}}, {"type": "node", "id": 10093655685, "lat": 45.8115163, "lon": -108.4767288, "tags": {"name": "3 G's Convenience Center", "shop": "convenience"}}, {"type": "node", "id": 11187290681, "lat": 45.8050282, "lon": -108.4687878, "tags": {"addr:city": "Billings", "addr:housenumber": "348", "addr:postcode": "59105", "addr:state": "MT", "addr:street": "Bench Boulevard", "name": "K Lehfeldt Real Estate", "office": "estate_agent", "opening_hours": "24/7", "operator": "Karlene Lehfeldt", "payment:cheque": "yes", "phone": "+1-406-860-7901", "website": "https://klehfeldtrealestate.com"}}, {"type": "node", "id": 12450146874, "lat": 45.79987, "lon": -108.4613951, "tags": {"addr:housenumber": "101", "addr:street": "Cerise Road", "addr:unit": "K", "name": "Dr. Auto Repair and Performance", "phone": "+1-406-855-9631", "shop": "car_repair", "website": "https://www.drautobillings.com"}}, {"type": "node", "id": 12706375654, "lat": 45.8157642, "lon": -108.4716398, "tags": {"addr:city": "Billings", "addr:housenumber": "926", "addr:postcode": "59105", "addr:state": "MT", "addr:street": "Main Street", "name": "A Fine Line Custom Tattoo Studio", "opening_hours": "Mo-Su 10:00-18:00", "phone": "+1-406-534-2262", "shop": "tattoo", "website": "https://www.facebook.com/AFineLinecustomtattoostudio"}}, {"type": "node", "id": 12989866802, "lat": 45.7925811, "lon": -108.4847269, "tags": {"addr:housenumber": "1019", "addr:postcode": "59101", "addr:street": "1st Avenue North", "name": "Montana Liquor Inc", "opening_hours": "Tu-Sa 09:00-19:00; Mo 09:00-18:00", "shop": "alcohol"}}, {"type": "way", "id": 176274603, "nodes": [1868211110, 1868211111, 1868211112, 1868211113, 1868211114, 5282640539, 1868211117, 1868211118, 1868211119, 1868211120, 1868211121, 1868211122, 1868211123, 1868211110], "tags": {"addr:city": "Billings", "addr:housenumber": "403", "addr:postcode": "59105-3227", "addr:state": "MT", "addr:street": "Main Street", "brand": "Target", "brand:wikidata": "Q1046951", "building": "yes", "name": "Target", "opening_hours": "08:00-22:00", "phone": "+1 406-256-7020", "shop": "department_store", "source": "Bing", "website": "https://www.target.com/sl/billings-heights/1333"}}, {"type": "way", "id": 176274605, "nodes": [1868211124, 1868211126, 1868211127, 1868211128, 1868211129, 1868211130, 1868211125, 1868211124], "tags": {"addr:city": "Billings", "addr:housenumber": "323", "addr:postcode": "59105", "addr:state": "MT", "addr:street": "Lake Elmo Drive", "brand": "Office Depot", "brand:wikidata": "Q1337797", "building": "yes", "name": "Office Depot", "opening_hours": "Mo-Fr 09:00-20:00; Sa 10:00-19:00; Su 11:00-18:00", "phone": "+1 406-896-8610", "ref": "2135", "shop": "stationery", "source": "Bing", "website": "https://www.officedepot.com/storelocator/mt/billings/office-depot-2135"}}, {"type": "way", "id": 296130112, "nodes": [2999159796, 2999159790, 2999159791, 2999159792, 2999159793, 2999159795, 2999159794, 2999159797, 2999159796], "tags": {"addr:city": "Billings", "addr:housenumber": "496", "addr:postcode": "59105", "addr:state": "MT", "addr:street": "Main Street", "brand": "Tractor Supply Company", "brand:wikidata": "Q15109925", "building": "retail", "name": "Tractor Supply Company", "opening_hours": "Mo-Sa 08:00-21:00; Su 09:00-19:00", "phone": "+1 406-252-8626", "ref": "303", "shop": "country_store"}}, {"type": "way", "id": 773902821, "nodes": [7223814257, 7223814258, 7223814259, 7223814260, 7223814261, 7223814262, 7223814263, 7223814264, 7223814265, 7223814266, 7223814267, 7223814268, 7223814269, 7223814270, 7223814271, 7223814272, 7223814273, 7223814274, 7223814257], "tags": {"building": "yes", "shop": "yes"}}, {"type": "way", "id": 842911180, "nodes": [7863333369, 7863333370, 7863333371, 7863333372, 7863333373, 7863333374, 7863333369], "tags": {"amenity": "restaurant", "brand": "Applebee's Neighborhood Grill & Bar", "brand:wikidata": "Q621532", "building": "yes", "cuisine": "american", "name": "Applebee's", "official_name": "Applebee's Neighborhood Grill & Bar", "phone": "+1 406-896-8450", "source": "microsoft/BuildingFootprints", "website": "https://restaurants.applebees.com/en-us/mt/billings/204-main-93080", "website:menu": "https://www.applebees.com/en/menu?StoreNumber=93080&action=viewmenu"}}, {"type": "way", "id": 850377330, "nodes": [7933505803, 7933505804, 7933505805, 7933505806, 7933505807, 7933505808, 7933505809, 7933505810, 7933505811, 7933505812, 7933505813, 7933505814, 7933505815, 7933505816, 7933505817, 7933505803], "tags": {"addr:city": "Billings", "addr:housenumber": "406", "addr:postcode": "59105", "addr:state": "MT", "addr:street": "Main Street", "amenity": "cafe", "branch": "Billings - Main Street", "brand": "Starbucks", "brand:wikidata": "Q37158", "building": "yes", "cuisine": "coffee_shop", "name": "Starbucks", "official_name": "Starbucks Coffee", "phone": "+1 406-606-0486", "ref": "1014104", "takeaway": "yes", "website": "https://www.starbucks.com/store-locator/store/1014104/billings-main-street-406-main-street-billings-mt-591053228-us"}}, {"type": "way", "id": 850377361, "nodes": [7933505956, 7933505957, 7933505958, 7933505959, 7933505956], "tags": {"brand": "CVS Pharmacy", "brand:website": "https://www.cvs.com/", "brand:wikidata": "Q2078880", "building": "yes", "name": "CVS Pharmacy", "shop": "chemist", "short_name": "CVS", "source": "microsoft/BuildingFootprints", "website": "https://www.cvs.com/store-locator/billings-mt-pharmacies/425-east-main-st-billings-mt-59105/storeid=5302"}}, {"type": "way", "id": 850383669, "nodes": [8431052743, 7933565753, 7933565754, 7933565755, 8431052743], "tags": {"amenity": "restaurant", "building": "yes", "name": "The Vig | Alehouse & Casino", "source": "microsoft/BuildingFootprints"}}]}