{"version": 0.6, "generator": "Overpass API 0.7.62.8 e802775f", "osm3s": {"timestamp_osm_base": "2025-12-07T02:18:51Z", "copyright": "The data included in this document is from www.openstreetmap.org. The data is made available under ODbL."}, "elements": [{"type": "node", "id": 924663123, "lat": 45.6714371, "lon": -122.5205821}, {"type": "node", "id": 1547826126, "lat": 45.6717155, "lon": -122.5066382}, {"type": "node", "id": 1547826149, "lat": 45.6718247, "lon": -122.5066382}, {"type": "node", "id": 1547826153, "lat": 45.6717155, "lon": -122.50708}, {"type": "node", "id": 1547826178, "lat": 45.6718248, "lon": -122.50708}, {"type": "node", "id": 2263303468, "lat": 45.6888755, "lon": -122.5125843}, {"type": "node", "id": 2263303471, "lat": 45.6888753, "lon": -122.5139685}, {"type": "node", "id": 2263303474, "lat": 45.6888769, "lon": -122.5137175}, {"type": "node", "id": 2263303480, "lat": 45.6888802, "lon": -122.5142336}, {"type": "node", "id": 2263303482, "lat": 45.6888975, "lon": -122.5163407}, {"type": "node", "id": 2263303484, "lat": 45.6902388, "lon": -122.5125937}, {"type": "node", "id": 2263303486, "lat": 45.690276, "lon": -122.5163602}, {"type": "node", "id": 2474781510, "lat": 45.6853741, "lon": -122.5049759}, {"type": "node", "id": 3790999810, "lat": 45.6890507, "lon": -122.5150771}, {"type": "node", "id": 3790999811, "lat": 45.6890507, "lon": -122.5158368}, {"type": "node", "id": 3790999815, "lat": 45.6891578, "lon": -122.5150771}, {"type": "node", "id": 3790999816, "lat": 45.6891578, "lon": -122.5158368}, {"type": "node", "id": 3790999821, "lat": 45.6893341, "lon": -122.5161614}, {"type": "node", "id": 3790999822, "lat": 45.6893341, "lon": -122.5162538}, {"type": "node", "id": 3790999826, "lat": 45.689457, "lon": -122.515918}, {"type": "node", "id": 3790999827, "lat": 45.689457, "lon": -122.5161614}, {"type": "node", "id": 3790999832, "lat": 45.6899357, "lon": -122.5160803}, {"type": "node", "id": 3790999833, "lat": 45.6899357, "lon": -122.5162538}, {"type": "node", "id": 3790999835, "lat": 45.6900459, "lon": -122.515918}, {"type": "node", "id": 3790999836, "lat": 45.6900459, "lon": -122.5160803}, {"type": "node", "id": 3906033327, "lat": 45.6849442, "lon": -122.5053184}, {"type": "node", "id": 4003583307, "lat": 45.6717564, "lon": -122.5087789}, {"type": "node", "id": 4004450376, "lat": 45.6715504, "lon": -122.5074671}, {"type": "node", "id": 4004450377, "lat": 45.6715529, "lon": -122.5083379}, {"type": "node", "id": 4004450380, "lat": 45.6715624, "lon": -122.5088423}, {"type": "node", "id": 4004450381, "lat": 45.6715628, "lon": -122.508921}, {"type": "node", "id": 4004450382, "lat": 45.6715703, "lon": -122.5087809}, {"type": "node", "id": 4004450383, "lat": 45.6715706, "lon": -122.5088422}, {"type": "node", "id": 4004450384, "lat": 45.6715847, "lon": -122.5083389}, {"type": "node", "id": 4004451091, "lat": 45.6715992, "lon": -122.5087655}, {"type": "node", "id": 4004451092, "lat": 45.6715993, "lon": -122.5087806}, {"type": "node", "id": 4004451103, "lat": 45.6716968, "lon": -122.5083101}, {"type": "node", "id": 4004451106, "lat": 45.6717564, "lon": -122.5087637}, {"type": "node", "id": 4004451113, "lat": 45.6718242, "lon": -122.5087781}, {"type": "node", "id": 4004451114, "lat": 45.671825, "lon": -122.5089181}, {"type": "node", "id": 4004451117, "lat": 45.6718334, "lon": -122.5074655}, {"type": "node", "id": 4004451118, "lat": 45.6718336, "lon": -122.5075454}, {"type": "node", "id": 4004451119, "lat": 45.6718348, "lon": -122.5083129}, {"type": "node", "id": 4004451120, "lat": 45.6718355, "lon": -122.508232}, {"type": "node", "id": 4004451133, "lat": 45.671898, "lon": -122.507545}, {"type": "node", "id": 4004451134, "lat": 45.6719, "lon": -122.5082333}, {"type": "node", "id": 4004543312, "lat": 45.6714312, "lon": -122.5208441}, {"type": "node", "id": 4004543317, "lat": 45.6717933, "lon": -122.5208609}, {"type": "node", "id": 4004543318, "lat": 45.6717948, "lon": -122.5205986}, {"type": "node", "id": 4004543321, "lat": 45.6719196, "lon": -122.5208667}, {"type": "node", "id": 4004543322, "lat": 45.6719255, "lon": -122.5206047}, {"type": "node", "id": 4124763679, "lat": 45.67232, "lon": -122.5198678}, {"type": "node", "id": 4124763682, "lat": 45.6731357, "lon": -122.5198638}, {"type": "node", "id": 4124763683, "lat": 45.6731376, "lon": -122.5206068}, {"type": "node", "id": 4170059926, "lat": 45.6830013, "lon": -122.5065083}, {"type": "node", "id": 4170059927, "lat": 45.6828982, "lon": -122.5065164}, {"type": "node", "id": 4170059928, "lat": 45.6828889, "lon": -122.5062414}, {"type": "node", "id": 4170059929, "lat": 45.6829929, "lon": -122.5062334}, {"type": "node", "id": 4180022038, "lat": 45.6844084, "lon": -122.5055306}, {"type": "node", "id": 4180022041, "lat": 45.6845031, "lon": -122.5053611}, {"type": "node", "id": 4180022042, "lat": 45.6845217, "lon": -122.5053239}, {"type": "node", "id": 4180022043, "lat": 45.6845529, "lon": -122.5053991}, {"type": "node", "id": 4180022044, "lat": 45.6845664, "lon": -122.505375}, {"type": "node", "id": 4180022046, "lat": 45.6846405, "lon": -122.504982}, {"type": "node", "id": 4180022047, "lat": 45.6846846, "lon": -122.5050325}, {"type": "node", "id": 4180022048, "lat": 45.6846977, "lon": -122.5048797}, {"type": "node", "id": 4180022049, "lat": 45.684717, "lon": -122.5056796}, {"type": "node", "id": 4180022052, "lat": 45.6847359, "lon": -122.5059057}, {"type": "node", "id": 4180022053, "lat": 45.6847373, "lon": -122.5056103}, {"type": "node", "id": 4180022054, "lat": 45.6847377, "lon": -122.505624}, {"type": "node", "id": 4180022056, "lat": 45.6847418, "lon": -122.5049302}, {"type": "node", "id": 4180022057, "lat": 45.6847421, "lon": -122.5056348}, {"type": "node", "id": 4180022058, "lat": 45.6847436, "lon": -122.5057101}, {"type": "node", "id": 4180022059, "lat": 45.6847528, "lon": -122.5049107}, {"type": "node", "id": 4180022060, "lat": 45.684769, "lon": -122.5058464}, {"type": "node", "id": 4180022061, "lat": 45.6847998, "lon": -122.5047274}, {"type": "node", "id": 4180022062, "lat": 45.6848059, "lon": -122.5056275}, {"type": "node", "id": 4180022063, "lat": 45.6848073, "lon": -122.5056057}, {"type": "node", "id": 4180022064, "lat": 45.6848077, "lon": -122.5056197}, {"type": "node", "id": 4180022065, "lat": 45.6848085, "lon": -122.5058401}, {"type": "node", "id": 4180022066, "lat": 45.6848159, "lon": -122.5056986}, {"type": "node", "id": 4180022069, "lat": 45.6848363, "lon": -122.5056622}, {"type": "node", "id": 4180022070, "lat": 45.684853, "lon": -122.5058911}, {"type": "node", "id": 4180022071, "lat": 45.6848628, "lon": -122.5046148}, {"type": "node", "id": 4180022073, "lat": 45.6849092, "lon": -122.5044668}, {"type": "node", "id": 4180022074, "lat": 45.6849532, "lon": -122.5045172}, {"type": "node", "id": 4180022075, "lat": 45.6849587, "lon": -122.5053349}, {"type": "node", "id": 4180022077, "lat": 45.6850084, "lon": -122.5052036}, {"type": "node", "id": 4180022078, "lat": 45.6850357, "lon": -122.5052164}, {"type": "node", "id": 4180022080, "lat": 45.6850597, "lon": -122.5041978}, {"type": "node", "id": 4180022082, "lat": 45.6851036, "lon": -122.5042482}, {"type": "node", "id": 4180022083, "lat": 45.6851198, "lon": -122.5053127}, {"type": "node", "id": 4180022690, "lat": 45.6851943, "lon": -122.5051794}, {"type": "node", "id": 4180022693, "lat": 45.6852401, "lon": -122.5048225}, {"type": "node", "id": 4180022694, "lat": 45.6852438, "lon": -122.505091}, {"type": "node", "id": 4180022697, "lat": 45.6852783, "lon": -122.5051305}, {"type": "node", "id": 4180022698, "lat": 45.6852785, "lon": -122.5048665}, {"type": "node", "id": 4180022700, "lat": 45.6853259, "lon": -122.5049441}, {"type": "node", "id": 4180022701, "lat": 45.6853822, "lon": -122.5045684}, {"type": "node", "id": 4180022702, "lat": 45.6854206, "lon": -122.5046124}, {"type": "node", "id": 4180022703, "lat": 45.6855161, "lon": -122.5047218}, {"type": "node", "id": 7198104239, "lat": 45.6731709, "lon": -122.5124925}, {"type": "node", "id": 7198104240, "lat": 45.6726597, "lon": -122.5124925}, {"type": "node", "id": 7198104241, "lat": 45.6726597, "lon": -122.5126581}, {"type": "node", "id": 7198104242, "lat": 45.6724624, "lon": -122.5126581}, {"type": "node", "id": 7198104243, "lat": 45.6724624, "lon": -122.5125897}, {"type": "node", "id": 7198104244, "lat": 45.6724171, "lon": -122.5124851}, {"type": "node", "id": 7198104245, "lat": 45.672417, "lon": -122.5124265}, {"type": "node", "id": 7198104246, "lat": 45.6727874, "lon": -122.5124254}, {"type": "node", "id": 7198104247, "lat": 45.6727871, "lon": -122.5122375}, {"type": "node", "id": 7198104248, "lat": 45.6725225, "lon": -122.5122383}, {"type": "node", "id": 7198104249, "lat": 45.6725224, "lon": -122.512174}, {"type": "node", "id": 7198104250, "lat": 45.6727784, "lon": -122.5121733}, {"type": "node", "id": 7198104251, "lat": 45.6727773, "lon": -122.5114427}, {"type": "node", "id": 7198104252, "lat": 45.6731145, "lon": -122.5114417}, {"type": "node", "id": 7198104253, "lat": 45.6731146, "lon": -122.5115103}, {"type": "node", "id": 7198104254, "lat": 45.6731695, "lon": -122.5115101}, {"type": "node", "id": 7198104271, "lat": 45.6716111, "lon": -122.5089486}, {"type": "node", "id": 7198104272, "lat": 45.6715351, "lon": -122.5091229}, {"type": "node", "id": 7198104273, "lat": 45.6715576, "lon": -122.5091618}, {"type": "node", "id": 7198104274, "lat": 45.6715351, "lon": -122.5091819}, {"type": "node", "id": 7198104275, "lat": 45.6715548, "lon": -122.5092289}, {"type": "node", "id": 7198104276, "lat": 45.671478, "lon": -122.5093938}, {"type": "node", "id": 7198104277, "lat": 45.6718135, "lon": -122.5093858}, {"type": "node", "id": 7198104278, "lat": 45.6718481, "lon": -122.5093147}, {"type": "node", "id": 7198104279, "lat": 45.67185, "lon": -122.5092329}, {"type": "node", "id": 7198104280, "lat": 45.6718238, "lon": -122.5091806}, {"type": "node", "id": 7198104281, "lat": 45.6718453, "lon": -122.5091632}, {"type": "node", "id": 7198104282, "lat": 45.6718153, "lon": -122.5090948}, {"type": "node", "id": 7198104283, "lat": 45.6718163, "lon": -122.5090143}, {"type": "node", "id": 7198104284, "lat": 45.6718397, "lon": -122.5089607}, {"type": "node", "id": 7198104297, "lat": 45.6717704, "lon": -122.5099694}, {"type": "node", "id": 7198104298, "lat": 45.6717685, "lon": -122.5095402}, {"type": "node", "id": 7198104299, "lat": 45.671939, "lon": -122.5095387}, {"type": "node", "id": 7198104300, "lat": 45.6719409, "lon": -122.5099678}, {"type": "node", "id": 9201985426, "lat": 45.6723308, "lon": -122.5202212}, {"type": "node", "id": 9201985427, "lat": 45.6724099, "lon": -122.5202186}, {"type": "node", "id": 9201985428, "lat": 45.6724465, "lon": -122.5206061}, {"type": "node", "id": 9201985429, "lat": 45.6725613, "lon": -122.5209823}, {"type": "node", "id": 9201985430, "lat": 45.6727513, "lon": -122.520981}, {"type": "node", "id": 9201985431, "lat": 45.673138, "lon": -122.5207584}, {"type": "node", "id": 9752275567, "lat": 45.6767512, "lon": -122.5222305, "tags": {"addr:city": "Vancouver", "addr:housenumber": "14604", "addr:postcode": "98682", "addr:state": "WA", "addr:street": "Northeast 74th Street", "name": "Bike Master", "phone": "+1-360-883-0041", "service:bicycle:repair": "yes", "service:bicycle:service": "yes", "shop": "bicycle"}}, {"type": "node", "id": 10544441713, "lat": 45.685303, "lon": -122.5201995, "tags": {"amenity": "bench"}}, {"type": "node", "id": 10544441714, "lat": 45.6855774, "lon": -122.52025, "tags": {"amenity": "bench"}}, {"type": "node", "id": 10605235298, "lat": 45.6742007, "lon": -122.5076324, "tags": {"amenity": "waste_basket"}}, {"type": "node", "id": 10605235299, "lat": 45.674298, "lon": -122.5074658, "tags": {"amenity": "bench"}}, {"type": "node", "id": 10605235300, "lat": 45.6746957, "lon": -122.5076739, "tags": {"amenity": "bench"}}, {"type": "node", "id": 11386755169, "lat": 45.671864, "lon": -122.5097679, "tags": {"amenity": "veterinary", "name": "East Padden Animal Hospital", "opening_hours": "Mo-Su 07:30-20:00"}}, {"type": "node", "id": 11419496405, "lat": 45.6902727, "lon": -122.5092278, "tags": {"amenity": "bench"}}, {"type": "node", "id": 11419496406, "lat": 45.6912226, "lon": -122.5098745, "tags": {"amenity": "bench"}}, {"type": "node", "id": 11419496407, "lat": 45.6909561, "lon": -122.5086856, "tags": {"amenity": "bench"}}, {"type": "node", "id": 12807897715, "lat": 45.6847812, "lon": -122.5056213, "tags": {"entrance": "yes"}}, {"type": "way", "id": 141411845, "nodes": [1547826178, 1547826149, 1547826126, 1547826153, 1547826178], "tags": {"addr:city": "Vancouver", "addr:housenumber": "6700", "addr:postcode": "98682", "addr:state": "WA", "addr:street": "Northeast 162nd Avenue", "addr:unit": "201", "amenity": "fuel", "brand": "Safeway", "brand:wikidata": "Q1508234", "building": "yes", "fuel:diesel": "yes", "fuel:octane_87": "yes", "name": "Safeway", "opening_hours": "24/7", "website": "https://local.fuel.safeway.com/safeway/wa/vancouver/6700-ne-162nd-ave.html"}}, {"type": "way", "id": 217006865, "nodes": [2263303486, 2263303482, 2263303480, 2263303471, 2263303474, 2263303468, 2263303484, 2263303486], "tags": {"addr:city": "Vancouver", "addr:housenumber": "9301", "addr:postcode": "98682", "addr:state": "WA", "addr:street": "Northeast 152nd Avenue", "amenity": "school", "contact:website": "https://sites.google.com/evergreenps.org/york-explorers", "ele": "84", "gnis:feature_id": "2474829", "name": "York Elementary School", "operator": "Evergreen Public Schools", "operator:type": "public", "operator:wikidata": "Q5417238"}}, {"type": "way", "id": 375753285, "nodes": [3790999811, 3790999816, 3790999815, 3790999810, 3790999811], "tags": {"amenity": "parking"}}, {"type": "way", "id": 375753287, "nodes": [3790999826, 3790999827, 3790999821, 3790999822, 3790999833, 3790999832, 3790999836, 3790999835, 3790999826], "tags": {"amenity": "parking"}}, {"type": "way", "id": 397666154, "nodes": [4004450377, 4004450384, 4004451103, 4004451119, 4004451120, 4004451134, 4004451133, 4004451118, 4004451117, 4004450376, 4004450377], "tags": {"amenity": "parking"}}, {"type": "way", "id": 397666163, "nodes": [4004450381, 4004451114, 4004451113, 4003583307, 4004451106, 4004451091, 4004451092, 4004450382, 4004450383, 4004450380, 4004450381], "tags": {"addr:city": "Vancouver", "addr:housenumber": "6710;15813;6712;15811", "addr:postcode": "98682", "addr:state": "WA", "addr:street": "Northeast 159th Avenue;Northeast Fourth Plain Boulevard", "amenity": "fast_food", "brand": "McDonald's", "brand:website": "https://www.mcdonalds.com/", "brand:wikidata": "Q38076", "building": "yes", "cuisine": "burger", "drive_through": "yes", "internet_access": "wlan", "internet_access:fee": "no", "name": "McDonald's", "opening_hours": "06:00-23:00", "phone": "+1-360-896-8438", "takeaway": "yes", "website": "https://www.mcdonalds.com/us/en-us/location/31844.html"}}, {"type": "way", "id": 397676066, "nodes": [4004543312, 4004543317, 4004543321, 4004543322, 4004543318, 924663123, 4004543312], "tags": {"addr:city": "Vancouver", "addr:housenumber": "6701", "addr:postcode": "98682", "addr:state": "WA", "addr:street": "Northeast 147th Avenue", "amenity": "fire_station", "building": "yes", "contact:website": "https://www.cityofvancouver.us/fire", "name": "Sifton Fire Station 4", "operator": "Vancouver Fire Department", "operator:wikidata": "Q17514285", "ref": "4"}}, {"type": "way", "id": 416174678, "nodes": [4170059926, 4170059927, 4170059928, 4170059929, 4170059926], "tags": {"amenity": "kindergarten", "building": "kindergarten", "building:levels": "1", "description": "Christian Preschool", "name": "Kids and Kritters"}}, {"type": "way", "id": 417441653, "nodes": [4180022070, 4180022697, 4180022694, 4180022700, 4180022074, 4180022082, 4180022080, 4180022073, 4180022071, 4180022061, 4180022690, 4180022083, 4180022078, 4180022062, 4180022069, 4180022066, 4180022058, 4180022049, 4180022057, 4180022041, 4180022038, 4180022052, 4180022060, 4180022065, 4180022070], "tags": {"amenity": "parking"}}, {"type": "way", "id": 417441655, "nodes": [4180022698, 2474781510, 4180022703, 4180022702, 4180022698], "tags": {"addr:city": "Vancouver", "addr:housenumber": "8611", "addr:postcode": "98682", "addr:state": "WA", "addr:street": "Northeast Ward Road", "amenity": "restaurant", "bar": "yes", "building": "yes", "cuisine": "american", "name": "Magnolia Tavern", "website": "https://magnoliatavern.com"}}, {"type": "way", "id": 417441659, "nodes": [4180022693, 4180022698, 4180022702, 4180022701, 4180022693], "tags": {"amenity": "fast_food", "brand": "Papa Murphy's", "brand:wikidata": "Q7132349", "building": "yes", "cuisine": "pizza", "name": "Papa Murphy's", "official_name": "Papa Murphy's Take 'N' Bake Pizza", "takeaway": "only"}}, {"type": "way", "id": 417441660, "nodes": [4180022064, 4180022063, 4180022075, 3906033327, 4180022077, 4180022059, 4180022056, 4180022048, 4180022046, 4180022047, 4180022042, 4180022044, 4180022043, 4180022053, 4180022054, 12807897715, 4180022064], "tags": {"brand": "Walgreens", "brand:wikidata": "Q1591889", "building": "yes", "name": "Walgreens", "shop": "chemist", "website": "https://www.walgreens.com/locator/walgreens-8511+ne+162nd+ave-vancouver-wa-98682/id=9379"}}, {"type": "way", "id": 771094648, "nodes": [7198104254, 7198104253, 7198104252, 7198104251, 7198104250, 7198104249, 7198104248, 7198104247, 7198104246, 7198104245, 7198104244, 7198104243, 7198104242, 7198104241, 7198104240, 7198104239, 7198104254], "tags": {"amenity": "parking"}}, {"type": "way", "id": 771094652, "nodes": [7198104284, 7198104283, 7198104282, 7198104281, 7198104280, 7198104279, 7198104278, 7198104277, 7198104276, 7198104275, 7198104274, 7198104273, 7198104272, 7198104271, 7198104284], "tags": {"amenity": "parking"}}, {"type": "way", "id": 771094658, "nodes": [7198104300, 7198104299, 7198104298, 7198104297, 7198104300], "tags": {"addr:city": "Vancouver", "addr:housenumber": "15721", "addr:postcode": "98682", "addr:state": "WA", "addr:street": "Northeast Fourth Plain Boulevard", "amenity": "veterinary", "building": "office", "source": "esri/Clark_County_Address_Points_"}}, {"type": "way", "id": 996573359, "nodes": [4124763679, 4124763682, 4124763683, 9201985431, 9201985430, 9201985429, 9201985428, 9201985427, 9201985426, 4124763679], "tags": {"addr:city": "Vancouver", "addr:housenumber": "6907", "addr:postcode": "98682", "addr:street": "Northeast Ward Road", "brand": "Public Storage", "brand:wikidata": "Q1156045", "contact:website": "https://www.publicstorage.com/self-storage-wa-vancouver/5615", "landuse": "commercial", "name": "Public Storage", "shop": "storage_rental"}}]}