{"version": 0.6, "generator": "Overpass API 0.7.62.8 e802775f", "osm3s": {"timestamp_osm_base": "2025-12-06T22:02:44Z", "copyright": "The data included in this document is from www.openstreetmap.org. The data is made available under ODbL."}, "elements": [{"type": "node", "id": 50742615, "lat": 47.9298327, "lon": -122.094232}, {"type": "node", "id": 50742616, "lat": 47.9300476, "lon": -122.0947494}, {"type": "node", "id": 50742617, "lat": 47.930176, "lon": -122.0952006}, {"type": "node", "id": 50742620, "lat": 47.9302271, "lon": -122.0955568}, {"type": "node", "id": 356543475, "lat": 47.9249302, "lon": -122.0841675}, {"type": "node", "id": 356543484, "lat": 47.9398199, "lon": -122.0862409, "tags": {"amenity": "school", "ele": "69", "gnis:feature_id": "1515131", "name": "Cascade View Elementary School"}}, {"type": "node", "id": 356547620, "lat": 47.9132574, "lon": -122.0928725}, {"type": "node", "id": 976237166, "lat": 47.9208729, "lon": -122.101086, "tags": {"amenity": "parking", "description": "Snohomish High School parking lot"}}, {"type": "node", "id": 1487859219, "lat": 47.9263297, "lon": -122.0953904}, {"type": "node", "id": 1487859224, "lat": 47.9262337, "lon": -122.0958603}, {"type": "node", "id": 1487859229, "lat": 47.9260689, "lon": -122.0950785}, {"type": "node", "id": 1487859247, "lat": 47.9258886, "lon": -122.095804}, {"type": "node", "id": 1487859255, "lat": 47.9258311, "lon": -122.0958067}, {"type": "node", "id": 1487859258, "lat": 47.9263088, "lon": -122.0950801}, {"type": "node", "id": 1487859261, "lat": 47.9260642, "lon": -122.0951514}, {"type": "node", "id": 1487859294, "lat": 47.9297474, "lon": -122.0940132}, {"type": "node", "id": 1487859297, "lat": 47.9263218, "lon": -122.0958198}, {"type": "node", "id": 1487859306, "lat": 47.9263092, "lon": -122.0951603}, {"type": "node", "id": 1487859314, "lat": 47.9258353, "lon": -122.0951374}, {"type": "node", "id": 1487859316, "lat": 47.9258904, "lon": -122.0958469}, {"type": "node", "id": 1487859331, "lat": 47.9262355, "lon": -122.0958094}, {"type": "node", "id": 1956930230, "lat": 47.9447255, "lon": -122.1046113}, {"type": "node", "id": 1956930237, "lat": 47.9447281, "lon": -122.1057937}, {"type": "node", "id": 1956930250, "lat": 47.9422168, "lon": -122.1045134}, {"type": "node", "id": 1956930253, "lat": 47.9415278, "lon": -122.1046366}, {"type": "node", "id": 1956930256, "lat": 47.9423305, "lon": -122.1080889}, {"type": "node", "id": 1956930259, "lat": 47.9430126, "lon": -122.104725}, {"type": "node", "id": 1956930261, "lat": 47.9416789, "lon": -122.1062861}, {"type": "node", "id": 1956930280, "lat": 47.9415362, "lon": -122.1064123}, {"type": "node", "id": 1956930282, "lat": 47.9420294, "lon": -122.1045115}, {"type": "node", "id": 1956930307, "lat": 47.94203, "lon": -122.1046313}, {"type": "node", "id": 1956930326, "lat": 47.9431792, "lon": -122.1058014}, {"type": "node", "id": 1956930329, "lat": 47.9430124, "lon": -122.1046197}, {"type": "node", "id": 1956930332, "lat": 47.9416798, "lon": -122.1064123}, {"type": "node", "id": 1956930342, "lat": 47.942312, "lon": -122.1081651}, {"type": "node", "id": 1956930347, "lat": 47.9431768, "lon": -122.1047242}, {"type": "node", "id": 1956930392, "lat": 47.9422046, "lon": -122.1081072}, {"type": "node", "id": 1956930396, "lat": 47.9423792, "lon": -122.1081151}, {"type": "node", "id": 1956948586, "lat": 47.9422292, "lon": -122.106277}, {"type": "node", "id": 1973286538, "lat": 47.9176945, "lon": -122.0983967}, {"type": "node", "id": 1973286539, "lat": 47.9177968, "lon": -122.1029991}, {"type": "node", "id": 1973286545, "lat": 47.9203239, "lon": -122.0982921}, {"type": "node", "id": 1973286546, "lat": 47.9203282, "lon": -122.1028623}, {"type": "node", "id": 2422347640, "lat": 47.9284948, "lon": -122.0988323}, {"type": "node", "id": 2422347642, "lat": 47.928495, "lon": -122.0988848}, {"type": "node", "id": 2422347644, "lat": 47.9283463, "lon": -122.0988864}, {"type": "node", "id": 2422347646, "lat": 47.9283451, "lon": -122.0986342}, {"type": "node", "id": 2422347649, "lat": 47.9284875, "lon": -122.0986326}, {"type": "node", "id": 2422347651, "lat": 47.9284879, "lon": -122.0986968}, {"type": "node", "id": 2422347667, "lat": 47.9285593, "lon": -122.0986961}, {"type": "node", "id": 2422347719, "lat": 47.9315636, "lon": -122.1011373}, {"type": "node", "id": 2422347721, "lat": 47.9322537, "lon": -122.1011373}, {"type": "node", "id": 2422347723, "lat": 47.9322572, "lon": -122.1006652}, {"type": "node", "id": 2422347726, "lat": 47.9315672, "lon": -122.1006545}, {"type": "node", "id": 2485897733, "lat": 47.9060507, "lon": -122.0871396}, {"type": "node", "id": 2485897734, "lat": 47.9059643, "lon": -122.0868759}, {"type": "node", "id": 2485897735, "lat": 47.9059442, "lon": -122.0866451}, {"type": "node", "id": 2485897736, "lat": 47.9059422, "lon": -122.0862286}, {"type": "node", "id": 2485897737, "lat": 47.9059442, "lon": -122.0859199}, {"type": "node", "id": 2485897738, "lat": 47.9073866, "lon": -122.0859798}, {"type": "node", "id": 2485897739, "lat": 47.9073565, "lon": -122.0853055}, {"type": "node", "id": 2485897740, "lat": 47.9076638, "lon": -122.0852516}, {"type": "node", "id": 2485897741, "lat": 47.9079935, "lon": -122.085251}, {"type": "node", "id": 2485897742, "lat": 47.9079752, "lon": -122.0856442}, {"type": "node", "id": 2485897743, "lat": 47.9079189, "lon": -122.0856981}, {"type": "node", "id": 2485897744, "lat": 47.9078607, "lon": -122.0860487}, {"type": "node", "id": 2485897745, "lat": 47.9075132, "lon": -122.0860817}, {"type": "node", "id": 2485897746, "lat": 47.9073766, "lon": -122.0861506}, {"type": "node", "id": 2485897747, "lat": 47.9073886, "lon": -122.0873913}, {"type": "node", "id": 2485897748, "lat": 47.9071094, "lon": -122.0873643}, {"type": "node", "id": 2485897749, "lat": 47.9065168, "lon": -122.0872505}, {"type": "node", "id": 2485897890, "lat": 47.9103556, "lon": -122.0829291}, {"type": "node", "id": 2485897891, "lat": 47.9103214, "lon": -122.0826624}, {"type": "node", "id": 2485897892, "lat": 47.9106348, "lon": -122.0825964}, {"type": "node", "id": 2485897893, "lat": 47.9107011, "lon": -122.0825215}, {"type": "node", "id": 2485897894, "lat": 47.9107192, "lon": -122.0824915}, {"type": "node", "id": 2485897895, "lat": 47.9107533, "lon": -122.0825395}, {"type": "node", "id": 2485897896, "lat": 47.9108096, "lon": -122.0824496}, {"type": "node", "id": 2485897897, "lat": 47.9107834, "lon": -122.0823927}, {"type": "node", "id": 2485897898, "lat": 47.9108397, "lon": -122.0823297}, {"type": "node", "id": 2485897899, "lat": 47.9112716, "lon": -122.0822218}, {"type": "node", "id": 2485897900, "lat": 47.9112876, "lon": -122.0822968}, {"type": "node", "id": 2485897901, "lat": 47.911368, "lon": -122.0822698}, {"type": "node", "id": 2485897902, "lat": 47.9113519, "lon": -122.0821829}, {"type": "node", "id": 2485897903, "lat": 47.9118641, "lon": -122.082087}, {"type": "node", "id": 2485897904, "lat": 47.9118581, "lon": -122.0821559}, {"type": "node", "id": 2485897905, "lat": 47.9119907, "lon": -122.0822458}, {"type": "node", "id": 2485897906, "lat": 47.9120328, "lon": -122.0822368}, {"type": "node", "id": 2485897907, "lat": 47.9124306, "lon": -122.0827942}, {"type": "node", "id": 2485897908, "lat": 47.9123542, "lon": -122.0829231}, {"type": "node", "id": 2485897909, "lat": 47.9119184, "lon": -122.0823807}, {"type": "node", "id": 2485897910, "lat": 47.9119304, "lon": -122.0823087}, {"type": "node", "id": 2485897911, "lat": 47.9118581, "lon": -122.0822698}, {"type": "node", "id": 2485897912, "lat": 47.91183, "lon": -122.0823447}, {"type": "node", "id": 2485897913, "lat": 47.9114082, "lon": -122.0824406}, {"type": "node", "id": 2485897914, "lat": 47.9114041, "lon": -122.0823687}, {"type": "node", "id": 2485897915, "lat": 47.9113077, "lon": -122.0823867}, {"type": "node", "id": 2485897916, "lat": 47.9113117, "lon": -122.0824586}, {"type": "node", "id": 2485897917, "lat": 47.9109421, "lon": -122.0825485}, {"type": "node", "id": 2485897918, "lat": 47.910914, "lon": -122.0824736}, {"type": "node", "id": 2485897919, "lat": 47.9108236, "lon": -122.0825785}, {"type": "node", "id": 2485897920, "lat": 47.9108758, "lon": -122.0826414}, {"type": "node", "id": 2485897921, "lat": 47.9107091, "lon": -122.0828362}, {"type": "node", "id": 2747756186, "lat": 47.9122792, "lon": -122.0869457}, {"type": "node", "id": 2747756190, "lat": 47.9139225, "lon": -122.0851587, "tags": {"addr:city": "Snohomish", "addr:housenumber": "265", "addr:postcode": "98290", "addr:state": "WA", "addr:street": "Pine Avenue", "amenity": "place_of_worship", "name": "The Pursuit NW", "religion": "christian", "website": "https://www.thepursuitnw.com/"}}, {"type": "node", "id": 2747756195, "lat": 47.912336, "lon": -122.0868685}, {"type": "node", "id": 2747756197, "lat": 47.9124055, "lon": -122.0869447}, {"type": "node", "id": 2747756212, "lat": 47.9122787, "lon": -122.0868694}, {"type": "node", "id": 2747756216, "lat": 47.918183, "lon": -122.0880072, "tags": {"addr:housenumber": "511 B", "addr:postcode": "98290", "addr:street": "Maple Avenue", "amenity": "restaurant", "contact:facebook": "TrailsEndTaphouse", "contact:instagram": "trailsendtaphouse", "cuisine": "american", "name": "Trails End Taphouse & Restaurant", "opening_hours": "Su, We-Th 11:00-21:00; Fr-Sa 11:00-22:00", "website": "https://trailsendtaphouse.com"}}, {"type": "node", "id": 2747756219, "lat": 47.912226, "lon": -122.0869465}, {"type": "node", "id": 2747756232, "lat": 47.9123365, "lon": -122.0869459}, {"type": "node", "id": 2747756235, "lat": 47.9152996, "lon": -122.0883666, "tags": {"addr:city": "Snohomish", "addr:housenumber": "311", "addr:postcode": "98290", "addr:state": "WA", "addr:street": "Maple Avenue", "amenity": "library", "fax": "+1-360-568-1922", "name": "Snohomish Library", "phone": "+1-360-568-2898", "website": "https://sno-isle.org/locations/snohomish/"}}, {"type": "node", "id": 2747756242, "lat": 47.9124078, "lon": -122.0873047}, {"type": "node", "id": 2747756260, "lat": 47.912192, "lon": -122.08727}, {"type": "node", "id": 2747756261, "lat": 47.9132609, "lon": -122.0855181, "tags": {"amenity": "pharmacy", "brand": "Rite Aid", "brand:wikidata": "Q3433273", "check_date": "2024-06-19", "healthcare": "pharmacy", "name": "Rite Aid", "website": "https://www.riteaid.com/locations/wa/snohomish/205-pine-avenue.html"}}, {"type": "node", "id": 2747764733, "lat": 47.9313082, "lon": -122.0892901}, {"type": "node", "id": 2747764742, "lat": 47.9309955, "lon": -122.0895422}, {"type": "node", "id": 2747764752, "lat": 47.9314951, "lon": -122.0892472}, {"type": "node", "id": 2747764753, "lat": 47.9315347, "lon": -122.0894779}, {"type": "node", "id": 2747764757, "lat": 47.9310351, "lon": -122.0896978}, {"type": "node", "id": 2747777284, "lat": 47.9312332, "lon": -122.0996209}, {"type": "node", "id": 2747777310, "lat": 47.9308265, "lon": -122.0996286}, {"type": "node", "id": 2747777324, "lat": 47.9301005, "lon": -122.0977766}, {"type": "node", "id": 2747777336, "lat": 47.9305811, "lon": -122.0986019, "tags": {"amenity": "social_facility", "name": "Snohomish Community Food Bank", "social_facility": "food_bank"}}, {"type": "node", "id": 2747777363, "lat": 47.9312314, "lon": -122.0994159}, {"type": "node", "id": 2747777370, "lat": 47.9302401, "lon": -122.0974708}, {"type": "node", "id": 2747777381, "lat": 47.9302371, "lon": -122.0976211}, {"type": "node", "id": 2747777385, "lat": 47.9308247, "lon": -122.0994235}, {"type": "node", "id": 2747777411, "lat": 47.9301365, "lon": -122.0967145}, {"type": "node", "id": 2747777465, "lat": 47.9301617, "lon": -122.0977659}, {"type": "node", "id": 2747777472, "lat": 47.9302551, "lon": -122.0967198}, {"type": "node", "id": 2747777490, "lat": 47.9308014, "lon": -122.0986778}, {"type": "node", "id": 2747782239, "lat": 47.9318618, "lon": -122.100877, "tags": {"amenity": "bus_station", "bus": "yes", "name": "Snohomish Park and Ride", "public_transport": "station"}}, {"type": "node", "id": 2747782241, "lat": 47.9281378, "lon": -122.097487, "tags": {"amenity": "post_office", "name": "Snohomish Post Office", "opening_hours": "Mo-Fr 08:30-17:00; Sa 10:00-13:00; PH closed; 24/7 open \"Box lobby and self-service\"", "operator": "United States Postal Service", "operator:short": "USPS", "operator:type": "public", "operator:website": "https://www.usps.com", "operator:wikidata": "Q668687", "operator:wikipedia": "en:United States Postal Service", "short_name": "USPS"}}, {"type": "node", "id": 2747782242, "lat": 47.9320449, "lon": -122.1008829, "tags": {"amenity": "bicycle_parking", "bicycle_parking": "lockers"}}, {"type": "node", "id": 2747782243, "lat": 47.9277604, "lon": -122.0965159, "tags": {"addr:city": "Snohomish", "addr:housenumber": "1301", "addr:postcode": "98290", "addr:state": "WA", "addr:street": "Avenue D", "name": "Haggen", "opening_hours": "24/7", "payment:cash": "yes", "payment:credit_cards": "yes", "payment:debit_cards": "yes", "phone": "+1-360-568-1395", "shop": "supermarket", "website": "https://www.haggen.com/store/snohomish/"}}, {"type": "node", "id": 2750850686, "lat": 47.9118754, "lon": -122.0877698}, {"type": "node", "id": 2750850689, "lat": 47.9151646, "lon": -122.0881603}, {"type": "node", "id": 2750850690, "lat": 47.9154611, "lon": -122.0880739}, {"type": "node", "id": 2750850692, "lat": 47.9118035, "lon": -122.0877717}, {"type": "node", "id": 2750850694, "lat": 47.9129084, "lon": -122.0872827}, {"type": "node", "id": 2750850697, "lat": 47.912081, "lon": -122.0876874, "tags": {"entrance": "main", "fixme": "Position estimated"}}, {"type": "node", "id": 2750850699, "lat": 47.9129174, "lon": -122.0875401}, {"type": "node", "id": 2750850705, "lat": 47.9120796, "lon": -122.0875669}, {"type": "node", "id": 2750850707, "lat": 47.9149182, "lon": -122.0883099}, {"type": "node", "id": 2750850710, "lat": 47.9148986, "lon": -122.0883078}, {"type": "node", "id": 2750850713, "lat": 47.9120726, "lon": -122.087796}, {"type": "node", "id": 2750850716, "lat": 47.9114883, "lon": -122.0942975, "tags": {"addr:housenumber": "924", "addr:street": "1st Street", "amenity": "bar", "check_date": "2023-12-10", "name": "The Repp"}}, {"type": "node", "id": 2750850717, "lat": 47.913676, "lon": -122.0872478}, {"type": "node", "id": 2750850734, "lat": 47.9154935, "lon": -122.0886157}, {"type": "node", "id": 2750850742, "lat": 47.9156588, "lon": -122.0882546}, {"type": "node", "id": 2750850743, "lat": 47.9111781, "lon": -122.093896, "tags": {"addr:housenumber": "913", "addr:street": "1st Street", "amenity": "restaurant", "check_date": "2023-12-10", "cuisine": "american", "name": "The Oxford Saloon", "opening_hours": "Mo-Fr 11:00-22:00+,11:00-22:00+", "website": "https://oxfordsaloonsnohomish.com/"}}, {"type": "node", "id": 2750850747, "lat": 47.9115142, "lon": -122.095382, "tags": {"addr:housenumber": "1020", "addr:street": "1st Street", "addr:unit": "106", "amenity": "restaurant", "check_date": "2023-12-10", "cuisine": "thai", "name": "Thai Naan"}}, {"type": "node", "id": 2750850752, "lat": 47.9149218, "lon": -122.0885004}, {"type": "node", "id": 2750850753, "lat": 47.914929, "lon": -122.0886479}, {"type": "node", "id": 2750850756, "lat": 47.9154589, "lon": -122.0880076}, {"type": "node", "id": 2750850760, "lat": 47.9111922, "lon": -122.0941032, "tags": {"addr:housenumber": "915", "addr:street": "1st Street", "addr:unit": "C", "amenity": "restaurant", "check_date": "2024-06-29", "cuisine": "pie;sandwich", "name": "Snohomish Pie Company"}}, {"type": "node", "id": 2750850761, "lat": 47.9115133, "lon": -122.0952963, "tags": {"addr:housenumber": "1020", "addr:street": "1st Street", "addr:unit": "104", "amenity": "cafe", "check_date": "2023-12-10", "cuisine": "sandwich", "name": "Grilla Bites Cafe"}}, {"type": "node", "id": 2750850762, "lat": 47.9149057, "lon": -122.0885031}, {"type": "node", "id": 2750850767, "lat": 47.9145623, "lon": -122.087752}, {"type": "node", "id": 2750850771, "lat": 47.9112736, "lon": -122.0983005, "tags": {"addr:housenumber": "1229", "addr:street": "1st Street", "amenity": "restaurant", "check_date": "2024-06-29", "cuisine": "seafood", "name": "Andy\u2019s Fish House", "website": "https://www.andysfishhouse.com"}}, {"type": "node", "id": 2750850773, "lat": 47.9156643, "lon": -122.088495}, {"type": "node", "id": 2750850785, "lat": 47.9120823, "lon": -122.0877957}, {"type": "node", "id": 2750850786, "lat": 47.9151825, "lon": -122.0882348}, {"type": "node", "id": 2750850792, "lat": 47.9115626, "lon": -122.0966089, "tags": {"addr:housenumber": "1114", "addr:street": "1st Street", "amenity": "restaurant", "check_date": "2023-12-10", "cuisine": "american", "name": "Freds Rivertown Alehouse"}}, {"type": "node", "id": 2750850793, "lat": 47.9149164, "lon": -122.0882456}, {"type": "node", "id": 2750850794, "lat": 47.9154899, "lon": -122.0885057}, {"type": "node", "id": 2750850807, "lat": 47.9130378, "lon": -122.0886373, "tags": {"amenity": "fast_food", "cuisine": "american;fast_food;burger", "drive_through": "yes", "name": "Pulchuck Drive In", "takeaway": "yes", "website": "https://pilchuckdrivein.l-a-cafe.com/"}}, {"type": "node", "id": 2750850808, "lat": 47.9120738, "lon": -122.0878946}, {"type": "node", "id": 2750850814, "lat": 47.9118769, "lon": -122.0878998}, {"type": "node", "id": 2750850817, "lat": 47.9154702, "lon": -122.0881066}, {"type": "node", "id": 2750850819, "lat": 47.9154773, "lon": -122.0882617}, {"type": "node", "id": 2750850823, "lat": 47.9154486, "lon": -122.0877091}, {"type": "node", "id": 2750850828, "lat": 47.9151789, "lon": -122.0881168}, {"type": "node", "id": 2750850831, "lat": 47.9138719, "lon": -122.0883208, "tags": {"addr:city": "Snohomish", "addr:housenumber": "510", "addr:postcode": "98290", "addr:state": "WA", "addr:street": "2nd Street", "name": "MacDaniels Do-It Center", "shop": "doityourself"}}, {"type": "node", "id": 2750850836, "lat": 47.9136814, "lon": -122.0875026}, {"type": "node", "id": 2750850839, "lat": 47.914708, "lon": -122.0881039}, {"type": "node", "id": 2750850844, "lat": 47.9147097, "lon": -122.0881946}, {"type": "node", "id": 2750850846, "lat": 47.9118011, "lon": -122.0875743}, {"type": "node", "id": 2750850851, "lat": 47.9145749, "lon": -122.0881088}, {"type": "node", "id": 2750850856, "lat": 47.9151625, "lon": -122.0880938}, {"type": "node", "id": 2750878054, "lat": 47.9124709, "lon": -122.0946371}, {"type": "node", "id": 2750878057, "lat": 47.9126334, "lon": -122.0912665, "tags": {"addr:city": "Snohomish", "addr:housenumber": "709", "addr:postcode": "98290", "addr:state": "WA", "addr:street": "2nd Street", "amenity": "cafe", "cuisine": "american;diner;breakfast", "name": "Jake's Cafe", "outdoor_seating": "no", "takeaway": "yes"}}, {"type": "node", "id": 2750878058, "lat": 47.9118675, "lon": -122.0912931}, {"type": "node", "id": 2750878060, "lat": 47.9116103, "lon": -122.0916171}, {"type": "node", "id": 2750878061, "lat": 47.9118548, "lon": -122.0920194}, {"type": "node", "id": 2750878063, "lat": 47.9117037, "lon": -122.0917298}, {"type": "node", "id": 2750878064, "lat": 47.9110333, "lon": -122.0920924}, {"type": "node", "id": 2750878065, "lat": 47.9110801, "lon": -122.092189}, {"type": "node", "id": 2750878070, "lat": 47.9112671, "lon": -122.0917974}, {"type": "node", "id": 2750878071, "lat": 47.9124879, "lon": -122.0953826}, {"type": "node", "id": 2750878072, "lat": 47.9119394, "lon": -122.0914326}, {"type": "node", "id": 2750878074, "lat": 47.9116282, "lon": -122.0918692}, {"type": "node", "id": 2750878075, "lat": 47.9110441, "lon": -122.0925591}, {"type": "node", "id": 2750878077, "lat": 47.9125919, "lon": -122.0980193, "tags": {"addr:city": "Snohomish", "addr:housenumber": "1215", "addr:postcode": "98290-2738", "addr:state": "WA", "addr:street": "2nd Avenue", "atm": "yes", "brand": "7-Eleven", "brand:wikidata": "Q259340", "check_date": "2024-06-29", "delivery": "yes", "fast_food": "yes", "fuel:propane": "yes", "name": "7-Eleven", "phone": "+1-360-568-8086", "ref": "21464", "shop": "convenience", "website": "https://www.7-eleven.com/locations/wa/snohomish/1215-2nd-ave-21464"}}, {"type": "node", "id": 2750878078, "lat": 47.9112477, "lon": -122.0962336, "tags": {"amenity": "restaurant", "check_date": "2023-12-10", "cuisine": "mexican", "name": "Todo Mexico"}}, {"type": "node", "id": 2750878082, "lat": 47.9117721, "lon": -122.0921214}, {"type": "node", "id": 2750878083, "lat": 47.912655, "lon": -122.0953741}, {"type": "node", "id": 2750878084, "lat": 47.9133075, "lon": -122.0990065, "tags": {"addr:city": "Snohomish", "addr:housenumber": "202", "addr:street": "Avenue D", "amenity": "fuel", "check_date": "2024-06-29", "name": "VP Racing Fuels"}}, {"type": "node", "id": 2750878086, "lat": 47.9111392, "lon": -122.091542}, {"type": "node", "id": 2750878087, "lat": 47.9109487, "lon": -122.0923681}, {"type": "node", "id": 2750878089, "lat": 47.9113945, "lon": -122.0912094}, {"type": "node", "id": 2750878090, "lat": 47.9112763, "lon": -122.0959251}, {"type": "node", "id": 2750878092, "lat": 47.9126379, "lon": -122.0946287}, {"type": "node", "id": 2750878093, "lat": 47.9127195, "lon": -122.096163, "tags": {"amenity": "fuel", "brand": "Shell", "brand:wikidata": "Q110716465", "name": "Shell"}}, {"type": "node", "id": 3158928159, "lat": 47.9242622, "lon": -122.0853215}, {"type": "node", "id": 3158928160, "lat": 47.924244, "lon": -122.085237}, {"type": "node", "id": 3158928261, "lat": 47.9242497, "lon": -122.0851323}, {"type": "node", "id": 3158928262, "lat": 47.9242893, "lon": -122.0848484}, {"type": "node", "id": 3158928263, "lat": 47.924355, "lon": -122.084693}, {"type": "node", "id": 3158928264, "lat": 47.9244716, "lon": -122.084524}, {"type": "node", "id": 3158928266, "lat": 47.9249619, "lon": -122.0840627}, {"type": "node", "id": 3158928267, "lat": 47.9254737, "lon": -122.0838735}, {"type": "node", "id": 3158928268, "lat": 47.9255529, "lon": -122.0842013}, {"type": "node", "id": 3158928269, "lat": 47.9255846, "lon": -122.084159}, {"type": "node", "id": 3158928270, "lat": 47.9256424, "lon": -122.0839444}, {"type": "node", "id": 3158928271, "lat": 47.9257217, "lon": -122.0838245}, {"type": "node", "id": 3158928272, "lat": 47.9263274, "lon": -122.0833682}, {"type": "node", "id": 3158928273, "lat": 47.9265584, "lon": -122.083451}, {"type": "node", "id": 3158928274, "lat": 47.9265855, "lon": -122.0841708}, {"type": "node", "id": 3158928275, "lat": 47.9268901, "lon": -122.0847268}, {"type": "node", "id": 3158928276, "lat": 47.9272049, "lon": -122.0850005}, {"type": "node", "id": 3158928277, "lat": 47.926624, "lon": -122.0851847}, {"type": "node", "id": 3158928278, "lat": 47.9265176, "lon": -122.0852489}, {"type": "node", "id": 3158938971, "lat": 47.9132916, "lon": -122.0924862}, {"type": "node", "id": 3158938972, "lat": 47.9134444, "lon": -122.0921402}, {"type": "node", "id": 3158938973, "lat": 47.9139585, "lon": -122.0916816}, {"type": "node", "id": 3158938974, "lat": 47.9151037, "lon": -122.0908608}, {"type": "node", "id": 3158938975, "lat": 47.9150785, "lon": -122.0921804}, {"type": "node", "id": 3158938976, "lat": 47.9150947, "lon": -122.0927866}, {"type": "node", "id": 3176270930, "lat": 47.9268213, "lon": -122.0971712}, {"type": "node", "id": 3176270931, "lat": 47.9265775, "lon": -122.096966}, {"type": "node", "id": 3176270932, "lat": 47.9268232, "lon": -122.0969711}, {"type": "node", "id": 3176270933, "lat": 47.9265756, "lon": -122.097166}, {"type": "node", "id": 3176280461, "lat": 47.9264495, "lon": -122.0958138, "tags": {"amenity": "pharmacy", "brand": "Bartell Drugs", "brand:wikidata": "Q4865152", "healthcare": "pharmacy", "name": "Bartell Drugs"}}, {"type": "node", "id": 3191035908, "lat": 47.9267675, "lon": -122.097409}, {"type": "node", "id": 3191035909, "lat": 47.9266095, "lon": -122.0973437}, {"type": "node", "id": 3191035910, "lat": 47.9138775, "lon": -122.0857976}, {"type": "node", "id": 3191035911, "lat": 47.9268863, "lon": -122.0977267}, {"type": "node", "id": 3191035912, "lat": 47.9266815, "lon": -122.0975961}, {"type": "node", "id": 3191035913, "lat": 47.9266051, "lon": -122.0973674}, {"type": "node", "id": 3191035914, "lat": 47.9139947, "lon": -122.0857905}, {"type": "node", "id": 3191035915, "lat": 47.9268531, "lon": -122.0979211}, {"type": "node", "id": 3191035916, "lat": 47.9267199, "lon": -122.0975673}, {"type": "node", "id": 3191035917, "lat": 47.9265797, "lon": -122.0973568}, {"type": "node", "id": 3191035918, "lat": 47.9139998, "lon": -122.0859762}, {"type": "node", "id": 3191035919, "lat": 47.9267699, "lon": -122.0978894}, {"type": "node", "id": 3191035920, "lat": 47.9267351, "lon": -122.0974854}, {"type": "node", "id": 3191035921, "lat": 47.926752, "lon": -122.0974924}, {"type": "node", "id": 3191035922, "lat": 47.9138826, "lon": -122.0859833}, {"type": "node", "id": 3191035923, "lat": 47.9268031, "lon": -122.0976951}, {"type": "node", "id": 3191035924, "lat": 47.9265457, "lon": -122.0975399}, {"type": "node", "id": 3216879172, "lat": 47.9195079, "lon": -122.0909678}, {"type": "node", "id": 3856084454, "lat": 47.9248977, "lon": -122.0983137}, {"type": "node", "id": 3881167280, "lat": 47.9163323, "lon": -122.0880541}, {"type": "node", "id": 3881167281, "lat": 47.9160058, "lon": -122.0880697}, {"type": "node", "id": 3881167282, "lat": 47.9160043, "lon": -122.087999}, {"type": "node", "id": 3881167283, "lat": 47.9159456, "lon": -122.0880018}, {"type": "node", "id": 3881167284, "lat": 47.9159416, "lon": -122.0878152}, {"type": "node", "id": 3881167285, "lat": 47.9161159, "lon": -122.0878068}, {"type": "node", "id": 3881167286, "lat": 47.9161155, "lon": -122.0877902}, {"type": "node", "id": 3881167287, "lat": 47.9162052, "lon": -122.0877859}, {"type": "node", "id": 3881167288, "lat": 47.9162056, "lon": -122.0878053}, {"type": "node", "id": 3881167289, "lat": 47.9163269, "lon": -122.0877995}, {"type": "node", "id": 3881167290, "lat": 47.9166963, "lon": -122.0880271}, {"type": "node", "id": 3881167291, "lat": 47.916689, "lon": -122.0876422}, {"type": "node", "id": 3881167292, "lat": 47.9165668, "lon": -122.0876474}, {"type": "node", "id": 3881167293, "lat": 47.9165656, "lon": -122.0875818}, {"type": "node", "id": 3881167294, "lat": 47.91619, "lon": -122.0875976}, {"type": "node", "id": 3881167295, "lat": 47.9161918, "lon": -122.0876891}, {"type": "node", "id": 3881167296, "lat": 47.9163398, "lon": -122.0876829}, {"type": "node", "id": 3881167297, "lat": 47.9163466, "lon": -122.0880419}, {"type": "node", "id": 3915783132, "lat": 47.9267573, "lon": -122.0940679, "tags": {"addr:city": "Snohomish", "addr:housenumber": "1019", "addr:postcode": "98290", "addr:state": "WA", "addr:street": "13th Street", "amenity": "place_of_worship", "denomination": "nazarene", "name": "Snohomish Nazarene", "religion": "christian"}}, {"type": "node", "id": 3915784770, "lat": 47.926905, "lon": -122.0941955, "tags": {"amenity": "place_of_worship", "denomination": "nazarene", "name": "Snohomish Nazarene Fellowship Hall", "religion": "christian"}}, {"type": "node", "id": 3917907374, "lat": 47.9263327, "lon": -122.0951638}, {"type": "node", "id": 4318319025, "lat": 47.9184813, "lon": -122.1029606}, {"type": "node", "id": 4318319031, "lat": 47.9192239, "lon": -122.1029189}, {"type": "node", "id": 4319165210, "lat": 47.9121901, "lon": -122.0870189}, {"type": "node", "id": 4319165211, "lat": 47.9121915, "lon": -122.0869353}, {"type": "node", "id": 4319165212, "lat": 47.9121745, "lon": -122.0869578}, {"type": "node", "id": 4319165213, "lat": 47.9121752, "lon": -122.0870059}, {"type": "node", "id": 4319165214, "lat": 47.9122215, "lon": -122.0869392}, {"type": "node", "id": 4319165215, "lat": 47.9124073, "lon": -122.0871966}, {"type": "node", "id": 4319165216, "lat": 47.9123514, "lon": -122.0872674}, {"type": "node", "id": 4319165217, "lat": 47.9123724, "lon": -122.0873028}, {"type": "node", "id": 4319165218, "lat": 47.9124276, "lon": -122.087268}, {"type": "node", "id": 4319165219, "lat": 47.9124279, "lon": -122.0872204}, {"type": "node", "id": 4381346301, "lat": 47.9296327, "lon": -122.1057621, "tags": {"name": "ABR Roofing Supply", "name:en": "ABR Roofing Supply", "shop": "hardware"}}, {"type": "node", "id": 4386019744, "lat": 47.942233, "lon": -122.1079896, "tags": {"entrance": "yes"}}, {"type": "node", "id": 4386019745, "lat": 47.9422505, "lon": -122.1079176}, {"type": "node", "id": 4386019769, "lat": 47.9424067, "lon": -122.1080017}, {"type": "node", "id": 4494651368, "lat": 47.918354, "lon": -122.1002703}, {"type": "node", "id": 4494651369, "lat": 47.9178245, "lon": -122.100268}, {"type": "node", "id": 4494651370, "lat": 47.917815, "lon": -122.0998811}, {"type": "node", "id": 4494651371, "lat": 47.9183462, "lon": -122.0998788}, {"type": "node", "id": 4494651372, "lat": 47.9179276, "lon": -122.100023, "tags": {"amenity": "parking_space", "capacity": "1"}}, {"type": "node", "id": 4494651373, "lat": 47.9179626, "lon": -122.10002, "tags": {"amenity": "parking_space", "capacity": "1"}}, {"type": "node", "id": 4494651374, "lat": 47.9179941, "lon": -122.100015, "tags": {"amenity": "parking_space", "capacity": "1"}}, {"type": "node", "id": 4494651375, "lat": 47.9180355, "lon": -122.100014, "tags": {"amenity": "parking_space", "capacity": "1"}}, {"type": "node", "id": 4494651376, "lat": 47.9180702, "lon": -122.100013, "tags": {"amenity": "parking_space", "capacity": "1"}}, {"type": "node", "id": 4494651377, "lat": 47.9181056, "lon": -122.100012, "tags": {"amenity": "parking_space", "capacity": "1", "parking_space": "disabled"}}, {"type": "node", "id": 4494651378, "lat": 47.9181554, "lon": -122.100013, "tags": {"amenity": "parking_space", "capacity": "1", "parking_space": "disabled"}}, {"type": "node", "id": 4494651379, "lat": 47.9181855, "lon": -122.100009, "tags": {"amenity": "parking_space", "capacity": "1", "parking_space": "disabled"}}, {"type": "node", "id": 4494651380, "lat": 47.9182458, "lon": -122.099996, "tags": {"amenity": "parking_space", "capacity": "1", "parking_space": "disabled"}}, {"type": "node", "id": 4494651381, "lat": 47.918224, "lon": -122.100167, "tags": {"amenity": "parking_space", "capacity": "1"}}, {"type": "node", "id": 4494651382, "lat": 47.9181923, "lon": -122.100167, "tags": {"amenity": "parking_space", "capacity": "1"}}, {"type": "node", "id": 4494651383, "lat": 47.9181569, "lon": -122.100171, "tags": {"amenity": "parking_space", "capacity": "1"}}, {"type": "node", "id": 4494651384, "lat": 47.918129, "lon": -122.100175, "tags": {"amenity": "parking_space", "capacity": "1"}}, {"type": "node", "id": 4494651385, "lat": 47.918089, "lon": -122.100175, "tags": {"amenity": "parking_space", "capacity": "1"}}, {"type": "node", "id": 4494651386, "lat": 47.9180461, "lon": -122.100168, "tags": {"amenity": "parking_space", "capacity": "1"}}, {"type": "node", "id": 4494651387, "lat": 47.9180122, "lon": -122.100172, "tags": {"amenity": "parking_space", "capacity": "1"}}, {"type": "node", "id": 4494651388, "lat": 47.917979, "lon": -122.100171, "tags": {"amenity": "parking_space", "capacity": "1"}}, {"type": "node", "id": 4494653589, "lat": 47.9179511, "lon": -122.100182, "tags": {"amenity": "parking_space", "capacity": "1", "parking_space": "normal"}}, {"type": "node", "id": 4494653590, "lat": 47.9179187, "lon": -122.100182, "tags": {"amenity": "parking_space", "capacity": "1"}}, {"type": "node", "id": 4602587268, "lat": 47.9339924, "lon": -122.105976, "tags": {"craft": "coffee_roaster", "description": "Coffee Roaster", "name": "Vista Clara Coffee", "office": "company", "website": "https://www.vistaclaracoffee.com/"}}, {"type": "node", "id": 5031550530, "lat": 47.9131762, "lon": -122.0920061}, {"type": "node", "id": 5031550531, "lat": 47.9129254, "lon": -122.0920249}, {"type": "node", "id": 5031550532, "lat": 47.9129205, "lon": -122.091878}, {"type": "node", "id": 5031550533, "lat": 47.9131713, "lon": -122.0918634}, {"type": "node", "id": 5031567236, "lat": 47.9134191, "lon": -122.0886745}, {"type": "node", "id": 5031567237, "lat": 47.9132256, "lon": -122.0886825}, {"type": "node", "id": 5031567238, "lat": 47.9132256, "lon": -122.0887512}, {"type": "node", "id": 5031584038, "lat": 47.9134209, "lon": -122.0887528}, {"type": "node", "id": 5214654737, "lat": 47.9134145, "lon": -122.0954456, "tags": {"name": "Upper Case", "shop": "books"}}, {"type": "node", "id": 5284372174, "lat": 47.9144222, "lon": -122.0883055, "tags": {"amenity": "pub", "name": "The Old Inn"}}, {"type": "node", "id": 5419190843, "lat": 47.917824, "lon": -122.1002474}, {"type": "node", "id": 5419191574, "lat": 47.906087, "lon": -122.088555}, {"type": "node", "id": 5419191576, "lat": 47.9061044, "lon": -122.0882533}, {"type": "node", "id": 5420586861, "lat": 47.9267888, "lon": -122.0977787}, {"type": "node", "id": 5420586862, "lat": 47.9268718, "lon": -122.0978115}, {"type": "node", "id": 5420587143, "lat": 47.9285365, "lon": -122.0986963}, {"type": "node", "id": 5420587144, "lat": 47.9285355, "lon": -122.0988318}, {"type": "node", "id": 5420587388, "lat": 47.931289, "lon": -122.0868764}, {"type": "node", "id": 5648359751, "lat": 47.9189123, "lon": -122.0916886}, {"type": "node", "id": 5897951885, "lat": 47.9134576, "lon": -122.0844418, "tags": {"addr:housenumber": "215", "addr:postcode": "98290", "addr:street": "Cypress Avenue", "amenity": "restaurant", "name": "Collectors Choice", "name:en": "Collector's Choice Restaurant", "opening_hours": "Su-Th 07:00-01:00; Fr-Sa 07:00-18:00", "phone": "+1-360-568-1277", "website": "https://www.ccrsnohomish.com/"}}, {"type": "node", "id": 6141585882, "lat": 47.9302277, "lon": -122.095762}, {"type": "node", "id": 6199917018, "lat": 47.9292382, "lon": -122.0987402, "tags": {"addr:city": "Snohomish", "addr:housenumber": "1431", "addr:postcode": "98290", "addr:state": "WA", "addr:street": "Avenue D", "amenity": "restaurant", "cuisine": "mexican", "delivery": "no", "name": "El Paraiso Mexican Grill", "opening_hours": "Mo-Th 11:00-23:00, Fr-Sa 11:00-00:00, Su 11:00-22:00", "outdoor_seating": "no", "smoking": "outside", "website": "https://www.elparaisomexicangrill.com/"}}, {"type": "node", "id": 6204260182, "lat": 47.9285599, "lon": -122.0988316}, {"type": "node", "id": 6204260285, "lat": 47.9292518, "lon": -122.099068, "tags": {"addr:city": "Snohomish", "addr:housenumber": "1429", "addr:postcode": "98290", "addr:state": "WA", "addr:street": "Avenue D", "amenity": "post_office", "brand": "The UPS Store", "brand:wikidata": "Q7771029", "name": "The UPS Store", "operator": "The UPS Store", "operator:type": "private", "operator:wikidata": "Q7771029", "operator:wikipedia": "en:The UPS Store", "short_name": "UPS", "website": "https://locations.theupsstore.com/wa/snohomish/1429-avenue-d"}}, {"type": "node", "id": 6204260286, "lat": 47.9291745, "lon": -122.099315, "tags": {"addr:city": "Snohomish", "addr:housenumber": "1423", "addr:postcode": "98290", "addr:state": "WA", "addr:street": "Avenue D", "addr:unit": "8", "amenity": "fast_food", "brand": "Domino's", "brand:wikidata": "Q839466", "cuisine": "pizza", "delivery": "yes", "drive_through": "no", "name": "Domino's", "opening_hours": "Mo-Th 10:30-24:00; Fr-Sa 10:30-01:00; Su 10:30-24:00", "phone": "+1-360-822-9994", "ref": "7161", "takeaway": "yes", "website": "https://pizza.dominos.com/washington/snohomish/"}}, {"type": "node", "id": 6212340642, "lat": 47.9226285, "lon": -122.097582, "tags": {"addr:city": "Snohomish", "addr:housenumber": "827", "addr:postcode": "98290", "addr:state": "WA", "addr:street": "Avenue D", "amenity": "fast_food", "brand": "Jack in the Box", "brand:wikidata": "Q1538507", "cuisine": "burger", "drive_through": "yes", "name": "Jack in the Box", "phone": "+1-360-568-6644", "takeaway": "yes", "website": "https://locations.jackinthebox.com/us/wa/snohomish/827-avenue-d"}}, {"type": "node", "id": 6212340643, "lat": 47.9232852, "lon": -122.097284, "tags": {"addr:city": "Snohomish", "addr:housenumber": "917", "addr:postcode": "98290", "addr:state": "WA", "addr:street": "Avenue D", "amenity": "fast_food", "brand": "McDonald's", "brand:wikidata": "Q38076", "cuisine": "burger", "drive_through": "yes", "internet_access": "wlan", "name": "McDonald's", "opening_hours": "07:00-22:00", "phone": "+1-360-294-8756", "takeaway": "yes", "website": "https://www.mcdonalds.com/us/en-us/location/5583.html"}}, {"type": "node", "id": 6212340644, "lat": 47.9221033, "lon": -122.096755, "tags": {"addr:city": "Snohomish", "addr:housenumber": "825", "addr:postcode": "98290", "addr:state": "WA", "addr:street": "Avenue C East", "brand": "Dollar Tree", "brand:wikidata": "Q5289230", "name": "Dollar Tree", "opening_hours": "Mo-Sa 09:00-21:00; Su 09:00-20:00", "payment:cash": "yes", "payment:credit_cards": "yes", "payment:debit_cards": "yes", "phone": "+1-360-568-9748", "shop": "variety_store"}}, {"type": "node", "id": 6212340645, "lat": 47.9240712, "lon": -122.09743, "tags": {"addr:city": "Snohomish", "addr:housenumber": "1001", "addr:postcode": "98290", "addr:state": "WA", "addr:street": "Avenue D", "amenity": "fast_food", "brand": "Jimmy John's", "brand:wikidata": "Q1689380", "cuisine": "sandwich", "delivery": "yes", "drive_through": "no", "name": "Jimmy John's", "official_name": "Jimmy John's Gourmet Sandwiches", "outdoor_seating": "no", "phone": "+1-360-863-6829", "takeaway": "yes", "website": "https://locations.jimmyjohns.com/wa/snohomish/sandwiches-3136.html"}}, {"type": "node", "id": 6239035094, "lat": 47.9328906, "lon": -122.1030954, "tags": {"addr:city": "Snohomish", "addr:housenumber": "1800", "addr:postcode": "98290", "addr:state": "WA", "addr:street": "Bickford Avenue", "addr:unit": "210", "name": "Josh's Taps & Caps", "payment:cash": "yes", "payment:credit_cards": "yes", "payment:debit_cards": "yes", "phone": "+1-360-217-7221", "shop": "beverages", "website": "http://www.joshstapsandcaps.com/"}}, {"type": "node", "id": 6292715316, "lat": 47.92614, "lon": -122.0975195, "tags": {"addr:city": "Snohomish", "addr:housenumber": "1209", "addr:postcode": "98290", "addr:state": "WA", "addr:street": "Avenue D", "alt_name": "Kentucky Fried Chicken", "amenity": "fast_food", "brand": "KFC", "brand:wikidata": "Q524757", "cuisine": "chicken", "drive_through": "yes", "name": "KFC", "phone": "+1-360-568-7800", "takeaway": "yes", "website": "https://locations.kfc.com/wa/snohomish/1209-avenue-d"}}, {"type": "node", "id": 6292715317, "lat": 47.9303635, "lon": -122.10106, "tags": {"addr:city": "Snohomish", "addr:housenumber": "1430", "addr:postcode": "98290", "addr:state": "WA", "addr:street": "Bickford Avenue", "name": "Lindy's Attic", "shop": "antiques", "website": "https://www.facebook.com/LindysAttic"}}, {"type": "node", "id": 6393847026, "lat": 47.9097516, "lon": -122.0922978}, {"type": "node", "id": 6393847027, "lat": 47.9095987, "lon": -122.0920118}, {"type": "node", "id": 6393847028, "lat": 47.9095444, "lon": -122.0920191}, {"type": "node", "id": 6393847029, "lat": 47.9094231, "lon": -122.0922232}, {"type": "node", "id": 6393847030, "lat": 47.9093697, "lon": -122.0923896}, {"type": "node", "id": 6393847031, "lat": 47.9093639, "lon": -122.0925821}, {"type": "node", "id": 6393847032, "lat": 47.909428, "lon": -122.0927717}, {"type": "node", "id": 6393847033, "lat": 47.9095221, "lon": -122.0928904}, {"type": "node", "id": 6393847034, "lat": 47.9096201, "lon": -122.0923782}, {"type": "node", "id": 6393863371, "lat": 47.9096847, "lon": -122.0923831}, {"type": "node", "id": 6393863372, "lat": 47.9095843, "lon": -122.0924438}, {"type": "node", "id": 6393863373, "lat": 47.9096415, "lon": -122.0927486}, {"type": "node", "id": 6393863374, "lat": 47.9095915, "lon": -122.0925641}, {"type": "node", "id": 6395213871, "lat": 47.9112759, "lon": -122.0959045}, {"type": "node", "id": 6395213872, "lat": 47.9112835, "lon": -122.0959042}, {"type": "node", "id": 6395213873, "lat": 47.9112822, "lon": -122.0958347}, {"type": "node", "id": 6395213874, "lat": 47.9112738, "lon": -122.0958351}, {"type": "node", "id": 6395213875, "lat": 47.9112734, "lon": -122.0958133}, {"type": "node", "id": 6395213876, "lat": 47.911213, "lon": -122.0958159}, {"type": "node", "id": 6395213877, "lat": 47.9112152, "lon": -122.0959277}, {"type": "node", "id": 6413218902, "lat": 47.9108838, "lon": -122.0942227}, {"type": "node", "id": 6413218903, "lat": 47.9108783, "lon": -122.0939185}, {"type": "node", "id": 6413218904, "lat": 47.9107024, "lon": -122.093924}, {"type": "node", "id": 6413218905, "lat": 47.9107091, "lon": -122.0940447}, {"type": "node", "id": 6413218906, "lat": 47.9107377, "lon": -122.0941628}, {"type": "node", "id": 6413218907, "lat": 47.910773, "lon": -122.0941401}, {"type": "node", "id": 6413218908, "lat": 47.9107925, "lon": -122.0942055}, {"type": "node", "id": 6621299757, "lat": 47.9131498, "lon": -122.0987582, "tags": {"check_date": "2024-06-29", "name": "Food Mart", "shop": "convenience"}}, {"type": "node", "id": 6736715692, "lat": 47.9127266, "lon": -122.0939826}, {"type": "node", "id": 6736715693, "lat": 47.9126794, "lon": -122.0939856}, {"type": "node", "id": 6736715694, "lat": 47.9126797, "lon": -122.0939955}, {"type": "node", "id": 6736715695, "lat": 47.9125285, "lon": -122.094005}, {"type": "node", "id": 6736715696, "lat": 47.9125274, "lon": -122.0939662}, {"type": "node", "id": 6736715697, "lat": 47.9125043, "lon": -122.0939677}, {"type": "node", "id": 6736715698, "lat": 47.9125047, "lon": -122.0939811}, {"type": "node", "id": 6736715699, "lat": 47.9124839, "lon": -122.0939824}, {"type": "node", "id": 6736715700, "lat": 47.9124745, "lon": -122.0936419}, {"type": "node", "id": 6736715701, "lat": 47.9126828, "lon": -122.0936291}, {"type": "node", "id": 6736715702, "lat": 47.9126835, "lon": -122.093653}, {"type": "node", "id": 6736715703, "lat": 47.9126986, "lon": -122.0936589}, {"type": "node", "id": 6736715704, "lat": 47.9127026, "lon": -122.0936778}, {"type": "node", "id": 6736715705, "lat": 47.9127142, "lon": -122.0936852}, {"type": "node", "id": 6736715706, "lat": 47.9127153, "lon": -122.0937074}, {"type": "node", "id": 6736715707, "lat": 47.9127041, "lon": -122.0937193}, {"type": "node", "id": 6736715708, "lat": 47.9127033, "lon": -122.0937371}, {"type": "node", "id": 6736715709, "lat": 47.9126891, "lon": -122.0937465}, {"type": "node", "id": 6736715710, "lat": 47.9126896, "lon": -122.0937653}, {"type": "node", "id": 6736715711, "lat": 47.9125636, "lon": -122.0937734}, {"type": "node", "id": 6736715712, "lat": 47.9125662, "lon": -122.0938649}, {"type": "node", "id": 6736715713, "lat": 47.9127229, "lon": -122.0938548}, {"type": "node", "id": 6829111263, "lat": 47.9248116, "lon": -122.0983149}, {"type": "node", "id": 6829111264, "lat": 47.9248102, "lon": -122.0980975}, {"type": "node", "id": 6829111265, "lat": 47.9249425, "lon": -122.0980956}, {"type": "node", "id": 6829111266, "lat": 47.9249432, "lon": -122.0982074}, {"type": "node", "id": 6829111267, "lat": 47.924897, "lon": -122.098208}, {"type": "node", "id": 6876373436, "lat": 47.911229, "lon": -122.098861}, {"type": "node", "id": 6876373437, "lat": 47.911348, "lon": -122.098818}, {"type": "node", "id": 6876373438, "lat": 47.911376, "lon": -122.098989}, {"type": "node", "id": 6876373439, "lat": 47.911257, "lon": -122.099032}, {"type": "node", "id": 6917179063, "lat": 47.9065141, "lon": -122.0887359, "tags": {"barrier": "kerb", "kerb": "lowered"}}, {"type": "node", "id": 6917179064, "lat": 47.9061707, "lon": -122.0887225}, {"type": "node", "id": 6917199648, "lat": 47.9063608, "lon": -122.0887299}, {"type": "node", "id": 6923851822, "lat": 47.9273377, "lon": -122.0870357, "tags": {"amenity": "school", "name": "Parent Partnership Program"}}, {"type": "node", "id": 6997746826, "lat": 47.9302067, "lon": -122.0948117}, {"type": "node", "id": 6997746827, "lat": 47.9302436, "lon": -122.0950556}, {"type": "node", "id": 6997746828, "lat": 47.9303145, "lon": -122.0952199}, {"type": "node", "id": 6997746829, "lat": 47.9302909, "lon": -122.0957995}, {"type": "node", "id": 6997746830, "lat": 47.9302938, "lon": -122.0954293}, {"type": "node", "id": 6997746831, "lat": 47.9302358, "lon": -122.0953849}, {"type": "node", "id": 6997746832, "lat": 47.9302787, "lon": -122.0953191}, {"type": "node", "id": 6997746833, "lat": 47.9301257, "lon": -122.094848}, {"type": "node", "id": 6997746834, "lat": 47.9300922, "lon": -122.0947166}, {"type": "node", "id": 6997746835, "lat": 47.9300607, "lon": -122.0946091}, {"type": "node", "id": 6997746836, "lat": 47.9300777, "lon": -122.0944971}, {"type": "node", "id": 6997746837, "lat": 47.9300114, "lon": -122.0943267}, {"type": "node", "id": 6997746838, "lat": 47.9299482, "lon": -122.0942823}, {"type": "node", "id": 6997746839, "lat": 47.929895, "lon": -122.0941842}, {"type": "node", "id": 6997746840, "lat": 47.9298418, "lon": -122.0940815}, {"type": "node", "id": 6997746841, "lat": 47.9298095, "lon": -122.0939834}, {"type": "node", "id": 6997746842, "lat": 47.9298287, "lon": -122.09392}, {"type": "node", "id": 6997746843, "lat": 47.9298103, "lon": -122.0938622}, {"type": "node", "id": 6997746844, "lat": 47.9297396, "lon": -122.0938713}, {"type": "node", "id": 6997746845, "lat": 47.9297007, "lon": -122.0938632}, {"type": "node", "id": 6997746846, "lat": 47.9300357, "lon": -122.0944592}, {"type": "node", "id": 6997746847, "lat": 47.9300124, "lon": -122.0944054}, {"type": "node", "id": 6997746850, "lat": 47.9302646, "lon": -122.0953786}, {"type": "node", "id": 6997746851, "lat": 47.9302362, "lon": -122.0954192}, {"type": "node", "id": 6997746852, "lat": 47.9302993, "lon": -122.0952621}, {"type": "node", "id": 6997746854, "lat": 47.929006, "lon": -122.0971595}, {"type": "node", "id": 6997746855, "lat": 47.9290123, "lon": -122.0965417}, {"type": "node", "id": 6997746856, "lat": 47.9288974, "lon": -122.0965474}, {"type": "node", "id": 6997746857, "lat": 47.9288974, "lon": -122.0961424}, {"type": "node", "id": 6997746858, "lat": 47.9284052, "lon": -122.0961123}, {"type": "node", "id": 6997746859, "lat": 47.9284002, "lon": -122.0964061}, {"type": "node", "id": 6997746860, "lat": 47.9282525, "lon": -122.0964042}, {"type": "node", "id": 6997746861, "lat": 47.9282538, "lon": -122.096489}, {"type": "node", "id": 6997746862, "lat": 47.9282101, "lon": -122.0964891}, {"type": "node", "id": 6997746863, "lat": 47.928209, "lon": -122.0967671}, {"type": "node", "id": 6997746864, "lat": 47.9283181, "lon": -122.0968318}, {"type": "node", "id": 6997746865, "lat": 47.9284633, "lon": -122.0969655}, {"type": "node", "id": 6997746866, "lat": 47.9285112, "lon": -122.0971501}, {"type": "node", "id": 7110952153, "lat": 47.9123974, "lon": -122.0984085}, {"type": "node", "id": 7110952154, "lat": 47.9123921, "lon": -122.0980856}, {"type": "node", "id": 7110952155, "lat": 47.912298, "lon": -122.0980891}, {"type": "node", "id": 7110952156, "lat": 47.9123033, "lon": -122.098412}, {"type": "node", "id": 7204930557, "lat": 47.9283856, "lon": -122.09779, "tags": {"brand": "O'Reilly Auto Parts", "brand:wikidata": "Q7071951", "name": "O'Reilly Auto Parts", "shop": "car_parts", "website": "https://locations.oreillyauto.com/wa/snohomish/autoparts-2757.html"}}, {"type": "node", "id": 7490100577, "lat": 47.9065137, "lon": -122.0885591}, {"type": "node", "id": 7490100578, "lat": 47.9065191, "lon": -122.0882516}, {"type": "node", "id": 7918417034, "lat": 47.9345302, "lon": -122.1054034, "tags": {"addr:unit": "202", "amenity": "dentist", "healthcare": "dentist", "name": "Glenn F. Berg, D.D.S.", "phone": "+1-360-568-1198"}}, {"type": "node", "id": 7918417040, "lat": 47.9345307, "lon": -122.105237, "tags": {"addr:unit": "204", "name": "Monro Law Firm, P.S. Inc.", "office": "lawyer"}}, {"type": "node", "id": 8105066518, "lat": 47.9206604, "lon": -122.098312, "tags": {"addr:housenumber": "700", "addr:street": "Avenue D", "amenity": "dentist", "healthcare": "dentist", "healthcare:speciality": "orthodontics;dentistry", "name": "George Orthodontics"}}, {"type": "node", "id": 8296635626, "lat": 47.9212464, "lon": -122.0975007}, {"type": "node", "id": 8296635627, "lat": 47.9212452, "lon": -122.0973786}, {"type": "node", "id": 8296635628, "lat": 47.9211539, "lon": -122.0973786}, {"type": "node", "id": 8296635629, "lat": 47.9211468, "lon": -122.0972406}, {"type": "node", "id": 8296635630, "lat": 47.920791, "lon": -122.0972565}, {"type": "node", "id": 8296635631, "lat": 47.9208005, "lon": -122.0976671}, {"type": "node", "id": 8296635632, "lat": 47.9211587, "lon": -122.0976529}, {"type": "node", "id": 8296635633, "lat": 47.9211527, "lon": -122.0975025}, {"type": "node", "id": 8296635644, "lat": 47.9225487, "lon": -122.0984945}, {"type": "node", "id": 8296635645, "lat": 47.9225475, "lon": -122.0987962}, {"type": "node", "id": 8296635646, "lat": 47.9225397, "lon": -122.0987962}, {"type": "node", "id": 8296635647, "lat": 47.9225395, "lon": -122.0988414}, {"type": "node", "id": 8296635648, "lat": 47.922512, "lon": -122.0988412}, {"type": "node", "id": 8296635649, "lat": 47.9225119, "lon": -122.0988771}, {"type": "node", "id": 8296635650, "lat": 47.9224465, "lon": -122.0988766}, {"type": "node", "id": 8296635651, "lat": 47.9224222, "lon": -122.0988481}, {"type": "node", "id": 8296635652, "lat": 47.9224225, "lon": -122.0987753}, {"type": "node", "id": 8296635653, "lat": 47.9224109, "lon": -122.0987752}, {"type": "node", "id": 8296635654, "lat": 47.9224118, "lon": -122.0985698}, {"type": "node", "id": 8296635655, "lat": 47.9224289, "lon": -122.09857}, {"type": "node", "id": 8296635656, "lat": 47.9224292, "lon": -122.0984934}, {"type": "node", "id": 8346936101, "lat": 47.9170978, "lon": -122.0883463}, {"type": "node", "id": 8346936102, "lat": 47.9170884, "lon": -122.0880581}, {"type": "node", "id": 8346936103, "lat": 47.9169151, "lon": -122.0880706}, {"type": "node", "id": 8346936104, "lat": 47.9169245, "lon": -122.0883589}, {"type": "node", "id": 8347198882, "lat": 47.931638, "lon": -122.0993902}, {"type": "node", "id": 8347198883, "lat": 47.9315852, "lon": -122.0993744}, {"type": "node", "id": 8347198884, "lat": 47.9316529, "lon": -122.0988698}, {"type": "node", "id": 8347198885, "lat": 47.9317056, "lon": -122.0988855}, {"type": "node", "id": 8347198886, "lat": 47.9315617, "lon": -122.0990567}, {"type": "node", "id": 8347198887, "lat": 47.9315141, "lon": -122.0990442}, {"type": "node", "id": 8347198888, "lat": 47.9315579, "lon": -122.0986713}, {"type": "node", "id": 8347198889, "lat": 47.9316055, "lon": -122.0986838}, {"type": "node", "id": 8347198890, "lat": 47.9315212, "lon": -122.0991798}, {"type": "node", "id": 8347198891, "lat": 47.9315032, "lon": -122.0990994}, {"type": "node", "id": 8347198892, "lat": 47.9314933, "lon": -122.0986702}, {"type": "node", "id": 8347198893, "lat": 47.9314421, "lon": -122.0986715}, {"type": "node", "id": 8347198894, "lat": 47.9314502, "lon": -122.099035}, {"type": "node", "id": 8347198895, "lat": 47.9314754, "lon": -122.0992013}, {"type": "node", "id": 8347198896, "lat": 47.9314637, "lon": -122.0993864}, {"type": "node", "id": 8347198897, "lat": 47.931425, "lon": -122.099436}, {"type": "node", "id": 8347198898, "lat": 47.931381, "lon": -122.0993287}, {"type": "node", "id": 8347198899, "lat": 47.9313397, "lon": -122.0991383}, {"type": "node", "id": 8347198900, "lat": 47.9313298, "lon": -122.0990068}, {"type": "node", "id": 8347198901, "lat": 47.9313307, "lon": -122.0988218}, {"type": "node", "id": 8347198902, "lat": 47.9313747, "lon": -122.0988218}, {"type": "node", "id": 8347198903, "lat": 47.9313783, "lon": -122.0990028}, {"type": "node", "id": 8347198904, "lat": 47.9313891, "lon": -122.0991262}, {"type": "node", "id": 8347198905, "lat": 47.9314313, "lon": -122.0993019}, {"type": "node", "id": 8347198906, "lat": 47.9318236, "lon": -122.0987614}, {"type": "node", "id": 8347198907, "lat": 47.9316067, "lon": -122.0984445}, {"type": "node", "id": 8347198908, "lat": 47.9315658, "lon": -122.0985068}, {"type": "node", "id": 8347198909, "lat": 47.9317826, "lon": -122.0988238}, {"type": "node", "id": 8347198910, "lat": 47.9316533, "lon": -122.0980587}, {"type": "node", "id": 8347198911, "lat": 47.9315994, "lon": -122.0980305}, {"type": "node", "id": 8347198912, "lat": 47.931372, "lon": -122.0980023}, {"type": "node", "id": 8347198913, "lat": 47.9313657, "lon": -122.0982102}, {"type": "node", "id": 8347198914, "lat": 47.9314053, "lon": -122.0982183}, {"type": "node", "id": 8347198915, "lat": 47.9315032, "lon": -122.0982424}, {"type": "node", "id": 8347198916, "lat": 47.9315607, "lon": -122.0981995}, {"type": "node", "id": 8347207117, "lat": 47.9315985, "lon": -122.09817}, {"type": "node", "id": 8677572591, "lat": 47.9128955, "lon": -122.09881}, {"type": "node", "id": 8677572592, "lat": 47.9128921, "lon": -122.0987064}, {"type": "node", "id": 8677572593, "lat": 47.9127749, "lon": -122.0987135}, {"type": "node", "id": 8677572594, "lat": 47.9127769, "lon": -122.0988141}, {"type": "node", "id": 8848643721, "lat": 47.9241752, "lon": -122.097436, "tags": {"addr:city": "Snohomish", "addr:housenumber": "1001", "addr:postcode": "98290", "addr:state": "WA", "addr:street": "Avenue D", "addr:unit": "Suite 102", "brand": "T-Mobile", "brand:wikidata": "Q3511885", "name": "T-Mobile", "payment:credit_cards": "yes", "payment:debit_cards": "yes", "phone": "+1-360-563-2420", "shop": "mobile_phone"}}, {"type": "node", "id": 9531262133, "lat": 47.9113205, "lon": -122.0975338}, {"type": "node", "id": 9531262134, "lat": 47.9113157, "lon": -122.0973781}, {"type": "node", "id": 9531262135, "lat": 47.9111798, "lon": -122.0973874}, {"type": "node", "id": 9531262136, "lat": 47.9111814, "lon": -122.097439}, {"type": "node", "id": 9531262137, "lat": 47.9111056, "lon": -122.0974442}, {"type": "node", "id": 9531262138, "lat": 47.9111088, "lon": -122.0975483}, {"type": "node", "id": 9531262207, "lat": 47.9122624, "lon": -122.0935846}, {"type": "node", "id": 9531262208, "lat": 47.9122551, "lon": -122.0933294}, {"type": "node", "id": 9531262209, "lat": 47.9120878, "lon": -122.09334}, {"type": "node", "id": 9531262210, "lat": 47.912095, "lon": -122.0935929}, {"type": "node", "id": 9531262211, "lat": 47.9120793, "lon": -122.0935939}, {"type": "node", "id": 9531262212, "lat": 47.9120831, "lon": -122.0937262}, {"type": "node", "id": 9531262213, "lat": 47.9122133, "lon": -122.0937179}, {"type": "node", "id": 9531262214, "lat": 47.9122096, "lon": -122.093588}, {"type": "node", "id": 9534044282, "lat": 47.9130488, "lon": -122.0939105}, {"type": "node", "id": 9534044283, "lat": 47.9131257, "lon": -122.0939034}, {"type": "node", "id": 9534044284, "lat": 47.9131227, "lon": -122.093831}, {"type": "node", "id": 9534044285, "lat": 47.9131726, "lon": -122.0938264}, {"type": "node", "id": 9534044286, "lat": 47.9131641, "lon": -122.0936216}, {"type": "node", "id": 9534044287, "lat": 47.9131053, "lon": -122.0936271}, {"type": "node", "id": 9534044288, "lat": 47.913091, "lon": -122.0936076}, {"type": "node", "id": 9534044289, "lat": 47.9130242, "lon": -122.0936138}, {"type": "node", "id": 9534044290, "lat": 47.913026, "lon": -122.0936583}, {"type": "node", "id": 9534044291, "lat": 47.9129712, "lon": -122.0936634}, {"type": "node", "id": 9534044292, "lat": 47.9129783, "lon": -122.0938334}, {"type": "node", "id": 9534044293, "lat": 47.9130453, "lon": -122.0938271}, {"type": "node", "id": 9534044307, "lat": 47.9131245, "lon": -122.093875}, {"type": "node", "id": 9534044311, "lat": 47.9129866, "lon": -122.0942678}, {"type": "node", "id": 9534044312, "lat": 47.9129779, "lon": -122.0939324}, {"type": "node", "id": 9534044313, "lat": 47.9131068, "lon": -122.0939249}, {"type": "node", "id": 9534044314, "lat": 47.9131085, "lon": -122.0939897}, {"type": "node", "id": 9534044315, "lat": 47.9131634, "lon": -122.0939865}, {"type": "node", "id": 9534044316, "lat": 47.9131643, "lon": -122.0940232}, {"type": "node", "id": 9534046317, "lat": 47.9131889, "lon": -122.0940324}, {"type": "node", "id": 9534046318, "lat": 47.9131947, "lon": -122.0942558}, {"type": "node", "id": 9534046319, "lat": 47.9131407, "lon": -122.0928858}, {"type": "node", "id": 9534046320, "lat": 47.9131371, "lon": -122.0927668}, {"type": "node", "id": 9534046321, "lat": 47.9130907, "lon": -122.0927699}, {"type": "node", "id": 9534046322, "lat": 47.9130862, "lon": -122.092619}, {"type": "node", "id": 9534046323, "lat": 47.9129448, "lon": -122.0926284}, {"type": "node", "id": 9534046324, "lat": 47.9129528, "lon": -122.0928984}, {"type": "node", "id": 9534046329, "lat": 47.9130757, "lon": -122.0921445}, {"type": "node", "id": 9534046330, "lat": 47.9130732, "lon": -122.0920309}, {"type": "node", "id": 9534046331, "lat": 47.9129372, "lon": -122.0920375}, {"type": "node", "id": 9534046332, "lat": 47.9129397, "lon": -122.0921512}, {"type": "node", "id": 9534046347, "lat": 47.9130138, "lon": -122.0900268}, {"type": "node", "id": 9534046348, "lat": 47.9130089, "lon": -122.0898115}, {"type": "node", "id": 9534046349, "lat": 47.9129991, "lon": -122.0898119}, {"type": "node", "id": 9534046350, "lat": 47.9129965, "lon": -122.0896965}, {"type": "node", "id": 9534046351, "lat": 47.9129474, "lon": -122.089699}, {"type": "node", "id": 9534046352, "lat": 47.91295, "lon": -122.0898164}, {"type": "node", "id": 9534046353, "lat": 47.9129122, "lon": -122.0898183}, {"type": "node", "id": 9534046354, "lat": 47.9129148, "lon": -122.0899286}, {"type": "node", "id": 9534046355, "lat": 47.9129389, "lon": -122.0899273}, {"type": "node", "id": 9534046356, "lat": 47.9129412, "lon": -122.0900305}, {"type": "node", "id": 9534046357, "lat": 47.9125956, "lon": -122.0910571}, {"type": "node", "id": 9534046358, "lat": 47.9125911, "lon": -122.0908622}, {"type": "node", "id": 9534046359, "lat": 47.9125133, "lon": -122.0908662}, {"type": "node", "id": 9534046360, "lat": 47.9125178, "lon": -122.0910611}, {"type": "node", "id": 9534046361, "lat": 47.9126855, "lon": -122.0909508}, {"type": "node", "id": 9534046362, "lat": 47.9126824, "lon": -122.0908026}, {"type": "node", "id": 9534046363, "lat": 47.9126159, "lon": -122.0908057}, {"type": "node", "id": 9534046364, "lat": 47.912619, "lon": -122.0909539}, {"type": "node", "id": 9534046382, "lat": 47.9129287, "lon": -122.0895222, "tags": {"brand": "Sherwin-Williams", "brand:wikidata": "Q48881", "name": "Sherwin-Williams", "shop": "paint"}}, {"type": "node", "id": 9534046383, "lat": 47.9129008, "lon": -122.089178, "tags": {"alt_name": "Edward Jones Investments", "brand": "Edward Jones", "brand:wikidata": "Q5343830", "name": "Edward Jones", "office": "financial_advisor"}}, {"type": "node", "id": 9534046384, "lat": 47.9139835, "lon": -122.0894857}, {"type": "node", "id": 9534046385, "lat": 47.9139203, "lon": -122.0894889}, {"type": "node", "id": 9534046386, "lat": 47.9139193, "lon": -122.0894456}, {"type": "node", "id": 9534046387, "lat": 47.9138632, "lon": -122.0894484}, {"type": "node", "id": 9534046388, "lat": 47.9138612, "lon": -122.0893606}, {"type": "node", "id": 9534046389, "lat": 47.9137784, "lon": -122.0893649}, {"type": "node", "id": 9534046390, "lat": 47.9137755, "lon": -122.0892409}, {"type": "node", "id": 9534046391, "lat": 47.9137795, "lon": -122.0892407}, {"type": "node", "id": 9534046392, "lat": 47.913778, "lon": -122.0891807}, {"type": "node", "id": 9534046393, "lat": 47.9138683, "lon": -122.0891758}, {"type": "node", "id": 9534046394, "lat": 47.9138681, "lon": -122.0891695}, {"type": "node", "id": 9534046395, "lat": 47.9138761, "lon": -122.089169}, {"type": "node", "id": 9534046396, "lat": 47.9138754, "lon": -122.0891411}, {"type": "node", "id": 9534046397, "lat": 47.9139808, "lon": -122.0891352}, {"type": "node", "id": 9534046398, "lat": 47.9139829, "lon": -122.0892198}, {"type": "node", "id": 9534046399, "lat": 47.9139964, "lon": -122.0892383}, {"type": "node", "id": 9534046400, "lat": 47.914, "lon": -122.0893831}, {"type": "node", "id": 9534046401, "lat": 47.9139819, "lon": -122.0894139}, {"type": "node", "id": 9536579355, "lat": 47.9110342, "lon": -122.0820786, "tags": {"amenity": "bbq"}}, {"type": "node", "id": 9536579357, "lat": 47.9109127, "lon": -122.0827702}, {"type": "node", "id": 9536579358, "lat": 47.9108681, "lon": -122.0826983}, {"type": "node", "id": 9536579359, "lat": 47.9107874, "lon": -122.0828095}, {"type": "node", "id": 9536579360, "lat": 47.910832, "lon": -122.0828815}, {"type": "node", "id": 9538640072, "lat": 47.919503, "lon": -122.0910687}, {"type": "node", "id": 9538640077, "lat": 47.9188879, "lon": -122.0917007}, {"type": "node", "id": 9538640078, "lat": 47.918632, "lon": -122.0911414}, {"type": "node", "id": 9538640079, "lat": 47.9192846, "lon": -122.0904795}, {"type": "node", "id": 9538640080, "lat": 47.919355, "lon": -122.0905273}, {"type": "node", "id": 9538640084, "lat": 47.9185089, "lon": -122.0891867}, {"type": "node", "id": 9538640085, "lat": 47.9185147, "lon": -122.0894435}, {"type": "node", "id": 9538640086, "lat": 47.9186536, "lon": -122.0894368}, {"type": "node", "id": 9538640087, "lat": 47.9186531, "lon": -122.0893496}, {"type": "node", "id": 9538640088, "lat": 47.9186724, "lon": -122.0893402}, {"type": "node", "id": 9538640089, "lat": 47.9186981, "lon": -122.0893235}, {"type": "node", "id": 9538640090, "lat": 47.9187277, "lon": -122.0893878}, {"type": "node", "id": 9538640091, "lat": 47.9188814, "lon": -122.0892316}, {"type": "node", "id": 9538640092, "lat": 47.9188562, "lon": -122.0891753}, {"type": "node", "id": 9538640093, "lat": 47.9188554, "lon": -122.0891666}, {"type": "node", "id": 9538640094, "lat": 47.9188882, "lon": -122.0891344}, {"type": "node", "id": 9538640095, "lat": 47.9188953, "lon": -122.0891344}, {"type": "node", "id": 9538640096, "lat": 47.9189223, "lon": -122.0891914}, {"type": "node", "id": 9538640097, "lat": 47.9190571, "lon": -122.0890593}, {"type": "node", "id": 9538640098, "lat": 47.9189623, "lon": -122.0888527}, {"type": "node", "id": 9538640099, "lat": 47.918654, "lon": -122.0891585}, {"type": "node", "id": 9538640100, "lat": 47.9186769, "lon": -122.0892155}, {"type": "node", "id": 9538640101, "lat": 47.9186747, "lon": -122.0892242}, {"type": "node", "id": 9538640102, "lat": 47.9186329, "lon": -122.0892517}, {"type": "node", "id": 9538640103, "lat": 47.9186257, "lon": -122.0892443}, {"type": "node", "id": 9538640104, "lat": 47.9186248, "lon": -122.0891766}, {"type": "node", "id": 9579314902, "lat": 47.912589, "lon": -122.0919864}, {"type": "node", "id": 9579314903, "lat": 47.9127014, "lon": -122.0918487}, {"type": "node", "id": 9579314904, "lat": 47.912633, "lon": -122.0917245}, {"type": "node", "id": 9579314905, "lat": 47.9125207, "lon": -122.0918623}, {"type": "node", "id": 9579314910, "lat": 47.9123392, "lon": -122.091524}, {"type": "node", "id": 9579314911, "lat": 47.9124237, "lon": -122.0914208}, {"type": "node", "id": 9579314912, "lat": 47.9122774, "lon": -122.0911542}, {"type": "node", "id": 9579314913, "lat": 47.9120962, "lon": -122.0913756}, {"type": "node", "id": 9579314914, "lat": 47.9122663, "lon": -122.0913912}, {"type": "node", "id": 9579314915, "lat": 47.9121458, "lon": -122.0914659}, {"type": "node", "id": 9579314916, "lat": 47.9122541, "lon": -122.0914062}, {"type": "node", "id": 9579355117, "lat": 47.9122308, "lon": -122.0913632}, {"type": "node", "id": 9579355123, "lat": 47.9120686, "lon": -122.0918826}, {"type": "node", "id": 9579355124, "lat": 47.9121648, "lon": -122.0917647}, {"type": "node", "id": 9579355125, "lat": 47.9120768, "lon": -122.0916047}, {"type": "node", "id": 9579355126, "lat": 47.9120966, "lon": -122.0915803}, {"type": "node", "id": 9579355127, "lat": 47.9120238, "lon": -122.091448}, {"type": "node", "id": 9579355128, "lat": 47.9119006, "lon": -122.0915991}, {"type": "node", "id": 9579355129, "lat": 47.911975, "lon": -122.0917125}, {"type": "node", "id": 9579355130, "lat": 47.9119678, "lon": -122.0917212}, {"type": "node", "id": 9579355141, "lat": 47.9120368, "lon": -122.0922342}, {"type": "node", "id": 9579355142, "lat": 47.9122921, "lon": -122.091926}, {"type": "node", "id": 9579355143, "lat": 47.9122202, "lon": -122.0917935}, {"type": "node", "id": 9579355144, "lat": 47.911965, "lon": -122.0921017}, {"type": "node", "id": 9579976140, "lat": 47.91193, "lon": -122.0942719}, {"type": "node", "id": 9579976141, "lat": 47.9119297, "lon": -122.0942525}, {"type": "node", "id": 9579976142, "lat": 47.9119333, "lon": -122.0942524}, {"type": "node", "id": 9579976143, "lat": 47.9119276, "lon": -122.0939098}, {"type": "node", "id": 9579976144, "lat": 47.911861, "lon": -122.0939123}, {"type": "node", "id": 9579976145, "lat": 47.9118614, "lon": -122.0939363}, {"type": "node", "id": 9579976146, "lat": 47.9118535, "lon": -122.0939366}, {"type": "node", "id": 9579976147, "lat": 47.9118534, "lon": -122.09393}, {"type": "node", "id": 9579976148, "lat": 47.9118042, "lon": -122.0939318}, {"type": "node", "id": 9579976149, "lat": 47.9118047, "lon": -122.0939638}, {"type": "node", "id": 9579976150, "lat": 47.9118105, "lon": -122.0939636}, {"type": "node", "id": 9579976151, "lat": 47.9118121, "lon": -122.0940674}, {"type": "node", "id": 9579976152, "lat": 47.9118181, "lon": -122.0940672}, {"type": "node", "id": 9579976153, "lat": 47.9118183, "lon": -122.0940807}, {"type": "node", "id": 9579976154, "lat": 47.9118556, "lon": -122.0940794}, {"type": "node", "id": 9579976155, "lat": 47.9118583, "lon": -122.0942551}, {"type": "node", "id": 9579976156, "lat": 47.9118635, "lon": -122.0942549}, {"type": "node", "id": 9579976157, "lat": 47.9118638, "lon": -122.0942743}, {"type": "node", "id": 9587105925, "lat": 47.9119105, "lon": -122.0991843}, {"type": "node", "id": 9587105926, "lat": 47.9119051, "lon": -122.0989629}, {"type": "node", "id": 9587105927, "lat": 47.9116569, "lon": -122.0989763}, {"type": "node", "id": 9587105928, "lat": 47.9116557, "lon": -122.0989261}, {"type": "node", "id": 9587105929, "lat": 47.9115774, "lon": -122.0989304}, {"type": "node", "id": 9587105930, "lat": 47.911584, "lon": -122.099202}, {"type": "node", "id": 9587105933, "lat": 47.9120622, "lon": -122.0988405}, {"type": "node", "id": 9587105934, "lat": 47.9120717, "lon": -122.0991621}, {"type": "node", "id": 9587105935, "lat": 47.9120731, "lon": -122.0992062}, {"type": "node", "id": 9587105936, "lat": 47.9120615, "lon": -122.0988214}, {"type": "node", "id": 9587105937, "lat": 47.912147, "lon": -122.0988157}, {"type": "node", "id": 9587105938, "lat": 47.9121586, "lon": -122.0992005}, {"type": "node", "id": 9587105949, "lat": 47.9125418, "lon": -122.0990061}, {"type": "node", "id": 9587105950, "lat": 47.9125369, "lon": -122.0987962}, {"type": "node", "id": 9587105951, "lat": 47.9124495, "lon": -122.0988007}, {"type": "node", "id": 9587105952, "lat": 47.9124545, "lon": -122.0990106}, {"type": "node", "id": 9733717873, "lat": 47.9190217, "lon": -122.0868343, "tags": {"amenity": "drinking_water"}}, {"type": "node", "id": 9770803157, "lat": 47.911282, "lon": -122.0971637, "tags": {"amenity": "bench"}}, {"type": "node", "id": 9927671802, "lat": 47.9113106, "lon": -122.0972139, "tags": {"amenity": "drinking_water"}}, {"type": "node", "id": 10075539047, "lat": 47.9114928, "lon": -122.0960576, "tags": {"amenity": "post_box", "drive_through": "no", "operator": "United States Postal Service", "operator:short": "USPS", "operator:type": "public", "operator:website": "https://www.usps.com", "operator:wikidata": "Q668687", "operator:wikipedia": "en:United States Postal Service"}}, {"type": "node", "id": 10075539048, "lat": 47.9119663, "lon": -122.0932378, "tags": {"amenity": "post_box", "operator": "United States Postal Service", "operator:short": "USPS", "operator:type": "public", "operator:website": "https://www.usps.com", "operator:wikidata": "Q668687", "operator:wikipedia": "en:United States Postal Service"}}, {"type": "node", "id": 10075539050, "lat": 47.9136199, "lon": -122.088736, "tags": {"amenity": "post_box", "operator": "United States Postal Service", "operator:short": "USPS", "operator:type": "public", "operator:website": "https://www.usps.com", "operator:wikidata": "Q668687", "operator:wikipedia": "en:United States Postal Service"}}, {"type": "node", "id": 10075539051, "lat": 47.9134385, "lon": -122.0857881, "tags": {"amenity": "post_box", "operator": "United States Postal Service", "operator:short": "USPS", "operator:type": "public", "operator:website": "https://www.usps.com", "operator:wikidata": "Q668687", "operator:wikipedia": "en:United States Postal Service"}}, {"type": "node", "id": 10075539052, "lat": 47.9262205, "lon": -122.0958436, "tags": {"amenity": "post_box", "operator": "United States Postal Service", "operator:short": "USPS", "operator:type": "public", "operator:website": "https://www.usps.com", "operator:wikidata": "Q668687", "operator:wikipedia": "en:United States Postal Service"}}, {"type": "node", "id": 10075539053, "lat": 47.9282487, "lon": -122.0978153, "tags": {"amenity": "post_box", "operator": "United States Postal Service", "operator:short": "USPS", "operator:type": "public", "operator:website": "https://www.usps.com", "operator:wikidata": "Q668687", "operator:wikipedia": "en:United States Postal Service"}}, {"type": "node", "id": 10075539054, "lat": 47.9347429, "lon": -122.1057407, "tags": {"amenity": "post_box", "operator": "United States Postal Service", "operator:short": "USPS", "operator:type": "public", "operator:website": "https://www.usps.com", "operator:wikidata": "Q668687", "operator:wikipedia": "en:United States Postal Service"}}, {"type": "node", "id": 10099519694, "lat": 47.9132715, "lon": -122.0982985}, {"type": "node", "id": 10099519695, "lat": 47.9132647, "lon": -122.0979874}, {"type": "node", "id": 10099519696, "lat": 47.9131863, "lon": -122.0979912}, {"type": "node", "id": 10099519697, "lat": 47.913193, "lon": -122.0983023}, {"type": "node", "id": 10697841724, "lat": 47.9276077, "lon": -122.093743}, {"type": "node", "id": 10697841725, "lat": 47.9275008, "lon": -122.0938036}, {"type": "node", "id": 10697841726, "lat": 47.9274578, "lon": -122.0936346}, {"type": "node", "id": 10697841727, "lat": 47.927584, "lon": -122.0935631}, {"type": "node", "id": 10697841728, "lat": 47.9275797, "lon": -122.0935462}, {"type": "node", "id": 10697841729, "lat": 47.927641, "lon": -122.0935113}, {"type": "node", "id": 10697841730, "lat": 47.9276457, "lon": -122.0935297}, {"type": "node", "id": 10697841731, "lat": 47.9277054, "lon": -122.0934956}, {"type": "node", "id": 10697841732, "lat": 47.9277343, "lon": -122.0936082}, {"type": "node", "id": 10697841733, "lat": 47.9277603, "lon": -122.0935933}, {"type": "node", "id": 10697841734, "lat": 47.9277722, "lon": -122.0936398}, {"type": "node", "id": 10697841735, "lat": 47.9277436, "lon": -122.0936562}, {"type": "node", "id": 10697841736, "lat": 47.9277474, "lon": -122.0936713}, {"type": "node", "id": 10697841737, "lat": 47.9277199, "lon": -122.0936871}, {"type": "node", "id": 10697841738, "lat": 47.9277383, "lon": -122.0937585}, {"type": "node", "id": 10697841739, "lat": 47.9276592, "lon": -122.093804}, {"type": "node", "id": 10697841740, "lat": 47.9276512, "lon": -122.093773}, {"type": "node", "id": 11013402081, "lat": 47.9212143, "lon": -122.0975013}, {"type": "node", "id": 11013402082, "lat": 47.9212126, "lon": -122.0973786}, {"type": "node", "id": 11038746695, "lat": 47.9130477, "lon": -122.0938835}, {"type": "node", "id": 11336836199, "lat": 47.9105327, "lon": -122.0919406}, {"type": "node", "id": 11336836200, "lat": 47.9106616, "lon": -122.0921765}, {"type": "node", "id": 11336836201, "lat": 47.9104737, "lon": -122.092405}, {"type": "node", "id": 11336836202, "lat": 47.9103448, "lon": -122.0921691}, {"type": "node", "id": 11336836203, "lat": 47.9103721, "lon": -122.0919662, "tags": {"check_date": "2024-06-29", "name": "Bauer Funeral Chapel", "shop": "funeral_directors"}}, {"type": "node", "id": 11336875438, "lat": 47.911322, "lon": -122.097541}, {"type": "node", "id": 11336875439, "lat": 47.9113387, "lon": -122.0981281}, {"type": "node", "id": 11336875440, "lat": 47.9112294, "lon": -122.0981333}, {"type": "node", "id": 11336875441, "lat": 47.9111966, "lon": -122.0975514}, {"type": "node", "id": 11408667062, "lat": 47.911246, "lon": -122.0956028, "tags": {"addr:housenumber": "1019", "addr:street": "1st Street", "check_date": "2023-12-10", "name": "Antique Warehouse", "shop": "antiques"}}, {"type": "node", "id": 11408667063, "lat": 47.9115597, "lon": -122.0964955, "tags": {"addr:housenumber": "1112", "addr:street": "1st Street", "check_date": "2023-12-10", "name": "Snapdoodle Toys & Games", "shop": "toys"}}, {"type": "node", "id": 11408667064, "lat": 47.9115039, "lon": -122.095105, "tags": {"addr:housenumber": "1012", "addr:street": "1st Street", "check_date": "2023-12-10", "name": "Little Shop of Light", "shop": "gift"}}, {"type": "node", "id": 11408667065, "lat": 47.9111864, "lon": -122.0934807, "tags": {"addr:housenumber": "903", "addr:street": "1st Street", "check_date": "2024-06-29", "name": "Everything Tea", "shop": "tea"}}, {"type": "node", "id": 11408667066, "lat": 47.9115869, "lon": -122.0984141, "tags": {"addr:housenumber": "1234", "addr:street": "1st Street", "addr:unit": "1", "check_date": "2024-06-29", "name": "The Petal And The Stem", "shop": "gift"}}, {"type": "node", "id": 11408667067, "lat": 47.9115814, "lon": -122.0933359, "tags": {"addr:housenumber": "102", "amenity": "restaurant", "name": "Piccola Pizza"}}, {"type": "node", "id": 11408684370, "lat": 47.9110637, "lon": -122.09296, "tags": {"addr:city": "Snohomish", "addr:housenumber": "801", "addr:postcode": "98290", "addr:state": "WA", "addr:street": "1st Street", "alt_name": "Top It!;Top It Yoghurt Shoppe", "amenity": "ice_cream", "check_date": "2024-06-29", "cuisine": "frozen_yogurt", "name": "Top It! Yogurt Shoppe", "phone": "+1-360-217-7313", "website": "https://www.topityogurtshoppe.com/"}}, {"type": "node", "id": 11408684371, "lat": 47.9110352, "lon": -122.0928891, "tags": {"addr:city": "Snohomish", "addr:housenumber": "801", "addr:postcode": "98290", "addr:state": "WA", "addr:street": "1st Street", "name": "Lamb & Co.", "shop": "furniture"}}, {"type": "node", "id": 11408684372, "lat": 47.9114773, "lon": -122.0934403, "tags": {"addr:housenumber": "902", "addr:street": "1st Street", "check_date": "2024-06-29", "name": "Kasia\u2019s Table", "shop": "houseware"}}, {"type": "node", "id": 11408684373, "lat": 47.9115892, "lon": -122.0977356, "tags": {"addr:housenumber": "1204", "addr:street": "1st Street", "check_date": "2024-06-29", "name": "Sprig", "shop": "cosmetics"}}, {"type": "node", "id": 11408684374, "lat": 47.9115841, "lon": -122.0974952, "tags": {"addr:housenumber": "1200", "addr:street": "1st Street", "check_date": "2024-06-29", "name": "Worthy", "shop": "interior_decoration"}}, {"type": "node", "id": 11408684375, "lat": 47.9115039, "lon": -122.0950072, "tags": {"alt_name": "Beat Street", "check_date": "2023-12-10", "name": "Natural Clothing Company", "shop": "clothes"}}, {"type": "node", "id": 11408684376, "lat": 47.9115655, "lon": -122.0970345, "tags": {"check_date": "2024-06-29", "name": "Annie\u2019s On First", "shop": "gift"}}, {"type": "node", "id": 11408684377, "lat": 47.9111892, "lon": -122.0935344, "tags": {"addr:housenumber": "905", "addr:street": "1st Street", "check_date": "2024-06-29", "name": "Kasia Winery", "shop": "wine"}}, {"type": "node", "id": 11408684378, "lat": 47.9114873, "lon": -122.0941256, "tags": {"addr:housenumber": "920", "addr:street": "1st Street", "check_date": "2024-06-29", "name": "Malicious Women Candle Co.", "shop": "candles"}}, {"type": "node", "id": 11408684379, "lat": 47.9111705, "lon": -122.0933741, "tags": {"addr:housenumber": "901", "addr:street": "1st Street", "check_date": "2024-06-29", "name": "Tammy\u2019s Boutique", "shop": "clothes"}}, {"type": "node", "id": 11408684380, "lat": 47.9115661, "lon": -122.0956941, "tags": {"check_date": "2023-12-10", "level": "-1", "name": "Peaches", "shop": "gift"}}, {"type": "node", "id": 11408684381, "lat": 47.9114999, "lon": -122.0948038, "tags": {"addr:housenumber": "1004", "addr:street": "1st Street", "check_date": "2023-12-10", "name": "Joyworks Fashion Boutique", "shop": "clothes"}}, {"type": "node", "id": 11408684382, "lat": 47.9115101, "lon": -122.0956744, "tags": {"check_date": "2023-12-10", "name": "Home Inspirations", "shop": "furniture"}}, {"type": "node", "id": 11408684383, "lat": 47.9114881, "lon": -122.0940294, "tags": {"addr:housenumber": "920", "addr:street": "1st Street", "check_date": "2024-06-29", "name": "My Eclectic Home", "shop": "furniture"}}, {"type": "node", "id": 11408684384, "lat": 47.9115902, "lon": -122.097819, "tags": {"addr:housenumber": "1206", "addr:street": "1st Street", "amenity": "restaurant", "check_date": "2024-06-29", "cuisine": "sandwich", "name": "Heidi\u2019s Sandwichboard", "website": "https://heidissandwichboard.com"}}, {"type": "node", "id": 11408684386, "lat": 47.9115927, "lon": -122.0980386, "tags": {"addr:housenumber": "1212", "addr:street": "1st Street", "check_date": "2024-06-29", "clothes": "bridal", "name": "For the Luv Of Bridal", "shop": "clothes"}}, {"type": "node", "id": 11408684387, "lat": 47.9115485, "lon": -122.0961125, "tags": {"alt_name": "The Cinamon Stik", "check_date": "2024-06-29", "name": "The Country Cupboard", "shop": "gift"}}, {"type": "node", "id": 11408684388, "lat": 47.911591, "lon": -122.0981798, "tags": {"addr:housenumber": "1234", "addr:street": "1st Street", "addr:unit": "3", "check_date": "2024-06-29", "name": "O\u2019Malley & Potter", "shop": "gift", "website": "https://feelgoodproducts.com"}}, {"type": "node", "id": 11408684389, "lat": 47.9114881, "lon": -122.0929079, "tags": {"amenity": "restaurant", "bar": "yes", "name": "First & Union Kitchen"}}, {"type": "node", "id": 11408684390, "lat": 47.9115609, "lon": -122.0969178, "tags": {"amenity": "restaurant", "building": "yes", "check_date": "2023-12-10", "cuisine": "pizza", "name": "Cathouse Pizza"}}, {"type": "node", "id": 11408684391, "lat": 47.9112899, "lon": -122.0928369, "tags": {"name": "Snohomish Bakery", "shop": "bakery"}}, {"type": "node", "id": 11408684392, "lat": 47.9116462, "lon": -122.0933383, "tags": {"name": "Maple & Moss Boutique", "shop": "clothes"}}, {"type": "node", "id": 11408684394, "lat": 47.9115945, "lon": -122.0979259, "tags": {"addr:housenumber": "1208", "addr:street": "1st Street", "check_date": "2024-06-29", "name": "Alchemy Hair Studio", "shop": "hairdresser"}}, {"type": "node", "id": 11408684395, "lat": 47.9115488, "lon": -122.0961933, "tags": {"amenity": "pub", "check_date": "2023-12-10", "name": "Piccadilly Circus"}}, {"type": "node", "id": 11408684396, "lat": 47.911591, "lon": -122.0982911, "tags": {"addr:housenumber": "1234", "addr:street": "1st Street", "addr:unit": "2", "check_date": "2024-06-29", "name": "Hoity Toity", "shop": "gift"}}, {"type": "node", "id": 11408684397, "lat": 47.9115557, "lon": -122.0963144, "tags": {"addr:housenumber": "1108", "addr:street": "1st Street", "check_date": "2023-12-10", "name": "Victoria Village", "shop": "antiques"}}, {"type": "node", "id": 11408684398, "lat": 47.9115118, "lon": -122.0955803, "tags": {"check_date": "2023-12-10", "name": "Arts of Snohomish", "shop": "art"}}, {"type": "node", "id": 11408684399, "lat": 47.9115609, "lon": -122.0966912, "tags": {"name": "Capstone Home Loans", "office": "financial"}}, {"type": "node", "id": 11408684400, "lat": 47.9114845, "lon": -122.09357, "tags": {"addr:housenumber": "906", "addr:street": "1st Street", "check_date": "2024-06-29", "name": "Mimi\u2019s Boutique", "shop": "clothes"}}, {"type": "node", "id": 11408684401, "lat": 47.9115081, "lon": -122.0952115, "tags": {"check_date": "2023-12-10", "name": "Studio DG", "shop": "clothes"}}, {"type": "node", "id": 11408684402, "lat": 47.9115898, "lon": -122.0976257, "tags": {"addr:street": "1st Street", "check_date": "2024-06-29", "name": "Fresh Salon + Spa", "shop": "hairdresser"}}, {"type": "node", "id": 11408684403, "lat": 47.9117669, "lon": -122.0966915, "tags": {"check_date": "2023-12-10", "name": "Unknown Tattoo Co.", "shop": "tattoo"}}, {"type": "node", "id": 11408684404, "lat": 47.9114754, "lon": -122.0933393, "tags": {"addr:housenumber": "902", "addr:street": "1st Street", "check_date": "2024-06-29", "name": "Rane\u00e9-Paul", "shop": "antiques"}}, {"type": "node", "id": 11409822810, "lat": 47.9111974, "lon": -122.0943222, "tags": {"addr:housenumber": "923", "addr:street": "1st Street", "addr:unit": "A", "amenity": "ice_cream", "check_date": "2024-06-29", "name": "Snoqualmie Ice Cream"}}, {"type": "node", "id": 11409822811, "lat": 47.9112097, "lon": -122.094908, "tags": {"check_date": "2024-06-29", "name": "One Common", "shop": "clothes"}}, {"type": "node", "id": 11409822812, "lat": 47.9112303, "lon": -122.0953914, "tags": {"check_date": "2024-06-29", "name": "Made In Mood", "shop": "clothes"}}, {"type": "node", "id": 11409822813, "lat": 47.9112271, "lon": -122.0953268, "tags": {"addr:housenumber": "1011", "addr:street": "1st Street", "amenity": "restaurant", "check_date": "2024-06-29", "name": "Roger\u2019s  Riverview Bistro"}}, {"type": "node", "id": 11409822814, "lat": 47.911197, "lon": -122.0942244, "tags": {"addr:housenumber": "921", "addr:street": "1st Street", "amenity": "bar", "check_date": "2024-06-29", "name": "Pie Dive Bar"}}, {"type": "node", "id": 11409822815, "lat": 47.9112315, "lon": -122.0954263, "tags": {"addr:housenumber": "1015", "addr:street": "1st Street", "check_date": "2024-06-29", "name": "Anna Marie Creative Collective", "shop": "gift"}}, {"type": "node", "id": 11409822816, "lat": 47.9111958, "lon": -122.0947528, "tags": {"addr:housenumber": "1001", "addr:street": "1st Street", "check_date": "2024-06-29", "name": "Edit", "shop": "furniture"}}, {"type": "node", "id": 11409822817, "lat": 47.9112136, "lon": -122.095065, "tags": {"addr:housenumber": "1007", "addr:street": "1st Street", "check_date": "2024-06-29", "name": "Randolph Cellars", "shop": "wine"}}, {"type": "node", "id": 11409822818, "lat": 47.9111927, "lon": -122.0936347, "tags": {"addr:housenumber": "905", "addr:street": "1st Street", "amenity": "bar", "check_date": "2024-06-29", "name": "Who\u2019s On First"}}, {"type": "node", "id": 11409822819, "lat": 47.9112271, "lon": -122.0951835, "tags": {"check_date": "2024-06-29", "name": "The Vault Hair Lounge", "shop": "hairdresser"}}, {"type": "node", "id": 11409822820, "lat": 47.9112399, "lon": -122.0961133, "tags": {"amenity": "cafe", "check_date": "2023-12-10", "cuisine": "coffee_shop", "name": "Proper Joe Coffeehouse"}}, {"type": "node", "id": 11409822821, "lat": 47.9112756, "lon": -122.0947629, "tags": {"amenity": "clock", "display": "analog", "start_date": "1888", "support": "pole"}}, {"type": "node", "id": 11409822822, "lat": 47.9111871, "lon": -122.0940112, "tags": {"addr:housenumber": "915", "addr:street": "1st Street", "addr:unit": "A", "check_date": "2024-06-29", "name": "Rhapsody", "shop": "furniture"}}, {"type": "node", "id": 11880087824, "lat": 47.9124537, "lon": -122.0925651, "tags": {"addr:city": "Snohomish", "addr:housenumber": "120", "addr:postcode": "98290", "addr:state": "WA", "addr:street": "Glen Avenue", "addr:unit": "2954", "amenity": "restaurant", "cuisine": "pizza", "name": "Brava's Pizza & Pasta", "opening_hours": "11:00-21:00", "phone": "+1-360-862-0900", "website": "https://www.bravaspizza.com/"}}, {"type": "node", "id": 11880087825, "lat": 47.9124588, "lon": -122.0927911, "tags": {"addr:city": "Snohomish", "addr:housenumber": "829", "addr:postcode": "98290", "addr:state": "WA", "addr:street": "2nd Street", "name": "Star Center Antique Mall", "opening_hours": "10:00-17:00", "phone": "+1-360-568-2131", "shop": "antiques", "website": "http://www.myantiquemall.com/starcenter.html"}}, {"type": "node", "id": 11880087826, "lat": 47.9127078, "lon": -122.0925238, "tags": {"addr:city": "Snohomish", "addr:housenumber": "809", "addr:postcode": "98290", "addr:state": "WA", "addr:street": "2nd Street", "beauty": "nails", "name": "Polish Me Pretty- Nail Art", "opening_hours": "Mo-Fr 09:00-19:00; Sa 09:00-18:00; Su off", "phone": "+1-425-289-8484", "shop": "beauty", "website": "https://square.site/book/6ANX0KEME7Q5S/polish-me-pretty-nail-art-snohomish-wa"}}, {"type": "node", "id": 11880087827, "lat": 47.9126218, "lon": -122.0921641}, {"type": "node", "id": 11880087828, "lat": 47.9122523, "lon": -122.0925955}, {"type": "node", "id": 11880087829, "lat": 47.9122897, "lon": -122.0926293}, {"type": "node", "id": 11880087830, "lat": 47.912625, "lon": -122.0922321}, {"type": "node", "id": 11880087831, "lat": 47.9121369, "lon": -122.0927813}, {"type": "node", "id": 11880087832, "lat": 47.9122749, "lon": -122.0927229}, {"type": "node", "id": 11880087833, "lat": 47.9121697, "lon": -122.0928466}, {"type": "node", "id": 11880526390, "lat": 47.9107693, "lon": -122.0925111, "tags": {"addr:city": "Snohomish", "addr:housenumber": "717", "addr:postcode": "98290", "addr:state": "WA", "addr:street": "1st Street", "check_date": "2024-06-29", "name": "Grain Artisan Bakery", "opening_hours": "Tu-Th 07:00-17:00; Fr 07:00-18:00; Su 08:00-17:00", "phone": "+1-360-799-6822", "shop": "bakery", "website": "https://www.grainartisanbakery.com/", "website:menu": "https://www.grainartisanbakery.com/menu"}}, {"type": "node", "id": 11880526391, "lat": 47.9106803, "lon": -122.0923263, "tags": {"addr:city": "Snohomish", "addr:housenumber": "709", "addr:postcode": "98290", "addr:state": "WA", "addr:street": "1st Street", "amenity": "pub", "check_date": "2024-06-29", "microbrewery": "yes", "name": "Spada Farmhouse Brewery", "opening_hours": "Su 11:00-19:00; Mo-Tu off; We-Th 11:00-21:00; Fr-Sa 11:00-22:00", "phone": "+1-360-799-6190", "website": "https://www.spadafarmhousebrewery.com/"}}, {"type": "node", "id": 11980126271, "lat": 47.9297976, "lon": -122.1006024, "tags": {"amenity": "fuel"}}, {"type": "node", "id": 11980126272, "lat": 47.9295783, "lon": -122.1009082, "tags": {"shop": "convenience"}}, {"type": "node", "id": 11980126273, "lat": 47.9300669, "lon": -122.1010715, "tags": {"addr:city": "Snohomish", "addr:housenumber": "1426", "addr:postcode": "98290-1722", "addr:state": "WA", "addr:street": "Bickford Avenue", "amenity": "fast_food", "brand": "Burger King", "brand:wikidata": "Q177054", "cuisine": "burger", "delivery": "yes", "drive_through": "yes", "internet_access": "wlan", "name": "Burger King", "opening_hours": "Mo-Th 07:00-21:00; Fr-Sa 06:30-22:00; Su 09:00-20:00", "phone": "+1-360-568-7855", "ref": "10612", "takeaway": "yes", "website": "https://www.bk.com/store-locator/store/restaurant_6014"}}, {"type": "node", "id": 12021370456, "lat": 47.9128098, "lon": -122.0976374, "tags": {"amenity": "dancing_school", "check_date": "2024-06-29", "name": "Turning Pointe Dance Center"}}, {"type": "node", "id": 12021370457, "lat": 47.9131351, "lon": -122.0973873, "tags": {"addr:housenumber": "1200", "addr:street": "2nd Street", "check_date": "2024-06-30", "name": "Dor\u00e9", "shop": "furniture"}}, {"type": "node", "id": 12021370458, "lat": 47.9114868, "lon": -122.0942043, "tags": {"addr:housenumber": "922", "addr:street": "1st Street", "addr:unit": "B", "check_date": "2024-06-29", "name": "Opaline Interiors", "shop": "interior_decoration"}}, {"type": "node", "id": 12021751601, "lat": 47.911299, "lon": -122.0971369, "tags": {"amenity": "bench"}}, {"type": "node", "id": 12021751602, "lat": 47.9113382, "lon": -122.0971018, "tags": {"amenity": "waste_basket"}}, {"type": "node", "id": 12021751603, "lat": 47.9113307, "lon": -122.0988098, "tags": {"amenity": "bench"}}, {"type": "node", "id": 12022085630, "lat": 47.9111676, "lon": -122.0965248, "tags": {"amenity": "waste_basket"}}, {"type": "node", "id": 12022085631, "lat": 47.9111552, "lon": -122.0965322, "tags": {"amenity": "recycling", "recycling_type": "container"}}, {"type": "node", "id": 12022085632, "lat": 47.9112123, "lon": -122.0965266, "tags": {"amenity": "vending_machine", "fee": "no", "vending": "excrement_bags"}}, {"type": "node", "id": 12022085634, "lat": 47.9110656, "lon": -122.0959278, "tags": {"amenity": "bench"}}, {"type": "node", "id": 12022085635, "lat": 47.9107857, "lon": -122.0944913}, {"type": "node", "id": 12022085636, "lat": 47.9107812, "lon": -122.0944811}, {"type": "node", "id": 12022085637, "lat": 47.9107748, "lon": -122.0944734}, {"type": "node", "id": 12022085638, "lat": 47.9107672, "lon": -122.094469}, {"type": "node", "id": 12022085639, "lat": 47.910738, "lon": -122.0945235}, {"type": "node", "id": 12022085640, "lat": 47.9107431, "lon": -122.0945346}, {"type": "node", "id": 12022085641, "lat": 47.9107505, "lon": -122.0945425}, {"type": "node", "id": 12022085642, "lat": 47.9107593, "lon": -122.0945462}, {"type": "node", "id": 12022085643, "lat": 47.910759, "lon": -122.0944685}, {"type": "node", "id": 12022085644, "lat": 47.9107511, "lon": -122.0944717}, {"type": "node", "id": 12022085645, "lat": 47.9107442, "lon": -122.0944784}, {"type": "node", "id": 12022085646, "lat": 47.9107391, "lon": -122.094488}, {"type": "node", "id": 12022085647, "lat": 47.9107362, "lon": -122.0944994}, {"type": "node", "id": 12022085648, "lat": 47.9107358, "lon": -122.0945117}, {"type": "node", "id": 12022085649, "lat": 47.9107683, "lon": -122.0945451}, {"type": "node", "id": 12022085650, "lat": 47.9107766, "lon": -122.0945396}, {"type": "node", "id": 12022085651, "lat": 47.9107831, "lon": -122.0945301}, {"type": "node", "id": 12022085652, "lat": 47.910787, "lon": -122.0945179}, {"type": "node", "id": 12022085653, "lat": 47.910788, "lon": -122.0945044}, {"type": "node", "id": 12022085655, "lat": 47.9102979, "lon": -122.093715, "tags": {"amenity": "bench"}}, {"type": "node", "id": 12022085664, "lat": 47.9096726, "lon": -122.0928741, "tags": {"amenity": "waste_basket"}}, {"type": "node", "id": 12022085665, "lat": 47.9099265, "lon": -122.0928407, "tags": {"amenity": "waste_basket"}}, {"type": "node", "id": 12022085666, "lat": 47.9099171, "lon": -122.0928073, "tags": {"amenity": "bench"}}, {"type": "node", "id": 12022085667, "lat": 47.909695, "lon": -122.0926458, "tags": {"amenity": "waste_basket"}}, {"type": "node", "id": 12022106170, "lat": 47.9097428, "lon": -122.0924934, "tags": {"amenity": "recycling", "recycling_type": "container"}}, {"type": "node", "id": 12022106179, "lat": 47.9094051, "lon": -122.0927646, "tags": {"amenity": "waste_basket"}}, {"type": "node", "id": 12022106180, "lat": 47.9094403, "lon": -122.0928251, "tags": {"amenity": "boat_storage", "capacity": "8"}}, {"type": "node", "id": 12022108868, "lat": 47.9102834, "lon": -122.0915445, "tags": {"name": "Sachi Fine Jewelry", "shop": "jewelry"}}, {"type": "node", "id": 12022117270, "lat": 47.9101594, "lon": -122.0912958}, {"type": "node", "id": 12022117271, "lat": 47.9100642, "lon": -122.0911136}, {"type": "node", "id": 12022117272, "lat": 47.9098768, "lon": -122.0913316}, {"type": "node", "id": 12022117273, "lat": 47.909972, "lon": -122.0915139}, {"type": "node", "id": 12022117279, "lat": 47.9102103, "lon": -122.0907489, "tags": {"addr:housenumber": "606", "addr:street": "1st Street", "name": "Studio 606", "shop": "art"}}, {"type": "node", "id": 12022117286, "lat": 47.9109768, "lon": -122.0927835, "tags": {"addr:city": "Snohomish", "addr:housenumber": "801", "addr:postcode": "98290", "addr:state": "WA", "addr:street": "1st Street", "check_date": "2024-06-29", "name": "Blanc & Rouge", "shop": "wine"}}, {"type": "node", "id": 12152378349, "lat": 47.9155459, "lon": -122.0881416, "tags": {"amenity": "polling_station", "location": "outdoor", "polling_station": "ballot_box"}}, {"type": "node", "id": 12335070924, "lat": 47.9146375, "lon": -122.0853217, "tags": {"name": "Steuber Distributing Co", "shop": "agrarian"}}, {"type": "node", "id": 12341071894, "lat": 47.9416932, "lon": -122.1076325, "tags": {"addr:city": "Snohomish", "addr:housenumber": "2529", "addr:postcode": "98290", "addr:state": "WA", "addr:street": "Bickford Avenue", "addr:unit": "D and E", "branch": "Snohomish Station", "brand": "Mattress Firm", "brand:wikidata": "Q6791878", "delivery": "yes", "name": "Mattress Firm", "phone": "+1-360-512-3214", "ref": "18829", "shop": "bed", "website": "https://www.mattressfirm.com/en-us/stores/wa/snohomish/508064/"}}, {"type": "node", "id": 12374256323, "lat": 47.9122019, "lon": -122.0877898}, {"type": "node", "id": 12374256324, "lat": 47.9121998, "lon": -122.0876288}, {"type": "node", "id": 12374256325, "lat": 47.9121325, "lon": -122.0876308}, {"type": "node", "id": 12374256326, "lat": 47.9121346, "lon": -122.0877918}, {"type": "node", "id": 12375053260, "lat": 47.9123618, "lon": -122.0887875}, {"type": "node", "id": 12375053261, "lat": 47.9125043, "lon": -122.0886169}, {"type": "node", "id": 12375053262, "lat": 47.9124021, "lon": -122.0884269}, {"type": "node", "id": 12375053263, "lat": 47.9122596, "lon": -122.0885974}, {"type": "node", "id": 12375084291, "lat": 47.9109535, "lon": -122.0927316, "tags": {"addr:city": "Snohomish", "addr:housenumber": "801", "addr:postcode": "98290", "addr:state": "WA", "addr:street": "1st Street", "amenity": "cafe", "cuisine": "coffee_shop", "name": "Looking Glass Coffee", "opening_hours": "Mo-We 07:00-17:00; Th 07:00-20:00; Fr-Su 07:00-18:00", "phone": "+1-360-863-3557", "website": "https://www.lookingglasscoffee.com/"}}, {"type": "node", "id": 12375084292, "lat": 47.911008, "lon": -122.0928337, "tags": {"addr:city": "Snohomish", "addr:housenumber": "801", "addr:postcode": "98290", "addr:state": "WA", "addr:street": "1st Street", "amenity": "events_venue", "name": "The Feather Ballroom", "website": "https://www.featherballroomsnohomish.com/"}}, {"type": "node", "id": 12721844309, "lat": 47.9126479, "lon": -122.0966822, "tags": {"addr:city": "Snohomish", "addr:housenumber": "127", "addr:postcode": "98290", "addr:state": "WA", "addr:street": "Avenue C", "amenity": "pub", "microbrewery": "yes", "name": "Three Bull Brewing Tap House", "website": "https://threebullbrewing.com/"}}, {"type": "node", "id": 12920374228, "lat": 47.9202395, "lon": -122.0976705}, {"type": "node", "id": 12920374230, "lat": 47.9203494, "lon": -122.0975784}, {"type": "node", "id": 12920374231, "lat": 47.9203359, "lon": -122.0971809}, {"type": "node", "id": 12920374245, "lat": 47.9201899, "lon": -122.0976728}, {"type": "node", "id": 12920374263, "lat": 47.9197285, "lon": -122.0963882}, {"type": "node", "id": 12920374264, "lat": 47.9197328, "lon": -122.0964516}, {"type": "node", "id": 12920416908, "lat": 47.9197549, "lon": -122.0976686}, {"type": "node", "id": 12920416910, "lat": 47.9197934, "lon": -122.0976834}, {"type": "node", "id": 12920416911, "lat": 47.9197983, "lon": -122.0978296}, {"type": "node", "id": 12920416923, "lat": 47.9204762, "lon": -122.0980033}, {"type": "node", "id": 12920416924, "lat": 47.9204492, "lon": -122.0970295}, {"type": "node", "id": 12920416951, "lat": 47.9197111, "lon": -122.0965211}, {"type": "node", "id": 12920416957, "lat": 47.9191575, "lon": -122.0965082}, {"type": "node", "id": 12920416964, "lat": 47.9191761, "lon": -122.0974459}, {"type": "node", "id": 12920416965, "lat": 47.9191338, "lon": -122.0974459}, {"type": "node", "id": 12920416966, "lat": 47.9191168, "lon": -122.0968832}, {"type": "node", "id": 12920416967, "lat": 47.9191662, "lon": -122.0968832}, {"type": "node", "id": 12920416968, "lat": 47.919162, "lon": -122.0967504}, {"type": "node", "id": 12920416969, "lat": 47.9191211, "lon": -122.0967526}, {"type": "node", "id": 12920416970, "lat": 47.9191083, "lon": -122.0962953}, {"type": "node", "id": 12920416971, "lat": 47.9191535, "lon": -122.0962932}, {"type": "node", "id": 12920416973, "lat": 47.9197045, "lon": -122.0964548}, {"type": "node", "id": 12920416974, "lat": 47.91988, "lon": -122.0980337}, {"type": "node", "id": 12920416975, "lat": 47.9200194, "lon": -122.0980264}, {"type": "node", "id": 12920416977, "lat": 47.9204475, "lon": -122.0970389}, {"type": "node", "id": 12920416978, "lat": 47.9203837, "lon": -122.0970416}, {"type": "node", "id": 12920416979, "lat": 47.9203864, "lon": -122.0971542}, {"type": "node", "id": 12920416980, "lat": 47.920337, "lon": -122.0971556}, {"type": "node", "id": 12920416981, "lat": 47.9203496, "lon": -122.0976648}, {"type": "node", "id": 12920416982, "lat": 47.9203892, "lon": -122.0976628}, {"type": "node", "id": 12920416983, "lat": 47.9203892, "lon": -122.0976953}, {"type": "node", "id": 12920416984, "lat": 47.9203251, "lon": -122.0976994}, {"type": "node", "id": 12920416985, "lat": 47.9200897, "lon": -122.0976823}, {"type": "node", "id": 12920416986, "lat": 47.9200918, "lon": -122.0977146}, {"type": "node", "id": 12920416987, "lat": 47.9199947, "lon": -122.0977238}, {"type": "node", "id": 12920416988, "lat": 47.9199937, "lon": -122.0976792}, {"type": "node", "id": 12920416989, "lat": 47.9200309, "lon": -122.0976776}, {"type": "node", "id": 12920416990, "lat": 47.9200216, "lon": -122.0974188}, {"type": "node", "id": 12920416991, "lat": 47.9199751, "lon": -122.0974204}, {"type": "node", "id": 12920416992, "lat": 47.9199772, "lon": -122.0973957}, {"type": "node", "id": 12920416993, "lat": 47.9200278, "lon": -122.0973926}, {"type": "node", "id": 12920416994, "lat": 47.9200216, "lon": -122.0971939}, {"type": "node", "id": 12920416995, "lat": 47.9199648, "lon": -122.0971985}, {"type": "node", "id": 12920416996, "lat": 47.9199627, "lon": -122.0970722}, {"type": "node", "id": 12920416997, "lat": 47.9200113, "lon": -122.0970722}, {"type": "node", "id": 12920416998, "lat": 47.9200133, "lon": -122.0971554}, {"type": "node", "id": 12920416999, "lat": 47.9203465, "lon": -122.0971357}, {"type": "node", "id": 12920417000, "lat": 47.9203457, "lon": -122.0970365}, {"type": "node", "id": 12920417001, "lat": 47.9204015, "lon": -122.0969116}, {"type": "node", "id": 12920417002, "lat": 47.9203976, "lon": -122.0968673}, {"type": "node", "id": 12920417003, "lat": 47.9203459, "lon": -122.0967949}, {"type": "node", "id": 12920417004, "lat": 47.9203424, "lon": -122.0966244}, {"type": "node", "id": 12920417005, "lat": 47.9199665, "lon": -122.0966369}, {"type": "node", "id": 12920417006, "lat": 47.9199701, "lon": -122.0967134}, {"type": "node", "id": 12920417007, "lat": 47.9199585, "lon": -122.0967134}, {"type": "node", "id": 12920417008, "lat": 47.9198461, "lon": -122.0965525}, {"type": "node", "id": 12920417009, "lat": 47.9198447, "lon": -122.0965043}, {"type": "node", "id": 12920417010, "lat": 47.9198643, "lon": -122.0964914}, {"type": "node", "id": 12920417011, "lat": 47.9198619, "lon": -122.0962999}, {"type": "node", "id": 12920417012, "lat": 47.919768, "lon": -122.0962813}, {"type": "node", "id": 12920417013, "lat": 47.9197478, "lon": -122.0962487}, {"type": "node", "id": 12920417014, "lat": 47.9196907, "lon": -122.0963152}, {"type": "node", "id": 12920417015, "lat": 47.9197024, "lon": -122.0963487}, {"type": "node", "id": 12920417016, "lat": 47.9197052, "lon": -122.0963902}, {"type": "node", "id": 12920417017, "lat": 47.9198111, "lon": -122.0966438}, {"type": "node", "id": 12920417018, "lat": 47.9198814, "lon": -122.096734}, {"type": "node", "id": 12920417019, "lat": 47.9198809, "lon": -122.0967578}, {"type": "node", "id": 12920417020, "lat": 47.9198423, "lon": -122.0967578}, {"type": "node", "id": 12920417021, "lat": 47.9198485, "lon": -122.0971668}, {"type": "node", "id": 12920417022, "lat": 47.9198977, "lon": -122.0971659}, {"type": "node", "id": 12920417023, "lat": 47.9198983, "lon": -122.0971924}, {"type": "node", "id": 12920417024, "lat": 47.9198479, "lon": -122.0971977}, {"type": "node", "id": 12920417025, "lat": 47.9198522, "lon": -122.0974112}, {"type": "node", "id": 12920417026, "lat": 47.9199034, "lon": -122.0974112}, {"type": "node", "id": 12920417027, "lat": 47.9199034, "lon": -122.0974381}, {"type": "node", "id": 12920417028, "lat": 47.9198549, "lon": -122.0974394}, {"type": "node", "id": 12920417029, "lat": 47.9198603, "lon": -122.097654}, {"type": "node", "id": 12920417030, "lat": 47.9199088, "lon": -122.0976513}, {"type": "node", "id": 12920417031, "lat": 47.9199079, "lon": -122.0976821}, {"type": "node", "id": 12920417032, "lat": 47.9198621, "lon": -122.0976848}, {"type": "node", "id": 12920417033, "lat": 47.9198673, "lon": -122.0979071}, {"type": "node", "id": 12920417034, "lat": 47.9199048, "lon": -122.0979071}, {"type": "node", "id": 12920417035, "lat": 47.9199048, "lon": -122.0979457}, {"type": "node", "id": 12920417036, "lat": 47.9199871, "lon": -122.0978821}, {"type": "node", "id": 12920417037, "lat": 47.9199848, "lon": -122.0978251}, {"type": "node", "id": 12920417038, "lat": 47.920001, "lon": -122.0978245}, {"type": "node", "id": 12920417039, "lat": 47.9200042, "lon": -122.0979002}, {"type": "node", "id": 12920417040, "lat": 47.9201238, "lon": -122.0978905}, {"type": "node", "id": 12920417041, "lat": 47.9201227, "lon": -122.0978146}, {"type": "node", "id": 12920417042, "lat": 47.9201411, "lon": -122.0978146}, {"type": "node", "id": 12920417043, "lat": 47.920143, "lon": -122.0978893}, {"type": "node", "id": 12920417044, "lat": 47.9202394, "lon": -122.0978829}, {"type": "node", "id": 12920417045, "lat": 47.9202387, "lon": -122.0978117}, {"type": "node", "id": 12920417046, "lat": 47.9202571, "lon": -122.0978117}, {"type": "node", "id": 12920417047, "lat": 47.9202591, "lon": -122.0978829}, {"type": "node", "id": 12920417048, "lat": 47.9203852, "lon": -122.0978768}, {"type": "node", "id": 12920417049, "lat": 47.9203838, "lon": -122.0978026}, {"type": "node", "id": 12920417050, "lat": 47.9204029, "lon": -122.0978016}, {"type": "node", "id": 12920417051, "lat": 47.9204087, "lon": -122.0980075}, {"type": "node", "id": 12920417052, "lat": 47.9200082, "lon": -122.0979767}, {"type": "node", "id": 12920417063, "lat": 47.9204068, "lon": -122.0979396}, {"type": "node", "id": 12920417064, "lat": 47.9198334, "lon": -122.0980363}, {"type": "node", "id": 12920417065, "lat": 47.9198244, "lon": -122.0975044}, {"type": "node", "id": 12920417066, "lat": 47.9196231, "lon": -122.0975058}, {"type": "node", "id": 12920417067, "lat": 47.9196214, "lon": -122.0972509}, {"type": "node", "id": 12920417068, "lat": 47.9195109, "lon": -122.0972536}, {"type": "node", "id": 12920417069, "lat": 47.9195121, "lon": -122.0975454}, {"type": "node", "id": 12920417070, "lat": 47.9195276, "lon": -122.0975436}, {"type": "node", "id": 12920417071, "lat": 47.9195311, "lon": -122.097848}, {"type": "node", "id": 12920417072, "lat": 47.9196568, "lon": -122.0978444}, {"type": "node", "id": 12920417073, "lat": 47.9196509, "lon": -122.0975578}, {"type": "node", "id": 12920417074, "lat": 47.9197055, "lon": -122.0975613}, {"type": "node", "id": 12920417075, "lat": 47.9197066, "lon": -122.0976712}, {"type": "node", "id": 12920417076, "lat": 47.9197956, "lon": -122.0976692}, {"type": "node", "id": 12920417077, "lat": 47.9197885, "lon": -122.0978727}, {"type": "node", "id": 12920417078, "lat": 47.9197683, "lon": -122.0979099}, {"type": "node", "id": 12920417079, "lat": 47.9197185, "lon": -122.0979134}, {"type": "node", "id": 12920417080, "lat": 47.9197232, "lon": -122.0980427}, {"type": "node", "id": 12920417082, "lat": 47.9194999, "lon": -122.0974761}, {"type": "node", "id": 12920417084, "lat": 47.9193664, "lon": -122.0974778}, {"type": "node", "id": 12920417085, "lat": 47.9193583, "lon": -122.0968762}, {"type": "node", "id": 12920417086, "lat": 47.9194942, "lon": -122.0968681}, {"type": "node", "id": 12920417087, "lat": 47.9206651, "lon": -122.0971522}, {"type": "node", "id": 12920417088, "lat": 47.9206922, "lon": -122.0979887}, {"type": "node", "id": 12920417089, "lat": 47.9207617, "lon": -122.0979844}, {"type": "node", "id": 12920417090, "lat": 47.9207852, "lon": -122.0978913}, {"type": "node", "id": 12920417091, "lat": 47.9209525, "lon": -122.0978845}, {"type": "node", "id": 12920417092, "lat": 47.9210168, "lon": -122.0978153}, {"type": "node", "id": 12920417093, "lat": 47.9210328, "lon": -122.0978153}, {"type": "node", "id": 12920417094, "lat": 47.9210355, "lon": -122.0978752}, {"type": "node", "id": 12920417095, "lat": 47.9211493, "lon": -122.097872}, {"type": "node", "id": 12920417096, "lat": 47.9211636, "lon": -122.0978628}, {"type": "node", "id": 12920417097, "lat": 47.9211882, "lon": -122.0978628}, {"type": "node", "id": 12920417098, "lat": 47.9212059, "lon": -122.097953}, {"type": "node", "id": 12920417099, "lat": 47.9212795, "lon": -122.0979478}, {"type": "node", "id": 12920417100, "lat": 47.9212548, "lon": -122.0978781}, {"type": "node", "id": 12920417101, "lat": 47.9212517, "lon": -122.0977971}, {"type": "node", "id": 12920417102, "lat": 47.9213019, "lon": -122.0977956}, {"type": "node", "id": 12920417103, "lat": 47.9212927, "lon": -122.0975021}, {"type": "node", "id": 12920417104, "lat": 47.9208953, "lon": -122.0976633}, {"type": "node", "id": 12920417105, "lat": 47.9208983, "lon": -122.0977481}, {"type": "node", "id": 12920417106, "lat": 47.9208727, "lon": -122.0977481}, {"type": "node", "id": 12920417107, "lat": 47.9208707, "lon": -122.0976778}, {"type": "node", "id": 12920417108, "lat": 47.9207672, "lon": -122.0976855}, {"type": "node", "id": 12920417109, "lat": 47.9207662, "lon": -122.0977497}, {"type": "node", "id": 12920417110, "lat": 47.9207498, "lon": -122.0977497}, {"type": "node", "id": 12920417111, "lat": 47.9207477, "lon": -122.0976717}, {"type": "node", "id": 12920417112, "lat": 47.9207908, "lon": -122.0976671}, {"type": "node", "id": 12920417113, "lat": 47.9207754, "lon": -122.0972437}, {"type": "node", "id": 12920417114, "lat": 47.9211467, "lon": -122.097228}, {"type": "node", "id": 12920417115, "lat": 47.9212893, "lon": -122.0973671}, {"type": "node", "id": 12920417116, "lat": 47.921282, "lon": -122.0970202}, {"type": "node", "id": 12920417117, "lat": 47.9207127, "lon": -122.0970543}, {"type": "node", "id": 12920417118, "lat": 47.9207136, "lon": -122.0969997}, {"type": "node", "id": 12920417119, "lat": 47.9206601, "lon": -122.0970021}, {"type": "node", "id": 12920417124, "lat": 47.9191672, "lon": -122.095959}, {"type": "node", "id": 12920417125, "lat": 47.9191183, "lon": -122.0959603}, {"type": "node", "id": 12920417126, "lat": 47.9191096, "lon": -122.0955738}, {"type": "node", "id": 12920417127, "lat": 47.9191378, "lon": -122.0955094}, {"type": "node", "id": 12920417128, "lat": 47.9194988, "lon": -122.0954899}, {"type": "node", "id": 12920417129, "lat": 47.9194988, "lon": -122.0955601}, {"type": "node", "id": 12920417130, "lat": 47.9191576, "lon": -122.0955794}, {"type": "node", "id": 12920417150, "lat": 47.9202503, "lon": -122.0960032}, {"type": "node", "id": 12920417151, "lat": 47.9202492, "lon": -122.0959171}, {"type": "node", "id": 12920417152, "lat": 47.9200115, "lon": -122.0959224}, {"type": "node", "id": 12920417153, "lat": 47.9200127, "lon": -122.0960084}, {"type": "node", "id": 12920417154, "lat": 47.9202303, "lon": -122.0955484}, {"type": "node", "id": 12920417155, "lat": 47.9202303, "lon": -122.0954554}, {"type": "node", "id": 12920417156, "lat": 47.9200033, "lon": -122.0954642}, {"type": "node", "id": 12920417157, "lat": 47.9200056, "lon": -122.0955537}, {"type": "node", "id": 12920417175, "lat": 47.9206019, "lon": -122.0965698}, {"type": "node", "id": 12920417176, "lat": 47.9203771, "lon": -122.0965845}, {"type": "node", "id": 12920417178, "lat": 47.9203579, "lon": -122.0965856}, {"type": "node", "id": 12920417179, "lat": 47.9203528, "lon": -122.0964205}, {"type": "node", "id": 12920417180, "lat": 47.9205566, "lon": -122.0964068}, {"type": "node", "id": 12920417181, "lat": 47.9205515, "lon": -122.096153}, {"type": "node", "id": 12920417182, "lat": 47.9206017, "lon": -122.096153}, {"type": "node", "id": 12920417183, "lat": 47.920613, "lon": -122.0965703}, {"type": "node", "id": 12920417200, "lat": 47.9206566, "lon": -122.0968038}, {"type": "node", "id": 12920417201, "lat": 47.9211302, "lon": -122.0967876}, {"type": "node", "id": 12920417202, "lat": 47.9211317, "lon": -122.0968536}, {"type": "node", "id": 12920417203, "lat": 47.9211426, "lon": -122.0968513}, {"type": "node", "id": 12920417204, "lat": 47.9211387, "lon": -122.0967784}, {"type": "node", "id": 12920417205, "lat": 47.9211022, "lon": -122.0967784}, {"type": "node", "id": 12920417206, "lat": 47.9210806, "lon": -122.0961495}, {"type": "node", "id": 12920417207, "lat": 47.921125, "lon": -122.0961484}, {"type": "node", "id": 12920417208, "lat": 47.9211243, "lon": -122.0961181}, {"type": "node", "id": 12920417209, "lat": 47.9211973, "lon": -122.0961141}, {"type": "node", "id": 12920417210, "lat": 47.9211993, "lon": -122.0961645}, {"type": "node", "id": 12920417211, "lat": 47.9212492, "lon": -122.096162}, {"type": "node", "id": 12920417212, "lat": 47.9212635, "lon": -122.0969323}, {"type": "node", "id": 12920417213, "lat": 47.9211975, "lon": -122.0969358}, {"type": "node", "id": 12920417214, "lat": 47.9211983, "lon": -122.0969783}, {"type": "node", "id": 12920417215, "lat": 47.9210026, "lon": -122.0969869}, {"type": "node", "id": 12920417216, "lat": 47.9210019, "lon": -122.0969536}, {"type": "node", "id": 12920417217, "lat": 47.9207124, "lon": -122.0969619}, {"type": "node", "id": 13022324783, "lat": 47.931359, "lon": -122.0868084}, {"type": "node", "id": 13022324784, "lat": 47.9312662, "lon": -122.0869318}, {"type": "node", "id": 13022324785, "lat": 47.9311516, "lon": -122.0869412}, {"type": "node", "id": 13022324786, "lat": 47.9309794, "lon": -122.0869539}, {"type": "node", "id": 13022324787, "lat": 47.9307379, "lon": -122.0869878}, {"type": "node", "id": 13022324788, "lat": 47.9307154, "lon": -122.0863905}, {"type": "node", "id": 13022324789, "lat": 47.9307714, "lon": -122.0862855}, {"type": "node", "id": 13022324790, "lat": 47.9308737, "lon": -122.0862782}, {"type": "node", "id": 13022324791, "lat": 47.9309116, "lon": -122.08616}, {"type": "node", "id": 13022324792, "lat": 47.9310777, "lon": -122.0861621}, {"type": "node", "id": 13022324793, "lat": 47.9310786, "lon": -122.0864402}, {"type": "node", "id": 13022324794, "lat": 47.9313051, "lon": -122.0864416}, {"type": "node", "id": 13022324795, "lat": 47.9313215, "lon": -122.0867201}, {"type": "node", "id": 13022324796, "lat": 47.9313049, "lon": -122.0866422}, {"type": "node", "id": 13022324797, "lat": 47.9308932, "lon": -122.086254}, {"type": "node", "id": 13022324798, "lat": 47.9309084, "lon": -122.0862223}, {"type": "node", "id": 13022324799, "lat": 47.9307415, "lon": -122.0863415}, {"type": "node", "id": 13022324800, "lat": 47.931305, "lon": -122.0858138}, {"type": "node", "id": 13022341101, "lat": 47.9313175, "lon": -122.0853641}, {"type": "node", "id": 13022341102, "lat": 47.9312409, "lon": -122.0853453}, {"type": "node", "id": 13022341103, "lat": 47.9312046, "lon": -122.085327}, {"type": "node", "id": 13022341104, "lat": 47.9311552, "lon": -122.0852806}, {"type": "node", "id": 13022341105, "lat": 47.9311128, "lon": -122.0852262}, {"type": "node", "id": 13022341106, "lat": 47.9303847, "lon": -122.0851942}, {"type": "node", "id": 13022341107, "lat": 47.9303748, "lon": -122.0858352}, {"type": "node", "id": 13022341108, "lat": 47.9310666, "lon": -122.0852241}, {"type": "node", "id": 13022341109, "lat": 47.9304247, "lon": -122.0851963}, {"type": "node", "id": 13022341114, "lat": 47.9303997, "lon": -122.0858346}, {"type": "node", "id": 13022341116, "lat": 47.9311702, "lon": -122.0858144}, {"type": "node", "id": 13022341117, "lat": 47.9311074, "lon": -122.0858029}, {"type": "node", "id": 13022341118, "lat": 47.9309302, "lon": -122.0858028}, {"type": "node", "id": 13022341119, "lat": 47.9308424, "lon": -122.085736}, {"type": "node", "id": 13022341120, "lat": 47.9306252, "lon": -122.0857316}, {"type": "node", "id": 13022341121, "lat": 47.9306062, "lon": -122.0857564}, {"type": "node", "id": 13022341122, "lat": 47.9306095, "lon": -122.0857417}, {"type": "node", "id": 13022341123, "lat": 47.9306143, "lon": -122.0857349}, {"type": "node", "id": 13022341124, "lat": 47.9306061, "lon": -122.0858357}, {"type": "node", "id": 13022341125, "lat": 47.9310953, "lon": -122.0861455}, {"type": "node", "id": 13022341126, "lat": 47.9308806, "lon": -122.0861439}, {"type": "node", "id": 13022341127, "lat": 47.9308805, "lon": -122.0861788}, {"type": "node", "id": 13022341128, "lat": 47.930823, "lon": -122.0861783}, {"type": "node", "id": 13022341129, "lat": 47.9308228, "lon": -122.0862465}, {"type": "node", "id": 13022341130, "lat": 47.9306501, "lon": -122.0862452}, {"type": "node", "id": 13022341131, "lat": 47.9306504, "lon": -122.0861708}, {"type": "node", "id": 13022341132, "lat": 47.9306207, "lon": -122.0861705}, {"type": "node", "id": 13022341133, "lat": 47.9306209, "lon": -122.0861064}, {"type": "node", "id": 13022341134, "lat": 47.9305997, "lon": -122.0861062}, {"type": "node", "id": 13022341135, "lat": 47.9306004, "lon": -122.0858958}, {"type": "node", "id": 13022341136, "lat": 47.9306227, "lon": -122.085896}, {"type": "node", "id": 13022341137, "lat": 47.9306229, "lon": -122.0858201}, {"type": "node", "id": 13022341138, "lat": 47.9306514, "lon": -122.0858203}, {"type": "node", "id": 13022341139, "lat": 47.9306516, "lon": -122.0857619}, {"type": "node", "id": 13022341140, "lat": 47.93083, "lon": -122.0857634}, {"type": "node", "id": 13022341141, "lat": 47.9308299, "lon": -122.0857924}, {"type": "node", "id": 13022341142, "lat": 47.9308717, "lon": -122.0857928}, {"type": "node", "id": 13022341143, "lat": 47.9308716, "lon": -122.0858375}, {"type": "node", "id": 13022341144, "lat": 47.931314, "lon": -122.085841}, {"type": "node", "id": 13022341145, "lat": 47.9313119, "lon": -122.0864006}, {"type": "node", "id": 13022341146, "lat": 47.9312466, "lon": -122.0864}, {"type": "node", "id": 13022341147, "lat": 47.9312465, "lon": -122.0864357}, {"type": "node", "id": 13022341148, "lat": 47.9311705, "lon": -122.0864352}, {"type": "node", "id": 13022341149, "lat": 47.9311707, "lon": -122.0863956}, {"type": "node", "id": 13022341150, "lat": 47.9310945, "lon": -122.086395}, {"type": "node", "id": 13124362175, "lat": 47.9126084, "lon": -122.0941541, "tags": {"addr:city": "Snohomish", "addr:housenumber": "127", "addr:postcode": "98290", "addr:state": "WA", "addr:street": "Avenue A", "addr:unit": "106", "amenity": "restaurant", "cuisine": "fish", "diet:pescetarian": "yes", "diet:seafood": "yes", "diet:vegetarian": "yes", "name": "Just Poke"}}, {"type": "node", "id": 13124362180, "lat": 47.9308524, "lon": -122.0994005}, {"type": "node", "id": 13124362181, "lat": 47.9309556, "lon": -122.0993335}, {"type": "node", "id": 13124362182, "lat": 47.9310155, "lon": -122.0992933}, {"type": "node", "id": 13124362183, "lat": 47.9310529, "lon": -122.0992419}, {"type": "node", "id": 13124362184, "lat": 47.9310799, "lon": -122.0991705}, {"type": "node", "id": 13124362185, "lat": 47.9310948, "lon": -122.0990878}, {"type": "node", "id": 13124362186, "lat": 47.9310978, "lon": -122.0990275}, {"type": "node", "id": 13124362187, "lat": 47.9311023, "lon": -122.0988622}, {"type": "node", "id": 13124362188, "lat": 47.9310993, "lon": -122.0986411}, {"type": "node", "id": 13124362189, "lat": 47.9310454, "lon": -122.09865}, {"type": "node", "id": 13124362190, "lat": 47.9310484, "lon": -122.0985316}, {"type": "node", "id": 13124362191, "lat": 47.9308045, "lon": -122.0985182}, {"type": "node", "id": 13124362192, "lat": 47.9307865, "lon": -122.0986924}, {"type": "node", "id": 13124362193, "lat": 47.9307566, "lon": -122.0986969}, {"type": "node", "id": 13124362194, "lat": 47.9307521, "lon": -122.0990699}, {"type": "node", "id": 13124362195, "lat": 47.930788, "lon": -122.0990677}, {"type": "node", "id": 13124362196, "lat": 47.9308359, "lon": -122.099233}, {"type": "node", "id": 13124362197, "lat": 47.9308539, "lon": -122.0993022}, {"type": "node", "id": 13124362198, "lat": 47.9308419, "lon": -122.0993156}, {"type": "node", "id": 13154175071, "lat": 47.9205997, "lon": -122.0851494}, {"type": "node", "id": 13154175072, "lat": 47.9204127, "lon": -122.0851478}, {"type": "node", "id": 13154175073, "lat": 47.9204149, "lon": -122.0849661}, {"type": "node", "id": 13154175074, "lat": 47.9206019, "lon": -122.0849727}, {"type": "node", "id": 13154175075, "lat": 47.9205712, "lon": -122.0851492}, {"type": "node", "id": 13154175078, "lat": 47.920498, "lon": -122.0851485}, {"type": "node", "id": 13154175080, "lat": 47.9205078, "lon": -122.0852294, "tags": {"amenity": "bicycle_parking"}}, {"type": "node", "id": 13246413500, "lat": 47.9422191, "lon": -122.1048149}, {"type": "node", "id": 13246494392, "lat": 47.9421863, "lon": -122.1062772}, {"type": "node", "id": 13246494393, "lat": 47.9421912, "lon": -122.10692}, {"type": "node", "id": 13246494394, "lat": 47.9416827, "lon": -122.1069281}, {"type": "node", "id": 13246494396, "lat": 47.9420693, "lon": -122.1062791}, {"type": "node", "id": 13246494397, "lat": 47.9416805, "lon": -122.1065056}, {"type": "node", "id": 13246494398, "lat": 47.94219, "lon": -122.1067729}, {"type": "node", "id": 13246494400, "lat": 47.9416234, "lon": -122.1064123, "tags": {"amenity": "loading_dock"}}, {"type": "node", "id": 13246498001, "lat": 47.941589, "lon": -122.1064123, "tags": {"amenity": "loading_dock"}}, {"type": "node", "id": 13246498002, "lat": 47.9415612, "lon": -122.1064123, "tags": {"amenity": "loading_dock"}}, {"type": "node", "id": 13246500101, "lat": 47.9422222, "lon": -122.1051039}, {"type": "way", "id": 135470540, "nodes": [1487859297, 1487859219, 3917907374, 1487859306, 1487859258, 1487859229, 1487859261, 1487859314, 1487859255, 1487859247, 1487859316, 1487859224, 1487859331, 1487859297], "tags": {"addr:city": "Snohomish", "addr:housenumber": "1119", "addr:postcode": "98290", "addr:state": "WA", "addr:street": "13th Street", "brand": "Safeway", "brand:wikidata": "Q1508234", "building": "retail", "building:levels": "1", "designation": "Safeway 1076", "name": "Safeway", "opening_hours": "Mo-Su 05:00-12:00", "phone": "+1-360-568-7215", "shop": "supermarket", "website": "https://local.safeway.com/safeway/wa/snohomish/1119-13th-st.html"}}, {"type": "way", "id": 185124070, "nodes": [1956930230, 1956930329, 1956930259, 1956930347, 1956930326, 1956930237, 1956930230], "tags": {"addr:city": "Snohomish", "addr:housenumber": "2801", "addr:postcode": "98290", "addr:state": "WA", "addr:street": "Bickford Avenue", "branch": "Snohomish", "brand": "Fred Meyer", "brand:wikidata": "Q5495932", "building": "retail", "building:levels": "1", "level": "0", "name": "Fred Meyer", "opening_hours": "Mo-Su 07:00-23:00; PH closed; 2019 Dec 07-2019 Dec 14 Mo-Su 07:00-24:00; 2019 Dec 15-2019 Dec 23 Mo-Su 06:00-24:00; 2019 Dec 24-2019 Dec 24 06:00-18:00", "organic": "yes", "phone": "+1-360-563-3733", "ref": "70100681", "shop": "supermarket", "website": "https://www.fredmeyer.com/stores/grocery/wa/snohomish/snohomish/701/00681", "wheelchair": "yes"}}, {"type": "way", "id": 185124076, "nodes": [1956930250, 1956930282, 1956930307, 1956930253, 1956930280, 13246498002, 13246498001, 13246494400, 1956930332, 1956930261, 13246494396, 13246494392, 1956948586, 13246500101, 13246413500, 1956930250], "tags": {"addr:city": "Snohomish", "addr:housenumber": "2601", "addr:postcode": "98290", "addr:state": "WA", "addr:street": "Bickford Avenue", "alt_name": "Home Depot", "branch": "Snohomish", "brand": "The Home Depot", "brand:wikidata": "Q864407", "building": "yes", "name": "The Home Depot", "opening_hours": "Mo-Sa 06:00-22:00; Su 07:00-20:00", "phone": "+1-360-568-8687", "ref": "4745", "shop": "doityourself", "website": "https://www.homedepot.com/l/snohomish/wa/snohomish/98290/4745"}}, {"type": "way", "id": 186581565, "nodes": [1973286539, 1973286538, 1973286545, 1973286546, 4318319031, 4318319025, 1973286539], "tags": {"amenity": "school", "ele": "39", "gnis:feature_id": "1515123", "mascot": "Panthers", "name": "Snohomish High School", "wikidata": "Q7547907", "wikipedia": "en:Snohomish High School"}}, {"type": "way", "id": 233921055, "nodes": [6204260182, 5420587144, 2422347640, 2422347642, 2422347644, 2422347646, 2422347649, 2422347651, 5420587143, 2422347667, 6204260182], "tags": {"addr:city": "Snohomish", "addr:housenumber": "1325", "addr:postcode": "98290", "addr:state": "WA", "addr:street": "Avenue D", "amenity": "bank", "atm": "yes", "brand": "KeyBank", "brand:wikidata": "Q1740314", "building": "yes", "drive_through": "yes", "name": "KeyBank", "website": "https://www.key.com/locations/wa/snohomish"}}, {"type": "way", "id": 233921062, "nodes": [2422347719, 2422347721, 2422347723, 2422347726, 2422347719], "tags": {"addr:city": "Snohomish", "addr:housenumber": "1601", "addr:postcode": "98290", "addr:state": "WA", "addr:street": "Avenue D", "amenity": "parking", "capacity": "102", "name": "Snohomish Park and Ride", "operator": "Washington State Department of Transportation", "park_ride": "yes"}}, {"type": "way", "id": 240893324, "nodes": [2485897733, 2485897734, 2485897735, 2485897736, 2485897737, 2485897738, 2485897739, 2485897740, 2485897741, 2485897742, 2485897743, 2485897744, 2485897745, 2485897746, 2485897747, 2485897748, 2485897749, 2485897733], "tags": {"amenity": "parking"}}, {"type": "way", "id": 240893337, "nodes": [2485897890, 2485897891, 2485897892, 2485897893, 2485897894, 2485897895, 2485897896, 2485897897, 2485897898, 2485897899, 2485897900, 2485897901, 2485897902, 2485897903, 2485897904, 2485897905, 2485897906, 2485897907, 2485897908, 2485897909, 2485897910, 2485897911, 2485897912, 2485897913, 2485897914, 2485897915, 2485897916, 2485897917, 2485897918, 2485897919, 2485897920, 2485897921, 2485897890], "tags": {"amenity": "parking", "parking": "street_side"}}, {"type": "way", "id": 269596769, "nodes": [2747756242, 4319165217, 4319165216, 2747756260, 4319165210, 4319165213, 4319165212, 4319165211, 4319165214, 2747756219, 2747756186, 2747756212, 2747756195, 2747756232, 2747756197, 4319165215, 4319165219, 4319165218, 2747756242], "tags": {"addr:city": "Snohomish", "addr:housenumber": "401", "addr:postcode": "98290", "addr:state": "WA", "addr:street": "2nd Street", "amenity": "clinic", "building": "yes", "healthcare": "clinic", "name": "The Everett Clinic", "opening_hours": "Mo-Fr 08:00-19:30; Sa,Su 09:00-17:00", "operator": "The Everett Clinic", "phone": "+1-360-563-8600", "website": "https://www.everettclinic.com/locations/snohomish"}}, {"type": "way", "id": 269598129, "nodes": [2747764753, 2747764752, 2747764733, 2747764742, 2747764757, 2747764753], "tags": {"amenity": "parking"}}, {"type": "way", "id": 269598848, "nodes": [2747777284, 2747777363, 2747777385, 2747777310, 2747777284], "tags": {"addr:city": "Snohomish", "addr:housenumber": "1525", "addr:postcode": "98290", "addr:state": "WA", "addr:street": "Avenue D", "amenity": "fire_station", "building": "yes", "name": "Fire Station 43", "operator": "Snohomish County Fire District #4"}}, {"type": "way", "id": 269598851, "nodes": [2747777465, 2747777381, 2747777370, 2747777472, 2747777411, 2747777324, 2747777465], "tags": {"amenity": "parking"}}, {"type": "way", "id": 269980083, "nodes": [2750850808, 2750850713, 2750850785, 2750850697, 2750850705, 2750850846, 2750850692, 2750850686, 2750850814, 2750850808], "tags": {"addr:city": "Snohomish", "addr:housenumber": "168", "addr:postcode": "98290", "addr:state": "WA", "addr:street": "Lincoln Avenue", "building": "yes", "building:levels": "1", "fax": "+1-360-568-7492", "fuel:diesel": "yes", "fuel:ethanol_free": "yes", "fuel:octane_87": "yes", "fuel:octane_92": "yes", "fuel:propane": "yes", "name": "Snohomish Co-Op Farm Supply", "opening_hours": "Mo-Fr 07:00-18:00; Sa 08:00-18:00; Su 9:00-17:00", "operator": "Snohomish Co-Op", "phone": "+1-360-568-2104", "roof:levels": "0", "shop": "country_store", "website": "https://www.snohomishcoop.com/locations/snohomish"}}, {"type": "way", "id": 269980085, "nodes": [2750850836, 2750850717, 2750850694, 2750850699, 2750850836], "tags": {"amenity": "parking"}}, {"type": "way", "id": 269980095, "nodes": [2750850690, 2750850756, 2750850823, 2750850767, 2750850851, 2750850839, 2750850844, 2750850689, 2750850856, 2750850690], "tags": {"amenity": "parking"}}, {"type": "way", "id": 269980105, "nodes": [2750850773, 2750850794, 2750850734, 2750850753, 2750850752, 2750850762, 2750850710, 2750850707, 2750850793, 2750850786, 2750850828, 2750850817, 2750850819, 2750850742, 2750850773], "tags": {"amenity": "public_building", "building": "yes", "name": "Snohomish Library"}}, {"type": "way", "id": 269984714, "nodes": [2750878075, 2750878087, 2750878065, 2750878064, 2750878070, 2750878086, 2750878089, 2750878060, 2750878058, 2750878072, 2750878063, 2750878061, 2750878082, 2750878074, 2750878075], "tags": {"amenity": "marketplace", "name": "Snohomish Farmers Market (May - October)"}}, {"type": "way", "id": 269984716, "nodes": [2750878083, 2750878071, 2750878054, 2750878092, 2750878083], "tags": {"amenity": "events_venue", "building": "yes", "name": "Snohomish Events Center"}}, {"type": "way", "id": 310466815, "nodes": [3158928159, 3158928160, 3158928261, 3158928262, 3158928263, 3158928264, 356543475, 3158928266, 3158928267, 3158928268, 3158928269, 3158928270, 3158928271, 3158928272, 3158928273, 3158928274, 3158928275, 3158928276, 3158928277, 3158928278, 3158928159], "tags": {"amenity": "school", "ele": "55", "gnis:feature_id": "1515122", "name": "Emerson Elementary School"}}, {"type": "way", "id": 310467606, "nodes": [356547620, 3158938971, 3158938972, 3158938973, 3158938974, 3158938975, 3158938976, 356547620], "tags": {"amenity": "school", "ele": "40", "gnis:feature_id": "1530830", "name": "Central Elementary School"}}, {"type": "way", "id": 311869681, "nodes": [3176270931, 3176270932, 3176270930, 3176270933, 3176270931], "tags": {"addr:housenumber": "1219", "addr:state": "WA", "amenity": "bank", "atm": "yes", "brand": "Wells Fargo", "brand:wikidata": "Q744149", "building": "yes", "name": "Wells Fargo", "opening_hours": "Mo-Fr 09:00-18:00; Sa 09:00-17:00"}}, {"type": "way", "id": 313195267, "nodes": [3191035923, 3191035911, 5420586862, 3191035915, 3191035919, 5420586861, 3191035923], "tags": {"amenity": "fuel", "brand": "Shell", "brand:wikidata": "Q154950", "building": "roof", "name": "Shell"}}, {"type": "way", "id": 313195268, "nodes": [3191035922, 3191035910, 3191035914, 3191035918, 3191035922], "tags": {"amenity": "fuel", "brand": "76", "brand:wikidata": "Q1658320", "name": "76 Gas"}}, {"type": "way", "id": 313195269, "nodes": [3191035924, 3191035912, 3191035916, 3191035920, 3191035921, 3191035908, 3191035909, 3191035913, 3191035917, 3191035924], "tags": {"brand": "Jacksons", "brand:wikidata": "Q64617393", "building": "yes", "name": "Jacksons", "shop": "convenience"}}, {"type": "way", "id": 384762515, "nodes": [3881167280, 3881167281, 3881167282, 3881167283, 3881167284, 3881167285, 3881167286, 3881167287, 3881167288, 3881167289, 3881167280], "tags": {"addr:city": "Snohomish", "addr:housenumber": "506", "addr:postcode": "98291", "addr:state": "WA", "addr:street": "4th Street", "amenity": "community_centre", "building": "yes", "name": "Snohomish Senior Center", "phone": "+1-360-568-0934", "website": "https://www.snohomishcenter.org/"}}, {"type": "way", "id": 384762518, "nodes": [3881167290, 3881167291, 3881167292, 3881167293, 3881167294, 3881167295, 3881167296, 3881167297, 3881167290], "tags": {"amenity": "parking"}}, {"type": "way", "id": 440834277, "nodes": [1956930256, 1956930396, 4386019769, 4386019745, 4386019744, 1956930392, 1956930342, 1956930256], "tags": {"addr:city": "Snohomish", "addr:country": "US", "addr:housenumber": "2603", "addr:postcode": "98290", "addr:state": "WA", "addr:street": "Bickford Avenue", "addr:unit": "A", "amenity": "fast_food", "brand": "Arby's", "brand:wikidata": "Q630866", "check_date": "2024-06-21", "contact:phone": "+1-360-568-2729", "contact:website": "https://www.arbys.com/locations/us/wa/snohomish/2603-bickford-ave/store-8311/", "cuisine": "sandwich", "drive_through": "yes", "indoor": "room", "level": "0", "name": "Arby's", "opening_hours": "10:00-23:00", "takeaway": "yes"}}, {"type": "way", "id": 452717734, "nodes": [4494651368, 4494651369, 5419190843, 4494651370, 4494651371, 4494651368], "tags": {"amenity": "parking", "park_ride": "no"}}, {"type": "way", "id": 515129996, "nodes": [5031550530, 5031550531, 5031550532, 5031550533, 5031550530], "tags": {"addr:city": "Snohomish", "addr:housenumber": "800", "addr:postcode": "98290", "addr:state": "WA", "addr:street": "2nd Street", "amenity": "social_centre", "building": "yes", "building:levels": "2", "name": "Garden City Grange #280"}}, {"type": "way", "id": 515133068, "nodes": [5031584038, 5031567236, 5031567237, 5031567238, 5031584038], "tags": {"addr:city": "Snohomish", "addr:housenumber": "510", "addr:postcode": "98290", "addr:state": "WA", "addr:street": "2nd Street", "amenity": "cafe", "building": "yes", "building:levels": "1", "cuisine": "soup;sandwich", "name": "Java Haus"}}, {"type": "way", "id": 682687016, "nodes": [6393847026, 6393847027, 6393847028, 6393847029, 6393847030, 6393847031, 6393847032, 6393847033, 6393863373, 6393863374, 6393863372, 6393847034, 6393863371, 6393847026], "tags": {"access": "yes", "amenity": "parking", "fee": "no", "parking": "surface"}}, {"type": "way", "id": 682810841, "nodes": [2750878090, 6395213871, 6395213872, 6395213873, 6395213874, 6395213875, 6395213876, 6395213877, 2750878090], "tags": {"access": "yes", "amenity": "toilets", "building": "toilets", "check_date": "2023-10-14", "female": "yes", "male": "yes", "toilets:disposal": "flush"}}, {"type": "way", "id": 684503177, "nodes": [6413218902, 6413218903, 6413218904, 6413218905, 6413218906, 6413218907, 6413218908, 6413218902], "tags": {"access": "customers", "amenity": "parking", "fee": "no", "parking": "surface"}}, {"type": "way", "id": 717317713, "nodes": [6736715692, 6736715693, 6736715694, 6736715695, 6736715696, 6736715697, 6736715698, 6736715699, 6736715700, 6736715701, 6736715702, 6736715703, 6736715704, 6736715705, 6736715706, 6736715707, 6736715708, 6736715709, 6736715710, 6736715711, 6736715712, 6736715713, 6736715692], "tags": {"addr:city": "Snohomish", "addr:housenumber": "913", "addr:postcode": "98290", "addr:state": "WA", "addr:street": "2nd Street", "amenity": "place_of_worship", "building": "yes", "columbarium": "yes", "denomination": "episcopal", "memorial_garden": "yes", "name": "St John Episcopal Church", "religion": "christian"}}, {"type": "way", "id": 728916218, "nodes": [3856084454, 6829111263, 6829111264, 6829111265, 6829111266, 6829111267, 3856084454], "tags": {"addr:city": "Snohomish", "addr:housenumber": "1100", "addr:postcode": "98290", "addr:state": "WA", "addr:street": "Avenue D", "amenity": "fast_food", "brand": "Taco Bell", "brand:wikidata": "Q752941", "building": "yes", "cuisine": "tex-mex", "name": "Taco Bell", "operator": "Taco Bell", "phone": "+1-360-563-5503", "takeaway": "yes", "website": "https://locations.tacobell.com/wa/snohomish/1100-avenue-d.html"}}, {"type": "way", "id": 734283018, "nodes": [6876373436, 6876373437, 6876373438, 6876373439, 6876373436], "tags": {"building": "yes", "check_date": "2024-06-30", "name": "A Bit of Taste", "shop": "olive_oil", "website": "https://abitoftaste.com"}}, {"type": "way", "id": 747951904, "nodes": [6141585882, 6997746829, 6997746830, 6997746851, 6997746831, 6997746850, 6997746832, 6997746852, 6997746828, 6997746827, 6997746826, 6997746833, 6997746834, 6997746835, 6997746836, 6997746846, 6997746847, 6997746837, 6997746838, 6997746839, 6997746840, 6997746841, 6997746842, 6997746843, 6997746844, 6997746845, 1487859294, 50742615, 50742616, 50742617, 50742620, 6141585882], "tags": {"amenity": "parking"}}, {"type": "way", "id": 747951906, "nodes": [6997746854, 6997746855, 6997746856, 6997746857, 6997746858, 6997746859, 6997746860, 6997746861, 6997746862, 6997746863, 6997746864, 6997746865, 6997746866, 6997746854], "tags": {"amenity": "parking"}}, {"type": "way", "id": 761106785, "nodes": [7110952153, 7110952154, 7110952155, 7110952156, 7110952153], "tags": {"building": "yes", "check_date": "2024-06-29", "name": "Snohomish Car Repair", "shop": "car_repair"}}, {"type": "way", "id": 800802290, "nodes": [6917179063, 7490100577, 7490100578, 5419191576, 5419191574, 6917179064, 6917199648, 6917179063], "tags": {"amenity": "parking"}}, {"type": "way", "id": 892664808, "nodes": [8296635626, 8296635627, 11013402082, 8296635628, 8296635629, 8296635630, 8296635631, 12920417104, 8296635632, 8296635633, 11013402081, 8296635626], "tags": {"brand": "Les Schwab Tire Center", "brand:wikidata": "Q6529977", "building": "yes", "layer": "1", "name": "Les Schwab Tire Center", "shop": "tyres"}}, {"type": "way", "id": 892664810, "nodes": [8296635644, 8296635645, 8296635646, 8296635647, 8296635648, 8296635649, 8296635650, 8296635651, 8296635652, 8296635653, 8296635654, 8296635655, 8296635656, 8296635644], "tags": {"amenity": "fast_food", "brand": "Taco Time NW", "brand:wikidata": "Q7673970", "building": "yes", "cuisine": "mexican", "diet:vegetarian": "yes", "name": "Taco Time", "not:brand:wikidata": "Q7673969", "takeaway": "yes", "website": "https://tacotimenw.com/find-us/snohomish/"}}, {"type": "way", "id": 898161230, "nodes": [8346936101, 8346936102, 8346936103, 8346936104, 8346936101], "tags": {"addr:city": "Snohomish", "addr:housenumber": "427", "addr:postcode": "98290", "addr:state": "WA", "addr:street": "Maple Avenue", "amenity": "fire_station", "building": "yes", "name": "Fire Station 41", "website": "https://www.snohomishfire.org/station-41-city-station"}}, {"type": "way", "id": 898192408, "nodes": [8347198882, 8347198883, 8347198884, 8347198885, 8347198882], "tags": {"amenity": "parking"}}, {"type": "way", "id": 898192409, "nodes": [8347198886, 8347198887, 8347198888, 8347198889, 8347198886], "tags": {"amenity": "parking"}}, {"type": "way", "id": 898192410, "nodes": [8347198890, 8347198891, 8347198892, 8347198893, 8347198894, 8347198895, 8347198890], "tags": {"amenity": "parking"}}, {"type": "way", "id": 898192411, "nodes": [8347198896, 8347198897, 8347198898, 8347198899, 8347198900, 8347198901, 8347198902, 8347198903, 8347198904, 8347198905, 8347198896], "tags": {"amenity": "parking"}}, {"type": "way", "id": 898192412, "nodes": [8347198906, 8347198907, 8347198908, 8347198909, 8347198906], "tags": {"amenity": "parking"}}, {"type": "way", "id": 898192413, "nodes": [8347198910, 8347198911, 8347198912, 8347198913, 8347198914, 8347198915, 8347198916, 8347207117, 8347198910], "tags": {"amenity": "parking"}}, {"type": "way", "id": 936498370, "nodes": [8677572591, 8677572592, 8677572593, 8677572594, 8677572591], "tags": {"addr:city": "Snohomish", "addr:housenumber": "130", "addr:postcode": "98290", "addr:state": "WA", "addr:street": "Avenue D", "alt_name": "J and L BBQ", "amenity": "restaurant", "building": "yes", "check_date": "2024-06-29", "cuisine": "barbecue", "name": "J & L BBQ", "phone": "+1-360-568-7222", "website": "https://www.jandlbbqsnohomish.com/"}}, {"type": "way", "id": 1034668486, "nodes": [9531262133, 9531262134, 9531262135, 9531262136, 9531262137, 9531262138, 9531262133], "tags": {"alt_name": "Earl Winehart Post No. 96", "amenity": "social_centre", "brand": "American Legion", "brand:wikidata": "Q468865", "building": "yes", "check_date": "2024-06-29", "name": "American Legion Hall", "ref": "96", "social_centre:for": "veteran"}}, {"type": "way", "id": 1034668497, "nodes": [9531262207, 9531262208, 9531262209, 9531262210, 9531262211, 9531262212, 9531262213, 9531262214, 9531262207], "tags": {"addr:city": "Snohomish", "addr:housenumber": "116", "addr:postcode": "98290", "addr:state": "WA", "addr:street": "Union Avenue", "amenity": "townhall", "building": "yes", "name": "Snohomish City Hall", "townhall:type": "city"}}, {"type": "way", "id": 1034996191, "nodes": [9534044282, 9534044283, 9534044307, 9534044284, 9534044285, 9534044286, 9534044287, 9534044288, 9534044289, 9534044290, 9534044291, 9534044292, 9534044293, 11038746695, 9534044282], "tags": {"amenity": "bank", "brand": "Chase", "brand:wikidata": "Q524629", "building": "yes", "check_date": "2024-09-17", "check_date:opening_hours": "2024-09-17", "drive_through": "yes", "name": "Chase", "opening_hours": "Mo-Fr 09:00-17:00; Sa 09:00-13:00; Su closed", "phone": "+1-360-568-2151", "website": "https://locator.chase.com/wa/snohomish/902-2nd-st"}}, {"type": "way", "id": 1034996193, "nodes": [9534044311, 9534044312, 9534044313, 9534044314, 9534044315, 9534044316, 9534046317, 9534046318, 9534044311], "tags": {"brand": "NAPA Auto Parts", "brand:wikidata": "Q6970842", "building": "yes", "name": "NAPA Auto Parts", "shop": "car_parts"}}, {"type": "way", "id": 1034996194, "nodes": [9534046319, 9534046320, 9534046321, 9534046322, 9534046323, 9534046324, 9534046319], "tags": {"brand": "Century 21", "brand:wikidata": "Q1054480", "building": "yes", "name": "Century 21", "office": "estate_agent"}}, {"type": "way", "id": 1034996196, "nodes": [9534046329, 9534046330, 9534046331, 9534046332, 9534046329], "tags": {"brand": "State Farm", "brand:wikidata": "Q2007336", "building": "yes", "name": "State Farm", "office": "insurance"}}, {"type": "way", "id": 1034996199, "nodes": [9534046347, 9534046348, 9534046349, 9534046350, 9534046351, 9534046352, 9534046353, 9534046354, 9534046355, 9534046356, 9534046347], "tags": {"amenity": "bank", "brand": "Washington Federal", "brand:wikidata": "Q7971859", "building": "yes", "name": "Washington Federal"}}, {"type": "way", "id": 1034996200, "nodes": [9534046357, 9534046358, 9534046359, 9534046360, 9534046357], "tags": {"brand": "ExtraMile", "brand:wikidata": "Q64224605", "building": "yes", "name": "ExtraMile", "shop": "convenience"}}, {"type": "way", "id": 1034996201, "nodes": [9534046361, 9534046362, 9534046363, 9534046364, 9534046361], "tags": {"amenity": "fuel", "brand": "Texaco", "brand:wikidata": "Q775060", "building": "roof", "layer": "1", "name": "Texaco"}}, {"type": "way", "id": 1034996204, "nodes": [9534046384, 9534046385, 9534046386, 9534046387, 9534046388, 9534046389, 9534046390, 9534046391, 9534046392, 9534046393, 9534046394, 9534046395, 9534046396, 9534046397, 9534046398, 9534046399, 9534046400, 9534046401, 9534046384], "tags": {"amenity": "police", "building": "yes"}}, {"type": "way", "id": 1035291119, "nodes": [9536579357, 9536579358, 9536579359, 9536579360, 9536579357], "tags": {"amenity": "toilets", "building": "yes", "fee": "no", "wheelchair": "limited"}}, {"type": "way", "id": 1035474991, "nodes": [9538640077, 9538640078, 9538640079, 9538640080, 3216879172, 9538640072, 5648359751, 9538640077], "tags": {"amenity": "parking"}}, {"type": "way", "id": 1035474993, "nodes": [9538640084, 9538640085, 9538640086, 9538640087, 9538640088, 9538640089, 9538640090, 9538640091, 9538640092, 9538640093, 9538640094, 9538640095, 9538640096, 9538640097, 9538640098, 9538640099, 9538640100, 9538640101, 9538640102, 9538640103, 9538640104, 9538640084], "tags": {"amenity": "parking"}}, {"type": "way", "id": 1040366887, "nodes": [9579314902, 9579314903, 9579314904, 9579314905, 9579314902], "tags": {"building": "yes", "office": "estate_agent"}}, {"type": "way", "id": 1040366889, "nodes": [9579314910, 9579314911, 9579314912, 9579314913, 9579314915, 9579355117, 9579314916, 9579314914, 9579314910], "tags": {"building": "yes", "office": "energy_supplier"}}, {"type": "way", "id": 1040366891, "nodes": [9579355123, 9579355124, 9579355125, 9579355126, 9579355127, 9579355128, 9579355130, 9579355129, 9579355123], "tags": {"amenity": "place_of_worship", "building": "yes", "religion": "christian"}}, {"type": "way", "id": 1040366893, "nodes": [9579355141, 9579355142, 9579355143, 9579355144, 9579355141], "tags": {"addr:city": "Snohomish", "addr:housenumber": "121", "addr:postcode": "98290", "addr:state": "WA", "addr:street": "Glen Avenue", "building": "yes", "name": "Snohomish Laundry Company", "shop": "laundry"}}, {"type": "way", "id": 1040445375, "nodes": [9579976140, 9579976141, 9579976142, 9579976143, 9579976144, 9579976145, 9579976146, 9579976147, 9579976148, 9579976149, 9579976150, 9579976151, 9579976152, 9579976153, 9579976154, 9579976155, 9579976156, 9579976157, 9579976140], "tags": {"amenity": "restaurant", "building": "yes", "name": "Cabbage Patch Restaurant"}}, {"type": "way", "id": 1041346797, "nodes": [9587105925, 9587105926, 9587105927, 9587105928, 9587105929, 9587105930, 9587105925], "tags": {"amenity": "place_of_worship", "building": "yes", "check_date": "2024-06-29", "name": "Restoration Road Church"}}, {"type": "way", "id": 1041346799, "nodes": [9587105935, 9587105934, 9587105933, 9587105936, 9587105937, 9587105938, 9587105935], "tags": {"addr:housenumber": "116", "addr:street": "Avenue D", "building": "yes", "check_date": "2024-06-30", "name": "Rugs Galore", "shop": "carpet", "website": "https://rugsgalore.com"}}, {"type": "way", "id": 1041346802, "nodes": [9587105949, 9587105950, 9587105951, 9587105952, 9587105949], "tags": {"building": "yes", "check_date": "2024-06-29", "name": "Avenue D Gallery", "shop": "art"}}, {"type": "way", "id": 1103688456, "nodes": [10099519694, 10099519695, 10099519696, 10099519697, 10099519694], "tags": {"building": "yes", "check_date": "2024-06-29", "name": "Associated Glass", "shop": "glass"}}, {"type": "way", "id": 1149974200, "nodes": [10697841724, 10697841725, 10697841726, 10697841727, 10697841728, 10697841729, 10697841730, 10697841731, 10697841732, 10697841733, 10697841734, 10697841735, 10697841736, 10697841737, 10697841738, 10697841739, 10697841740, 10697841724], "tags": {"amenity": "place_of_worship", "building": "yes", "denomination": "jehovahs_witness", "religion": "christian"}}, {"type": "way", "id": 1222363988, "nodes": [11336836199, 11336836200, 11336836201, 11336836202, 11336836199], "tags": {"amenity": "parking", "parking": "surface", "surface": "asphalt"}}, {"type": "way", "id": 1222364285, "nodes": [11336875438, 11336875439, 11336875440, 11336875441, 11336875438], "tags": {"access": "private", "amenity": "parking", "parking": "surface", "surface": "asphalt"}}, {"type": "way", "id": 1279781862, "nodes": [11880087827, 11880087828, 11880087831, 11880087833, 11880087832, 11880087829, 11880087830, 11880087827], "tags": {"amenity": "parking", "parking": "street_side"}}, {"type": "way", "id": 1297580922, "nodes": [12022085649, 12022085650, 12022085651, 12022085652, 12022085653, 12022085635, 12022085636, 12022085637, 12022085638, 12022085643, 12022085644, 12022085645, 12022085646, 12022085647, 12022085648, 12022085639, 12022085640, 12022085641, 12022085642, 12022085649], "tags": {"addr:city": "Snohomish", "addr:housenumber": "10", "addr:postcode": "98290", "addr:state": "WA", "addr:street": "Avenue A", "amenity": "shelter", "building": "yes", "name": "Riverfront Gazebo", "shelter_type": "gazebo", "website": "https://www.snohomishwa.gov/Facilities/Facility/Details/Avenue-ARiverfront-Gazebo-20"}}, {"type": "way", "id": 1297581851, "nodes": [12022117270, 12022117271, 12022117272, 12022117273, 12022117270], "tags": {"addr:housenumber": "609", "addr:street": "1st Street", "building": "yes", "check_date": "2024-06-29", "name": "Snohomish Exchange", "shop": "antiques"}}, {"type": "way", "id": 1337779576, "nodes": [12374256323, 12374256324, 12374256325, 12374256326, 12374256323], "tags": {"addr:city": "Snohomish", "addr:housenumber": "168", "addr:postcode": "98290", "addr:state": "WA", "addr:street": "Lincoln Avenue", "amenity": "fuel", "building": "yes", "building:levels": "1", "fax": "+1-360-568-7492", "fuel:diesel": "yes", "fuel:ethanol_free": "yes", "fuel:octane_87": "yes", "fuel:octane_92": "yes", "name": "Snohomish Co-Op Farm Supply", "opening_hours": "24/7", "operator": "Snohomish Co-Op", "phone": "+1-360-568-2104", "website": "https://www.snohomishcoop.com/locations/snohomish"}}, {"type": "way", "id": 1337858608, "nodes": [12375053260, 12375053261, 12375053262, 12375053263, 12375053260], "tags": {"addr:city": "Snohomish", "addr:housenumber": "512", "addr:postcode": "98290", "addr:state": "WA", "addr:street": "2nd Street", "amenity": "restaurant", "building": "yes", "cuisine": "mexican", "name": "Ixtapa", "opening_hours": "Mo-Su 11:00-22:00", "phone": "+1-360-568-4522", "website": "https://ixtapasnohomishwa.com/"}}, {"type": "way", "id": 1395866555, "nodes": [12920416964, 12920416965, 12920416966, 12920416967, 12920416964], "tags": {"amenity": "parking", "parking": "street_side"}}, {"type": "way", "id": 1395866556, "nodes": [12920416968, 12920416969, 12920416970, 12920416971, 12920416957, 12920416968], "tags": {"amenity": "parking", "parking": "street_side"}}, {"type": "way", "id": 1395866557, "nodes": [12920416923, 12920416977, 12920416978, 12920416979, 12920416980, 12920374231, 12920374230, 12920416981, 12920416982, 12920416983, 12920416984, 12920374228, 12920374245, 12920416985, 12920416986, 12920416987, 12920416988, 12920416989, 12920416990, 12920416991, 12920416992, 12920416993, 12920416994, 12920416995, 12920416996, 12920416997, 12920416998, 12920416999, 12920417000, 12920416924, 12920417001, 12920417002, 12920417003, 12920417004, 12920417005, 12920417006, 12920417007, 12920417008, 12920417009, 12920417010, 12920417011, 12920417012, 12920417013, 12920417014, 12920417015, 12920417016, 12920374263, 12920374264, 12920416973, 12920416951, 12920417017, 12920417018, 12920417019, 12920417020, 12920417021, 12920417022, 12920417023, 12920417024, 12920417025, 12920417026, 12920417027, 12920417028, 12920417029, 12920417030, 12920417031, 12920417032, 12920417033, 12920417034, 12920417035, 12920416974, 12920416975, 12920417052, 12920417036, 12920417037, 12920417038, 12920417039, 12920417040, 12920417041, 12920417042, 12920417043, 12920417044, 12920417045, 12920417046, 12920417047, 12920417048, 12920417049, 12920417050, 12920417063, 12920417051, 12920416923], "tags": {"amenity": "parking"}}, {"type": "way", "id": 1395866560, "nodes": [12920417064, 12920417065, 12920417066, 12920417067, 12920417068, 12920417069, 12920417070, 12920417071, 12920417072, 12920417073, 12920417074, 12920417075, 12920416908, 12920417076, 12920416910, 12920416911, 12920417077, 12920417078, 12920417079, 12920417080, 12920417064], "tags": {"amenity": "parking"}}, {"type": "way", "id": 1395866562, "nodes": [12920417084, 12920417085, 12920417086, 12920417082, 12920417084], "tags": {"amenity": "parking"}}, {"type": "way", "id": 1395866563, "nodes": [12920417087, 12920417088, 12920417089, 12920417090, 12920417091, 12920417092, 12920417093, 12920417094, 12920417095, 12920417096, 12920417097, 12920417098, 12920417099, 12920417100, 12920417101, 12920417102, 12920417103, 8296635626, 8296635633, 8296635632, 12920417104, 12920417105, 12920417106, 12920417107, 12920417108, 12920417109, 12920417110, 12920417111, 12920417112, 12920417113, 12920417114, 8296635629, 8296635628, 8296635627, 12920417115, 12920417116, 12920417117, 12920417118, 12920417119, 12920417087], "tags": {"amenity": "parking"}}, {"type": "way", "id": 1395866565, "nodes": [12920417124, 12920417125, 12920417126, 12920417127, 12920417128, 12920417129, 12920417130, 12920417124], "tags": {"amenity": "parking", "parking": "street_side"}}, {"type": "way", "id": 1395866570, "nodes": [12920417150, 12920417151, 12920417152, 12920417153, 12920417150], "tags": {"amenity": "parking", "parking": "street_side"}}, {"type": "way", "id": 1395866571, "nodes": [12920417154, 12920417155, 12920417156, 12920417157, 12920417154], "tags": {"amenity": "parking", "parking": "street_side"}}, {"type": "way", "id": 1395866576, "nodes": [12920417176, 12920417178, 12920417179, 12920417180, 12920417181, 12920417182, 12920417183, 12920417175, 12920417176], "tags": {"amenity": "parking"}}, {"type": "way", "id": 1395866581, "nodes": [12920417119, 12920417200, 12920417201, 12920417202, 12920417203, 12920417204, 12920417205, 12920417206, 12920417207, 12920417208, 12920417209, 12920417210, 12920417211, 12920417212, 12920417213, 12920417214, 12920417215, 12920417216, 12920417217, 12920417118, 12920417119], "tags": {"amenity": "parking"}}, {"type": "way", "id": 1417147882, "nodes": [13022324783, 5420587388, 13022324784, 13022324785, 13022324786, 13022324787, 13022324788, 13022324799, 13022324789, 13022324790, 13022324797, 13022324798, 13022324791, 13022324792, 13022324793, 13022324794, 13022324796, 13022324795, 13022324783], "tags": {"amenity": "parking"}}, {"type": "way", "id": 1417147883, "nodes": [13022324800, 13022341101, 13022341102, 13022341103, 13022341104, 13022341105, 13022341108, 13022341109, 13022341106, 13022341107, 13022341114, 13022341124, 13022341121, 13022341122, 13022341123, 13022341120, 13022341119, 13022341118, 13022341117, 13022341116, 13022324800], "tags": {"amenity": "parking"}}, {"type": "way", "id": 1417147885, "nodes": [13022341125, 13022341126, 13022341127, 13022341128, 13022341129, 13022341130, 13022341131, 13022341132, 13022341133, 13022341134, 13022341135, 13022341136, 13022341137, 13022341138, 13022341139, 13022341140, 13022341141, 13022341142, 13022341143, 13022341144, 13022341145, 13022341146, 13022341147, 13022341148, 13022341149, 13022341150, 13022341125], "tags": {"addr:city": "Snohomish", "addr:housenumber": "1512", "addr:postcode": "98290", "addr:state": "WA", "addr:street": "Pine Avenue", "amenity": "place_of_worship", "building": "church", "denomination": "roman_catholic", "email": "secretary@stmichaelsnohomish.org", "name": "Saint Michael Catholic Church", "phone": "+1-360-568-0821", "religion": "christian", "service_times": "Su 08:00, 10:00; Sa 05:00; Mo,Th,Fr 09:00; We 18:00"}}, {"type": "way", "id": 1427627447, "nodes": [13124362180, 13124362181, 13124362182, 13124362183, 13124362184, 13124362185, 13124362186, 13124362187, 13124362188, 13124362189, 13124362190, 13124362191, 2747777490, 13124362192, 13124362193, 13124362194, 13124362195, 13124362196, 13124362197, 13124362198, 13124362180], "tags": {"amenity": "parking"}}, {"type": "way", "id": 1431034875, "nodes": [13154175071, 13154175075, 13154175078, 13154175072, 13154175073, 13154175074, 13154175071], "tags": {"addr:city": "Snohomish", "addr:housenumber": "707", "addr:postcode": "98290", "addr:state": "WA", "addr:street": "Pine Avenue", "addr:unit": "B101", "building": "yes", "name": "Bicycle Centres", "shop": "bicycle"}}, {"type": "way", "id": 1443554063, "nodes": [13246494392, 13246494398, 13246494393, 13246494394, 13246494397, 1956930332, 1956930261, 13246494396, 13246494392], "tags": {"shop": "garden_centre"}}]}