{"version": 0.6, "generator": "Overpass API 0.7.62.8 e802775f", "osm3s": {"timestamp_osm_base": "2025-12-12T22:30:30Z", "copyright": "The data included in this document is from www.openstreetmap.org. The data is made available under ODbL."}, "elements": [{"type": "node", "id": 366394616, "lat": 39.6610587, "lon": -105.01133, "tags": {"addr:state": "CO", "amenity": "fire_station", "ele": "1615", "gnis:feature_id": "2368643", "name": "Englewood Fire Prevention Tejon Station"}}, {"type": "node", "id": 634582901, "lat": 39.6530434, "lon": -104.9985224}, {"type": "node", "id": 634582902, "lat": 39.6528746, "lon": -104.9985636}, {"type": "node", "id": 634582904, "lat": 39.6527635, "lon": -104.9977836}, {"type": "node", "id": 634582905, "lat": 39.6530169, "lon": -104.9983394}, {"type": "node", "id": 634582906, "lat": 39.6528481, "lon": -104.9983806}, {"type": "node", "id": 634582907, "lat": 39.6528682, "lon": -104.9979953}, {"type": "node", "id": 634582908, "lat": 39.6528663, "lon": -104.997782}, {"type": "node", "id": 634582909, "lat": 39.6530892, "lon": -104.9977858}, {"type": "node", "id": 634582911, "lat": 39.6530159, "lon": -104.9979931}, {"type": "node", "id": 634582912, "lat": 39.6530141, "lon": -104.9977869}, {"type": "node", "id": 634582921, "lat": 39.6530879, "lon": -104.9976436}, {"type": "node", "id": 634582922, "lat": 39.6527623, "lon": -104.9976483}, {"type": "node", "id": 639036179, "lat": 39.6543123, "lon": -104.9991835}, {"type": "node", "id": 639036180, "lat": 39.6547063, "lon": -104.9986557}, {"type": "node", "id": 639036212, "lat": 39.6539566, "lon": -104.9979703}, {"type": "node", "id": 639036213, "lat": 39.6534533, "lon": -104.997965}, {"type": "node", "id": 639036214, "lat": 39.6534564, "lon": -104.9974602}, {"type": "node", "id": 639036215, "lat": 39.6538781, "lon": -104.9974647}, {"type": "node", "id": 639036216, "lat": 39.6538759, "lon": -104.9978216}, {"type": "node", "id": 639036217, "lat": 39.6539575, "lon": -104.9978225}, {"type": "node", "id": 639036292, "lat": 39.6537449, "lon": -105.0002563}, {"type": "node", "id": 639036293, "lat": 39.6537259, "lon": -105.000489}, {"type": "node", "id": 639036294, "lat": 39.6535565, "lon": -105.0005345}, {"type": "node", "id": 639036295, "lat": 39.6534641, "lon": -104.9999539}, {"type": "node", "id": 639036296, "lat": 39.6536873, "lon": -104.999894}, {"type": "node", "id": 655763234, "lat": 39.6583385, "lon": -104.9986424}, {"type": "node", "id": 655763241, "lat": 39.6583561, "lon": -104.9978951}, {"type": "node", "id": 655763246, "lat": 39.6568724, "lon": -104.9979994}, {"type": "node", "id": 655763251, "lat": 39.656827, "lon": -104.9991809}, {"type": "node", "id": 655763288, "lat": 39.6544166, "lon": -104.998055}, {"type": "node", "id": 655763292, "lat": 39.6544001, "lon": -104.9976205}, {"type": "node", "id": 655763296, "lat": 39.6545405, "lon": -104.9973845}, {"type": "node", "id": 655763300, "lat": 39.6545405, "lon": -104.9960219}, {"type": "node", "id": 655763305, "lat": 39.6540821, "lon": -104.9960165}, {"type": "node", "id": 655763309, "lat": 39.6540821, "lon": -104.9966066}, {"type": "node", "id": 655763313, "lat": 39.6534047, "lon": -104.996612}, {"type": "node", "id": 655763317, "lat": 39.653413, "lon": -104.9974167}, {"type": "node", "id": 655763322, "lat": 39.6540862, "lon": -104.9974006}, {"type": "node", "id": 655763325, "lat": 39.6541027, "lon": -104.9980604}, {"type": "node", "id": 655763469, "lat": 39.6549288, "lon": -105.0001122}, {"type": "node", "id": 655763473, "lat": 39.6540204, "lon": -104.9989557}, {"type": "node", "id": 655763476, "lat": 39.6540131, "lon": -104.9983469}, {"type": "node", "id": 655763479, "lat": 39.6537559, "lon": -104.9983522}, {"type": "node", "id": 655763508, "lat": 39.6537837, "lon": -105.0006197}, {"type": "node", "id": 655763722, "lat": 39.6546724, "lon": -104.9996556}, {"type": "node", "id": 655763738, "lat": 39.6550825, "lon": -104.9992354}, {"type": "node", "id": 803066016, "lat": 39.6782292, "lon": -105.0115684, "tags": {"name": "Corner Store", "shop": "convenience"}}, {"type": "node", "id": 803066017, "lat": 39.6783939, "lon": -105.0113243, "tags": {"amenity": "fuel", "brand": "Diamond Shamrock", "brand:wikidata": "Q16973722", "name": "Diamond Shamrock"}}, {"type": "node", "id": 803066031, "lat": 39.6784269, "lon": -105.0117923}, {"type": "node", "id": 803066032, "lat": 39.6782948, "lon": -105.0117937}, {"type": "node", "id": 803066033, "lat": 39.6782927, "lon": -105.0114383}, {"type": "node", "id": 803066034, "lat": 39.6783681, "lon": -105.0114383}, {"type": "node", "id": 803066035, "lat": 39.6783681, "lon": -105.011673}, {"type": "node", "id": 803066036, "lat": 39.6784279, "lon": -105.0116716}, {"type": "node", "id": 2074052547, "lat": 39.6790718, "lon": -105.0154077}, {"type": "node", "id": 2074052549, "lat": 39.6790711, "lon": -105.0152033}, {"type": "node", "id": 2074052550, "lat": 39.6789777, "lon": -105.015325}, {"type": "node", "id": 2074052552, "lat": 39.6789773, "lon": -105.0152038}, {"type": "node", "id": 2074052555, "lat": 39.6789651, "lon": -105.0154083}, {"type": "node", "id": 2074052558, "lat": 39.6789648, "lon": -105.0153251}, {"type": "node", "id": 2104365946, "lat": 39.6546727, "lon": -104.9991608, "tags": {"amenity": "community_centre", "name": "Englewood Civic Center"}}, {"type": "node", "id": 2418520108, "lat": 39.6535098, "lon": -104.9984556, "tags": {"amenity": "restaurant", "cuisine": "japanese", "name": "Tokyo Joe's"}}, {"type": "node", "id": 2641387776, "lat": 39.6606324, "lon": -105.0089752}, {"type": "node", "id": 2641387778, "lat": 39.6614181, "lon": -105.0090102}, {"type": "node", "id": 2641387780, "lat": 39.6614044, "lon": -105.0095303}, {"type": "node", "id": 2641387782, "lat": 39.6606187, "lon": -105.0094953}, {"type": "node", "id": 2879229177, "lat": 39.6481495, "lon": -104.9983604}, {"type": "node", "id": 2879229181, "lat": 39.6476807, "lon": -104.998714, "tags": {"amenity": "post_box", "operator": "United States Postal Service", "operator:short": "USPS", "operator:type": "public", "operator:website": "https://www.usps.com", "operator:wikidata": "Q668687", "operator:wikipedia": "en:United States Postal Service", "ref": "USPS", "short_name": "USPS", "source": "Bing"}}, {"type": "node", "id": 2879229188, "lat": 39.6477937, "lon": -104.9983659}, {"type": "node", "id": 2879229189, "lat": 39.6478126, "lon": -104.9988039}, {"type": "node", "id": 2879229194, "lat": 39.6478109, "lon": -104.9985346}, {"type": "node", "id": 2879237102, "lat": 39.6481524, "lon": -104.9988001}, {"type": "node", "id": 2880832150, "lat": 39.645886, "lon": -104.9975213}, {"type": "node", "id": 2880832166, "lat": 39.6475328, "lon": -104.9975073}, {"type": "node", "id": 2880832773, "lat": 39.6475254, "lon": -104.9960388}, {"type": "node", "id": 2880832792, "lat": 39.6458786, "lon": -104.9960528}, {"type": "node", "id": 2880865523, "lat": 39.6537039, "lon": -105.0002673}, {"type": "node", "id": 4168186240, "lat": 39.6545405, "lon": -104.997032}, {"type": "node", "id": 5345398972, "lat": 39.6549293, "lon": -104.9981914}, {"type": "node", "id": 5345398973, "lat": 39.6549228, "lon": -104.9982066}, {"type": "node", "id": 5345398974, "lat": 39.6549128, "lon": -104.998218}, {"type": "node", "id": 5345398975, "lat": 39.6549004, "lon": -104.9982242}, {"type": "node", "id": 5345398976, "lat": 39.654887, "lon": -104.9982247}, {"type": "node", "id": 5345398977, "lat": 39.6548559, "lon": -104.9981596}, {"type": "node", "id": 5345398978, "lat": 39.6548614, "lon": -104.9981455}, {"type": "node", "id": 5345398979, "lat": 39.65487, "lon": -104.9981343}, {"type": "node", "id": 5345398980, "lat": 39.6548809, "lon": -104.9981271}, {"type": "node", "id": 5345398981, "lat": 39.654893, "lon": -104.9981247}, {"type": "node", "id": 5345398982, "lat": 39.6548744, "lon": -104.9982192}, {"type": "node", "id": 5345398983, "lat": 39.6548639, "lon": -104.9982085}, {"type": "node", "id": 5345398984, "lat": 39.6548569, "lon": -104.9981937}, {"type": "node", "id": 5345398985, "lat": 39.6548541, "lon": -104.9981768}, {"type": "node", "id": 5345398986, "lat": 39.654905, "lon": -104.9981273}, {"type": "node", "id": 5345398987, "lat": 39.6549158, "lon": -104.9981346}, {"type": "node", "id": 5345398988, "lat": 39.6549244, "lon": -104.9981459}, {"type": "node", "id": 5345398989, "lat": 39.6549297, "lon": -104.9981601}, {"type": "node", "id": 5345398990, "lat": 39.6549315, "lon": -104.9981758}, {"type": "node", "id": 6773294886, "lat": 39.6674773, "lon": -105.0103572, "tags": {"addr:city": "Englewood", "addr:housenumber": "1900", "addr:postcode": "80110", "addr:state": "CO", "addr:street": "West Yale Avenue", "name": "Earthship Overland", "office": "company"}}, {"type": "node", "id": 7233499134, "lat": 39.6526693, "lon": -104.999927, "tags": {"brand": "CubeSmart", "brand:wikidata": "Q5192200", "name": "CubeSmart", "shop": "storage_rental"}}, {"type": "node", "id": 7233499135, "lat": 39.6535301, "lon": -104.998763, "tags": {"alt_name": "Jamba Juice", "amenity": "fast_food", "brand": "Jamba", "brand:wikidata": "Q3088784", "cuisine": "juice", "fixme:atp": "no ATP match, check if still exists", "name": "Jamba", "takeaway": "yes"}}, {"type": "node", "id": 7233499136, "lat": 39.6535386, "lon": -104.99859, "tags": {"amenity": "clinic", "healthcare": "clinic", "name": "AFC Urgent Care", "operator": "AFC Urgent Care", "operator:wikidata": "Q110552174", "urgent_care": "yes"}}, {"type": "node", "id": 7245891683, "lat": 39.6563755, "lon": -104.9988461, "tags": {"amenity": "parking_entrance"}}, {"type": "node", "id": 7245910968, "lat": 39.654637, "lon": -104.9986634}, {"type": "node", "id": 7245910969, "lat": 39.6550818, "lon": -104.999148}, {"type": "node", "id": 7245910970, "lat": 39.6547522, "lon": -104.9996603}, {"type": "node", "id": 7245910971, "lat": 39.6543119, "lon": -104.9990817}, {"type": "node", "id": 7246587811, "lat": 39.6544193, "lon": -104.9994632}, {"type": "node", "id": 7246587812, "lat": 39.6544724, "lon": -104.9993939}, {"type": "node", "id": 7246587813, "lat": 39.6545162, "lon": -104.9994506}, {"type": "node", "id": 7246587814, "lat": 39.6544632, "lon": -104.9995199}, {"type": "node", "id": 7246587816, "lat": 39.6544952, "lon": -104.9994234, "tags": {"entrance": "yes"}}, {"type": "node", "id": 7246587817, "lat": 39.654444, "lon": -104.9994951}, {"type": "node", "id": 7246587858, "lat": 39.6568216, "lon": -104.9979998}, {"type": "node", "id": 7246587859, "lat": 39.6568826, "lon": -104.9979835}, {"type": "node", "id": 7246587860, "lat": 39.6568686, "lon": -104.9979242}, {"type": "node", "id": 7246587861, "lat": 39.6570424, "lon": -104.9978551}, {"type": "node", "id": 7246587862, "lat": 39.6570553, "lon": -104.9979099}, {"type": "node", "id": 7246587863, "lat": 39.6572016, "lon": -104.9978517}, {"type": "node", "id": 7246587864, "lat": 39.6572713, "lon": -104.9978835}, {"type": "node", "id": 7246587865, "lat": 39.6572938, "lon": -104.9979818}, {"type": "node", "id": 7246587866, "lat": 39.6576479, "lon": -104.997845}, {"type": "node", "id": 7246587867, "lat": 39.6576609, "lon": -104.9979015}, {"type": "node", "id": 7246587868, "lat": 39.6577899, "lon": -104.9978516}, {"type": "node", "id": 7246587869, "lat": 39.6578277, "lon": -104.9978615}, {"type": "node", "id": 7246587870, "lat": 39.6578627, "lon": -104.9979017}, {"type": "node", "id": 7246587871, "lat": 39.657879, "lon": -104.9979752}, {"type": "node", "id": 7246587872, "lat": 39.6581633, "lon": -104.9978685}, {"type": "node", "id": 7246587873, "lat": 39.658354, "lon": -104.9979199}, {"type": "node", "id": 7246587874, "lat": 39.6583973, "lon": -104.9979259}, {"type": "node", "id": 7246587875, "lat": 39.658289, "lon": -104.9986942}, {"type": "node", "id": 7246587876, "lat": 39.656869, "lon": -104.9992293}, {"type": "node", "id": 7246587877, "lat": 39.6568557, "lon": -104.9991701}, {"type": "node", "id": 7310629637, "lat": 39.6585735, "lon": -105.0007776}, {"type": "node", "id": 7310629638, "lat": 39.6586814, "lon": -105.0007769}, {"type": "node", "id": 7310629639, "lat": 39.6586808, "lon": -105.0006213}, {"type": "node", "id": 7310629640, "lat": 39.6587128, "lon": -105.0006211}, {"type": "node", "id": 7310629641, "lat": 39.6587118, "lon": -105.0003502}, {"type": "node", "id": 7310629642, "lat": 39.6585718, "lon": -105.0003512}, {"type": "node", "id": 7310629801, "lat": 39.6551525, "lon": -105.0031862}, {"type": "node", "id": 7310629802, "lat": 39.6553134, "lon": -105.0028035}, {"type": "node", "id": 7310629803, "lat": 39.65573, "lon": -105.0030988}, {"type": "node", "id": 7310629804, "lat": 39.6556249, "lon": -105.0033488}, {"type": "node", "id": 7310629805, "lat": 39.6555798, "lon": -105.0033169}, {"type": "node", "id": 7310629806, "lat": 39.655524, "lon": -105.0034497}, {"type": "node", "id": 7310630082, "lat": 39.6536994, "lon": -105.0003224}, {"type": "node", "id": 7310630083, "lat": 39.6537121, "lon": -105.000319}, {"type": "node", "id": 7310630499, "lat": 39.64714, "lon": -105.0027266}, {"type": "node", "id": 7310630500, "lat": 39.6472965, "lon": -105.0027266}, {"type": "node", "id": 7310630501, "lat": 39.6472965, "lon": -105.0020882}, {"type": "node", "id": 7310630502, "lat": 39.6471399, "lon": -105.0020882}, {"type": "node", "id": 8114010673, "lat": 39.6582774, "lon": -105.004239, "tags": {"addr:housenumber": "3155", "addr:street": "South Platte River Drive", "brand": "Goodwill", "brand:wikidata": "Q5583655", "name": "Goodwill Outlet World", "opening_hours": "Mo-Sa 08:00-20:00; Su 09:00-18:00", "operator": "Goodwill of Colorado", "operator:wikidata": "Q109727757", "second_hand": "yes", "shop": "charity", "website": "https://www.goodwilldenver.org"}}, {"type": "node", "id": 9328143019, "lat": 39.6541543, "lon": -104.9960168}, {"type": "node", "id": 9713977145, "lat": 39.6638879, "lon": -105.009057, "tags": {"addr:city": "Englewood", "addr:housenumber": "2900", "addr:postcode": "80110", "addr:state": "CO", "addr:street": "South Shoshone Street", "addr:unit": "Ste 109", "name": "Road Runner Moving & Storage LLC", "office": "moving_company", "opening_hours": "Mo-Su 09:00-17:00", "payment:american_express": "yes", "payment:cash": "yes", "payment:discover_card": "yes", "payment:mastercard": "yes", "payment:visa": "yes", "phone": "+1-303-232-1106", "website": "https://roadrunnermoversllc.com"}}, {"type": "node", "id": 10921777415, "lat": 39.6540687, "lon": -104.9990165, "tags": {"amenity": "parking_entrance"}}, {"type": "node", "id": 10942521046, "lat": 39.6565963, "lon": -104.9992433, "tags": {"amenity": "waste_basket"}}, {"type": "node", "id": 10942527500, "lat": 39.6552251, "lon": -104.9995957, "tags": {"amenity": "bench"}}, {"type": "node", "id": 10942527501, "lat": 39.6552527, "lon": -104.9996201, "tags": {"amenity": "waste_basket"}}, {"type": "node", "id": 11336931133, "lat": 39.6492434, "lon": -105.0007842, "tags": {"addr:city": "englewood", "addr:housenumber": "3701", "addr:postcode": "80111", "addr:state": "CO", "addr:street": "South Kalamath Street", "name": "The Hub Motorsports", "service:vehicle:turbo": "yes", "shop": "car_repair"}}, {"type": "node", "id": 11336931134, "lat": 39.6490131, "lon": -105.0010233, "tags": {"addr:city": "Englewood", "addr:housenumber": "3701", "addr:postcode": "80111", "addr:state": "CO", "addr:street": "South Kalamath Street", "amenity": "taxi", "name": "Bakken Motorcars", "taxi_vehicle": "auto_rickshaw"}}, {"type": "node", "id": 11336931135, "lat": 39.6473994, "lon": -105.0003741, "tags": {"name": "Farland Resoration", "shop": "car_repair"}}, {"type": "node", "id": 12115681353, "lat": 39.6567745, "lon": -105.0132432, "tags": {"addr:city": "Englewood", "addr:housenumber": "2331", "addr:postcode": "80110", "addr:state": "CO", "addr:street": "W Hampden Ave", "addr:unit": "161", "name": "A-One AutoPaintWerks", "opening_hours": "\"By appointment\"", "phone": "+1 303-710-1129", "service:vehicle:detailing": "yes", "service:vehicle:painting": "yes", "shop": "car_repair"}}, {"type": "node", "id": 12185313574, "lat": 39.6550036, "lon": -104.9987777, "tags": {"amenity": "polling_station", "location": "outdoor", "opening_hours": "24/7", "polling_station": "ballot_box"}}, {"type": "node", "id": 12557313207, "lat": 39.6524738, "lon": -104.9987394, "tags": {"addr:city": "Englewood", "addr:housenumber": "3550", "addr:postcode": "80110", "addr:state": "CO", "addr:street": "S Jason St", "amenity": "veterinary", "name": "VRCC Veterinary Specialty & Emergency Hospital", "opening_hours": "Mo-Fr 07:00AM-5:00PM", "phone": "+1-303-874-7387", "website": "https://www.vrcc.com/site/home"}}, {"type": "node", "id": 12995442203, "lat": 39.6567798, "lon": -105.0052032, "tags": {"amenity": "bicycle_parking", "bicycle_parking": "stands", "capacity": "2"}}, {"type": "way", "id": 49939251, "nodes": [634582901, 634582902, 634582906, 634582905, 634582901], "tags": {"addr:city": "Englewood", "addr:housenumber": "900", "addr:postcode": "80110-2117", "addr:state": "CO", "addr:street": "West Hampden", "amenity": "fast_food", "brand": "Burger King", "brand:wikidata": "Q177054", "building": "retail", "cuisine": "burger", "delivery": "yes", "drive_through": "yes", "internet_access": "wlan", "name": "Burger King", "opening_hours": "06:00-20:00", "phone": "+1 303-761-3128", "ref": "948", "source": "Yahoo", "takeaway": "yes", "website": "https://www.bk.com/store-locator/store/restaurant_483"}}, {"type": "way", "id": 49939252, "nodes": [634582911, 634582912, 634582909, 634582921, 634582922, 634582904, 634582908, 634582907, 634582911], "tags": {"brand": "Big O Tires", "brand:wikidata": "Q4906085", "building": "retail", "name": "Big O Tires", "shop": "tyres", "source": "Yahoo"}}, {"type": "way", "id": 50290882, "nodes": [655763722, 7246587813, 7246587816, 7246587812, 639036179, 7245910971, 7245910968, 639036180, 7245910969, 655763738, 7245910970, 655763722], "tags": {"amenity": "courthouse", "building": "yes"}}, {"type": "way", "id": 50290889, "nodes": [639036212, 639036213, 639036214, 639036215, 639036216, 639036217, 639036212], "tags": {"addr:city": "Englewood", "addr:housenumber": "895", "addr:postcode": "80110", "addr:state": "CO", "addr:street": "West Hampden Avenue", "brand": "Office Depot", "brand:wikidata": "Q1337797", "building": "retail", "fixme:atp": "check if location still exists; no corresponding ATP location found", "name": "Office Depot", "opening_hours": "Mo-Fr 08:00-21:00; Sa 09:00-20:00; Su 10:00-18:00", "shop": "stationery"}}, {"type": "way", "id": 50290901, "nodes": [639036292, 2880865523, 7310630083, 7310630082, 639036293, 639036294, 639036295, 639036296, 639036292], "tags": {"amenity": "restaurant", "brand": "Chuck E. Cheese's", "brand:wikidata": "Q2438391", "building": "yes", "check_date": "2020-03-19", "cuisine": "pizza", "leisure": "amusement_arcade", "name": "Chuck E. Cheese's"}}, {"type": "way", "id": 51375634, "nodes": [655763234, 7246587874, 7246587873, 655763241, 7246587872, 7246587871, 7246587870, 7246587869, 7246587868, 7246587867, 7246587866, 7246587865, 7246587864, 7246587863, 7246587862, 7246587861, 7246587860, 7246587859, 655763246, 7246587858, 655763251, 7246587877, 7246587876, 7246587875, 655763234], "tags": {"addr:city": "Englewood", "addr:housenumber": "899", "addr:postcode": "80110", "addr:state": "CO", "addr:street": "West Floyd Avenue", "amenity": "parking", "capacity": "910", "name": "Englewood Station Park-n-Ride", "network": "RTD", "operator": "Regional Transportation District", "park_ride": "yes", "parking": "surface", "surface": "paved"}}, {"type": "way", "id": 51375646, "nodes": [655763288, 655763292, 655763296, 4168186240, 655763300, 9328143019, 655763305, 655763309, 655763313, 655763317, 655763322, 655763325, 655763288], "tags": {"amenity": "parking"}}, {"type": "way", "id": 51375679, "nodes": [655763469, 7246587814, 7246587817, 7246587811, 10921777415, 655763473, 655763476, 655763479, 655763508, 655763469], "tags": {"amenity": "parking", "building": "parking", "building:levels": "2", "parking": "multi-storey"}}, {"type": "way", "id": 66209510, "nodes": [803066031, 803066032, 803066033, 803066034, 803066035, 803066036, 803066031], "tags": {"amenity": "parking"}}, {"type": "way", "id": 197110165, "nodes": [2074052552, 2074052549, 2074052547, 2074052555, 2074052558, 2074052550, 2074052552], "tags": {"building": "yes", "shop": "car_repair", "source": "Bing"}}, {"type": "way", "id": 258823307, "nodes": [2641387776, 2641387778, 2641387780, 2641387782, 2641387776], "tags": {"addr:city": "Englewood", "addr:housenumber": "1895", "addr:postcode": "80110", "addr:state": "CO", "addr:street": "West Dartmouth Avenue", "building": "industrial", "name": "Fasteners Inc", "shop": "trade", "trade": "Fastener_Supplier"}}, {"type": "way", "id": 284167295, "nodes": [2879237102, 2879229189, 2879229194, 2879229188, 2879229177, 2879237102], "tags": {"amenity": "post_office", "building": "public", "ele": "1620", "gnis:feature_id": "2124765", "name": "Englewood Post Office", "operator": "United States Postal Service", "operator:short": "USPS", "operator:type": "public", "operator:website": "https://www.usps.com", "operator:wikidata": "Q668687", "operator:wikipedia": "en:United States Postal Service", "short_name": "USPS", "source": "Bing"}}, {"type": "way", "id": 284338227, "nodes": [2880832166, 2880832773, 2880832792, 2880832150, 2880832166], "tags": {"amenity": "school", "source": "Bing"}}, {"type": "way", "id": 553812799, "nodes": [5345398986, 5345398987, 5345398988, 5345398989, 5345398990, 5345398972, 5345398973, 5345398974, 5345398975, 5345398976, 5345398982, 5345398983, 5345398984, 5345398985, 5345398977, 5345398978, 5345398979, 5345398980, 5345398981, 5345398986], "tags": {"amenity": "fountain"}}, {"type": "way", "id": 782842451, "nodes": [7310629637, 7310629638, 7310629639, 7310629640, 7310629641, 7310629642, 7310629637], "tags": {"addr:city": "Englewood", "addr:housenumber": "3237", "addr:postcode": "80110", "addr:state": "CO", "addr:street": "South Santa Fe Drive Frontage Road", "brand": "Acura;Honda;Audi;Volkswagen;BMW;Lexus;Toyota;Mercedes-Benz;Porsche;Volvo;Subaru", "building": "yes", "email": "info@rallyecoachworks.com", "fax": "+1-303-658-0746", "name": "Rallye Coach Works", "opening_hours": "Mo-Fr 08:00-17:00", "operator": "Tony Martins", "phone": "+1-303-761-4401", "service:vehicle:body_repair": "yes", "service:vehicle:painting": "yes", "shop": "car_repair", "website": "https://rallyecoachworks.com"}}, {"type": "way", "id": 782842476, "nodes": [7310629801, 7310629802, 7310629803, 7310629804, 7310629805, 7310629806, 7310629801], "tags": {"amenity": "parking", "building": "parking", "parking": "multi-storey"}}, {"type": "way", "id": 782842558, "nodes": [7310630499, 7310630500, 7310630501, 7310630502, 7310630499], "tags": {"addr:city": "Englewood", "addr:housenumber": "1231", "addr:postcode": "80110", "addr:state": "CO", "addr:street": "West Lehigh Place", "building": "yes", "name": "Z Auto Service", "phone": "+1-303-781-2855", "shop": "car_repair", "website": "https://www.zautoservice.com/"}}]}