{"version": 0.6, "generator": "Overpass API 0.7.62.8 e802775f", "osm3s": {"timestamp_osm_base": "2025-12-08T21:55:30Z", "copyright": "The data included in this document is from www.openstreetmap.org. The data is made available under ODbL."}, "elements": [{"type": "node", "id": 357930335, "lat": 47.7089057, "lon": -104.1566031, "tags": {"amenity": "school", "ele": "591", "gnis:feature_id": "776132", "name": "Saint Philomena School"}}, {"type": "node", "id": 357962537, "lat": 47.7183745, "lon": -104.1557981, "tags": {"amenity": "post_office", "ele": "590", "gnis:feature_id": "1714942", "name": "Sidney Post Office", "operator": "United States Postal Service", "operator:short": "USPS", "operator:type": "public", "operator:wikidata": "Q668687"}}, {"type": "node", "id": 357962667, "lat": 47.7166644, "lon": -104.156285, "tags": {"amenity": "school", "ele": "594", "gnis:feature_id": "1715068", "name": "Liberty Christian School"}}, {"type": "node", "id": 357962669, "lat": 47.7127819, "lon": -104.1727911}, {"type": "node", "id": 357962672, "lat": 47.7119435, "lon": -104.1609469}, {"type": "node", "id": 357962675, "lat": 47.7036721, "lon": -104.15761}, {"type": "node", "id": 357962686, "lat": 47.7122178, "lon": -104.1542964}, {"type": "node", "id": 357962803, "lat": 47.7139058, "lon": -104.1518807, "tags": {"amenity": "place_of_worship", "ele": "591", "gnis:feature_id": "1715269", "name": "Assembly of God Church", "religion": "christian"}}, {"type": "node", "id": 357962807, "lat": 47.7141836, "lon": -104.1538252, "tags": {"amenity": "place_of_worship", "ele": "594", "gnis:feature_id": "1715270", "name": "Faith Alliance Church", "religion": "christian"}}, {"type": "node", "id": 357962813, "lat": 47.7150168, "lon": -104.1629923, "tags": {"amenity": "place_of_worship", "denomination": "lutheran", "ele": "596", "gnis:feature_id": "1715271", "name": "Trinity Lutheran Church", "religion": "christian"}}, {"type": "node", "id": 357962821, "lat": 47.7085609, "lon": -104.1637635, "tags": {"amenity": "place_of_worship", "ele": "592", "gnis:feature_id": "1715272", "name": "Church of Nazarene", "religion": "christian"}}, {"type": "node", "id": 357962824, "lat": 47.7166836, "lon": -104.1627145, "tags": {"amenity": "place_of_worship", "denomination": "lutheran", "ele": "595", "gnis:feature_id": "1715273", "name": "Pella Lutheran Church", "religion": "christian"}}, {"type": "node", "id": 357962826, "lat": 47.7175169, "lon": -104.1613256, "tags": {"amenity": "place_of_worship", "ele": "594", "gnis:feature_id": "1715274", "name": "Ebenezer Congregational Church", "religion": "christian"}}, {"type": "node", "id": 357962830, "lat": 47.7136279, "lon": -104.169937, "tags": {"amenity": "place_of_worship", "ele": "596", "gnis:feature_id": "1715276", "name": "Peoples Congregational Church", "religion": "christian"}}, {"type": "node", "id": 357962832, "lat": 47.7139057, "lon": -104.1679925, "tags": {"amenity": "place_of_worship", "ele": "596", "gnis:feature_id": "1715277", "name": "Church of Christ", "religion": "christian"}}, {"type": "node", "id": 357962839, "lat": 47.7139058, "lon": -104.1457694, "tags": {"amenity": "place_of_worship", "denomination": "baptist", "ele": "590", "gnis:feature_id": "1715280", "name": "Fellowship Baptist Church", "religion": "christian"}}, {"type": "node", "id": 357962843, "lat": 47.7133502, "lon": -104.1549364, "tags": {"amenity": "place_of_worship", "denomination": "methodist", "ele": "591", "gnis:feature_id": "1715281", "name": "Lonsdale Methodist Church", "religion": "christian"}}, {"type": "node", "id": 357962849, "lat": 47.7083502, "lon": -104.1516029, "tags": {"amenity": "place_of_worship", "gnis:feature_id": "1715282", "name": "Baha'i Faith Church", "religion": "bahai"}}, {"type": "node", "id": 357962855, "lat": 47.7108501, "lon": -104.1596589, "tags": {"amenity": "place_of_worship", "denomination": "baptist", "ele": "590", "gnis:feature_id": "1715283", "name": "Bible Baptist Church", "religion": "christian"}}, {"type": "node", "id": 357962869, "lat": 47.7043638, "lon": -104.154661, "tags": {"amenity": "place_of_worship", "ele": "592", "gnis:feature_id": "1715288", "name": "Carpenters Church", "religion": "christian"}}, {"type": "node", "id": 357962876, "lat": 47.7180725, "lon": -104.1532697, "tags": {"amenity": "place_of_worship", "denomination": "lutheran", "ele": "590", "gnis:feature_id": "1715290", "name": "Shepherd of the Valley Lutheran Church", "religion": "christian"}}, {"type": "node", "id": 357962947, "lat": 47.7145881, "lon": -104.1741063}, {"type": "node", "id": 366093144, "lat": 47.7133502, "lon": -104.1577143, "tags": {"addr:state": "MT", "amenity": "fire_station", "ele": "593", "gnis:feature_id": "1715020", "name": "Sidney Fire Department", "source": "USGS Geonames"}}, {"type": "node", "id": 366093480, "lat": 47.7185995, "lon": -104.1588124, "tags": {"addr:state": "MT", "amenity": "police", "ele": "595", "gnis:feature_id": "1715021", "name": "Sidney Police Department", "source": "USGS Geonames"}}, {"type": "node", "id": 366093481, "lat": 47.7182695, "lon": -104.1588207, "tags": {"addr:state": "MT", "amenity": "police", "ele": "595", "gnis:feature_id": "1715019", "name": "Richland County Sheriff Department", "source": "USGS Geonames"}}, {"type": "node", "id": 2717992007, "lat": 47.7046862, "lon": -104.1654747}, {"type": "node", "id": 2717992009, "lat": 47.7047322, "lon": -104.165887, "tags": {"amenity": "fuel", "brand": "Cenex", "brand:wikidata": "Q5011381", "name": "Cenex"}}, {"type": "node", "id": 2717992011, "lat": 47.7047711, "lon": -104.1657572}, {"type": "node", "id": 2717992013, "lat": 47.7048137, "lon": -104.1653901}, {"type": "node", "id": 2717992020, "lat": 47.7048986, "lon": -104.1656726}, {"type": "node", "id": 2718108669, "lat": 47.715722, "lon": -104.1562867}, {"type": "node", "id": 2718108675, "lat": 47.7158338, "lon": -104.1566603}, {"type": "node", "id": 2718108677, "lat": 47.715842, "lon": -104.1562073}, {"type": "node", "id": 2718108693, "lat": 47.715951, "lon": -104.1565713}, {"type": "node", "id": 2718108694, "lat": 47.7159539, "lon": -104.1565809}, {"type": "node", "id": 3214171451, "lat": 47.7036641, "lon": -104.1552993}, {"type": "node", "id": 3214171452, "lat": 47.7056162, "lon": -104.1553682}, {"type": "node", "id": 3214171453, "lat": 47.7056201, "lon": -104.1546789}, {"type": "node", "id": 3214172170, "lat": 47.7066328, "lon": -104.1576659}, {"type": "node", "id": 3214172179, "lat": 47.7070271, "lon": -104.1547076}, {"type": "node", "id": 3214172180, "lat": 47.7070967, "lon": -104.1547191}, {"type": "node", "id": 3214172181, "lat": 47.7071315, "lon": -104.1547938}, {"type": "node", "id": 3214172182, "lat": 47.7071508, "lon": -104.1573327}, {"type": "node", "id": 3358108649, "lat": 47.7148111, "lon": -104.1545569, "tags": {"addr:city": "Sidney", "addr:housenumber": "220", "addr:postcode": "59270", "addr:state": "MT", "addr:street": "East Main Street", "name": "Action Auto", "phone": "+1-877-483-2960", "shop": "car", "website": "https://www.actionautochryslerdodgejeep.com/"}}, {"type": "node", "id": 4312137419, "lat": 47.7144612, "lon": -104.1741083}, {"type": "node", "id": 4312137420, "lat": 47.7144545, "lon": -104.1717093}, {"type": "node", "id": 4312137421, "lat": 47.7151919, "lon": -104.1717093}, {"type": "node", "id": 4312137422, "lat": 47.7160022, "lon": -104.1719857}, {"type": "node", "id": 4312137423, "lat": 47.7162945, "lon": -104.1719956}, {"type": "node", "id": 4312137424, "lat": 47.7162979, "lon": -104.1724105}, {"type": "node", "id": 4312137425, "lat": 47.7169975, "lon": -104.1724176}, {"type": "node", "id": 4312137426, "lat": 47.7179874, "lon": -104.1724281}, {"type": "node", "id": 4312137427, "lat": 47.7179928, "lon": -104.174052}, {"type": "node", "id": 4312137452, "lat": 47.715581, "lon": -104.1725932}, {"type": "node", "id": 4312137453, "lat": 47.7156309, "lon": -104.172666}, {"type": "node", "id": 4312137454, "lat": 47.7157411, "lon": -104.1726659}, {"type": "node", "id": 4312214784, "lat": 47.7146073, "lon": -104.1725619}, {"type": "node", "id": 4312214785, "lat": 47.7147619, "lon": -104.1723189}, {"type": "node", "id": 4312214786, "lat": 47.7146043, "lon": -104.1720892}, {"type": "node", "id": 4312214787, "lat": 47.7148124, "lon": -104.1717887}, {"type": "node", "id": 4312214788, "lat": 47.7148094, "lon": -104.1717401}, {"type": "node", "id": 4312215189, "lat": 47.714601, "lon": -104.1717215}, {"type": "node", "id": 4312215190, "lat": 47.7144551, "lon": -104.17193}, {"type": "node", "id": 4312215191, "lat": 47.7144563, "lon": -104.1723601}, {"type": "node", "id": 4312215203, "lat": 47.7156672, "lon": -104.1718714}, {"type": "node", "id": 4312215204, "lat": 47.7154192, "lon": -104.1723123}, {"type": "node", "id": 4312215205, "lat": 47.7162991, "lon": -104.1726702}, {"type": "node", "id": 4317709092, "lat": 47.7020577, "lon": -104.1659464, "tags": {"amenity": "fast_food", "brand": "McDonald's", "brand:wikidata": "Q38076", "cuisine": "burger", "name": "McDonald's", "takeaway": "yes", "website": "https://www.mcdonalds.com/us/en-us/location/mt/sidney/1550-south-central-ave/6524.html"}}, {"type": "node", "id": 4317709094, "lat": 47.7016659, "lon": -104.1655716}, {"type": "node", "id": 4317709095, "lat": 47.7015607, "lon": -104.1655377}, {"type": "node", "id": 4317709096, "lat": 47.7015442, "lon": -104.1656507}, {"type": "node", "id": 4317709097, "lat": 47.7015354, "lon": -104.1656479}, {"type": "node", "id": 4317709098, "lat": 47.7015288, "lon": -104.1656931}, {"type": "node", "id": 4317709099, "lat": 47.7015398, "lon": -104.1657016}, {"type": "node", "id": 4317709100, "lat": 47.701521, "lon": -104.1658306}, {"type": "node", "id": 4317709101, "lat": 47.7016234, "lon": -104.165863}, {"type": "node", "id": 4317709102, "lat": 47.7039499, "lon": -104.1643514, "tags": {"alt_name": "ProBuild", "name": "Pro Build", "shop": "hardware"}}, {"type": "node", "id": 4317709103, "lat": 47.7053102, "lon": -104.1663932, "tags": {"name": "Shopko", "shop": "department_store"}}, {"type": "node", "id": 4317709104, "lat": 47.7057081, "lon": -104.1650664, "tags": {"amenity": "casino", "name": "Lucky Lils"}}, {"type": "node", "id": 4317709105, "lat": 47.70693, "lon": -104.1639762, "tags": {"name": "Video Hot Spot", "shop": "video"}}, {"type": "node", "id": 4317709106, "lat": 47.7086431, "lon": -104.1580146}, {"type": "node", "id": 4317709107, "lat": 47.7082603, "lon": -104.1582577}, {"type": "node", "id": 4317709108, "lat": 47.7080051, "lon": -104.1573707}, {"type": "node", "id": 4317709109, "lat": 47.708388, "lon": -104.1571276}, {"type": "node", "id": 4317709110, "lat": 47.7085494, "lon": -104.1571573}, {"type": "node", "id": 4317709111, "lat": 47.7084339, "lon": -104.1567586}, {"type": "node", "id": 4317709112, "lat": 47.7088083, "lon": -104.1565191}, {"type": "node", "id": 4317709113, "lat": 47.7089238, "lon": -104.1569179}, {"type": "node", "id": 4317709123, "lat": 47.7098339, "lon": -104.1601796}, {"type": "node", "id": 4317709124, "lat": 47.7100094, "lon": -104.161061, "tags": {"addr:city": "Sidney", "addr:housenumber": "615", "addr:postcode": "59270-4936", "addr:state": "MT", "addr:street": "South Central Avenue", "alt_name": "Dairy Queen", "amenity": "fast_food", "brand": "DQ Grill & Chill", "brand:wikidata": "Q1141226", "cuisine": "ice_cream;burger", "name": "DQ Grill & Chill", "phone": "+1 406-433-1075", "takeaway": "yes", "website": "https://www.dairyqueen.com/locations/mt/sidney/615-s-central-ave/5016"}}, {"type": "node", "id": 4317709125, "lat": 47.7095244, "lon": -104.1612462, "tags": {"name": "Gem City Motors", "shop": "car"}}, {"type": "node", "id": 4317709127, "lat": 47.716733, "lon": -104.1577152, "tags": {"alt_name": "South 40", "amenity": "restaurant", "delivery": "no", "level": "-1", "name": "South 40 Restaurant, Lounge & Casino", "takeaway": "no"}}, {"type": "node", "id": 4317709130, "lat": 47.71305, "lon": -104.1537338}, {"type": "node", "id": 4317709131, "lat": 47.7134042, "lon": -104.154891}, {"type": "node", "id": 4317709132, "lat": 47.7125721, "lon": -104.1554536}, {"type": "node", "id": 4317709133, "lat": 47.7155231, "lon": -104.159081, "tags": {"amenity": "bank", "brand": "Wells Fargo", "brand:wikidata": "Q744149", "name": "Wells Fargo"}}, {"type": "node", "id": 4317709134, "lat": 47.7176314, "lon": -104.157706, "tags": {"addr:city": "Sidney", "addr:housenumber": "203", "addr:postcode": "59270", "addr:state": "MT", "addr:street": "Second Street Northwest", "brand:wikidata": "Q3146662", "name": "Reese & Ray's IGA", "phone": "+1 406-482-3737", "shop": "supermarket"}}, {"type": "node", "id": 4317709135, "lat": 47.7141994, "lon": -104.152636, "tags": {"alt_name": "White Drug", "amenity": "pharmacy", "healthcare": "pharmacy", "name": "White Drug Pharmacy"}}, {"type": "node", "id": 4317709136, "lat": 47.7111258, "lon": -104.145686, "tags": {"name": "Sidney Red E Mix", "office": "concrete_construction"}}, {"type": "node", "id": 4317709137, "lat": 47.7143505, "lon": -104.1548661, "tags": {"name": "Eagle Country Ford", "shop": "car"}}, {"type": "node", "id": 4317709138, "lat": 47.7147693, "lon": -104.156134, "tags": {"brand": "JCPenney", "brand:wikidata": "Q920037", "name": "JCPenney", "official_name": "J.C. Penney Company", "shop": "department_store"}}, {"type": "node", "id": 4317709197, "lat": 47.7148448, "lon": -104.1578725, "tags": {"name": "Johnson Hardware & Furniture", "shop": "hardware"}}, {"type": "node", "id": 4317709204, "lat": 47.7151164, "lon": -104.1576459, "tags": {"amenity": "bank", "name": "Stockman Bank"}}, {"type": "node", "id": 4317709205, "lat": 47.7139032, "lon": -104.158421, "tags": {"amenity": "cinema", "name": "Centre Theatre", "wikidata": "Q42903236"}}, {"type": "node", "id": 4317709206, "lat": 47.7087275, "lon": -104.161253, "tags": {"amenity": "fast_food", "brand": "Taco John's", "brand:wikidata": "Q7673962", "cuisine": "mexican", "name": "Taco John's", "takeaway": "yes"}}, {"type": "node", "id": 4317709207, "lat": 47.706717, "lon": -104.1625854, "tags": {"amenity": "fuel"}}, {"type": "node", "id": 4317709208, "lat": 47.706619, "lon": -104.162358, "tags": {"amenity": "fuel", "brand": "Exxon", "brand:wikidata": "Q109675651", "name": "Exxon"}}, {"type": "node", "id": 4317709209, "lat": 47.7064679, "lon": -104.1622356, "tags": {"amenity": "car_wash"}}, {"type": "node", "id": 4317709210, "lat": 47.7198698, "lon": -104.1561626, "tags": {"name": "Reynolds Market", "shop": "supermarket"}}, {"type": "node", "id": 4911045964, "lat": 47.7096568, "lon": -104.1630767}, {"type": "node", "id": 6432771142, "lat": 47.7091378, "lon": -104.1613471}, {"type": "node", "id": 6432771143, "lat": 47.7092122, "lon": -104.1616141}, {"type": "node", "id": 6432771144, "lat": 47.7094916, "lon": -104.161812}, {"type": "node", "id": 6432771145, "lat": 47.7095801, "lon": -104.1621267}, {"type": "node", "id": 6432771146, "lat": 47.7093755, "lon": -104.1622525}, {"type": "node", "id": 6432771147, "lat": 47.7093388, "lon": -104.1621208}, {"type": "node", "id": 6432771148, "lat": 47.7087709, "lon": -104.1624701}, {"type": "node", "id": 6432771149, "lat": 47.7085575, "lon": -104.1617041}, {"type": "node", "id": 6432771150, "lat": 47.7101003, "lon": -104.1630309}, {"type": "node", "id": 6432771151, "lat": 47.7098274, "lon": -104.1620018}, {"type": "node", "id": 6432771152, "lat": 47.7093428, "lon": -104.1622856}, {"type": "node", "id": 6432771153, "lat": 47.7093863, "lon": -104.1631083}, {"type": "node", "id": 6432771154, "lat": 47.7087447, "lon": -104.1585806}, {"type": "node", "id": 6432771155, "lat": 47.7086706, "lon": -104.1583317}, {"type": "node", "id": 6432771156, "lat": 47.7083654, "lon": -104.1585322}, {"type": "node", "id": 6432771157, "lat": 47.7084394, "lon": -104.1587811}, {"type": "node", "id": 7418271387, "lat": 47.721256, "lon": -104.1543037, "tags": {"addr:city": "Sidney", "addr:housenumber": "520", "addr:postcode": "59270", "addr:state": "MT", "addr:street": "North Central Avenue", "amenity": "restaurant", "cuisine": "steak_house", "name": "Rodiron grill and casino", "opening_hours": "Mo-Th 03:00-21:00; Fr-Sa 11:00-22:00; Su 11:00-21:00", "phone": "+1-406-433-3300"}}, {"type": "node", "id": 8162267473, "lat": 47.7039689, "lon": -104.160503}, {"type": "node", "id": 8162267474, "lat": 47.7039725, "lon": -104.1596769}, {"type": "node", "id": 8162267475, "lat": 47.7035934, "lon": -104.1596501}, {"type": "node", "id": 8162267476, "lat": 47.703597, "lon": -104.160487}, {"type": "node", "id": 9113290911, "lat": 47.7203064, "lon": -104.1544565}, {"type": "node", "id": 9113290912, "lat": 47.720349, "lon": -104.1546143}, {"type": "node", "id": 9113290913, "lat": 47.7200853, "lon": -104.1547601}, {"type": "node", "id": 9113290914, "lat": 47.7200419, "lon": -104.1545938}, {"type": "node", "id": 9113290915, "lat": 47.720081, "lon": -104.154585}, {"type": "node", "id": 9113290916, "lat": 47.7200773, "lon": -104.1545729}, {"type": "node", "id": 9390992668, "lat": 47.712677, "lon": -104.1591567}, {"type": "node", "id": 9390992669, "lat": 47.712741, "lon": -104.1593459}, {"type": "node", "id": 9390992670, "lat": 47.7126385, "lon": -104.1594225}, {"type": "node", "id": 9390992671, "lat": 47.7125745, "lon": -104.1592333}, {"type": "node", "id": 9953779352, "lat": 47.7148566, "lon": -104.1561917}, {"type": "node", "id": 9953779353, "lat": 47.7145988, "lon": -104.1563552}, {"type": "node", "id": 9953779354, "lat": 47.7146313, "lon": -104.1564683}, {"type": "node", "id": 9953779355, "lat": 47.7148891, "lon": -104.1563047}, {"type": "node", "id": 9954029900, "lat": 47.715117, "lon": -104.1571006}, {"type": "node", "id": 9954029901, "lat": 47.7150614, "lon": -104.1568905}, {"type": "node", "id": 9954029902, "lat": 47.7148937, "lon": -104.1569886}, {"type": "node", "id": 9954029903, "lat": 47.7149493, "lon": -104.1571987}, {"type": "node", "id": 9954037574, "lat": 47.7135101, "lon": -104.1579742}, {"type": "node", "id": 9954037575, "lat": 47.7134732, "lon": -104.1578575}, {"type": "node", "id": 9954037576, "lat": 47.7134479, "lon": -104.1578752}, {"type": "node", "id": 9954037577, "lat": 47.7134353, "lon": -104.1578355}, {"type": "node", "id": 9954037578, "lat": 47.7133456, "lon": -104.1578982}, {"type": "node", "id": 9954037579, "lat": 47.7133939, "lon": -104.158051}, {"type": "node", "id": 9954037580, "lat": 47.7134597, "lon": -104.1580579}, {"type": "node", "id": 9954037581, "lat": 47.7134353, "lon": -104.1580749}, {"type": "node", "id": 9954037582, "lat": 47.7134217, "lon": -104.1580316}, {"type": "node", "id": 9954037583, "lat": 47.7134471, "lon": -104.1580181}, {"type": "node", "id": 9954161598, "lat": 47.7097362, "lon": -104.1602444}, {"type": "node", "id": 9954161599, "lat": 47.7096626, "lon": -104.1599994}, {"type": "node", "id": 9954161600, "lat": 47.7097603, "lon": -104.1599346}, {"type": "node", "id": 11716412824, "lat": 47.7127769, "lon": -104.170391}, {"type": "node", "id": 11716412825, "lat": 47.7108734, "lon": -104.1704588}, {"type": "node", "id": 11716412826, "lat": 47.7108785, "lon": -104.1709177}, {"type": "node", "id": 11716412827, "lat": 47.7119365, "lon": -104.1728212}, {"type": "node", "id": 11911077059, "lat": 47.718492, "lon": -104.15615, "tags": {"addr:city": "Sidney", "addr:housenumber": "410", "addr:postcode": "59270", "addr:state": "MT", "addr:street": "North Central Avenue", "amenity": "fast_food", "brand": "Domino's", "brand:wikidata": "Q839466", "cuisine": "pizza", "name": "Domino's", "opening_hours": "Mo-Th 10:30-24:00; Fr-Sa 10:30-01:00; Su 10:30-24:00", "phone": "+1 406-630-7788", "ref": "7014", "takeaway": "yes", "website": "https://pizza.dominos.com/montana/sidney/410-north-central-avenue"}}, {"type": "node", "id": 11926951809, "lat": 47.7164123, "lon": -104.15919}, {"type": "node", "id": 11926951810, "lat": 47.7162533, "lon": -104.159295}, {"type": "node", "id": 11926951811, "lat": 47.7161517, "lon": -104.1589552}, {"type": "node", "id": 11926951812, "lat": 47.7163155, "lon": -104.158847}, {"type": "node", "id": 11926951813, "lat": 47.7163384, "lon": -104.1589236}, {"type": "node", "id": 11926951814, "lat": 47.7163617, "lon": -104.1589082}, {"type": "node", "id": 11926951815, "lat": 47.7164211, "lon": -104.159107}, {"type": "node", "id": 11926951816, "lat": 47.7163931, "lon": -104.1591255}, {"type": "node", "id": 11926951817, "lat": 47.7168469, "lon": -104.1593276}, {"type": "node", "id": 11926951818, "lat": 47.716673, "lon": -104.1594394}, {"type": "node", "id": 11926951819, "lat": 47.7165942, "lon": -104.1591689}, {"type": "node", "id": 11926951820, "lat": 47.7166249, "lon": -104.1591492}, {"type": "node", "id": 11926951821, "lat": 47.7165755, "lon": -104.1589794}, {"type": "node", "id": 11926951822, "lat": 47.7167188, "lon": -104.1588873}, {"type": "node", "id": 12650329184, "lat": 47.711701, "lon": -104.1610056}, {"type": "node", "id": 12650329185, "lat": 47.7116429, "lon": -104.1610454}, {"type": "node", "id": 12650329186, "lat": 47.7116059, "lon": -104.1609262}, {"type": "node", "id": 12650329187, "lat": 47.7116641, "lon": -104.1608864}, {"type": "node", "id": 12650329188, "lat": 47.7120132, "lon": -104.1619539}, {"type": "node", "id": 12650329189, "lat": 47.711955, "lon": -104.1619938}, {"type": "node", "id": 12650329190, "lat": 47.7119181, "lon": -104.1618746}, {"type": "node", "id": 12650329191, "lat": 47.7119762, "lon": -104.1618347}, {"type": "node", "id": 12650340031, "lat": 47.7109557, "lon": -104.160756, "tags": {"amenity": "vending_machine", "fee": "no", "vending": "excrement_bags"}}, {"type": "node", "id": 12650340032, "lat": 47.7109774, "lon": -104.1607484, "tags": {"amenity": "waste_basket"}}, {"type": "node", "id": 12650340816, "lat": 47.7127477, "lon": -104.1604251}, {"type": "node", "id": 12650340817, "lat": 47.7124098, "lon": -104.1592749}, {"type": "node", "id": 12650340818, "lat": 47.7116056, "lon": -104.1597967}, {"type": "node", "id": 12650343632, "lat": 47.7206634, "lon": -104.1555973, "tags": {"amenity": "fast_food", "brand": "Subway", "brand:wikidata": "Q244457", "cuisine": "sandwich", "name": "Subway", "takeaway": "yes"}}, {"type": "node", "id": 12650343633, "lat": 47.7212733, "lon": -104.1552433, "tags": {"brand": "Ace Hardware", "brand:wikidata": "Q4672981", "name": "Ace Hardware", "shop": "doityourself"}}, {"type": "way", "id": 266231208, "nodes": [2717992020, 2717992013, 2717992007, 2717992011, 2717992020], "tags": {"amenity": "fuel", "building": "yes"}}, {"type": "way", "id": 266242472, "nodes": [2718108675, 2718108694, 2718108693, 2718108677, 2718108669, 2718108675], "tags": {"amenity": "casino", "building": "yes", "name": "Cattle-Ac"}}, {"type": "way", "id": 315306927, "nodes": [357962675, 3214172170, 3214172182, 3214172181, 3214172180, 3214172179, 3214171453, 3214171452, 3214171451, 357962675], "tags": {"addr:city": "Sidney", "addr:housenumber": "1012", "addr:postcode": "59270", "addr:state": "MT", "addr:street": "4th Avenue Southeast", "amenity": "school", "gnis:feature_id": "1715071", "name": "Sidney High School", "phone": "+1 406-433-2330", "website": "https://www.sidney.k12.mt.us/highschool"}}, {"type": "way", "id": 432043137, "nodes": [4312137419, 4312215191, 4312215190, 4312137420, 4312137421, 4312215203, 4312137422, 4312137423, 4312137424, 4312137425, 4312137426, 4312137427, 357962947, 4312137419], "tags": {"addr:city": "Sidney", "addr:housenumber": "216", "addr:postcode": "59270", "addr:state": "MT", "addr:street": "14th Avenue Southwest", "amenity": "hospital", "emergency": "yes", "healthcare": "hospital", "name": "Sidney Health Center", "opening_hours": "24/7", "operator": "Sidney Health Center", "phone": "+1 406 488 2100", "website": "https://www.sidneyhealth.org/", "wheelchair": "yes"}}, {"type": "way", "id": 432051918, "nodes": [4312214784, 4312214785, 4312214786, 4312214787, 4312214788, 4312215189, 4312215190, 4312215191, 4312214784], "tags": {"amenity": "parking"}}, {"type": "way", "id": 432051920, "nodes": [4312137424, 4312137423, 4312137422, 4312215203, 4312215204, 4312137452, 4312137453, 4312137454, 4312215205, 4312137424], "tags": {"amenity": "parking"}}, {"type": "way", "id": 432820323, "nodes": [4317709101, 4317709094, 4317709095, 4317709096, 4317709097, 4317709098, 4317709099, 4317709100, 4317709101], "tags": {"addr:city": "Sidney", "addr:housenumber": "801", "addr:postcode": "59270", "addr:state": "MT", "addr:street": "Warren Lane", "amenity": "restaurant", "brand": "Pizza Hut", "brand:wikidata": "Q191615", "building": "yes", "cuisine": "pizza", "name": "Pizza Hut", "phone": "+1 406-482-7200", "website": "https://locations.pizzahut.com/mt/sidney/801-warren-ln"}}, {"type": "way", "id": 432820324, "nodes": [4317709106, 4317709107, 4317709108, 4317709109, 4317709106], "tags": {"amenity": "parking"}}, {"type": "way", "id": 432820325, "nodes": [4317709110, 4317709111, 4317709112, 4317709113, 4317709110], "tags": {"amenity": "parking"}}, {"type": "way", "id": 432820332, "nodes": [357962686, 4317709130, 4317709131, 4317709132, 357962686], "tags": {"amenity": "school", "ele": "588", "gnis:feature_id": "1715220", "name": "Central Elementary School"}}, {"type": "way", "id": 686307309, "nodes": [6432771142, 6432771143, 6432771144, 6432771145, 6432771146, 6432771147, 6432771148, 6432771149, 6432771142], "tags": {"amenity": "parking"}}, {"type": "way", "id": 686307310, "nodes": [6432771150, 6432771151, 6432771152, 6432771153, 4911045964, 6432771150], "tags": {"amenity": "parking"}}, {"type": "way", "id": 686307311, "nodes": [6432771154, 6432771155, 6432771156, 6432771157, 6432771154], "tags": {"addr:city": "Sidney", "addr:housenumber": "219", "addr:postcode": "59270", "addr:state": "MT", "addr:street": "7th Street Southeast", "amenity": "place_of_worship", "building": "church", "denomination": "roman_catholic", "description": "Mailing Address: 219 7th St SE Sidney, MT 59270", "diocese": "Great Falls-Billings", "ele": "592", "fax": "+1 406-433-4373", "gnis:feature_id": "1715278", "name": "Saint Matthew Catholic Church", "phone": "+1 406-433-2510", "religion": "christian", "website": "https://www.stmattsidney.com/"}}, {"type": "way", "id": 877272088, "nodes": [8162267473, 8162267474, 8162267475, 8162267476, 8162267473], "tags": {"addr:city": "Sidney", "addr:housenumber": "300", "addr:postcode": "59270", "addr:state": "MT", "addr:street": "14th Street Southeast", "amenity": "car_wash", "name": "Margies Car Wash"}}, {"type": "way", "id": 985795275, "nodes": [9113290911, 9113290912, 9113290913, 9113290914, 9113290916, 9113290915, 9113290911], "tags": {"addr:city": "Sidney", "addr:housenumber": "416", "addr:postcode": "59270", "addr:state": "MT", "addr:street": "North Central Avenue", "amenity": "fast_food", "brand": "Burger King", "brand:wikidata": "Q177054", "building": "yes", "cuisine": "burger", "delivery": "yes", "drive_through": "yes", "internet_access": "wlan", "name": "Burger King", "opening_hours": "Mo-Sa 06:00-23:00; Su 07:00-23:00", "phone": "+1 406-630-5005", "ref": "25583", "takeaway": "yes", "website": "https://www.bk.com/store-locator/store/restaurant_87887"}}, {"type": "way", "id": 1018161183, "nodes": [9390992670, 9390992671, 9390992668, 9390992669, 9390992670], "tags": {"alt_name": "Verizon Wireless", "brand": "Verizon", "brand:wikidata": "Q919641", "building": "yes", "name": "Verizon", "shop": "mobile_phone"}}, {"type": "way", "id": 1086321275, "nodes": [9953779352, 9953779353, 9953779354, 9953779355, 9953779352], "tags": {"amenity": "restaurant", "building": "yes", "name": "Asian Garden"}}, {"type": "way", "id": 1086351280, "nodes": [9954029900, 9954029901, 9954029902, 9954029903, 9954029900], "tags": {"amenity": "bar", "building": "yes", "name": "Cheerio Lounge"}}, {"type": "way", "id": 1086354956, "nodes": [9954037574, 9954037575, 9954037576, 9954037577, 9954037578, 9954037579, 9954037582, 9954037581, 9954037580, 9954037583, 9954037574], "tags": {"amenity": "casino", "building": "yes", "name": "Club Royale Casino"}}, {"type": "way", "id": 1086367026, "nodes": [4317709123, 9954161598, 9954161599, 9954161600, 4317709123], "tags": {"amenity": "restaurant", "cuisine": "sandwich", "name": "Footers"}}, {"type": "way", "id": 1260561152, "nodes": [357962669, 11716412824, 11716412825, 11716412826, 11716412827, 357962669], "tags": {"amenity": "school", "ele": "595", "gnis:feature_id": "1715069", "name": "West Side Elementary School"}}, {"type": "way", "id": 1285776428, "nodes": [11926951809, 11926951810, 11926951811, 11926951812, 11926951813, 11926951814, 11926951815, 11926951816, 11926951809], "tags": {"addr:city": "Sidney", "addr:housenumber": "110", "addr:postcode": "59270", "addr:state": "MT", "addr:street": "2nd Avenue Northwest", "amenity": "courthouse", "building": "yes", "ele": "595", "emergency": "psap", "gnis:feature_id": "1715034", "name": "Richland County Courthouse", "source": "USGS Geonames"}}, {"type": "way", "id": 1285776429, "nodes": [11926951817, 11926951818, 11926951819, 11926951820, 11926951821, 11926951822, 11926951817], "tags": {"addr:state": "MT", "amenity": "library", "building": "yes", "ele": "594", "gnis:feature_id": "1715324", "name": "Sidney Public Library", "source": "USGS Geonames"}}, {"type": "way", "id": 1366025741, "nodes": [12650329184, 12650329185, 12650329186, 12650329187, 12650329184], "tags": {"amenity": "shelter", "building": "yes", "shelter_type": "picnic_shelter"}}, {"type": "way", "id": 1366025742, "nodes": [12650329188, 12650329189, 12650329190, 12650329191, 12650329188], "tags": {"amenity": "shelter", "building": "yes", "shelter_type": "picnic_shelter"}}, {"type": "way", "id": 1366026044, "nodes": [357962672, 12650340816, 12650340817, 12650340818, 357962672], "tags": {"amenity": "school", "ele": "591", "gnis:feature_id": "1715070", "name": "Sidney Middle School"}}]}