{"version": 0.6, "generator": "Overpass API 0.7.62.8 e802775f", "osm3s": {"timestamp_osm_base": "2025-12-06T05:27:01Z", "copyright": "The data included in this document is from www.openstreetmap.org. The data is made available under ODbL."}, "elements": [{"type": "node", "id": 3856963781, "lat": 47.4540581, "lon": -116.7859404}, {"type": "node", "id": 3856963782, "lat": 47.4541576, "lon": -116.7855989}, {"type": "node", "id": 3856963785, "lat": 47.4540416, "lon": -116.7856107}, {"type": "node", "id": 3856963790, "lat": 47.4541729, "lon": -116.7859287}, {"type": "node", "id": 5933347924, "lat": 47.4531684, "lon": -116.786278}, {"type": "node", "id": 5933347925, "lat": 47.453194, "lon": -116.7861275}, {"type": "node", "id": 5933347928, "lat": 47.4532726, "lon": -116.7861569}, {"type": "node", "id": 5933347930, "lat": 47.4531225, "lon": -116.7864714}, {"type": "node", "id": 5933347931, "lat": 47.453213, "lon": -116.7865053}, {"type": "node", "id": 5933347936, "lat": 47.4533684, "lon": -116.7865773, "tags": {"addr:city": "Harrison", "addr:housenumber": "200", "addr:postcode": "83833", "addr:state": "ID", "addr:street": "Coeur d'Alene Avenue", "amenity": "bar", "name": "One Shot Charlie's", "opening_hours": "Su-Th 11:00-21:00, Fr-Sa 11:00-24:00", "outdoor_seating": "yes", "smoking": "yes"}}, {"type": "node", "id": 5933347938, "lat": 47.4533805, "lon": -116.7862413, "tags": {"addr:city": "Harrison", "addr:housenumber": "200", "addr:postcode": "83833", "addr:state": "ID", "addr:street": "S Coeur d'Alene Avenue", "amenity": "cafe", "cuisine": "coffee_shop;pastry;bakery", "name": "The Tin Cup", "opening_hours": "Th-Fr 07:00-12:00, Sa-Su 09:00-14:00", "outdoor_seating": "yes", "smoking": "no"}}, {"type": "node", "id": 5933347939, "lat": 47.4533766, "lon": -116.7863505, "tags": {"addr:city": "Harrison", "addr:housenumber": "200", "addr:postcode": "83833", "addr:state": "ID", "addr:street": "S Coeur d'Alene Avenue", "name": "Simply Wilder Soap", "opening_hours": "Th-Fr 11:00-16:00, Sa 10:00-16:00, Su 10:00-15:00", "shop": "yes"}}, {"type": "node", "id": 5933347940, "lat": 47.4544302, "lon": -116.7858305}, {"type": "node", "id": 5933347941, "lat": 47.4543652, "lon": -116.7858649}, {"type": "node", "id": 5933347942, "lat": 47.4543088, "lon": -116.7856317}, {"type": "node", "id": 5933347943, "lat": 47.4543737, "lon": -116.7855973}, {"type": "node", "id": 5933354979, "lat": 47.4543898, "lon": -116.7858172, "tags": {"addr:city": "Harrison", "addr:housenumber": "100", "addr:postcode": "83833", "addr:state": "ID", "addr:street": "N Coeur d'Alene Avenue", "amenity": "cafe", "cuisine": "coffee;american", "description": "Bike, and Coffee Shop, with Beer, Wine, and Food.", "internet_access": "wlan", "name": "The Cycle Hause", "opening_hours": "Su-Sa 07:00-19:00", "outdoor_seating": "yes", "phone": "+1-208-689-3436", "smoking": "no"}}, {"type": "node", "id": 11142263869, "lat": 47.4473337, "lon": -116.7686627}, {"type": "node", "id": 11142723724, "lat": 47.4540455, "lon": -116.7856945}, {"type": "node", "id": 12611964995, "lat": 47.4476576, "lon": -116.7686511}, {"type": "node", "id": 12611964996, "lat": 47.4478669, "lon": -116.7685812}, {"type": "node", "id": 12611964997, "lat": 47.4481423, "lon": -116.7683955}, {"type": "node", "id": 12611964998, "lat": 47.4482355, "lon": -116.768701}, {"type": "node", "id": 12611965002, "lat": 47.4483608, "lon": -116.7703183}, {"type": "node", "id": 12611965003, "lat": 47.4481993, "lon": -116.7705594}, {"type": "node", "id": 12611965004, "lat": 47.448135, "lon": -116.7688805}, {"type": "node", "id": 12611965005, "lat": 47.4479923, "lon": -116.7693095}, {"type": "node", "id": 12611965006, "lat": 47.4479954, "lon": -116.7695692}, {"type": "node", "id": 12611965007, "lat": 47.4480441, "lon": -116.76972}, {"type": "node", "id": 12611965503, "lat": 47.4489075, "lon": -116.7719445}, {"type": "node", "id": 12613715561, "lat": 47.4531476, "lon": -116.7863994}, {"type": "node", "id": 12613715562, "lat": 47.4531356, "lon": -116.7863949}, {"type": "node", "id": 12613715563, "lat": 47.4532138, "lon": -116.7865008}, {"type": "node", "id": 12624194861, "lat": 47.4479319, "lon": -116.7714966}, {"type": "node", "id": 12624194862, "lat": 47.4484162, "lon": -116.7716402}, {"type": "node", "id": 12624194863, "lat": 47.4483515, "lon": -116.7723907}, {"type": "node", "id": 12624194864, "lat": 47.4486833, "lon": -116.7716005}, {"type": "node", "id": 12624194865, "lat": 47.4483018, "lon": -116.7708911}, {"type": "node", "id": 12624194866, "lat": 47.4481652, "lon": -116.7705664}, {"type": "node", "id": 12624194867, "lat": 47.4481413, "lon": -116.7705664}, {"type": "node", "id": 12624194868, "lat": 47.4481343, "lon": -116.7706267}, {"type": "node", "id": 12624194869, "lat": 47.4480975, "lon": -116.7708298}, {"type": "node", "id": 12624194870, "lat": 47.4480099, "lon": -116.7712228}, {"type": "node", "id": 12624194871, "lat": 47.4481238, "lon": -116.7703924}, {"type": "node", "id": 12624194872, "lat": 47.448005, "lon": -116.770208}, {"type": "node", "id": 12624194873, "lat": 47.4479202, "lon": -116.7701197}, {"type": "node", "id": 12624194874, "lat": 47.4478398, "lon": -116.7700673}, {"type": "node", "id": 12624194875, "lat": 47.447873, "lon": -116.7698993}, {"type": "node", "id": 12624194876, "lat": 47.4478921, "lon": -116.7696473}, {"type": "node", "id": 12624194877, "lat": 47.4478789, "lon": -116.7694346}, {"type": "node", "id": 12624194878, "lat": 47.4478206, "lon": -116.7691979}, {"type": "node", "id": 12624194879, "lat": 47.4477118, "lon": -116.7689592}, {"type": "node", "id": 12624194880, "lat": 47.4475807, "lon": -116.7687971}, {"type": "node", "id": 12624194881, "lat": 47.4474265, "lon": -116.7687008}, {"type": "way", "id": 382495858, "nodes": [3856963790, 3856963782, 3856963785, 11142723724, 3856963781, 3856963790], "tags": {"building": "yes", "name": "Harrison Trading Company", "shop": "supermarket"}}, {"type": "way", "id": 628482369, "nodes": [5933347928, 5933347925, 5933347924, 12613715561, 12613715562, 5933347930, 5933347931, 12613715563, 5933347928], "tags": {"addr:city": "Harrison", "addr:housenumber": "204", "addr:postcode": "83833", "addr:state": "ID", "addr:street": "Couer d'Alene Avenue", "amenity": "restaurant", "building": "retail", "cuisine": "american", "delivery": "no", "name": "The Landing", "opening_hours": "Su-Sa 07:00-22:00", "outdoor_seating": "yes", "takeaway": "yes"}}, {"type": "way", "id": 628482374, "nodes": [5933347940, 5933347941, 5933347942, 5933347943, 5933347940], "tags": {"addr:city": "Harrison", "addr:housenumber": "100", "addr:postcode": "83833", "addr:state": "ID", "addr:street": "N Coeur d'Alene Avenue", "building": "yes", "description": "Bike, and Coffee Shop, with Beer and Wine", "name": "The Cycle Hause", "opening_hours": "Su-Sa 07:00-19:00", "payment:cash": "yes", "payment:credit_cards": "yes", "payment:debit_cards": "yes", "payment:discover_card": "yes", "payment:mastercard": "yes", "payment:visa": "yes", "payment:visa_debit": "yes", "phone": "+1-208-689-3436", "service:bicycle:bike": "yes", "service:bicycle:chain_tool": "yes", "service:bicycle:parts": "yes", "service:bicycle:pump": "yes", "service:bicycle:rental": "yes", "service:bicycle:repair": "yes", "service:bicycle:spare_parts": "yes", "shop": "bicycle", "wheelchair": "yes"}}, {"type": "way", "id": 1363420384, "nodes": [12611965503, 12624194864, 12624194865, 12624194866, 12624194867, 12624194868, 12624194869, 12624194870, 12624194861, 12624194862, 12624194863, 12611965503]}, {"type": "way", "id": 1363420385, "nodes": [12611965003, 12624194871, 12624194872, 12624194873, 12624194874, 12624194875, 12624194876, 12624194877, 12624194878, 12624194879, 12624194880, 12624194881, 11142263869, 12611964995, 12611964996, 12611964997, 12611964998, 12611965004, 12611965005, 12611965006, 12611965007, 12611965002, 12611965003]}, {"type": "relation", "id": 18762195, "members": [{"type": "way", "ref": 1363420384, "role": "outer"}, {"type": "way", "ref": 1363420385, "role": "outer"}], "tags": {"landuse": "garages", "name": "Harrison Boat Storage & Repair", "shop": "storage_rental", "type": "multipolygon"}}]}