{"version": 0.6, "generator": "Overpass API 0.7.62.8 e802775f", "osm3s": {"timestamp_osm_base": "2025-12-13T00:28:11Z", "copyright": "The data included in this document is from www.openstreetmap.org. The data is made available under ODbL."}, "elements": [{"type": "node", "id": 2154662840, "lat": 37.2635194, "lon": -107.0557163}, {"type": "node", "id": 2154662851, "lat": 37.2639406, "lon": -107.0558573}, {"type": "node", "id": 2154662863, "lat": 37.262552, "lon": -107.0622424}, {"type": "node", "id": 2154662864, "lat": 37.2635164, "lon": -107.0562955}, {"type": "node", "id": 2154662904, "lat": 37.2624087, "lon": -107.0625188}, {"type": "node", "id": 2154662905, "lat": 37.2617365, "lon": -107.0620519}, {"type": "node", "id": 2154662922, "lat": 37.2618539, "lon": -107.0617381}, {"type": "node", "id": 2154662931, "lat": 37.2639357, "lon": -107.0560956}, {"type": "node", "id": 2154662935, "lat": 37.2640865, "lon": -107.0560968}, {"type": "node", "id": 2154662942, "lat": 37.263982, "lon": -107.0558576}, {"type": "node", "id": 2154662943, "lat": 37.2639403, "lon": -107.0559162}, {"type": "node", "id": 2154662959, "lat": 37.2639467, "lon": -107.0557955}, {"type": "node", "id": 2154662973, "lat": 37.2640112, "lon": -107.0559168}, {"type": "node", "id": 2154662988, "lat": 37.2623193, "lon": -107.0625562}, {"type": "node", "id": 2154662989, "lat": 37.2619711, "lon": -107.0618268}, {"type": "node", "id": 2154662990, "lat": 37.2620183, "lon": -107.0617945}, {"type": "node", "id": 2154662997, "lat": 37.2639346, "lon": -107.056299}, {"type": "node", "id": 2154662998, "lat": 37.2639824, "lon": -107.0557958}, {"type": "node", "id": 2154663002, "lat": 37.2639471, "lon": -107.0557198}, {"type": "node", "id": 2154663003, "lat": 37.2640107, "lon": -107.0559992}, {"type": "node", "id": 2154663004, "lat": 37.264087, "lon": -107.0559999}, {"type": "node", "id": 2154663012, "lat": 37.2617771, "lon": -107.0619768}, {"type": "node", "id": 2154685655, "lat": 37.2675959, "lon": -107.0517712}, {"type": "node", "id": 2154685657, "lat": 37.2675916, "lon": -107.0518516}, {"type": "node", "id": 2154685660, "lat": 37.2671325, "lon": -107.0513801}, {"type": "node", "id": 2154685662, "lat": 37.2673119, "lon": -107.0517559}, {"type": "node", "id": 2154685663, "lat": 37.2673205, "lon": -107.0513852}, {"type": "node", "id": 2154685676, "lat": 37.2676618, "lon": -107.0515283}, {"type": "node", "id": 2154685684, "lat": 37.2675512, "lon": -107.0517547}, {"type": "node", "id": 2154685691, "lat": 37.2675544, "lon": -107.0514105}, {"type": "node", "id": 2154685692, "lat": 37.2673886, "lon": -107.0514048}, {"type": "node", "id": 2154685693, "lat": 37.2671265, "lon": -107.0518408}, {"type": "node", "id": 2154685694, "lat": 37.2676591, "lon": -107.0516515}, {"type": "node", "id": 2154685696, "lat": 37.2675519, "lon": -107.0515245}, {"type": "node", "id": 2154685698, "lat": 37.2671756, "lon": -107.0518435}, {"type": "node", "id": 2154685713, "lat": 37.2671742, "lon": -107.0520013}, {"type": "node", "id": 2154685714, "lat": 37.2673811, "lon": -107.0517488}, {"type": "node", "id": 2154685716, "lat": 37.2675499, "lon": -107.0520189}, {"type": "node", "id": 2154685717, "lat": 37.2675535, "lon": -107.0516479}, {"type": "node", "id": 2154849607, "lat": 37.2514268, "lon": -107.0785005}, {"type": "node", "id": 2154860610, "lat": 37.2515981, "lon": -107.0786172}, {"type": "node", "id": 2154860614, "lat": 37.2518735, "lon": -107.0780432}, {"type": "node", "id": 2154860616, "lat": 37.2528129, "lon": -107.0773861}, {"type": "node", "id": 2154860617, "lat": 37.2516166, "lon": -107.0784988}, {"type": "node", "id": 2154860619, "lat": 37.2518436, "lon": -107.0780057}, {"type": "node", "id": 2154860624, "lat": 37.2519005, "lon": -107.078067}, {"type": "node", "id": 2154860626, "lat": 37.2523339, "lon": -107.0778685}, {"type": "node", "id": 2154860628, "lat": 37.2522471, "lon": -107.0778555}, {"type": "node", "id": 2154860635, "lat": 37.2518266, "lon": -107.0779654}, {"type": "node", "id": 2154860636, "lat": 37.2516166, "lon": -107.0783218}, {"type": "node", "id": 2154860638, "lat": 37.2518308, "lon": -107.0778099}, {"type": "node", "id": 2154860640, "lat": 37.2515312, "lon": -107.0784022}, {"type": "node", "id": 2154860643, "lat": 37.2525076, "lon": -107.0773324}, {"type": "node", "id": 2154860646, "lat": 37.2518244, "lon": -107.0778474}, {"type": "node", "id": 2154860647, "lat": 37.251485, "lon": -107.0783705}, {"type": "node", "id": 2154860648, "lat": 37.2524628, "lon": -107.0778313}, {"type": "node", "id": 2154860652, "lat": 37.2515853, "lon": -107.0783195}, {"type": "node", "id": 2154860653, "lat": 37.2515191, "lon": -107.0782873}, {"type": "node", "id": 2154860654, "lat": 37.2515931, "lon": -107.0784505}, {"type": "node", "id": 2154860657, "lat": 37.2523446, "lon": -107.0774796}, {"type": "node", "id": 2154860658, "lat": 37.2517554, "lon": -107.0780294}, {"type": "node", "id": 2154860661, "lat": 37.2518223, "lon": -107.0779091}, {"type": "node", "id": 2154860662, "lat": 37.2516365, "lon": -107.0783168}, {"type": "node", "id": 2154860664, "lat": 37.2524265, "lon": -107.077826}, {"type": "node", "id": 2154860665, "lat": 37.2516173, "lon": -107.0785716}, {"type": "node", "id": 2154860666, "lat": 37.2523219, "lon": -107.0777509}, {"type": "node", "id": 2154860668, "lat": 37.2518009, "lon": -107.0773754}, {"type": "node", "id": 2154860670, "lat": 37.2516686, "lon": -107.0786601}, {"type": "node", "id": 2154860672, "lat": 37.2527503, "lon": -107.0781421}, {"type": "node", "id": 2154876639, "lat": 37.2573409, "lon": -107.0734057}, {"type": "node", "id": 2154876641, "lat": 37.2571936, "lon": -107.0728344}, {"type": "node", "id": 2154876644, "lat": 37.2577673, "lon": -107.0742234}, {"type": "node", "id": 2154876650, "lat": 37.2545906, "lon": -107.0786302, "tags": {"amenity": "fuel"}}, {"type": "node", "id": 2154876654, "lat": 37.2570429, "lon": -107.0730777}, {"type": "node", "id": 2154876658, "lat": 37.2559521, "lon": -107.0774303}, {"type": "node", "id": 2154876659, "lat": 37.2562457, "lon": -107.0758976}, {"type": "node", "id": 2154876660, "lat": 37.2572022, "lon": -107.0738214}, {"type": "node", "id": 2154876662, "lat": 37.2547432, "lon": -107.0778402, "tags": {"addr:city": "Pagosa Springs", "addr:housenumber": "25", "addr:postcode": "81147", "addr:state": "CO", "addr:street": "North Pagosa Boulevard", "amenity": "fuel", "brand": "Speedway", "brand:wikidata": "Q7575683", "name": "Speedway", "ref": "9497", "self_service": "yes", "website": "https://www.speedway.com/locations/CO/Pagosa-Springs/25-N-Pagosa-Blvd"}}, {"type": "node", "id": 2154876665, "lat": 37.2569438, "lon": -107.0735344}, {"type": "node", "id": 2154876672, "lat": 37.2572833, "lon": -107.073395}, {"type": "node", "id": 2154876675, "lat": 37.2573958, "lon": -107.0731076}, {"type": "node", "id": 2154876685, "lat": 37.2571845, "lon": -107.0741166}, {"type": "node", "id": 2154876709, "lat": 37.2551675, "lon": -107.0770603}, {"type": "node", "id": 2154876718, "lat": 37.2573516, "lon": -107.0730838}, {"type": "node", "id": 2154876726, "lat": 37.2566428, "lon": -107.0751305}, {"type": "node", "id": 2154876727, "lat": 37.2573858, "lon": -107.0728988}, {"type": "node", "id": 2154876746, "lat": 37.2551148, "lon": -107.07716}, {"type": "node", "id": 2154876747, "lat": 37.2563006, "lon": -107.075116, "tags": {"amenity": "fuel", "brand": "City Market", "fuel:diesel": "yes", "fuel:gasoline": "yes", "name": "City Market Fuel Center", "self_service": "yes"}}, {"type": "node", "id": 2154876767, "lat": 37.2552811, "lon": -107.0773051}, {"type": "node", "id": 2154876772, "lat": 37.2576691, "lon": -107.0741644}, {"type": "node", "id": 2154876777, "lat": 37.2561753, "lon": -107.0763455}, {"type": "node", "id": 2154876778, "lat": 37.2570655, "lon": -107.0754899}, {"type": "node", "id": 2154876783, "lat": 37.2553347, "lon": -107.0772002}, {"type": "node", "id": 2154876787, "lat": 37.2557242, "lon": -107.0772328}, {"type": "node", "id": 2154876809, "lat": 37.2571061, "lon": -107.0737919}, {"type": "node", "id": 2155251847, "lat": 37.2683797, "lon": -107.0524113, "tags": {"addr:city": "Pagosa Springs", "addr:housenumber": "2537", "addr:postcode": "81147", "addr:state": "CO", "addr:street": "Eagle Drive", "amenity": "fuel", "brand": "Speedway", "brand:wikidata": "Q7575683", "compressed_air": "yes", "name": "Speedway", "ref": "9494", "self_service": "yes", "website": "https://www.speedway.com/StoreDetails?store=9494"}}, {"type": "node", "id": 2156969464, "lat": 37.2645541, "lon": -107.0569397}, {"type": "node", "id": 2156969466, "lat": 37.26487, "lon": -107.0563228}, {"type": "node", "id": 2156969470, "lat": 37.2618943, "lon": -107.059461}, {"type": "node", "id": 2156969472, "lat": 37.2621285, "lon": -107.0591137}, {"type": "node", "id": 2156969474, "lat": 37.2641101, "lon": -107.0557596}, {"type": "node", "id": 2156969475, "lat": 37.2642211, "lon": -107.0557649}, {"type": "node", "id": 2156969478, "lat": 37.2621248, "lon": -107.059461}, {"type": "node", "id": 2156969481, "lat": 37.264093, "lon": -107.0565535}, {"type": "node", "id": 2156969482, "lat": 37.2618943, "lon": -107.0591177}, {"type": "node", "id": 2158346454, "lat": 37.2517639, "lon": -107.0772855}, {"type": "node", "id": 4611404118, "lat": 37.2583085, "lon": -107.0753132, "tags": {"addr:city": "Pagosa Springs", "addr:housenumber": "190", "addr:postcode": "81147", "addr:state": "CO", "addr:street": "Talisman Drive", "addr:unit": "C2", "name": "All About You Day Spa", "phone": "+1-970-731-3391", "shop": "beauty", "website": "https://www.allaboutyou-dayspa.com/"}}, {"type": "node", "id": 4636038370, "lat": 37.2529552, "lon": -107.0783404}, {"type": "node", "id": 4636038371, "lat": 37.2530554, "lon": -107.077342}, {"type": "node", "id": 4636038372, "lat": 37.2514307, "lon": -107.0770303}, {"type": "node", "id": 4636038373, "lat": 37.2514157, "lon": -107.0791085}, {"type": "node", "id": 4636038374, "lat": 37.2521936, "lon": -107.0796287}, {"type": "node", "id": 4636038375, "lat": 37.2529886, "lon": -107.0791662}, {"type": "node", "id": 4636038376, "lat": 37.2532034, "lon": -107.0785096}, {"type": "node", "id": 5315597933, "lat": 37.2593756, "lon": -107.0630976}, {"type": "node", "id": 5895955078, "lat": 37.2571456, "lon": -107.0748609, "tags": {"addr:city": "Pagosa Springs", "addr:country": "US", "addr:housenumber": "56", "addr:postcode": "81147", "addr:state": "CO", "addr:street": "Talisman Drive", "addr:unit": "7", "name": "NextHome Rocky Mountain Realty & Rentals", "office": "estate_agent", "phone": "+1-970-507-8655", "website": "http://www.nexthomermr.com"}}, {"type": "node", "id": 6388351624, "lat": 37.2599976, "lon": -107.0631822, "tags": {"access": "customers", "door": "sliding", "entrance": "main"}}, {"type": "node", "id": 6388351625, "lat": 37.2592536, "lon": -107.0630964}, {"type": "node", "id": 6388351626, "lat": 37.2593042, "lon": -107.0630969, "tags": {"access": "private", "amenity": "loading_dock", "entrance": "service"}}, {"type": "node", "id": 6388351627, "lat": 37.2593784, "lon": -107.0626376}, {"type": "node", "id": 6388351628, "lat": 37.2599512, "lon": -107.0626431}, {"type": "node", "id": 6388351629, "lat": 37.2599503, "lon": -107.0627996}, {"type": "node", "id": 6388351630, "lat": 37.2599673, "lon": -107.0627997}, {"type": "node", "id": 6388351631, "lat": 37.259967, "lon": -107.0628428}, {"type": "node", "id": 6388351632, "lat": 37.2599997, "lon": -107.0628431}, {"type": "node", "id": 6388351633, "lat": 37.2599956, "lon": -107.0635157}, {"type": "node", "id": 6388351634, "lat": 37.2599718, "lon": -107.0635155}, {"type": "node", "id": 6388351635, "lat": 37.2599703, "lon": -107.0637626}, {"type": "node", "id": 6388351636, "lat": 37.2599364, "lon": -107.0637623}, {"type": "node", "id": 6388351637, "lat": 37.2599353, "lon": -107.0639312}, {"type": "node", "id": 6388351638, "lat": 37.2591916, "lon": -107.0639241}, {"type": "node", "id": 6388351639, "lat": 37.2591929, "lon": -107.0637084}, {"type": "node", "id": 6388351640, "lat": 37.2592165, "lon": -107.0637087, "tags": {"access": "private", "amenity": "loading_dock", "entrance": "service"}}, {"type": "node", "id": 6388351641, "lat": 37.2592499, "lon": -107.063709}, {"type": "node", "id": 6417239501, "lat": 37.2495325, "lon": -107.0782886}, {"type": "node", "id": 6417239502, "lat": 37.2496958, "lon": -107.078231}, {"type": "node", "id": 6417239503, "lat": 37.2496787, "lon": -107.0780392}, {"type": "node", "id": 6417239504, "lat": 37.2492421, "lon": -107.0781103}, {"type": "node", "id": 6417239505, "lat": 37.2492432, "lon": -107.0783383}, {"type": "node", "id": 6417239506, "lat": 37.2497396, "lon": -107.078514}, {"type": "node", "id": 6417239507, "lat": 37.249667, "lon": -107.0783329}, {"type": "node", "id": 6417239508, "lat": 37.2492378, "lon": -107.0783825}, {"type": "node", "id": 6417239509, "lat": 37.2492421, "lon": -107.0786119}, {"type": "node", "id": 6417239514, "lat": 37.2487745, "lon": -107.0780835}, {"type": "node", "id": 6417239515, "lat": 37.2487745, "lon": -107.0781519}, {"type": "node", "id": 6417239516, "lat": 37.248814, "lon": -107.0782886}, {"type": "node", "id": 6417239517, "lat": 37.2488514, "lon": -107.0783463}, {"type": "node", "id": 6417239518, "lat": 37.2489635, "lon": -107.0782377}, {"type": "node", "id": 6417239519, "lat": 37.2489603, "lon": -107.0780848}, {"type": "node", "id": 6417239520, "lat": 37.2487386, "lon": -107.0780316}, {"type": "node", "id": 6417239521, "lat": 37.248741, "lon": -107.0777212}, {"type": "node", "id": 6417239522, "lat": 37.2485537, "lon": -107.0777189}, {"type": "node", "id": 6417239523, "lat": 37.2485512, "lon": -107.0780293}, {"type": "node", "id": 6417239524, "lat": 37.2485322, "lon": -107.0783611}, {"type": "node", "id": 6417239525, "lat": 37.2485172, "lon": -107.0780888}, {"type": "node", "id": 6417239526, "lat": 37.2483881, "lon": -107.0780861}, {"type": "node", "id": 6417239527, "lat": 37.2483838, "lon": -107.0782685}, {"type": "node", "id": 6417239528, "lat": 37.2485002, "lon": -107.0784013}, {"type": "node", "id": 6417239529, "lat": 37.2486443, "lon": -107.0785219, "tags": {"entrance": "main"}}, {"type": "node", "id": 6417245089, "lat": 37.2487713, "lon": -107.0788036}, {"type": "node", "id": 6417245090, "lat": 37.2487852, "lon": -107.0789337}, {"type": "node", "id": 6417245091, "lat": 37.2487735, "lon": -107.0790249}, {"type": "node", "id": 6417245092, "lat": 37.2487318, "lon": -107.0790276}, {"type": "node", "id": 6417245093, "lat": 37.2486453, "lon": -107.0790638}, {"type": "node", "id": 6417245094, "lat": 37.2485578, "lon": -107.0790209}, {"type": "node", "id": 6417245095, "lat": 37.2485151, "lon": -107.0790195}, {"type": "node", "id": 6417245096, "lat": 37.2485023, "lon": -107.0789351}, {"type": "node", "id": 6417245097, "lat": 37.2485183, "lon": -107.078805}, {"type": "node", "id": 6417245098, "lat": 37.248561, "lon": -107.078805}, {"type": "node", "id": 6417245099, "lat": 37.2485631, "lon": -107.0787419}, {"type": "node", "id": 6417245100, "lat": 37.2485343, "lon": -107.0787433}, {"type": "node", "id": 6417245101, "lat": 37.2485279, "lon": -107.0785247}, {"type": "node", "id": 6417245102, "lat": 37.2488402, "lon": -107.0785166}, {"type": "node", "id": 6417245103, "lat": 37.2488415, "lon": -107.0783796}, {"type": "node", "id": 6417245104, "lat": 37.2489522, "lon": -107.0783825}, {"type": "node", "id": 6417245105, "lat": 37.2489561, "lon": -107.0787167}, {"type": "node", "id": 6417245106, "lat": 37.2487564, "lon": -107.0787178}, {"type": "node", "id": 6417245107, "lat": 37.2487553, "lon": -107.0787446}, {"type": "node", "id": 6417245108, "lat": 37.248734, "lon": -107.0787433}, {"type": "node", "id": 6417245109, "lat": 37.2487329, "lon": -107.078805}, {"type": "node", "id": 6699668817, "lat": 37.2575549, "lon": -107.0748349, "tags": {"addr:city": "Pagosa Springs", "addr:housenumber": "56", "addr:postcode": "81147", "addr:state": "CO", "addr:street": "Talisman Drive", "addr:unit": "8K", "name": "Pagosa Guns", "phone": "+1-970-731-4869", "shop": "hunting", "website": "https://pagosaguns.com/"}}, {"type": "node", "id": 6699675846, "lat": 37.2680571, "lon": -107.0524303, "tags": {"amenity": "vending_machine", "content": "propane", "note": "Propane fill station", "operator": "Speedway", "vending": "fuel"}}, {"type": "node", "id": 6699675847, "lat": 37.2681425, "lon": -107.0521955, "tags": {"amenity": "sanitary_dump_station", "description": "RV dump station with non-potable water", "operator": "Speedway", "water_point": "yes"}}, {"type": "node", "id": 6699684364, "lat": 37.268396, "lon": -107.05294, "tags": {"amenity": "car_wash", "brand": "Speedway", "brand:wikidata": "Q7575683", "description": "Automatic brushless car wash", "name": "Speedy Wash", "self_service": "yes"}}, {"type": "node", "id": 6783603838, "lat": 37.2545981, "lon": -107.0792015}, {"type": "node", "id": 6783603840, "lat": 37.254634, "lon": -107.0798685}, {"type": "node", "id": 6783603841, "lat": 37.2543504, "lon": -107.0794268}, {"type": "node", "id": 6783632904, "lat": 37.2545135, "lon": -107.0799054, "tags": {"addr:city": "Pagosa Springs", "addr:housenumber": "75", "addr:postcode": "81147", "addr:state": "CO", "addr:street": "Navajo Trail Drive", "addr:unit": "2", "name": "Navajo Trail Rental", "phone": "+1-970-731-2822", "shop": "rental"}}, {"type": "node", "id": 6783633830, "lat": 37.2697382, "lon": -107.047082}, {"type": "node", "id": 6783633831, "lat": 37.2699239, "lon": -107.0471517}, {"type": "node", "id": 6783633832, "lat": 37.2698897, "lon": -107.0472751}, {"type": "node", "id": 6783633833, "lat": 37.269704, "lon": -107.0471919}, {"type": "node", "id": 6783633834, "lat": 37.2696272, "lon": -107.047039}, {"type": "node", "id": 6783633835, "lat": 37.2695674, "lon": -107.0472268}, {"type": "node", "id": 6783633836, "lat": 37.2696784, "lon": -107.0472778}, {"type": "node", "id": 6783633837, "lat": 37.2698727, "lon": -107.0473609}, {"type": "node", "id": 6783866073, "lat": 37.2537225, "lon": -107.0803436, "tags": {"addr:city": "Pagosa Springs", "addr:housenumber": "117", "addr:postcode": "81147", "addr:state": "CO", "addr:street": "Navajo Trail Drive", "addr:unit": "A", "amenity": "cafe", "internet_access": "wlan", "internet_access:fee": "no", "name": "Two Chicks and a Hippie Bakery and Coffee House", "phone": "+1-970-731-6020", "website": "https://2chicksandahippie.com"}}, {"type": "node", "id": 7155206545, "lat": 37.2573701, "lon": -107.073576, "tags": {"addr:city": "Pagosa Springs", "addr:housenumber": "27", "addr:postcode": "81147", "addr:state": "CO", "addr:street": "Talisman Drive", "amenity": "bank", "branch": "Pagosa Springs - Talisman Drive", "brand": "TBK Bank", "drive_through": "yes", "name": "TBK Bank", "opening_hours": "Mo-Fr 09:00-16:00; Sa 09:00-12:00", "opening_hours:drive_through": "Mo-Fr 08:00-17:00; Sa 09:00-12:00", "phone": "+1-970-731-7235", "website": "https://www.tbkbank.com/"}}, {"type": "node", "id": 7155206546, "lat": 37.2573164, "lon": -107.0738031, "tags": {"amenity": "atm", "drive_through": "yes", "opening_hours": "24/7", "operator": "TBK Bank"}}, {"type": "node", "id": 7159786493, "lat": 37.2575743, "lon": -107.0732507, "tags": {"addr:city": "Pagosa Springs", "addr:housenumber": "27B", "addr:postcode": "81147", "addr:state": "CO", "addr:street": "Talisman Drive", "addr:unit": "Suite 3", "amenity": "doctors", "healthcare": "doctor", "name": "Pagosa Medical Group", "opening_hours": "Mo-Fr 08:00-17:00; Sa 09:00-18:00", "phone": "+1-970-372-0456", "website": "https://www.pagosamedicalgroup.com/"}}, {"type": "node", "id": 7159786494, "lat": 37.2566775, "lon": -107.0742356, "tags": {"addr:city": "Pagosa Springs", "addr:housenumber": "40", "addr:postcode": "81147", "addr:state": "CO", "addr:street": "Talisman Drive", "amenity": "fast_food", "brand": "McDonald's", "brand:wikidata": "Q38076", "cuisine": "burger", "drive_through": "yes", "name": "McDonald's", "opening_hours": "Mo-Su 05:00-23:00", "opening_hours:drive_through": "Mo-Su 05:00-01:00", "phone": "+1-970-731-1016", "takeaway": "yes", "website": "https://www.mcdonalds.com/us/en-us/location/co/pagosa-springs/40-talisman-dr/23897.html"}}, {"type": "node", "id": 7161672593, "lat": 37.2558561, "lon": -107.0791253}, {"type": "node", "id": 7161672594, "lat": 37.2559685, "lon": -107.0790007}, {"type": "node", "id": 7161672595, "lat": 37.2560606, "lon": -107.079132}, {"type": "node", "id": 7161672596, "lat": 37.2560165, "lon": -107.0791808}, {"type": "node", "id": 7161672597, "lat": 37.2560514, "lon": -107.0792306}, {"type": "node", "id": 7161672598, "lat": 37.255983, "lon": -107.0793063}, {"type": "node", "id": 7161672599, "lat": 37.2559118, "lon": -107.0792048}, {"type": "node", "id": 7161672603, "lat": 37.2559366, "lon": -107.0790361}, {"type": "node", "id": 7161672611, "lat": 37.2557746, "lon": -107.0794719}, {"type": "node", "id": 7161672612, "lat": 37.2556123, "lon": -107.079247}, {"type": "node", "id": 7161672613, "lat": 37.2555929, "lon": -107.0791482}, {"type": "node", "id": 7161672614, "lat": 37.2557158, "lon": -107.0791377}, {"type": "node", "id": 7161672615, "lat": 37.2557895, "lon": -107.0791296}, {"type": "node", "id": 7161672617, "lat": 37.2559178, "lon": -107.0793087}, {"type": "node", "id": 7161672618, "lat": 37.2560825, "lon": -107.0791057}, {"type": "node", "id": 7161672619, "lat": 37.2559703, "lon": -107.0789411}, {"type": "node", "id": 7161672620, "lat": 37.2560683, "lon": -107.0788333}, {"type": "node", "id": 7161672621, "lat": 37.2561777, "lon": -107.0789991}, {"type": "node", "id": 7161672622, "lat": 37.2560204, "lon": -107.0788861}, {"type": "node", "id": 7161672624, "lat": 37.257512, "lon": -107.0730256, "tags": {"addr:city": "Pagosa Springs", "addr:housenumber": "27B", "addr:postcode": "81147", "addr:state": "CO", "addr:street": "Talisman Drive", "addr:unit": "Unit 4", "amenity": "restaurant", "check_date": "2025-09-15", "cuisine": "american;burger", "name": "Colorado Roadhouse", "outdoor_seating": "yes", "phone": "+1-970-507-4800"}}, {"type": "node", "id": 7161672629, "lat": 37.2571055, "lon": -107.0737469}, {"type": "node", "id": 7161672630, "lat": 37.2569842, "lon": -107.0736138}, {"type": "node", "id": 7161672631, "lat": 37.2569971, "lon": -107.0735483}, {"type": "node", "id": 7161672632, "lat": 37.257115, "lon": -107.0729644}, {"type": "node", "id": 7161672633, "lat": 37.2570962, "lon": -107.0730931}, {"type": "node", "id": 7189014485, "lat": 37.2565983, "lon": -107.0769869, "tags": {"addr:city": "Pagosa Springs", "addr:housenumber": "135", "addr:postcode": "81147", "addr:state": "CO", "addr:street": "Country Center Drive", "addr:unit": "Suite E", "email": "artframingpagosa@gmail.com", "name": "Art & Framing Center", "opening_hours": "Tu-Fr 10:00-16:00; Sa 10:00-14:00", "phone": "+1-970-731-4484", "shop": "frame", "website": "https://artframingpagosa.com/"}}, {"type": "node", "id": 7189014486, "lat": 37.2566447, "lon": -107.076897, "tags": {"addr:city": "Pagosa Springs", "addr:housenumber": "135", "addr:postcode": "81147", "addr:state": "CO", "addr:street": "Country Center Drive", "addr:unit": "Suite F", "amenity": "post_office", "brand": "The UPS Store", "brand:short": "UPS", "brand:wikidata": "Q7771029", "email": "store5807@theupsstore.com", "fax": "+1-970-731-8772", "name": "UPS", "opening_hours": "Tu-Fr 08:00-18:00; Sa 09:00-17:00; Su 10:00-15:00", "phone": "+1-970-731-8771", "shop": "copyshop", "website": "https://www.ups.com/us/en/home"}}, {"type": "node", "id": 7189014487, "lat": 37.2566942, "lon": -107.0768, "tags": {"addr:city": "Pagosa Springs", "addr:housenumber": "135", "addr:postcode": "81147", "addr:state": "CO", "addr:street": "Country Center Drive", "addr:unit": "Suite G", "name": "Galles Properties", "office": "estate_agent", "phone": "+1-970-316-5934"}}, {"type": "node", "id": 7189014488, "lat": 37.2567411, "lon": -107.0767142, "tags": {"addr:city": "Pagosa Springs", "addr:housenumber": "135", "addr:postcode": "81147", "addr:state": "CO", "addr:street": "Country Center Drive", "name": "Mountain Spirits Wine & Liquor", "opening_hours": "Mo-Th 09:00-21:00; Fr-Sa 09:00-22:00; Su 10:00-20:00; Dec 25 off", "phone": "+1-970-731-5039", "shop": "alcohol"}}, {"type": "node", "id": 7189014489, "lat": 37.256388, "lon": -107.0773024, "tags": {"addr:city": "Pagosa Springs", "addr:housenumber": "105", "addr:postcode": "81147", "addr:state": "CO", "addr:street": "Country Center Drive", "addr:unit": "4", "email": "sasha@sunetha.com", "name": "Sunetha Property Management", "office": "property_management", "phone": "+1-970-731-4344", "website": "https://www.apexmountainmanagement.com"}}, {"type": "node", "id": 7221414415, "lat": 37.2568513, "lon": -107.076497, "tags": {"addr:city": "Pagosa Springs", "addr:housenumber": "165", "addr:postcode": "81147", "addr:state": "CO", "addr:street": "Country Center Drive", "amenity": "pharmacy", "brand": "City Market", "brand:wikidata": "Q5123299", "drive_through": "no", "healthcare": "pharmacy", "name": "City Market Pharmacy", "opening_hours": "Mo-Fr 09:00-20:00; Sa 09:00-18:00; Su 10:00-17:00", "phone": "+1-970-731-6006", "website": "https://www.citymarket.com/stores/details/620/00445"}}, {"type": "node", "id": 7221414416, "lat": 37.2569528, "lon": -107.0762261, "tags": {"addr:city": "Pagosa Springs", "addr:housenumber": "165", "addr:postcode": "81147", "addr:state": "CO", "addr:street": "Country Center Drive", "brand": "City Market", "brand:wikidata": "Q5123299", "name": "City Market", "opening_hours": "Mo-Su 06:00-22:00", "phone": "+1-970-731-6000", "shop": "supermarket", "website": "https://www.citymarket.com/stores/details/620/00445"}}, {"type": "node", "id": 7256818066, "lat": 37.265895, "lon": -107.052991}, {"type": "node", "id": 7256818067, "lat": 37.26598, "lon": -107.052977}, {"type": "node", "id": 7256818068, "lat": 37.26596, "lon": -107.052789}, {"type": "node", "id": 7256818069, "lat": 37.265951, "lon": -107.05279}, {"type": "node", "id": 7256818071, "lat": 37.26589, "lon": -107.052944}, {"type": "node", "id": 7256818088, "lat": 37.265939, "lon": -107.052678}, {"type": "node", "id": 7256818089, "lat": 37.265761, "lon": -107.052708}, {"type": "node", "id": 7256818090, "lat": 37.265788, "lon": -107.052961}, {"type": "node", "id": 7802211190, "lat": 37.2548841, "lon": -107.0780136, "tags": {"access": "customers", "amenity": "sanitary_dump_station", "operator": "Speedway Gas Station", "water_point": "yes"}}, {"type": "node", "id": 8867039348, "lat": 37.2585012, "lon": -107.0706929, "tags": {"addr:city": "Pagosa Springs", "addr:housenumber": "565", "addr:postcode": "81147", "addr:state": "CO", "addr:street": "Village Drive", "amenity": "restaurant", "cuisine": "thai", "name": "Thai Pagosa", "phone": "+1-970-507-8564", "takeaway": "yes", "website": "https://www.thaipagosa.com/"}}, {"type": "node", "id": 8867297296, "lat": 37.2584676, "lon": -107.0740964, "tags": {"amenity": "cafe", "name": "Higher Grounds Coffee Shop"}}, {"type": "node", "id": 8867297297, "lat": 37.2586761, "lon": -107.0704027, "tags": {"amenity": "cafe", "check_date": "2025-09-15", "name": "Cafe Colorado"}}, {"type": "node", "id": 8958492299, "lat": 37.2685886, "lon": -107.0525431, "tags": {"addr:city": "Pagosa Springs", "addr:housenumber": "2537", "addr:postcode": "81147", "addr:state": "CO", "addr:street": "Eagle Drive", "brand": "Speedway", "brand:wikidata": "Q7575683", "name": "Speedway", "ref": "9494", "shop": "convenience", "website": "https://www.speedway.com/locations/CO/Pagosa-Springs/2537-Eagle-Drive"}}, {"type": "node", "id": 8984237637, "lat": 37.254855, "lon": -107.079611}, {"type": "node", "id": 8984237643, "lat": 37.2549388, "lon": -107.0777421, "tags": {"addr:city": "Pagosa Springs", "addr:housenumber": "25", "addr:postcode": "81147", "addr:state": "CO", "addr:street": "North Pagosa Boulevard", "brand": "Speedway", "brand:wikidata": "Q7575683", "name": "Speedway", "ref": "9497", "shop": "convenience", "website": "https://www.speedway.com/locations/CO/Pagosa-Springs/25-N-Pagosa-Blvd"}}, {"type": "node", "id": 9688563167, "lat": 37.2590167, "lon": -107.0720583}, {"type": "node", "id": 9688563168, "lat": 37.25913, "lon": -107.0715859}, {"type": "node", "id": 9688563169, "lat": 37.2590903, "lon": -107.071558}, {"type": "node", "id": 9688563170, "lat": 37.2590868, "lon": -107.0714597}, {"type": "node", "id": 9688563171, "lat": 37.2589431, "lon": -107.0713849}, {"type": "node", "id": 9688563172, "lat": 37.2587948, "lon": -107.0714803}, {"type": "node", "id": 9688563173, "lat": 37.2586605, "lon": -107.0722432}, {"type": "node", "id": 9688563174, "lat": 37.2588626, "lon": -107.072095}, {"type": "node", "id": 9688563185, "lat": 37.2586924, "lon": -107.0720624}, {"type": "node", "id": 9717016402, "lat": 37.2639161, "lon": -107.058662, "tags": {"addr:city": "Pagosa Springs", "addr:country": "US", "addr:housenumber": "46", "addr:postcode": "81147", "addr:state": "CO", "addr:street": "Eaton Drive", "addr:unit": "1", "fax": "+1-970-422-1299", "name": "Team Pagosa Realty Group", "office": "estate_agent", "opening_hours": "Mo-Fr 09:00-17:00", "phone": "+1-970-731-8599", "website": "https://pagosaspringsrealty.com"}}, {"type": "node", "id": 10157410881, "lat": 37.2663563, "lon": -107.0515882}, {"type": "node", "id": 10157410882, "lat": 37.2663625, "lon": -107.0513017}, {"type": "node", "id": 10157410883, "lat": 37.2662838, "lon": -107.051299}, {"type": "node", "id": 10157410884, "lat": 37.2662849, "lon": -107.0512471}, {"type": "node", "id": 10157410885, "lat": 37.26594, "lon": -107.0512355}, {"type": "node", "id": 10157410886, "lat": 37.265932, "lon": -107.0516082}, {"type": "node", "id": 10157410887, "lat": 37.2660912, "lon": -107.0516136}, {"type": "node", "id": 10157410888, "lat": 37.2660894, "lon": -107.0516944}, {"type": "node", "id": 10157410889, "lat": 37.2662095, "lon": -107.0516984}, {"type": "node", "id": 10157410890, "lat": 37.2662101, "lon": -107.0516712}, {"type": "node", "id": 10157410891, "lat": 37.2662995, "lon": -107.0516743}, {"type": "node", "id": 10157410892, "lat": 37.2663001, "lon": -107.0516477}, {"type": "node", "id": 10157410893, "lat": 37.266352, "lon": -107.0517105}, {"type": "node", "id": 10157410894, "lat": 37.2664027, "lon": -107.0516548}, {"type": "node", "id": 10157410895, "lat": 37.2663084, "lon": -107.051648}, {"type": "node", "id": 11057371047, "lat": 37.2673589, "lon": -107.0515156}, {"type": "node", "id": 11057371048, "lat": 37.2673565, "lon": -107.0516261}, {"type": "node", "id": 11057371049, "lat": 37.2673862, "lon": -107.0515165}, {"type": "node", "id": 11057371050, "lat": 37.2673838, "lon": -107.051627}, {"type": "node", "id": 11057371051, "lat": 37.2676341, "lon": -107.0515273}, {"type": "node", "id": 11057371052, "lat": 37.2676318, "lon": -107.0516506}, {"type": "node", "id": 12763100351, "lat": 37.257815, "lon": -107.0748508}, {"type": "node", "id": 12763100359, "lat": 37.2570113, "lon": -107.074489}, {"type": "node", "id": 12763100360, "lat": 37.2571424, "lon": -107.0745615}, {"type": "node", "id": 12763100361, "lat": 37.2571094, "lon": -107.0742907}, {"type": "node", "id": 12763100373, "lat": 37.2564152, "lon": -107.0743531}, {"type": "node", "id": 12763100374, "lat": 37.2563235, "lon": -107.0745277}, {"type": "node", "id": 12763100375, "lat": 37.2566851, "lon": -107.0748202}, {"type": "node", "id": 12763100376, "lat": 37.2567592, "lon": -107.0746561}, {"type": "node", "id": 12763100383, "lat": 37.2565959, "lon": -107.0747613}, {"type": "node", "id": 12763100384, "lat": 37.256586, "lon": -107.0750216}, {"type": "node", "id": 12763100385, "lat": 37.2565014, "lon": -107.074951}, {"type": "node", "id": 12763100386, "lat": 37.2563983, "lon": -107.0754082}, {"type": "node", "id": 12763100387, "lat": 37.2561129, "lon": -107.0759563}, {"type": "node", "id": 12763100388, "lat": 37.2557758, "lon": -107.07566}, {"type": "node", "id": 12763100389, "lat": 37.2558084, "lon": -107.0755968}, {"type": "node", "id": 12763100390, "lat": 37.2557674, "lon": -107.075544}, {"type": "node", "id": 12763100391, "lat": 37.2559891, "lon": -107.0750857}, {"type": "node", "id": 12763100392, "lat": 37.2558846, "lon": -107.0766144}, {"type": "node", "id": 12763100393, "lat": 37.2555003, "lon": -107.0762749}, {"type": "node", "id": 12763100394, "lat": 37.2553173, "lon": -107.076613}, {"type": "node", "id": 12763100395, "lat": 37.2556986, "lon": -107.0769513}, {"type": "node", "id": 12763100396, "lat": 37.2556031, "lon": -107.0771301}, {"type": "node", "id": 12763100397, "lat": 37.2553913, "lon": -107.0771926}, {"type": "node", "id": 12763100398, "lat": 37.2551784, "lon": -107.0770132}, {"type": "node", "id": 12763100399, "lat": 37.2550826, "lon": -107.0771885}, {"type": "node", "id": 12763100400, "lat": 37.2549234, "lon": -107.0770627}, {"type": "node", "id": 12763104701, "lat": 37.2556318, "lon": -107.0759514}, {"type": "node", "id": 12763104702, "lat": 37.2556649, "lon": -107.0758964}, {"type": "node", "id": 12763104703, "lat": 37.2560849, "lon": -107.0762609}, {"type": "node", "id": 12763104704, "lat": 37.2559503, "lon": -107.0765874}, {"type": "node", "id": 12763104705, "lat": 37.2555124, "lon": -107.0770503}, {"type": "node", "id": 12763104706, "lat": 37.2555577, "lon": -107.0758896}, {"type": "node", "id": 12763104707, "lat": 37.2560003, "lon": -107.077407}, {"type": "node", "id": 12763104708, "lat": 37.2561312, "lon": -107.0751794}, {"type": "node", "id": 12763104709, "lat": 37.256081, "lon": -107.0751346}, {"type": "node", "id": 12763104710, "lat": 37.2561914, "lon": -107.0747139}, {"type": "node", "id": 12763104711, "lat": 37.256268, "lon": -107.0747738}, {"type": "node", "id": 12763104715, "lat": 37.2556378, "lon": -107.0790972}, {"type": "node", "id": 12851335819, "lat": 37.2604398, "lon": -107.0680308, "tags": {"addr:city": "Pagosa Springs", "addr:housenumber": "3505", "addr:postcode": "81147", "addr:state": "CO", "addr:street": "West Highway 160", "addr:unit": "Suite D", "alt_name": "Pagosa Rafting Outfitters", "email": "office@gowjp.com", "name": "Wilderness Journeys Pagosa", "office": "guide", "opening_hours": "Mo-Su 08:00-20:00", "phone": "+1-970-731-4081", "website": "https://www.wildernessjourneyspagosa.com"}}, {"type": "node", "id": 13126328307, "lat": 37.2560471, "lon": -107.0764156}, {"type": "node", "id": 13126328308, "lat": 37.255915, "lon": -107.0765588}, {"type": "node", "id": 13126328374, "lat": 37.2558118, "lon": -107.0758513, "tags": {"addr:city": "Pagosa Springs", "addr:housenumber": "140", "addr:postcode": "81147", "addr:state": "CO", "addr:street": "Country Center Drive", "amenity": "fast_food", "brand": "Subway", "brand:wikidata": "Q244457", "cuisine": "sandwich", "name": "Subway", "opening_hours": "Mo 08:00-20:00; Tu-Su 08:00-21:00", "phone": "+1-970-731-7827", "takeaway": "yes", "website": "https://www.subway.com/en-us/locator"}}, {"type": "node", "id": 13145114826, "lat": 37.2686572, "lon": -107.0517146, "tags": {"amenity": "fast_food", "brand": "Sonic", "brand:wikidata": "Q7561808", "cuisine": "burger", "drive_in": "yes", "name": "Sonic", "takeaway": "yes"}}, {"type": "node", "id": 13145125560, "lat": 37.2713082, "lon": -107.0412567, "tags": {"shop": "car_repair"}}, {"type": "node", "id": 13145125561, "lat": 37.2699439, "lon": -107.0467635, "tags": {"brand": "Sherwin-Williams", "brand:wikidata": "Q48881", "name": "Sherwin-Williams", "shop": "paint"}}, {"type": "node", "id": 13156157508, "lat": 37.2717013, "lon": -107.0404888, "tags": {"shop": "vacant"}}, {"type": "node", "id": 13156162174, "lat": 37.2700769, "lon": -107.0457931, "tags": {"amenity": "cafe", "name": "City Hall Cafe & Grill"}}, {"type": "node", "id": 13257312759, "lat": 37.2556324, "lon": -107.0766051, "tags": {"addr:city": "Pagosa Springs", "addr:housenumber": "100", "addr:postcode": "81147", "addr:state": "CO", "addr:street": "Country Center Drive", "addr:unit": "C", "amenity": "restaurant", "cuisine": "pizza", "name": "Rosie's Pizzeria", "opening_hours": "We-Th,Su 11:00-21:00; Fr-Sa 11:00-22:00", "phone": "+1-970-731-0420", "website": "https://rosiesps.com/"}}, {"type": "node", "id": 13257334688, "lat": 37.2564871, "lon": -107.0771922, "tags": {"addr:city": "Pagosa Springs", "addr:housenumber": "135", "addr:postcode": "81147", "addr:state": "CO", "addr:street": "Country Center Drive", "addr:unit": "A & B", "amenity": "restaurant", "cuisine": "breakfast", "name": "Two Chicks and a Hippie", "opening_hours": "Mo-Su 06:30-14:00", "phone": "+1-970-731-6020", "website": "https://www.twochicksandahippie.com"}}, {"type": "node", "id": 13278070632, "lat": 37.2565352, "lon": -107.0782741}, {"type": "node", "id": 13278070633, "lat": 37.2566115, "lon": -107.0783787}, {"type": "node", "id": 13278070634, "lat": 37.256571, "lon": -107.0784283}, {"type": "node", "id": 13278070635, "lat": 37.2566099, "lon": -107.078488}, {"type": "node", "id": 13278070636, "lat": 37.256318, "lon": -107.0788199}, {"type": "node", "id": 13278070637, "lat": 37.2562993, "lon": -107.0787871}, {"type": "node", "id": 13278070638, "lat": 37.2562123, "lon": -107.0787489}, {"type": "node", "id": 13278070639, "lat": 37.2561782, "lon": -107.0786992}, {"type": "node", "id": 13278070640, "lat": 37.256295, "lon": -107.0785638}, {"type": "node", "id": 13278070641, "lat": 37.2563313, "lon": -107.07861}, {"type": "node", "id": 13278070642, "lat": 37.2563602, "lon": -107.0785799}, {"type": "node", "id": 13278070643, "lat": 37.2563089, "lon": -107.0785108}, {"type": "way", "id": 205504222, "nodes": [2154662997, 2154662931, 2154662935, 2154663004, 2154663003, 2154662973, 2154662943, 2154662851, 2154662942, 2154662998, 2154662959, 2154663002, 2154662840, 2154662864, 2154662997], "tags": {"addr:city": "Pagosa Springs", "addr:housenumber": "2750", "addr:postcode": "81147", "addr:state": "CO", "addr:street": "Cornerstone Drive", "amenity": "place_of_worship", "building": "church", "name": "Center Point Church", "phone": "+1 970 731 2205", "religion": "christian", "website": "https://centerpointpagosa.com/"}}, {"type": "way", "id": 205504223, "nodes": [2154662905, 2154662988, 2154662904, 2154662863, 2154662990, 2154662989, 2154662922, 2154663012, 2154662905], "tags": {"amenity": "parking"}}, {"type": "way", "id": 205505721, "nodes": [2154685684, 2154685714, 11057371050, 11057371048, 11057371047, 11057371049, 2154685692, 2154685691, 2154685696, 11057371051, 2154685676, 2154685694, 11057371052, 2154685717, 2154685684], "tags": {"amenity": "bank", "brand": "Wells Fargo", "brand:wikidata": "Q744149", "building": "yes", "check_date": "2025-09-19", "name": "Wells Fargo"}}, {"type": "way", "id": 205505724, "nodes": [2154685713, 2154685716, 2154685657, 2154685655, 2154685662, 2154685663, 2154685660, 2154685693, 2154685698, 2154685713], "tags": {"amenity": "parking"}}, {"type": "way", "id": 205523988, "nodes": [2154860616, 2154860643, 2154860648, 2154860664, 2154860666, 2154860657, 2154860668, 2158346454, 2154860658, 2154860662, 2154860636, 2154860652, 2154860653, 2154860647, 2154860640, 2154860654, 2154860617, 2154860665, 2154860610, 2154860670, 2154860624, 2154860614, 2154860619, 2154860635, 2154860661, 2154860646, 2154860638, 2154860628, 2154860626, 2154860672, 2154860616], "tags": {"amenity": "parking"}}, {"type": "way", "id": 205526120, "nodes": [2154876658, 12763104707, 2154876778, 2154876726, 2154876659, 2154876777, 2154876787, 2154876658], "tags": {"amenity": "parking"}}, {"type": "way", "id": 205526128, "nodes": [2154876767, 2154876746, 2154876709, 2154876783, 2154876767], "tags": {"addr:city": "Pagosa Springs", "addr:housenumber": "66", "addr:postcode": "81147", "addr:state": "CO", "addr:street": "Country Park Drive", "amenity": "restaurant", "building": "restaurant", "closed:amenity": "fast_food", "cuisine": "mexican", "fixme": "iD is showing an error message: \"Retail Building crosses Intermittent Stream\". Most probably this stream was rerouted around the west of the building when the building was built, but need better info to know exactly where the new route is.", "internet_access": "wlan", "layer": "1", "name": "Santy\u2019s Taco Shop", "phone": "+1-970-398-2455", "website": "https://santystacos.com/"}}, {"type": "way", "id": 205526133, "nodes": [2154876660, 2154876672, 2154876639, 2154876675, 2154876718, 2154876727, 2154876641, 7161672632, 7161672633, 2154876654, 2154876665, 7161672631, 7161672630, 7161672629, 2154876809, 2154876660], "tags": {"amenity": "parking", "surface": "asphalt"}}, {"type": "way", "id": 205526141, "nodes": [12763100351, 2154876644, 2154876772, 2154876685, 12763100361, 12763100359, 12763100360, 12763100351], "tags": {"amenity": "parking"}}, {"type": "way", "id": 205725519, "nodes": [2156969464, 2156969466, 2156969475, 2156969474, 2156969481, 2156969464], "tags": {"amenity": "parking"}}, {"type": "way", "id": 205725520, "nodes": [2156969478, 2156969470, 2156969482, 2156969472, 2156969478], "tags": {"brand": "O'Reilly Auto Parts", "brand:wikidata": "Q7071951", "building": "yes", "name": "O'Reilly Auto Parts", "shop": "car_parts", "website": "https://locations.oreillyauto.com/co/pagosasprings/autoparts-5878.html"}}, {"type": "way", "id": 469223160, "nodes": [4636038376, 4636038375, 4636038374, 4636038373, 2154849607, 4636038372, 4636038371, 4636038370, 4636038376], "tags": {"addr:city": "Pagosa Springs", "addr:housenumber": "95", "addr:postcode": "81147", "addr:state": "CO", "addr:street": "South Pagosa Boulevard", "amenity": "hospital", "beds": "11", "emergency": "yes", "healthcare": "hospital", "name": "Pagosa Springs Medical Center", "old_name": "Pagosa Mountain Hospital", "opening_hours": "24/7", "phone": "+1 970 731 3700", "website": "https://www.pagosaspringsmedicalcenter.org/"}}, {"type": "way", "id": 682174598, "nodes": [6388351641, 6388351640, 6388351639, 6388351638, 6388351637, 6388351636, 6388351635, 6388351634, 6388351633, 6388351624, 6388351632, 6388351631, 6388351630, 6388351629, 6388351628, 6388351627, 5315597933, 6388351626, 6388351625, 6388351641], "tags": {"addr:city": "Pagosa Springs", "addr:country": "US", "addr:housenumber": "211", "addr:postcode": "81147", "addr:state": "CO", "addr:street": "Aspen Village Drive", "brand": "Walmart", "brand:wikidata": "Q483551", "building": "retail", "name": "Walmart Supercenter", "opening_hours": "Mo-Su 05:00-24:00", "operator": "Walmart", "operator:wikidata": "Q483551", "payment:app:walmart": "yes", "payment:apple_pay": "no", "payment:google_pay": "no", "payment:samsung_pay": "no", "phone": "+1 970-731-9001", "ref": "5003", "ref:walmart": "5003", "sensory_friendly:accommodation": "dimmed_light;static_screens;no_pa", "sensory_friendly:conditional": "yes @ 08:00-10:00", "shop": "supermarket", "website": "https://www.walmart.com/store/5003-pagosa-springs-co"}}, {"type": "way", "id": 684899998, "nodes": [6417239505, 6417239504, 6417239503, 6417239502, 6417239501, 6417239505], "tags": {"access": "destination", "amenity": "parking", "operator": "Saint Pope John Paul II Catholic Church", "surface": "dirt"}}, {"type": "way", "id": 684899999, "nodes": [6417239509, 6417239508, 6417239507, 6417239506, 6417239509], "tags": {"access": "destination", "amenity": "parking", "operator": "Saint Pope John Paul II Catholic Church", "surface": "dirt"}}, {"type": "way", "id": 684900001, "nodes": [6417239519, 6417239518, 6417239517, 6417239516, 6417239515, 6417239514, 6417239519], "tags": {"access": "destination", "amenity": "parking", "operator": "Saint Pope John Paul II Catholic Church", "surface": "asphalt"}}, {"type": "way", "id": 684900002, "nodes": [6417239523, 6417239522, 6417239521, 6417239520, 6417239523], "tags": {"access": "destination", "amenity": "parking", "operator": "Saint Pope John Paul II Catholic Church", "surface": "asphalt"}}, {"type": "way", "id": 684900003, "nodes": [6417239528, 6417239527, 6417239526, 6417239525, 6417239524, 6417239528], "tags": {"access": "destination", "amenity": "parking", "operator": "Saint Pope John Paul II Catholic Church", "surface": "asphalt"}}, {"type": "way", "id": 684900031, "nodes": [6417245109, 6417245108, 6417245107, 6417245106, 6417245105, 6417245104, 6417245103, 6417245102, 6417239529, 6417245101, 6417245100, 6417245099, 6417245098, 6417245097, 6417245096, 6417245095, 6417245094, 6417245093, 6417245092, 6417245091, 6417245090, 6417245089, 6417245109], "tags": {"addr:city": "Pagosa Springs", "addr:housenumber": "353", "addr:postcode": "81147", "addr:state": "CO", "addr:street": "South Pagosa Boulevard", "amenity": "place_of_worship", "building": "church", "denomination": "roman_catholic", "description": "Also serves the mission of Immaculate Heart of Mary at 451 Lewis St in Pagosa Springs", "diocese": "Pueblo", "name": "Saint Pope John Paul II Catholic Church", "phone": "+1 970-731-5744", "religion": "christian", "website": "http://www.popejohnpauliichurch.org"}}, {"type": "way", "id": 723234507, "nodes": [6783603838, 8984237637, 6783603840, 6783603841, 6783603838], "tags": {"addr:city": "Pagosa Springs", "addr:housenumber": "67", "addr:postcode": "81147", "addr:state": "CO", "addr:street": "Navajo Trail Drive", "amenity": "car_wash", "name": "Cowboy Carwash", "payment:cash": "yes", "payment:credit_cards": "yes", "self_service": "yes"}}, {"type": "way", "id": 723238207, "nodes": [6783633830, 6783633831, 6783633832, 6783633833, 6783633830], "tags": {"addr:city": "Pagosa Springs", "addr:housenumber": "2339", "addr:postcode": "81147", "addr:state": "CO", "addr:street": "Eagle Drive", "building": "yes", "building:levels": "1", "name": "Laundry on the Hill", "opening_hours": "24/7", "payment:cash": "yes", "payment:coins": "yes", "self_service": "yes", "shop": "laundry"}}, {"type": "way", "id": 723238208, "nodes": [6783633830, 6783633834, 6783633835, 6783633836, 6783633837, 6783633832, 6783633833, 6783633830], "tags": {"amenity": "parking", "fee": "no"}}, {"type": "way", "id": 766817882, "nodes": [7161672593, 7161672603, 7161672594, 7161672595, 7161672596, 7161672597, 7161672598, 7161672599, 7161672593], "tags": {"addr:city": "Pagosa Springs", "addr:housenumber": "20", "addr:postcode": "81147", "addr:state": "CO", "addr:street": "Village Drive", "amenity": "restaurant", "bar": "yes", "building": "yes", "cuisine": "chinese", "name": "Shanghai Asian Cuisine", "opening_hours": "Tu-Su 11:00-21:00", "outdoor_seating": "yes", "phone": "+1-970-731-1688", "takeaway": "yes", "website": "http://www.shanghaips.com"}}, {"type": "way", "id": 766817886, "nodes": [7161672611, 7161672612, 7161672613, 12763104715, 7161672614, 7161672615, 7161672617, 7161672611], "tags": {"amenity": "parking", "parking": "surface", "surface": "asphalt"}}, {"type": "way", "id": 766817887, "nodes": [7161672618, 7161672619, 7161672622, 7161672620, 7161672621, 7161672618], "tags": {"amenity": "parking", "parking": "surface", "surface": "unpaved"}}, {"type": "way", "id": 777599680, "nodes": [7256818071, 7256818090, 7256818089, 7256818088, 7256818069, 7256818068, 7256818067, 7256818066, 7256818071], "tags": {"addr:city": "Pagosa Springs", "addr:housenumber": "85", "addr:postcode": "81147", "addr:state": "CO", "addr:street": "Harman Park Drive", "amenity": "police", "building": "yes", "name": "Archuleta County Sheriff's Office"}}, {"type": "way", "id": 1054270986, "nodes": [9688563167, 9688563168, 9688563169, 9688563170, 9688563171, 9688563172, 9688563185, 9688563173, 9688563174, 9688563167], "tags": {"amenity": "parking", "parking": "surface"}}, {"type": "way", "id": 1110325650, "nodes": [10157410881, 10157410882, 10157410883, 10157410884, 10157410885, 10157410886, 10157410887, 10157410888, 10157410889, 10157410890, 10157410891, 10157410892, 10157410895, 10157410893, 10157410894, 10157410881], "tags": {"addr:city": "Pagosa Springs", "addr:housenumber": "109", "addr:postcode": "81147", "addr:state": "CO", "addr:street": "Harman Park Drive", "amenity": "courthouse", "building": "yes", "name": "Archuleta County Courts"}}, {"type": "way", "id": 1378423628, "nodes": [12763100373, 12763100374, 12763100383, 12763100385, 12763100384, 12763100375, 12763100376, 12763100373], "tags": {"amenity": "parking"}}, {"type": "way", "id": 1378423632, "nodes": [12763100386, 12763100387, 12763100388, 12763100389, 12763100390, 12763100391, 12763104710, 12763104711, 12763104709, 12763104708, 12763100386], "tags": {"amenity": "parking"}}, {"type": "way", "id": 1378423633, "nodes": [12763100392, 12763100393, 12763100394, 12763100395, 12763100396, 12763104705, 12763100397, 12763100398, 12763100399, 12763100400, 12763104706, 12763104701, 12763104702, 12763104703, 13126328307, 12763104704, 13126328308, 12763100392], "tags": {"amenity": "parking"}}, {"type": "way", "id": 1447183097, "nodes": [13278070632, 13278070633, 13278070634, 13278070635, 13278070636, 13278070637, 13278070638, 13278070639, 13278070640, 13278070641, 13278070642, 13278070643, 13278070632], "tags": {"amenity": "parking"}}]}