{"version": 0.6, "generator": "Overpass API 0.7.62.8 e802775f", "osm3s": {"timestamp_osm_base": "2025-12-06T19:52:04Z", "copyright": "The data included in this document is from www.openstreetmap.org. The data is made available under ODbL."}, "elements": [{"type": "node", "id": 476078107, "lat": 47.6929851, "lon": -122.3173161, "tags": {"addr:city": "Seattle", "addr:country": "US", "addr:housenumber": "8830", "addr:postcode": "98115", "addr:state": "WA", "addr:street": "Roosevelt Way Northeast", "branch": "Maple Leaf", "check_date": "2025-05-20", "check_date:opening_hours": "2025-05-20", "description": "This is a gym for children ages 4 months through 12 years, offering several programs such as gymnastics classes and birthday celebrations.", "leisure": "fitness_centre", "name": "The Little Gym", "official_name": "The Little Gym of Seattle at Maple Leaf", "opening_hours:signed": "no", "operator": "The Little Gym", "phone": "+1-206-524-2623", "sport": "gymnastics", "website": "https://www.thelittlegym.com/SeattleMapleLeafWA/"}}, {"type": "node", "id": 476743035, "lat": 47.6989153, "lon": -122.325286}, {"type": "node", "id": 476743041, "lat": 47.6986951, "lon": -122.3252868}, {"type": "node", "id": 476743052, "lat": 47.6987217, "lon": -122.3242663}, {"type": "node", "id": 476743060, "lat": 47.6989508, "lon": -122.3242654}, {"type": "node", "id": 476743063, "lat": 47.698951, "lon": -122.3243321}, {"type": "node", "id": 476743065, "lat": 47.6989957, "lon": -122.3244532}, {"type": "node", "id": 476743071, "lat": 47.6989964, "lon": -122.3248801}, {"type": "node", "id": 476743075, "lat": 47.6989147, "lon": -122.3250062}, {"type": "node", "id": 2302600194, "lat": 47.6986936, "lon": -122.3244654}, {"type": "node", "id": 2302600195, "lat": 47.6987221, "lon": -122.3244654}, {"type": "node", "id": 2315238714, "lat": 47.68024, "lon": -122.323934, "tags": {"addr:city": "Seattle", "addr:housenumber": "7110", "addr:postcode": "98115", "addr:street": "Woodlawn Avenue Northeast", "check_date:opening_hours": "2025-05-05", "leisure": "fitness_centre", "name": "Pranify Yoga", "opening_hours": "Mo-Fr 05:30-21:00; Sa 08:00-13:00; Su 08:00-20:30", "opening_hours:signed": "no", "phone": "+1-206-402-6772", "sport": "yoga", "website": "https://pranifyyoga.com/seattle"}}, {"type": "node", "id": 2461755910, "lat": 47.7029894, "lon": -122.325477, "tags": {"addr:city": "Seattle", "addr:country": "US", "addr:housenumber": "301", "addr:postcode": "98125", "addr:state": "WA", "addr:street": "Northeast 103rd Street", "check_date": "2025-09-18", "leisure": "fitness_centre", "level": "0", "name": "F45"}}, {"type": "node", "id": 2463138851, "lat": 47.6792726, "lon": -122.3241583, "tags": {"addr:city": "Seattle", "addr:housenumber": "412", "addr:postcode": "98115", "addr:street": "Northeast 70th Street", "leisure": "fitness_centre", "name": "Flight Room", "source": "King County GIS;data.seattle.gov", "sport": "gymnastics"}}, {"type": "node", "id": 2463139066, "lat": 47.6795116, "lon": -122.3231152, "tags": {"addr:city": "Seattle", "addr:housenumber": "466", "addr:postcode": "98115", "addr:street": "Northeast 70th Street", "leisure": "fitness_centre", "name": "Green Lake Strength & Conditioning", "opening_hours": "Mo-Fr 06:00-13:00,15:30-19:30; Sa,Su 08:00-12:00", "phone": "+1-206-526-5425", "source": "King County GIS;data.seattle.gov", "website": "https://greenlakestrength.com/"}}, {"type": "node", "id": 2463139515, "lat": 47.6806191, "lon": -122.3249468, "tags": {"addr:city": "Seattle", "addr:housenumber": "7203", "addr:postcode": "98115", "addr:street": "Woodlawn Avenue Northeast", "leisure": "fitness_centre", "name": "GreenLake Fitness", "opening_hours": "Mo-Fr 05:00-22:00; Sa,Su 07:00-19:00", "source": "King County GIS;data.seattle.gov", "website": "https://greenlakefitness.com"}}, {"type": "node", "id": 2463987849, "lat": 47.6903199, "lon": -122.2909358, "tags": {"addr:city": "Seattle", "addr:housenumber": "8501", "addr:postcode": "98115", "addr:street": "35th Avenue Northeast", "check_date": "2025-03-05", "check_date:opening_hours": "2024-09-28", "leisure": "fitness_centre", "name": "Body & Brain", "opening_hours:signed": "no", "phone": "+1-206-223-9642", "source": "King County GIS;data.seattle.gov;survey", "sport": "yoga", "website": "https://www.bodynbrain.com/"}}, {"type": "node", "id": 2995132086, "lat": 47.6799493, "lon": -122.32429, "tags": {"addr:city": "Seattle", "addr:housenumber": "406", "addr:postcode": "98115", "addr:street": "Northeast 71st Street", "brand": "Pure Barre", "brand:wikidata": "Q86707084", "check_date:opening_hours": "2025-05-05", "leisure": "fitness_centre", "name": "Pure Barre", "opening_hours:signed": "no", "sport": "barre"}}, {"type": "node", "id": 3390526994, "lat": 47.7082365, "lon": -122.3229393, "tags": {"brand": "24 Hour Fitness", "brand:wikidata": "Q4631849", "check_date": "2024-11-22", "check_date:opening_hours": "2024-08-09", "contact:website": "https://www.24hourfitness.com/Website/Club/00886", "leisure": "fitness_centre", "name": "24 Hour Fitness", "opening_hours": "Mo-Su 05:00-23:00", "sport": "fitness"}}, {"type": "node", "id": 9723281232, "lat": 47.6954653, "lon": -122.3402229, "tags": {"description": "Robert Eagle Staff Middle School Gymnasium", "leisure": "sports_hall"}}, {"type": "node", "id": 9821351937, "lat": 47.6989387, "lon": -122.3249691, "tags": {"entrance": "main"}}, {"type": "node", "id": 11160050275, "lat": 47.6778569, "lon": -122.3265772, "tags": {"addr:housenumber": "6869", "addr:street": "Woodlawn Avenue Northeast", "addr:unit": "100", "check_date": "2023-08-31", "leisure": "fitness_centre", "name": "Yoga by Fran Gallo", "sport": "yoga", "website": "https://frangallo.com"}}, {"type": "node", "id": 12591535762, "lat": 47.7083034, "lon": -122.320165, "tags": {"addr:city": "Seattle", "addr:country": "US", "addr:housenumber": "809", "addr:postcode": "98125", "addr:state": "WA", "addr:street": "Northeast Northgate Way", "brand": "Anytime Fitness", "brand:wikidata": "Q4778364", "check_date": "2025-08-08", "leisure": "fitness_centre", "name": "Anytime Fitness", "opening_hours": "24/7", "was:name": "Mattress Firm", "was:shop": "bed"}}, {"type": "way", "id": 39767587, "nodes": [2302600194, 476743041, 476743035, 476743075, 9821351937, 476743071, 476743065, 476743063, 476743060, 476743052, 2302600195, 2302600194], "tags": {"addr:city": "Seattle", "addr:housenumber": "333", "addr:postcode": "98115", "addr:street": "Northeast 97th Street", "building": "yes", "leisure": "fitness_centre", "name": "Seattle Athletic Club", "opening_hours": "Mo-Fr 05:30-22:00; Sa,Su 07:00-20:00", "source": "King County GIS;data.seattle.gov", "source_ref": "local knowledge", "sport": "basketball;racquet"}}]}