{"version": 0.6, "generator": "Overpass API 0.7.62.8 e802775f", "osm3s": {"timestamp_osm_base": "2025-12-06T22:02:44Z", "copyright": "The data included in this document is from www.openstreetmap.org. The data is made available under ODbL."}, "elements": [{"type": "node", "id": 9090714991, "lat": 48.2174916, "lon": -122.3304332}, {"type": "node", "id": 9090714992, "lat": 48.2173275, "lon": -122.330535}, {"type": "node", "id": 9090714993, "lat": 48.2174008, "lon": -122.3307877}, {"type": "node", "id": 9090714994, "lat": 48.2175659, "lon": -122.3306925}, {"type": "node", "id": 9090714995, "lat": 48.2175611, "lon": -122.3306934}, {"type": "node", "id": 9090714996, "lat": 48.2176124, "lon": -122.3308762}, {"type": "node", "id": 9090714997, "lat": 48.2174078, "lon": -122.3310057}, {"type": "node", "id": 9090714998, "lat": 48.2173564, "lon": -122.3308228}, {"type": "node", "id": 9858541415, "lat": 48.2137153, "lon": -122.3304177}, {"type": "node", "id": 9858541416, "lat": 48.2135351, "lon": -122.3303757}, {"type": "node", "id": 9858594617, "lat": 48.2135515, "lon": -122.3302174}, {"type": "node", "id": 9858594618, "lat": 48.2136522, "lon": -122.3302409}, {"type": "node", "id": 9858594619, "lat": 48.2136478, "lon": -122.3302826}, {"type": "node", "id": 9858594620, "lat": 48.2137274, "lon": -122.3303012}, {"type": "node", "id": 9879273081, "lat": 48.2225798, "lon": -122.3342979}, {"type": "node", "id": 9879273082, "lat": 48.2225933, "lon": -122.3341906}, {"type": "node", "id": 9879273083, "lat": 48.2225852, "lon": -122.3341892}, {"type": "node", "id": 9879273084, "lat": 48.2225968, "lon": -122.3340967}, {"type": "node", "id": 9879273085, "lat": 48.2225218, "lon": -122.3340779}, {"type": "node", "id": 9879273086, "lat": 48.2225102, "lon": -122.3341704}, {"type": "node", "id": 9879273087, "lat": 48.2225012, "lon": -122.3341691}, {"type": "node", "id": 9879273088, "lat": 48.2224896, "lon": -122.3342764}, {"type": "node", "id": 9879273093, "lat": 48.2222017, "lon": -122.3337829}, {"type": "node", "id": 9879273094, "lat": 48.222128, "lon": -122.3337815}, {"type": "node", "id": 9879273095, "lat": 48.2221275, "lon": -122.3338452}, {"type": "node", "id": 9879273096, "lat": 48.2221128, "lon": -122.3338445}, {"type": "node", "id": 9879273097, "lat": 48.2221123, "lon": -122.3339069}, {"type": "node", "id": 9879273098, "lat": 48.2221583, "lon": -122.3339076}, {"type": "node", "id": 9879273099, "lat": 48.222157, "lon": -122.3339545}, {"type": "node", "id": 9879273100, "lat": 48.2221985, "lon": -122.3339565}, {"type": "node", "id": 9879273101, "lat": 48.2221994, "lon": -122.3339069}, {"type": "node", "id": 9879273102, "lat": 48.222216, "lon": -122.3339076}, {"type": "node", "id": 9879273103, "lat": 48.2222169, "lon": -122.3338486}, {"type": "node", "id": 9879273104, "lat": 48.2222008, "lon": -122.3338479}, {"type": "node", "id": 9879394716, "lat": 48.2220343, "lon": -122.3337427}, {"type": "node", "id": 9879417917, "lat": 48.2219655, "lon": -122.3337407}, {"type": "node", "id": 9879417918, "lat": 48.221965, "lon": -122.3339285}, {"type": "node", "id": 9879417919, "lat": 48.2220334, "lon": -122.3339305}, {"type": "node", "id": 9879417920, "lat": 48.2212621, "lon": -122.3331814}, {"type": "node", "id": 9879417921, "lat": 48.2211968, "lon": -122.3331305}, {"type": "node", "id": 9879417922, "lat": 48.2211414, "lon": -122.3332901}, {"type": "node", "id": 9879417923, "lat": 48.2212058, "lon": -122.3333437}, {"type": "node", "id": 9879417924, "lat": 48.2209525, "lon": -122.3327693}, {"type": "node", "id": 9879417925, "lat": 48.2208917, "lon": -122.3328377}, {"type": "node", "id": 9879417926, "lat": 48.2208577, "lon": -122.3327679}, {"type": "node", "id": 9879417927, "lat": 48.2208336, "lon": -122.3327921}, {"type": "node", "id": 9879417928, "lat": 48.2208015, "lon": -122.3327183}, {"type": "node", "id": 9879417929, "lat": 48.2208265, "lon": -122.3326902}, {"type": "node", "id": 9879417930, "lat": 48.2208327, "lon": -122.3327036}, {"type": "node", "id": 9879417931, "lat": 48.2208926, "lon": -122.3326405}, {"type": "node", "id": 9879417932, "lat": 48.2202117, "lon": -122.3326258}, {"type": "node", "id": 9879417933, "lat": 48.2202528, "lon": -122.3325842}, {"type": "node", "id": 9879417934, "lat": 48.2202457, "lon": -122.3325681}, {"type": "node", "id": 9879417935, "lat": 48.220293, "lon": -122.3325185}, {"type": "node", "id": 9879417936, "lat": 48.2204092, "lon": -122.3327867}, {"type": "node", "id": 9879417937, "lat": 48.2203699, "lon": -122.3328243}, {"type": "node", "id": 9879417938, "lat": 48.2203565, "lon": -122.3327921}, {"type": "node", "id": 9879417939, "lat": 48.2203484, "lon": -122.3328001}, {"type": "node", "id": 9879417940, "lat": 48.2202993, "lon": -122.3326861}, {"type": "node", "id": 9879417941, "lat": 48.2202859, "lon": -122.3326995}, {"type": "node", "id": 9879417942, "lat": 48.2202671, "lon": -122.3326593}, {"type": "node", "id": 9879417943, "lat": 48.2202412, "lon": -122.3326875}, {"type": "node", "id": 9943291562, "lat": 48.2198081, "lon": -122.3333046}, {"type": "node", "id": 9943291563, "lat": 48.2198856, "lon": -122.3332214}, {"type": "node", "id": 9943291564, "lat": 48.2198206, "lon": -122.333087}, {"type": "node", "id": 9943291565, "lat": 48.2197438, "lon": -122.3331698}, {"type": "node", "id": 9943297098, "lat": 48.2193951, "lon": -122.3334038}, {"type": "node", "id": 9943297099, "lat": 48.2193633, "lon": -122.33344}, {"type": "node", "id": 9943297100, "lat": 48.2193573, "lon": -122.3334276}, {"type": "node", "id": 9943297101, "lat": 48.2193522, "lon": -122.3334347}, {"type": "node", "id": 9943297102, "lat": 48.2193459, "lon": -122.3334223}, {"type": "node", "id": 9943297103, "lat": 48.2193624, "lon": -122.3334025}, {"type": "node", "id": 9943297104, "lat": 48.21936, "lon": -122.3333981}, {"type": "node", "id": 9943297105, "lat": 48.2193803, "lon": -122.3333747}, {"type": "node", "id": 9943411977, "lat": 48.2183313, "lon": -122.3299746}, {"type": "node", "id": 9943411978, "lat": 48.218313, "lon": -122.3298787}, {"type": "node", "id": 9943411979, "lat": 48.2182576, "lon": -122.3298995}, {"type": "node", "id": 9943411980, "lat": 48.2182517, "lon": -122.3298673}, {"type": "node", "id": 9943411981, "lat": 48.2181476, "lon": -122.3299089}, {"type": "node", "id": 9943411982, "lat": 48.2181543, "lon": -122.3299431}, {"type": "node", "id": 9943411983, "lat": 48.2181316, "lon": -122.3299525}, {"type": "node", "id": 9943411984, "lat": 48.2181387, "lon": -122.3299994}, {"type": "node", "id": 9943411985, "lat": 48.2181311, "lon": -122.3300055}, {"type": "node", "id": 9943411986, "lat": 48.2181097, "lon": -122.3299491}, {"type": "node", "id": 9943411987, "lat": 48.2180047, "lon": -122.3300263}, {"type": "node", "id": 9943411988, "lat": 48.2180395, "lon": -122.3301262}, {"type": "node", "id": 9943411989, "lat": 48.2181499, "lon": -122.3300437}, {"type": "node", "id": 9943411990, "lat": 48.2181508, "lon": -122.3300497}, {"type": "node", "id": 9943411991, "lat": 48.2181566, "lon": -122.3300477}, {"type": "node", "id": 9943411992, "lat": 48.2181588, "lon": -122.3300538}, {"type": "node", "id": 9943411993, "lat": 48.2181803, "lon": -122.3300464}, {"type": "node", "id": 9943411994, "lat": 48.2181838, "lon": -122.3300678}, {"type": "node", "id": 9943411995, "lat": 48.2182348, "lon": -122.3300477}, {"type": "node", "id": 9943411996, "lat": 48.2182325, "lon": -122.3300336}, {"type": "node", "id": 9943411997, "lat": 48.2182406, "lon": -122.3300102}, {"type": "node", "id": 9943422418, "lat": 48.220688, "lon": -122.3323497}, {"type": "node", "id": 9943422419, "lat": 48.2208189, "lon": -122.3322049}, {"type": "node", "id": 9943422420, "lat": 48.2207671, "lon": -122.3321036}, {"type": "node", "id": 9943422421, "lat": 48.2206706, "lon": -122.3322116}, {"type": "node", "id": 9943422422, "lat": 48.2206223, "lon": -122.3321117}, {"type": "node", "id": 9943422423, "lat": 48.2205803, "lon": -122.3321559}, {"type": "node", "id": 9943422424, "lat": 48.2205915, "lon": -122.3321774}, {"type": "node", "id": 9943422425, "lat": 48.2205526, "lon": -122.3322156}, {"type": "node", "id": 9943422426, "lat": 48.2206134, "lon": -122.3323316}, {"type": "node", "id": 9943422427, "lat": 48.2206558, "lon": -122.332284}, {"type": "node", "id": 9945562489, "lat": 48.2197838, "lon": -122.3327138}, {"type": "node", "id": 9945562490, "lat": 48.2197149, "lon": -122.332569}, {"type": "node", "id": 9945562491, "lat": 48.2196193, "lon": -122.3326696}, {"type": "node", "id": 9945562492, "lat": 48.2196899, "lon": -122.3328144}, {"type": "node", "id": 9945628343, "lat": 48.2202261, "lon": -122.3328828}, {"type": "node", "id": 9945628344, "lat": 48.2201948, "lon": -122.3328097}, {"type": "node", "id": 9945628345, "lat": 48.2202037, "lon": -122.3328017}, {"type": "node", "id": 9945628346, "lat": 48.2201693, "lon": -122.3327239}, {"type": "node", "id": 9945628347, "lat": 48.2201501, "lon": -122.3327413}, {"type": "node", "id": 9945628348, "lat": 48.220126, "lon": -122.3326897}, {"type": "node", "id": 9945628349, "lat": 48.2200965, "lon": -122.3327179}, {"type": "node", "id": 9945628350, "lat": 48.2201876, "lon": -122.3329244}, {"type": "node", "id": 12750529606, "lat": 48.2324042, "lon": -122.3281267}, {"type": "node", "id": 12750529607, "lat": 48.2323789, "lon": -122.3280065}, {"type": "node", "id": 12750529608, "lat": 48.2322772, "lon": -122.3280548}, {"type": "node", "id": 12750529609, "lat": 48.2323025, "lon": -122.328175}, {"type": "node", "id": 12750529610, "lat": 48.2324735, "lon": -122.3284634}, {"type": "node", "id": 12750529611, "lat": 48.2324736, "lon": -122.3283157}, {"type": "node", "id": 12750529612, "lat": 48.2324003, "lon": -122.3283156}, {"type": "node", "id": 12750529613, "lat": 48.2324002, "lon": -122.3284633}, {"type": "way", "id": 983167093, "nodes": [9090714991, 9090714992, 9090714993, 9090714995, 9090714994, 9090714991], "tags": {"building": "yes"}}, {"type": "way", "id": 983167094, "nodes": [9090714995, 9090714996, 9090714997, 9090714998, 9090714995], "tags": {"building": "yes"}}, {"type": "way", "id": 1074869744, "nodes": [9858541415, 9858541416, 9858594617, 9858594618, 9858594619, 9858594620, 9858541415], "tags": {"addr:city": "Stanwood", "addr:housenumber": "7221", "addr:postcode": "98292", "addr:state": "WA", "addr:street": "Norman Road", "building": "yes"}}, {"type": "way", "id": 1077482726, "nodes": [9879273081, 9879273082, 9879273083, 9879273084, 9879273085, 9879273086, 9879273087, 9879273088, 9879273081], "tags": {"addr:city": "Stanwood", "addr:housenumber": "24912", "addr:postcode": "98292", "addr:state": "WA", "addr:street": "Florence Road", "building": "house"}}, {"type": "way", "id": 1077482728, "nodes": [9879273093, 9879273094, 9879273095, 9879273096, 9879273097, 9879273098, 9879273099, 9879273100, 9879273101, 9879273102, 9879273103, 9879273104, 9879273093], "tags": {"addr:city": "Stanwood", "addr:housenumber": "24832", "addr:postcode": "98292", "addr:state": "WA", "addr:street": "Florence Road", "building": "house"}}, {"type": "way", "id": 1077491904, "nodes": [9879394716, 9879417917, 9879417918, 9879417919, 9879394716], "tags": {"addr:city": "Stanwood", "addr:housenumber": "24804", "addr:postcode": "98292", "addr:state": "WA", "addr:street": "Florence Road", "building": "house"}}, {"type": "way", "id": 1077491905, "nodes": [9879417920, 9879417921, 9879417922, 9879417923, 9879417920], "tags": {"addr:city": "Stanwood", "addr:housenumber": "24726", "addr:postcode": "98292", "addr:state": "WA", "addr:street": "Florence Road", "building": "house"}}, {"type": "way", "id": 1077491906, "nodes": [9879417924, 9879417925, 9879417926, 9879417927, 9879417928, 9879417929, 9879417930, 9879417931, 9879417924], "tags": {"addr:city": "Stanwood", "addr:housenumber": "24720", "addr:postcode": "98292", "addr:state": "WA", "addr:street": "Florence Road", "building": "house"}}, {"type": "way", "id": 1077491907, "nodes": [9879417932, 9879417933, 9879417934, 9879417935, 9879417936, 9879417937, 9879417938, 9879417939, 9879417940, 9879417941, 9879417942, 9879417943, 9879417932], "tags": {"addr:city": "Stanwood", "addr:housenumber": "24626", "addr:postcode": "98292", "addr:state": "WA", "addr:street": "Florence Road", "building": "house"}}, {"type": "way", "id": 1085170808, "nodes": [9943297098, 9943297099, 9943297100, 9943297101, 9943297102, 9943297103, 9943297104, 9943297105, 9943297098], "tags": {"amenity": "cafe", "building": "yes", "cuisine": "coffee_shop", "internet_access": "no", "name": "S & T Espresso", "service": "drive-through", "takeaway": "only"}}, {"type": "way", "id": 1085171251, "nodes": [9943291562, 9943291563, 9943291564, 9943291565, 9943291562], "tags": {"addr:city": "Stanwood", "addr:housenumber": "24526", "addr:postcode": "98292", "addr:state": "WA", "addr:street": "Florence Road", "building": "house"}}, {"type": "way", "id": 1085182297, "nodes": [9943422418, 9943422419, 9943422420, 9943422421, 9943422422, 9943422423, 9943422424, 9943422425, 9943422426, 9943422427, 9943422418], "tags": {"addr:city": "Stanwood", "addr:housenumber": "24712", "addr:postcode": "98292", "addr:state": "WA", "addr:street": "Florence Road", "building": "house"}}, {"type": "way", "id": 1085182538, "nodes": [9943411977, 9943411978, 9943411979, 9943411980, 9943411981, 9943411982, 9943411983, 9943411984, 9943411985, 9943411986, 9943411987, 9943411988, 9943411989, 9943411990, 9943411991, 9943411992, 9943411993, 9943411994, 9943411995, 9943411996, 9943411997, 9943411977], "tags": {"addr:city": "Stanwood", "addr:housenumber": "24332", "addr:postcode": "98292", "addr:state": "WA", "addr:street": "Miller Road", "building": "house"}}, {"type": "way", "id": 1085402166, "nodes": [9945562489, 9945562490, 9945562491, 9945562492, 9945562489], "tags": {"building": "barn"}}, {"type": "way", "id": 1085407338, "nodes": [9945628343, 9945628344, 9945628345, 9945628346, 9945628347, 9945628348, 9945628349, 9945628350, 9945628343], "tags": {"addr:city": "Stanwood", "addr:housenumber": "24622", "addr:postcode": "98292", "addr:state": "WA", "addr:street": "Florence Road", "building": "house"}}, {"type": "way", "id": 1377057969, "nodes": [12750529606, 12750529607, 12750529608, 12750529609, 12750529606], "tags": {"building": "yes"}}, {"type": "way", "id": 1377057970, "nodes": [12750529610, 12750529611, 12750529612, 12750529613, 12750529610], "tags": {"building": "yes"}}]}