{"version": 0.6, "generator": "Overpass API 0.7.62.8 e802775f", "osm3s": {"timestamp_osm_base": "2025-12-08T21:55:30Z", "copyright": "The data included in this document is from www.openstreetmap.org. The data is made available under ODbL."}, "elements": [{"type": "node", "id": 357929031, "lat": 48.5429488, "lon": -109.6901488}, {"type": "node", "id": 357972778, "lat": 48.5470478, "lon": -109.7048431, "tags": {"amenity": "school", "ele": "811", "gnis:feature_id": "1743990", "name": "Havre Christian School"}}, {"type": "node", "id": 357972790, "lat": 48.5440626, "lon": -109.7076449, "tags": {"addr:housenumber": "1441", "addr:street": "11th Street West", "entrance": "main"}}, {"type": "node", "id": 357972940, "lat": 48.5433997, "lon": -109.705102}, {"type": "node", "id": 357972948, "lat": 48.5469574, "lon": -109.6996086, "tags": {"amenity": "place_of_worship", "ele": "809", "gnis:feature_id": "1744074", "name": "Assembly of God Church", "religion": "christian"}}, {"type": "node", "id": 2167507811, "lat": 48.5593953, "lon": -109.7152643, "tags": {"name": "Herberger's", "shop": "clothes"}}, {"type": "node", "id": 2186304354, "lat": 48.5590956, "lon": -109.7144511, "tags": {"brand": "RadioShack", "brand:wikidata": "Q1195490", "name": "RadioShack", "shop": "electronics"}}, {"type": "node", "id": 2206692027, "lat": 48.5434515, "lon": -109.7073137}, {"type": "node", "id": 2206692029, "lat": 48.5435767, "lon": -109.7075198}, {"type": "node", "id": 2206692033, "lat": 48.5436799, "lon": -109.7075375}, {"type": "node", "id": 2206692036, "lat": 48.5437748, "lon": -109.7075537}, {"type": "node", "id": 2206692037, "lat": 48.5438489, "lon": -109.7081109}, {"type": "node", "id": 2206692038, "lat": 48.54385, "lon": -109.7077831}, {"type": "node", "id": 2206692039, "lat": 48.5440622, "lon": -109.7077846}, {"type": "node", "id": 2206692040, "lat": 48.5440634, "lon": -109.7074063}, {"type": "node", "id": 2206692041, "lat": 48.5440533, "lon": -109.7064273}, {"type": "node", "id": 2206692043, "lat": 48.5441748, "lon": -109.7068592}, {"type": "node", "id": 2206692044, "lat": 48.5441748, "lon": -109.7069241}, {"type": "node", "id": 2206692046, "lat": 48.5442243, "lon": -109.7074075}, {"type": "node", "id": 2206692047, "lat": 48.5442252, "lon": -109.7071323}, {"type": "node", "id": 2206692048, "lat": 48.5442217, "lon": -109.7084921}, {"type": "node", "id": 2206692049, "lat": 48.5442229, "lon": -109.7081137}, {"type": "node", "id": 2206692050, "lat": 48.5442259, "lon": -109.7066832}, {"type": "node", "id": 2206692051, "lat": 48.5442608, "lon": -109.706735}, {"type": "node", "id": 2206692052, "lat": 48.544378, "lon": -109.7071334}, {"type": "node", "id": 2206692053, "lat": 48.5443783, "lon": -109.7070479}, {"type": "node", "id": 2206692054, "lat": 48.5445372, "lon": -109.7070491}, {"type": "node", "id": 2206692055, "lat": 48.5445378, "lon": -109.7068524}, {"type": "node", "id": 2206692056, "lat": 48.5445453, "lon": -109.7084945}, {"type": "node", "id": 2206692057, "lat": 48.5445455, "lon": -109.7084385}, {"type": "node", "id": 2206692059, "lat": 48.5448438, "lon": -109.7084407}, {"type": "node", "id": 2206692060, "lat": 48.5448489, "lon": -109.7068546}, {"type": "node", "id": 2206943117, "lat": 48.5429877, "lon": -109.6897547}, {"type": "node", "id": 2206943119, "lat": 48.5430829, "lon": -109.6888884}, {"type": "node", "id": 2206943125, "lat": 48.5433604, "lon": -109.6875389}, {"type": "node", "id": 2206943127, "lat": 48.5435164, "lon": -109.6867324}, {"type": "node", "id": 2206943130, "lat": 48.5435243, "lon": -109.685934}, {"type": "node", "id": 2206943132, "lat": 48.5435481, "lon": -109.6862374}, {"type": "node", "id": 2208561974, "lat": 48.5502176, "lon": -109.7079877}, {"type": "node", "id": 2208561975, "lat": 48.5502189, "lon": -109.7069826}, {"type": "node", "id": 2208561995, "lat": 48.5506193, "lon": -109.7079888}, {"type": "node", "id": 2208561996, "lat": 48.5506206, "lon": -109.7069837}, {"type": "node", "id": 3474139334, "lat": 48.5551748, "lon": -109.6896949}, {"type": "node", "id": 3474139344, "lat": 48.5542217, "lon": -109.6892665}, {"type": "node", "id": 3474139348, "lat": 48.5551804, "lon": -109.6923058, "tags": {"amenity": "fast_food", "brand": "Taco Time", "brand:wikidata": "Q7673969", "check_date": "2015-04-23", "cuisine": "mexican", "name": "Taco Time", "takeaway": "yes"}}, {"type": "node", "id": 3474139353, "lat": 48.5548712, "lon": -109.6897523}, {"type": "node", "id": 3474139360, "lat": 48.5542881, "lon": -109.6892534}, {"type": "node", "id": 3474139378, "lat": 48.554104, "lon": -109.6864013, "tags": {"amenity": "fuel", "brand": "Exxon", "brand:wikidata": "Q109675651", "name": "Exxon"}}, {"type": "node", "id": 3474139384, "lat": 48.5544854, "lon": -109.6892284}, {"type": "node", "id": 3474139390, "lat": 48.5548865, "lon": -109.689937}, {"type": "node", "id": 3474141195, "lat": 48.5551901, "lon": -109.6898796}, {"type": "node", "id": 3474141201, "lat": 48.5542379, "lon": -109.6894533}, {"type": "node", "id": 3474141204, "lat": 48.5543754, "lon": -109.6892501}, {"type": "node", "id": 3474141205, "lat": 48.5545004, "lon": -109.6894015}, {"type": "node", "id": 3474141232, "lat": 48.5543707, "lon": -109.6891955}, {"type": "node", "id": 3474141233, "lat": 48.5542846, "lon": -109.6892125}, {"type": "node", "id": 3474141234, "lat": 48.5542149, "lon": -109.6871238, "tags": {"amenity": "fuel", "brand": "Holiday", "brand:wikidata": "Q5880490", "name": "Holiday", "website": "https://www.circlek.com/store-locator/US/havre/200-w-1st-st/2746272"}}, {"type": "node", "id": 3475288229, "lat": 48.5432765, "lon": -109.692937}, {"type": "node", "id": 3475288233, "lat": 48.5430863, "lon": -109.6923144}, {"type": "node", "id": 3475288234, "lat": 48.5432825, "lon": -109.6923187}, {"type": "node", "id": 3475288238, "lat": 48.5430803, "lon": -109.6929327}, {"type": "node", "id": 3475290313, "lat": 48.5417314, "lon": -109.6997255}, {"type": "node", "id": 3475290338, "lat": 48.5406058, "lon": -109.6999103}, {"type": "node", "id": 3475290349, "lat": 48.5420979, "lon": -109.6986464}, {"type": "node", "id": 3475290370, "lat": 48.5420956, "lon": -109.6999163}, {"type": "node", "id": 3475290380, "lat": 48.5419358, "lon": -109.6988293}, {"type": "node", "id": 3475290385, "lat": 48.5419356, "lon": -109.6986419}, {"type": "node", "id": 3475290390, "lat": 48.540608, "lon": -109.6986404}, {"type": "node", "id": 3475290411, "lat": 48.541941, "lon": -109.6997362}, {"type": "node", "id": 3475290415, "lat": 48.5419481, "lon": -109.6988806}, {"type": "node", "id": 3475290426, "lat": 48.5417334, "lon": -109.6998995}, {"type": "node", "id": 4912962301, "lat": 48.5394926, "lon": -109.6863798}, {"type": "node", "id": 4912962302, "lat": 48.5394775, "lon": -109.6929602}, {"type": "node", "id": 4912962303, "lat": 48.5429086, "lon": -109.6929678}, {"type": "node", "id": 4912962304, "lat": 48.5429086, "lon": -109.6913645}, {"type": "node", "id": 4912962305, "lat": 48.5434419, "lon": -109.6856884}, {"type": "node", "id": 4912962306, "lat": 48.5432859, "lon": -109.6835987}, {"type": "node", "id": 4912962307, "lat": 48.543135, "lon": -109.683386}, {"type": "node", "id": 4912962308, "lat": 48.5428734, "lon": -109.6821398}, {"type": "node", "id": 4912962309, "lat": 48.5429891, "lon": -109.680962}, {"type": "node", "id": 4912962310, "lat": 48.5428985, "lon": -109.6793663}, {"type": "node", "id": 4912962311, "lat": 48.5424709, "lon": -109.6793967}, {"type": "node", "id": 4912962312, "lat": 48.5423452, "lon": -109.6783101}, {"type": "node", "id": 4912962313, "lat": 48.5420081, "lon": -109.6783861}, {"type": "node", "id": 4912962314, "lat": 48.5415956, "lon": -109.6781961}, {"type": "node", "id": 4912962315, "lat": 48.5415503, "lon": -109.6776946}, {"type": "node", "id": 4912962316, "lat": 48.5409114, "lon": -109.6777098}, {"type": "node", "id": 4912962317, "lat": 48.5408912, "lon": -109.6779606}, {"type": "node", "id": 4912962318, "lat": 48.5408208, "lon": -109.6782569}, {"type": "node", "id": 4912962319, "lat": 48.5406598, "lon": -109.6786141}, {"type": "node", "id": 4912962320, "lat": 48.5405139, "lon": -109.6787964}, {"type": "node", "id": 4912962421, "lat": 48.5402724, "lon": -109.6788952}, {"type": "node", "id": 4912962422, "lat": 48.5399756, "lon": -109.6790776}, {"type": "node", "id": 4912962423, "lat": 48.5397442, "lon": -109.6793587}, {"type": "node", "id": 4912962424, "lat": 48.5396234, "lon": -109.6795639}, {"type": "node", "id": 4912962425, "lat": 48.5395178, "lon": -109.679921}, {"type": "node", "id": 4912962426, "lat": 48.5394524, "lon": -109.6803313}, {"type": "node", "id": 4912962427, "lat": 48.5394675, "lon": -109.6809164}, {"type": "node", "id": 4912962428, "lat": 48.5394775, "lon": -109.6850957}, {"type": "node", "id": 5517213323, "lat": 48.5595261, "lon": -109.7147358, "tags": {"name": "Northstar Athletics", "shop": "shoes"}}, {"type": "node", "id": 5517217821, "lat": 48.5585213, "lon": -109.7154325, "tags": {"name": "North40", "shop": "department_store"}}, {"type": "node", "id": 6817679626, "lat": 48.5544226, "lon": -109.6907042, "tags": {"amenity": "fast_food", "brand": "A&W", "brand:wikidata": "Q277641", "cuisine": "burger", "name": "A&W", "takeaway": "yes"}}, {"type": "node", "id": 8262569550, "lat": 48.5540333, "lon": -109.6859647, "tags": {"name": "Town Pump", "shop": "convenience"}}, {"type": "node", "id": 8262569581, "lat": 48.5540233, "lon": -109.6873817}, {"type": "node", "id": 8262569582, "lat": 48.5539879, "lon": -109.6873893}, {"type": "node", "id": 8262569583, "lat": 48.5539497, "lon": -109.6869849}, {"type": "node", "id": 8262569584, "lat": 48.5540619, "lon": -109.6869607}, {"type": "node", "id": 8262569585, "lat": 48.5540937, "lon": -109.6872969}, {"type": "node", "id": 8262569586, "lat": 48.5540169, "lon": -109.6873135}, {"type": "node", "id": 8262569596, "lat": 48.554593, "lon": -109.686431, "tags": {"addr:city": "Havre", "addr:housenumber": "149", "addr:postcode": "59501", "addr:state": "MT", "addr:street": "West First Street", "addr:unit": "A", "amenity": "fast_food", "brand": "Subway", "brand:wikidata": "Q244457", "cuisine": "sandwich", "name": "Subway", "opening_hours": "Mo-Sa 09:00-21:00; Su 09:00-20:00", "phone": "+1 406-265-8657", "takeaway": "yes", "website": "https://restaurants.subway.com/united-states/mt/havre/149-w-first-st"}}, {"type": "node", "id": 8262569597, "lat": 48.5547291, "lon": -109.686827, "tags": {"name": "Tire-Rama", "shop": "tyres"}}, {"type": "node", "id": 8262569603, "lat": 48.5542028, "lon": -109.6881609}, {"type": "node", "id": 8262569604, "lat": 48.5543778, "lon": -109.6881269}, {"type": "node", "id": 8262569605, "lat": 48.5543948, "lon": -109.6883229}, {"type": "node", "id": 8262569724, "lat": 48.5542198, "lon": -109.688357}, {"type": "node", "id": 8262569777, "lat": 48.555243, "lon": -109.6917}, {"type": "node", "id": 8262569778, "lat": 48.555254, "lon": -109.691858}, {"type": "node", "id": 8262569779, "lat": 48.555045, "lon": -109.691891}, {"type": "node", "id": 8262569790, "lat": 48.5552279, "lon": -109.6912183, "tags": {"amenity": "casino", "name": "Bullhook Bottoms Casino"}}, {"type": "node", "id": 8262569793, "lat": 48.5550591, "lon": -109.6910993, "tags": {"name": "Liquor Stop Plus", "shop": "alcohol"}}, {"type": "node", "id": 8262569794, "lat": 48.555034, "lon": -109.691733}, {"type": "node", "id": 8269163564, "lat": 48.543021, "lon": -109.6828431}, {"type": "node", "id": 8272980076, "lat": 48.5545317, "lon": -109.6914347, "tags": {"amenity": "casino", "name": "Lucky Lil's Casino"}}, {"type": "node", "id": 8273000238, "lat": 48.5547968, "lon": -109.6944299, "tags": {"amenity": "cafe", "name": "The Press"}}, {"type": "node", "id": 8273000239, "lat": 48.5549002, "lon": -109.6961986, "tags": {"amenity": "restaurant", "name": "Bow & Marrow"}}, {"type": "node", "id": 8273000240, "lat": 48.5551958, "lon": -109.6993212, "tags": {"name": "Fleet Wholesale Supply", "shop": "hardware"}}, {"type": "node", "id": 9930412096, "lat": 48.5466172, "lon": -109.7093057}, {"type": "node", "id": 9930412097, "lat": 48.5430343, "lon": -109.7093152}, {"type": "node", "id": 9930412098, "lat": 48.5430311, "lon": -109.7054242}, {"type": "node", "id": 9930412099, "lat": 48.5435993, "lon": -109.7054338}, {"type": "node", "id": 9930412100, "lat": 48.5437004, "lon": -109.7055291}, {"type": "node", "id": 9930412101, "lat": 48.5437035, "lon": -109.7056626}, {"type": "node", "id": 9930412102, "lat": 48.5447579, "lon": -109.705677}, {"type": "node", "id": 9930412103, "lat": 48.5447453, "lon": -109.7039889}, {"type": "node", "id": 9930412104, "lat": 48.5466015, "lon": -109.7040319}, {"type": "node", "id": 10853559198, "lat": 48.5527638, "lon": -109.7079988}, {"type": "node", "id": 10853559199, "lat": 48.5527584, "lon": -109.7068605}, {"type": "node", "id": 10853559200, "lat": 48.5522417, "lon": -109.7068523}, {"type": "node", "id": 10853559201, "lat": 48.5522363, "lon": -109.7079907}, {"type": "node", "id": 11278155726, "lat": 48.5432114, "lon": -109.7051007}, {"type": "node", "id": 11278155727, "lat": 48.5432124, "lon": -109.7048915}, {"type": "node", "id": 11278155728, "lat": 48.5434007, "lon": -109.7048935}, {"type": "node", "id": 11718195629, "lat": 48.5431585, "lon": -109.6990405, "tags": {"amenity": "fuel", "brand": "Cenex", "brand:wikidata": "Q62127191", "name": "Cenex"}}, {"type": "node", "id": 11718195631, "lat": 48.5434052, "lon": -109.6990141}, {"type": "node", "id": 11718195632, "lat": 48.543408, "lon": -109.6987361}, {"type": "node", "id": 11718195633, "lat": 48.5432791, "lon": -109.6987331}, {"type": "node", "id": 11718195634, "lat": 48.5432763, "lon": -109.6990111}, {"type": "way", "id": 210590487, "nodes": [2206692059, 2206692060, 2206692055, 2206692054, 2206692053, 2206692052, 2206692047, 2206692046, 2206692040, 357972790, 2206692039, 2206692038, 2206692037, 2206692049, 2206692048, 2206692056, 2206692057, 2206692059], "tags": {"addr:housenumber": "1441", "addr:state": "MT", "addr:street": "11th Street West", "amenity": "school", "building": "school", "ele": "798", "gnis:feature_id": "1743995", "name": "Havre Middle School", "phone": "+1-406-395-8552", "website": "https://www.blueponyk12.com/domain/23"}}, {"type": "way", "id": 210590528, "nodes": [2206692027, 2206692029, 2206692033, 2206692036, 2206692044, 2206692043, 2206692051, 2206692050, 2206692041, 2206692027], "tags": {"amenity": "parking", "parking": "surface"}}, {"type": "way", "id": 210819406, "nodes": [2208561995, 2208561996, 2208561975, 2208561974, 2208561995], "tags": {"amenity": "parking", "parking": "surface"}}, {"type": "way", "id": 340205275, "nodes": [3474141205, 3474139384, 3474141204, 3474141232, 3474141233, 3474139360, 3474139344, 3474141201, 3474141205], "tags": {"addr:city": "Havre", "addr:housenumber": "330", "addr:postcode": "59501", "addr:state": "MT", "addr:street": "West 1st Street", "amenity": "restaurant", "brand": "Pizza Hut", "brand:wikidata": "Q191615", "building": "yes", "cuisine": "pizza", "name": "Pizza Hut", "phone": "+1 406-265-6747", "website": "https://locations.pizzahut.com/mt/havre/330-w-1st-st"}}, {"type": "way", "id": 340205279, "nodes": [3474141195, 3474139334, 3474139353, 3474139390, 3474141195], "tags": {"amenity": "fast_food", "brand": "McDonald's", "brand:wikidata": "Q38076", "building": "yes", "cuisine": "burger", "name": "McDonald's", "takeaway": "yes", "website": "https://www.mcdonalds.com/us/en-us/location/mt/havre/331-w-1st/5979.html"}}, {"type": "way", "id": 340312626, "nodes": [3475290370, 3475290349, 3475290385, 3475290380, 3475290415, 3475290411, 3475290313, 3475290426, 3475290370], "tags": {"amenity": "parking"}}, {"type": "way", "id": 340312639, "nodes": [3475290390, 3475290338, 3475290370, 3475290349, 3475290390], "tags": {"amenity": "school"}}, {"type": "way", "id": 340312747, "nodes": [3475288229, 3475288234, 3475288233, 3475288238, 3475288229], "tags": {"amenity": "parking"}}, {"type": "way", "id": 500182336, "nodes": [4912962428, 4912962427, 4912962426, 4912962425, 4912962424, 4912962423, 4912962422, 4912962421, 4912962320, 4912962319, 4912962318, 4912962317, 4912962316, 4912962315, 4912962314, 4912962313, 4912962312, 4912962311, 4912962310, 4912962309, 4912962308, 8269163564, 4912962307, 4912962306, 4912962305, 2206943130, 2206943132, 2206943127, 2206943125, 2206943119, 2206943117, 357929031, 4912962304, 4912962303, 4912962302, 4912962301, 4912962428], "tags": {"addr:city": "Havre", "addr:housenumber": "300", "addr:postcode": "59501", "addr:state": "MT", "addr:street": "13th Street West", "amenity": "university", "gnis:feature_id": "774870", "name": "Montana State University - Northern", "old_name": "Northern Montana College", "phone": "+1 800 662 6132", "website": "http://www.msun.edu/future/", "wikidata": "Q6904331", "wikipedia": "en:Montana State University\u2013Northern"}}, {"type": "way", "id": 888722293, "nodes": [8262569581, 8262569582, 8262569583, 8262569584, 8262569585, 8262569586, 8262569581], "tags": {"addr:city": "Havre", "addr:housenumber": "200", "addr:state": "MT", "addr:street": "1st Street West", "building": "yes", "name": "Holiday Stationstores", "shop": "convenience"}}, {"type": "way", "id": 888722297, "nodes": [8262569724, 8262569603, 8262569604, 8262569605, 8262569724], "tags": {"amenity": "bar", "building": "yes", "name": "The Golden Spike", "source": "microsoft/BuildingFootprints"}}, {"type": "way", "id": 888722340, "nodes": [8262569794, 8262569777, 8262569778, 8262569779, 8262569794], "tags": {"amenity": "restaurant", "building": "yes", "cuisine": "chinese", "name": "Canton Chinese", "source": "microsoft/BuildingFootprints"}}, {"type": "way", "id": 1083621785, "nodes": [9930412096, 9930412097, 9930412098, 9930412099, 9930412100, 9930412101, 9930412102, 9930412103, 9930412104, 9930412096], "tags": {"amenity": "school"}}, {"type": "way", "id": 1167209740, "nodes": [10853559198, 10853559199, 10853559200, 10853559201, 10853559198], "tags": {"amenity": "police", "building": "yes"}}, {"type": "way", "id": 1217183565, "nodes": [357972940, 11278155726, 11278155727, 11278155728, 357972940], "tags": {"addr:city": "Havre", "amenity": "place_of_worship", "building": "church", "ele": "797", "gnis:feature_id": "1744072", "name": "Church of Christ", "religion": "christian"}}, {"type": "way", "id": 1260744737, "nodes": [11718195631, 11718195632, 11718195633, 11718195634, 11718195631], "tags": {"building": "yes", "shop": "yes"}}]}