{"version": 0.6, "generator": "Overpass API 0.7.62.8 e802775f", "osm3s": {"timestamp_osm_base": "2025-12-12T19:05:00Z", "copyright": "The data included in this document is from www.openstreetmap.org. The data is made available under ODbL."}, "elements": [{"type": "node", "id": 3696236997, "lat": 39.6066028, "lon": -106.4448892, "tags": {"amenity": "parking"}}, {"type": "node", "id": 3965031689, "lat": 39.5898479, "lon": -106.4314333}, {"type": "node", "id": 3965031690, "lat": 39.5896264, "lon": -106.4314294}, {"type": "node", "id": 3965031691, "lat": 39.5896724, "lon": -106.431213}, {"type": "node", "id": 3965031692, "lat": 39.5898502, "lon": -106.4312161}, {"type": "node", "id": 6183690245, "lat": 39.588936, "lon": -106.4309073, "tags": {"addr:city": "Minturn", "addr:country": "US", "addr:housenumber": "132", "addr:postcode": "81645", "addr:state": "CO", "addr:street": "Main Street", "amenity": "cafe", "name": "Sunrise Minturn", "phone": "+1-970-827-5353", "website": "https://www.sunriseminturn.com/"}}, {"type": "node", "id": 7042452911, "lat": 39.584464, "lon": -106.4287931, "tags": {"access": "destination", "amenity": "parking"}}, {"type": "node", "id": 7042452912, "lat": 39.5849875, "lon": -106.4281339}, {"type": "node", "id": 7042452913, "lat": 39.5843895, "lon": -106.4287267}, {"type": "node", "id": 8995620092, "lat": 39.5893267, "lon": -106.4316231}, {"type": "node", "id": 8995620093, "lat": 39.589264, "lon": -106.4316412}, {"type": "node", "id": 8995620094, "lat": 39.5892416, "lon": -106.4315109}, {"type": "node", "id": 9347123567, "lat": 39.5797497, "lon": -106.416148}, {"type": "node", "id": 9347123568, "lat": 39.5793387, "lon": -106.416442}, {"type": "node", "id": 9347123569, "lat": 39.5792973, "lon": -106.4163446}, {"type": "node", "id": 9347123570, "lat": 39.5797084, "lon": -106.4160507}, {"type": "node", "id": 10174148722, "lat": 39.5941599, "lon": -106.4344621}, {"type": "node", "id": 10174148723, "lat": 39.5942456, "lon": -106.4341904}, {"type": "node", "id": 10174148724, "lat": 39.593955, "lon": -106.4341192}, {"type": "node", "id": 10174148725, "lat": 39.5938979, "lon": -106.4343038}, {"type": "node", "id": 10174148726, "lat": 39.5949403, "lon": -106.4334718}, {"type": "node", "id": 10174148727, "lat": 39.5949488, "lon": -106.4331179}, {"type": "node", "id": 10174148728, "lat": 39.5947634, "lon": -106.4331056}, {"type": "node", "id": 10174148729, "lat": 39.5947552, "lon": -106.4334728}, {"type": "node", "id": 10174148745, "lat": 39.5947608, "lon": -106.4332202}, {"type": "node", "id": 10174148756, "lat": 39.5940631, "lon": -106.4336268}, {"type": "node", "id": 10174148757, "lat": 39.5940672, "lon": -106.4333421}, {"type": "node", "id": 10174148758, "lat": 39.5938813, "lon": -106.4333376}, {"type": "node", "id": 10174148759, "lat": 39.5938772, "lon": -106.4336224}, {"type": "node", "id": 10174148780, "lat": 39.5901871, "lon": -106.4311278}, {"type": "node", "id": 10174148781, "lat": 39.5900856, "lon": -106.4313287}, {"type": "node", "id": 10174148782, "lat": 39.5902713, "lon": -106.4314866}, {"type": "node", "id": 10174148783, "lat": 39.5903054, "lon": -106.4314191}, {"type": "node", "id": 10174148784, "lat": 39.5903458, "lon": -106.4314535}, {"type": "node", "id": 10174148785, "lat": 39.5903895, "lon": -106.431367}, {"type": "node", "id": 10174148786, "lat": 39.5903393, "lon": -106.4313243}, {"type": "node", "id": 10174148788, "lat": 39.590361, "lon": -106.4312761}, {"type": "node", "id": 10174148789, "lat": 39.5906226, "lon": -106.43228}, {"type": "node", "id": 10174148790, "lat": 39.5906692, "lon": -106.4317291}, {"type": "node", "id": 10174148791, "lat": 39.5899447, "lon": -106.4316259}, {"type": "node", "id": 10174148792, "lat": 39.590226, "lon": -106.4322236}, {"type": "node", "id": 10174148794, "lat": 39.5896507, "lon": -106.4312265}, {"type": "node", "id": 10174148795, "lat": 39.5895352, "lon": -106.4312245}, {"type": "node", "id": 10174148796, "lat": 39.5895337, "lon": -106.4313628}, {"type": "node", "id": 10174148797, "lat": 39.5896271, "lon": -106.4313645}, {"type": "node", "id": 10176040248, "lat": 39.6066782, "lon": -106.445591}, {"type": "node", "id": 10176040249, "lat": 39.6069783, "lon": -106.4454027}, {"type": "node", "id": 10176040250, "lat": 39.6067312, "lon": -106.444709}, {"type": "node", "id": 10176040251, "lat": 39.6065028, "lon": -106.4443065}, {"type": "node", "id": 10176040252, "lat": 39.6063005, "lon": -106.4444694}, {"type": "node", "id": 10176040253, "lat": 39.6064942, "lon": -106.4449538}, {"type": "node", "id": 10176040254, "lat": 39.6066324, "lon": -106.4453432}, {"type": "node", "id": 10176040302, "lat": 39.5888032, "lon": -106.4315402}, {"type": "node", "id": 10176040303, "lat": 39.5888678, "lon": -106.4313198}, {"type": "node", "id": 10176040304, "lat": 39.5887714, "lon": -106.4312791}, {"type": "node", "id": 10176040305, "lat": 39.5887151, "lon": -106.431503}, {"type": "node", "id": 10176040306, "lat": 39.5886365, "lon": -106.431222}, {"type": "node", "id": 10176040308, "lat": 39.5887135, "lon": -106.4315093}, {"type": "node", "id": 10176040309, "lat": 39.5886449, "lon": -106.4314803}, {"type": "node", "id": 10176040310, "lat": 39.5886201, "lon": -106.4315793}, {"type": "node", "id": 10176040312, "lat": 39.5890751, "lon": -106.4317697}, {"type": "node", "id": 10176040313, "lat": 39.589115, "lon": -106.4316128}, {"type": "node", "id": 10176040314, "lat": 39.5890923, "lon": -106.4316031}, {"type": "node", "id": 10176040315, "lat": 39.5890812, "lon": -106.431647}, {"type": "node", "id": 10176040316, "lat": 39.5890408, "lon": -106.4316298}, {"type": "node", "id": 10176055417, "lat": 39.5890726, "lon": -106.4315047}, {"type": "node", "id": 10176055418, "lat": 39.5889988, "lon": -106.4314731}, {"type": "node", "id": 10176055419, "lat": 39.5889603, "lon": -106.4316251}, {"type": "node", "id": 10176055420, "lat": 39.5889521, "lon": -106.4316217}, {"type": "node", "id": 10176055421, "lat": 39.5889373, "lon": -106.4316802}, {"type": "node", "id": 10176055422, "lat": 39.5889653, "lon": -106.4316921}, {"type": "node", "id": 10176055423, "lat": 39.588957, "lon": -106.4317252}, {"type": "node", "id": 10176055424, "lat": 39.5890759, "lon": -106.4317756}, {"type": "node", "id": 10176055425, "lat": 39.5884889, "lon": -106.4313763}, {"type": "node", "id": 10176055426, "lat": 39.58853, "lon": -106.4311994}, {"type": "node", "id": 10176055427, "lat": 39.588448, "lon": -106.4311673}, {"type": "node", "id": 10176055428, "lat": 39.5884132, "lon": -106.4313171}, {"type": "node", "id": 10176055429, "lat": 39.5884513, "lon": -106.431332}, {"type": "node", "id": 10176055430, "lat": 39.588445, "lon": -106.4313592}, {"type": "node", "id": 10176055431, "lat": 39.5885079, "lon": -106.4313838}, {"type": "node", "id": 10176055432, "lat": 39.588557, "lon": -106.4311884}, {"type": "node", "id": 10176055434, "lat": 39.5885874, "lon": -106.4314174}, {"type": "node", "id": 10273870486, "lat": 39.5893044, "lon": -106.4314928}, {"type": "node", "id": 10765830275, "lat": 39.5890634, "lon": -106.4311278, "tags": {"addr:city": "Minturn", "addr:housenumber": "102", "addr:postcode": "81645", "addr:state": "CO", "addr:street": "Main Street", "addr:unit": "A", "name": "Antique Accents", "phone": "+1-970-393-5437", "shop": "antiques"}}, {"type": "node", "id": 10819821037, "lat": 39.5887425, "lon": -106.4315316}, {"type": "node", "id": 10819821038, "lat": 39.58872, "lon": -106.4315221}, {"type": "node", "id": 10819821039, "lat": 39.5887239, "lon": -106.4315067}, {"type": "node", "id": 10819821040, "lat": 39.5887464, "lon": -106.4315162}, {"type": "node", "id": 10819821041, "lat": 39.5888266, "lon": -106.4314839}, {"type": "node", "id": 10819821042, "lat": 39.5888182, "lon": -106.4314803}, {"type": "node", "id": 10819821043, "lat": 39.5885538, "lon": -106.4315512}, {"type": "node", "id": 11186728437, "lat": 39.5792545, "lon": -106.4164423, "tags": {"amenity": "drinking_water"}}, {"type": "node", "id": 11814041452, "lat": 39.5855427, "lon": -106.4294946, "tags": {"amenity": "fuel", "brand": "Shell", "brand:wikidata": "Q110716465", "name": "Shell"}}, {"type": "node", "id": 11814041453, "lat": 39.5853914, "lon": -106.4292399, "tags": {"addr:city": "Minturn", "addr:housenumber": "401", "addr:postcode": "81645", "addr:state": "CO", "addr:street": "Main Street", "name": "Shop N Hop", "phone": "+1 970 827 9855", "shop": "convenience"}}, {"type": "node", "id": 13011140464, "lat": 39.584421, "lon": -106.4286878}, {"type": "node", "id": 13011140465, "lat": 39.5844558, "lon": -106.4287354}, {"type": "node", "id": 13011140466, "lat": 39.5845192, "lon": -106.4286574}, {"type": "node", "id": 13011140467, "lat": 39.5844823, "lon": -106.4286069}, {"type": "node", "id": 13011140468, "lat": 39.5845173, "lon": -106.4285637}, {"type": "node", "id": 13011140469, "lat": 39.5844139, "lon": -106.4284223}, {"type": "node", "id": 13011140470, "lat": 39.584371, "lon": -106.4284751}, {"type": "node", "id": 13011140471, "lat": 39.584344, "lon": -106.4284382}, {"type": "node", "id": 13011140472, "lat": 39.584292, "lon": -106.4285022}, {"type": "node", "id": 13011140473, "lat": 39.5843256, "lon": -106.428548}, {"type": "node", "id": 13011140474, "lat": 39.584291, "lon": -106.4285906}, {"type": "node", "id": 13011140475, "lat": 39.584332, "lon": -106.4286465}, {"type": "node", "id": 13011140476, "lat": 39.5843011, "lon": -106.4286846}, {"type": "node", "id": 13011140477, "lat": 39.5843197, "lon": -106.4287101}, {"type": "node", "id": 13011140478, "lat": 39.58435, "lon": -106.4286727}, {"type": "node", "id": 13011149405, "lat": 39.5851034, "lon": -106.4279816}, {"type": "node", "id": 13011149406, "lat": 39.5851573, "lon": -106.4280507}, {"type": "node", "id": 13011149407, "lat": 39.5850414, "lon": -106.428203}, {"type": "node", "id": 13061037601, "lat": 39.5890265, "lon": -106.4310022, "tags": {"amenity": "bicycle_parking", "bicycle_parking": "rack", "capacity": "12"}}, {"type": "node", "id": 13308658502, "lat": 39.5861925, "lon": -106.4303878, "tags": {"addr:city": "Minturn", "addr:housenumber": "301", "addr:postcode": "81645", "addr:state": "CO", "addr:street": "Boulder Street", "addr:unit": "1682", "check_date": "2025-12-06", "check_date:currency:XBT": "2025-12-06", "contact:instagram": "_little_blue_bakery", "currency:XBT": "yes", "description": "A tiny bakery in the heart of Minturn Colorado", "name": "Little Blue Bakery", "payment:lightning": "yes", "payment:lightning:operator": "square", "payment:lightning_contactless": "no", "payment:onchain": "no", "shop": "bakery"}}, {"type": "way", "id": 393288750, "nodes": [3965031689, 3965031690, 10174148797, 10174148796, 10174148795, 10174148794, 3965031691, 3965031692, 3965031689], "tags": {"addr:city": "Minturn", "addr:housenumber": "146", "addr:postcode": "81645", "addr:state": "CO", "addr:street": "North Main Street", "amenity": "restaurant", "building": "yes", "cuisine": "mexican", "name": "Minturn Saloon", "phone": "+1 970 827 5954", "website": "https://www.minturnsaloon.com/"}}, {"type": "way", "id": 971929808, "nodes": [8995620092, 8995620093, 8995620094, 10273870486, 8995620092], "tags": {"addr:city": "Minturn", "addr:housenumber": "106", "addr:postcode": "81645", "addr:state": "CO", "addr:street": "Main Street", "building": "yes", "name": "Minturn Anglers", "shop": "fishing"}}, {"type": "way", "id": 1013143670, "nodes": [9347123567, 9347123568, 9347123569, 9347123570, 9347123567], "tags": {"amenity": "parking"}}, {"type": "way", "id": 1112094138, "nodes": [10174148722, 10174148723, 10174148724, 10174148725, 10174148722], "tags": {"amenity": "parking"}}, {"type": "way", "id": 1112094139, "nodes": [10174148726, 10174148727, 10174148728, 10174148745, 10174148729, 10174148726], "tags": {"addr:city": "Minturn", "addr:housenumber": "23698", "addr:postcode": "81645", "addr:state": "CO", "addr:street": "US-24", "amenity": "cafe", "building": "yes", "building:levels": "1", "cuisine": "coffee_shop", "name": "Vail Mountain Coffee & Tea - Roastery Cafe"}}, {"type": "way", "id": 1112094145, "nodes": [10174148756, 10174148757, 10174148758, 10174148759, 10174148756], "tags": {"addr:city": "Minturn", "addr:housenumber": "23698", "addr:postcode": "81645", "addr:state": "CO", "addr:street": "US-24", "amenity": "marketplace", "building:levels": "1", "name": "Mangiare Italian Market"}}, {"type": "way", "id": 1112094149, "nodes": [10174148788, 10174148780, 10174148781, 10174148782, 10174148783, 10174148784, 10174148785, 10174148786, 10174148788], "tags": {"addr:city": "Minturn", "addr:housenumber": "160", "addr:postcode": "81645", "addr:state": "CO", "addr:street": "Rail Road Avenue", "amenity": "restaurant", "building:part": "yes", "cuisine": "mexican", "name": "The Mexican Bar & Grill", "website": "The Mexican Bar & Grill"}}, {"type": "way", "id": 1112094150, "nodes": [10174148789, 10174148790, 10174148791, 10174148792, 10174148789], "tags": {"amenity": "parking"}}, {"type": "way", "id": 1112303647, "nodes": [10176040248, 10176040249, 10176040250, 10176040251, 10176040252, 10176040253, 10176040254, 10176040248], "tags": {"amenity": "parking", "parking": "surface", "surface": "dirt"}}, {"type": "way", "id": 1112303656, "nodes": [10176040302, 10819821042, 10819821041, 10176040303, 10176040304, 10176040305, 10819821039, 10819821038, 10819821037, 10819821040, 10176040302], "tags": {"addr:city": "Minturn", "addr:housenumber": "131", "addr:postcode": "81645", "addr:state": "CO", "addr:street": "Main Street", "amenity": "restaurant", "building": "yes", "name": "Minturn Country Club", "website": "https://www.minturncountryclub.com/"}}, {"type": "way", "id": 1112303657, "nodes": [10176040306, 10176040304, 10176040305, 10176040308, 10176040309, 10176040310, 10819821043, 10176055434, 10176040306], "tags": {"addr:city": "Minturn", "addr:housenumber": "141", "addr:postcode": "81645", "addr:state": "CO", "addr:street": "Main Street", "amenity": "restaurant", "building": "yes", "cuisine": "thai", "name": "Thai Kitchen", "website": "http://thaikitchenminturn.com/"}}, {"type": "way", "id": 1112303658, "nodes": [10176040312, 10176040313, 10176040314, 10176040315, 10176040316, 10176055417, 10176055418, 10176055419, 10176055420, 10176055421, 10176055422, 10176055423, 10176055424, 10176040312], "tags": {"addr:city": "Minturn", "addr:housenumber": "101", "addr:postcode": "81645", "addr:state": "CO", "addr:street": "Main Street", "amenity": "restaurant", "building": "yes", "cuisine": "pizza;burger", "name": "Magustos", "website": "https://www.magustos.net/"}}, {"type": "way", "id": 1112303659, "nodes": [10176055425, 10176055426, 10176055427, 10176055428, 10176055429, 10176055430, 10176055425], "tags": {"addr:city": "Minturn", "addr:housenumber": "155", "addr:postcode": "81645", "addr:state": "CO", "addr:street": "Main Street", "building": "yes", "name": "Gemini Gardens", "shop": "florist", "website": "https://www.minturn.org/business-directory/gemini-gardens"}}, {"type": "way", "id": 1112303660, "nodes": [10176055431, 10176055432, 10176040306, 10176055434, 10176055431], "tags": {"addr:city": "Minturn", "addr:housenumber": "151", "addr:postcode": "81645", "addr:state": "CO", "addr:street": "Main Street", "building": "yes", "name": "The Uptown Store", "shop": "gift", "website": "https://www.colorado.com/gifts-books-music/the-uptown-store"}}, {"type": "way", "id": 1415826319, "nodes": [7042452912, 13011149405, 13011149406, 13011149407, 7042452912], "tags": {"addr:city": "Minturn", "addr:housenumber": "458", "addr:postcode": "81645", "addr:state": "CO", "addr:street": "Main Street", "amenity": "place_of_worship", "building": "church", "denomination": "roman_catholic", "diocese": "Denver", "fax": "+1 970-827-9559", "name": "Saint Patrick Catholic Chapel", "phone": "+1 970-827-9559", "religion": "christian", "website": "http://www.saintpatrickminturn.com"}}, {"type": "way", "id": 1415826515, "nodes": [7042452913, 13011140464, 13011140465, 13011140466, 13011140467, 13011140468, 13011140469, 13011140470, 13011140471, 13011140472, 13011140473, 13011140474, 13011140475, 13011140476, 13011140477, 13011140478, 7042452913], "tags": {"addr:city": "Minturn", "addr:housenumber": "476", "addr:postcode": "81645", "addr:state": "CO", "addr:street": "Pine Street", "amenity": "place_of_worship", "building": "church", "denomination": "roman_catholic", "diocese": "Denver", "fax": "+1 970-827-9559", "name": "Saint Patrick Catholic Church", "phone": "+1 970-827-9559", "religion": "christian", "website": "http://www.saintpatrickminturn.com"}}]}