{"version": 0.6, "generator": "Overpass API 0.7.62.8 e802775f", "osm3s": {"timestamp_osm_base": "2025-12-06T17:03:44Z", "copyright": "The data included in this document is from www.openstreetmap.org. The data is made available under ODbL."}, "elements": [{"type": "node", "id": 356542714, "lat": 46.7225273, "lon": -122.96035}, {"type": "node", "id": 356542763, "lat": 46.7061107, "lon": -122.9643889}, {"type": "node", "id": 356543082, "lat": 46.7172577, "lon": -122.9627022}, {"type": "node", "id": 356543161, "lat": 46.7096168, "lon": -122.9534268}, {"type": "node", "id": 377107675, "lat": 46.7206309, "lon": -122.9533751, "tags": {"addr:housenumber": "512", "amenity": "fire_station", "name": "Station 1", "operator": "Riverside Fire Authority"}}, {"type": "node", "id": 490881548, "lat": 46.705323, "lon": -122.964418}, {"type": "node", "id": 490881553, "lat": 46.705308, "lon": -122.963243}, {"type": "node", "id": 490881735, "lat": 46.698979, "lon": -122.964081}, {"type": "node", "id": 1430620118, "lat": 46.7187229, "lon": -122.96561, "tags": {"addr:housenumber": "1001", "addr:street": "W. Main Street", "amenity": "restaurant", "cuisine": "mexican", "description": "Authentic Mexican Food", "name": "La Tarasca", "opening_hours": "Tu off", "phone": "+1-360-736-7756"}}, {"type": "node", "id": 1524198584, "lat": 46.7173729, "lon": -122.952966, "tags": {"amenity": "bicycle_parking", "capacity": "6", "covered": "yes"}}, {"type": "node", "id": 1776156922, "lat": 46.7223866, "lon": -122.9598798}, {"type": "node", "id": 1776156923, "lat": 46.7223874, "lon": -122.9594662}, {"type": "node", "id": 1776156928, "lat": 46.7225127, "lon": -122.9598823}, {"type": "node", "id": 1776156929, "lat": 46.7225187, "lon": -122.9594688}, {"type": "node", "id": 2293867464, "lat": 46.7178134, "lon": -122.9531053}, {"type": "node", "id": 2293867468, "lat": 46.7178942, "lon": -122.9534968}, {"type": "node", "id": 2293867471, "lat": 46.71798, "lon": -122.9530917}, {"type": "node", "id": 2293867472, "lat": 46.7180469, "lon": -122.9534298}, {"type": "node", "id": 2297135642, "lat": 46.7173586, "lon": -122.9553018}, {"type": "node", "id": 2297135648, "lat": 46.717038, "lon": -122.9554361}, {"type": "node", "id": 2297135650, "lat": 46.7170911, "lon": -122.9557059}, {"type": "node", "id": 2297135678, "lat": 46.7189981, "lon": -122.9538635}, {"type": "node", "id": 2297135680, "lat": 46.719138, "lon": -122.9537965}, {"type": "node", "id": 2297135682, "lat": 46.7192399, "lon": -122.9542489}, {"type": "node", "id": 2297135683, "lat": 46.7188995, "lon": -122.9544121}, {"type": "node", "id": 2297135685, "lat": 46.7188406, "lon": -122.9541509}, {"type": "node", "id": 2297135686, "lat": 46.7190412, "lon": -122.9540547}, {"type": "node", "id": 2302811363, "lat": 46.6944556, "lon": -122.9583922}, {"type": "node", "id": 2302811366, "lat": 46.6943753, "lon": -122.958422}, {"type": "node", "id": 2302811367, "lat": 46.6944045, "lon": -122.9585894}, {"type": "node", "id": 2302811369, "lat": 46.6944848, "lon": -122.9585595}, {"type": "node", "id": 2335854082, "lat": 46.7177952, "lon": -122.9551053}, {"type": "node", "id": 2335854084, "lat": 46.7178057, "lon": -122.9513908}, {"type": "node", "id": 2335854086, "lat": 46.7176261, "lon": -122.9554736}, {"type": "node", "id": 2335854088, "lat": 46.7178647, "lon": -122.9516866}, {"type": "node", "id": 2335854090, "lat": 46.7179091, "lon": -122.9550574}, {"type": "node", "id": 2335854092, "lat": 46.7179735, "lon": -122.9555741}, {"type": "node", "id": 2335854094, "lat": 46.7181655, "lon": -122.9549685}, {"type": "node", "id": 2335854096, "lat": 46.7182003, "lon": -122.9512591}, {"type": "node", "id": 2335854098, "lat": 46.718211, "lon": -122.9552435}, {"type": "node", "id": 2335854100, "lat": 46.7182523, "lon": -122.9515166}, {"type": "node", "id": 2335854101, "lat": 46.7183205, "lon": -122.9548902}, {"type": "node", "id": 2335854104, "lat": 46.7183698, "lon": -122.9551876}, {"type": "node", "id": 2335854254, "lat": 46.7210642, "lon": -122.9531148}, {"type": "node", "id": 2335854410, "lat": 46.7217778, "lon": -122.952612}, {"type": "node", "id": 2417848573, "lat": 46.719447, "lon": -122.9616459}, {"type": "node", "id": 2707950124, "lat": 46.7007832, "lon": -122.963458}, {"type": "node", "id": 2707950129, "lat": 46.7111311, "lon": -122.965184}, {"type": "node", "id": 2707950144, "lat": 46.711285, "lon": -122.9647744}, {"type": "node", "id": 2707950147, "lat": 46.6985785, "lon": -122.9620153}, {"type": "node", "id": 2707950157, "lat": 46.6986557, "lon": -122.9619563}, {"type": "node", "id": 2707950160, "lat": 46.7003628, "lon": -122.9613502}, {"type": "node", "id": 2707950166, "lat": 46.7110415, "lon": -122.9651124}, {"type": "node", "id": 2707950174, "lat": 46.7110245, "lon": -122.9647936}, {"type": "node", "id": 2707950175, "lat": 46.7003334, "lon": -122.9611951}, {"type": "node", "id": 2707950176, "lat": 46.6990312, "lon": -122.964145}, {"type": "node", "id": 2707950180, "lat": 46.7110902, "lon": -122.9646187}, {"type": "node", "id": 2707950189, "lat": 46.6989392, "lon": -122.9639573}, {"type": "node", "id": 2707950192, "lat": 46.7111297, "lon": -122.9648777}, {"type": "node", "id": 2707951826, "lat": 46.7108335, "lon": -122.9510797}, {"type": "node", "id": 2707951828, "lat": 46.7108442, "lon": -122.9512544}, {"type": "node", "id": 2707951830, "lat": 46.7105544, "lon": -122.9513618}, {"type": "node", "id": 2707951831, "lat": 46.7103748, "lon": -122.9513854}, {"type": "node", "id": 2707951833, "lat": 46.7104194, "lon": -122.9511816}, {"type": "node", "id": 2707951834, "lat": 46.7104594, "lon": -122.9511764}, {"type": "node", "id": 2707951835, "lat": 46.7103677, "lon": -122.9512707}, {"type": "node", "id": 2707951836, "lat": 46.7104245, "lon": -122.9512632}, {"type": "node", "id": 2707951838, "lat": 46.7105494, "lon": -122.9512813}, {"type": "node", "id": 2707951839, "lat": 46.7104565, "lon": -122.951129}, {"type": "node", "id": 2707959125, "lat": 46.7131497, "lon": -122.9559832, "tags": {"amenity": "restaurant", "cuisine": "mexican", "name": "Tacos Rey"}}, {"type": "node", "id": 2707959139, "lat": 46.7141557, "lon": -122.9557177, "tags": {"name": "Muffler man", "shop": "car_repair"}}, {"type": "node", "id": 2707959153, "lat": 46.711502, "lon": -122.9558143, "tags": {"shop": "convenience"}}, {"type": "node", "id": 2707959161, "lat": 46.7142881, "lon": -122.9546099, "tags": {"name": "Larry's Auto", "shop": "car"}}, {"type": "node", "id": 2707959162, "lat": 46.7114906, "lon": -122.9560933, "tags": {"amenity": "fuel", "brand": "Chevron", "brand:wikidata": "Q319642", "name": "Chevron"}}, {"type": "node", "id": 2707959166, "lat": 46.7109222, "lon": -122.9569, "tags": {"amenity": "fuel", "brand": "Shell", "brand:wikidata": "Q110716465", "name": "Shell"}}, {"type": "node", "id": 2707959171, "lat": 46.7116583, "lon": -122.9569702, "tags": {"name": "Fuller's Market Place", "shop": "supermarket"}}, {"type": "node", "id": 2707959173, "lat": 46.7108655, "lon": -122.9563238, "tags": {"amenity": "bank", "name": "Anchor Bank"}}, {"type": "node", "id": 2707959174, "lat": 46.7109502, "lon": -122.9571714, "tags": {"name": "Food Mart", "shop": "convenience"}}, {"type": "node", "id": 2707960357, "lat": 46.706087, "lon": -122.9614093}, {"type": "node", "id": 2707960359, "lat": 46.7051151, "lon": -122.9623776}, {"type": "node", "id": 2707960360, "lat": 46.7048878, "lon": -122.9619028}, {"type": "node", "id": 2707960361, "lat": 46.7051379, "lon": -122.9632332}, {"type": "node", "id": 2707960363, "lat": 46.7049827, "lon": -122.962399}, {"type": "node", "id": 2709173347, "lat": 46.7137623, "lon": -122.9610879}, {"type": "node", "id": 2709173349, "lat": 46.7137231, "lon": -122.9613174}, {"type": "node", "id": 2709173352, "lat": 46.7136484, "lon": -122.9613181}, {"type": "node", "id": 2709173353, "lat": 46.7139401, "lon": -122.9615268}, {"type": "node", "id": 2709173356, "lat": 46.7136549, "lon": -122.9616429}, {"type": "node", "id": 2709173359, "lat": 46.7138875, "lon": -122.9612522}, {"type": "node", "id": 2709173386, "lat": 46.7136537, "lon": -122.9613457}, {"type": "node", "id": 2709173390, "lat": 46.7157865, "lon": -122.9650487}, {"type": "node", "id": 2709173404, "lat": 46.7136051, "lon": -122.9610214}, {"type": "node", "id": 2709173425, "lat": 46.7138006, "lon": -122.9612858}, {"type": "node", "id": 2709173438, "lat": 46.7136163, "lon": -122.9611496}, {"type": "node", "id": 2709173450, "lat": 46.7135068, "lon": -122.9610615}, {"type": "node", "id": 2709173452, "lat": 46.7136489, "lon": -122.9614223}, {"type": "node", "id": 2709173483, "lat": 46.7135812, "lon": -122.9614499}, {"type": "node", "id": 2709303014, "lat": 46.7155296, "lon": -122.957006, "tags": {"amenity": "post_office", "name": "Centralia Post Office", "operator": "United States Postal Service", "operator:short": "USPS", "operator:type": "public", "operator:website": "https://www.usps.com", "operator:wikidata": "Q668687", "operator:wikipedia": "en:United States Postal Service", "short_name": "USPS"}}, {"type": "node", "id": 2709303020, "lat": 46.7161768, "lon": -122.9569669}, {"type": "node", "id": 2709303029, "lat": 46.7110514, "lon": -122.9573145, "tags": {"amenity": "car_wash", "name": "Soft Touch Car Wash"}}, {"type": "node", "id": 2709303032, "lat": 46.7161244, "lon": -122.956966}, {"type": "node", "id": 2709303036, "lat": 46.7151342, "lon": -122.9563999, "tags": {"amenity": "restaurant", "name": "Berry Fields Restaurant"}}, {"type": "node", "id": 2709303038, "lat": 46.7161286, "lon": -122.9569873}, {"type": "node", "id": 2709303043, "lat": 46.716371, "lon": -122.956589}, {"type": "node", "id": 2709324861, "lat": 46.722951, "lon": -122.952516, "tags": {"name": "Robert's Meats", "shop": "butcher"}}, {"type": "node", "id": 2709324866, "lat": 46.7164068, "lon": -122.9557132, "tags": {"amenity": "drinking_water"}}, {"type": "node", "id": 2709506137, "lat": 46.7215163, "lon": -122.9603937}, {"type": "node", "id": 2709506207, "lat": 46.7216355, "lon": -122.9591496}, {"type": "node", "id": 2709506214, "lat": 46.7225324, "lon": -122.9592259}, {"type": "node", "id": 2709506222, "lat": 46.7224951, "lon": -122.9591761}, {"type": "node", "id": 2709506322, "lat": 46.7212891, "lon": -122.9593487}, {"type": "node", "id": 2709567725, "lat": 46.7181909, "lon": -122.9623667}, {"type": "node", "id": 2709567742, "lat": 46.718126, "lon": -122.9624321, "tags": {"amenity": "restaurant", "name": "Papa Ray's Family Cafe"}}, {"type": "node", "id": 2709567752, "lat": 46.7182472, "lon": -122.9624967}, {"type": "node", "id": 2709567766, "lat": 46.7180828, "lon": -122.9625679}, {"type": "node", "id": 2709567793, "lat": 46.7180444, "lon": -122.9623817}, {"type": "node", "id": 2709567794, "lat": 46.7182179, "lon": -122.9623547}, {"type": "node", "id": 2709567801, "lat": 46.7192862, "lon": -122.9667372, "tags": {"name": "Centralia Food Mart", "shop": "convenience"}}, {"type": "node", "id": 2709567807, "lat": 46.7181815, "lon": -122.9623217}, {"type": "node", "id": 3079616412, "lat": 46.7166734, "lon": -122.953631}, {"type": "node", "id": 3079616413, "lat": 46.7166537, "lon": -122.9535158}, {"type": "node", "id": 3079616414, "lat": 46.7164723, "lon": -122.9535892}, {"type": "node", "id": 3079616415, "lat": 46.7164951, "lon": -122.9537106}, {"type": "node", "id": 3387995907, "lat": 46.7012351, "lon": -122.957653, "tags": {"amenity": "fuel", "brand": "76", "brand:wikidata": "Q1658320", "name": "76", "website": "https://www.76.com/station/U76-CF-UNITED-APRO-LLC-2709990-0000880615/"}}, {"type": "node", "id": 3387995909, "lat": 46.7015417, "lon": -122.9565794, "tags": {"amenity": "bank", "name": "Twin Star Credit Union"}}, {"type": "node", "id": 3387995922, "lat": 46.7156006, "lon": -122.9544416, "tags": {"amenity": "pub", "name": "The Tower Tavern"}}, {"type": "node", "id": 3387995933, "lat": 46.7155088, "lon": -122.9550424, "tags": {"amenity": "cinema", "name": "Fox Theater", "wikidata": "Q43305629"}}, {"type": "node", "id": 3387995935, "lat": 46.7014534, "lon": -122.95781, "tags": {"name": "Food Mart", "shop": "convenience"}}, {"type": "node", "id": 3387995941, "lat": 46.702139, "lon": -122.9566078, "tags": {"amenity": "bank", "name": "First Citizens Bank"}}, {"type": "node", "id": 3387995942, "lat": 46.7026287, "lon": -122.9576308, "tags": {"amenity": "veterinary", "name": "Cascade West Veterinary Hospital"}}, {"type": "node", "id": 3387995945, "lat": 46.7156927, "lon": -122.9543879, "tags": {"amenity": "bar", "name": "The Hub Bar & Grill"}}, {"type": "node", "id": 3722018194, "lat": 46.7186346, "lon": -122.9651101, "tags": {"amenity": "fast_food", "cuisine": "coffee_shop", "name": "Avenue Espresso"}}, {"type": "node", "id": 3766722933, "lat": 46.7178092, "lon": -122.961045, "tags": {"addr:city": "Centralia", "addr:housenumber": "619", "addr:postcode": "98531", "addr:state": "WA", "addr:street": "West Main Street", "alt_name": "Kentucky Fried Chicken", "amenity": "fast_food", "brand": "KFC", "brand:wikidata": "Q524757", "cuisine": "chicken", "name": "KFC", "opening_hours": "09:00-24:00", "takeaway": "yes", "website": "https://locations.kfc.com/wa/centralia/619-west-main-street/"}}, {"type": "node", "id": 4164528133, "lat": 46.7159087, "lon": -122.9531603}, {"type": "node", "id": 4164528134, "lat": 46.7151298, "lon": -122.95349}, {"type": "node", "id": 4164528135, "lat": 46.715037, "lon": -122.9530236}, {"type": "node", "id": 4164528136, "lat": 46.7158159, "lon": -122.9526939}, {"type": "node", "id": 4164528138, "lat": 46.7155835, "lon": -122.9527923}, {"type": "node", "id": 4164528139, "lat": 46.7154729, "lon": -122.9522685}, {"type": "node", "id": 4164528140, "lat": 46.7157082, "lon": -122.9521627}, {"type": "node", "id": 4311664907, "lat": 46.7162417, "lon": -122.9612998, "tags": {"amenity": "bicycle_parking"}}, {"type": "node", "id": 4311757290, "lat": 46.7154359, "lon": -122.9607494, "tags": {"amenity": "clock", "visibility": "area"}}, {"type": "node", "id": 4311776856, "lat": 46.714074, "lon": -122.9589135}, {"type": "node", "id": 4311776857, "lat": 46.7143093, "lon": -122.9630569}, {"type": "node", "id": 4311776858, "lat": 46.7144962, "lon": -122.9650449}, {"type": "node", "id": 4311776859, "lat": 46.7148391, "lon": -122.9628399}, {"type": "node", "id": 4311776860, "lat": 46.7150497, "lon": -122.9639706}, {"type": "node", "id": 4311776861, "lat": 46.7155768, "lon": -122.9665952}, {"type": "node", "id": 4311776862, "lat": 46.7162817, "lon": -122.95718}, {"type": "node", "id": 4311776864, "lat": 46.7163943, "lon": -122.9627621}, {"type": "node", "id": 4311776865, "lat": 46.7163942, "lon": -122.9605533}, {"type": "node", "id": 4311776866, "lat": 46.7163081, "lon": -122.9594043}, {"type": "node", "id": 4311776867, "lat": 46.7168343, "lon": -122.9651051}, {"type": "node", "id": 4311776868, "lat": 46.7169086, "lon": -122.960333}, {"type": "node", "id": 4311797725, "lat": 46.7166637, "lon": -122.9640807}, {"type": "node", "id": 4313446461, "lat": 46.7191079, "lon": -122.9541863, "tags": {"addr:city": "Centralia", "addr:housenumber": "118", "addr:postcode": "98531-4320", "addr:state": "WA", "addr:street": "West Maple Street", "amenity": "police", "name": "Centralia Police Department", "operator": "City of Centralia, Washington"}}, {"type": "node", "id": 4369605977, "lat": 46.6951904, "lon": -122.9580524}, {"type": "node", "id": 4369605978, "lat": 46.6951702, "lon": -122.9574194}, {"type": "node", "id": 4369605979, "lat": 46.6956963, "lon": -122.9574382}, {"type": "node", "id": 4369605980, "lat": 46.6957129, "lon": -122.9579585}, {"type": "node", "id": 4369605981, "lat": 46.6956798, "lon": -122.9580095}, {"type": "node", "id": 4369605987, "lat": 46.6956154, "lon": -122.95993}, {"type": "node", "id": 4369605988, "lat": 46.6955749, "lon": -122.9582107}, {"type": "node", "id": 4369606589, "lat": 46.6956926, "lon": -122.9582053}, {"type": "node", "id": 4369606590, "lat": 46.6957129, "lon": -122.9582429}, {"type": "node", "id": 4369606591, "lat": 46.6957589, "lon": -122.9599246}, {"type": "node", "id": 4771939389, "lat": 46.7154222, "lon": -122.9545217, "tags": {"addr:city": "Centralia", "addr:housenumber": "120", "addr:postcode": "98531", "addr:state": "WA", "addr:street": "South Tower Avenue", "addr:unit": "B", "amenity": "cafe", "cuisine": "coffee_shop", "internet_access": "wlan", "internet_access:fee": "no", "name": "The Station Coffee Bar & Bistro", "opening_hours": "Mo-We 08:00-18:00; Th-Sa 08:00-21:00; Su 08:00-17:00", "outdoor_seating": "no", "phone": "+1-360-623-1971", "smoking": "no", "website": "https://www.stationcoffeebar.com/", "wheelchair": "yes"}}, {"type": "node", "id": 4771939390, "lat": 46.7180177, "lon": -122.953834, "tags": {"addr:city": "Centralia", "addr:housenumber": "221", "addr:postcode": "98531", "addr:state": "WA", "addr:street": "North Tower Avenue", "amenity": "bar", "name": "O'Blarney's Irish Pub", "opening_hours": "Mo-Fr 11:00-02:00, Sa-Su 08:00-02:00", "outdoor_seating": "yes", "phone": "+1-360-807-4581", "smoking": "outside", "website": "https://oblarneyspub.com/", "wheelchair": "yes"}}, {"type": "node", "id": 4771939391, "lat": 46.7150185, "lon": -122.9543761, "tags": {"addr:city": "Centralia", "addr:housenumber": "202", "addr:postcode": "98531", "addr:state": "WA", "addr:street": "South Tower Avenue", "amenity": "cafe", "cuisine": "coffee_shop", "internet_access": "wlan", "internet_access:fee": "no", "name": "Santa Lucia Coffee Roasters", "opening_hours": "Mo-Fr 07:00-17:00, Sa 08:00-15:00, Su 09:00 - 15:00", "outdoor_seating": "yes", "phone": "+1-360-807-9600", "website": "http://justindustries.com", "wheelchair": "yes"}}, {"type": "node", "id": 4771939392, "lat": 46.7168576, "lon": -122.9538991, "tags": {"addr:city": "Centralia", "addr:housenumber": "118", "addr:postcode": "98531", "addr:state": "WA", "addr:street": "North Tower Avenue", "amenity": "restaurant", "cuisine": "mexican", "name": "Azteca Mexican Restaurant", "outdoor_seating": "no", "phone": "+1-360-736-0973", "smoking": "no", "takeaway": "yes"}}, {"type": "node", "id": 4771939419, "lat": 46.7167006, "lon": -122.9539568, "tags": {"addr:city": "Centralia", "addr:housenumber": "112", "addr:postcode": "98531", "addr:state": "WA", "addr:street": "North Tower Avenue", "amenity": "cinema", "name": "The Olympic Club Theater", "phone": "+1-360-736-5164", "website": "https://www.mcmenamins.com/olympic-club/olympic-club-theater", "wikidata": "Q43305629"}}, {"type": "node", "id": 4771951042, "lat": 46.7164941, "lon": -122.9551279, "tags": {"addr:city": "Centralia", "addr:housenumber": "113", "addr:postcode": "98531", "addr:state": "WA", "addr:street": "West Main Street", "name": "Willie's Sport Shop", "phone": "+1-360-736-9994", "shop": "sports"}}, {"type": "node", "id": 4771954391, "lat": 46.717571, "lon": -122.9540174, "tags": {"addr:city": "Centralia", "addr:housenumber": "209", "addr:postcode": "98531", "addr:state": "WA", "addr:street": "North Tower Avenue", "operator": "Up The Creek Antiques", "shop": "antiques"}}, {"type": "node", "id": 4985654695, "lat": 46.7177734, "lon": -122.9555761}, {"type": "node", "id": 4985654696, "lat": 46.7178495, "lon": -122.9553795}, {"type": "node", "id": 4985696938, "lat": 46.7191881, "lon": -122.9547763, "tags": {"addr:city": "Centralia", "addr:housenumber": "321", "addr:postcode": "98531", "addr:state": "WA", "addr:street": "North Pearl Street", "name": "The Chronicle", "office": "newspaper", "phone": "+1-360-736-3311", "source": "http://www.chronline.com/site/contact.html", "website": "https://www.chronline.com/"}}, {"type": "node", "id": 5093088729, "lat": 46.7162549, "lon": -122.954184, "tags": {"amenity": "post_box", "collection_times": "Mo-Sa 08:45, Su off", "drive_through": "no", "operator": "United States Postal Service", "operator:short": "USPS", "operator:type": "public", "operator:website": "https://www.usps.com", "operator:wikidata": "Q668687", "operator:wikipedia": "en:United States Postal Service", "short_name": "USPS"}}, {"type": "node", "id": 5188465483, "lat": 46.7007616, "lon": -122.9612729}, {"type": "node", "id": 5188465484, "lat": 46.7011384, "lon": -122.9630827}, {"type": "node", "id": 5188465485, "lat": 46.7023109, "lon": -122.9626425}, {"type": "node", "id": 5188465486, "lat": 46.7018809, "lon": -122.96065}, {"type": "node", "id": 5188465514, "lat": 46.7015861, "lon": -122.9585563}, {"type": "node", "id": 5188465515, "lat": 46.7012283, "lon": -122.9585642}, {"type": "node", "id": 5188465516, "lat": 46.7012265, "lon": -122.9583889}, {"type": "node", "id": 5188465517, "lat": 46.7015843, "lon": -122.9583811}, {"type": "node", "id": 5188465526, "lat": 46.7022074, "lon": -122.9574651, "tags": {"amenity": "dentist", "healthcare": "dentist", "name": "Wilson & Wilson Dentistry"}}, {"type": "node", "id": 5188465558, "lat": 46.7029524, "lon": -122.957033, "tags": {"amenity": "dentist", "healthcare": "dentist", "name": "Cascade Dental Center"}}, {"type": "node", "id": 5188465559, "lat": 46.7031571, "lon": -122.9570291, "tags": {"amenity": "doctors", "healthcare": "doctor", "healthcare:speciality": "ophthalmology"}}, {"type": "node", "id": 5188465564, "lat": 46.7026249, "lon": -122.9563254, "tags": {"name": "Dave's Econ-O-Wash & Dry Cleaning", "shop": "dry_cleaning"}}, {"type": "node", "id": 5188465571, "lat": 46.7029273, "lon": -122.9561992, "tags": {"name": "Paw Patch Bubbles & Bows", "shop": "pet_grooming"}}, {"type": "node", "id": 5188465576, "lat": 46.7030886, "lon": -122.9561071, "tags": {"name": "Bodacious Beauty Salon", "shop": "beauty"}}, {"type": "node", "id": 5188465581, "lat": 46.7032724, "lon": -122.9557754, "tags": {"name": "Consolidated Electrical Distributors", "shop": "electronics"}}, {"type": "node", "id": 5188465588, "lat": 46.7037215, "lon": -122.9558122, "tags": {"name": "Express Employment Professionals", "office": "employment_agency"}}, {"type": "node", "id": 5188465593, "lat": 46.70445, "lon": -122.955493, "tags": {"brand": "Franz", "brand:wikidata": "Q7889571", "name": "Franz Bakery Outlet Store", "shop": "bakery"}}, {"type": "node", "id": 5188465602, "lat": 46.7005656, "lon": -122.9564475, "tags": {"name": "Madsen's Shop & Supply Inc.", "office": "company"}}, {"type": "node", "id": 5188465607, "lat": 46.6997124, "lon": -122.9558906, "tags": {"name": "Sears Warehouse", "office": "company"}}, {"type": "node", "id": 5188465616, "lat": 46.6996878, "lon": -122.9570858, "tags": {"name": "Luque's Auto Sales", "shop": "car"}}, {"type": "node", "id": 5188465621, "lat": 46.6996275, "lon": -122.9582582, "tags": {"name": "Sticklin Funeral Chapel", "shop": "funeral_directors"}}, {"type": "node", "id": 5188465627, "lat": 46.6989033, "lon": -122.9583861}, {"type": "node", "id": 5188465628, "lat": 46.6987259, "lon": -122.9583933}, {"type": "node", "id": 5188465629, "lat": 46.6987165, "lon": -122.9578681}, {"type": "node", "id": 5188465630, "lat": 46.6989558, "lon": -122.957859}, {"type": "node", "id": 5188465631, "lat": 46.6989648, "lon": -122.9579964}, {"type": "node", "id": 5188465632, "lat": 46.6988963, "lon": -122.9579992}, {"type": "node", "id": 5188465637, "lat": 46.6985545, "lon": -122.9578564, "tags": {"name": "Andy's Radical Radials", "shop": "tyres"}}, {"type": "node", "id": 5188465644, "lat": 46.6979416, "lon": -122.9581866, "tags": {"name": "Just Wood Furniture", "shop": "furniture"}}, {"type": "node", "id": 5188465649, "lat": 46.6968174, "lon": -122.957714, "tags": {"addr:city": "Centralia", "addr:housenumber": "1621", "addr:postcode": "98531", "addr:state": "WA", "addr:street": "South Gold Street", "amenity": "restaurant", "cuisine": "japanese", "name": "Zabdi Teriyaki", "opening_hours": "Mo-Sa 10:00-20:30", "phone": "+1-360-807-4606", "takeaway": "yes", "website": "https://zabditeriyaki.com/"}}, {"type": "node", "id": 5190290425, "lat": 46.6943916, "lon": -122.9569805}, {"type": "node", "id": 5190290426, "lat": 46.69394, "lon": -122.9571565}, {"type": "node", "id": 5190290427, "lat": 46.6939481, "lon": -122.9561125}, {"type": "node", "id": 5190290428, "lat": 46.694397, "lon": -122.9561303}, {"type": "node", "id": 5190290449, "lat": 46.6946954, "lon": -122.9561258, "tags": {"amenity": "restaurant", "cuisine": "mexican", "name": "The Quesadilla Factory"}}, {"type": "node", "id": 5190290450, "lat": 46.695416, "lon": -122.9559852, "tags": {"clothes": "sports", "name": "Athletes Corner", "shop": "clothes"}}, {"type": "node", "id": 5190290451, "lat": 46.6957068, "lon": -122.9568781, "tags": {"amenity": "restaurant", "cuisine": "pizza", "name": "Figaro's Pizza"}}, {"type": "node", "id": 5190290452, "lat": 46.6957126, "lon": -122.9566874, "tags": {"beauty": "nails", "name": "Kim Nails", "shop": "beauty"}}, {"type": "node", "id": 5190290453, "lat": 46.6957192, "lon": -122.9564699, "tags": {"name": "Sight & Sound Audio Connections", "shop": "hifi"}}, {"type": "node", "id": 5190290454, "lat": 46.6964349, "lon": -122.957018, "tags": {"addr:city": "Centralia", "addr:housenumber": "1622", "addr:postcode": "98531", "addr:state": "WA", "addr:street": "South Gold Street", "amenity": "ice_cream", "name": "LC Coffee Company / The Creamery", "opening_hours": "Mo-Th 07:00-21:00; Fr,Sa 07:00-22:00; Su 10:00-21:00"}}, {"type": "node", "id": 5190290488, "lat": 46.6990386, "lon": -122.9546065, "tags": {"name": "Fred's Discount Tire-Car Wash", "shop": "tyres"}}, {"type": "node", "id": 5190290634, "lat": 46.6980519, "lon": -122.9544803, "tags": {"name": "Courtyard Salon & Spa", "shop": "beauty"}}, {"type": "node", "id": 5190290635, "lat": 46.6972741, "lon": -122.9555435, "tags": {"amenity": "childcare", "name": "Valued Kids Childcare"}}, {"type": "node", "id": 5190290636, "lat": 46.6977633, "lon": -122.9568294, "tags": {"amenity": "car_wash", "name": "Winning Attractions Customized"}}, {"type": "node", "id": 5190290637, "lat": 46.6976074, "lon": -122.9569599, "tags": {"addr:housenumber": "1600 unit 4", "addr:street": "S Gold St.", "description": "Zebra Computers provides expert computer repair services at reasonable prices", "name": "Zebra Computers", "opening_hours": "Mo-Fr 08:30-17:00", "phone": "+1-360-736-7000", "shop": "computer", "website": "https://www.zebracomputers.com/"}}, {"type": "node", "id": 5234736885, "lat": 46.7166371, "lon": -122.9543771, "tags": {"addr:city": "Centralia", "addr:housenumber": "111", "addr:postcode": "98531", "addr:state": "WA", "addr:street": "North Tower Avenue", "amenity": "cafe", "name": "The Centerville Caf\u00e9"}}, {"type": "node", "id": 5562805530, "lat": 46.7154092, "lon": -122.9561943, "tags": {"addr:city": "Centralia", "addr:housenumber": "202", "addr:postcode": "98531", "addr:state": "WA", "addr:street": "Centralia College Boulevard", "amenity": "bar", "name": "The Branch Bar & Public Room", "website": "https://www.facebook.com/TheBranchBar/"}}, {"type": "node", "id": 5562817882, "lat": 46.7201845, "lon": -122.95288, "tags": {"addr:city": "Centralia", "addr:housenumber": "505", "addr:postcode": "98531", "addr:state": "WA", "addr:street": "North Tower Avenue", "name": "HUBBUB", "shop": "art", "website": "https://hubbubshop.com/"}}, {"type": "node", "id": 5562820639, "lat": 46.7191466, "lon": -122.9528656, "tags": {"addr:city": "Centralia", "addr:housenumber": "402", "addr:postcode": "98531", "addr:state": "WA", "addr:street": "North Tower Avenue", "name": "Tower Trading Co.", "shop": "gift"}}, {"type": "node", "id": 5562835531, "lat": 46.7168376, "lon": -122.9651602}, {"type": "node", "id": 5562835537, "lat": 46.7169888, "lon": -122.9635964}, {"type": "node", "id": 5562835540, "lat": 46.7166482, "lon": -122.9637436}, {"type": "node", "id": 5562835542, "lat": 46.7167154, "lon": -122.9640588}, {"type": "node", "id": 5562839915, "lat": 46.7176994, "lon": -122.9540316, "tags": {"addr:city": "Centralia", "addr:housenumber": "211", "addr:postcode": "98531", "addr:state": "WA", "addr:street": "North Tower Avenue", "name": "Salewsky's Jewelry", "opening_hours": "Mo-Fr 09:30-17:00; Sa 10:00-14:00; Su off", "shop": "jewelry"}}, {"type": "node", "id": 5562850058, "lat": 46.7137243, "lon": -122.9550312, "tags": {"addr:city": "Centralia", "addr:housenumber": "300", "addr:postcode": "98531", "addr:state": "WA", "addr:street": "South Tower Avenue", "description": "ATV Dealership", "name": "Powersports Northwest", "shop": "motorcycle"}}, {"type": "node", "id": 5794924494, "lat": 46.7172506, "lon": -122.9656784, "tags": {"addr:housenumber": "918", "addr:street": "Centralia College Boulevard", "name": "Schinnell Surveying and Mapping", "office": "surveyor", "website": "surveyingandmapping.com"}}, {"type": "node", "id": 6638906035, "lat": 46.7095989, "lon": -122.9517365}, {"type": "node", "id": 6638906037, "lat": 46.7073644, "lon": -122.9539953}, {"type": "node", "id": 6638906038, "lat": 46.709031, "lon": -122.9539408}, {"type": "node", "id": 6638906039, "lat": 46.7090252, "lon": -122.9534414}, {"type": "node", "id": 9005428758, "lat": 46.7173713, "lon": -122.960837, "tags": {"addr:city": "Centralia", "addr:housenumber": "610", "addr:postcode": "98531", "addr:state": "WA", "addr:street": "West Main Street", "name": "Smokin Js", "opening_hours": "Mo-Su 10:00-19:00", "payment:cash": "yes", "payment:credit_cards": "yes", "phone": "+1-360-807-8279", "shop": "tobacco", "website": "https://smokinjs.com/"}}, {"type": "node", "id": 9213259861, "lat": 46.7013415, "lon": -122.9608679}, {"type": "node", "id": 9213259862, "lat": 46.7013749, "lon": -122.9609912}, {"type": "node", "id": 9231684410, "lat": 46.7083782, "lon": -122.9550257, "tags": {"addr:city": "Centralia", "addr:housenumber": "802", "addr:postcode": "98531", "addr:state": "WA", "addr:street": "South Gold Street", "amenity": "childcare", "name": "Mother Hubbard's Day Care and Preschool", "phone": "+1-360-669-0113"}}, {"type": "node", "id": 9231684413, "lat": 46.7084593, "lon": -122.9545354}, {"type": "node", "id": 9231684414, "lat": 46.7083926, "lon": -122.9545365}, {"type": "node", "id": 9231684415, "lat": 46.7083906, "lon": -122.9542841}, {"type": "node", "id": 9231684416, "lat": 46.7084565, "lon": -122.9541995}, {"type": "node", "id": 9231684417, "lat": 46.7081683, "lon": -122.9542854}, {"type": "node", "id": 9231684418, "lat": 46.7081681, "lon": -122.9542011}, {"type": "node", "id": 9231684419, "lat": 46.7083298, "lon": -122.9545315}, {"type": "node", "id": 9231684420, "lat": 46.7081775, "lon": -122.9545325}, {"type": "node", "id": 9231684421, "lat": 46.708177, "lon": -122.9543734}, {"type": "node", "id": 9231684422, "lat": 46.7083293, "lon": -122.9543724}, {"type": "node", "id": 9231684541, "lat": 46.7081922, "lon": -122.9522297}, {"type": "node", "id": 9231684542, "lat": 46.7089454, "lon": -122.9521972}, {"type": "node", "id": 9231684543, "lat": 46.7081927, "lon": -122.9522075}, {"type": "node", "id": 9231684544, "lat": 46.7089441, "lon": -122.9521563}, {"type": "node", "id": 9231684545, "lat": 46.7074346, "lon": -122.9516877}, {"type": "node", "id": 9231684550, "lat": 46.7073397, "lon": -122.9516914}, {"type": "node", "id": 9231684701, "lat": 46.7134922, "lon": -122.9480057}, {"type": "node", "id": 9231684702, "lat": 46.7137075, "lon": -122.9479913}, {"type": "node", "id": 9231684703, "lat": 46.7135199, "lon": -122.9475839}, {"type": "node", "id": 9231684789, "lat": 46.7135286, "lon": -122.9480014}, {"type": "node", "id": 9231700853, "lat": 46.7085827, "lon": -122.9554509}, {"type": "node", "id": 9231700854, "lat": 46.7085867, "lon": -122.955687}, {"type": "node", "id": 9231700855, "lat": 46.7086137, "lon": -122.955686}, {"type": "node", "id": 9231700856, "lat": 46.708617, "lon": -122.9558768}, {"type": "node", "id": 9231700857, "lat": 46.7085778, "lon": -122.9558783}, {"type": "node", "id": 9231700858, "lat": 46.7085749, "lon": -122.9557043}, {"type": "node", "id": 9231700859, "lat": 46.708532, "lon": -122.9557058}, {"type": "node", "id": 9231700860, "lat": 46.7085277, "lon": -122.9554529}, {"type": "node", "id": 9231700870, "lat": 46.7089806, "lon": -122.9554484}, {"type": "node", "id": 9231700871, "lat": 46.7089879, "lon": -122.955778}, {"type": "node", "id": 9231700872, "lat": 46.7090162, "lon": -122.9558055}, {"type": "node", "id": 9231700873, "lat": 46.7090227, "lon": -122.9558784}, {"type": "node", "id": 9231700874, "lat": 46.7089714, "lon": -122.9558881}, {"type": "node", "id": 9231700875, "lat": 46.708965, "lon": -122.9558153}, {"type": "node", "id": 9231700876, "lat": 46.7089313, "lon": -122.9557681}, {"type": "node", "id": 9231700877, "lat": 46.7089242, "lon": -122.955451}, {"type": "node", "id": 9231701077, "lat": 46.7095879, "lon": -122.953151}, {"type": "node", "id": 9231701078, "lat": 46.7095585, "lon": -122.9531577}, {"type": "node", "id": 9231701079, "lat": 46.7095925, "lon": -122.9532277}, {"type": "node", "id": 9231701080, "lat": 46.7092425, "lon": -122.9532345}, {"type": "node", "id": 9231701081, "lat": 46.70921, "lon": -122.953169}, {"type": "node", "id": 9231701082, "lat": 46.7092456, "lon": -122.9531713}, {"type": "node", "id": 9231701083, "lat": 46.7092116, "lon": -122.9530877}, {"type": "node", "id": 9231701084, "lat": 46.7095554, "lon": -122.9530787}, {"type": "node", "id": 9231701085, "lat": 46.7095895, "lon": -122.9533407}, {"type": "node", "id": 9231701086, "lat": 46.70956, "lon": -122.9534039}, {"type": "node", "id": 9231701087, "lat": 46.7091656, "lon": -122.9534076}, {"type": "node", "id": 9231701088, "lat": 46.709191, "lon": -122.9533492}, {"type": "node", "id": 9231701089, "lat": 46.7095982, "lon": -122.9529006}, {"type": "node", "id": 9231701090, "lat": 46.7095635, "lon": -122.9529662}, {"type": "node", "id": 9231701091, "lat": 46.7091916, "lon": -122.9529781}, {"type": "node", "id": 9231701092, "lat": 46.709226, "lon": -122.9529035}, {"type": "node", "id": 9231754292, "lat": 46.7105629, "lon": -122.9512795}, {"type": "node", "id": 9231754293, "lat": 46.7105659, "lon": -122.9513288}, {"type": "node", "id": 9231754294, "lat": 46.7106338, "lon": -122.9513199}, {"type": "node", "id": 9231754295, "lat": 46.7106315, "lon": -122.9512823}, {"type": "node", "id": 9231755831, "lat": 46.7108952, "lon": -122.9513696}, {"type": "node", "id": 9231755832, "lat": 46.7108738, "lon": -122.9514351}, {"type": "node", "id": 9231755833, "lat": 46.710555, "lon": -122.9514913}, {"type": "node", "id": 9231755834, "lat": 46.7105806, "lon": -122.9514242}, {"type": "node", "id": 9231755835, "lat": 46.7108631, "lon": -122.9511745}, {"type": "node", "id": 9231755836, "lat": 46.7108931, "lon": -122.9512307}, {"type": "node", "id": 9231755837, "lat": 46.7112386, "lon": -122.9511589}, {"type": "node", "id": 9231755838, "lat": 46.7112044, "lon": -122.9510996}, {"type": "node", "id": 9247486614, "lat": 46.7136556, "lon": -122.9626775}, {"type": "node", "id": 9247486615, "lat": 46.7136699, "lon": -122.9627493}, {"type": "node", "id": 9247486616, "lat": 46.7136281, "lon": -122.9627669}, {"type": "node", "id": 9247486617, "lat": 46.7136721, "lon": -122.9629886}, {"type": "node", "id": 9247486618, "lat": 46.7136603, "lon": -122.9629936}, {"type": "node", "id": 9247486619, "lat": 46.7136749, "lon": -122.9630674}, {"type": "node", "id": 9247486620, "lat": 46.7135769, "lon": -122.9631087}, {"type": "node", "id": 9247486621, "lat": 46.7135699, "lon": -122.9630732}, {"type": "node", "id": 9247486622, "lat": 46.7134385, "lon": -122.9631286}, {"type": "node", "id": 9247486623, "lat": 46.713444, "lon": -122.9631559}, {"type": "node", "id": 9247486624, "lat": 46.7133753, "lon": -122.9631849}, {"type": "node", "id": 9247486625, "lat": 46.7133719, "lon": -122.9631676}, {"type": "node", "id": 9247486626, "lat": 46.7133507, "lon": -122.9631766}, {"type": "node", "id": 9247486627, "lat": 46.7133316, "lon": -122.9630802}, {"type": "node", "id": 9247486628, "lat": 46.7133465, "lon": -122.9630739}, {"type": "node", "id": 9247486629, "lat": 46.7132763, "lon": -122.9627217}, {"type": "node", "id": 9247486630, "lat": 46.7134112, "lon": -122.9626646}, {"type": "node", "id": 9247486631, "lat": 46.7134231, "lon": -122.9627243}, {"type": "node", "id": 9247486632, "lat": 46.7135119, "lon": -122.9626866}, {"type": "node", "id": 9247486633, "lat": 46.7135041, "lon": -122.9626474}, {"type": "node", "id": 9247486634, "lat": 46.7135917, "lon": -122.9626104}, {"type": "node", "id": 9247486635, "lat": 46.713609, "lon": -122.9626972}, {"type": "node", "id": 9247486636, "lat": 46.7135188, "lon": -122.962794}, {"type": "node", "id": 9247486637, "lat": 46.7135545, "lon": -122.9629741}, {"type": "node", "id": 9247486638, "lat": 46.7134609, "lon": -122.9630136}, {"type": "node", "id": 9247486639, "lat": 46.7134252, "lon": -122.9628335}, {"type": "node", "id": 9247487036, "lat": 46.7126452, "lon": -122.9620059, "tags": {"amenity": "place_of_worship", "name": "Faith Temple Word of Life Center", "religion": "christian"}}, {"type": "node", "id": 9247487044, "lat": 46.7127059, "lon": -122.9618584}, {"type": "node", "id": 9247487045, "lat": 46.7125573, "lon": -122.9619167}, {"type": "node", "id": 9247487046, "lat": 46.7125447, "lon": -122.9618483}, {"type": "node", "id": 9247487047, "lat": 46.7126933, "lon": -122.96179}, {"type": "node", "id": 9247487048, "lat": 46.7124629, "lon": -122.9617266}, {"type": "node", "id": 9247487049, "lat": 46.7124769, "lon": -122.9617933}, {"type": "node", "id": 9247487050, "lat": 46.7126855, "lon": -122.9617005}, {"type": "node", "id": 9247487051, "lat": 46.7126716, "lon": -122.9616337}, {"type": "node", "id": 9252163891, "lat": 46.7146077, "lon": -122.9641157}, {"type": "node", "id": 9252163892, "lat": 46.7145572, "lon": -122.9641372}, {"type": "node", "id": 9252163893, "lat": 46.7143501, "lon": -122.9630997}, {"type": "node", "id": 9252163894, "lat": 46.7144004, "lon": -122.9630783}, {"type": "node", "id": 9252163895, "lat": 46.7147204, "lon": -122.964084}, {"type": "node", "id": 9252163896, "lat": 46.714602, "lon": -122.9634858}, {"type": "node", "id": 9252163897, "lat": 46.7145553, "lon": -122.9635054}, {"type": "node", "id": 9252163898, "lat": 46.7146736, "lon": -122.9641037}, {"type": "node", "id": 9252163899, "lat": 46.7147337, "lon": -122.9633947}, {"type": "node", "id": 9252163900, "lat": 46.7147486, "lon": -122.9634684}, {"type": "node", "id": 9252163901, "lat": 46.7146328, "lon": -122.9635181}, {"type": "node", "id": 9252163902, "lat": 46.7146179, "lon": -122.9634444}, {"type": "node", "id": 9252163903, "lat": 46.7146993, "lon": -122.9632255}, {"type": "node", "id": 9252163904, "lat": 46.7147141, "lon": -122.9632992}, {"type": "node", "id": 9252163905, "lat": 46.7145983, "lon": -122.9633489}, {"type": "node", "id": 9252163906, "lat": 46.7145835, "lon": -122.9632752}, {"type": "node", "id": 9252163907, "lat": 46.7145686, "lon": -122.9633354}, {"type": "node", "id": 9252163908, "lat": 46.7145094, "lon": -122.9630393}, {"type": "node", "id": 9252163909, "lat": 46.7144654, "lon": -122.9630581}, {"type": "node", "id": 9252163910, "lat": 46.7145246, "lon": -122.9633541}, {"type": "node", "id": 9252163911, "lat": 46.7147047, "lon": -122.9628872}, {"type": "node", "id": 9252589524, "lat": 46.7146977, "lon": -122.9600457}, {"type": "node", "id": 9252589525, "lat": 46.7143345, "lon": -122.9601907}, {"type": "node", "id": 9252589526, "lat": 46.7143037, "lon": -122.9600267}, {"type": "node", "id": 9252589527, "lat": 46.7146669, "lon": -122.9598818}, {"type": "node", "id": 9255321160, "lat": 46.7165477, "lon": -122.9635233}, {"type": "node", "id": 9255321161, "lat": 46.7163805, "lon": -122.9635951}, {"type": "node", "id": 9255321162, "lat": 46.7163386, "lon": -122.9633801}, {"type": "node", "id": 9255321163, "lat": 46.7165067, "lon": -122.9633112}, {"type": "node", "id": 9255321356, "lat": 46.7166915, "lon": -122.9620616}, {"type": "node", "id": 9255321357, "lat": 46.7169367, "lon": -122.9625297}, {"type": "node", "id": 9255321358, "lat": 46.7170508, "lon": -122.9630895}, {"type": "node", "id": 9255321359, "lat": 46.7171836, "lon": -122.9618547}, {"type": "node", "id": 9255321360, "lat": 46.7173351, "lon": -122.9621918}, {"type": "node", "id": 9255321361, "lat": 46.7173132, "lon": -122.9629754}, {"type": "node", "id": 9255321362, "lat": 46.717427, "lon": -122.9626347}, {"type": "node", "id": 9259186127, "lat": 46.7166873, "lon": -122.9592439}, {"type": "node", "id": 9259186128, "lat": 46.7164946, "lon": -122.9582267}, {"type": "node", "id": 9259186129, "lat": 46.716107, "lon": -122.9583784}, {"type": "node", "id": 9259186144, "lat": 46.7153752, "lon": -122.9575532}, {"type": "node", "id": 9259186145, "lat": 46.715887, "lon": -122.9573506}, {"type": "node", "id": 9259186146, "lat": 46.7148065, "lon": -122.9577558}, {"type": "node", "id": 9259186147, "lat": 46.7149598, "lon": -122.9585472}, {"type": "node", "id": 9259186148, "lat": 46.7143857, "lon": -122.9605114}, {"type": "node", "id": 9259186149, "lat": 46.7143337, "lon": -122.9602453}, {"type": "node", "id": 9259186150, "lat": 46.7139686, "lon": -122.9604026}, {"type": "node", "id": 9259186151, "lat": 46.7140215, "lon": -122.960666}, {"type": "node", "id": 9259186152, "lat": 46.7144448, "lon": -122.9608182}, {"type": "node", "id": 9259186153, "lat": 46.7142201, "lon": -122.9614758}, {"type": "node", "id": 9259186154, "lat": 46.7141651, "lon": -122.9611893}, {"type": "node", "id": 9259186155, "lat": 46.713717, "lon": -122.9611058}, {"type": "node", "id": 9259186156, "lat": 46.7145465, "lon": -122.9613369}, {"type": "node", "id": 9259186157, "lat": 46.7139159, "lon": -122.9612948}, {"type": "node", "id": 9259186158, "lat": 46.7149126, "lon": -122.9638355}, {"type": "node", "id": 9259186159, "lat": 46.7146999, "lon": -122.9639206}, {"type": "node", "id": 9259186160, "lat": 46.7146605, "lon": -122.9637107}, {"type": "node", "id": 9259186161, "lat": 46.7148732, "lon": -122.9636257}, {"type": "node", "id": 9259186162, "lat": 46.7162232, "lon": -122.9652636}, {"type": "node", "id": 9259186163, "lat": 46.7164183, "lon": -122.9662283}, {"type": "node", "id": 9259186164, "lat": 46.7166583, "lon": -122.9651388}, {"type": "node", "id": 9259186165, "lat": 46.716353, "lon": -122.9652453}, {"type": "node", "id": 9259186166, "lat": 46.7164372, "lon": -122.9656527}, {"type": "node", "id": 9259186167, "lat": 46.7167446, "lon": -122.9656049}, {"type": "node", "id": 9262662991, "lat": 46.7172111, "lon": -122.9646562}, {"type": "node", "id": 9262662993, "lat": 46.715361, "lon": -122.9655203}, {"type": "node", "id": 9262662994, "lat": 46.7151727, "lon": -122.9667547}, {"type": "node", "id": 9262662995, "lat": 46.7143854, "lon": -122.965681}, {"type": "node", "id": 9262662996, "lat": 46.7144278, "lon": -122.9658889}, {"type": "node", "id": 9262662997, "lat": 46.714833, "lon": -122.9657162}, {"type": "node", "id": 9262662998, "lat": 46.7151141, "lon": -122.9664699}, {"type": "node", "id": 9262662999, "lat": 46.7149919, "lon": -122.9665232}, {"type": "node", "id": 9262663004, "lat": 46.7145401, "lon": -122.9641776}, {"type": "node", "id": 9262663005, "lat": 46.714675, "lon": -122.9649703}, {"type": "node", "id": 9262663006, "lat": 46.7143803, "lon": -122.9644344}, {"type": "node", "id": 9262663007, "lat": 46.7142324, "lon": -122.9637111}, {"type": "node", "id": 9262663008, "lat": 46.7145741, "lon": -122.9643603}, {"type": "node", "id": 9262663009, "lat": 46.7145609, "lon": -122.9643657}, {"type": "node", "id": 9262663010, "lat": 46.7144201, "lon": -122.9636322}, {"type": "node", "id": 9262663011, "lat": 46.7133977, "lon": -122.9606505}, {"type": "node", "id": 9262663012, "lat": 46.7139712, "lon": -122.9615984}, {"type": "node", "id": 9262663013, "lat": 46.7136195, "lon": -122.961745}, {"type": "node", "id": 9262663014, "lat": 46.7136773, "lon": -122.9609004}, {"type": "node", "id": 9262663015, "lat": 46.7137364, "lon": -122.9608755}, {"type": "node", "id": 9262663016, "lat": 46.7136676, "lon": -122.9605424}, {"type": "node", "id": 9262674210, "lat": 46.7138718, "lon": -122.9612586}, {"type": "node", "id": 9262674211, "lat": 46.7137809, "lon": -122.9611832}, {"type": "node", "id": 9262674212, "lat": 46.7137943, "lon": -122.9611777}, {"type": "node", "id": 9262674213, "lat": 46.7137871, "lon": -122.9611403}, {"type": "node", "id": 9262674214, "lat": 46.7138264, "lon": -122.9611669}, {"type": "node", "id": 9262674215, "lat": 46.7138188, "lon": -122.9611273}, {"type": "node", "id": 9262674216, "lat": 46.7138522, "lon": -122.9611564}, {"type": "node", "id": 9262674221, "lat": 46.7136088, "lon": -122.9611107}, {"type": "node", "id": 9262674222, "lat": 46.7136212, "lon": -122.9611056}, {"type": "node", "id": 9262674223, "lat": 46.7136457, "lon": -122.9613029}, {"type": "node", "id": 9262674224, "lat": 46.7136379, "lon": -122.9613223}, {"type": "node", "id": 9262674225, "lat": 46.713635, "lon": -122.9613072}, {"type": "node", "id": 9262674226, "lat": 46.7136532, "lon": -122.9614444}, {"type": "node", "id": 9262674227, "lat": 46.7136195, "lon": -122.9614581}, {"type": "node", "id": 9262674228, "lat": 46.7136132, "lon": -122.9610635}, {"type": "node", "id": 9262862861, "lat": 46.7148481, "lon": -122.9657929}, {"type": "node", "id": 9262862862, "lat": 46.7148407, "lon": -122.9658173}, {"type": "node", "id": 9262862863, "lat": 46.7148559, "lon": -122.9658324}, {"type": "node", "id": 9262862864, "lat": 46.7157282, "lon": -122.9653042}, {"type": "node", "id": 9262862865, "lat": 46.715603, "lon": -122.9653132}, {"type": "node", "id": 9262862866, "lat": 46.7155974, "lon": -122.9652442}, {"type": "node", "id": 9262862867, "lat": 46.7157221, "lon": -122.9652254}, {"type": "node", "id": 9262862868, "lat": 46.7157635, "lon": -122.9652897}, {"type": "node", "id": 9262862869, "lat": 46.7160297, "lon": -122.9652593}, {"type": "node", "id": 9262862870, "lat": 46.7160251, "lon": -122.9651741}, {"type": "node", "id": 9262862871, "lat": 46.7157589, "lon": -122.9652047}, {"type": "node", "id": 9262862872, "lat": 46.7157331, "lon": -122.9650436}, {"type": "node", "id": 9262862873, "lat": 46.715735, "lon": -122.9651125}, {"type": "node", "id": 9262862874, "lat": 46.7160979, "lon": -122.9650651}, {"type": "node", "id": 9262862875, "lat": 46.7160942, "lon": -122.9649925}, {"type": "node", "id": 9262862876, "lat": 46.7158221, "lon": -122.9650308}, {"type": "node", "id": 9262862877, "lat": 46.7157842, "lon": -122.9650367}, {"type": "node", "id": 9262862878, "lat": 46.7160646, "lon": -122.9652517}, {"type": "node", "id": 9262862879, "lat": 46.716402, "lon": -122.9651938}, {"type": "node", "id": 9262862880, "lat": 46.7163956, "lon": -122.9651152}, {"type": "node", "id": 9262862881, "lat": 46.7160583, "lon": -122.965173}, {"type": "node", "id": 9262862882, "lat": 46.7163257, "lon": -122.9649252}, {"type": "node", "id": 9262862883, "lat": 46.7163401, "lon": -122.9649932}, {"type": "node", "id": 9262862884, "lat": 46.7162707, "lon": -122.9650244}, {"type": "node", "id": 9262862885, "lat": 46.7162564, "lon": -122.9649565}, {"type": "node", "id": 9262862886, "lat": 46.7165393, "lon": -122.9649901}, {"type": "node", "id": 9262862887, "lat": 46.7164602, "lon": -122.9651571}, {"type": "node", "id": 9262862888, "lat": 46.7164138, "lon": -122.9651104}, {"type": "node", "id": 9262862889, "lat": 46.7164929, "lon": -122.9649434}, {"type": "node", "id": 9262862890, "lat": 46.7166843, "lon": -122.9646604}, {"type": "node", "id": 9262862891, "lat": 46.7166988, "lon": -122.9647333}, {"type": "node", "id": 9262862892, "lat": 46.7164849, "lon": -122.9648241}, {"type": "node", "id": 9262862893, "lat": 46.7164704, "lon": -122.9647512}, {"type": "node", "id": 9262877251, "lat": 46.7150743, "lon": -122.9640472}, {"type": "node", "id": 9262877252, "lat": 46.7151222, "lon": -122.964111}, {"type": "node", "id": 9262877253, "lat": 46.7158699, "lon": -122.963788}, {"type": "node", "id": 9262877254, "lat": 46.715829, "lon": -122.9637283}, {"type": "node", "id": 9265675784, "lat": 46.7148425, "lon": -122.9662724}, {"type": "node", "id": 9265675785, "lat": 46.7148578, "lon": -122.9663485}, {"type": "node", "id": 9265675786, "lat": 46.7145827, "lon": -122.9664667}, {"type": "node", "id": 9265675787, "lat": 46.7145673, "lon": -122.9663907}, {"type": "node", "id": 9265675788, "lat": 46.7148344, "lon": -122.9661938}, {"type": "node", "id": 9265675789, "lat": 46.7145561, "lon": -122.9663109}, {"type": "node", "id": 9265675790, "lat": 46.7145404, "lon": -122.9662314}, {"type": "node", "id": 9265675791, "lat": 46.7148187, "lon": -122.9661145}, {"type": "node", "id": 9265717632, "lat": 46.7120117, "lon": -122.9573549}, {"type": "node", "id": 9265717633, "lat": 46.7119798, "lon": -122.9571916}, {"type": "node", "id": 9265717634, "lat": 46.7119315, "lon": -122.9572117}, {"type": "node", "id": 9265717635, "lat": 46.7119634, "lon": -122.957375}, {"type": "node", "id": 9265717636, "lat": 46.7122198, "lon": -122.9571961}, {"type": "node", "id": 9265717637, "lat": 46.712257, "lon": -122.9572492}, {"type": "node", "id": 9265717638, "lat": 46.7121788, "lon": -122.9572808}, {"type": "node", "id": 9265717639, "lat": 46.7121378, "lon": -122.95723}, {"type": "node", "id": 9265717640, "lat": 46.7122641, "lon": -122.9571708}, {"type": "node", "id": 9265717641, "lat": 46.7122223, "lon": -122.9571888}, {"type": "node", "id": 9265717642, "lat": 46.7122021, "lon": -122.9570895}, {"type": "node", "id": 9265717643, "lat": 46.712244, "lon": -122.9570715}, {"type": "node", "id": 9265717644, "lat": 46.7122044, "lon": -122.9570109}, {"type": "node", "id": 9265717645, "lat": 46.7121889, "lon": -122.9570832}, {"type": "node", "id": 9265717646, "lat": 46.7121207, "lon": -122.9571092}, {"type": "node", "id": 9265717647, "lat": 46.7121331, "lon": -122.9570391}, {"type": "node", "id": 9265717648, "lat": 46.7124374, "lon": -122.9568506}, {"type": "node", "id": 9265717649, "lat": 46.7120859, "lon": -122.957003}, {"type": "node", "id": 9265717650, "lat": 46.7120882, "lon": -122.9569217}, {"type": "node", "id": 9265717651, "lat": 46.7124398, "lon": -122.9567681}, {"type": "node", "id": 9265717652, "lat": 46.7122833, "lon": -122.9565637}, {"type": "node", "id": 9265717653, "lat": 46.7122826, "lon": -122.9567139}, {"type": "node", "id": 9265717654, "lat": 46.7119953, "lon": -122.956837}, {"type": "node", "id": 9265717655, "lat": 46.7119968, "lon": -122.9567602}, {"type": "node", "id": 9265717656, "lat": 46.7119772, "lon": -122.9567684}, {"type": "node", "id": 9265717657, "lat": 46.7119794, "lon": -122.9566939}, {"type": "node", "id": 9265717658, "lat": 46.7122485, "lon": -122.9564587}, {"type": "node", "id": 9265717659, "lat": 46.7122175, "lon": -122.9563988}, {"type": "node", "id": 9265717660, "lat": 46.7122454, "lon": -122.9563887}, {"type": "node", "id": 9265717661, "lat": 46.7122137, "lon": -122.9563311}, {"type": "node", "id": 9265717662, "lat": 46.7119148, "lon": -122.9564508}, {"type": "node", "id": 9265717663, "lat": 46.7119457, "lon": -122.956514}, {"type": "node", "id": 9265717664, "lat": 46.7119171, "lon": -122.9565264}, {"type": "node", "id": 9265717665, "lat": 46.7119473, "lon": -122.9565818}, {"type": "node", "id": 9265717666, "lat": 46.7124125, "lon": -122.956624}, {"type": "node", "id": 9265717667, "lat": 46.7123227, "lon": -122.9562118}, {"type": "node", "id": 9265717668, "lat": 46.7122809, "lon": -122.9562311}, {"type": "node", "id": 9265717669, "lat": 46.7123706, "lon": -122.9566433}, {"type": "node", "id": 9265717670, "lat": 46.7119109, "lon": -122.9568752}, {"type": "node", "id": 9265717671, "lat": 46.7118151, "lon": -122.9563977}, {"type": "node", "id": 9265717672, "lat": 46.7117634, "lon": -122.9564083}, {"type": "node", "id": 9265717673, "lat": 46.7118623, "lon": -122.9568962}, {"type": "node", "id": 9265717693, "lat": 46.7123922, "lon": -122.9565308}, {"type": "node", "id": 9265717694, "lat": 46.7124073, "lon": -122.9566005}, {"type": "node", "id": 9265735819, "lat": 46.7123336, "lon": -122.9562618}, {"type": "node", "id": 9265735821, "lat": 46.7123464, "lon": -122.9563205}, {"type": "node", "id": 9265735822, "lat": 46.7123586, "lon": -122.9563764}, {"type": "node", "id": 9265735824, "lat": 46.712369, "lon": -122.9564241}, {"type": "node", "id": 9265735825, "lat": 46.7123786, "lon": -122.9564686}, {"type": "node", "id": 9265735851, "lat": 46.7117796, "lon": -122.9564187}, {"type": "node", "id": 9265735852, "lat": 46.7118014, "lon": -122.9564127}, {"type": "node", "id": 9265735963, "lat": 46.7126146, "lon": -122.956099}, {"type": "node", "id": 9265735964, "lat": 46.7126411, "lon": -122.9562348}, {"type": "node", "id": 9265735965, "lat": 46.7126218, "lon": -122.9562428}, {"type": "node", "id": 9265735967, "lat": 46.7125667, "lon": -122.9562823}, {"type": "node", "id": 9265735968, "lat": 46.7125642, "lon": -122.9562691}, {"type": "node", "id": 9265735969, "lat": 46.7125467, "lon": -122.9562763}, {"type": "node", "id": 9265735970, "lat": 46.7125198, "lon": -122.9561383}, {"type": "node", "id": 9265821846, "lat": 46.7150535, "lon": -122.9560823}, {"type": "node", "id": 9265821847, "lat": 46.7150116, "lon": -122.9561006}, {"type": "node", "id": 9265821848, "lat": 46.7149192, "lon": -122.9556505}, {"type": "node", "id": 9265821849, "lat": 46.7149611, "lon": -122.9556322}, {"type": "node", "id": 9265821850, "lat": 46.7149476, "lon": -122.9560924}, {"type": "node", "id": 9265821852, "lat": 46.7148548, "lon": -122.9561268}, {"type": "node", "id": 9265821853, "lat": 46.7148035, "lon": -122.9558318}, {"type": "node", "id": 9265821856, "lat": 46.7148963, "lon": -122.9557975}, {"type": "node", "id": 9269007833, "lat": 46.7180575, "lon": -122.9645499}, {"type": "node", "id": 9269007834, "lat": 46.7180513, "lon": -122.9645191}, {"type": "node", "id": 9269007855, "lat": 46.7181481, "lon": -122.9647114}, {"type": "node", "id": 9269007856, "lat": 46.7181635, "lon": -122.9647903}, {"type": "node", "id": 9269007857, "lat": 46.717999, "lon": -122.9648365}, {"type": "node", "id": 9269007858, "lat": 46.7179857, "lon": -122.964765}, {"type": "node", "id": 9269007859, "lat": 46.718132, "lon": -122.9645178}, {"type": "node", "id": 9269007860, "lat": 46.718141, "lon": -122.9645683}, {"type": "node", "id": 9269007861, "lat": 46.7179745, "lon": -122.9646398}, {"type": "node", "id": 9269007862, "lat": 46.7179585, "lon": -122.964559}, {"type": "node", "id": 9269007863, "lat": 46.7182337, "lon": -122.9646822}, {"type": "node", "id": 9269007864, "lat": 46.7182094, "lon": -122.9646935}, {"type": "node", "id": 9269007865, "lat": 46.718158, "lon": -122.9644593}, {"type": "node", "id": 9269007866, "lat": 46.7181823, "lon": -122.9644479}, {"type": "node", "id": 9269008032, "lat": 46.7181631, "lon": -122.9657273}, {"type": "node", "id": 9269008033, "lat": 46.718204, "lon": -122.965927}, {"type": "node", "id": 9269008034, "lat": 46.7181519, "lon": -122.9659121}, {"type": "node", "id": 9269008035, "lat": 46.718113, "lon": -122.9657124}, {"type": "node", "id": 9269008036, "lat": 46.7180732, "lon": -122.9657213}, {"type": "node", "id": 9269008037, "lat": 46.7181141, "lon": -122.9659165}, {"type": "node", "id": 9269008038, "lat": 46.7180803, "lon": -122.9659702}, {"type": "node", "id": 9269008039, "lat": 46.7180385, "lon": -122.9657705}, {"type": "node", "id": 9269008080, "lat": 46.7183768, "lon": -122.9664844}, {"type": "node", "id": 9269008081, "lat": 46.7182287, "lon": -122.9665464}, {"type": "node", "id": 9269008082, "lat": 46.7182417, "lon": -122.9666124}, {"type": "node", "id": 9269008083, "lat": 46.7183898, "lon": -122.9665504}, {"type": "node", "id": 9269008084, "lat": 46.7183939, "lon": -122.9666753}, {"type": "node", "id": 9269008085, "lat": 46.7184072, "lon": -122.9667395}, {"type": "node", "id": 9269008086, "lat": 46.7182827, "lon": -122.9667946}, {"type": "node", "id": 9269008087, "lat": 46.7182694, "lon": -122.9667304}, {"type": "node", "id": 9269094520, "lat": 46.7186383, "lon": -122.9672031, "tags": {"addr:city": "Centralia", "addr:housenumber": "1106", "addr:postcode": "98531", "addr:state": "WA", "addr:street": "West Main Street", "name": "Baxter's Auto Parts #10", "phone": "+1-360-736-8228", "shop": "car_parts", "website": "https://www.baxterautoparts.com/"}}, {"type": "node", "id": 9273816133, "lat": 46.7195376, "lon": -122.9692411}, {"type": "node", "id": 9273816134, "lat": 46.7193114, "lon": -122.9692411}, {"type": "node", "id": 9273816135, "lat": 46.7193006, "lon": -122.9692706}, {"type": "node", "id": 9273816136, "lat": 46.7192723, "lon": -122.9692923}, {"type": "node", "id": 9273816137, "lat": 46.7192278, "lon": -122.9692903}, {"type": "node", "id": 9273816138, "lat": 46.719217, "lon": -122.9692726}, {"type": "node", "id": 9273816139, "lat": 46.7192129, "lon": -122.969243}, {"type": "node", "id": 9273816140, "lat": 46.7189298, "lon": -122.9692449}, {"type": "node", "id": 9273816141, "lat": 46.7189298, "lon": -122.9693141}, {"type": "node", "id": 9273816142, "lat": 46.7195376, "lon": -122.9693139}, {"type": "node", "id": 9282237809, "lat": 46.72092, "lon": -122.9676796}, {"type": "node", "id": 9282237810, "lat": 46.7209525, "lon": -122.967739}, {"type": "node", "id": 9282237811, "lat": 46.7207727, "lon": -122.9679488}, {"type": "node", "id": 9282237812, "lat": 46.7207401, "lon": -122.9678894}, {"type": "node", "id": 9282340970, "lat": 46.7197092, "lon": -122.9671319}, {"type": "node", "id": 9282340971, "lat": 46.7198665, "lon": -122.9671788}, {"type": "node", "id": 9282340972, "lat": 46.7198407, "lon": -122.9673592}, {"type": "node", "id": 9282340974, "lat": 46.7199001, "lon": -122.9671453}, {"type": "node", "id": 9282340975, "lat": 46.7197427, "lon": -122.967096}, {"type": "node", "id": 9282340976, "lat": 46.7199549, "lon": -122.9673919}, {"type": "node", "id": 9282340977, "lat": 46.7199625, "lon": -122.9673358}, {"type": "node", "id": 9282340978, "lat": 46.7198483, "lon": -122.9673031}, {"type": "node", "id": 9287305871, "lat": 46.7184632, "lon": -122.963632}, {"type": "node", "id": 9287305892, "lat": 46.7186318, "lon": -122.9638209}, {"type": "node", "id": 9287305893, "lat": 46.7185949, "lon": -122.9637683}, {"type": "node", "id": 9287305894, "lat": 46.7184298, "lon": -122.9638324}, {"type": "node", "id": 9287305895, "lat": 46.7184696, "lon": -122.9638897}, {"type": "node", "id": 9287305896, "lat": 46.7185799, "lon": -122.9635159}, {"type": "node", "id": 9287305897, "lat": 46.7184509, "lon": -122.9635705}, {"type": "node", "id": 9287305898, "lat": 46.71839, "lon": -122.963663}, {"type": "node", "id": 9287305899, "lat": 46.718406, "lon": -122.9637435}, {"type": "node", "id": 9287305900, "lat": 46.7186082, "lon": -122.9636579}, {"type": "node", "id": 9298840697, "lat": 46.7224237, "lon": -122.9626345}, {"type": "node", "id": 9301746796, "lat": 46.7220985, "lon": -122.9626393}, {"type": "node", "id": 9301746797, "lat": 46.7220979, "lon": -122.9625557}, {"type": "node", "id": 9301746798, "lat": 46.7224232, "lon": -122.962551}, {"type": "node", "id": 9301747242, "lat": 46.7199341, "lon": -122.9611527}, {"type": "node", "id": 9301747243, "lat": 46.7198839, "lon": -122.9611749}, {"type": "node", "id": 9301747244, "lat": 46.7198041, "lon": -122.9607905}, {"type": "node", "id": 9301747245, "lat": 46.7198542, "lon": -122.9607684}, {"type": "node", "id": 9301747251, "lat": 46.7201123, "lon": -122.9610783}, {"type": "node", "id": 9301747252, "lat": 46.7200086, "lon": -122.9611228}, {"type": "node", "id": 9301747253, "lat": 46.71993, "lon": -122.9607333}, {"type": "node", "id": 9301747254, "lat": 46.7200338, "lon": -122.9606887}, {"type": "node", "id": 9301747255, "lat": 46.7202848, "lon": -122.9609996}, {"type": "node", "id": 9301747256, "lat": 46.7201766, "lon": -122.9610472}, {"type": "node", "id": 9301747257, "lat": 46.7201054, "lon": -122.9607026}, {"type": "node", "id": 9301747258, "lat": 46.7202136, "lon": -122.960655}, {"type": "node", "id": 9301747259, "lat": 46.7203959, "lon": -122.9609205}, {"type": "node", "id": 9301747260, "lat": 46.7203399, "lon": -122.9609437}, {"type": "node", "id": 9301747261, "lat": 46.7202884, "lon": -122.9606787}, {"type": "node", "id": 9301747262, "lat": 46.7203443, "lon": -122.9606555}, {"type": "node", "id": 9301747357, "lat": 46.7216345, "lon": -122.9591988}, {"type": "node", "id": 9301747373, "lat": 46.7213738, "lon": -122.9593094}, {"type": "node", "id": 9310042638, "lat": 46.7193966, "lon": -122.9620829}, {"type": "node", "id": 9310042639, "lat": 46.7192986, "lon": -122.9616105}, {"type": "node", "id": 9310042640, "lat": 46.7192495, "lon": -122.9616299}, {"type": "node", "id": 9310042641, "lat": 46.7193476, "lon": -122.9621067}, {"type": "node", "id": 9310042642, "lat": 46.7195013, "lon": -122.9620441}, {"type": "node", "id": 9310042643, "lat": 46.7194532, "lon": -122.9620652}, {"type": "node", "id": 9310042644, "lat": 46.7193614, "lon": -122.9616184}, {"type": "node", "id": 9310042645, "lat": 46.7194087, "lon": -122.9615966}, {"type": "node", "id": 9310042646, "lat": 46.7196303, "lon": -122.9610229, "tags": {"amenity": "place_of_worship", "name": "St. Mary's Church", "religion": "christian"}}, {"type": "node", "id": 9310042659, "lat": 46.7195443, "lon": -122.9616011}, {"type": "node", "id": 9310042660, "lat": 46.7195311, "lon": -122.9615401}, {"type": "node", "id": 9310042661, "lat": 46.7194218, "lon": -122.9616575}, {"type": "node", "id": 9310042662, "lat": 46.7197878, "lon": -122.9614906}, {"type": "node", "id": 9310042663, "lat": 46.7196, "lon": -122.9615766}, {"type": "node", "id": 9310042664, "lat": 46.7195869, "lon": -122.9615161}, {"type": "node", "id": 9310042665, "lat": 46.7197747, "lon": -122.96143}, {"type": "node", "id": 9310042672, "lat": 46.71974, "lon": -122.9617344, "tags": {"amenity": "school", "name": "St. Mary's School"}}, {"type": "node", "id": 9310042794, "lat": 46.7197076, "lon": -122.9612215}, {"type": "node", "id": 9310042795, "lat": 46.7197216, "lon": -122.9612911}, {"type": "node", "id": 9310042796, "lat": 46.7196036, "lon": -122.9613417}, {"type": "node", "id": 9310042797, "lat": 46.7195896, "lon": -122.9612722}, {"type": "node", "id": 9310043059, "lat": 46.7182335, "lon": -122.9625028}, {"type": "node", "id": 9310043060, "lat": 46.7182478, "lon": -122.9625731}, {"type": "node", "id": 9310043061, "lat": 46.7180737, "lon": -122.9626483}, {"type": "node", "id": 9310043062, "lat": 46.7180594, "lon": -122.962578}, {"type": "node", "id": 9310060483, "lat": 46.7186219, "lon": -122.9514612}, {"type": "node", "id": 9310060484, "lat": 46.7183685, "lon": -122.9515731}, {"type": "node", "id": 9310060485, "lat": 46.7183562, "lon": -122.9515142}, {"type": "node", "id": 9310060486, "lat": 46.7186097, "lon": -122.9514023}, {"type": "node", "id": 9310060487, "lat": 46.718585, "lon": -122.9512847}, {"type": "node", "id": 9310060488, "lat": 46.7185266, "lon": -122.951003}, {"type": "node", "id": 9310060489, "lat": 46.7184809, "lon": -122.9510231}, {"type": "node", "id": 9310060490, "lat": 46.7185393, "lon": -122.9513048}, {"type": "node", "id": 9310060491, "lat": 46.7184826, "lon": -122.9513641}, {"type": "node", "id": 9310060492, "lat": 46.718437, "lon": -122.9511481}, {"type": "node", "id": 9310060493, "lat": 46.7183428, "lon": -122.9511904}, {"type": "node", "id": 9310060494, "lat": 46.7183884, "lon": -122.9514064}, {"type": "node", "id": 9310060495, "lat": 46.7183459, "lon": -122.9515212}, {"type": "node", "id": 9310060496, "lat": 46.7182562, "lon": -122.9511244}, {"type": "node", "id": 9310060497, "lat": 46.7182115, "lon": -122.9511459}, {"type": "node", "id": 9310060498, "lat": 46.7183011, "lon": -122.9515427}, {"type": "node", "id": 9310092224, "lat": 46.7181874, "lon": -122.9515445}, {"type": "node", "id": 9310092225, "lat": 46.718119, "lon": -122.9515773}, {"type": "node", "id": 9310092226, "lat": 46.7181219, "lon": -122.9515914}, {"type": "node", "id": 9310092227, "lat": 46.7181909, "lon": -122.9515618}, {"type": "node", "id": 9310092228, "lat": 46.7181136, "lon": -122.9512963}, {"type": "node", "id": 9310092229, "lat": 46.7181066, "lon": -122.9512617}, {"type": "node", "id": 9310092230, "lat": 46.717851, "lon": -122.9516187}, {"type": "node", "id": 9310092231, "lat": 46.717822, "lon": -122.9514717}, {"type": "node", "id": 9310092232, "lat": 46.7178104, "lon": -122.9516362}, {"type": "node", "id": 9310092233, "lat": 46.7177982, "lon": -122.9515758}, {"type": "node", "id": 9310092234, "lat": 46.717814, "lon": -122.951569}, {"type": "node", "id": 9310092235, "lat": 46.7177966, "lon": -122.9514826}, {"type": "node", "id": 9310092238, "lat": 46.7175321, "lon": -122.9516913}, {"type": "node", "id": 9310092240, "lat": 46.7175907, "lon": -122.9516668}, {"type": "node", "id": 9310092241, "lat": 46.7175753, "lon": -122.9515903}, {"type": "node", "id": 9310092242, "lat": 46.7174189, "lon": -122.9516572}, {"type": "node", "id": 9310092243, "lat": 46.7174341, "lon": -122.9517324}, {"type": "node", "id": 9310092244, "lat": 46.7177722, "lon": -122.9516393}, {"type": "node", "id": 9310092245, "lat": 46.7177859, "lon": -122.9517118}, {"type": "node", "id": 9310092246, "lat": 46.7176297, "lon": -122.9517745}, {"type": "node", "id": 9310092247, "lat": 46.7176161, "lon": -122.951702}, {"type": "node", "id": 9310092248, "lat": 46.7173881, "lon": -122.9514998}, {"type": "node", "id": 9310092249, "lat": 46.7176361, "lon": -122.9513901}, {"type": "node", "id": 9310092250, "lat": 46.7176498, "lon": -122.951456}, {"type": "node", "id": 9310092251, "lat": 46.7174017, "lon": -122.9515657}, {"type": "node", "id": 9310092252, "lat": 46.7177594, "lon": -122.9513367}, {"type": "node", "id": 9310092253, "lat": 46.7177927, "lon": -122.9514913}, {"type": "node", "id": 9310092254, "lat": 46.717748, "lon": -122.9515118}, {"type": "node", "id": 9310092255, "lat": 46.7177147, "lon": -122.9513571}, {"type": "node", "id": 9310092276, "lat": 46.7182634, "lon": -122.954934}, {"type": "node", "id": 9310092277, "lat": 46.7182597, "lon": -122.9549116}, {"type": "node", "id": 9310092278, "lat": 46.7179641, "lon": -122.9553354}, {"type": "node", "id": 9310092279, "lat": 46.7179291, "lon": -122.9553502}, {"type": "node", "id": 9310092280, "lat": 46.7177885, "lon": -122.9556521}, {"type": "node", "id": 9310092281, "lat": 46.7176562, "lon": -122.9556255}, {"type": "node", "id": 9310092671, "lat": 46.7174697, "lon": -122.9583293}, {"type": "node", "id": 9310092672, "lat": 46.7174868, "lon": -122.9583452}, {"type": "node", "id": 9310092676, "lat": 46.7174428, "lon": -122.9583447}, {"type": "node", "id": 9310092679, "lat": 46.717379, "lon": -122.9583771}, {"type": "node", "id": 9310092680, "lat": 46.7173593, "lon": -122.9583743}, {"type": "node", "id": 9310092681, "lat": 46.7173403, "lon": -122.9583984}, {"type": "node", "id": 9310092683, "lat": 46.7172483, "lon": -122.958428}, {"type": "node", "id": 9310092684, "lat": 46.7172667, "lon": -122.9584317}, {"type": "node", "id": 9310092688, "lat": 46.7172261, "lon": -122.9584474}, {"type": "node", "id": 9310092689, "lat": 46.7175078, "lon": -122.9583361}, {"type": "node", "id": 9310092690, "lat": 46.7174772, "lon": -122.9582968}, {"type": "node", "id": 9310092691, "lat": 46.7171476, "lon": -122.9584471}, {"type": "node", "id": 9310092692, "lat": 46.7171779, "lon": -122.9584787}, {"type": "node", "id": 9310092693, "lat": 46.7172288, "lon": -122.9584567}, {"type": "node", "id": 9310092694, "lat": 46.7172685, "lon": -122.9584444}, {"type": "node", "id": 9310092695, "lat": 46.7173409, "lon": -122.9584082}, {"type": "node", "id": 9310092696, "lat": 46.7173833, "lon": -122.9583899}, {"type": "node", "id": 9310092697, "lat": 46.7174403, "lon": -122.9583652}, {"type": "node", "id": 9310092701, "lat": 46.7171527, "lon": -122.9584537}, {"type": "node", "id": 9310092702, "lat": 46.7171789, "lon": -122.958467}, {"type": "node", "id": 9310092703, "lat": 46.7171709, "lon": -122.9584542}, {"type": "node", "id": 9310092708, "lat": 46.7174406, "lon": -122.9586731}, {"type": "node", "id": 9310092709, "lat": 46.7175819, "lon": -122.9586064}, {"type": "node", "id": 9310092710, "lat": 46.7175715, "lon": -122.9585598}, {"type": "node", "id": 9310092711, "lat": 46.7174303, "lon": -122.9586265}, {"type": "node", "id": 9310092744, "lat": 46.7174524, "lon": -122.9580873}, {"type": "node", "id": 9310092745, "lat": 46.7174639, "lon": -122.9581432}, {"type": "node", "id": 9310092746, "lat": 46.7173982, "lon": -122.9581719}, {"type": "node", "id": 9310092747, "lat": 46.7173867, "lon": -122.958116}, {"type": "node", "id": 9310092787, "lat": 46.7178937, "lon": -122.9607303}, {"type": "node", "id": 9310092790, "lat": 46.7179051, "lon": -122.9607924}, {"type": "node", "id": 9310092791, "lat": 46.7176577, "lon": -122.9608896}, {"type": "node", "id": 9310092792, "lat": 46.7176462, "lon": -122.9608275}, {"type": "node", "id": 9322608499, "lat": 46.7180537, "lon": -122.9612422}, {"type": "node", "id": 9322608500, "lat": 46.7180721, "lon": -122.9611662}, {"type": "node", "id": 9322608501, "lat": 46.7179045, "lon": -122.9612362}, {"type": "node", "id": 9322608502, "lat": 46.7178913, "lon": -122.9613137}, {"type": "node", "id": 9326097278, "lat": 46.7169274, "lon": -122.9594195}, {"type": "node", "id": 9326097279, "lat": 46.7168743, "lon": -122.9591645}, {"type": "node", "id": 9326097280, "lat": 46.7168161, "lon": -122.9591898}, {"type": "node", "id": 9326097281, "lat": 46.7168681, "lon": -122.9594461}, {"type": "node", "id": 9326097391, "lat": 46.7164343, "lon": -122.9579271}, {"type": "node", "id": 9326097407, "lat": 46.7157339, "lon": -122.9574103}, {"type": "node", "id": 9326097613, "lat": 46.7162562, "lon": -122.9565764}, {"type": "node", "id": 9326097614, "lat": 46.7162103, "lon": -122.9565958}, {"type": "node", "id": 9326097615, "lat": 46.7162194, "lon": -122.9566416}, {"type": "node", "id": 9326097616, "lat": 46.7161582, "lon": -122.9566675}, {"type": "node", "id": 9326097617, "lat": 46.7161093, "lon": -122.9566799}, {"type": "node", "id": 9326097618, "lat": 46.716149, "lon": -122.956621}, {"type": "node", "id": 9326097619, "lat": 46.7161016, "lon": -122.956641}, {"type": "node", "id": 9326097620, "lat": 46.7161714, "lon": -122.9569397}, {"type": "node", "id": 9326097622, "lat": 46.7162045, "lon": -122.9569257}, {"type": "node", "id": 9326097623, "lat": 46.7162087, "lon": -122.9569469}, {"type": "node", "id": 9326097624, "lat": 46.7162685, "lon": -122.9569216}, {"type": "node", "id": 9326097625, "lat": 46.7162625, "lon": -122.9568911}, {"type": "node", "id": 9326097626, "lat": 46.7162891, "lon": -122.9568798}, {"type": "node", "id": 9326097627, "lat": 46.7162947, "lon": -122.9569078}, {"type": "node", "id": 9326097631, "lat": 46.716406, "lon": -122.9567652}, {"type": "node", "id": 9326097632, "lat": 46.7163527, "lon": -122.9568832}, {"type": "node", "id": 9326097634, "lat": 46.7163302, "lon": -122.9566062}, {"type": "node", "id": 9326097635, "lat": 46.7163256, "lon": -122.9565831}, {"type": "node", "id": 9326097638, "lat": 46.7162628, "lon": -122.9566096}, {"type": "node", "id": 9326097639, "lat": 46.7160411, "lon": -122.9570012}, {"type": "node", "id": 9326097644, "lat": 46.7160768, "lon": -122.9566936}, {"type": "node", "id": 9326097645, "lat": 46.7160855, "lon": -122.9567376}, {"type": "node", "id": 9326097646, "lat": 46.7159962, "lon": -122.9567753}, {"type": "node", "id": 9326145742, "lat": 46.7174416, "lon": -122.9558505}, {"type": "node", "id": 9326145743, "lat": 46.7171221, "lon": -122.9559823}, {"type": "node", "id": 9326145744, "lat": 46.7171396, "lon": -122.9559076}, {"type": "node", "id": 9326145745, "lat": 46.7174618, "lon": -122.9557699}, {"type": "node", "id": 9326145746, "lat": 46.7171657, "lon": -122.9556722}, {"type": "node", "id": 9326145747, "lat": 46.7171152, "lon": -122.9556958}, {"type": "node", "id": 9326145748, "lat": 46.717181, "lon": -122.95575}, {"type": "node", "id": 9326145749, "lat": 46.7171301, "lon": -122.9557713}, {"type": "node", "id": 9326145750, "lat": 46.7174113, "lon": -122.9555694}, {"type": "node", "id": 9326145888, "lat": 46.7187266, "lon": -122.9552306}, {"type": "node", "id": 9326145889, "lat": 46.7186465, "lon": -122.9547589}, {"type": "node", "id": 9326145890, "lat": 46.7186003, "lon": -122.9547756}, {"type": "node", "id": 9326145891, "lat": 46.7186803, "lon": -122.9552473}, {"type": "node", "id": 9326145935, "lat": 46.7179494, "lon": -122.9531046}, {"type": "node", "id": 9326145936, "lat": 46.7179396, "lon": -122.9530549}, {"type": "node", "id": 9326300835, "lat": 46.7169816, "lon": -122.955189}, {"type": "node", "id": 9326300836, "lat": 46.716897, "lon": -122.9547811}, {"type": "node", "id": 9326300837, "lat": 46.7168594, "lon": -122.9547976}, {"type": "node", "id": 9326300838, "lat": 46.7169441, "lon": -122.9552056}, {"type": "node", "id": 9328886716, "lat": 46.7197144, "lon": -122.9534554}, {"type": "node", "id": 9328902817, "lat": 46.7196783, "lon": -122.9532707}, {"type": "node", "id": 9328902818, "lat": 46.7196313, "lon": -122.9532902}, {"type": "node", "id": 9328902819, "lat": 46.7196675, "lon": -122.9534749}, {"type": "node", "id": 9328902845, "lat": 46.720755, "lon": -122.9535449}, {"type": "node", "id": 9328902846, "lat": 46.7208146, "lon": -122.9535838}, {"type": "node", "id": 9328902847, "lat": 46.7207426, "lon": -122.953231}, {"type": "node", "id": 9328902848, "lat": 46.7206848, "lon": -122.9531934}, {"type": "node", "id": 9328902849, "lat": 46.7208977, "lon": -122.9534839}, {"type": "node", "id": 9328902850, "lat": 46.7208624, "lon": -122.953564}, {"type": "node", "id": 9328902851, "lat": 46.7207904, "lon": -122.9532112}, {"type": "node", "id": 9328902852, "lat": 46.7208261, "lon": -122.9531329}, {"type": "node", "id": 9328902896, "lat": 46.7208724, "lon": -122.9531243}, {"type": "node", "id": 9328902897, "lat": 46.7209168, "lon": -122.9531814}, {"type": "node", "id": 9328902898, "lat": 46.7210662, "lon": -122.9531256}, {"type": "node", "id": 9328902899, "lat": 46.7210957, "lon": -122.9531023}, {"type": "node", "id": 9328902900, "lat": 46.7210529, "lon": -122.9530569}, {"type": "node", "id": 9328902901, "lat": 46.7212728, "lon": -122.9528424}, {"type": "node", "id": 9328902902, "lat": 46.7211975, "lon": -122.9524368}, {"type": "node", "id": 9328902903, "lat": 46.7211488, "lon": -122.952456}, {"type": "node", "id": 9328902904, "lat": 46.7212242, "lon": -122.9528616}, {"type": "node", "id": 9331293036, "lat": 46.7183852, "lon": -122.9582811}, {"type": "node", "id": 9331293037, "lat": 46.7181564, "lon": -122.9583812}, {"type": "node", "id": 9331293038, "lat": 46.7181095, "lon": -122.9581531}, {"type": "node", "id": 9331293039, "lat": 46.7183383, "lon": -122.958053}, {"type": "node", "id": 9333419106, "lat": 46.7211869, "lon": -122.9565987}, {"type": "node", "id": 9333419107, "lat": 46.7212018, "lon": -122.9566703}, {"type": "node", "id": 9333419109, "lat": 46.7212651, "lon": -122.9570307}, {"type": "node", "id": 9333419110, "lat": 46.7213182, "lon": -122.9570411}, {"type": "node", "id": 9333419111, "lat": 46.7212243, "lon": -122.9566045}, {"type": "node", "id": 9333419112, "lat": 46.7211732, "lon": -122.9565911}, {"type": "node", "id": 9333419113, "lat": 46.7211758, "lon": -122.9566036}, {"type": "node", "id": 9333419114, "lat": 46.7211915, "lon": -122.9566749}, {"type": "node", "id": 9333419115, "lat": 46.7213093, "lon": -122.9565707}, {"type": "node", "id": 9333419116, "lat": 46.7213966, "lon": -122.9569649}, {"type": "node", "id": 9333419117, "lat": 46.7213606, "lon": -122.9570093}, {"type": "node", "id": 9333419118, "lat": 46.7212744, "lon": -122.9566122}, {"type": "node", "id": 9333419123, "lat": 46.7213923, "lon": -122.9569455}, {"type": "node", "id": 9333536107, "lat": 46.7214661, "lon": -122.9603321}, {"type": "node", "id": 9333536108, "lat": 46.7224164, "lon": -122.9604158}, {"type": "node", "id": 9333536109, "lat": 46.7225064, "lon": -122.9603851}, {"type": "node", "id": 9333536110, "lat": 46.7214008, "lon": -122.9600309}, {"type": "node", "id": 9333536111, "lat": 46.7213993, "lon": -122.9599089}, {"type": "node", "id": 9333660410, "lat": 46.7220368, "lon": -122.9526148}, {"type": "node", "id": 9333660412, "lat": 46.7220364, "lon": -122.9526969}, {"type": "node", "id": 9333660413, "lat": 46.7217773, "lon": -122.95269}, {"type": "node", "id": 9336033152, "lat": 46.7232402, "lon": -122.9519287, "tags": {"addr:city": "Centralia", "addr:housenumber": "710", "addr:postcode": "98531", "addr:state": "WA", "addr:street": "North Tower Avenue", "name": "Pioneer West", "opening_hours": "Mo-Fr 10:00-18:00; Sa 9:00-18:00; Su 9:00-17:00", "phone": "+1-360-736-3872", "shop": "garden_centre", "website": "https://www.pioneerwestgc.com/"}}, {"type": "node", "id": 9393702735, "lat": 46.7150705, "lon": -122.9515091}, {"type": "node", "id": 9393702737, "lat": 46.7150298, "lon": -122.9512478}, {"type": "node", "id": 9393702738, "lat": 46.7150003, "lon": -122.9512404}, {"type": "node", "id": 9393702742, "lat": 46.7150992, "lon": -122.9515129}, {"type": "node", "id": 9393702743, "lat": 46.7150385, "lon": -122.9512324}, {"type": "node", "id": 9393702744, "lat": 46.7150629, "lon": -122.9515284}, {"type": "node", "id": 9393702745, "lat": 46.715133, "lon": -122.9511646}, {"type": "node", "id": 9393702746, "lat": 46.7152251, "lon": -122.9515682}, {"type": "node", "id": 9393702747, "lat": 46.7151903, "lon": -122.9516055}, {"type": "node", "id": 9393702748, "lat": 46.7150971, "lon": -122.9511982}, {"type": "node", "id": 9393702752, "lat": 46.7151456, "lon": -122.9512199}, {"type": "node", "id": 9393702755, "lat": 46.715546, "lon": -122.9516107}, {"type": "node", "id": 9393702756, "lat": 46.7155313, "lon": -122.9515403}, {"type": "node", "id": 9393702757, "lat": 46.7152636, "lon": -122.9516595}, {"type": "node", "id": 9393702758, "lat": 46.7152783, "lon": -122.9517298}, {"type": "node", "id": 9393702759, "lat": 46.7155379, "lon": -122.9514589}, {"type": "node", "id": 9393702760, "lat": 46.7152951, "lon": -122.9515678}, {"type": "node", "id": 9393702761, "lat": 46.7152809, "lon": -122.9515002}, {"type": "node", "id": 9393702762, "lat": 46.7155237, "lon": -122.9513914}, {"type": "node", "id": 9393702763, "lat": 46.7154956, "lon": -122.9512491}, {"type": "node", "id": 9393702764, "lat": 46.7152565, "lon": -122.9513476}, {"type": "node", "id": 9393702765, "lat": 46.7152686, "lon": -122.9514103}, {"type": "node", "id": 9393702766, "lat": 46.7155078, "lon": -122.9513118}, {"type": "node", "id": 9393757582, "lat": 46.7178323, "lon": -122.9458808}, {"type": "node", "id": 9393757583, "lat": 46.7173918, "lon": -122.945789}, {"type": "node", "id": 9393757584, "lat": 46.7173993, "lon": -122.9457119}, {"type": "node", "id": 9393757585, "lat": 46.7178398, "lon": -122.9458036}, {"type": "node", "id": 9393757586, "lat": 46.7178809, "lon": -122.9455383}, {"type": "node", "id": 9393757587, "lat": 46.717867, "lon": -122.9457071}, {"type": "node", "id": 9393757588, "lat": 46.717431, "lon": -122.9456308}, {"type": "node", "id": 9393757589, "lat": 46.7174382, "lon": -122.9455435}, {"type": "node", "id": 9393757590, "lat": 46.7173872, "lon": -122.9455345}, {"type": "node", "id": 9393757591, "lat": 46.7173939, "lon": -122.945453}, {"type": "node", "id": 9393757592, "lat": 46.7178799, "lon": -122.9454525}, {"type": "node", "id": 9393757593, "lat": 46.7173796, "lon": -122.9453627}, {"type": "node", "id": 9393757594, "lat": 46.7173868, "lon": -122.9452767}, {"type": "node", "id": 9393757595, "lat": 46.7178872, "lon": -122.9453663}, {"type": "node", "id": 10236346006, "lat": 46.7118203, "lon": -122.957149, "tags": {"amenity": "atm", "check_date:currency:XBT": "2023-08-19", "currency:XBT": "yes", "name": "Bitcoin ATM", "payment:onchain": "yes", "survey:date": "2022-12-01"}}, {"type": "node", "id": 10254708831, "lat": 46.7135364, "lon": -122.9476701}, {"type": "node", "id": 10254708832, "lat": 46.7136238, "lon": -122.9476346}, {"type": "node", "id": 10254708833, "lat": 46.7137066, "lon": -122.9478357}, {"type": "node", "id": 10254708834, "lat": 46.7136371, "lon": -122.947992}, {"type": "node", "id": 10254708835, "lat": 46.7134584, "lon": -122.9476959}, {"type": "node", "id": 10254708836, "lat": 46.7134503, "lon": -122.9476101}, {"type": "node", "id": 10572867954, "lat": 46.7172889, "lon": -122.9650788}, {"type": "node", "id": 10764529080, "lat": 46.7155971, "lon": -122.96402}, {"type": "node", "id": 10764529081, "lat": 46.7152906, "lon": -122.9641447}, {"type": "node", "id": 10764529082, "lat": 46.7153059, "lon": -122.9642246}, {"type": "node", "id": 10764529083, "lat": 46.7151436, "lon": -122.9642906}, {"type": "node", "id": 10764529084, "lat": 46.715291, "lon": -122.9650612}, {"type": "node", "id": 10764529085, "lat": 46.7156781, "lon": -122.9649037}, {"type": "node", "id": 10764529086, "lat": 46.7156601, "lon": -122.9648097}, {"type": "node", "id": 10764529087, "lat": 46.7157123, "lon": -122.9647885}, {"type": "node", "id": 10764529088, "lat": 46.7156205, "lon": -122.9643084}, {"type": "node", "id": 10764529089, "lat": 46.71565, "lon": -122.9642965}, {"type": "node", "id": 10764529090, "lat": 46.7168553, "lon": -122.9651019}, {"type": "node", "id": 10764529091, "lat": 46.7168406, "lon": -122.9648431}, {"type": "node", "id": 10764529092, "lat": 46.7172016, "lon": -122.9647994}, {"type": "node", "id": 10764529093, "lat": 46.7172163, "lon": -122.9650582}, {"type": "node", "id": 10764529094, "lat": 46.7170576, "lon": -122.9639392}, {"type": "node", "id": 10764529095, "lat": 46.7167891, "lon": -122.9640479}, {"type": "node", "id": 10764529096, "lat": 46.7168935, "lon": -122.9645969}, {"type": "node", "id": 10764529097, "lat": 46.717162, "lon": -122.9644883}, {"type": "node", "id": 10764529102, "lat": 46.7183593, "lon": -122.9552052}, {"type": "node", "id": 10764529103, "lat": 46.7181967, "lon": -122.9552695}, {"type": "node", "id": 10764529104, "lat": 46.7181401, "lon": -122.9549648}, {"type": "node", "id": 10764554905, "lat": 46.7179306, "lon": -122.9550477}, {"type": "node", "id": 10764554906, "lat": 46.7181312, "lon": -122.9561262}, {"type": "node", "id": 10764554907, "lat": 46.7184473, "lon": -122.9560011}, {"type": "node", "id": 10764554908, "lat": 46.7184227, "lon": -122.9558688}, {"type": "node", "id": 10764554909, "lat": 46.7184786, "lon": -122.9558467}, {"type": "node", "id": 10764554915, "lat": 46.7165374, "lon": -122.9585372}, {"type": "node", "id": 10764554916, "lat": 46.7164917, "lon": -122.9585566}, {"type": "node", "id": 10764554917, "lat": 46.716573, "lon": -122.9589648}, {"type": "node", "id": 10764554918, "lat": 46.7166186, "lon": -122.9589455}, {"type": "node", "id": 10764554919, "lat": 46.7194802, "lon": -122.9536875}, {"type": "node", "id": 10764554920, "lat": 46.7192834, "lon": -122.9537841}, {"type": "node", "id": 10764554921, "lat": 46.7193705, "lon": -122.9541618}, {"type": "node", "id": 10764554922, "lat": 46.7195673, "lon": -122.9540652}, {"type": "node", "id": 10764554923, "lat": 46.7199409, "lon": -122.9534841}, {"type": "node", "id": 10764554924, "lat": 46.7196265, "lon": -122.9536128}, {"type": "node", "id": 10764554925, "lat": 46.7197089, "lon": -122.9540411}, {"type": "node", "id": 10764554926, "lat": 46.7200233, "lon": -122.9539123}, {"type": "node", "id": 10764554927, "lat": 46.7187583, "lon": -122.9544698}, {"type": "node", "id": 10764554928, "lat": 46.7186638, "lon": -122.954022}, {"type": "node", "id": 10764554929, "lat": 46.7189834, "lon": -122.9538784}, {"type": "node", "id": 10764554930, "lat": 46.7190193, "lon": -122.9540482}, {"type": "node", "id": 10764554931, "lat": 46.7188183, "lon": -122.9541384}, {"type": "node", "id": 10764554932, "lat": 46.718877, "lon": -122.9544165}, {"type": "node", "id": 10764554975, "lat": 46.7172227, "lon": -122.9626992}, {"type": "node", "id": 10764554976, "lat": 46.7174029, "lon": -122.9626161}, {"type": "node", "id": 10764554977, "lat": 46.7173202, "lon": -122.9622191}, {"type": "node", "id": 10764554978, "lat": 46.7171786, "lon": -122.9618919}, {"type": "node", "id": 10764554979, "lat": 46.7168549, "lon": -122.9620233}, {"type": "node", "id": 10764554980, "lat": 46.7170379, "lon": -122.9629701}, {"type": "node", "id": 10764554981, "lat": 46.717105, "lon": -122.962942}, {"type": "node", "id": 10764554982, "lat": 46.7171289, "lon": -122.9630359}, {"type": "node", "id": 10764554983, "lat": 46.7172687, "lon": -122.9629728}, {"type": "node", "id": 10764555001, "lat": 46.7179973, "lon": -122.9525379}, {"type": "node", "id": 10764555002, "lat": 46.7180872, "lon": -122.9529535}, {"type": "node", "id": 10764555003, "lat": 46.7188567, "lon": -122.9525995}, {"type": "node", "id": 10764555004, "lat": 46.7187668, "lon": -122.9521838}, {"type": "node", "id": 10764555012, "lat": 46.716666, "lon": -122.9592787}, {"type": "node", "id": 10764555013, "lat": 46.7163001, "lon": -122.959445}, {"type": "node", "id": 10764555014, "lat": 46.7165202, "lon": -122.9604757}, {"type": "node", "id": 10764555015, "lat": 46.7168862, "lon": -122.9603094}, {"type": "node", "id": 10764555016, "lat": 46.7213592, "lon": -122.9553977}, {"type": "node", "id": 10764555017, "lat": 46.7214013, "lon": -122.9556025}, {"type": "node", "id": 10764555018, "lat": 46.721025, "lon": -122.955767}, {"type": "node", "id": 10764555019, "lat": 46.720993, "lon": -122.955611}, {"type": "node", "id": 10764555020, "lat": 46.7210663, "lon": -122.955579}, {"type": "node", "id": 10764555021, "lat": 46.7210228, "lon": -122.9553673}, {"type": "node", "id": 10764555022, "lat": 46.7212326, "lon": -122.9552756}, {"type": "node", "id": 10764555023, "lat": 46.7212661, "lon": -122.9554384}, {"type": "node", "id": 10764555029, "lat": 46.7213197, "lon": -122.9593438}, {"type": "node", "id": 10764555030, "lat": 46.7212917, "lon": -122.9592258}, {"type": "node", "id": 10764555031, "lat": 46.7215941, "lon": -122.9590729}, {"type": "node", "id": 10764555032, "lat": 46.7216222, "lon": -122.9591909}, {"type": "node", "id": 10764555042, "lat": 46.7169618, "lon": -122.9554853}, {"type": "node", "id": 10764555043, "lat": 46.7165755, "lon": -122.9556483}, {"type": "node", "id": 10764555044, "lat": 46.7166381, "lon": -122.9559639}, {"type": "node", "id": 10764555045, "lat": 46.7169058, "lon": -122.9558509}, {"type": "node", "id": 10764555046, "lat": 46.7169254, "lon": -122.9559499}, {"type": "node", "id": 10764555047, "lat": 46.717044, "lon": -122.9558999}, {"type": "node", "id": 10764555048, "lat": 46.7135115, "lon": -122.9620183}, {"type": "node", "id": 10764555049, "lat": 46.7131638, "lon": -122.962171}, {"type": "node", "id": 10764555050, "lat": 46.7132745, "lon": -122.962707}, {"type": "node", "id": 10764555051, "lat": 46.7134173, "lon": -122.9626443}, {"type": "node", "id": 10764555052, "lat": 46.7134288, "lon": -122.9627}, {"type": "node", "id": 10764555053, "lat": 46.7134898, "lon": -122.9626732}, {"type": "node", "id": 10764555054, "lat": 46.7134271, "lon": -122.9623698}, {"type": "node", "id": 10764555055, "lat": 46.7135711, "lon": -122.9623066}, {"type": "node", "id": 10764555134, "lat": 46.7163352, "lon": -122.9567952}, {"type": "node", "id": 10764555173, "lat": 46.7183213, "lon": -122.9622409}, {"type": "node", "id": 10764555174, "lat": 46.7182613, "lon": -122.9619792}, {"type": "node", "id": 10764555175, "lat": 46.7178906, "lon": -122.9621602}, {"type": "node", "id": 10764555176, "lat": 46.7179506, "lon": -122.9624218}, {"type": "node", "id": 10764555184, "lat": 46.717014, "lon": -122.9533984}, {"type": "node", "id": 10764555185, "lat": 46.7168531, "lon": -122.9534721}, {"type": "node", "id": 10764555186, "lat": 46.7169358, "lon": -122.953856}, {"type": "node", "id": 10764555187, "lat": 46.7170967, "lon": -122.9537822}, {"type": "node", "id": 10764555188, "lat": 46.7151109, "lon": -122.956811}, {"type": "node", "id": 10764555189, "lat": 46.7150244, "lon": -122.9563255}, {"type": "node", "id": 10764555190, "lat": 46.7145691, "lon": -122.956498}, {"type": "node", "id": 10764555191, "lat": 46.7146555, "lon": -122.9569834}, {"type": "node", "id": 10764555192, "lat": 46.7179837, "lon": -122.9543184}, {"type": "node", "id": 10764555193, "lat": 46.7177392, "lon": -122.9544364}, {"type": "node", "id": 10764555194, "lat": 46.7178332, "lon": -122.9548511}, {"type": "node", "id": 10764555195, "lat": 46.7180778, "lon": -122.9547331}, {"type": "node", "id": 10764555196, "lat": 46.7170955, "lon": -122.9546835}, {"type": "node", "id": 10764555197, "lat": 46.7170468, "lon": -122.9547063}, {"type": "node", "id": 10764555198, "lat": 46.71714, "lon": -122.95513}, {"type": "node", "id": 10764555199, "lat": 46.7171887, "lon": -122.9551072}, {"type": "node", "id": 10764555200, "lat": 46.7170215, "lon": -122.9541481}, {"type": "node", "id": 10764555201, "lat": 46.7169103, "lon": -122.954191}, {"type": "node", "id": 10764555202, "lat": 46.7169947, "lon": -122.9546566}, {"type": "node", "id": 10764555203, "lat": 46.7171059, "lon": -122.9546137}, {"type": "node", "id": 10764555204, "lat": 46.7159316, "lon": -122.9553757}, {"type": "node", "id": 10764555205, "lat": 46.7155344, "lon": -122.9555393}, {"type": "node", "id": 10764555206, "lat": 46.715586, "lon": -122.955806}, {"type": "node", "id": 10764555207, "lat": 46.7159833, "lon": -122.9556423}, {"type": "node", "id": 10764555208, "lat": 46.7188665, "lon": -122.9533542}, {"type": "node", "id": 10764555209, "lat": 46.7187185, "lon": -122.9534092}, {"type": "node", "id": 10764555210, "lat": 46.7187996, "lon": -122.9538734}, {"type": "node", "id": 10764555211, "lat": 46.7189476, "lon": -122.9538184}, {"type": "node", "id": 10764555212, "lat": 46.7159973, "lon": -122.9537767}, {"type": "node", "id": 10764555213, "lat": 46.7157196, "lon": -122.9539188}, {"type": "node", "id": 10764555214, "lat": 46.7158361, "lon": -122.9544032}, {"type": "node", "id": 10764555215, "lat": 46.7161138, "lon": -122.954261}, {"type": "node", "id": 10764555216, "lat": 46.7167869, "lon": -122.9530733}, {"type": "node", "id": 10764555217, "lat": 46.7160881, "lon": -122.9533764}, {"type": "node", "id": 10764555218, "lat": 46.7161433, "lon": -122.9536468}, {"type": "node", "id": 10764555219, "lat": 46.7168421, "lon": -122.9533437}, {"type": "node", "id": 10765210521, "lat": 46.7231316, "lon": -122.9515573}, {"type": "node", "id": 10765210522, "lat": 46.7230038, "lon": -122.9515546}, {"type": "node", "id": 10765210523, "lat": 46.7229989, "lon": -122.9520529}, {"type": "node", "id": 10765210524, "lat": 46.7231267, "lon": -122.9520556}, {"type": "node", "id": 10767452473, "lat": 46.7150073, "lon": -122.9615623}, {"type": "node", "id": 10767452474, "lat": 46.7148803, "lon": -122.9609393}, {"type": "node", "id": 10767452475, "lat": 46.7148247, "lon": -122.96096}, {"type": "node", "id": 10767452476, "lat": 46.7147057, "lon": -122.9603825}, {"type": "node", "id": 10767452477, "lat": 46.714754, "lon": -122.9603597}, {"type": "node", "id": 10767452478, "lat": 46.7146573, "lon": -122.9601274}, {"type": "node", "id": 10767452479, "lat": 46.7144385, "lon": -122.9602952}, {"type": "node", "id": 10767452480, "lat": 46.7146635, "lon": -122.9617109}, {"type": "node", "id": 10767452481, "lat": 46.7150066, "lon": -122.9625867}, {"type": "node", "id": 10767452482, "lat": 46.7148431, "lon": -122.9617069}, {"type": "node", "id": 10767452483, "lat": 46.7146622, "lon": -122.9617784}, {"type": "node", "id": 10767452484, "lat": 46.7148256, "lon": -122.9626582}, {"type": "node", "id": 11364933278, "lat": 46.7147144, "lon": -122.960159}, {"type": "node", "id": 11364933279, "lat": 46.7146677, "lon": -122.9601778}, {"type": "node", "id": 11364933280, "lat": 46.7143948, "lon": -122.9603148}, {"type": "node", "id": 11364933281, "lat": 46.7144254, "lon": -122.9602282}, {"type": "node", "id": 11384521003, "lat": 46.7178654, "lon": -122.9610778, "tags": {"amenity": "fast_food", "brand": "A&W", "brand:wikidata": "Q277641", "cuisine": "burger", "name": "A&W", "takeaway": "yes", "website": "https://awrestaurants.com/locations/washington/centralia/619-west-main-street/"}}, {"type": "node", "id": 11434288605, "lat": 46.7127286, "lon": -122.9562899}, {"type": "node", "id": 11434288606, "lat": 46.7128071, "lon": -122.9562554}, {"type": "node", "id": 11434288607, "lat": 46.7127927, "lon": -122.9561858}, {"type": "node", "id": 11434288608, "lat": 46.7127142, "lon": -122.9562203}, {"type": "node", "id": 11434288609, "lat": 46.7126423, "lon": -122.9561677}, {"type": "node", "id": 11434288610, "lat": 46.7127184, "lon": -122.9561367}, {"type": "node", "id": 11434288611, "lat": 46.712697, "lon": -122.956025}, {"type": "node", "id": 11434288612, "lat": 46.7126209, "lon": -122.956056}, {"type": "node", "id": 11434288652, "lat": 46.7126248, "lon": -122.9562582}, {"type": "node", "id": 11477368703, "lat": 46.6988037, "lon": -122.9579467, "tags": {"entrance": "main"}}, {"type": "node", "id": 11477368704, "lat": 46.6988365, "lon": -122.9579453}, {"type": "node", "id": 11477368705, "lat": 46.6987741, "lon": -122.9579479}, {"type": "node", "id": 11477368706, "lat": 46.6987725, "lon": -122.9578659}, {"type": "node", "id": 11477368707, "lat": 46.6988349, "lon": -122.9578633}, {"type": "node", "id": 11477368738, "lat": 46.6987704, "lon": -122.9581254, "tags": {"entrance": "yes"}}, {"type": "node", "id": 11477368739, "lat": 46.6988497, "lon": -122.9581221, "tags": {"entrance": "yes"}}, {"type": "node", "id": 11477368740, "lat": 46.6988499, "lon": -122.9581341}, {"type": "node", "id": 11477368741, "lat": 46.6988494, "lon": -122.9581081}, {"type": "node", "id": 11477368742, "lat": 46.6988984, "lon": -122.9581061}, {"type": "node", "id": 11477368743, "lat": 46.6988985, "lon": -122.9581321}, {"type": "node", "id": 11477368744, "lat": 46.6987702, "lon": -122.9581112}, {"type": "node", "id": 11477368745, "lat": 46.6987707, "lon": -122.9581382}, {"type": "node", "id": 11477368746, "lat": 46.6987211, "lon": -122.9581402}, {"type": "node", "id": 11477368747, "lat": 46.6987212, "lon": -122.9581132}, {"type": "node", "id": 11477368748, "lat": 46.6989044, "lon": -122.9578874}, {"type": "node", "id": 11477368749, "lat": 46.6988939, "lon": -122.9578879}, {"type": "node", "id": 11477368750, "lat": 46.6988933, "lon": -122.9578609}, {"type": "node", "id": 11477368751, "lat": 46.6989039, "lon": -122.9578611}, {"type": "node", "id": 11477368752, "lat": 46.6989563, "lon": -122.9578873}, {"type": "node", "id": 11477368753, "lat": 46.6989627, "lon": -122.957887}, {"type": "node", "id": 11548937360, "lat": 46.706378, "lon": -122.9551762}, {"type": "node", "id": 11548937361, "lat": 46.7063748, "lon": -122.9546547}, {"type": "node", "id": 11548937362, "lat": 46.7061791, "lon": -122.9546572}, {"type": "node", "id": 11548937363, "lat": 46.7061823, "lon": -122.9551788}, {"type": "node", "id": 11582837257, "lat": 46.6992394, "lon": -122.959119}, {"type": "node", "id": 11582837258, "lat": 46.6991955, "lon": -122.9590326}, {"type": "node", "id": 11582837259, "lat": 46.6992393, "lon": -122.9590707}, {"type": "node", "id": 11582837260, "lat": 46.6991954, "lon": -122.9589924}, {"type": "node", "id": 11582837261, "lat": 46.6992392, "lon": -122.9590312}, {"type": "node", "id": 11582837262, "lat": 46.6991954, "lon": -122.9589521}, {"type": "node", "id": 11582837263, "lat": 46.6992391, "lon": -122.9589917}, {"type": "node", "id": 11582837264, "lat": 46.6991954, "lon": -122.9589119}, {"type": "node", "id": 11582837265, "lat": 46.699239, "lon": -122.9589521}, {"type": "node", "id": 11582837266, "lat": 46.6991953, "lon": -122.9588717}, {"type": "node", "id": 11582837267, "lat": 46.6992389, "lon": -122.9589126}, {"type": "node", "id": 11582837268, "lat": 46.6991953, "lon": -122.9588314}, {"type": "node", "id": 11582845769, "lat": 46.6992388, "lon": -122.9588731}, {"type": "node", "id": 11582845770, "lat": 46.6991952, "lon": -122.9587912}, {"type": "node", "id": 11582845771, "lat": 46.6992388, "lon": -122.9588336}, {"type": "node", "id": 11582845772, "lat": 46.6991952, "lon": -122.9587509}, {"type": "node", "id": 11582845773, "lat": 46.6992387, "lon": -122.9587941}, {"type": "node", "id": 11582845774, "lat": 46.6991952, "lon": -122.9587107}, {"type": "node", "id": 11582845775, "lat": 46.6992386, "lon": -122.9587546}, {"type": "node", "id": 11582845776, "lat": 46.6991951, "lon": -122.9586705}, {"type": "node", "id": 11582845777, "lat": 46.6992385, "lon": -122.9587151}, {"type": "node", "id": 11582845778, "lat": 46.6991951, "lon": -122.9586302}, {"type": "node", "id": 11582845779, "lat": 46.6992384, "lon": -122.9586756}, {"type": "node", "id": 11582845780, "lat": 46.699195, "lon": -122.95859}, {"type": "node", "id": 11582845781, "lat": 46.6992383, "lon": -122.9586361}, {"type": "node", "id": 11582845782, "lat": 46.699195, "lon": -122.9585498}, {"type": "node", "id": 11582845783, "lat": 46.6992382, "lon": -122.9585966}, {"type": "node", "id": 11582845784, "lat": 46.6991949, "lon": -122.9585095}, {"type": "node", "id": 11582845785, "lat": 46.6992381, "lon": -122.9585571}, {"type": "node", "id": 11582845786, "lat": 46.6991949, "lon": -122.9584693}, {"type": "node", "id": 11582845787, "lat": 46.6992381, "lon": -122.9585176}, {"type": "node", "id": 11582845788, "lat": 46.6991949, "lon": -122.9584291}, {"type": "node", "id": 11582845789, "lat": 46.699238, "lon": -122.9584781}, {"type": "node", "id": 11582845790, "lat": 46.6991948, "lon": -122.9583888}, {"type": "node", "id": 11582845791, "lat": 46.6992379, "lon": -122.9584386}, {"type": "node", "id": 11582845792, "lat": 46.6991948, "lon": -122.9583486}, {"type": "node", "id": 11582845793, "lat": 46.6992378, "lon": -122.9583991}, {"type": "node", "id": 11582845794, "lat": 46.6991947, "lon": -122.9583084}, {"type": "node", "id": 11582845795, "lat": 46.6992377, "lon": -122.9583595}, {"type": "node", "id": 11582845796, "lat": 46.6992376, "lon": -122.95832}, {"type": "node", "id": 11582845797, "lat": 46.6991947, "lon": -122.9582681}, {"type": "node", "id": 11582845798, "lat": 46.6992394, "lon": -122.9591102}, {"type": "node", "id": 11582845799, "lat": 46.6991955, "lon": -122.9590728}, {"type": "node", "id": 11582845800, "lat": 46.6991062, "lon": -122.9588868}, {"type": "node", "id": 11582845801, "lat": 46.6991439, "lon": -122.9588406}, {"type": "node", "id": 11582845802, "lat": 46.6991063, "lon": -122.9589259}, {"type": "node", "id": 11582845803, "lat": 46.6991443, "lon": -122.9588808}, {"type": "node", "id": 11582845804, "lat": 46.6991064, "lon": -122.958965}, {"type": "node", "id": 11582845805, "lat": 46.6991448, "lon": -122.958921}, {"type": "node", "id": 11582845806, "lat": 46.6991064, "lon": -122.959004}, {"type": "node", "id": 11582845807, "lat": 46.6991453, "lon": -122.9589613}, {"type": "node", "id": 11582845808, "lat": 46.6991065, "lon": -122.9590431}, {"type": "node", "id": 11582845809, "lat": 46.6991457, "lon": -122.9590015}, {"type": "node", "id": 11582845810, "lat": 46.6991066, "lon": -122.9590822}, {"type": "node", "id": 11582845811, "lat": 46.6991462, "lon": -122.9590418}, {"type": "node", "id": 11582845812, "lat": 46.6991466, "lon": -122.959082}, {"type": "node", "id": 11582845813, "lat": 46.6991952, "lon": -122.9587997}, {"type": "node", "id": 11582845814, "lat": 46.6991434, "lon": -122.9588003}, {"type": "node", "id": 11582845815, "lat": 46.6991067, "lon": -122.9591213}, {"type": "node", "id": 11582845816, "lat": 46.69909, "lon": -122.9587809}, {"type": "node", "id": 11582845817, "lat": 46.6990774, "lon": -122.9588478}, {"type": "node", "id": 11582845818, "lat": 46.6991172, "lon": -122.9587808}, {"type": "node", "id": 11582845819, "lat": 46.6990628, "lon": -122.9587809}, {"type": "node", "id": 11582845820, "lat": 46.6990487, "lon": -122.9588479}, {"type": "node", "id": 11582845825, "lat": 46.6987615, "lon": -122.9587833}, {"type": "node", "id": 11582845826, "lat": 46.6987294, "lon": -122.9588491}, {"type": "node", "id": 11582845827, "lat": 46.698789, "lon": -122.9587831}, {"type": "node", "id": 11582845828, "lat": 46.6987572, "lon": -122.958849}, {"type": "node", "id": 11582845829, "lat": 46.6988166, "lon": -122.9587829}, {"type": "node", "id": 11582845830, "lat": 46.698785, "lon": -122.9588489}, {"type": "node", "id": 11582845831, "lat": 46.6988441, "lon": -122.9587827}, {"type": "node", "id": 11582845832, "lat": 46.6988128, "lon": -122.9588488}, {"type": "node", "id": 11582845833, "lat": 46.6988717, "lon": -122.9587824}, {"type": "node", "id": 11582845834, "lat": 46.6988406, "lon": -122.9588487}, {"type": "node", "id": 11582845835, "lat": 46.6988992, "lon": -122.9587822}, {"type": "node", "id": 11582845836, "lat": 46.6988684, "lon": -122.9588486}, {"type": "node", "id": 11582845837, "lat": 46.6989268, "lon": -122.958782}, {"type": "node", "id": 11582845838, "lat": 46.6988962, "lon": -122.9588485}, {"type": "node", "id": 11582845839, "lat": 46.6989544, "lon": -122.9587817}, {"type": "node", "id": 11582845840, "lat": 46.698924, "lon": -122.9588484}, {"type": "node", "id": 11582845841, "lat": 46.6989819, "lon": -122.9587815}, {"type": "node", "id": 11582845842, "lat": 46.6989518, "lon": -122.9588483}, {"type": "node", "id": 11582845843, "lat": 46.6989796, "lon": -122.9588482}, {"type": "node", "id": 11582845844, "lat": 46.6990095, "lon": -122.9587813}, {"type": "node", "id": 11582845845, "lat": 46.6987339, "lon": -122.9587836}, {"type": "node", "id": 11582845846, "lat": 46.6987016, "lon": -122.9588493}, {"type": "node", "id": 11582845847, "lat": 46.6987265, "lon": -122.9586263}, {"type": "node", "id": 11582845848, "lat": 46.6987505, "lon": -122.9586939}, {"type": "node", "id": 11582845849, "lat": 46.6987534, "lon": -122.9586262}, {"type": "node", "id": 11582845850, "lat": 46.6987779, "lon": -122.9586937}, {"type": "node", "id": 11582845851, "lat": 46.6987803, "lon": -122.958626}, {"type": "node", "id": 11582845852, "lat": 46.6988053, "lon": -122.9586935}, {"type": "node", "id": 11582845853, "lat": 46.6988072, "lon": -122.9586258}, {"type": "node", "id": 11582845854, "lat": 46.6988327, "lon": -122.9586933}, {"type": "node", "id": 11582845855, "lat": 46.698834, "lon": -122.9586257}, {"type": "node", "id": 11582845856, "lat": 46.6988601, "lon": -122.9586932}, {"type": "node", "id": 11582845857, "lat": 46.6988609, "lon": -122.9586255}, {"type": "node", "id": 11582845858, "lat": 46.6988875, "lon": -122.958693}, {"type": "node", "id": 11582845859, "lat": 46.6988878, "lon": -122.9586253}, {"type": "node", "id": 11582845860, "lat": 46.6989148, "lon": -122.9586928}, {"type": "node", "id": 11582845861, "lat": 46.6989147, "lon": -122.9586252}, {"type": "node", "id": 11582845862, "lat": 46.6989422, "lon": -122.9586926}, {"type": "node", "id": 11582845863, "lat": 46.6989415, "lon": -122.958625}, {"type": "node", "id": 11582845864, "lat": 46.6989696, "lon": -122.9586924}, {"type": "node", "id": 11582845865, "lat": 46.6989684, "lon": -122.9586249}, {"type": "node", "id": 11582845866, "lat": 46.698997, "lon": -122.9586923}, {"type": "node", "id": 11582845867, "lat": 46.6989953, "lon": -122.9586247}, {"type": "node", "id": 11582845868, "lat": 46.6990244, "lon": -122.9586921}, {"type": "node", "id": 11582845869, "lat": 46.6990222, "lon": -122.9586245}, {"type": "node", "id": 11582845870, "lat": 46.6990518, "lon": -122.9586919}, {"type": "node", "id": 11582845871, "lat": 46.6990491, "lon": -122.9586244}, {"type": "node", "id": 11582845872, "lat": 46.6990792, "lon": -122.9586917}, {"type": "node", "id": 11582845873, "lat": 46.6991065, "lon": -122.9586916}, {"type": "node", "id": 11582845874, "lat": 46.6986996, "lon": -122.9586265}, {"type": "node", "id": 11582845875, "lat": 46.6987231, "lon": -122.958694}, {"type": "node", "id": 11582845876, "lat": 46.6986958, "lon": -122.9588493}, {"type": "node", "id": 11582845877, "lat": 46.6991061, "lon": -122.9588477}, {"type": "node", "id": 11582845878, "lat": 46.6991184, "lon": -122.958774}, {"type": "node", "id": 11582845879, "lat": 46.699107, "lon": -122.9587741}, {"type": "node", "id": 11582845880, "lat": 46.699105, "lon": -122.9584081}, {"type": "node", "id": 11582845881, "lat": 46.6986935, "lon": -122.9584128}, {"type": "node", "id": 11582845882, "lat": 46.6987892, "lon": -122.9584117}, {"type": "node", "id": 11582845883, "lat": 46.6987616, "lon": -122.9584793}, {"type": "node", "id": 11582845884, "lat": 46.6988168, "lon": -122.9584114}, {"type": "node", "id": 11582845885, "lat": 46.6987889, "lon": -122.9584791}, {"type": "node", "id": 11582845886, "lat": 46.6988444, "lon": -122.9584111}, {"type": "node", "id": 11582845887, "lat": 46.6988162, "lon": -122.9584789}, {"type": "node", "id": 11582845888, "lat": 46.698872, "lon": -122.9584107}, {"type": "node", "id": 11582845889, "lat": 46.6988435, "lon": -122.9584788}, {"type": "node", "id": 11582845890, "lat": 46.6988996, "lon": -122.9584104}, {"type": "node", "id": 11582845891, "lat": 46.6988708, "lon": -122.9584786}, {"type": "node", "id": 11582845892, "lat": 46.6989272, "lon": -122.9584101}, {"type": "node", "id": 11582845893, "lat": 46.6988982, "lon": -122.9584784}, {"type": "node", "id": 11582845894, "lat": 46.6989548, "lon": -122.9584098}, {"type": "node", "id": 11582845895, "lat": 46.6989255, "lon": -122.9584782}, {"type": "node", "id": 11582845896, "lat": 46.6989825, "lon": -122.9584095}, {"type": "node", "id": 11582845897, "lat": 46.6989528, "lon": -122.958478}, {"type": "node", "id": 11582845898, "lat": 46.6990101, "lon": -122.9584092}, {"type": "node", "id": 11582845899, "lat": 46.6989801, "lon": -122.9584779}, {"type": "node", "id": 11582845900, "lat": 46.6990377, "lon": -122.9584089}, {"type": "node", "id": 11582845901, "lat": 46.6990074, "lon": -122.9584777}, {"type": "node", "id": 11582845902, "lat": 46.6990653, "lon": -122.9584085}, {"type": "node", "id": 11582845903, "lat": 46.6990347, "lon": -122.9584775}, {"type": "node", "id": 11582845904, "lat": 46.699062, "lon": -122.9584773}, {"type": "node", "id": 11582845905, "lat": 46.6990929, "lon": -122.9584082}, {"type": "node", "id": 11582845906, "lat": 46.6987615, "lon": -122.958412}, {"type": "node", "id": 11582845907, "lat": 46.6987343, "lon": -122.9584795}, {"type": "node", "id": 11582845908, "lat": 46.6990759, "lon": -122.9586242}, {"type": "node", "id": 11582845909, "lat": 46.6990507, "lon": -122.9585596}, {"type": "node", "id": 11582845910, "lat": 46.6990488, "lon": -122.9586244}, {"type": "node", "id": 11582845911, "lat": 46.6990233, "lon": -122.9585598}, {"type": "node", "id": 11582845912, "lat": 46.6990216, "lon": -122.9586245}, {"type": "node", "id": 11582845913, "lat": 46.698996, "lon": -122.9585599}, {"type": "node", "id": 11582845914, "lat": 46.6989945, "lon": -122.9586247}, {"type": "node", "id": 11582845915, "lat": 46.6989686, "lon": -122.9585601}, {"type": "node", "id": 11582845916, "lat": 46.6989674, "lon": -122.9586249}, {"type": "node", "id": 11582845917, "lat": 46.6989412, "lon": -122.9585602}, {"type": "node", "id": 11582845918, "lat": 46.6989402, "lon": -122.958625}, {"type": "node", "id": 11582845919, "lat": 46.6989139, "lon": -122.9585604}, {"type": "node", "id": 11582845920, "lat": 46.6989131, "lon": -122.9586252}, {"type": "node", "id": 11582845921, "lat": 46.6988865, "lon": -122.9585605}, {"type": "node", "id": 11582845922, "lat": 46.6988859, "lon": -122.9586254}, {"type": "node", "id": 11582845923, "lat": 46.6988592, "lon": -122.9585607}, {"type": "node", "id": 11582845924, "lat": 46.6988588, "lon": -122.9586255}, {"type": "node", "id": 11582845925, "lat": 46.6988318, "lon": -122.9585608}, {"type": "node", "id": 11582845926, "lat": 46.6988316, "lon": -122.9586257}, {"type": "node", "id": 11582845927, "lat": 46.6988045, "lon": -122.958561}, {"type": "node", "id": 11582845928, "lat": 46.6988045, "lon": -122.9586258}, {"type": "node", "id": 11582845929, "lat": 46.6987771, "lon": -122.9585611}, {"type": "node", "id": 11582845930, "lat": 46.6987773, "lon": -122.958626}, {"type": "node", "id": 11582845931, "lat": 46.6987497, "lon": -122.9585613}, {"type": "node", "id": 11582845932, "lat": 46.6987502, "lon": -122.9586262}, {"type": "node", "id": 11582845933, "lat": 46.6987224, "lon": -122.9585614}, {"type": "node", "id": 11582845934, "lat": 46.698723, "lon": -122.9586263}, {"type": "node", "id": 11582845935, "lat": 46.6991031, "lon": -122.958624}, {"type": "node", "id": 11582845936, "lat": 46.699078, "lon": -122.9585595}, {"type": "node", "id": 11582845937, "lat": 46.698695, "lon": -122.9585616}, {"type": "node", "id": 11582845938, "lat": 46.6989859, "lon": -122.9577393}, {"type": "node", "id": 11582845939, "lat": 46.6990303, "lon": -122.9577668}, {"type": "node", "id": 11582845940, "lat": 46.698985, "lon": -122.9576985}, {"type": "node", "id": 11582845941, "lat": 46.6989868, "lon": -122.9577801}, {"type": "node", "id": 11582845942, "lat": 46.6990311, "lon": -122.9578082}, {"type": "node", "id": 11582845943, "lat": 46.6990295, "lon": -122.9577255}, {"type": "node", "id": 11582845944, "lat": 46.6989405, "lon": -122.9577757}, {"type": "node", "id": 11582845945, "lat": 46.6989638, "lon": -122.9577767}, {"type": "node", "id": 11582845946, "lat": 46.698969, "lon": -122.9578403}, {"type": "node", "id": 11582845947, "lat": 46.6989418, "lon": -122.9578413}, {"type": "node", "id": 11582845948, "lat": 46.6988892, "lon": -122.9577794}, {"type": "node", "id": 11582845949, "lat": 46.6988904, "lon": -122.9578432}, {"type": "node", "id": 11582845950, "lat": 46.6988648, "lon": -122.9577803}, {"type": "node", "id": 11582845951, "lat": 46.698866, "lon": -122.9578441}, {"type": "node", "id": 11582845952, "lat": 46.6988404, "lon": -122.9577813}, {"type": "node", "id": 11582845953, "lat": 46.6988416, "lon": -122.957845}, {"type": "node", "id": 11582845954, "lat": 46.6988159, "lon": -122.9577823}, {"type": "node", "id": 11582845955, "lat": 46.6989137, "lon": -122.9577784}, {"type": "node", "id": 11582845956, "lat": 46.6989149, "lon": -122.9578423}, {"type": "node", "id": 11582845957, "lat": 46.6988171, "lon": -122.957846}, {"type": "node", "id": 11582845958, "lat": 46.6987958, "lon": -122.9576665}, {"type": "node", "id": 11582845959, "lat": 46.6987979, "lon": -122.9576021}, {"type": "node", "id": 11582845960, "lat": 46.6988231, "lon": -122.9576038}, {"type": "node", "id": 11582845961, "lat": 46.6987707, "lon": -122.9576647}, {"type": "node", "id": 11582845962, "lat": 46.698821, "lon": -122.9576682}, {"type": "node", "id": 11582845963, "lat": 46.6987728, "lon": -122.9576003}, {"type": "node", "id": 11582845964, "lat": 46.6987651, "lon": -122.957785}, {"type": "node", "id": 11582845965, "lat": 46.6987661, "lon": -122.9578479}, {"type": "node", "id": 11582845966, "lat": 46.6987428, "lon": -122.9577857}, {"type": "node", "id": 11582845967, "lat": 46.6987438, "lon": -122.9578487}, {"type": "node", "id": 11582845968, "lat": 46.6987206, "lon": -122.9577865}, {"type": "node", "id": 11582845969, "lat": 46.6987215, "lon": -122.9578495}, {"type": "node", "id": 11582845970, "lat": 46.6986993, "lon": -122.9578504}, {"type": "node", "id": 11582845971, "lat": 46.6987874, "lon": -122.9577843}, {"type": "node", "id": 11582845972, "lat": 46.6987883, "lon": -122.957847}, {"type": "node", "id": 11582845973, "lat": 46.6986983, "lon": -122.9577872}, {"type": "node", "id": 11582845974, "lat": 46.6989778, "lon": -122.9576042}, {"type": "node", "id": 11582845975, "lat": 46.6988058, "lon": -122.9575922}, {"type": "node", "id": 11582845976, "lat": 46.6988055, "lon": -122.9576026}, {"type": "node", "id": 11582845977, "lat": 46.6987107, "lon": -122.9578577}, {"type": "node", "id": 11582845979, "lat": 46.6990317, "lon": -122.9578376}, {"type": "node", "id": 11582845980, "lat": 46.699029, "lon": -122.9576993}, {"type": "node", "id": 11582845981, "lat": 46.698999, "lon": -122.9576508}, {"type": "node", "id": 11582845982, "lat": 46.698733, "lon": -122.9575976}, {"type": "node", "id": 11582845983, "lat": 46.6987325, "lon": -122.9576524}, {"type": "node", "id": 11582845984, "lat": 46.6986992, "lon": -122.9576532}, {"type": "node", "id": 11582845985, "lat": 46.6986985, "lon": -122.9578975}, {"type": "node", "id": 11582845986, "lat": 46.698899, "lon": -122.9581607}, {"type": "node", "id": 11905776935, "lat": 46.7171172, "lon": -122.9536323, "tags": {"addr:housenumber": "100", "addr:street": "E Pine St", "amenity": "Plaza", "check_date": "2024-05-14", "fixme": "Plaza", "fixme:type": "Plaza", "internet_access": "no", "internet_access:fee": "no", "name:en": "Pine Street Plaza", "opening_hours": "24/7", "payment:cards": "no", "payment:cash": "yes", "payment:credit_cards": "no", "payment:debit_cards": "no", "wheelchair": "yes"}}, {"type": "node", "id": 11905776936, "lat": 46.7172575, "lon": -122.9536519, "tags": {"addr:housenumber": "204", "addr:street": "North Tower Avenue", "amenity": "restaurant", "check_date": "2024-05-14", "cuisine": "spanish;asian;american;pasta;sandwich;salad;dessert", "name:en": "JJ's ToGo", "opening_hours": "Mo-Sa 08:00-15:00", "phone": "+1-360-807-4368", "website": "https://www.jjstogo.com"}}, {"type": "node", "id": 11980112378, "lat": 46.6957053, "lon": -122.9569572, "tags": {"addr:city": "Centralia", "addr:housenumber": "1704", "addr:postcode": "98531", "addr:state": "WA", "addr:street": "South Gold Street", "amenity": "fast_food", "brand": "Domino's", "brand:wikidata": "Q839466", "cuisine": "pizza", "name": "Domino's", "opening_hours": "Mo-Th 10:00-24:00; Fr-Sa 10:00-01:00; Su 10:00-24:00", "phone": "+1-360-347-6000", "ref": "7058", "takeaway": "yes", "website": "https://pizza.dominos.com/washington/centralia/1704-south-gold-street"}}, {"type": "node", "id": 12156942042, "lat": 46.7167038, "lon": -122.9602867, "tags": {"amenity": "polling_station", "location": "outdoor", "polling_station": "ballot_box"}}, {"type": "node", "id": 12805077501, "lat": 46.7063674, "lon": -122.9546051}, {"type": "node", "id": 12805077502, "lat": 46.7063723, "lon": -122.9546074}, {"type": "node", "id": 12805077503, "lat": 46.7063771, "lon": -122.954614}, {"type": "node", "id": 12805077504, "lat": 46.7063804, "lon": -122.9546192}, {"type": "node", "id": 12805077505, "lat": 46.7063809, "lon": -122.95465}, {"type": "node", "id": 12805077506, "lat": 46.7064341, "lon": -122.9546481}, {"type": "node", "id": 12805077507, "lat": 46.70644, "lon": -122.9546405}, {"type": "node", "id": 12805077508, "lat": 46.7064488, "lon": -122.9546412}, {"type": "node", "id": 12805077509, "lat": 46.7067098, "lon": -122.9546336}, {"type": "node", "id": 12805077510, "lat": 46.706707, "lon": -122.9545305}, {"type": "node", "id": 12805077511, "lat": 46.7067091, "lon": -122.9545154}, {"type": "node", "id": 12805077512, "lat": 46.7067133, "lon": -122.9545092}, {"type": "node", "id": 12805077513, "lat": 46.7067189, "lon": -122.9545059}, {"type": "node", "id": 12805077514, "lat": 46.7067595, "lon": -122.9545021}, {"type": "node", "id": 12805077515, "lat": 46.7067299, "lon": -122.9544499}, {"type": "node", "id": 12805077516, "lat": 46.7066672, "lon": -122.9544509}, {"type": "node", "id": 12805077517, "lat": 46.7066529, "lon": -122.9544471}, {"type": "node", "id": 12805077518, "lat": 46.7065849, "lon": -122.9543952}, {"type": "node", "id": 12805077519, "lat": 46.7065844, "lon": -122.95433}, {"type": "node", "id": 12805077520, "lat": 46.7061726, "lon": -122.9543375}, {"type": "node", "id": 12805077521, "lat": 46.7061733, "lon": -122.9544106}, {"type": "node", "id": 12805077522, "lat": 46.7061713, "lon": -122.9544158}, {"type": "node", "id": 12805077523, "lat": 46.7061673, "lon": -122.9544192}, {"type": "node", "id": 12805077524, "lat": 46.706147, "lon": -122.9544197}, {"type": "node", "id": 12805077525, "lat": 46.7061485, "lon": -122.954539}, {"type": "node", "id": 12805077526, "lat": 46.706158, "lon": -122.9545387}, {"type": "node", "id": 12805077527, "lat": 46.7061612, "lon": -122.9545419}, {"type": "node", "id": 12805077528, "lat": 46.7061621, "lon": -122.9545471}, {"type": "node", "id": 12805077529, "lat": 46.7061629, "lon": -122.9546106}, {"type": "node", "id": 12996399287, "lat": 46.6969743, "lon": -122.9569937, "tags": {"amenity": "restaurant", "cuisine": "mexican", "name": "Los Agaves"}}, {"type": "node", "id": 12996435648, "lat": 46.6969884, "lon": -122.9565252, "tags": {"name": "State Farm", "office": "insurance"}}, {"type": "node", "id": 12996437620, "lat": 46.6969821, "lon": -122.9567603, "tags": {"name": "Reality One Group Pacifica", "office": "estate_agent"}}, {"type": "node", "id": 13352487200, "lat": 46.7166405, "lon": -122.9543387, "tags": {"addr:city": "Centralia", "addr:housenumber": "109", "addr:postcode": "98531", "addr:state": "WA", "addr:street": "North Tower Avenue", "check_date": "2025-12-04", "currency:XBT": "yes", "name": "Let's Play Something", "opening_hours": "Sa 09:00-19:00; Su-Fr 10:00-19:00", "payment:lightning": "yes", "payment:lightning:operator": "square", "payment:lightning_contactless": "no", "payment:onchain": "no", "shop": "toys"}}, {"type": "way", "id": 166134007, "nodes": [1776156928, 1776156922, 1776156923, 1776156929, 1776156928], "tags": {"amenity": "parking"}}, {"type": "way", "id": 220258057, "nodes": [2293867472, 2293867471, 9326145935, 9326145936, 2293867464, 2293867468, 2293867472], "tags": {"addr:city": "Centralia", "addr:housenumber": "220", "addr:postcode": "98531", "addr:state": "WA", "addr:street": "North Tower Avenue", "building": "yes", "ele": "58", "gnis:feature_id": "1531876", "name": "Anderson's True Value", "phone": "+1-360-736-7650", "ref": "1046", "shop": "hardware", "website": "https://www.truevalue.com/andersons"}}, {"type": "way", "id": 220615457, "nodes": [9326145750, 2297135642, 2297135648, 2297135650, 9326145747, 9326145749, 9326145748, 9326145746, 9326145750], "tags": {"addr:city": "Centralia", "addr:housenumber": "201", "addr:postcode": "98531", "addr:state": "WA", "addr:street": "West Main Street", "amenity": "bank", "atm": "yes", "branch": "Centralia", "brand": "KeyBank", "brand:wikidata": "Q1740314", "building": "yes", "drive_through": "yes", "name": "KeyBank", "opening_hours": "Mo-Th 09:00-17:00,Fr 09:00-18:00", "operator": "KeyBank", "phone": "+1-360-736-2881", "source": "https://locations.key.com/wa/centralia/201-w-main-st.html", "website": "https://www.key.com/"}}, {"type": "way", "id": 220615463, "nodes": [2297135678, 2297135680, 2297135682, 2297135683, 2297135685, 2297135686, 2297135678], "tags": {"addr:city": "Centralia", "addr:housenumber": "118", "addr:postcode": "98531-4320", "addr:state": "WA", "addr:street": "West Maple Street", "amenity": "townhall", "building": "yes", "name": "Centralia City Hall", "operator": "City of Centralia, Washington", "phone": "+1-360-330-7671", "website": "https://www.cityofcentralia.com/"}}, {"type": "way", "id": 221233211, "nodes": [2302811363, 2302811366, 2302811367, 2302811369, 2302811363], "tags": {"amenity": "toilets", "building": "yes", "fee": "no", "toilets:disposal": "flush", "wheelchair": "yes"}}, {"type": "way", "id": 224773041, "nodes": [2335854084, 9310092231, 9310092235, 9310092234, 9310092233, 9310092232, 9310092230, 2335854088, 9310092225, 9310092226, 9310092227, 9310092224, 2335854100, 2335854096, 9310092228, 9310092229, 2335854084], "tags": {"amenity": "place_of_worship", "building": "yes", "name": "The Salvation Army Center for Worship & Service", "religion": "christian", "source": "Bing"}}, {"type": "way", "id": 224773051, "nodes": [2335854104, 2335854101, 9310092277, 9310092276, 2335854094, 2335854098, 2335854104], "tags": {"addr:city": "Centralia", "addr:housenumber": "215", "addr:postcode": "98531", "addr:state": "WA", "addr:street": "North Pearl Street", "amenity": "bank", "atm": "yes", "branch": "Centralia", "brand": "Umpqua Bank", "brand:wikidata": "Q7881772", "building": "yes", "drive_through": "yes", "name": "Umpqua Bank", "opening_hours": "Mo-Th 09:00-17:00, Fr 09:00-18:00", "operator": "Umpqua Bank", "phone": "+1-360-736-3363", "source": "https://www.umpquabank.com/locations/washington/centralia/centralia/", "website": "https://www.umpquabank.com/"}}, {"type": "way", "id": 224773054, "nodes": [2335854092, 9310092279, 9310092278, 2335854090, 2335854082, 4985654696, 2335854086, 9310092281, 4985654695, 9310092280, 2335854092], "tags": {"addr:city": "Centralia", "addr:housenumber": "209", "addr:postcode": "98531", "addr:state": "WA", "addr:street": "North Pearl Street", "amenity": "place_of_worship", "building": "yes", "denomination": "nondenominational", "name": "Centralia Bible Chapel", "phone": "+1-360-736-2483", "religion": "christian", "source": "https://www.facebook.com/pages/Centralia-Bible-Chapel/100871049957607"}}, {"type": "way", "id": 265137865, "nodes": [2707950144, 2707950180, 2707950174, 2707950192, 2707950166, 2707950129, 2707950144], "tags": {"amenity": "place_of_worship", "building": "church", "name": "Open Bible Church", "religion": "christian"}}, {"type": "way", "id": 265137870, "nodes": [2707950160, 2707950124, 2707950176, 490881735, 2707950189, 2707950147, 2707950157, 2707950175, 2707950160], "tags": {"amenity": "waste_transfer_station", "landuse": "industrial", "name": "Lewis County Transfer Station"}}, {"type": "way", "id": 265138096, "nodes": [2707951826, 2707951839, 2707951834, 2707951833, 2707951836, 2707951835, 2707951831, 2707951830, 2707951838, 9231754292, 9231754293, 9231754294, 9231754295, 2707951828, 2707951826], "tags": {"amenity": "place_of_worship", "building": "church", "name": "Church of Christ", "religion": "christian"}}, {"type": "way", "id": 265138686, "nodes": [356542763, 2707960357, 2707960360, 2707960363, 2707960359, 2707960361, 490881553, 490881548, 356542763], "tags": {"amenity": "school", "ele": "56", "gnis:feature_id": "1514232", "name": "Jefferson Lincoln Elementary School"}}, {"type": "way", "id": 265251064, "nodes": [2709173353, 2709173359, 9262674210, 9262674216, 9262674214, 9262674215, 9262674213, 9262674212, 9262674211, 2709173425, 2709173349, 2709173386, 2709173352, 9262674224, 9262674225, 9262674223, 2709173438, 9262674221, 9262674222, 9262674228, 2709173404, 2709173450, 2709173483, 2709173452, 9262674226, 9262674227, 2709173356, 2709173353], "tags": {"addr:city": "Centralia", "addr:postcode": "98531", "addr:state": "WA", "amenity": "school", "building": "yes", "name": "Van Prooyen Child Development", "ref": "CDC"}}, {"type": "way", "id": 265259995, "nodes": [2709303020, 9326097620, 9326097622, 9326097623, 9326097624, 9326097625, 9326097626, 9326097627, 9326097632, 10764555134, 9326097631, 2709303043, 9326097634, 9326097635, 9326097638, 9326097613, 9326097614, 9326097615, 9326097616, 9326097618, 9326097619, 9326097617, 9326097644, 9326097645, 9326097646, 9326097639, 2709303032, 2709303038, 2709303020], "tags": {"amenity": "library", "building": "yes", "name": "Timberland Regional Library"}}, {"type": "way", "id": 265283294, "nodes": [356542714, 2709506214, 2709506222, 2709506207, 9301747357, 9301747373, 2709506322, 9333536111, 9333536110, 9333536107, 2709506137, 9333536108, 9333536109, 356542714], "tags": {"amenity": "school", "ele": "57", "gnis:feature_id": "1514169", "name": "Edison Elementary School"}}, {"type": "way", "id": 265286513, "nodes": [2709567752, 2709567794, 2709567725, 2709567807, 2709567793, 2709567766, 9310043059, 2709567752], "tags": {"amenity": "restaurant", "building": "yes", "name": "Main Street Cafe"}}, {"type": "way", "id": 303573603, "nodes": [3079616412, 3079616413, 3079616414, 3079616415, 3079616412], "tags": {"amenity": "biergarten"}}, {"type": "way", "id": 415404870, "nodes": [4164528133, 4164528134, 4164528135, 4164528138, 4164528136, 4164528133], "tags": {"access": "unknown", "amenity": "parking", "capacity": "85", "parking": "surface", "surface": "asphalt"}}, {"type": "way", "id": 415404871, "nodes": [4164528136, 4164528138, 4164528139, 4164528140, 4164528136], "tags": {"access": "unknown", "amenity": "parking", "capacity": "25", "surface": "asphalt"}}, {"type": "way", "id": 431971502, "nodes": [356543082, 9255321361, 9255321358, 9255321357, 4311776864, 9255321163, 9255321162, 9255321161, 9255321160, 4311797725, 5562835542, 5562835540, 5562835537, 9262662991, 10572867954, 5562835531, 4311776867, 9259186164, 9259186167, 9259186166, 9259186165, 9259186162, 9259186163, 4311776861, 9262662994, 9262662998, 9262662999, 9262862863, 9262862862, 9262862861, 9262662997, 9262662996, 9262662995, 9262662993, 4311776860, 9262663004, 9262663008, 9262663009, 9262663005, 4311776858, 9262663006, 9262663007, 9262663010, 4311776857, 9252163911, 4311776859, 9259186156, 9259186153, 9259186154, 9259186157, 9262663012, 9262663013, 9262663011, 9262663016, 9262663015, 9262663014, 9259186155, 2709173347, 9259186152, 9259186148, 9259186151, 9259186150, 9259186149, 4311776856, 9259186147, 9259186146, 9259186144, 9326097407, 9259186145, 4311776862, 9326097391, 9259186128, 9259186129, 4311776866, 9259186127, 4311776868, 4311776865, 9255321356, 9255321359, 9255321360, 9255321362, 356543082]}, {"type": "way", "id": 439342646, "nodes": [4369605977, 4369605978, 4369605979, 4369605980, 4369605981, 4369605977], "tags": {"access": "customers", "amenity": "parking", "fee": "no", "parking": "surface"}}, {"type": "way", "id": 439342647, "nodes": [4369605987, 4369605988, 4369606589, 4369606590, 4369606591, 4369605987], "tags": {"amenity": "parking"}}, {"type": "way", "id": 535225327, "nodes": [5188465483, 5188465484, 5188465485, 5188465486, 9213259861, 9213259862, 5188465483], "tags": {"amenity": "school", "name": "Centralia Christian School"}}, {"type": "way", "id": 535225336, "nodes": [5188465514, 5188465515, 5188465516, 5188465517, 5188465514], "tags": {"addr:city": "Centralia", "addr:country": "US", "addr:housenumber": "205", "addr:state": "WA", "addr:street": "East Floral Street", "building": "office", "name": "Chehalis Steel Company", "office": "company"}}, {"type": "way", "id": 535225359, "nodes": [5188465627, 5188465628, 11477368746, 11477368745, 11477368738, 11477368744, 11477368747, 5188465629, 11477368706, 11477368705, 11477368703, 11477368704, 11477368707, 11477368750, 11477368749, 11477368748, 11477368751, 5188465630, 11477368752, 11477368753, 5188465631, 5188465632, 11477368742, 11477368741, 11477368739, 11477368740, 11477368743, 11582845986, 5188465627], "tags": {"addr:city": "Centralia", "addr:housenumber": "1511", "addr:postcode": "98531", "addr:state": "WA", "addr:street": "South Gold Street", "amenity": "place_of_worship", "building": "yes", "denomination": "baptist", "email": "cbbc@centraliabbc.org", "name": "Centralia Bible Baptist Church", "phone": "+1-360-669-0113", "religion": "christian", "service_times": "Su 10:00,17:30; We 18:00", "source": "https://centraliabbc.org", "website": "https://centraliabbc.org"}}, {"type": "way", "id": 535500563, "nodes": [5190290425, 5190290426, 5190290427, 5190290428, 5190290425], "tags": {"amenity": "parking"}}, {"type": "way", "id": 706503442, "nodes": [356543161, 6638906035, 9231684544, 9231684542, 9231684541, 9231684543, 9231684545, 9231684550, 6638906037, 6638906038, 6638906039, 356543161], "tags": {"amenity": "school", "ele": "56", "gnis:feature_id": "1514578", "name": "Washington Elementary School"}}, {"type": "way", "id": 1000092571, "nodes": [9231684413, 9231684414, 9231684415, 9231684416, 9231684413], "tags": {"amenity": "parking"}}, {"type": "way", "id": 1000092572, "nodes": [9231684415, 9231684417, 9231684418, 9231684416, 9231684415], "tags": {"amenity": "parking"}}, {"type": "way", "id": 1000092573, "nodes": [9231684419, 9231684420, 9231684421, 9231684422, 9231684419], "tags": {"amenity": "parking"}}, {"type": "way", "id": 1000092604, "nodes": [9231684701, 9231684789, 10254708834, 9231684702, 10254708833, 10254708832, 10254708831, 9231684703, 10254708836, 10254708835, 9231684701], "tags": {"amenity": "parking"}}, {"type": "way", "id": 1000094204, "nodes": [9231700853, 9231700854, 9231700855, 9231700856, 9231700857, 9231700858, 9231700859, 9231700860, 9231700853], "tags": {"amenity": "parking"}}, {"type": "way", "id": 1000094207, "nodes": [9231700870, 9231700871, 9231700872, 9231700873, 9231700874, 9231700875, 9231700876, 9231700877, 9231700870], "tags": {"amenity": "parking"}}, {"type": "way", "id": 1000094229, "nodes": [9231701077, 9231701078, 9231701079, 9231701080, 9231701081, 9231701082, 9231701083, 9231701084, 9231701077], "tags": {"amenity": "parking"}}, {"type": "way", "id": 1000094230, "nodes": [9231701085, 9231701086, 9231701087, 9231701088, 9231701085], "tags": {"amenity": "parking"}}, {"type": "way", "id": 1000094231, "nodes": [9231701089, 9231701090, 9231701091, 9231701092, 9231701089], "tags": {"amenity": "parking"}}, {"type": "way", "id": 1000099491, "nodes": [9231755831, 9231755832, 9231755833, 9231755834, 9231755831], "tags": {"amenity": "parking"}}, {"type": "way", "id": 1000099492, "nodes": [9231755835, 9231755836, 9231755837, 9231755838, 9231755835], "tags": {"amenity": "parking"}}, {"type": "way", "id": 1001930478, "nodes": [9247486614, 9247486615, 9247486616, 9247486617, 9247486618, 9247486619, 9247486620, 9247486621, 9247486622, 9247486623, 9247486624, 9247486625, 9247486626, 9247486627, 9247486628, 9247486629, 9247486630, 9247486631, 9247486632, 9247486633, 9247486634, 9247486635, 9247486614]}, {"type": "way", "id": 1001930479, "nodes": [9247486636, 9247486637, 9247486638, 9247486639, 9247486636]}, {"type": "way", "id": 1001930517, "nodes": [9247487044, 9247487045, 9247487046, 9247487047, 9247487044], "tags": {"amenity": "parking"}}, {"type": "way", "id": 1001930518, "nodes": [9247487048, 9247487049, 9247487050, 9247487051, 9247487048], "tags": {"amenity": "parking"}}, {"type": "way", "id": 1002506710, "nodes": [9252163891, 9252163892, 9252163893, 9252163894, 9252163891], "tags": {"amenity": "parking"}}, {"type": "way", "id": 1002506711, "nodes": [9252163895, 9252163896, 9252163897, 9252163898, 9252163895], "tags": {"amenity": "parking"}}, {"type": "way", "id": 1002506712, "nodes": [9252163899, 9252163900, 9252163901, 9252163902, 9252163899], "tags": {"amenity": "parking"}}, {"type": "way", "id": 1002506713, "nodes": [9252163903, 9252163904, 9252163905, 9252163906, 9252163903], "tags": {"amenity": "parking"}}, {"type": "way", "id": 1002506714, "nodes": [9252163907, 9252163908, 9252163909, 9252163910, 9252163907], "tags": {"amenity": "parking"}}, {"type": "way", "id": 1002551983, "nodes": [9252589524, 9252589525, 9252589526, 9252589527, 9252589524], "tags": {"amenity": "parking"}}, {"type": "way", "id": 1003363612, "nodes": [9259186158, 9259186159, 9259186160, 9259186161, 9259186158]}, {"type": "way", "id": 1003865199, "nodes": [9262862864, 9262862865, 9262862866, 9262862867, 9262862864], "tags": {"amenity": "parking"}}, {"type": "way", "id": 1003865200, "nodes": [9262862868, 9262862869, 9262862870, 9262862871, 9262862868], "tags": {"amenity": "parking"}}, {"type": "way", "id": 1003865201, "nodes": [9262862872, 9262862873, 9262862874, 9262862875, 9262862876, 2709173390, 9262862877, 9262862872], "tags": {"amenity": "parking"}}, {"type": "way", "id": 1003865202, "nodes": [9262862878, 9262862879, 9262862880, 9262862881, 9262862878], "tags": {"amenity": "parking"}}, {"type": "way", "id": 1003865203, "nodes": [9262862882, 9262862883, 9262862884, 9262862885, 9262862882], "tags": {"amenity": "parking"}}, {"type": "way", "id": 1003865204, "nodes": [9262862886, 9262862887, 9262862888, 9262862889, 9262862886], "tags": {"amenity": "parking"}}, {"type": "way", "id": 1003865205, "nodes": [9262862890, 9262862891, 9262862892, 9262862893, 9262862890], "tags": {"amenity": "parking"}}, {"type": "way", "id": 1003865221, "nodes": [9262877251, 9262877252, 9262877253, 9262877254, 9262877251], "tags": {"amenity": "parking"}}, {"type": "way", "id": 1004218462, "nodes": [9265675784, 9265675785, 9265675786, 9265675787, 9265675784], "tags": {"amenity": "parking"}}, {"type": "way", "id": 1004218463, "nodes": [9265675788, 9265675789, 9265675790, 9265675791, 9265675788], "tags": {"amenity": "parking"}}, {"type": "way", "id": 1004225215, "nodes": [9265717632, 9265717633, 9265717634, 9265717635, 9265717632], "tags": {"amenity": "parking"}}, {"type": "way", "id": 1004225216, "nodes": [9265717636, 9265717637, 9265717638, 9265717639, 9265717636], "tags": {"amenity": "parking"}}, {"type": "way", "id": 1004225217, "nodes": [9265717640, 9265717641, 9265717642, 9265717643, 9265717640], "tags": {"amenity": "parking"}}, {"type": "way", "id": 1004225218, "nodes": [9265717644, 9265717645, 9265717646, 9265717647, 9265717644], "tags": {"amenity": "parking"}}, {"type": "way", "id": 1004225219, "nodes": [9265717648, 9265717649, 9265717650, 9265717651, 9265717648], "tags": {"amenity": "parking"}}, {"type": "way", "id": 1004225220, "nodes": [9265717652, 9265717653, 9265717654, 9265717655, 9265717656, 9265717657, 9265717652], "tags": {"amenity": "parking"}}, {"type": "way", "id": 1004225221, "nodes": [9265717658, 9265717659, 9265717660, 9265717661, 9265717662, 9265717663, 9265717664, 9265717665, 9265717658], "tags": {"amenity": "parking"}}, {"type": "way", "id": 1004225222, "nodes": [9265717666, 9265717694, 9265717693, 9265735825, 9265735824, 9265735822, 9265735821, 9265735819, 9265717667, 9265717668, 9265717669, 9265717666], "tags": {"amenity": "parking"}}, {"type": "way", "id": 1004225223, "nodes": [9265717670, 9265717671, 9265735852, 9265735851, 9265717672, 9265717673, 9265717670], "tags": {"amenity": "parking"}}, {"type": "way", "id": 1004225245, "nodes": [9265735963, 9265735964, 9265735965, 11434288652, 9265735967, 9265735968, 9265735969, 9265735970, 9265735963], "tags": {"amenity": "pharmacy", "building": "retail", "contact:facebook": "https://www.penpharmrx.com/facebook-feed/", "contact:twitter": "https://twitter.com/PenPharm", "drive_through": "yes", "email": "centraliapharmacy@gmail.com", "fax": "+1-360-736-9433", "healthcare": "pharmacy", "image": "http://www.penpharmrx.com/wp-content/uploads/2017/06/centralia-logo.jpg", "name": "Centralia Pharmacy", "opening_hours": "Mo-Fr 09:30-18:00; Sa 10:00-14:00", "phone": "+1-360-736-5000", "website": "https://www.penpharmrx.com/centralia/"}}, {"type": "way", "id": 1004235974, "nodes": [9265821846, 9265821847, 9265821848, 9265821849, 9265821846], "tags": {"amenity": "parking"}}, {"type": "way", "id": 1004235975, "nodes": [9265821850, 9265821852, 9265821853, 9265821856, 9265821850], "tags": {"amenity": "parking"}}, {"type": "way", "id": 1004613591, "nodes": [9269007855, 9269007856, 9269007857, 9269007858, 9269007855], "tags": {"amenity": "parking"}}, {"type": "way", "id": 1004613592, "nodes": [9269007859, 9269007860, 9269007861, 9269007862, 9269007834, 9269007833, 9269007859], "tags": {"amenity": "parking"}}, {"type": "way", "id": 1004613593, "nodes": [9269007863, 9269007864, 9269007865, 9269007866, 9269007863], "tags": {"amenity": "parking"}}, {"type": "way", "id": 1004613613, "nodes": [9269008032, 9269008033, 9269008034, 9269008035, 9269008032], "tags": {"amenity": "parking"}}, {"type": "way", "id": 1004613614, "nodes": [9269008036, 9269008037, 9269008038, 9269008039, 9269008036], "tags": {"amenity": "parking"}}, {"type": "way", "id": 1004613624, "nodes": [9269008080, 9269008081, 9269008082, 9269008083, 9269008080], "tags": {"amenity": "parking"}}, {"type": "way", "id": 1004613625, "nodes": [9269008084, 9269008085, 9269008086, 9269008087, 9269008084], "tags": {"amenity": "parking"}}, {"type": "way", "id": 1005130175, "nodes": [9273816133, 9273816134, 9273816135, 9273816136, 9273816137, 9273816138, 9273816139, 9273816140, 9273816141, 9273816142, 9273816133], "tags": {"amenity": "parking"}}, {"type": "way", "id": 1006053256, "nodes": [9282237809, 9282237810, 9282237811, 9282237812, 9282237809], "tags": {"amenity": "parking"}}, {"type": "way", "id": 1006064812, "nodes": [9282340971, 9282340974, 9282340975, 9282340970, 9282340971], "tags": {"amenity": "parking"}}, {"type": "way", "id": 1006064813, "nodes": [9282340972, 9282340976, 9282340977, 9282340978, 9282340972], "tags": {"amenity": "parking"}}, {"type": "way", "id": 1006629538, "nodes": [9287305892, 9287305893, 9287305894, 9287305895, 9287305892], "tags": {"amenity": "parking"}}, {"type": "way", "id": 1006629539, "nodes": [9287305896, 9287305897, 9287305871, 9287305898, 9287305899, 9287305900, 9287305896], "tags": {"amenity": "parking"}}, {"type": "way", "id": 1008257389, "nodes": [9298840697, 9301746796, 9301746797, 9301746798, 9298840697], "tags": {"amenity": "parking"}}, {"type": "way", "id": 1008257438, "nodes": [9301747242, 9301747243, 9301747244, 9301747245, 9301747242], "tags": {"amenity": "parking"}}, {"type": "way", "id": 1008257440, "nodes": [9301747251, 9301747252, 9301747253, 9301747254, 9301747251], "tags": {"amenity": "parking"}}, {"type": "way", "id": 1008257441, "nodes": [9301747255, 9301747256, 9301747257, 9301747258, 9301747255], "tags": {"amenity": "parking"}}, {"type": "way", "id": 1008257442, "nodes": [9301747259, 9301747260, 9301747261, 9301747262, 9301747259], "tags": {"amenity": "parking"}}, {"type": "way", "id": 1009036991, "nodes": [9310042638, 9310042639, 9310042640, 9310042641, 9310042638], "tags": {"amenity": "parking"}}, {"type": "way", "id": 1009036992, "nodes": [9310042642, 9310042643, 9310042644, 9310042645, 9310042661, 9310042642], "tags": {"amenity": "parking"}}, {"type": "way", "id": 1009036994, "nodes": [9310042659, 9310042660, 9310042645, 9310042661, 2417848573, 9310042659], "tags": {"amenity": "parking"}}, {"type": "way", "id": 1009036995, "nodes": [9310042662, 9310042663, 9310042664, 9310042665, 9310042662], "tags": {"amenity": "parking"}}, {"type": "way", "id": 1009037012, "nodes": [9310042794, 9310042795, 9310042796, 9310042797, 9310042794], "tags": {"amenity": "parking"}}, {"type": "way", "id": 1009037038, "nodes": [9310043059, 9310043060, 9310043061, 9310043062, 2709567766, 9310043059], "tags": {"amenity": "parking"}}, {"type": "way", "id": 1009043364, "nodes": [9310060483, 9310060484, 9310060485, 9310060486, 9310060483], "tags": {"amenity": "parking"}}, {"type": "way", "id": 1009043365, "nodes": [9310060487, 9310060488, 9310060489, 9310060490, 9310060487], "tags": {"amenity": "parking"}}, {"type": "way", "id": 1009043366, "nodes": [9310060491, 9310060492, 9310060493, 9310060494, 9310060491], "tags": {"amenity": "parking"}}, {"type": "way", "id": 1009043367, "nodes": [9310060495, 9310060496, 9310060497, 9310060498, 9310060495], "tags": {"amenity": "parking"}}, {"type": "way", "id": 1009043374, "nodes": [9310092240, 9310092241, 9310092242, 9310092243, 9310092238, 9310092240], "tags": {"amenity": "parking"}}, {"type": "way", "id": 1009043375, "nodes": [9310092244, 9310092245, 9310092246, 9310092247, 9310092244], "tags": {"amenity": "parking"}}, {"type": "way", "id": 1009043376, "nodes": [9310092248, 9310092249, 9310092250, 9310092251, 9310092248], "tags": {"amenity": "parking"}}, {"type": "way", "id": 1009043377, "nodes": [9310092252, 9310092253, 9310092254, 9310092255, 9310092252], "tags": {"amenity": "parking"}}, {"type": "way", "id": 1009043412, "nodes": [9310092672, 9310092689, 9310092690, 9310092691, 9310092701, 9310092703, 9310092702, 9310092692, 9310092693, 9310092688, 9310092683, 9310092684, 9310092694, 9310092695, 9310092681, 9310092680, 9310092679, 9310092696, 9310092697, 9310092676, 9310092671, 9310092672], "tags": {"amenity": "parking"}}, {"type": "way", "id": 1009043417, "nodes": [9310092708, 9310092709, 9310092710, 9310092711, 9310092708], "tags": {"amenity": "parking"}}, {"type": "way", "id": 1009043421, "nodes": [9310092744, 9310092745, 9310092746, 9310092747, 9310092744], "tags": {"amenity": "parking"}}, {"type": "way", "id": 1009043429, "nodes": [9310092790, 9310092791, 9310092792, 9310092787, 9310092790], "tags": {"amenity": "parking"}}, {"type": "way", "id": 1010400628, "nodes": [9322608499, 9322608500, 9322608501, 9322608502, 9322608499], "tags": {"amenity": "parking"}}, {"type": "way", "id": 1010858867, "nodes": [9326097278, 9326097279, 9326097280, 9326097281, 9326097278], "tags": {"amenity": "parking"}}, {"type": "way", "id": 1010863588, "nodes": [9326145742, 9326145743, 9326145744, 9326145745, 9326145742], "tags": {"amenity": "parking"}}, {"type": "way", "id": 1010863610, "nodes": [9326145888, 9326145889, 9326145890, 9326145891, 9326145888], "tags": {"amenity": "parking"}}, {"type": "way", "id": 1010878591, "nodes": [9326300835, 9326300836, 9326300837, 9326300838, 9326300835], "tags": {"amenity": "parking"}}, {"type": "way", "id": 1011153106, "nodes": [9328886716, 9328902817, 9328902818, 9328902819, 9328886716], "tags": {"amenity": "parking"}}, {"type": "way", "id": 1011153109, "nodes": [9328902845, 9328902846, 9328902847, 9328902848, 9328902845], "tags": {"amenity": "parking"}}, {"type": "way", "id": 1011153110, "nodes": [9328902849, 9328902850, 9328902851, 9328902852, 9328902849], "tags": {"amenity": "parking"}}, {"type": "way", "id": 1011153116, "nodes": [9328902896, 9328902897, 9328902898, 2335854254, 9328902899, 9328902900, 9328902896], "tags": {"amenity": "parking"}}, {"type": "way", "id": 1011153117, "nodes": [9328902901, 9328902902, 9328902903, 9328902904, 9328902901], "tags": {"amenity": "parking"}}, {"type": "way", "id": 1011376382, "nodes": [9331293036, 9331293037, 9331293038, 9331293039, 9331293036], "tags": {"amenity": "parking"}}, {"type": "way", "id": 1011599995, "nodes": [9333419109, 9333419110, 9333419111, 9333419112, 9333419113, 9333419106, 9333419107, 9333419114, 9333419109], "tags": {"amenity": "parking"}}, {"type": "way", "id": 1011599996, "nodes": [9333419115, 9333419123, 9333419116, 9333419117, 9333419118, 9333419115], "tags": {"amenity": "parking"}}, {"type": "way", "id": 1011625462, "nodes": [9333660412, 9333660413, 2335854410, 9333660410, 9333660412], "tags": {"amenity": "parking"}}, {"type": "way", "id": 1018451848, "nodes": [9393702742, 9393702743, 9393702737, 9393702738, 9393702744, 9393702735, 9393702742], "tags": {"amenity": "parking"}}, {"type": "way", "id": 1018451849, "nodes": [9393702745, 9393702752, 9393702746, 9393702747, 9393702748, 9393702745], "tags": {"amenity": "parking"}}, {"type": "way", "id": 1018451851, "nodes": [9393702755, 9393702756, 9393702757, 9393702758, 9393702755], "tags": {"amenity": "parking"}}, {"type": "way", "id": 1018451852, "nodes": [9393702759, 9393702760, 9393702761, 9393702762, 9393702759], "tags": {"amenity": "parking"}}, {"type": "way", "id": 1018451853, "nodes": [9393702763, 9393702764, 9393702765, 9393702766, 9393702763], "tags": {"amenity": "parking"}}, {"type": "way", "id": 1018458523, "nodes": [9393757582, 9393757583, 9393757584, 9393757585, 9393757582], "tags": {"amenity": "parking"}}, {"type": "way", "id": 1018458524, "nodes": [9393757586, 9393757587, 9393757588, 9393757589, 9393757590, 9393757591, 9393757586], "tags": {"amenity": "parking"}}, {"type": "way", "id": 1018458525, "nodes": [9393757592, 9393757593, 9393757594, 9393757595, 9393757592], "tags": {"amenity": "parking"}}, {"type": "way", "id": 1157507100, "nodes": [10764529089, 10764529088, 10764529087, 10764529086, 10764529085, 10764529084, 10764529083, 10764529082, 10764529081, 10764529080, 10764529089], "tags": {"amenity": "parking"}}, {"type": "way", "id": 1157507101, "nodes": [10764529093, 10764529092, 10764529091, 10764529090, 10764529093], "tags": {"amenity": "parking"}}, {"type": "way", "id": 1157507102, "nodes": [10764529097, 10764529094, 10764529095, 10764529096, 10764529097], "tags": {"amenity": "parking"}}, {"type": "way", "id": 1157507104, "nodes": [10764554909, 10764554908, 10764554907, 10764554906, 10764554905, 10764529104, 10764529103, 10764529102, 10764554909], "tags": {"amenity": "parking"}}, {"type": "way", "id": 1157507105, "nodes": [10764554918, 10764554915, 10764554916, 10764554917, 10764554918], "tags": {"amenity": "parking"}}, {"type": "way", "id": 1157507106, "nodes": [10764554922, 10764554919, 10764554920, 10764554921, 10764554922], "tags": {"amenity": "parking"}}, {"type": "way", "id": 1157507107, "nodes": [10764554926, 10764554923, 10764554924, 10764554925, 10764554926], "tags": {"amenity": "parking"}}, {"type": "way", "id": 1157507108, "nodes": [10764554932, 10764554931, 10764554930, 10764554929, 10764554928, 10764554927, 10764554932], "tags": {"amenity": "parking"}}, {"type": "way", "id": 1157507117, "nodes": [10764554983, 10764554982, 10764554981, 10764554980, 10764554979, 10764554978, 10764554977, 10764554976, 10764554975, 10764554983], "tags": {"amenity": "parking"}}, {"type": "way", "id": 1157507121, "nodes": [10764555004, 10764555001, 10764555002, 10764555003, 10764555004], "tags": {"amenity": "parking"}}, {"type": "way", "id": 1157507123, "nodes": [10764555015, 10764555012, 10764555013, 10764555014, 10764555015], "tags": {"amenity": "parking"}}, {"type": "way", "id": 1157507124, "nodes": [10764555023, 10764555022, 10764555021, 10764555020, 10764555019, 10764555018, 10764555017, 10764555016, 10764555023], "tags": {"amenity": "parking"}}, {"type": "way", "id": 1157507126, "nodes": [10764555032, 10764555031, 10764555030, 10764555029, 10764555032], "tags": {"amenity": "parking"}}, {"type": "way", "id": 1157507129, "nodes": [10764555047, 10764555046, 10764555045, 10764555044, 10764555043, 10764555042, 10764555047], "tags": {"amenity": "parking"}}, {"type": "way", "id": 1157507130, "nodes": [10764555055, 10764555054, 10764555053, 10764555052, 10764555051, 10764555050, 10764555049, 10764555048, 10764555055], "tags": {"amenity": "parking"}}, {"type": "way", "id": 1157507148, "nodes": [10764555176, 10764555173, 10764555174, 10764555175, 10764555176], "tags": {"amenity": "parking"}}, {"type": "way", "id": 1157507150, "nodes": [10764555187, 10764555184, 10764555185, 10764555186, 10764555187], "tags": {"amenity": "parking"}}, {"type": "way", "id": 1157507151, "nodes": [10764555191, 10764555188, 10764555189, 10764555190, 10764555191], "tags": {"amenity": "parking"}}, {"type": "way", "id": 1157507152, "nodes": [10764555195, 10764555192, 10764555193, 10764555194, 10764555195], "tags": {"amenity": "parking", "parking": "surface"}}, {"type": "way", "id": 1157507153, "nodes": [10764555199, 10764555196, 10764555197, 10764555198, 10764555199], "tags": {"amenity": "parking"}}, {"type": "way", "id": 1157507154, "nodes": [10764555203, 10764555200, 10764555201, 10764555202, 10764555203], "tags": {"amenity": "parking"}}, {"type": "way", "id": 1157507155, "nodes": [10764555207, 10764555204, 10764555205, 10764555206, 10764555207], "tags": {"amenity": "parking"}}, {"type": "way", "id": 1157507156, "nodes": [10764555211, 10764555208, 10764555209, 10764555210, 10764555211], "tags": {"amenity": "parking"}}, {"type": "way", "id": 1157507157, "nodes": [10764555215, 10764555212, 10764555213, 10764555214, 10764555215], "tags": {"amenity": "parking"}}, {"type": "way", "id": 1157507158, "nodes": [10764555219, 10764555216, 10764555217, 10764555218, 10764555219], "tags": {"amenity": "parking"}}, {"type": "way", "id": 1157569362, "nodes": [10765210524, 10765210521, 10765210522, 10765210523, 10765210524], "tags": {"amenity": "parking"}}, {"type": "way", "id": 1157816448, "nodes": [10767452473, 10767452474, 10767452475, 10767452476, 10767452477, 11364933278, 11364933279, 10767452478, 11364933281, 10767452479, 11364933280, 10767452480, 10767452473], "tags": {"amenity": "parking"}}, {"type": "way", "id": 1157816449, "nodes": [10767452481, 10767452482, 10767452483, 10767452484, 10767452481], "tags": {"amenity": "parking"}}, {"type": "way", "id": 1232606328, "nodes": [11434288608, 11434288605, 11434288606, 11434288607, 11434288608], "tags": {"amenity": "parking", "parking": "surface"}}, {"type": "way", "id": 1232606329, "nodes": [11434288612, 11434288609, 11434288610, 11434288611, 11434288612], "tags": {"amenity": "parking", "parking": "surface"}}, {"type": "way", "id": 1242721840, "nodes": [11548937363, 11548937360, 11548937361, 11548937362, 11548937363], "tags": {"addr:city": "Centralia", "addr:country": "US", "addr:housenumber": "405", "addr:postcode": "98531", "addr:state": "WA", "addr:street": "East Summa Street", "brand": "Dollar General", "brand:wikidata": "Q145168", "building": "retail", "name": "Dollar General", "opening_hours": "08:00-22:00", "phone": "+1-206-635-4504", "post_office": "post_partner", "post_office:brand": "FedEx OnSite", "post_office:website": "https://local.fedex.com/en-us/wa/centralia/olmaf", "shop": "variety_store", "website": "https://www.dollargeneral.com"}}, {"type": "way", "id": 1245937695, "nodes": [11582837259, 11582845798, 11582845799, 11582837258, 11582837259], "tags": {"amenity": "parking_space", "site": "parking", "type": "site"}}, {"type": "way", "id": 1245937696, "nodes": [11582837261, 11582837259, 11582837258, 11582837260, 11582837261], "tags": {"amenity": "parking_space", "site": "parking", "type": "site"}}, {"type": "way", "id": 1245937697, "nodes": [11582837263, 11582837261, 11582837260, 11582837262, 11582837263], "tags": {"amenity": "parking_space", "site": "parking", "type": "site"}}, {"type": "way", "id": 1245937698, "nodes": [11582837265, 11582837263, 11582837262, 11582837264, 11582837265], "tags": {"amenity": "parking_space", "site": "parking", "type": "site"}}, {"type": "way", "id": 1245937699, "nodes": [11582837267, 11582837265, 11582837264, 11582837266, 11582837267], "tags": {"amenity": "parking_space", "site": "parking", "type": "site"}}, {"type": "way", "id": 1245937700, "nodes": [11582845769, 11582837267, 11582837266, 11582837268, 11582845769], "tags": {"amenity": "parking_space", "site": "parking", "type": "site"}}, {"type": "way", "id": 1245937701, "nodes": [11582845771, 11582845769, 11582837268, 11582845770, 11582845771], "tags": {"amenity": "parking_space", "site": "parking", "type": "site"}}, {"type": "way", "id": 1245937702, "nodes": [11582845773, 11582845771, 11582845770, 11582845772, 11582845773], "tags": {"amenity": "parking_space", "site": "parking", "type": "site"}}, {"type": "way", "id": 1245937703, "nodes": [11582845775, 11582845773, 11582845772, 11582845774, 11582845775], "tags": {"amenity": "parking_space", "site": "parking", "type": "site"}}, {"type": "way", "id": 1245937704, "nodes": [11582845777, 11582845775, 11582845774, 11582845776, 11582845777], "tags": {"amenity": "parking_space", "site": "parking", "type": "site"}}, {"type": "way", "id": 1245937705, "nodes": [11582845779, 11582845777, 11582845776, 11582845778, 11582845779], "tags": {"amenity": "parking_space", "site": "parking", "type": "site"}}, {"type": "way", "id": 1245937706, "nodes": [11582845781, 11582845779, 11582845778, 11582845780, 11582845781], "tags": {"amenity": "parking_space", "site": "parking", "type": "site"}}, {"type": "way", "id": 1245937707, "nodes": [11582845783, 11582845781, 11582845780, 11582845782, 11582845783], "tags": {"amenity": "parking_space", "site": "parking", "type": "site"}}, {"type": "way", "id": 1245937708, "nodes": [11582845785, 11582845783, 11582845782, 11582845784, 11582845785], "tags": {"amenity": "parking_space", "site": "parking", "type": "site"}}, {"type": "way", "id": 1245937709, "nodes": [11582845787, 11582845785, 11582845784, 11582845786, 11582845787], "tags": {"amenity": "parking_space", "site": "parking", "type": "site"}}, {"type": "way", "id": 1245937710, "nodes": [11582845789, 11582845787, 11582845786, 11582845788, 11582845789], "tags": {"amenity": "parking_space", "site": "parking", "type": "site"}}, {"type": "way", "id": 1245937711, "nodes": [11582845791, 11582845789, 11582845788, 11582845790, 11582845791], "tags": {"amenity": "parking_space", "site": "parking", "type": "site"}}, {"type": "way", "id": 1245937712, "nodes": [11582845793, 11582845791, 11582845790, 11582845792, 11582845793], "tags": {"amenity": "parking_space", "site": "parking", "type": "site"}}, {"type": "way", "id": 1245937713, "nodes": [11582845795, 11582845793, 11582845792, 11582845794, 11582845795], "tags": {"amenity": "parking_space", "site": "parking", "type": "site"}}, {"type": "way", "id": 1245937714, "nodes": [11582845796, 11582845795, 11582845794, 11582845797, 11582845796], "tags": {"amenity": "parking_space", "site": "parking", "type": "site"}}, {"type": "way", "id": 1245937715, "nodes": [11582845801, 11582845814, 11582845877, 11582845800, 11582845801], "tags": {"amenity": "parking_space", "site": "parking", "type": "site"}}, {"type": "way", "id": 1245937716, "nodes": [11582845803, 11582845801, 11582845800, 11582845802, 11582845803], "tags": {"amenity": "parking_space", "site": "parking", "type": "site"}}, {"type": "way", "id": 1245937717, "nodes": [11582845805, 11582845803, 11582845802, 11582845804, 11582845805], "tags": {"amenity": "parking_space", "site": "parking", "type": "site"}}, {"type": "way", "id": 1245937718, "nodes": [11582845807, 11582845805, 11582845804, 11582845806, 11582845807], "tags": {"amenity": "parking_space", "site": "parking", "type": "site"}}, {"type": "way", "id": 1245937719, "nodes": [11582845809, 11582845807, 11582845806, 11582845808, 11582845809], "tags": {"amenity": "parking_space", "site": "parking", "type": "site"}}, {"type": "way", "id": 1245937720, "nodes": [11582845811, 11582845809, 11582845808, 11582845810, 11582845811], "tags": {"amenity": "parking_space", "site": "parking", "type": "site"}}, {"type": "way", "id": 1245937721, "nodes": [11582845812, 11582845811, 11582845810, 11582845815, 11582845812], "tags": {"amenity": "parking_space", "site": "parking", "type": "site"}}, {"type": "way", "id": 1245937722, "nodes": [11582845815, 11582845877, 11582845814, 11582845813, 11582845797, 11582845796, 11582845798, 11582837257, 11582845815], "tags": {"amenity": "parking", "site": "parking", "type": "site"}}, {"type": "way", "id": 1245937723, "nodes": [11582845817, 11582845820, 11582845819, 11582845816, 11582845817], "tags": {"amenity": "parking_space", "site": "parking", "type": "site"}}, {"type": "way", "id": 1245937724, "nodes": [11582845877, 11582845817, 11582845816, 11582845818, 11582845877], "tags": {"amenity": "parking_space", "site": "parking", "type": "site"}}, {"type": "way", "id": 1245937725, "nodes": [11582845826, 11582845846, 11582845845, 11582845825, 11582845826], "tags": {"amenity": "parking_space", "site": "parking", "type": "site"}}, {"type": "way", "id": 1245937726, "nodes": [11582845828, 11582845826, 11582845825, 11582845827, 11582845828], "tags": {"amenity": "parking_space", "site": "parking", "type": "site"}}, {"type": "way", "id": 1245937727, "nodes": [11582845830, 11582845828, 11582845827, 11582845829, 11582845830], "tags": {"amenity": "parking_space", "site": "parking", "type": "site"}}, {"type": "way", "id": 1245937728, "nodes": [11582845832, 11582845830, 11582845829, 11582845831, 11582845832], "tags": {"amenity": "parking_space", "site": "parking", "type": "site"}}, {"type": "way", "id": 1245937729, "nodes": [11582845834, 11582845832, 11582845831, 11582845833, 11582845834], "tags": {"amenity": "parking_space", "site": "parking", "type": "site"}}, {"type": "way", "id": 1245937730, "nodes": [11582845836, 11582845834, 11582845833, 11582845835, 11582845836], "tags": {"amenity": "parking_space", "site": "parking", "type": "site"}}, {"type": "way", "id": 1245937731, "nodes": [11582845838, 11582845836, 11582845835, 11582845837, 11582845838], "tags": {"amenity": "parking_space", "site": "parking", "type": "site"}}, {"type": "way", "id": 1245937732, "nodes": [11582845840, 11582845838, 11582845837, 11582845839, 11582845840], "tags": {"amenity": "parking_space", "site": "parking", "type": "site"}}, {"type": "way", "id": 1245937733, "nodes": [11582845842, 11582845840, 11582845839, 11582845841, 11582845842], "tags": {"amenity": "parking_space", "site": "parking", "type": "site"}}, {"type": "way", "id": 1245937734, "nodes": [11582845843, 11582845842, 11582845841, 11582845844, 11582845843], "tags": {"amenity": "parking_space", "site": "parking", "type": "site"}}, {"type": "way", "id": 1245937735, "nodes": [11582845848, 11582845875, 11582845874, 11582845847, 11582845848], "tags": {"amenity": "parking_space", "site": "parking", "type": "site"}}, {"type": "way", "id": 1245937736, "nodes": [11582845850, 11582845848, 11582845847, 11582845849, 11582845850], "tags": {"amenity": "parking_space", "site": "parking", "type": "site"}}, {"type": "way", "id": 1245937737, "nodes": [11582845852, 11582845850, 11582845849, 11582845851, 11582845852], "tags": {"amenity": "parking_space", "site": "parking", "type": "site"}}, {"type": "way", "id": 1245937738, "nodes": [11582845854, 11582845852, 11582845851, 11582845853, 11582845854], "tags": {"amenity": "parking_space", "site": "parking", "type": "site"}}, {"type": "way", "id": 1245937739, "nodes": [11582845856, 11582845854, 11582845853, 11582845855, 11582845856], "tags": {"amenity": "parking_space", "site": "parking", "type": "site"}}, {"type": "way", "id": 1245937740, "nodes": [11582845858, 11582845856, 11582845855, 11582845857, 11582845858], "tags": {"amenity": "parking_space", "site": "parking", "type": "site"}}, {"type": "way", "id": 1245937741, "nodes": [11582845860, 11582845858, 11582845857, 11582845859, 11582845860], "tags": {"amenity": "parking_space", "site": "parking", "type": "site"}}, {"type": "way", "id": 1245937742, "nodes": [11582845862, 11582845860, 11582845859, 11582845861, 11582845862], "tags": {"amenity": "parking_space", "site": "parking", "type": "site"}}, {"type": "way", "id": 1245937743, "nodes": [11582845864, 11582845862, 11582845861, 11582845863, 11582845864], "tags": {"amenity": "parking_space", "site": "parking", "type": "site"}}, {"type": "way", "id": 1245937744, "nodes": [11582845866, 11582845864, 11582845863, 11582845865, 11582845866], "tags": {"amenity": "parking_space", "site": "parking", "type": "site"}}, {"type": "way", "id": 1245937745, "nodes": [11582845868, 11582845866, 11582845865, 11582845867, 11582845868], "tags": {"amenity": "parking_space", "site": "parking", "type": "site"}}, {"type": "way", "id": 1245937746, "nodes": [11582845870, 11582845868, 11582845867, 11582845869, 11582845870], "tags": {"amenity": "parking_space", "site": "parking", "type": "site"}}, {"type": "way", "id": 1245937747, "nodes": [11582845872, 11582845870, 11582845869, 11582845871, 11582845872], "tags": {"amenity": "parking_space", "site": "parking", "type": "site"}}, {"type": "way", "id": 1245937748, "nodes": [11582845873, 11582845872, 11582845871, 11582845908, 11582845873], "tags": {"amenity": "parking_space", "site": "parking", "type": "site"}}, {"type": "way", "id": 1245937749, "nodes": [11582845881, 11582845906, 11582845882, 11582845884, 11582845886, 11582845888, 11582845890, 11582845892, 11582845894, 11582845896, 11582845898, 11582845900, 11582845902, 11582845905, 11582845880, 11582845873, 11582845879, 11582845878, 11582845818, 11582845877, 11582845820, 11582845843, 11582845846, 11582845876, 11582845881], "tags": {"amenity": "parking", "site": "parking", "surface": "asphalt", "type": "site"}}, {"type": "way", "id": 1245937750, "nodes": [11582845883, 11582845907, 11582845906, 11582845882, 11582845883], "tags": {"amenity": "parking_space", "site": "parking", "type": "site"}}, {"type": "way", "id": 1245937751, "nodes": [11582845885, 11582845883, 11582845882, 11582845884, 11582845885], "tags": {"amenity": "parking_space", "site": "parking", "type": "site"}}, {"type": "way", "id": 1245937752, "nodes": [11582845887, 11582845885, 11582845884, 11582845886, 11582845887], "tags": {"amenity": "parking_space", "site": "parking", "type": "site"}}, {"type": "way", "id": 1245937753, "nodes": [11582845889, 11582845887, 11582845886, 11582845888, 11582845889], "tags": {"amenity": "parking_space", "site": "parking", "type": "site"}}, {"type": "way", "id": 1245937754, "nodes": [11582845891, 11582845889, 11582845888, 11582845890, 11582845891], "tags": {"amenity": "parking_space", "site": "parking", "type": "site"}}, {"type": "way", "id": 1245937755, "nodes": [11582845893, 11582845891, 11582845890, 11582845892, 11582845893], "tags": {"amenity": "parking_space", "site": "parking", "type": "site"}}, {"type": "way", "id": 1245937756, "nodes": [11582845895, 11582845893, 11582845892, 11582845894, 11582845895], "tags": {"amenity": "parking_space", "site": "parking", "type": "site"}}, {"type": "way", "id": 1245937757, "nodes": [11582845897, 11582845895, 11582845894, 11582845896, 11582845897], "tags": {"amenity": "parking_space", "site": "parking", "type": "site"}}, {"type": "way", "id": 1245937758, "nodes": [11582845899, 11582845897, 11582845896, 11582845898, 11582845899], "tags": {"amenity": "parking_space", "site": "parking", "type": "site"}}, {"type": "way", "id": 1245937759, "nodes": [11582845901, 11582845899, 11582845898, 11582845900, 11582845901], "tags": {"amenity": "parking_space", "site": "parking", "type": "site"}}, {"type": "way", "id": 1245937760, "nodes": [11582845903, 11582845901, 11582845900, 11582845902, 11582845903], "tags": {"amenity": "parking_space", "site": "parking", "type": "site"}}, {"type": "way", "id": 1245937761, "nodes": [11582845904, 11582845903, 11582845902, 11582845905, 11582845904], "tags": {"amenity": "parking_space", "site": "parking", "type": "site"}}, {"type": "way", "id": 1245937762, "nodes": [11582845909, 11582845936, 11582845935, 11582845908, 11582845909], "tags": {"amenity": "parking_space", "site": "parking", "type": "site"}}, {"type": "way", "id": 1245937763, "nodes": [11582845911, 11582845909, 11582845908, 11582845910, 11582845911], "tags": {"amenity": "parking_space", "site": "parking", "type": "site"}}, {"type": "way", "id": 1245937764, "nodes": [11582845913, 11582845911, 11582845910, 11582845912, 11582845913], "tags": {"amenity": "parking_space", "site": "parking", "type": "site"}}, {"type": "way", "id": 1245937765, "nodes": [11582845915, 11582845913, 11582845912, 11582845914, 11582845915], "tags": {"amenity": "parking_space", "site": "parking", "type": "site"}}, {"type": "way", "id": 1245937766, "nodes": [11582845917, 11582845915, 11582845914, 11582845916, 11582845917], "tags": {"amenity": "parking_space", "site": "parking", "type": "site"}}, {"type": "way", "id": 1245937767, "nodes": [11582845919, 11582845917, 11582845916, 11582845918, 11582845919], "tags": {"amenity": "parking_space", "site": "parking", "type": "site"}}, {"type": "way", "id": 1245937768, "nodes": [11582845921, 11582845919, 11582845918, 11582845920, 11582845921], "tags": {"amenity": "parking_space", "site": "parking", "type": "site"}}, {"type": "way", "id": 1245937769, "nodes": [11582845923, 11582845921, 11582845920, 11582845922, 11582845923], "tags": {"amenity": "parking_space", "site": "parking", "type": "site"}}, {"type": "way", "id": 1245937770, "nodes": [11582845925, 11582845923, 11582845922, 11582845924, 11582845925], "tags": {"amenity": "parking_space", "site": "parking", "type": "site"}}, {"type": "way", "id": 1245937771, "nodes": [11582845927, 11582845925, 11582845924, 11582845926, 11582845927], "tags": {"amenity": "parking_space", "site": "parking", "type": "site"}}, {"type": "way", "id": 1245937772, "nodes": [11582845929, 11582845927, 11582845926, 11582845928, 11582845929], "tags": {"amenity": "parking_space", "site": "parking", "type": "site"}}, {"type": "way", "id": 1245937773, "nodes": [11582845931, 11582845929, 11582845928, 11582845930, 11582845931], "tags": {"amenity": "parking_space", "site": "parking", "type": "site"}}, {"type": "way", "id": 1245937774, "nodes": [11582845933, 11582845931, 11582845930, 11582845932, 11582845933], "tags": {"amenity": "parking_space", "site": "parking", "type": "site"}}, {"type": "way", "id": 1245937775, "nodes": [11582845937, 11582845933, 11582845932, 11582845934, 11582845937], "tags": {"amenity": "parking_space", "site": "parking", "type": "site"}}, {"type": "way", "id": 1245937776, "nodes": [11582845939, 11582845942, 11582845941, 11582845938, 11582845939], "tags": {"amenity": "parking_space", "site": "parking", "type": "site"}}, {"type": "way", "id": 1245937777, "nodes": [11582845943, 11582845939, 11582845938, 11582845940, 11582845943], "tags": {"amenity": "parking_space", "site": "parking", "type": "site"}}, {"type": "way", "id": 1245937778, "nodes": [11582845947, 11582845946, 11582845945, 11582845944, 11582845947], "tags": {"amenity": "parking_space", "parking_space": "disabled", "site": "parking", "type": "site"}}, {"type": "way", "id": 1245937779, "nodes": [11582845949, 11582845956, 11582845955, 11582845948, 11582845949], "tags": {"amenity": "parking_space", "site": "parking", "type": "site"}}, {"type": "way", "id": 1245937780, "nodes": [11582845951, 11582845949, 11582845948, 11582845950, 11582845951], "tags": {"amenity": "parking_space", "site": "parking", "type": "site"}}, {"type": "way", "id": 1245937781, "nodes": [11582845953, 11582845951, 11582845950, 11582845952, 11582845953], "tags": {"amenity": "parking_space", "site": "parking", "type": "site"}}, {"type": "way", "id": 1245937782, "nodes": [11582845957, 11582845953, 11582845952, 11582845954, 11582845957], "tags": {"amenity": "parking_space", "site": "parking", "type": "site"}}, {"type": "way", "id": 1245937783, "nodes": [11582845959, 11582845963, 11582845961, 11582845958, 11582845959], "tags": {"amenity": "parking_space", "site": "parking", "type": "site"}}, {"type": "way", "id": 1245937784, "nodes": [11582845960, 11582845959, 11582845958, 11582845962, 11582845960], "tags": {"amenity": "parking_space", "site": "parking", "type": "site"}}, {"type": "way", "id": 1245937785, "nodes": [11582845965, 11582845972, 11582845971, 11582845964, 11582845965], "tags": {"amenity": "parking_space", "site": "parking", "type": "site"}}, {"type": "way", "id": 1245937786, "nodes": [11582845967, 11582845965, 11582845964, 11582845966, 11582845967], "tags": {"amenity": "parking_space", "site": "parking", "type": "site"}}, {"type": "way", "id": 1245937787, "nodes": [11582845969, 11582845967, 11582845966, 11582845968, 11582845969], "tags": {"amenity": "parking_space", "site": "parking", "type": "site"}}, {"type": "way", "id": 1245937788, "nodes": [11582845970, 11582845969, 11582845968, 11582845973, 11582845970], "tags": {"amenity": "parking_space", "site": "parking", "type": "site"}}, {"type": "way", "id": 1245937789, "nodes": [11582845985, 11582845970, 11582845973, 11582845984, 11582845983, 11582845982, 11582845963, 11582845976, 11582845975, 11582845974, 11582845981, 11582845980, 11582845943, 11582845942, 11582845979, 11582845946, 11582845947, 11582845956, 11582845949, 11582845951, 11582845953, 11582845957, 11582845972, 11582845969, 11582845977, 11582845985], "tags": {"amenity": "parking", "parking": "surface", "site": "parking", "surface": "asphalt", "type": "site"}}, {"type": "way", "id": 1383074445, "nodes": [12805077529, 12805077528, 12805077527, 12805077526, 12805077525, 12805077524, 12805077523, 12805077522, 12805077521, 12805077520, 12805077519, 12805077518, 12805077517, 12805077516, 12805077515, 12805077514, 12805077513, 12805077512, 12805077511, 12805077510, 12805077509, 12805077508, 12805077507, 12805077506, 12805077505, 12805077504, 12805077503, 12805077502, 12805077501, 12805077529], "tags": {"amenity": "parking", "parking": "surface"}}, {"type": "relation", "id": 13434622, "members": [{"type": "way", "ref": 1001930478, "role": "outer"}, {"type": "way", "ref": 1001930479, "role": "inner"}], "tags": {"amenity": "place_of_worship", "building": "church", "denomination": "methodist", "name": "First United Methodist Church", "religion": "christian", "type": "multipolygon"}}, {"type": "relation", "id": 13448133, "members": [{"type": "way", "ref": 431971502, "role": "outer"}, {"type": "way", "ref": 1003363612, "role": "inner"}], "tags": {"amenity": "college", "ele": "56", "gnis:feature_id": "1514507", "name": "Centralia College", "note": "I've traced the outline as well as posible, but it is based on a site survey that only took into account school related signage, and not acctual ownership.", "type": "multipolygon", "wikidata": "Q5062174", "wikipedia": "en:Centralia College"}}]}