{"version": 0.6, "generator": "Overpass API 0.7.62.8 e802775f", "osm3s": {"timestamp_osm_base": "2025-11-09T01:07:08Z", "copyright": "The data included in this document is from www.openstreetmap.org. The data is made available under ODbL."}, "elements": [{"type": "node", "id": 105124074, "lat": 40.98876, "lon": -74.2620976}, {"type": "node", "id": 475251820, "lat": 40.9951621, "lon": -74.2629091}, {"type": "node", "id": 475251930, "lat": 40.9891795, "lon": -74.2627778}, {"type": "node", "id": 475251931, "lat": 40.9895711, "lon": -74.2620857}, {"type": "node", "id": 475251934, "lat": 40.9889567, "lon": -74.2628054}, {"type": "node", "id": 475251935, "lat": 40.9886917, "lon": -74.2608749}, {"type": "node", "id": 475251940, "lat": 40.9893455, "lon": -74.2615119}, {"type": "node", "id": 475251941, "lat": 40.9887876, "lon": -74.260963}, {"type": "node", "id": 475251961, "lat": 40.9890719, "lon": -74.2661462}, {"type": "node", "id": 475251962, "lat": 40.9897847, "lon": -74.2662268}, {"type": "node", "id": 475251964, "lat": 40.9880828, "lon": -74.2664293}, {"type": "node", "id": 475251965, "lat": 40.9887075, "lon": -74.2663239}, {"type": "node", "id": 475251968, "lat": 40.9877374, "lon": -74.2664958}, {"type": "node", "id": 475251983, "lat": 40.9852783, "lon": -74.2654199}, {"type": "node", "id": 475251984, "lat": 40.9849963, "lon": -74.2650687}, {"type": "node", "id": 475251985, "lat": 40.9849907, "lon": -74.264725}, {"type": "node", "id": 475251986, "lat": 40.9846244, "lon": -74.2646325}, {"type": "node", "id": 475251987, "lat": 40.984499, "lon": -74.2654627}, {"type": "node", "id": 475251991, "lat": 40.9842661, "lon": -74.266998}, {"type": "node", "id": 475251992, "lat": 40.9849295, "lon": -74.2671422}, {"type": "node", "id": 475251994, "lat": 40.9856292, "lon": -74.2674512}, {"type": "node", "id": 475251995, "lat": 40.9859971, "lon": -74.2677052}, {"type": "node", "id": 475251996, "lat": 40.9868627, "lon": -74.2685703}, {"type": "node", "id": 475251997, "lat": 40.9878708, "lon": -74.2688961}, {"type": "node", "id": 475251998, "lat": 40.9887808, "lon": -74.2692902}, {"type": "node", "id": 475252000, "lat": 40.9888428, "lon": -74.2687074}, {"type": "node", "id": 475252001, "lat": 40.9892207, "lon": -74.2679527}, {"type": "node", "id": 475252002, "lat": 40.9907265, "lon": -74.2666377}, {"type": "node", "id": 475252003, "lat": 40.9902359, "lon": -74.2662791}, {"type": "node", "id": 475252021, "lat": 40.986553, "lon": -74.2659728}, {"type": "node", "id": 475252022, "lat": 40.9872524, "lon": -74.2660998}, {"type": "node", "id": 475252023, "lat": 40.987258, "lon": -74.2664061}, {"type": "node", "id": 475252026, "lat": 40.9874723, "lon": -74.2663912}, {"type": "node", "id": 475252800, "lat": 40.9994992, "lon": -74.2749169}, {"type": "node", "id": 475252802, "lat": 40.9999704, "lon": -74.2740179}, {"type": "node", "id": 475252803, "lat": 40.9999731, "lon": -74.2749357}, {"type": "node", "id": 475252804, "lat": 41.0003333, "lon": -74.2739244}, {"type": "node", "id": 475252805, "lat": 41.0000914, "lon": -74.2739979}, {"type": "node", "id": 475252806, "lat": 41.001409, "lon": -74.2738035}, {"type": "node", "id": 475252807, "lat": 41.0007113, "lon": -74.2738777}, {"type": "node", "id": 475252831, "lat": 41.0017747, "lon": -74.2745321}, {"type": "node", "id": 475252832, "lat": 41.0019378, "lon": -74.2749962}, {"type": "node", "id": 475252833, "lat": 41.0015223, "lon": -74.2754353}, {"type": "node", "id": 475252835, "lat": 41.0009844, "lon": -74.2762926}, {"type": "node", "id": 475252837, "lat": 40.9994869, "lon": -74.2757849}, {"type": "node", "id": 2679586846, "lat": 40.9858706, "lon": -74.2655917}, {"type": "node", "id": 2679586847, "lat": 40.9893673, "lon": -74.2659952}, {"type": "node", "id": 2681192819, "lat": 40.9893091, "lon": -74.2625871}, {"type": "node", "id": 2681192820, "lat": 40.9894165, "lon": -74.262346}, {"type": "node", "id": 2681192831, "lat": 40.9895486, "lon": -74.2621235}, {"type": "node", "id": 2681192833, "lat": 40.9884674, "lon": -74.2617415}, {"type": "node", "id": 2681192835, "lat": 40.9887492, "lon": -74.261924}, {"type": "node", "id": 2681192837, "lat": 40.9888725, "lon": -74.2615898}, {"type": "node", "id": 2681192839, "lat": 40.9885907, "lon": -74.2614073}, {"type": "node", "id": 2681192841, "lat": 40.9889884, "lon": -74.2612071}, {"type": "node", "id": 2681192843, "lat": 40.9888729, "lon": -74.2614006}, {"type": "node", "id": 2681192845, "lat": 40.9886021, "lon": -74.2611168}, {"type": "node", "id": 2681192847, "lat": 40.9887176, "lon": -74.2609234}, {"type": "node", "id": 2681192960, "lat": 40.9883447, "lon": -74.2617361}, {"type": "node", "id": 2681192964, "lat": 40.9887414, "lon": -74.2622182}, {"type": "node", "id": 2681192966, "lat": 40.9887013, "lon": -74.2622496}, {"type": "node", "id": 2681192968, "lat": 41.0015948, "lon": -74.2737354}, {"type": "node", "id": 2681192971, "lat": 41.0015661, "lon": -74.2760497}, {"type": "node", "id": 2681192974, "lat": 41.0015983, "lon": -74.2752333}, {"type": "node", "id": 2773817349, "lat": 40.9889197, "lon": -74.2626811}, {"type": "node", "id": 2782200357, "lat": 40.9886936, "lon": -74.2693}, {"type": "node", "id": 2782226263, "lat": 40.9888334, "lon": -74.2692148}, {"type": "node", "id": 2782226267, "lat": 40.9865621, "lon": -74.2683094}, {"type": "node", "id": 2782226585, "lat": 41.0004936, "lon": -74.2763667}, {"type": "node", "id": 2866477173, "lat": 40.9887036, "lon": -74.2608648}, {"type": "node", "id": 2866477175, "lat": 40.988746, "lon": -74.2608929}, {"type": "node", "id": 2866477176, "lat": 40.9887819, "lon": -74.2609232}, {"type": "node", "id": 2866477178, "lat": 40.9888244, "lon": -74.2609513}, {"type": "node", "id": 2866477179, "lat": 40.9888489, "lon": -74.2610054}, {"type": "node", "id": 2866477180, "lat": 40.9888946, "lon": -74.2610486}, {"type": "node", "id": 2866477182, "lat": 40.9889583, "lon": -74.2610789}, {"type": "node", "id": 2866477183, "lat": 40.9890007, "lon": -74.2611719}, {"type": "node", "id": 5263997603, "lat": 40.9950811, "lon": -74.2563417}, {"type": "node", "id": 5263997604, "lat": 40.9953708, "lon": -74.2570458}, {"type": "node", "id": 5263997605, "lat": 40.9960204, "lon": -74.2565705}, {"type": "node", "id": 5263997606, "lat": 40.9957728, "lon": -74.2559027}, {"type": "node", "id": 5657093241, "lat": 40.9955502, "lon": -74.2624111}, {"type": "node", "id": 5657093242, "lat": 40.9955073, "lon": -74.2623914}, {"type": "node", "id": 5657093243, "lat": 40.9954519, "lon": -74.2623553}, {"type": "node", "id": 5657093244, "lat": 40.9953849, "lon": -74.2623104}, {"type": "node", "id": 5657093245, "lat": 40.995144, "lon": -74.2628901}, {"type": "node", "id": 5657093246, "lat": 40.9953889, "lon": -74.2629793}, {"type": "node", "id": 8837940487, "lat": 41.0002836, "lon": -74.2553327}, {"type": "node", "id": 8837940488, "lat": 41.0002436, "lon": -74.2552252}, {"type": "node", "id": 8837940489, "lat": 41.0000834, "lon": -74.2553301}, {"type": "node", "id": 8837940490, "lat": 41.0001234, "lon": -74.2554375}, {"type": "node", "id": 8837940495, "lat": 41.0015654, "lon": -74.2582804}, {"type": "node", "id": 8837940496, "lat": 41.0017557, "lon": -74.2581211}, {"type": "node", "id": 8837940497, "lat": 41.0016824, "lon": -74.2579673}, {"type": "node", "id": 8837940498, "lat": 41.001522, "lon": -74.2581014}, {"type": "node", "id": 8837940499, "lat": 41.0015307, "lon": -74.2581196}, {"type": "node", "id": 8837940500, "lat": 41.0015007, "lon": -74.2581446}, {"type": "node", "id": 8837940501, "lat": 41.0014991, "lon": -74.2590721}, {"type": "node", "id": 8837940502, "lat": 41.001515, "lon": -74.2588583}, {"type": "node", "id": 8837940503, "lat": 41.0012369, "lon": -74.2588219}, {"type": "node", "id": 8837940504, "lat": 41.0012209, "lon": -74.2590357}, {"type": "node", "id": 8843590061, "lat": 41.0107321, "lon": -74.2632747}, {"type": "node", "id": 8843590062, "lat": 41.0106932, "lon": -74.2632119}, {"type": "node", "id": 8843590063, "lat": 41.0106062, "lon": -74.2633065}, {"type": "node", "id": 8843590064, "lat": 41.0106451, "lon": -74.2633693}, {"type": "node", "id": 8844281549, "lat": 41.0091712, "lon": -74.2707452}, {"type": "node", "id": 8844281550, "lat": 41.0092336, "lon": -74.2708681}, {"type": "node", "id": 8844281551, "lat": 41.0091454, "lon": -74.2709467}, {"type": "node", "id": 8844281552, "lat": 41.009083, "lon": -74.2708239}, {"type": "node", "id": 8844281553, "lat": 41.0085222, "lon": -74.2713838}, {"type": "node", "id": 8844281554, "lat": 41.0086057, "lon": -74.2713095}, {"type": "node", "id": 8844281555, "lat": 41.0085657, "lon": -74.2712306}, {"type": "node", "id": 8844281556, "lat": 41.0084822, "lon": -74.2713049}, {"type": "node", "id": 8844281557, "lat": 41.0083317, "lon": -74.2719636}, {"type": "node", "id": 8844281558, "lat": 41.0082579, "lon": -74.2718638}, {"type": "node", "id": 8844281559, "lat": 41.0082092, "lon": -74.271927}, {"type": "node", "id": 8844281560, "lat": 41.0082229, "lon": -74.2719456}, {"type": "node", "id": 8844281561, "lat": 41.0082032, "lon": -74.2719711}, {"type": "node", "id": 8844281562, "lat": 41.0081931, "lon": -74.2719575}, {"type": "node", "id": 8844281563, "lat": 41.0081759, "lon": -74.2719799}, {"type": "node", "id": 8844281564, "lat": 41.008246, "lon": -74.2720748}, {"type": "node", "id": 8849388967, "lat": 40.9993952, "lon": -74.2590499}, {"type": "node", "id": 8849388968, "lat": 40.9994236, "lon": -74.2589827}, {"type": "node", "id": 8849388969, "lat": 40.9993219, "lon": -74.2589074}, {"type": "node", "id": 8849388970, "lat": 40.9992936, "lon": -74.2589746}, {"type": "node", "id": 8849388975, "lat": 41.0004186, "lon": -74.2593537}, {"type": "node", "id": 8849388976, "lat": 41.0004258, "lon": -74.2591453}, {"type": "node", "id": 8849388977, "lat": 41.0003341, "lon": -74.2591396}, {"type": "node", "id": 8849388978, "lat": 41.0003268, "lon": -74.259348}, {"type": "node", "id": 8851701198, "lat": 41.0072107, "lon": -74.2669146}, {"type": "node", "id": 8851701199, "lat": 41.0072345, "lon": -74.2667888}, {"type": "node", "id": 8851701200, "lat": 41.0070472, "lon": -74.2667266}, {"type": "node", "id": 8851701201, "lat": 41.0070234, "lon": -74.2668523}, {"type": "node", "id": 8851701211, "lat": 41.0022224, "lon": -74.2706023}, {"type": "node", "id": 8851701212, "lat": 41.0021645, "lon": -74.270479}, {"type": "node", "id": 8851701213, "lat": 41.0020261, "lon": -74.2705932}, {"type": "node", "id": 8851701214, "lat": 41.0020841, "lon": -74.2707165}, {"type": "node", "id": 8851701215, "lat": 41.0000755, "lon": -74.2700998}, {"type": "node", "id": 8851701216, "lat": 41.0001011, "lon": -74.269977}, {"type": "node", "id": 8851717317, "lat": 41.0000232, "lon": -74.2699484}, {"type": "node", "id": 8851717318, "lat": 41.0000134, "lon": -74.2699951}, {"type": "node", "id": 8851717319, "lat": 40.9999821, "lon": -74.2699836}, {"type": "node", "id": 8851717320, "lat": 40.9999662, "lon": -74.2700597}, {"type": "node", "id": 8851717321, "lat": 41.002647, "lon": -74.2711243}, {"type": "node", "id": 8851717322, "lat": 41.0027307, "lon": -74.2710296}, {"type": "node", "id": 8851717323, "lat": 41.002579, "lon": -74.2707937}, {"type": "node", "id": 8851717324, "lat": 41.0024952, "lon": -74.2708884}, {"type": "node", "id": 8851717339, "lat": 41.0030822, "lon": -74.2704383}, {"type": "node", "id": 8851717340, "lat": 41.003022, "lon": -74.2702657}, {"type": "node", "id": 8851717341, "lat": 41.0029537, "lon": -74.2703076}, {"type": "node", "id": 8851717342, "lat": 41.0030139, "lon": -74.2704801}, {"type": "node", "id": 8851717343, "lat": 41.0037763, "lon": -74.2698554}, {"type": "node", "id": 8851717344, "lat": 41.0038503, "lon": -74.2697909}, {"type": "node", "id": 8851717345, "lat": 41.0038055, "lon": -74.2697007}, {"type": "node", "id": 8851717346, "lat": 41.0038342, "lon": -74.2696756}, {"type": "node", "id": 8851717347, "lat": 41.0037777, "lon": -74.2695619}, {"type": "node", "id": 8851717348, "lat": 41.003675, "lon": -74.2696515}, {"type": "node", "id": 8873506022, "lat": 40.9886556, "lon": -74.2595514}, {"type": "node", "id": 8873506023, "lat": 40.9886644, "lon": -74.2594785}, {"type": "node", "id": 8873506024, "lat": 40.9885601, "lon": -74.2594565}, {"type": "node", "id": 8873506025, "lat": 40.9885513, "lon": -74.2595293}, {"type": "node", "id": 11339533726, "lat": 40.9846129, "lon": -74.2647086}, {"type": "node", "id": 11390983947, "lat": 40.9959831, "lon": -74.2564698}, {"type": "way", "id": 39648641, "nodes": [475252026, 475252023, 475252022, 475252021, 2679586846, 475251983, 475251984, 475251985, 475251986, 11339533726, 475251987, 475251991, 475251992, 475251994, 475251995, 2782226267, 475251996, 475251997, 2782200357, 475251998, 2782226263, 475252000, 475252001, 475252002, 475252003, 475251962, 2679586847, 475251961, 475251965, 475251964, 475251968, 475252026], "tags": {"addr:city": "Wayne", "addr:housenumber": "725", "addr:postcode": "07470", "addr:state": "NJ", "addr:street": "Pines Lake Drive West", "leisure": "park", "name": "Laurelwood Arboretum", "source": "NJ2002LULC"}}, {"type": "way", "id": 39648661, "nodes": [475252837, 2782226585, 475252835, 2681192971, 475252833, 2681192974, 475252832, 475252831, 2681192968, 475252806, 475252807, 475252804, 475252805, 475252802, 475252803, 475252800, 475252837], "tags": {"addr:city": "Wayne", "addr:housenumber": "333", "addr:postcode": "07470", "addr:state": "NJ", "addr:street": "Terhune Drive", "leisure": "park", "name": "Terhune Memorial Park at Sunnybank", "source": "NJ2002LULC"}}, {"type": "way", "id": 262456116, "nodes": [2681192833, 2681192835, 2681192837, 2681192839, 2681192833], "tags": {"leisure": "pitch", "name": "Tennis Courts", "sport": "tennis"}}, {"type": "way", "id": 262456117, "nodes": [2681192841, 2681192843, 2681192845, 2681192847, 2681192841], "tags": {"leisure": "pitch", "name": "Basketball Courts", "sport": "basketball"}}, {"type": "way", "id": 262456127, "nodes": [475251935, 2681192960, 105124074, 2681192964, 2681192966, 2773817349, 475251934, 475251930, 2681192819, 2681192820, 2681192831, 475251931, 475251940, 2866477183, 2866477182, 2866477180, 2866477179, 2866477178, 475251941, 2866477176, 2866477175, 2866477173, 475251935], "tags": {"addr:city": "Wayne", "addr:housenumber": "27", "addr:postcode": "07470", "addr:state": "NJ", "addr:street": "Balsam Road", "leisure": "park", "name": "South Beach", "operator": "Pines Lake Association"}}, {"type": "way", "id": 544572250, "nodes": [5263997604, 5263997603, 5263997606, 11390983947, 5263997605, 5263997604], "tags": {"addr:city": "Wayne", "addr:postcode": "07470", "addr:state": "NJ", "addr:street": "Indian Road", "ele": "146", "gnis:feature_id": "2053648", "leisure": "park", "name": "Lieutenant Carey A Arthur Memorial Park", "wikidata": "Q34842630"}}, {"type": "way", "id": 592840385, "nodes": [5657093241, 5657093242, 5657093243, 5657093244, 5657093245, 475251820, 5657093246, 5657093241], "tags": {"addr:city": "Wayne", "addr:housenumber": "146", "addr:postcode": "07470", "addr:state": "NJ", "addr:street": "Pines Lake Drive East", "leisure": "park", "name": "Pancake Hollow"}}, {"type": "way", "id": 954846689, "nodes": [8837940487, 8837940488, 8837940489, 8837940490, 8837940487], "tags": {"access": "private", "addr:city": "Wayne", "addr:housenumber": "13", "addr:postcode": "07470", "addr:state": "NJ", "addr:street": "Montauk Trail", "leisure": "sports_centre", "sport": "swimming"}}, {"type": "way", "id": 954846691, "nodes": [8837940495, 8837940496, 8837940497, 8837940498, 8837940499, 8837940500, 8837940495], "tags": {"access": "private", "addr:city": "Wayne", "addr:housenumber": "21", "addr:postcode": "07470", "addr:state": "NJ", "addr:street": "Shoshone Trail", "leisure": "sports_centre", "sport": "swimming"}}, {"type": "way", "id": 954846692, "nodes": [8837940501, 8837940502, 8837940503, 8837940504, 8837940501], "tags": {"access": "private", "addr:city": "Wayne", "addr:housenumber": "19", "addr:postcode": "07470", "addr:state": "NJ", "addr:street": "Shoshone Trail", "leisure": "pitch", "sport": "tennis"}}, {"type": "way", "id": 955525066, "nodes": [8843590061, 8843590062, 8843590063, 8843590064, 8843590061], "tags": {"access": "private", "addr:city": "Wayne", "addr:housenumber": "12", "addr:postcode": "07470", "addr:state": "NJ", "addr:street": "Starview Court", "leisure": "sports_centre", "sport": "swimming"}}, {"type": "way", "id": 955616220, "nodes": [8844281549, 8844281550, 8844281551, 8844281552, 8844281549], "tags": {"access": "private", "addr:city": "Wayne", "addr:housenumber": "15", "addr:postcode": "07470", "addr:state": "NJ", "addr:street": "Noreen Lane", "leisure": "sports_centre", "sport": "swimming"}}, {"type": "way", "id": 955616221, "nodes": [8844281553, 8844281554, 8844281555, 8844281556, 8844281553], "tags": {"access": "private", "addr:city": "Wayne", "addr:housenumber": "581", "addr:postcode": "07470", "addr:state": "NJ", "addr:street": "Terhune Drive", "leisure": "sports_centre", "sport": "swimming"}}, {"type": "way", "id": 955616222, "nodes": [8844281557, 8844281558, 8844281559, 8844281560, 8844281561, 8844281562, 8844281563, 8844281564, 8844281557], "tags": {"access": "private", "addr:city": "Wayne", "addr:housenumber": "563", "addr:postcode": "07470", "addr:state": "NJ", "addr:street": "Terhune Drive", "leisure": "sports_centre", "sport": "swimming"}}, {"type": "way", "id": 956173363, "nodes": [8849388967, 8849388968, 8849388969, 8849388970, 8849388967], "tags": {"access": "private", "addr:city": "Wayne", "addr:housenumber": "107", "addr:postcode": "07470", "addr:state": "NJ", "addr:street": "Cheyenne Way", "leisure": "pitch", "sport": "beachvolleyball", "surface": "sand"}}, {"type": "way", "id": 956173365, "nodes": [8849388975, 8849388976, 8849388977, 8849388978, 8849388975], "tags": {"access": "private", "addr:city": "Wayne", "addr:housenumber": "18", "addr:postcode": "07470", "addr:state": "NJ", "addr:street": "Shoshone Trail", "leisure": "sports_centre", "sport": "swimming"}}, {"type": "way", "id": 956447606, "nodes": [8851701198, 8851701199, 8851701200, 8851701201, 8851701198], "tags": {"access": "private", "addr:city": "Wayne", "addr:housenumber": "687", "addr:postcode": "07470", "addr:state": "NJ", "addr:street": "Indian Road", "leisure": "sports_centre", "sport": "swimming"}}, {"type": "way", "id": 956447609, "nodes": [8851701211, 8851701212, 8851701213, 8851701214, 8851701211], "tags": {"access": "private", "addr:city": "Wayne", "addr:housenumber": "1123", "addr:postcode": "07470", "addr:state": "NJ", "addr:street": "Pines Lake Drive West", "leisure": "pitch", "sport": "basketball"}}, {"type": "way", "id": 956447610, "nodes": [8851701215, 8851701216, 8851717317, 8851717318, 8851717319, 8851717320, 8851701215], "tags": {"access": "private", "addr:city": "Wayne", "addr:housenumber": "1065", "addr:postcode": "07470", "addr:state": "NJ", "addr:street": "Pines Lake Drive West", "leisure": "sports_centre", "sport": "swimming"}}, {"type": "way", "id": 956447611, "nodes": [8851717321, 8851717322, 8851717323, 8851717324, 8851717321], "tags": {"access": "private", "addr:city": "Wayne", "addr:housenumber": "32", "addr:postcode": "07470", "addr:state": "NJ", "addr:street": "Bodie Road", "leisure": "pitch", "sport": "tennis"}}, {"type": "way", "id": 956447615, "nodes": [8851717339, 8851717340, 8851717341, 8851717342, 8851717339], "tags": {"access": "private", "addr:city": "Wayne", "addr:housenumber": "171", "addr:postcode": "07470", "addr:state": "NJ", "addr:street": "Alder Avenue", "leisure": "sports_centre", "sport": "swimming"}}, {"type": "way", "id": 956447616, "nodes": [8851717343, 8851717344, 8851717345, 8851717346, 8851717347, 8851717348, 8851717343], "tags": {"access": "private", "addr:city": "Wayne", "addr:housenumber": "46", "addr:postcode": "07470", "addr:state": "NJ", "addr:street": "Basswood Terrace", "leisure": "sports_centre", "sport": "swimming"}}, {"type": "way", "id": 958975551, "nodes": [8873506022, 8873506023, 8873506024, 8873506025, 8873506022], "tags": {"access": "private", "addr:city": "Wayne", "addr:housenumber": "361", "addr:postcode": "07470", "addr:state": "NJ", "addr:street": "Pines Lake Drive East", "leisure": "sports_centre", "sport": "swimming"}}]}