{"version": 0.6, "generator": "Overpass API 0.7.62.8 e802775f", "osm3s": {"timestamp_osm_base": "2025-12-06T05:26:00Z", "copyright": "The data included in this document is from www.openstreetmap.org. The data is made available under ODbL."}, "elements": [{"type": "node", "id": 4583240517, "lat": 43.6394576, "lon": -116.438852}, {"type": "node", "id": 4583240518, "lat": 43.6391149, "lon": -116.4383767}, {"type": "node", "id": 4583240519, "lat": 43.6380969, "lon": -116.4358886}, {"type": "node", "id": 4583240520, "lat": 43.6379969, "lon": -116.4350105}, {"type": "node", "id": 4583240521, "lat": 43.6378262, "lon": -116.4344169}, {"type": "node", "id": 4583240522, "lat": 43.6374496, "lon": -116.4338803}, {"type": "node", "id": 4583240523, "lat": 43.6393845, "lon": -116.4338658}, {"type": "node", "id": 5315596663, "lat": 43.6503605, "lon": -116.4357793}, {"type": "node", "id": 5319310731, "lat": 43.6508782, "lon": -116.41347}, {"type": "node", "id": 5319310732, "lat": 43.6509187, "lon": -116.413416}, {"type": "node", "id": 5319310733, "lat": 43.6508862, "lon": -116.4133695}, {"type": "node", "id": 5319310734, "lat": 43.6508457, "lon": -116.4134234}, {"type": "node", "id": 5319310735, "lat": 43.6508375, "lon": -116.4134117}, {"type": "node", "id": 5319310736, "lat": 43.6508088, "lon": -116.41345}, {"type": "node", "id": 5319310737, "lat": 43.6508579, "lon": -116.4135203}, {"type": "node", "id": 5319327045, "lat": 43.6487661, "lon": -116.4113983, "tags": {"name": "Christian Brothers Automotive", "shop": "car_repair"}}, {"type": "node", "id": 5319327046, "lat": 43.6489704, "lon": -116.4113247}, {"type": "node", "id": 5319327047, "lat": 43.6485164, "lon": -116.4113356}, {"type": "node", "id": 5319327048, "lat": 43.6485203, "lon": -116.4114747}, {"type": "node", "id": 5319327049, "lat": 43.6489674, "lon": -116.4114706}, {"type": "node", "id": 6357458823, "lat": 43.6518001, "lon": -116.4131885, "tags": {"name": "Idaho Self Storage", "shop": "storage_rental"}}, {"type": "node", "id": 6401004794, "lat": 43.6495561, "lon": -116.4370045}, {"type": "node", "id": 6401004795, "lat": 43.6499129, "lon": -116.4370018}, {"type": "node", "id": 6401004796, "lat": 43.6499133, "lon": -116.4371021}, {"type": "node", "id": 6401004797, "lat": 43.6499137, "lon": -116.4372069}, {"type": "node", "id": 6401004798, "lat": 43.6502397, "lon": -116.4372044}, {"type": "node", "id": 6401004799, "lat": 43.6502388, "lon": -116.4369942}, {"type": "node", "id": 6401004800, "lat": 43.6506588, "lon": -116.4369909}, {"type": "node", "id": 6401004801, "lat": 43.6506582, "lon": -116.4368498}, {"type": "node", "id": 6401004802, "lat": 43.6508441, "lon": -116.4368483}, {"type": "node", "id": 6401004803, "lat": 43.6508445, "lon": -116.4369561}, {"type": "node", "id": 6401004804, "lat": 43.6509731, "lon": -116.4369551}, {"type": "node", "id": 6401004805, "lat": 43.6509723, "lon": -116.4367557}, {"type": "node", "id": 6401004806, "lat": 43.6509546, "lon": -116.4367559}, {"type": "node", "id": 6401004807, "lat": 43.6509539, "lon": -116.4365674}, {"type": "node", "id": 6401004808, "lat": 43.6508496, "lon": -116.4365682}, {"type": "node", "id": 6401004809, "lat": 43.6508486, "lon": -116.4363034}, {"type": "node", "id": 6401004810, "lat": 43.6509796, "lon": -116.4363024}, {"type": "node", "id": 6401004811, "lat": 43.6509784, "lon": -116.4360102}, {"type": "node", "id": 6401004812, "lat": 43.650846, "lon": -116.4360112}, {"type": "node", "id": 6401004813, "lat": 43.6508453, "lon": -116.4358405}, {"type": "node", "id": 6401004814, "lat": 43.6505876, "lon": -116.4358425}, {"type": "node", "id": 6401004815, "lat": 43.6505875, "lon": -116.4358057}, {"type": "node", "id": 6401004816, "lat": 43.6505583, "lon": -116.4358059}, {"type": "node", "id": 6401004817, "lat": 43.6505581, "lon": -116.4357385}, {"type": "node", "id": 6401004818, "lat": 43.6504713, "lon": -116.4357392}, {"type": "node", "id": 6401004819, "lat": 43.6504712, "lon": -116.4357291}, {"type": "node", "id": 6401004820, "lat": 43.6504211, "lon": -116.4357295}, {"type": "node", "id": 6401004821, "lat": 43.6503603, "lon": -116.4357299}, {"type": "node", "id": 6401004822, "lat": 43.6499208, "lon": -116.4357827}, {"type": "node", "id": 6401004823, "lat": 43.6499206, "lon": -116.4357369}, {"type": "node", "id": 6401004824, "lat": 43.6498691, "lon": -116.4357373}, {"type": "node", "id": 6401004825, "lat": 43.6498121, "lon": -116.4357378}, {"type": "node", "id": 6401004826, "lat": 43.6498121, "lon": -116.4357491}, {"type": "node", "id": 6401004827, "lat": 43.6497059, "lon": -116.4357499}, {"type": "node", "id": 6401004828, "lat": 43.6497063, "lon": -116.4358554}, {"type": "node", "id": 6593378390, "lat": 43.6489004, "lon": -116.434726, "tags": {"addr:city": "Meridian", "addr:housenumber": "4865", "addr:postcode": "83646", "addr:state": "ID", "addr:street": "North Ten Mile Road", "addr:unit": "120", "brand": "Supercuts", "brand:wikidata": "Q7643239", "name": "Supercuts", "shop": "hairdresser"}}, {"type": "node", "id": 6593378424, "lat": 43.6615815, "lon": -116.416053}, {"type": "node", "id": 6593378425, "lat": 43.662318, "lon": -116.415854}, {"type": "node", "id": 6593378426, "lat": 43.6623194, "lon": -116.4151742, "tags": {"addr:city": "Meridian", "addr:housenumber": "1735", "addr:postcode": "83646", "addr:state": "ID", "addr:street": "West Chinden Boulevard", "addr:unit": "100", "name": "Vapor Loft", "shop": "e-cigarette"}}, {"type": "node", "id": 6593378588, "lat": 43.6485607, "lon": -116.428635}, {"type": "node", "id": 6593378616, "lat": 43.6633075, "lon": -116.4082945, "tags": {"addr:city": "Eagle", "addr:housenumber": "4363", "addr:postcode": "83616", "addr:state": "ID", "addr:street": "West Gray Fox Street", "addr:unit": "115", "amenity": "restaurant", "brand": "Blaze Pizza", "brand:wikidata": "Q23016666", "cuisine": "pizza", "name": "Blaze Pizza", "wheelchair": "yes"}}, {"type": "node", "id": 6981742773, "lat": 43.6491542, "lon": -116.4339705}, {"type": "node", "id": 6981742781, "lat": 43.6490686, "lon": -116.4339706}, {"type": "node", "id": 6981742782, "lat": 43.6490689, "lon": -116.43428}, {"type": "node", "id": 8067471062, "lat": 43.6632982, "lon": -116.408161, "tags": {"addr:city": "Eagle", "addr:housenumber": "4363", "addr:postcode": "83616", "addr:state": "ID", "addr:street": "West Gray Fox Street", "addr:unit": "110", "amenity": "restaurant", "name": "Roxberry Juice Co", "wheelchair": "yes"}}, {"type": "node", "id": 8067471074, "lat": 43.663542, "lon": -116.4087615}, {"type": "node", "id": 8067471075, "lat": 43.6632202, "lon": -116.408762}, {"type": "node", "id": 8067471076, "lat": 43.6632204, "lon": -116.4090194}, {"type": "node", "id": 8067580787, "lat": 43.6632991, "lon": -116.408033, "tags": {"addr:city": "Eagle", "addr:housenumber": "4363", "addr:postcode": "83616", "addr:state": "ID", "addr:street": "West Gray Fox Street", "addr:unit": "105", "brand": "Great Harvest Bread Company", "brand:wikidata": "Q5599297", "name": "Great Harvest Bread Company", "shop": "bakery", "wheelchair": "yes"}}, {"type": "node", "id": 8067580789, "lat": 43.6633774, "lon": -116.4132951, "tags": {"addr:city": "Meridian", "addr:housenumber": "6500", "addr:postcode": "83646", "addr:state": "ID", "addr:street": "North Linder Road", "addr:unit": "100", "amenity": "restaurant", "name": "Tavern at Eagle Island", "wheelchair": "yes"}}, {"type": "node", "id": 8067580792, "lat": 43.6636841, "lon": -116.4132968, "tags": {"addr:city": "Meridian", "addr:housenumber": "6500", "addr:postcode": "83646", "addr:state": "ID", "addr:street": "North Linder Road", "addr:unit": "110", "name": "Cookie Cutters", "shop": "hairdresser", "wheelchair": "yes"}}, {"type": "node", "id": 8067580837, "lat": 43.6634422, "lon": -116.4115956}, {"type": "node", "id": 8067580838, "lat": 43.6632534, "lon": -116.4115949}, {"type": "node", "id": 8067580839, "lat": 43.6632532, "lon": -116.4117085}, {"type": "node", "id": 8067580840, "lat": 43.6633086, "lon": -116.4117087}, {"type": "node", "id": 8067580841, "lat": 43.6633085, "lon": -116.4117324}, {"type": "node", "id": 8067580842, "lat": 43.6633386, "lon": -116.4117325}, {"type": "node", "id": 8067580843, "lat": 43.6633386, "lon": -116.4117087}, {"type": "node", "id": 8067580870, "lat": 43.6624028, "lon": -116.4156826}, {"type": "node", "id": 8067580871, "lat": 43.6623202, "lon": -116.4156805}, {"type": "node", "id": 8067580886, "lat": 43.6614356, "lon": -116.414465, "tags": {"addr:city": "Meridian", "addr:housenumber": "6233", "addr:postcode": "83646", "addr:state": "ID", "addr:street": "North Linder Road", "addr:unit": "110", "brand": "T-Mobile", "brand:wikidata": "Q3511885", "name": "T-Mobile", "shop": "mobile_phone", "website": "https://www.t-mobile.com/stores/bd/t-mobile-meridian-id-83646-1hsi"}}, {"type": "node", "id": 8067580887, "lat": 43.6614845, "lon": -116.414465, "tags": {"addr:city": "Meridian", "addr:housenumber": "6233", "addr:postcode": "83646", "addr:state": "ID", "addr:street": "North Linder Road", "addr:unit": "120", "name": "Splash and Dash", "shop": "pet_grooming"}}, {"type": "node", "id": 8067580888, "lat": 43.6619665, "lon": -116.4145167, "tags": {"beauty": "tanning", "brand": "Tan Republic", "brand:wikidata": "Q84112774", "name": "Tan Republic", "shop": "beauty"}}, {"type": "node", "id": 8067580892, "lat": 43.6612699, "lon": -116.4160553}, {"type": "node", "id": 8067580893, "lat": 43.6612712, "lon": -116.4163977}, {"type": "node", "id": 8076639637, "lat": 43.6505328, "lon": -116.4134632}, {"type": "node", "id": 8076639638, "lat": 43.6504124, "lon": -116.4134643}, {"type": "node", "id": 8076639639, "lat": 43.6504128, "lon": -116.4135545}, {"type": "node", "id": 8076639694, "lat": 43.6488345, "lon": -116.4156, "tags": {"addr:city": "Meridian", "addr:housenumber": "1750", "addr:postcode": "83646", "addr:state": "ID", "addr:street": "West McMillan Road", "addr:unit": "110", "name": "Technicsalon", "shop": "hairdresser"}}, {"type": "node", "id": 8076639695, "lat": 43.6488349, "lon": -116.415455, "tags": {"addr:city": "Meridian", "addr:housenumber": "1750", "addr:postcode": "83646", "addr:state": "ID", "addr:street": "West McMillan Road", "addr:unit": "130", "beauty": "nails", "name": "Olivia Nails & Spa", "shop": "beauty"}}, {"type": "node", "id": 8076639743, "lat": 43.6490482, "lon": -116.4121106}, {"type": "node", "id": 8076639744, "lat": 43.6489011, "lon": -116.4121106}, {"type": "node", "id": 8076639745, "lat": 43.6489037, "lon": -116.4125234}, {"type": "node", "id": 8076639770, "lat": 43.6474209, "lon": -116.4132882, "tags": {"amenity": "restaurant", "cuisine": "breakfast", "name": "Waffle Love"}}, {"type": "node", "id": 8079920526, "lat": 43.6488334, "lon": -116.434725, "tags": {"addr:city": "Meridian", "addr:housenumber": "4865", "addr:postcode": "83646", "addr:state": "ID", "addr:street": "North Ten Mile Road", "addr:unit": "110", "beauty": "nails", "name": "2Q Nail & Spa", "shop": "beauty"}}, {"type": "node", "id": 8079920527, "lat": 43.6489678, "lon": -116.434724, "tags": {"addr:city": "Meridian", "addr:housenumber": "4865", "addr:postcode": "83646", "addr:state": "ID", "addr:street": "North Ten Mile Road", "addr:unit": "130", "alt_name": "Verizon Wireless", "brand": "Verizon", "brand:wikidata": "Q919641", "name": "Verizon", "operator": "Victra", "operator:website": "https://victra.com/stores/id-meridian/", "operator:wikidata": "Q118402656", "shop": "mobile_phone"}}, {"type": "node", "id": 8245770648, "lat": 43.6601784, "lon": -116.4378062}, {"type": "node", "id": 8245770649, "lat": 43.6601716, "lon": -116.4359543}, {"type": "node", "id": 8245770650, "lat": 43.6609747, "lon": -116.4359487}, {"type": "node", "id": 8245770651, "lat": 43.661132, "lon": -116.4361684}, {"type": "node", "id": 8245770652, "lat": 43.6611332, "lon": -116.4364812}, {"type": "node", "id": 8245770653, "lat": 43.6610644, "lon": -116.4364818}, {"type": "node", "id": 8245770654, "lat": 43.6610685, "lon": -116.4375398}, {"type": "node", "id": 8245770655, "lat": 43.6608682, "lon": -116.4375413}, {"type": "node", "id": 8320188996, "lat": 43.6490105, "lon": -116.4324521}, {"type": "node", "id": 8320188997, "lat": 43.6488273, "lon": -116.432452}, {"type": "node", "id": 8320188998, "lat": 43.6488272, "lon": -116.4327629}, {"type": "node", "id": 8331430415, "lat": 43.6505332, "lon": -116.413553}, {"type": "node", "id": 8331443788, "lat": 43.663248, "lon": -116.416073}, {"type": "node", "id": 8331462102, "lat": 43.6615828, "lon": -116.416395}, {"type": "node", "id": 8331465392, "lat": 43.6508866, "lon": -116.413482}, {"type": "node", "id": 8331465996, "lat": 43.6490104, "lon": -116.432763}, {"type": "node", "id": 8331466031, "lat": 43.6489195, "lon": -116.395376}, {"type": "node", "id": 8331472145, "lat": 43.6403474, "lon": -116.438625}, {"type": "node", "id": 8331474276, "lat": 43.6608691, "lon": -116.437801}, {"type": "node", "id": 8331474339, "lat": 43.635859, "lon": -116.434558}, {"type": "node", "id": 8331489078, "lat": 43.6624006, "lon": -116.415856}, {"type": "node", "id": 8331491524, "lat": 43.64905, "lon": -116.412524}, {"type": "node", "id": 8331491754, "lat": 43.6481419, "lon": -116.4108202}, {"type": "node", "id": 8331494057, "lat": 43.6625567, "lon": -116.407872}, {"type": "node", "id": 8331516996, "lat": 43.663442, "lon": -116.411709}, {"type": "node", "id": 8331517002, "lat": 43.6635422, "lon": -116.409018}, {"type": "node", "id": 8356323912, "lat": 43.6393906, "lon": -116.4354309}, {"type": "node", "id": 8356323913, "lat": 43.6403286, "lon": -116.4354209}, {"type": "node", "id": 8356323914, "lat": 43.639798, "lon": -116.4388589}, {"type": "node", "id": 8356323915, "lat": 43.6405782, "lon": -116.4400665}, {"type": "node", "id": 8356323916, "lat": 43.6412166, "lon": -116.4386195}, {"type": "node", "id": 8356323918, "lat": 43.6412222, "lon": -116.4410289}, {"type": "node", "id": 8356323919, "lat": 43.6410244, "lon": -116.4410294}, {"type": "node", "id": 8356323920, "lat": 43.6403451, "lon": -116.4382289}, {"type": "node", "id": 8356323921, "lat": 43.640321, "lon": -116.4339302}, {"type": "node", "id": 8356323922, "lat": 43.6411957, "lon": -116.4339221}, {"type": "node", "id": 8356323923, "lat": 43.6412164, "lon": -116.4382218}, {"type": "node", "id": 8672344196, "lat": 43.6618075, "lon": -116.414457, "tags": {"addr:city": "Meridian", "addr:housenumber": "6275", "addr:postcode": "83646", "addr:state": "ID", "addr:street": "North Linder Road", "addr:unit": "120", "name": "Farm Bureau Insurance", "office": "insurance"}}, {"type": "node", "id": 8672344201, "lat": 43.66154, "lon": -116.414466, "tags": {"addr:city": "Meridian", "addr:housenumber": "6233", "addr:postcode": "83646", "addr:state": "ID", "addr:street": "North Linder Road", "addr:unit": "130", "beauty": "nails", "name": "HOC Nail Bar & Spa", "shop": "beauty"}}, {"type": "node", "id": 8672344205, "lat": 43.6613789, "lon": -116.4144685, "tags": {"addr:city": "Meridian", "addr:housenumber": "6233", "addr:postcode": "83646", "addr:state": "ID", "addr:street": "North Linder Road", "addr:unit": "100", "name": "Tobacco Connection", "shop": "tobacco"}}, {"type": "node", "id": 8672344552, "lat": 43.6495515, "lon": -116.435856}, {"type": "node", "id": 8672344869, "lat": 43.6491545, "lon": -116.434279}, {"type": "node", "id": 8672344877, "lat": 43.6489354, "lon": -116.3944851, "tags": {"addr:city": "Meridian", "addr:housenumber": "4849", "addr:postcode": "83646", "addr:state": "ID", "addr:street": "North Meridian Road", "addr:unit": "110", "brand": "Stinker", "brand:wikidata": "Q95990164", "name": "Stinker", "shop": "convenience"}}, {"type": "node", "id": 8672344881, "lat": 43.6479994, "lon": -116.402058, "tags": {"addr:city": "Meridian", "addr:housenumber": "4795", "addr:postcode": "83646", "addr:state": "ID", "addr:street": "North Summit Way", "addr:unit": "130", "email": "urbanrootsmeridian@gmail.com", "name": "Urban Roots Salon", "phone": "+1-208-697-7853", "shop": "hairdresser", "website": "https://www.urbanrootsmeridian.com/"}}, {"type": "node", "id": 8672346169, "lat": 43.6480527, "lon": -116.4330216, "tags": {"addr:city": "Meridian", "addr:housenumber": "3110", "addr:postcode": "83646", "addr:state": "ID", "addr:street": "West Quintale Drive", "addr:unit": "110", "amenity": "cafe", "name": "The Broken Yolk Cafe"}}, {"type": "node", "id": 8672346170, "lat": 43.647916, "lon": -116.433016, "tags": {"addr:city": "Meridian", "addr:housenumber": "3110", "addr:postcode": "83646", "addr:state": "ID", "addr:street": "West Quintale Drive", "addr:unit": "100", "amenity": "restaurant", "cuisine": "mexican", "name": "Sweeto Burrito"}}, {"type": "node", "id": 8672346247, "lat": 43.6474149, "lon": -116.432024, "tags": {"addr:city": "Meridian", "addr:housenumber": "3035", "addr:postcode": "83646", "addr:state": "ID", "addr:street": "West McMillan Road", "addr:unit": "107", "brand": "State Farm", "brand:wikidata": "Q2007336", "name": "State Farm", "office": "insurance"}}, {"type": "node", "id": 8672346250, "lat": 43.6474098, "lon": -116.432115, "tags": {"addr:city": "Meridian", "addr:housenumber": "3035", "addr:postcode": "83646", "addr:state": "ID", "addr:street": "West McMillan Road", "addr:unit": "108", "name": "June Massage Spa", "shop": "massage"}}, {"type": "node", "id": 8672346251, "lat": 43.6474075, "lon": -116.431939, "tags": {"addr:city": "Meridian", "addr:housenumber": "3035", "addr:postcode": "83646", "addr:state": "ID", "addr:street": "West McMillan Road", "addr:unit": "106", "name": "Four Seasons Spa & Pool", "shop": "swimming_pool"}}, {"type": "node", "id": 8672346334, "lat": 43.6476293, "lon": -116.431183, "tags": {"addr:city": "Meridian", "addr:housenumber": "3015", "addr:postcode": "83646", "addr:state": "ID", "addr:street": "West McMillan Road", "addr:unit": "108", "amenity": "restaurant", "cuisine": "italian", "name": "Gino's Italian Ristorante"}}, {"type": "node", "id": 8672346342, "lat": 43.6476932, "lon": -116.431164, "tags": {"addr:city": "Meridian", "addr:housenumber": "3015", "addr:postcode": "83646", "addr:state": "ID", "addr:street": "West McMillan Road", "addr:unit": "107", "name": "Labormax Staffing", "office": "consulting"}}, {"type": "node", "id": 8672346344, "lat": 43.6479003, "lon": -116.431157, "tags": {"addr:city": "Meridian", "addr:housenumber": "3015", "addr:postcode": "83646", "addr:state": "ID", "addr:street": "West McMillan Road", "addr:unit": "104", "name": "Exploring Tea & More", "shop": "tea"}}, {"type": "node", "id": 8672346346, "lat": 43.6480138, "lon": -116.431157, "tags": {"addr:city": "Meridian", "addr:housenumber": "3015", "addr:postcode": "83646", "addr:state": "ID", "addr:street": "West McMillan Road", "addr:unit": "102", "beauty": "nails;hair", "name": "Salon G", "shop": "beauty"}}, {"type": "node", "id": 8672348092, "lat": 43.6623413, "lon": -116.4160521, "tags": {"addr:city": "Meridian", "addr:housenumber": "1793", "addr:postcode": "83646", "addr:state": "ID", "addr:street": "West Chinden Boulevard", "addr:unit": "100", "amenity": "restaurant", "name": "Bruchi's"}}, {"type": "node", "id": 8672348147, "lat": 43.6623192, "lon": -116.415472, "tags": {"addr:city": "Meridian", "addr:housenumber": "1735", "addr:postcode": "83646", "addr:state": "ID", "addr:street": "West Chinden Boulevard", "addr:unit": "140", "amenity": "restaurant", "cuisine": "mexican", "name": "Metzli Mexican Taqueria"}}, {"type": "node", "id": 8672348148, "lat": 43.6623195, "lon": -116.4153963, "tags": {"addr:city": "Meridian", "addr:housenumber": "1735", "addr:postcode": "83646", "addr:state": "ID", "addr:street": "West Chinden Boulevard", "addr:unit": "130", "name": "Reed's Dairy", "shop": "dairy"}}, {"type": "node", "id": 8672348223, "lat": 43.6638786, "lon": -116.414192, "tags": {"addr:city": "Meridian", "addr:housenumber": "1653", "addr:postcode": "83646", "addr:state": "ID", "addr:street": "West Island Green Drive", "addr:unit": "100", "name": "Idaho State Liquor Store", "operator": "State of Idaho", "shop": "alcohol"}}, {"type": "node", "id": 8672348927, "lat": 43.6479213, "lon": -116.4117996, "tags": {"addr:city": "Meridian", "addr:housenumber": "1407", "addr:postcode": "83646", "addr:state": "ID", "addr:street": "West McMillan Road", "addr:unit": "130", "amenity": "restaurant", "cuisine": "italian", "name": "il Sugo"}}, {"type": "node", "id": 8672354993, "lat": 43.6632623, "lon": -116.412739, "tags": {"addr:city": "Meridian", "addr:housenumber": "1520", "addr:postcode": "83646", "addr:state": "ID", "addr:street": "West Chinden Boulevard", "addr:unit": "100", "brand": "AT&T", "brand:wikidata": "Q298594", "name": "AT&T", "shop": "mobile_phone"}}, {"type": "node", "id": 8672354994, "lat": 43.6632608, "lon": -116.41287, "tags": {"addr:city": "Meridian", "addr:housenumber": "1520", "addr:postcode": "83646", "addr:state": "ID", "addr:street": "West Chinden Boulevard", "addr:unit": "102", "brand": "Sport Clips", "brand:wikidata": "Q7579310", "name": "Sport Clips", "shop": "hairdresser", "wheelchair": "yes"}}, {"type": "node", "id": 8672355000, "lat": 43.6634985, "lon": -116.4132958, "tags": {"addr:city": "Meridian", "addr:housenumber": "6500", "addr:postcode": "83646", "addr:state": "ID", "addr:street": "North Linder Road", "addr:unit": "104", "name": "Lashed", "shop": "beauty", "wheelchair": "yes"}}, {"type": "node", "id": 8674933267, "lat": 43.6603407, "lon": -116.4124687}, {"type": "node", "id": 8674933268, "lat": 43.6605475, "lon": -116.4124292}, {"type": "node", "id": 8674933269, "lat": 43.6605474, "lon": -116.4122666}, {"type": "node", "id": 8674933270, "lat": 43.6608664, "lon": -116.4122662}, {"type": "node", "id": 8674933271, "lat": 43.6608655, "lon": -116.4109892}, {"type": "node", "id": 8674933272, "lat": 43.6602667, "lon": -116.4109903}, {"type": "node", "id": 8786753578, "lat": 43.6625141, "lon": -116.4362584}, {"type": "node", "id": 8958483417, "lat": 43.6479227, "lon": -116.4127084, "tags": {"addr:city": "Meridian", "addr:housenumber": "1511", "addr:postcode": "83646", "addr:state": "ID", "addr:street": "West McMillan Road", "addr:unit": "150", "beauty": "nails", "name": "Smiley Nails", "shop": "beauty"}}, {"type": "node", "id": 8958483418, "lat": 43.6479209, "lon": -116.412097, "tags": {"addr:city": "Meridian", "addr:housenumber": "1407", "addr:postcode": "83646", "addr:state": "ID", "addr:street": "West McMillan Road", "addr:unit": "170", "amenity": "restaurant", "name": "The Capri/Delsa's", "website": "https://capriboise.com/"}}, {"type": "node", "id": 9069127644, "lat": 43.6491361, "lon": -116.3953784}, {"type": "node", "id": 9069127645, "lat": 43.6491367, "lon": -116.3952673}, {"type": "node", "id": 9069127646, "lat": 43.6491434, "lon": -116.3952673}, {"type": "node", "id": 9069127647, "lat": 43.649144, "lon": -116.395151}, {"type": "node", "id": 9069127648, "lat": 43.6489207, "lon": -116.3951488}, {"type": "node", "id": 9069127669, "lat": 43.650297, "lon": -116.3947106}, {"type": "node", "id": 9069127670, "lat": 43.6502734, "lon": -116.3946723}, {"type": "node", "id": 9069127671, "lat": 43.6502729, "lon": -116.3937211}, {"type": "node", "id": 9069127672, "lat": 43.6502781, "lon": -116.3936864}, {"type": "node", "id": 9069127673, "lat": 43.6518402, "lon": -116.3936885}, {"type": "node", "id": 9069127674, "lat": 43.6518407, "lon": -116.3947028}, {"type": "node", "id": 9069127675, "lat": 43.6518263, "lon": -116.3947127}, {"type": "node", "id": 9262082740, "lat": 43.636022, "lon": -116.434555}, {"type": "node", "id": 9262101449, "lat": 43.635856, "lon": -116.434191}, {"type": "node", "id": 9262102884, "lat": 43.636019, "lon": -116.434189}, {"type": "node", "id": 9349972388, "lat": 43.6497037, "lon": -116.4286356}, {"type": "node", "id": 9349972390, "lat": 43.648528, "lon": -116.4261363}, {"type": "node", "id": 9349972391, "lat": 43.6496883, "lon": -116.4261116}, {"type": "node", "id": 9384747062, "lat": 43.663348, "lon": -116.416074}, {"type": "node", "id": 9384747063, "lat": 43.663347, "lon": -116.416274}, {"type": "node", "id": 9384747064, "lat": 43.663247, "lon": -116.416273}, {"type": "node", "id": 9503801573, "lat": 43.6602741, "lon": -116.434049, "tags": {"addr:city": "Meridian", "addr:housenumber": "6097", "addr:postcode": "83646", "addr:state": "ID", "addr:street": "North Ten Mile Road", "addr:unit": "100", "amenity": "restaurant", "brand": "Cafe Rio", "brand:wikidata": "Q5017108", "cuisine": "mexican", "name": "Cafe Rio"}}, {"type": "node", "id": 9503801576, "lat": 43.6600338, "lon": -116.434049, "tags": {"addr:city": "Meridian", "addr:housenumber": "6097", "addr:postcode": "83646", "addr:state": "ID", "addr:street": "North Ten Mile Road", "addr:unit": "140", "brand": "Rocky Mountain Chocolate Factory", "brand:wikidata": "Q7355878", "name": "Rocky Mountain Chocolate Factory", "shop": "confectionery"}}, {"type": "node", "id": 9503801577, "lat": 43.6599552, "lon": -116.434049, "tags": {"addr:city": "Meridian", "addr:housenumber": "6097", "addr:postcode": "83646", "addr:state": "ID", "addr:street": "North Ten Mile Road", "addr:unit": "150", "brand": "Hand & Stone Massage and Facial Spa", "brand:wikidata": "Q55613342", "name": "Hand & Stone Massage and Facial Spa", "shop": "massage"}}, {"type": "node", "id": 9517530486, "lat": 43.6608661, "lon": -116.4116333}, {"type": "node", "id": 9517530487, "lat": 43.6608661, "lon": -116.4118188}, {"type": "node", "id": 9533840866, "lat": 43.6608798, "lon": -116.4116332}, {"type": "node", "id": 9533840867, "lat": 43.66088, "lon": -116.4118188}, {"type": "node", "id": 9533840868, "lat": 43.6604564, "lon": -116.4124294}, {"type": "node", "id": 9533840869, "lat": 43.6604564, "lon": -116.4124685}, {"type": "node", "id": 9533840870, "lat": 43.6602682, "lon": -116.4127014}, {"type": "node", "id": 9533840871, "lat": 43.6603409, "lon": -116.4127013}, {"type": "node", "id": 9765442885, "lat": 43.662337, "lon": -116.4112551}, {"type": "node", "id": 9765443268, "lat": 43.6624119, "lon": -116.4084382, "tags": {"addr:city": "Meridian", "addr:housenumber": "1201", "addr:postcode": "83646", "addr:state": "ID", "addr:street": "West Chinden Boulevard", "addr:unit": "110", "amenity": "restaurant", "cuisine": "hawaiian", "name": "Mo' Bettahs"}}, {"type": "node", "id": 10186472982, "lat": 43.6625161, "lon": -116.4364754}, {"type": "node", "id": 10186472983, "lat": 43.6624421, "lon": -116.4362597}, {"type": "node", "id": 10186472984, "lat": 43.6624441, "lon": -116.4364767}, {"type": "node", "id": 10272019380, "lat": 43.6492177, "lon": -116.428635}, {"type": "node", "id": 10288463222, "lat": 43.662337, "lon": -116.41122}, {"type": "node", "id": 10288463223, "lat": 43.6623725, "lon": -116.41122}, {"type": "node", "id": 10288463224, "lat": 43.6623729, "lon": -116.4109896}, {"type": "node", "id": 10288463225, "lat": 43.662329, "lon": -116.4109896}, {"type": "node", "id": 10288463226, "lat": 43.6623289, "lon": -116.4109534}, {"type": "node", "id": 10288463227, "lat": 43.6621299, "lon": -116.4109536}, {"type": "node", "id": 10288463228, "lat": 43.6621299, "lon": -116.4110272}, {"type": "node", "id": 10288463229, "lat": 43.6620978, "lon": -116.4110272}, {"type": "node", "id": 10288463230, "lat": 43.6620979, "lon": -116.4111992}, {"type": "node", "id": 10288463231, "lat": 43.66213, "lon": -116.4111992}, {"type": "node", "id": 10288463232, "lat": 43.66213, "lon": -116.4112553}, {"type": "node", "id": 10288463233, "lat": 43.6623724, "lon": -116.4111409}, {"type": "node", "id": 10288463234, "lat": 43.6623729, "lon": -116.4110652}, {"type": "node", "id": 10288463235, "lat": 43.662388, "lon": -116.4111409}, {"type": "node", "id": 10288463236, "lat": 43.6623879, "lon": -116.4110652}, {"type": "node", "id": 10288463243, "lat": 43.6625563, "lon": -116.4074952}, {"type": "node", "id": 10288463244, "lat": 43.6624253, "lon": -116.4074955}, {"type": "node", "id": 10288463245, "lat": 43.6624256, "lon": -116.4078514}, {"type": "node", "id": 10288463246, "lat": 43.6625105, "lon": -116.4078512}, {"type": "node", "id": 10288463247, "lat": 43.6625105, "lon": -116.407873}, {"type": "node", "id": 10749094170, "lat": 43.6362484, "lon": -116.4342639}, {"type": "node", "id": 10749094171, "lat": 43.6361344, "lon": -116.4342622}, {"type": "node", "id": 10749094172, "lat": 43.6361331, "lon": -116.4341834}, {"type": "node", "id": 10749094173, "lat": 43.6362472, "lon": -116.4341834}, {"type": "node", "id": 10808923841, "lat": 43.6617159, "lon": -116.4132897, "tags": {"addr:city": "Meridian", "addr:housenumber": "6252", "addr:postcode": "83646", "addr:state": "ID", "addr:street": "North Linder Road", "addr:unit": "150", "brand": "Eyemart Express", "brand:wikidata": "Q5422776", "name": "Eyemart Express", "shop": "optician"}}, {"type": "node", "id": 10808925996, "lat": 43.6621945, "lon": -116.4094138, "tags": {"addr:city": "Meridian", "addr:full": "1245 W Chinden Blvd Ste 100, Meridian, ID 83646", "addr:housenumber": "1245", "addr:postcode": "83646", "addr:state": "ID", "addr:street": "West Chinden Boulevard", "addr:unit": "100", "branch": "Boise - Orchard Park", "brand": "Fiiz Drinks", "brand:wikidata": "Q124327883", "drink:cola": "yes", "drink:hot_chocolate": "yes", "drink:soda": "yes", "email": "BoiseOrchardPark@drinkfiiz.com", "name": "Fiiz Drinks", "shop": "beverages"}}, {"type": "node", "id": 11237621907, "lat": 43.6618745, "lon": -116.41954, "tags": {"addr:city": "Meridian", "addr:housenumber": "2054", "addr:postcode": "83646", "addr:state": "ID", "addr:street": "West Everest Lane", "addr:unit": "110", "beauty": "spa", "email": "info@bevibrantmedspa.com", "healthcare:speciality": "medical_spa", "name": "Vibrant Med Spa", "opening_hours": "Mo-We 09:00-17:00; Th 09:00-18:00; Fr 09:00-16:00", "operator": "Julie Kunde", "payment:american_express": "yes", "payment:cash": "yes", "payment:discover_card": "yes", "payment:visa": "yes", "phone": "+1-208-849-1236", "shop": "beauty", "website": "https://bevibrantmedspa.com/"}}, {"type": "node", "id": 11754183175, "lat": 43.6622915, "lon": -116.4100411, "tags": {"brand": "Tide Cleaners", "brand:wikidata": "Q66048841", "name": "Tide Cleaners", "shop": "dry_cleaning"}}, {"type": "node", "id": 11754183177, "lat": 43.6622636, "lon": -116.4084425, "tags": {"beauty": "nails;eyelash", "shop": "beauty"}}, {"type": "node", "id": 11754183182, "lat": 43.6616011, "lon": -116.4132911, "tags": {"beauty": "nails", "name": "Creative Nail Spa", "shop": "beauty"}}, {"type": "node", "id": 11800935035, "lat": 43.6481435, "lon": -116.4111287}, {"type": "node", "id": 11800935036, "lat": 43.647972, "lon": -116.4111304}, {"type": "node", "id": 11800935037, "lat": 43.6479719, "lon": -116.4111117}, {"type": "node", "id": 11800935038, "lat": 43.6479215, "lon": -116.4111122}, {"type": "node", "id": 11800935039, "lat": 43.6479199, "lon": -116.4108225}, {"type": "node", "id": 11854101822, "lat": 43.6624398, "lon": -116.4349716, "tags": {"addr:city": "Meridian", "addr:housenumber": "3333", "addr:postcode": "83646", "addr:state": "ID", "addr:street": "West Chinden Boulevard", "addr:unit": "110", "branch": "Lost Rapids", "brand": "Mattress Firm", "brand:wikidata": "Q6791878", "name": "Mattress Firm", "phone": "+1 208-572-6403", "ref": "240157", "shop": "bed", "website": "https://www.mattressfirm.com/en-us/stores/id/meridian/e240157/"}}, {"type": "node", "id": 13043778001, "lat": 43.6457007, "lon": -116.4327134, "tags": {"addr:city": "Meridian", "addr:housenumber": "3149", "addr:postcode": "83646", "addr:state": "ID", "addr:street": "West Quintale Drive", "addr:unit": "130", "amenity": "restaurant", "cuisine": "asian;japanese;ramen;seafood;sushi", "email": "Info@kinya.us", "name": "Kinya Ramen", "opening_hours": "Su-Th 11:00-21:00; Fr-Sa 11:00-22:00", "phone": "+1-208-901-2892", "website": "https://kinya.us/location/meridian-id/"}}, {"type": "way", "id": 463005411, "nodes": [4583240517, 4583240518, 4583240519, 4583240520, 4583240521, 4583240522, 4583240523, 8356323912, 8356323913, 8356323920, 8331472145, 8356323916, 8356323918, 8356323919, 8356323915, 8356323914, 4583240517], "tags": {"addr:city": "Meridian", "addr:housenumber": "3735", "addr:postcode": "83646", "addr:state": "ID", "addr:street": "North Ten Mile Road", "shop": "storage_rental"}}, {"type": "way", "id": 550747472, "nodes": [8331465392, 5319310731, 5319310732, 5319310733, 5319310734, 5319310735, 5319310736, 5319310737, 8331465392], "tags": {"addr:city": "Meridian", "addr:housenumber": "5072", "addr:postcode": "83646", "addr:state": "ID", "addr:street": "North Linder Road", "amenity": "cafe", "brand": "Dutch Bros. Coffee", "brand:wikidata": "Q5317253", "building": "yes", "cuisine": "coffee_shop", "drive_through": "yes", "name": "Dutch Bros. Coffee", "opening_hours": "05:00-23:00", "ref": "DB207", "takeaway": "only", "website": "https://locations.dutchbros.com/dutch-bros-coffee-4ffdad204320"}}, {"type": "way", "id": 550749093, "nodes": [5319327046, 5319327047, 5319327048, 5319327049, 5319327046], "tags": {"building": "yes", "shop": "car_repair"}}, {"type": "way", "id": 683401092, "nodes": [8672344552, 6401004828, 6401004827, 6401004826, 6401004825, 6401004824, 6401004823, 6401004822, 5315596663, 6401004821, 6401004820, 6401004819, 6401004818, 6401004817, 6401004816, 6401004815, 6401004814, 6401004813, 6401004812, 6401004811, 6401004810, 6401004809, 6401004808, 6401004807, 6401004806, 6401004805, 6401004804, 6401004803, 6401004802, 6401004801, 6401004800, 6401004799, 6401004798, 6401004797, 6401004796, 6401004795, 6401004794, 8672344552], "tags": {"addr:city": "Meridian", "addr:housenumber": "5001", "addr:postcode": "83646", "addr:state": "ID", "addr:street": "North Ten Mile Road", "brand": "Walmart", "brand:wikidata": "Q483551", "building": "retail", "name": "Walmart Supercenter", "opening_hours": "Mo-Su 05:00-24:00", "operator": "Walmart", "operator:wikidata": "Q483551", "payment:app:walmart": "yes", "payment:apple_pay": "no", "payment:google_pay": "no", "payment:samsung_pay": "no", "phone": "+1 208-982-3045", "ref": "5841", "ref:walmart": "5841", "sensory_friendly:accommodation": "dimmed_light;static_screens;no_pa", "sensory_friendly:conditional": "yes @ 08:00-10:00", "shop": "supermarket", "website": "https://www.walmart.com/store/5841-meridian-id", "wheelchair": "yes"}}, {"type": "way", "id": 746018322, "nodes": [8672344869, 6981742773, 6981742781, 6981742782, 8672344869], "tags": {"addr:city": "Meridian", "addr:housenumber": "4879", "addr:postcode": "83646", "addr:state": "ID", "addr:street": "North Ten Mile Road", "amenity": "cafe", "branch": "Ten Mile and McMillian", "brand": "Starbucks", "brand:wikidata": "Q37158", "building": "yes", "cuisine": "coffee_shop", "drive_through": "yes", "internet_access": "wlan", "internet_access:fee": "no", "name": "Starbucks", "official_name": "Starbucks Coffee", "outdoor_seating": "no", "phone": "+1 208-565-7260", "ref": "1026164", "service": "drive-through", "takeaway": "yes", "website": "https://www.starbucks.com/store-locator/store/1026164/ten-mile-and-mc-millian-4879-n-ten-mile-rd-meridian-id-836466793-us"}}, {"type": "way", "id": 865541706, "nodes": [8331517002, 8067471074, 8067471075, 8067471076, 8331517002], "tags": {"addr:city": "Meridian", "addr:housenumber": "1200", "addr:postcode": "83646", "addr:state": "ID", "addr:street": "West Chinden Boulevard", "brand": "O'Reilly Auto Parts", "brand:wikidata": "Q7071951", "building": "yes", "name": "O'Reilly Auto Parts", "shop": "car_parts", "website": "https://locations.oreillyauto.com/id/eagle/autoparts-6322.html", "wheelchair": "yes"}}, {"type": "way", "id": 865541714, "nodes": [8331516996, 8067580837, 8067580838, 8067580839, 8067580840, 8067580841, 8067580842, 8067580843, 8331516996], "tags": {"addr:city": "Meridian", "addr:housenumber": "1480", "addr:postcode": "83646", "addr:state": "ID", "addr:street": "West Chinden Boulevard", "amenity": "cafe", "branch": "Chinden and Linder", "brand": "Starbucks", "brand:wikidata": "Q37158", "building": "yes", "cuisine": "coffee_shop", "name": "Starbucks", "official_name": "Starbucks Coffee", "phone": "+1 208-288-2227", "ref": "1027828", "takeaway": "yes", "website": "https://www.starbucks.com/store-locator/store/1027828/chinden-and-linder-1480-w-chinden-blvd-meridian-id-836465328-us", "wheelchair": "yes"}}, {"type": "way", "id": 865541717, "nodes": [8331489078, 8067580870, 8067580871, 6593378425, 8331489078], "tags": {"addr:city": "Meridian", "addr:housenumber": "1757", "addr:postcode": "83646", "addr:state": "ID", "addr:street": "West Chinden Boulevard", "amenity": "cafe", "brand": "Black Rock Coffee", "brand:wikidata": "Q64225934", "building": "yes", "cuisine": "coffee_shop", "drive_through": "yes", "name": "Black Rock Coffee", "takeaway": "yes"}}, {"type": "way", "id": 865541721, "nodes": [8331462102, 6593378424, 8067580892, 8067580893, 8331462102], "tags": {"addr:city": "Meridian", "addr:housenumber": "6259", "addr:postcode": "83646", "addr:state": "ID", "addr:street": "North Linder Road", "brand": "Dollar Tree", "brand:wikidata": "Q5289230", "building": "yes", "check_date": "2024-07-11", "check_date:opening_hours": "2024-07-11", "name": "Dollar Tree", "opening_hours": "Mo-Sa 09:00-22:00; Su 09:00-21:00", "shop": "variety_store", "website": "https://www.dollartree.com/locations/id/meridian/7128/"}}, {"type": "way", "id": 866522954, "nodes": [8331430415, 8076639637, 8076639638, 8076639639, 8331430415], "tags": {"addr:city": "Meridian", "addr:housenumber": "5038", "addr:postcode": "83646", "addr:state": "ID", "addr:street": "North Linder Road", "amenity": "restaurant", "building": "yes", "cuisine": "greek", "drive_through": "yes", "name": "The Gyro Shack", "takeaway": "only"}}, {"type": "way", "id": 866522980, "nodes": [8331491524, 8076639743, 8076639744, 8076639745, 8331491524], "tags": {"addr:city": "Meridian", "addr:housenumber": "1410", "addr:postcode": "83646", "addr:state": "ID", "addr:street": "West McMillan Road", "brand": "Stinker", "brand:wikidata": "Q95990164", "building": "yes", "drive_through": "yes", "name": "Stinker", "shop": "convenience"}}, {"type": "way", "id": 886770782, "nodes": [8331474276, 8245770648, 8245770649, 8245770650, 8245770651, 8245770652, 8245770653, 8245770654, 8245770655, 8331474276], "tags": {"addr:city": "Meridian", "addr:housenumber": "3403", "addr:postcode": "83646", "addr:state": "ID", "addr:street": "West Chinden Boulevard", "branch": "Meridian", "brand": "Costco", "brand:wikidata": "Q715583", "building": "yes", "name": "Costco", "opening_hours": "Mo-Fr 10:00-20:30; Sa 09:30-18:00; Su 10:00-18:00", "operator": "Costco", "phone": "+1 986-200-4136", "ref": "1343", "shop": "wholesale", "website": "https://www.costco.com/warehouse-locations/meridian-id-1343.html"}}, {"type": "way", "id": 895112933, "nodes": [8331465996, 8320188996, 8320188997, 8320188998, 8331465996], "tags": {"addr:city": "Meridian", "addr:housenumber": "4870", "addr:postcode": "83646", "addr:state": "ID", "addr:street": "North Ten Mile Road", "brand": "ExtraMile", "brand:wikidata": "Q64224605", "building": "yes", "name": "ExtraMile", "operator": "Jacksons Food Stores", "ref": "170", "shop": "convenience"}}, {"type": "way", "id": 899347012, "nodes": [8356323920, 8356323913, 8356323921, 8356323922, 8356323923, 8356323920], "tags": {"addr:city": "Meridian", "addr:housenumber": "3959", "addr:postcode": "83646", "addr:state": "ID", "addr:street": "North Ten Mile Road", "shop": "storage_rental"}}, {"type": "way", "id": 936189080, "nodes": [9533840870, 9533840871, 8674933267, 9533840869, 9533840868, 8674933268, 8674933269, 8674933270, 9517530487, 9533840867, 9533840866, 9517530486, 8674933271, 8674933272, 9533840870], "tags": {"addr:city": "Meridian", "addr:housenumber": "1407", "addr:postcode": "83646", "addr:state": "ID", "addr:street": "West Chinden Boulevard", "brand": "WinCo Foods", "brand:wikidata": "Q8023592", "building": "yes", "building:levels": "1", "name": "WinCo Foods", "opening_hours": "24/7", "shop": "supermarket", "wheelchair": "yes"}}, {"type": "way", "id": 980418594, "nodes": [8331466031, 9069127644, 9069127645, 9069127646, 9069127647, 9069127648, 8331466031], "tags": {"addr:city": "Meridian", "addr:housenumber": "4850", "addr:postcode": "83646", "addr:state": "ID", "addr:street": "North Elsinore Avenue", "building": "yes", "name": "Dowdy's Automotive Service", "shop": "car_repair"}}, {"type": "way", "id": 980418599, "nodes": [9069127669, 9069127670, 9069127671, 9069127672, 9069127673, 9069127674, 9069127675, 9069127669], "tags": {"addr:city": "Meridian", "addr:housenumber": "5100", "addr:postcode": "83646", "addr:state": "ID", "addr:street": "North Dyver Avenue", "brand": "Extra Space Storage", "brand:wikidata": "Q5422162", "landuse": "industrial", "name": "Extra Space Storage", "shop": "storage_rental"}}, {"type": "way", "id": 1003757825, "nodes": [8331474339, 9262101449, 9262102884, 9262082740, 8331474339], "tags": {"addr:city": "Meridian", "addr:housenumber": "3393", "addr:postcode": "83646", "addr:state": "ID", "addr:street": "North Ten Mile Road", "building": "yes", "name": "Pawn 1", "shop": "pawnbroker", "source": "microsoft/BuildingFootprints"}}, {"type": "way", "id": 1013431055, "nodes": [9349972388, 10272019380, 6593378588, 9349972390, 9349972391, 9349972388], "tags": {"landuse": "industrial", "shop": "storage_rental"}}, {"type": "way", "id": 1017469344, "nodes": [8331443788, 9384747062, 9384747063, 9384747064, 8331443788], "tags": {"addr:city": "Meridian", "addr:housenumber": "1805", "addr:postcode": "83646", "addr:state": "ID", "addr:street": "West Island Green Drive", "brand": "Valvoline", "brand:wikidata": "Q7912852", "building": "yes", "name": "Valvoline", "official_name": "Valvoline Instant Oil Change", "shop": "car_repair", "source": "microsoft/BuildingFootprints", "website": "https://store.vioc.com/id/meridian/oil-change-090138.html"}}, {"type": "way", "id": 1113411400, "nodes": [10186472982, 8786753578, 10186472983, 10186472984, 10186472982], "tags": {"addr:city": "Meridian", "addr:housenumber": "3377;3411", "addr:postcode": "83646", "addr:state": "ID", "addr:street": "West Chinden Boulevard", "amenity": "cafe", "branch": "West Chinden", "brand": "Dutch Bros. Coffee", "brand:wikidata": "Q5317253", "building": "yes", "cuisine": "coffee_shop", "internet_access": "yes", "name": "Dutch Bros. Coffee", "opening_hours": "Mo-Su 05:00-23:00", "outdoor_seating": "yes", "phone": "+1 541-955-4700", "ref": "DB637", "takeaway": "only", "website": "https://locations.dutchbros.com/dutch-bros-coffee-eed8d21af19e"}}, {"type": "way", "id": 1125068232, "nodes": [9765442885, 10288463222, 10288463223, 10288463233, 10288463235, 10288463236, 10288463234, 10288463224, 10288463225, 10288463226, 10288463227, 10288463228, 10288463229, 10288463230, 10288463231, 10288463232, 9765442885], "tags": {"addr:city": "Meridian", "addr:housenumber": "1399", "addr:postcode": "83646", "addr:state": "ID", "addr:street": "West Chinden Boulevard", "amenity": "restaurant", "brand": "Olive Garden", "brand:wikidata": "Q3045312", "building": "yes", "cuisine": "italian", "name": "Olive Garden"}}, {"type": "way", "id": 1125068234, "nodes": [8331494057, 10288463243, 10288463244, 10288463245, 10288463246, 10288463247, 8331494057], "tags": {"addr:city": "Meridian", "addr:housenumber": "1133", "addr:postcode": "83646", "addr:state": "ID", "addr:street": "West Chinden Boulevard", "brand": "Jacksons", "brand:wikidata": "Q64617393", "building": "yes", "name": "Jacksons", "ref": "200", "shop": "convenience"}}, {"type": "way", "id": 1155874837, "nodes": [10749094170, 10749094171, 10749094172, 10749094173, 10749094170], "tags": {"addr:city": "Meridian", "addr:housenumber": "3285", "addr:postcode": "83646", "addr:state": "ID", "addr:street": "West Nelis Drive", "amenity": "cafe", "brand": "The Human Bean", "brand:wikidata": "Q7740821", "building": "yes", "cuisine": "coffee_shop", "name": "The Human Bean", "takeaway": "yes"}}, {"type": "way", "id": 1270746826, "nodes": [8331491754, 11800935035, 11800935036, 11800935037, 11800935038, 11800935039, 8331491754], "tags": {"addr:city": "Meridian", "addr:housenumber": "1385", "addr:postcode": "83646", "addr:state": "ID", "addr:street": "West McMillan Road", "building": "yes", "contact:facebook": "https://www.facebook.com/skinandtox", "email": "hello@skinandtox.com", "name": "Skin n' Tox", "opening_hours": "Mo,We,Fr 09:00-17:00; Tu,Th 09:00-19:00; Sa 10:00-16:00", "phone": "+1-208-869-9779", "shop": "cosmetics", "source": "microsoft/BuildingFootprints", "website": "https://skinandtox.com/"}}]}