{"version": 0.6, "generator": "Overpass API 0.7.62.8 e802775f", "osm3s": {"timestamp_osm_base": "2025-12-06T20:31:59Z", "copyright": "The data included in this document is from www.openstreetmap.org. The data is made available under ODbL."}, "elements": [{"type": "node", "id": 50680027, "lat": 47.891324, "lon": -122.2334638}, {"type": "node", "id": 50770037, "lat": 47.8923666, "lon": -122.2334713}, {"type": "node", "id": 50805931, "lat": 47.8928864, "lon": -122.2334751}, {"type": "node", "id": 356550353, "lat": 47.8959772, "lon": -122.2540102, "tags": {"amenity": "place_of_worship", "ele": "161", "gnis:feature_id": "2461130", "name": "Everett Korean Church", "religion": "christian"}}, {"type": "node", "id": 443547963, "lat": 47.892876, "lon": -122.2366351}, {"type": "node", "id": 443547964, "lat": 47.8905645, "lon": -122.2366183}, {"type": "node", "id": 443547965, "lat": 47.8905698, "lon": -122.2349503}, {"type": "node", "id": 443548095, "lat": 47.8910942, "lon": -122.2334621}, {"type": "node", "id": 443548096, "lat": 47.8910894, "lon": -122.2349539}, {"type": "node", "id": 881446763, "lat": 47.9023804, "lon": -122.2670902}, {"type": "node", "id": 881446768, "lat": 47.9023892, "lon": -122.2664605}, {"type": "node", "id": 881446771, "lat": 47.9036935, "lon": -122.2665011}, {"type": "node", "id": 881446775, "lat": 47.9036847, "lon": -122.2671308}, {"type": "node", "id": 1390367380, "lat": 47.9048586, "lon": -122.2394727, "tags": {"check_date": "2025-07-06", "name": "Car Toys", "shop": "hifi"}}, {"type": "node", "id": 2657074855, "lat": 47.9024761, "lon": -122.2475981}, {"type": "node", "id": 2657074856, "lat": 47.9026232, "lon": -122.2479857}, {"type": "node", "id": 2657074857, "lat": 47.903384, "lon": -122.2473413}, {"type": "node", "id": 2657074858, "lat": 47.9028956, "lon": -122.2461224}, {"type": "node", "id": 2657074859, "lat": 47.9018436, "lon": -122.2470891}, {"type": "node", "id": 2657074860, "lat": 47.902163, "lon": -122.2478456}, {"type": "node", "id": 3724117851, "lat": 47.907123, "lon": -122.2412952}, {"type": "node", "id": 3724117852, "lat": 47.9070184, "lon": -122.2410487}, {"type": "node", "id": 3724117853, "lat": 47.9070537, "lon": -122.2410148}, {"type": "node", "id": 3724117854, "lat": 47.906941, "lon": -122.2407481}, {"type": "node", "id": 3724117855, "lat": 47.9070227, "lon": -122.2406702}, {"type": "node", "id": 3724117856, "lat": 47.9069643, "lon": -122.240534}, {"type": "node", "id": 3724117857, "lat": 47.9068826, "lon": -122.2406095}, {"type": "node", "id": 3724117858, "lat": 47.9068457, "lon": -122.2405228}, {"type": "node", "id": 3724117859, "lat": 47.9065105, "lon": -122.2408346}, {"type": "node", "id": 3724117876, "lat": 47.906241, "lon": -122.2410848}, {"type": "node", "id": 3724117877, "lat": 47.9065783, "lon": -122.2417991}, {"type": "node", "id": 3724117878, "lat": 47.9055574, "lon": -122.2427634}, {"type": "node", "id": 3724117887, "lat": 47.9060963, "lon": -122.240194, "tags": {"addr:city": "Everett", "addr:housenumber": "10115", "addr:postcode": "98204", "addr:state": "WA", "addr:street": "Evergreen Way", "brand": "Grocery Outlet", "brand:wikidata": "Q5609934", "check_date": "2025-07-06", "name": "Grocery Outlet", "official_name": "Grocery Outlet Bargain Market", "shop": "supermarket"}}, {"type": "node", "id": 3724117888, "lat": 47.9059531, "lon": -122.2397732, "tags": {"addr:city": "Everett", "addr:housenumber": "10113", "addr:postcode": "98204", "addr:state": "WA", "addr:street": "Evergreen Way", "brand": "Pep Boys", "brand:wikidata": "Q3375007", "contact:phone": "+1-425-438-8181", "contact:website": "http://www.pepboys.com/", "name": "Pep Boys", "opening_hours": "Mo-Sa 07:30-20:00; Su 09:00-18:00", "shop": "car_repair"}}, {"type": "node", "id": 3724117889, "lat": 47.9046792, "lon": -122.2450668}, {"type": "node", "id": 3724117890, "lat": 47.9046796, "lon": -122.2447217}, {"type": "node", "id": 3724117891, "lat": 47.9045747, "lon": -122.2447214}, {"type": "node", "id": 3724117892, "lat": 47.9045743, "lon": -122.2450665}, {"type": "node", "id": 3724117893, "lat": 47.9049982, "lon": -122.2450462}, {"type": "node", "id": 3724117894, "lat": 47.9050183, "lon": -122.2450176}, {"type": "node", "id": 3724117895, "lat": 47.905019, "lon": -122.2447425}, {"type": "node", "id": 3724117896, "lat": 47.9048531, "lon": -122.2447416}, {"type": "node", "id": 3724117897, "lat": 47.9048523, "lon": -122.2450454}, {"type": "node", "id": 3724117908, "lat": 47.9046658, "lon": -122.2453413, "tags": {"amenity": "car_wash", "automated": "yes", "self_service": "no"}}, {"type": "node", "id": 3724117910, "lat": 47.9063733, "lon": -122.241323, "tags": {"amenity": "post_box", "collection_times": "Mo-Sa 13:45", "operator": "United States Postal Service", "operator:short": "USPS", "operator:type": "public", "operator:website": "https://www.usps.com", "operator:wikidata": "Q668687", "operator:wikipedia": "en:United States Postal Service", "short_name": "USPS"}}, {"type": "node", "id": 3724117911, "lat": 47.9063665, "lon": -122.2412986}, {"type": "node", "id": 3724117912, "lat": 47.9063219, "lon": -122.2412798}, {"type": "node", "id": 3724117913, "lat": 47.9056415, "lon": -122.2393176}, {"type": "node", "id": 3724117914, "lat": 47.9056021, "lon": -122.2392461}, {"type": "node", "id": 3724117915, "lat": 47.9055201, "lon": -122.2393467}, {"type": "node", "id": 3724117916, "lat": 47.9055595, "lon": -122.2394182}, {"type": "node", "id": 3767922174, "lat": 47.8903772, "lon": -122.2568758}, {"type": "node", "id": 3767922177, "lat": 47.890416, "lon": -122.256747}, {"type": "node", "id": 3767922182, "lat": 47.8905238, "lon": -122.256974}, {"type": "node", "id": 3767922186, "lat": 47.8905626, "lon": -122.2568452}, {"type": "node", "id": 3767922199, "lat": 47.8924886, "lon": -122.2558283}, {"type": "node", "id": 3767922201, "lat": 47.8925448, "lon": -122.2568775}, {"type": "node", "id": 3767922202, "lat": 47.8925738, "lon": -122.2571159}, {"type": "node", "id": 3767922205, "lat": 47.8926546, "lon": -122.2565684}, {"type": "node", "id": 3767922207, "lat": 47.8926809, "lon": -122.2566313}, {"type": "node", "id": 3767922208, "lat": 47.8926844, "lon": -122.2578023}, {"type": "node", "id": 3767922209, "lat": 47.892702, "lon": -122.2567322}, {"type": "node", "id": 3767922212, "lat": 47.8927573, "lon": -122.2564728}, {"type": "node", "id": 3767922215, "lat": 47.892796, "lon": -122.2576779}, {"type": "node", "id": 3767922221, "lat": 47.8929708, "lon": -122.2584651}, {"type": "node", "id": 3767922223, "lat": 47.8930129, "lon": -122.2584311}, {"type": "node", "id": 3767922225, "lat": 47.8930463, "lon": -122.258507}, {"type": "node", "id": 3767922228, "lat": 47.8931332, "lon": -122.2552192}, {"type": "node", "id": 3767922233, "lat": 47.8934099, "lon": -122.2556174}, {"type": "node", "id": 3767922236, "lat": 47.8935056, "lon": -122.2577866}, {"type": "node", "id": 3767922237, "lat": 47.8935074, "lon": -122.2580708}, {"type": "node", "id": 3767922238, "lat": 47.8935153, "lon": -122.2575626}, {"type": "node", "id": 3767922240, "lat": 47.8935381, "lon": -122.2556869}, {"type": "node", "id": 3767922244, "lat": 47.8939114, "lon": -122.2561126}, {"type": "node", "id": 3767922246, "lat": 47.8939615, "lon": -122.2571461}, {"type": "node", "id": 3767922250, "lat": 47.8941301, "lon": -122.2572915}, {"type": "node", "id": 3767922254, "lat": 47.8943251, "lon": -122.2570963}, {"type": "node", "id": 4702439286, "lat": 47.9045644, "lon": -122.2437297}, {"type": "node", "id": 4702439287, "lat": 47.9043781, "lon": -122.2436234}, {"type": "node", "id": 4702439288, "lat": 47.9043626, "lon": -122.243684}, {"type": "node", "id": 4702439289, "lat": 47.9043359, "lon": -122.2436688}, {"type": "node", "id": 4702439290, "lat": 47.9042851, "lon": -122.2438671}, {"type": "node", "id": 4702439291, "lat": 47.9043131, "lon": -122.2438831}, {"type": "node", "id": 4702439292, "lat": 47.9043064, "lon": -122.2439093}, {"type": "node", "id": 4702439293, "lat": 47.9044913, "lon": -122.2440148}, {"type": "node", "id": 4702439307, "lat": 47.90545, "lon": -122.2424982}, {"type": "node", "id": 4702439308, "lat": 47.9056122, "lon": -122.242352}, {"type": "node", "id": 4702439309, "lat": 47.9057196, "lon": -122.2426172}, {"type": "node", "id": 5471578143, "lat": 47.8920436, "lon": -122.233469}, {"type": "node", "id": 5471578148, "lat": 47.8927002, "lon": -122.2334737}, {"type": "node", "id": 5677079410, "lat": 47.8970007, "lon": -122.2551709, "tags": {"brand": "O'Reilly Auto Parts", "brand:wikidata": "Q7071951", "name": "O'Reilly Auto Parts", "shop": "car_parts"}}, {"type": "node", "id": 5677079412, "lat": 47.8971447, "lon": -122.2516968, "tags": {"amenity": "restaurant", "cuisine": "thai", "name": "ZAB"}}, {"type": "node", "id": 5677080373, "lat": 47.8971479, "lon": -122.2519301, "tags": {"amenity": "restaurant", "cuisine": "sushi", "name": "Oshima Sushi"}}, {"type": "node", "id": 6008685596, "lat": 47.9098577, "lon": -122.2277682, "tags": {"addr:city": "Everett", "addr:housenumber": "305", "addr:postcode": "98208", "addr:state": "WA", "addr:street": "Southeast Everett Mall Way", "addr:unit": "11", "amenity": "fast_food", "brand": "Subway", "brand:wikidata": "Q244457", "cuisine": "sandwich", "name": "Subway", "opening_hours": "10:00-20:00", "phone": "+1-425-353-4284", "takeaway": "yes", "website": "https://restaurants.subway.com/united-states/wa/everett/305-se-everett-mall-way"}}, {"type": "node", "id": 6008685597, "lat": 47.9097641, "lon": -122.2277713, "tags": {"name": "Saho Kunda African Braiding", "shop": "hairdresser"}}, {"type": "node", "id": 6008685986, "lat": 47.9089619, "lon": -122.2277608, "tags": {"brand": "GameStop", "brand:wikidata": "Q202210", "name": "GameStop", "shop": "video_games", "website": "https://www.gamestop.com/store/us/wa/everett/877/greentree-plaza-gamestop"}}, {"type": "node", "id": 6008686088, "lat": 47.9095563, "lon": -122.2277622, "tags": {"amenity": "fast_food", "name": "Toshi's Teriyaki Grill"}}, {"type": "node", "id": 6008686089, "lat": 47.9094741, "lon": -122.227758, "tags": {"amenity": "dentist", "brand": "Gentle Dental", "brand:wikidata": "Q108410773", "healthcare": "dentist", "name": "Gentle Dental"}}, {"type": "node", "id": 6008686090, "lat": 47.909363, "lon": -122.22776, "tags": {"alt_name": "Sally Beauty Supply", "brand": "Sally Beauty", "brand:wikidata": "Q7405065", "name": "Sally Beauty", "shop": "hairdresser_supply"}}, {"type": "node", "id": 6008686091, "lat": 47.9092295, "lon": -122.2277656, "tags": {"name": "VJ Nails Spa", "shop": "beauty"}}, {"type": "node", "id": 6008695586, "lat": 47.9088236, "lon": -122.22783, "tags": {"brand": "Mattress Firm", "brand:wikidata": "Q6791878", "fixme:atp": "check if location still exists; no corresponding ATP location found", "name": "Mattress Firm", "shop": "bed"}}, {"type": "node", "id": 6008697985, "lat": 47.9088126, "lon": -122.227686, "tags": {"addr:city": "Everett", "addr:housenumber": "305", "addr:postcode": "98208", "addr:state": "WA", "addr:street": "Southeast Everett Mall Way", "addr:unit": "30", "alt_name": "Jamba Juice", "amenity": "fast_food", "branch": "Greentree Plaza", "brand": "Jamba", "brand:wikidata": "Q3088784", "cuisine": "juice", "name": "Jamba", "opening_hours": "08:00-20:30", "phone": "+1-425-531-8280", "takeaway": "yes", "website": "https://locations.jamba.com/wa/everett/305-se-everett-mall-way"}}, {"type": "node", "id": 6008697986, "lat": 47.904806, "lon": -122.2399275, "tags": {"check_date": "2025-07-06", "name": "Automotive Unlimited", "shop": "car_repair"}}, {"type": "node", "id": 6008697987, "lat": 47.9047009, "lon": -122.2402599, "tags": {"shop": "car_repair"}}, {"type": "node", "id": 6008697988, "lat": 47.905567, "lon": -122.2412798, "tags": {"name": "Toyama", "shop": "toys"}}, {"type": "node", "id": 6008697989, "lat": 47.905323, "lon": -122.2421524, "tags": {"name": "Quality Sewing & Vacuum", "name:en": "Quality Sewing & Vacuum", "shop": "vacuum_cleaner"}}, {"type": "node", "id": 6008697990, "lat": 47.9053719, "lon": -122.2419576, "tags": {"name": "Gandy's Barber Shop", "shop": "hairdresser"}}, {"type": "node", "id": 6008697991, "lat": 47.9054718, "lon": -122.2415427, "tags": {"name": "Yale Cleaners", "shop": "dry_cleaning"}}, {"type": "node", "id": 6008697992, "lat": 47.9054896, "lon": -122.2414444, "tags": {"name": "Scrub-A-Dub Laundry", "shop": "laundry"}}, {"type": "node", "id": 6008700185, "lat": 47.9054218, "lon": -122.241738, "tags": {"amenity": "veterinary", "name": "Value Vet"}}, {"type": "node", "id": 6008700186, "lat": 47.9050319, "lon": -122.2420285, "tags": {"amenity": "restaurant", "brand": "Outback Steakhouse", "brand:wikidata": "Q1064893", "cuisine": "american;steak", "name": "Outback Steakhouse"}}, {"type": "node", "id": 6008700187, "lat": 47.905152, "lon": -122.2415031, "tags": {"brand": "Miracle-Ear", "brand:wikidata": "Q17108572", "name": "Miracle-Ear", "shop": "hearing_aids"}}, {"type": "node", "id": 6008700188, "lat": 47.9051071, "lon": -122.2417218, "tags": {"brand": "Great Clips", "brand:wikidata": "Q5598967", "name": "Great Clips", "shop": "hairdresser"}}, {"type": "node", "id": 6008700189, "lat": 47.9049209, "lon": -122.2430233, "tags": {"name": "Whistle Workwear", "shop": "clothes"}}, {"type": "node", "id": 6008700191, "lat": 47.9046533, "lon": -122.2406687, "tags": {"amenity": "car_rental", "brand": "Enterprise", "brand:wikidata": "Q17085454", "name": "Enterprise", "official_name": "Enterprise Rent-A-Car"}}, {"type": "node", "id": 6008700685, "lat": 47.9054526, "lon": -122.2416546, "tags": {"name": "Smokin' Mess", "shop": "convenience"}}, {"type": "node", "id": 6008702885, "lat": 47.9051873, "lon": -122.2413986, "tags": {"amenity": "post_office", "brand": "The UPS Store", "brand:wikidata": "Q7771029", "name": "The UPS Store", "short_name": "UPS"}}, {"type": "node", "id": 6008702886, "lat": 47.9050753, "lon": -122.2418123, "tags": {"name": "Veteran's Reality Services", "office": "company"}}, {"type": "node", "id": 6037775308, "lat": 47.905267, "lon": -122.2376061}, {"type": "node", "id": 6037775309, "lat": 47.9047398, "lon": -122.2376045}, {"type": "node", "id": 6037775310, "lat": 47.9047405, "lon": -122.2370798}, {"type": "node", "id": 6037775311, "lat": 47.9052274, "lon": -122.2370812}, {"type": "node", "id": 6037775312, "lat": 47.9052677, "lon": -122.2371388}, {"type": "node", "id": 6381993401, "lat": 47.8927425, "lon": -122.2611739}, {"type": "node", "id": 6381993402, "lat": 47.8926193, "lon": -122.2611148}, {"type": "node", "id": 6381993403, "lat": 47.8925881, "lon": -122.2612595}, {"type": "node", "id": 6381993404, "lat": 47.8926102, "lon": -122.2612701}, {"type": "node", "id": 6381993405, "lat": 47.8925828, "lon": -122.2613973}, {"type": "node", "id": 6381993406, "lat": 47.8926473, "lon": -122.2614282}, {"type": "node", "id": 6381993407, "lat": 47.8926794, "lon": -122.2612792}, {"type": "node", "id": 6381993408, "lat": 47.892716, "lon": -122.2612968}, {"type": "node", "id": 6381993447, "lat": 47.8929748, "lon": -122.2603215, "tags": {"addr:housenumber": "11611", "addr:street": "Airport Road", "addr:unit": "204", "name": "Warrior Massage", "shop": "massage", "website": "http://www.warriormassage.com/"}}, {"type": "node", "id": 6725108135, "lat": 47.890563, "lon": -122.258028, "tags": {"addr:city": "Everett", "addr:housenumber": "11820", "addr:postcode": "98204", "addr:state": "WA", "addr:street": "Evergreen Way", "amenity": "fast_food", "brand": "Jack in the Box", "brand:wikidata": "Q1538507", "cuisine": "burger", "name": "Jack in the Box", "phone": "+1-425-356-9920", "takeaway": "yes", "website": "https://locations.jackinthebox.com/us/wa/everett/11820-evergreen-way"}}, {"type": "node", "id": 6725108136, "lat": 47.8902651, "lon": -122.25838, "tags": {"amenity": "fuel", "brand": "7-Eleven", "brand:wikidata": "Q259340", "check_date": "2025-07-06", "name": "7-Eleven"}}, {"type": "node", "id": 6725108145, "lat": 47.89493, "lon": -122.2541376, "tags": {"shop": "car_parts"}}, {"type": "node", "id": 6725108147, "lat": 47.8960806, "lon": -122.2517647, "tags": {"amenity": "fuel", "brand": "Arco", "brand:wikidata": "Q304769", "name": "Arco"}}, {"type": "node", "id": 6725108148, "lat": 47.8960829, "lon": -122.252899, "tags": {"check_date": "2025-07-06", "name": "Excellent Choice Auto Sales", "second_hand": "only", "shop": "car"}}, {"type": "node", "id": 6725108150, "lat": 47.8986791, "lon": -122.2492165, "tags": {"shop": "storage_rental"}}, {"type": "node", "id": 6725108151, "lat": 47.8990898, "lon": -122.2502107, "tags": {"shop": "manufactured_homes"}}, {"type": "node", "id": 6725108152, "lat": 47.9013744, "lon": -122.2460457, "tags": {"check_date": "2025-07-06", "name": "Raidons VW", "shop": "car"}}, {"type": "node", "id": 6725108153, "lat": 47.9015404, "lon": -122.2479578, "tags": {"shop": "car"}}, {"type": "node", "id": 6725108154, "lat": 47.9020084, "lon": -122.2450828, "tags": {"check_date": "2025-07-06", "name": "Klein Honda", "shop": "car"}}, {"type": "node", "id": 6725108155, "lat": 47.9026793, "lon": -122.2449453, "tags": {"brand": "Chrysler;Jeep;Ram;Dodge", "brand:wikidata": "Q29610;Q30113;Q165708;Q27564", "name": "Dwayne Lane's Chrysler Dodge Jeep Ram", "opening_hours": "Mo-Fr 07:30-18:00; Sa 08:00-17:00", "shop": "car"}}, {"type": "node", "id": 6725108156, "lat": 47.9034285, "lon": -122.2464515, "tags": {"shop": "car"}}, {"type": "node", "id": 6725108157, "lat": 47.9033409, "lon": -122.243862, "tags": {"shop": "car_repair"}}, {"type": "node", "id": 6933733552, "lat": 47.9083468, "lon": -122.2412545, "tags": {"shop": "storage_rental"}}, {"type": "node", "id": 6933982783, "lat": 47.9075825, "lon": -122.2288457, "tags": {"shop": "convenience"}}, {"type": "node", "id": 6933982784, "lat": 47.9077964, "lon": -122.228607, "tags": {"amenity": "fuel"}}, {"type": "node", "id": 6933997085, "lat": 47.9072352, "lon": -122.2276816, "tags": {"shop": "storage_rental"}}, {"type": "node", "id": 6933997093, "lat": 47.8968629, "lon": -122.2221323, "tags": {"addr:city": "Everett", "addr:housenumber": "711", "addr:postcode": "98208", "addr:state": "WA", "addr:street": "112th Street Southeast", "brand": "7-Eleven", "brand:wikidata": "Q259340", "name": "7-Eleven", "opening_hours": "24/7", "shop": "convenience"}}, {"type": "node", "id": 6933997094, "lat": 47.8968576, "lon": -122.2225417, "tags": {"amenity": "fuel", "brand": "7-Eleven", "brand:wikidata": "Q259340", "compressed_air": "yes", "name": "7-Eleven"}}, {"type": "node", "id": 6933997105, "lat": 47.9069161, "lon": -122.2323906, "tags": {"amenity": "bank"}}, {"type": "node", "id": 6933997106, "lat": 47.9072361, "lon": -122.232919, "tags": {"amenity": "cafe", "brand": "Dutch Bros. Coffee", "brand:wikidata": "Q5317253", "cuisine": "coffee_shop", "name": "Dutch Bros. Coffee", "takeaway": "only"}}, {"type": "node", "id": 6933997107, "lat": 47.9066581, "lon": -122.2377705, "tags": {"check_date": "2025-07-06", "internet_access": "wlan", "internet_access:fee": "customers", "name": "Kia Of Everett", "opening_hours": "Mo-Fr 08:30-20:00; Sa 08:30-19:00; Su 10:00-18:00", "shop": "car"}}, {"type": "node", "id": 6934039033, "lat": 47.9084444, "lon": -122.2398033, "tags": {"check_date": "2025-07-06", "name": "Bayside Auto Sales", "shop": "car"}}, {"type": "node", "id": 6934039046, "lat": 47.907512, "lon": -122.2409908, "tags": {"amenity": "bank"}}, {"type": "node", "id": 6934039047, "lat": 47.9075039, "lon": -122.2405565, "tags": {"amenity": "atm"}}, {"type": "node", "id": 6934265563, "lat": 47.8919626, "lon": -122.2564784, "tags": {"amenity": "fuel", "brand": "Chevron", "brand:wikidata": "Q319642", "check_date": "2025-07-06", "name": "Chevron"}}, {"type": "node", "id": 6934265564, "lat": 47.8920094, "lon": -122.2568002, "tags": {"shop": "convenience"}}, {"type": "node", "id": 6934265565, "lat": 47.8906101, "lon": -122.2586241, "tags": {"brand": "7-Eleven", "brand:wikidata": "Q259340", "check_date": "2025-07-06", "name": "7-Eleven", "shop": "convenience"}}, {"type": "node", "id": 6934269023, "lat": 47.892876, "lon": -122.2335907}, {"type": "node", "id": 7174334365, "lat": 47.9041148, "lon": -122.2414698, "tags": {"addr:city": "Everett", "addr:housenumber": "510", "addr:state": "WA", "addr:street": "Southwest Everett Mall Way", "check_date": "2025-07-06", "name": "Judd & Black", "shop": "appliance"}}, {"type": "node", "id": 7174334366, "lat": 47.9038726, "lon": -122.2430337, "tags": {"addr:city": "Everett", "addr:housenumber": "530", "addr:postcode": "98204", "addr:state": "WA", "addr:street": "Southwest Everett Mall Way", "addr:unit": "106", "branch": "Everett", "brand": "Mattress Firm", "brand:wikidata": "Q6791878", "contact:sms": "+1 425-521-6432", "delivery": "yes", "name": "Mattress Firm", "phone": "+1-425-290-8440", "ref": "16906", "shop": "bed", "website": "https://www.mattressfirm.com/en-us/stores/wa/everett/508002/"}}, {"type": "node", "id": 7174334367, "lat": 47.9038781, "lon": -122.2428417, "tags": {"name": "IdentoGo", "office": "yes"}}, {"type": "node", "id": 7174334368, "lat": 47.9038781, "lon": -122.2425496, "tags": {"brand": "FedEx Office", "brand:wikidata": "Q474379", "name": "FedEx Office", "shop": "copyshop"}}, {"type": "node", "id": 7174334369, "lat": 47.9038871, "lon": -122.2423955, "tags": {"addr:city": "Everett", "addr:housenumber": "530", "addr:postcode": "98204", "addr:state": "WA", "addr:street": "Southwest Everett Mall Way", "amenity": "ice_cream", "brand": "Baskin-Robbins", "brand:wikidata": "Q584601", "cuisine": "ice_cream", "name": "Baskin-Robbins", "opening_hours": "11:00-21:00", "phone": "+1-425-348-3100", "website": "https://locations.baskinrobbins.com/wa/everett/530-sw-everett-mall-way-362005-br"}}, {"type": "node", "id": 7174334370, "lat": 47.9038944, "lon": -122.242044, "tags": {"check_date": "2025-07-06", "name": "Star Fruits and Vegetables", "shop": "greengrocer"}}, {"type": "node", "id": 7983159958, "lat": 47.899654, "lon": -122.2496381}, {"type": "node", "id": 7983159959, "lat": 47.8995587, "lon": -122.2493974}, {"type": "node", "id": 7983159960, "lat": 47.8995034, "lon": -122.2494461}, {"type": "node", "id": 7983159961, "lat": 47.8994929, "lon": -122.2494197}, {"type": "node", "id": 7983159962, "lat": 47.8994767, "lon": -122.249434}, {"type": "node", "id": 7983159963, "lat": 47.8994607, "lon": -122.2493937}, {"type": "node", "id": 7983159964, "lat": 47.8993774, "lon": -122.2494672}, {"type": "node", "id": 7983159965, "lat": 47.8993945, "lon": -122.2495102}, {"type": "node", "id": 7983159966, "lat": 47.8993796, "lon": -122.2495233}, {"type": "node", "id": 7983159967, "lat": 47.8993934, "lon": -122.2495583}, {"type": "node", "id": 7983159968, "lat": 47.8993415, "lon": -122.249604}, {"type": "node", "id": 7983159969, "lat": 47.8994375, "lon": -122.2498461}, {"type": "node", "id": 7983159970, "lat": 47.89945, "lon": -122.2498351}, {"type": "node", "id": 7983159971, "lat": 47.8994635, "lon": -122.2498691}, {"type": "node", "id": 7983159972, "lat": 47.8996086, "lon": -122.2497411}, {"type": "node", "id": 7983159973, "lat": 47.8995955, "lon": -122.2497081}, {"type": "node", "id": 7983159974, "lat": 47.8996092, "lon": -122.2496963}, {"type": "node", "id": 7983159975, "lat": 47.8996098, "lon": -122.2496776}, {"type": "node", "id": 7983165207, "lat": 47.8974023, "lon": -122.2499491}, {"type": "node", "id": 7983165208, "lat": 47.8973426, "lon": -122.2498046}, {"type": "node", "id": 7983165209, "lat": 47.8975223, "lon": -122.2496395}, {"type": "node", "id": 7983165210, "lat": 47.8974164, "lon": -122.249383}, {"type": "node", "id": 7983165211, "lat": 47.8972915, "lon": -122.2494978}, {"type": "node", "id": 7983165212, "lat": 47.8972727, "lon": -122.2494523}, {"type": "node", "id": 7983165213, "lat": 47.8970117, "lon": -122.2496922}, {"type": "node", "id": 7983165214, "lat": 47.8970513, "lon": -122.249788}, {"type": "node", "id": 7983165215, "lat": 47.8969792, "lon": -122.2498543}, {"type": "node", "id": 7983165216, "lat": 47.8970259, "lon": -122.2499672}, {"type": "node", "id": 7983165217, "lat": 47.8970141, "lon": -122.249993}, {"type": "node", "id": 7983165218, "lat": 47.8970023, "lon": -122.2500404}, {"type": "node", "id": 7983165219, "lat": 47.8970032, "lon": -122.2501217}, {"type": "node", "id": 7983165220, "lat": 47.8970359, "lon": -122.2501949}, {"type": "node", "id": 7983165221, "lat": 47.897085, "lon": -122.2502166}, {"type": "node", "id": 7983165222, "lat": 47.8971258, "lon": -122.250203}, {"type": "node", "id": 8570436222, "lat": 47.9046867, "lon": -122.2480652, "tags": {"amenity": "shelter", "name": "Olin Fields Party Gazebo"}}, {"type": "node", "id": 8573616624, "lat": 47.9050468, "lon": -122.2479241, "tags": {"amenity": "clock"}}, {"type": "node", "id": 8805384522, "lat": 47.9080157, "lon": -122.2361384, "tags": {"amenity": "shelter", "shelter_type": "gazebo"}}, {"type": "node", "id": 8890538681, "lat": 47.8910813, "lon": -122.2590319, "tags": {"addr:city": "Everett", "addr:housenumber": "11731", "addr:street": "Airport Road", "amenity": "restaurant", "cuisine": "mexican", "name": "La Palmera - Everett", "name:en": "La Palmera - Everett", "opening_hours": "Su-Th 11:00-22:00; Fr-Sa 11:00-00:00", "phone": "+1-425-290-8800", "website": "https://www.lapalmerafmr.com/"}}, {"type": "node", "id": 8893484793, "lat": 47.8926156, "lon": -122.256269}, {"type": "node", "id": 8893484794, "lat": 47.8925255, "lon": -122.2563528}, {"type": "node", "id": 8893484795, "lat": 47.8924233, "lon": -122.2561082}, {"type": "node", "id": 8893484796, "lat": 47.8925134, "lon": -122.2560245}, {"type": "node", "id": 8963873447, "lat": 47.9079815, "lon": -122.2279045}, {"type": "node", "id": 8963873448, "lat": 47.9079816, "lon": -122.2279845}, {"type": "node", "id": 8963873449, "lat": 47.9078349, "lon": -122.227985}, {"type": "node", "id": 8963873450, "lat": 47.9078347, "lon": -122.2278678}, {"type": "node", "id": 8963873451, "lat": 47.9078236, "lon": -122.2278678}, {"type": "node", "id": 8963873452, "lat": 47.9078233, "lon": -122.2276985}, {"type": "node", "id": 8963873453, "lat": 47.9079902, "lon": -122.2276979}, {"type": "node", "id": 8963873454, "lat": 47.9079905, "lon": -122.2279044}, {"type": "node", "id": 9143285671, "lat": 47.8945357, "lon": -122.2276691, "tags": {"amenity": "fountain", "drinking_water": "no"}}, {"type": "node", "id": 10845316866, "lat": 47.9067783, "lon": -122.2367461, "tags": {"addr:city": "Everett", "addr:housenumber": "215", "addr:postcode": "98204", "addr:state": "WA", "addr:street": "Southwest Everett Mall Way", "name": "Everett Powersports", "phone": "+1-425-347-4545", "shop": "motorcycle", "website": "https://www.everettpowersports.com/"}}, {"type": "node", "id": 10881571728, "lat": 47.8934916, "lon": -122.2560942, "tags": {"amenity": "charging_station", "name": "Electrify America"}}, {"type": "node", "id": 11055322414, "lat": 47.9037863, "lon": -122.2458295, "tags": {"amenity": "car_wash"}}, {"type": "node", "id": 11055322415, "lat": 47.9059931, "lon": -122.2455772, "tags": {"shop": "storage_rental"}}, {"type": "node", "id": 11090894154, "lat": 47.8922872, "lon": -122.2572985, "tags": {"addr:city": "Everett", "addr:housenumber": "11632", "addr:postcode": "98204", "addr:state": "WA", "addr:street": "Evergreen Way", "amenity": "fast_food", "brand": "Domino's", "brand:wikidata": "Q839466", "cuisine": "pizza", "name": "Domino's", "opening_hours": "Mo-Th 10:30-24:00; Fr-Sa 10:30-01:00; Su 10:30-24:00", "phone": "+1-425-953-5330", "ref": "9431", "takeaway": "yes", "website": "https://pizza.dominos.com/washington/everett/11632-evergreen-way"}}, {"type": "node", "id": 11879917446, "lat": 47.9040832, "lon": -122.2453001}, {"type": "node", "id": 11879917447, "lat": 47.9040583, "lon": -122.24524}, {"type": "node", "id": 11879917448, "lat": 47.903965, "lon": -122.2453262}, {"type": "node", "id": 11879917449, "lat": 47.90399, "lon": -122.2453863}, {"type": "node", "id": 11879917450, "lat": 47.9041235, "lon": -122.2451957}, {"type": "node", "id": 11879917451, "lat": 47.9041763, "lon": -122.2451446}, {"type": "node", "id": 11879917452, "lat": 47.9042539, "lon": -122.2453228}, {"type": "node", "id": 11879917453, "lat": 47.9042313, "lon": -122.2453446}, {"type": "node", "id": 11879917454, "lat": 47.9042476, "lon": -122.245382}, {"type": "node", "id": 11879917455, "lat": 47.9042137, "lon": -122.2454149}, {"type": "node", "id": 11879917456, "lat": 47.9041937, "lon": -122.2453689}, {"type": "node", "id": 11879917457, "lat": 47.9042038, "lon": -122.2453507}, {"type": "node", "id": 11879917458, "lat": 47.9041511, "lon": -122.2452297}, {"type": "node", "id": 11879917459, "lat": 47.9041421, "lon": -122.2452385}, {"type": "node", "id": 11980126269, "lat": 47.908213, "lon": -122.226905, "tags": {"addr:city": "Everett", "addr:country": "US", "addr:housenumber": "316", "addr:postcode": "98204-2782", "addr:state": "WA", "addr:street": "South Everett Mall Way", "amenity": "fast_food", "brand": "McDonald's", "brand:wikidata": "Q38076", "cuisine": "burger", "drive_through": "yes", "internet_access": "wlan", "name": "McDonald's", "opening_hours": "06:00-22:00", "phone": "+1-425-347-8599", "ref": "10831", "takeaway": "yes", "website": "https://www.mcdonalds.com/us/en-us/location/10831.html"}}, {"type": "node", "id": 12662229710, "lat": 47.8970452, "lon": -122.2234204, "tags": {"addr:city": "Everett", "addr:housenumber": "615", "addr:postcode": "98208", "addr:state": "WA", "addr:street": "112th Street Southeast", "amenity": "restaurant", "cuisine": "sandwich;ice_cream", "name": "Angels Chicken", "opening_hours": "Mo-Su 11:00-22:00", "phone": "+1-425-382-2973", "website": "https://angelschicken.com/"}}, {"type": "node", "id": 12662229711, "lat": 47.8969606, "lon": -122.222129, "tags": {"addr:city": "Everett", "addr:housenumber": "711", "addr:postcode": "98208", "addr:state": "WA", "addr:street": "112th Street Southeast", "addr:unit": "B", "amenity": "restaurant", "cuisine": "pizza;pasta", "name": "Silver Lake Pizza and Pasta", "phone": "+1-425-348-4134", "website": "https://slpizzaandpasta.com/"}}, {"type": "node", "id": 12716202579, "lat": 47.8974857, "lon": -122.2495508}, {"type": "node", "id": 12716202583, "lat": 47.8973217, "lon": -122.2494722}, {"type": "node", "id": 12716202586, "lat": 47.8974243, "lon": -122.2494014}, {"type": "node", "id": 12716202589, "lat": 47.8973563, "lon": -122.2494407}, {"type": "node", "id": 12796439782, "lat": 47.9027574, "lon": -122.245107, "tags": {"brand": "Jeep;Dodge;Ram;Chrysler", "brand:wikidata": "Q30113;Q27564;Q165708;Q29610", "name": "Dwayne Lane's Chrysler Dodge Jeep Ram", "shop": "car_repair"}}, {"type": "node", "id": 12847930101, "lat": 47.8910998, "lon": -122.2577994, "tags": {"addr:housenumber": "10318", "addr:postcode": "98204", "addr:street": "Evergreen Way", "name": "Woods Coffee", "shop": "coffee", "website": "https://woodscoffee.com/"}}, {"type": "node", "id": 12882676592, "lat": 47.896783, "lon": -122.2525845, "tags": {"addr:city": "Everett", "addr:housenumber": "11126", "addr:postcode": "98204", "addr:state": "WA", "addr:street": "Evergreen Way", "amenity": "cafe", "cuisine": "breakfast;diner", "name": "Teto's 112th Street Cafe", "opening_hours": "Mo-Su 07:30-21:00", "outdoor_seating": "no"}}, {"type": "node", "id": 12909662107, "lat": 47.8909851, "lon": -122.2564039, "tags": {"addr:city": "Everett", "addr:housenumber": "1629", "addr:postcode": "98204", "addr:state": "WA", "addr:street": "Center Road", "amenity": "fast_food", "branch": "Everett", "cuisine": "burger", "name": "Dick's Drive-In", "website": "https://www.ddir.com/locations/everett/"}}, {"type": "node", "id": 12984719646, "lat": 47.8912816, "lon": -122.2575115, "tags": {"amenity": "restaurant", "check_date": "2025-07-06", "cuisine": "mexican", "name": "El Taco Boom"}}, {"type": "node", "id": 12984719654, "lat": 47.8915227, "lon": -122.2569191, "tags": {"check_date": "2025-07-06", "name": "Sunset Auto Sales", "shop": "car"}}, {"type": "node", "id": 12984719655, "lat": 47.891235, "lon": -122.2575973, "tags": {"amenity": "restaurant", "check_date": "2025-07-06", "cuisine": "japanese", "name": "Bento Time"}}, {"type": "node", "id": 12984719656, "lat": 47.9042843, "lon": -122.2368931, "tags": {"check_date": "2025-07-06", "name": "Affordable Everett", "shop": "storage_rental"}}, {"type": "node", "id": 12984719657, "lat": 47.8952527, "lon": -122.2523025, "tags": {"check_date": "2025-07-06", "name": "Zips", "shop": "cannabis"}}, {"type": "node", "id": 12984719658, "lat": 47.8955733, "lon": -122.2520552, "tags": {"check_date": "2025-07-06", "shop": "tyres"}}, {"type": "node", "id": 12984719659, "lat": 47.8967448, "lon": -122.2521533, "tags": {"brand": "O'Reilly Auto Parts", "brand:wikidata": "Q7071951", "check_date": "2025-07-06", "name": "O'Reilly Auto Parts", "shop": "car_parts"}}, {"type": "node", "id": 12984719660, "lat": 47.8971271, "lon": -122.2520347, "tags": {"amenity": "fast_food", "check_date": "2025-07-06", "cuisine": "donut", "name": "Tyler's Donuts"}}, {"type": "node", "id": 12984719661, "lat": 47.8971326, "lon": -122.2518243, "tags": {"check_date": "2025-07-06", "name": "Alem Mart", "shop": "supermarket"}}, {"type": "node", "id": 12984719663, "lat": 47.9063255, "lon": -122.2385217, "tags": {"check_date": "2025-07-06", "name": "Evergreen Auto Repair", "shop": "car_repair"}}, {"type": "node", "id": 12984719664, "lat": 47.9059785, "lon": -122.2357877, "tags": {"check_date": "2025-07-06", "name": "Sea Pac Homes", "office": "company"}}, {"type": "node", "id": 12984719665, "lat": 47.9056503, "lon": -122.2365482, "tags": {"check_date": "2025-07-06", "name": "Goodwill Job Training & Education Center", "office": "company"}}, {"type": "node", "id": 12984719668, "lat": 47.9055233, "lon": -122.2365908, "tags": {"check_date": "2025-07-06", "name": "People Ready", "office": "employment_agency"}}, {"type": "node", "id": 12984719669, "lat": 47.9058143, "lon": -122.2365915, "tags": {"amenity": "childcare", "check_date": "2025-07-06", "name": "Little Pandas Play Cafe"}}, {"type": "node", "id": 12984719670, "lat": 47.9058248, "lon": -122.2382614, "tags": {"amenity": "cafe", "check_date": "2025-07-06", "cuisine": "coffee_shop", "name": "Planet Beanz"}}, {"type": "node", "id": 12984719671, "lat": 47.9059416, "lon": -122.238361, "tags": {"check_date": "2025-07-06", "name": "Food Mart", "shop": "convenience"}}, {"type": "node", "id": 12984719672, "lat": 47.9059285, "lon": -122.2385347, "tags": {"amenity": "fuel", "check_date": "2025-07-06", "name": "Shell"}}, {"type": "node", "id": 12984719673, "lat": 47.8997748, "lon": -122.2493539, "tags": {"brand": "John L. Scott", "brand:wikidata": "Q6243687", "check_date": "2025-07-06", "name": "John L. Scott", "office": "estate_agent"}}, {"type": "node", "id": 12984719681, "lat": 47.9040156, "lon": -122.2395088, "tags": {"check_date": "2025-07-06", "name": "Pacific Reliance Insurance", "office": "insurance"}}, {"type": "node", "id": 12984719682, "lat": 47.9043394, "lon": -122.2395809, "tags": {"amenity": "cafe", "check_date": "2025-07-06", "name": "Box Cafe"}}, {"type": "node", "id": 12984719683, "lat": 47.9070349, "lon": -122.2387455, "tags": {"check_date": "2025-07-06", "name": "Salon La Belleza", "shop": "hairdresser"}}, {"type": "node", "id": 13161800247, "lat": 47.9061608, "lon": -122.2347287, "tags": {"addr:city": "Everett", "addr:housenumber": "20", "addr:postcode": "98204", "addr:state": "WA", "addr:street": "Southwest Everett Mall Way", "addr:unit": "6", "brand": "Allstate", "brand:wikidata": "Q2645636", "contact:facebook": "https://www.facebook.com/michaelgardnerallstate", "name": "Gardner Agency: Allstate Insurance", "office": "insurance", "opening_hours": "Mo-Th 08:30-17:30; Fr 09:00-17:00", "phone": "+1-425-290-7109", "website": "https://agents.allstate.com/michael-gardner-everett-wa.html"}}, {"type": "way", "id": 37815173, "nodes": [443547963, 6934269023, 50805931, 5471578148, 50770037, 5471578143, 50680027, 443548095, 443548096, 443547965, 443547964, 443547963], "tags": {"amenity": "school", "name": "Discovery Elementary School"}}, {"type": "way", "id": 74600985, "nodes": [881446775, 881446763, 881446768, 881446771, 881446775], "tags": {"addr:city": "Everett", "addr:housenumber": "10411", "addr:postcode": "98204", "addr:state": "WA", "addr:street": "Airport Road", "building": "commercial", "name": "Randy's Ring & Pinion", "shop": "car_repair", "website": "https://www.ringpinionservice.com/"}}, {"type": "way", "id": 260222346, "nodes": [2657074855, 2657074856, 2657074857, 2657074858, 2657074859, 2657074860, 2657074855], "tags": {"addr:city": "Everett", "addr:housenumber": "10500", "addr:state": "WA", "addr:street": "State Highway 99 S", "name": "Magic Nissan of Everett", "opening_hours": "08:30 - 21:00", "postal_code": "98204", "shop": "car"}}, {"type": "way", "id": 368554584, "nodes": [3724117889, 3724117890, 3724117891, 3724117892, 3724117889], "tags": {"amenity": "fuel", "brand": "Chevron", "brand:wikidata": "Q319642", "building": "roof", "contact:website": "http://www.chevronwithtechron.com/", "fuel:diesel": "yes", "fuel:octane_87": "yes", "fuel:octane_89": "yes", "fuel:octane_92": "yes", "name": "Chevron", "ref": "207894"}}, {"type": "way", "id": 368554587, "nodes": [3724117893, 3724117894, 3724117895, 3724117896, 3724117897, 3724117893], "tags": {"addr:city": "Everett", "addr:housenumber": "10220", "addr:postcode": "98204", "addr:state": "WA", "addr:street": "Evergreen Way", "brand": "Chevron", "building": "retail", "contact:phone": "+1-425-438-9535", "contact:website": "http://www.chevronwithtechron.com/", "name": "Olivia Park Chevron", "opening_hours": "Mo-Fr 05:00-02:00; Sa-Su 06:00-02:00", "shop": "convenience"}}, {"type": "way", "id": 368554592, "nodes": [3724117876, 3724117912, 3724117911, 3724117877, 3724117851, 3724117852, 3724117853, 3724117854, 3724117855, 3724117856, 3724117857, 3724117858, 3724117859, 3724117876], "tags": {"addr:city": "Everett", "addr:housenumber": "10011", "addr:postcode": "98204", "addr:state": "WA", "addr:street": "Evergreen Way", "brand": "Hobby Lobby", "brand:wikidata": "Q5874938", "building": "retail", "contact:phone": "+1-425-347-3712", "contact:website": "http://www.hobbylobby.com/", "name": "Hobby Lobby", "opening_hours": "Mo-Sa 09:00-20:00", "shop": "craft"}}, {"type": "way", "id": 368554597, "nodes": [3724117913, 3724117914, 3724117915, 3724117916, 3724117913], "tags": {"addr:city": "Everett", "addr:housenumber": "401", "addr:postcode": "98204", "addr:state": "WA", "addr:street": "Southwest Everett Mall Way", "amenity": "cafe", "building": "yes", "contact:phone": "+1-425-347-1425", "contact:website": "http://www.bigfootjava.com/", "cuisine": "coffee_shop", "name": "BigFoot Java", "opening_hours": "24/7"}}, {"type": "way", "id": 373299640, "nodes": [3767922254, 3767922244, 3767922240, 3767922233, 3767922228, 3767922199, 3767922212, 3767922205, 3767922207, 3767922209, 3767922201, 3767922202, 3767922215, 3767922208, 3767922221, 3767922223, 3767922225, 3767922237, 3767922236, 3767922238, 3767922246, 3767922250, 3767922254], "tags": {"amenity": "parking"}}, {"type": "way", "id": 373299645, "nodes": [3767922182, 3767922186, 3767922177, 3767922174, 3767922182], "tags": {"amenity": "fuel", "brand": "Valero", "brand:wikidata": "Q1283291", "building": "roof", "name": "Valero"}}, {"type": "way", "id": 476758709, "nodes": [4702439293, 4702439292, 4702439291, 4702439290, 4702439289, 4702439288, 4702439287, 4702439286, 4702439293], "tags": {"addr:city": "Everett", "addr:housenumber": "10301", "addr:postcode": "98204", "addr:state": "WA", "addr:street": "Evergreen Way", "amenity": "restaurant", "brand": "IHOP", "brand:wikidata": "Q1185675", "building": "yes", "check_date": "2024-09-01", "cuisine": "breakfast;pancake", "name": "IHOP", "opening_hours": "07:00-22:00", "phone": "+1-425-355-3122", "website": "https://restaurants.ihop.com/en-us/wa/everett/breakfast-10301-evergreen-way-700"}}, {"type": "way", "id": 476758714, "nodes": [3724117878, 4702439309, 4702439308, 4702439307, 3724117878], "tags": {"addr:city": "Everett", "addr:housenumber": "10117", "addr:postcode": "98204", "addr:state": "WA", "addr:street": "Evergreen Way", "atm": "yes", "brand": "7-Eleven", "brand:wikidata": "Q259340", "building": "yes", "fast_food": "yes", "fuel:propane": "yes", "name": "7-Eleven", "phone": "+1-425-265-7540", "ref": "36171", "shop": "convenience", "website": "https://www.7-eleven.com/locations/wa/everett/10117-evergreen-way-36171"}}, {"type": "way", "id": 641009506, "nodes": [6037775308, 6037775309, 6037775310, 6037775311, 6037775312, 6037775308], "tags": {"addr:city": "Everett", "addr:housenumber": "228", "addr:state": "WA", "addr:street": "Southwest Everett Mall Way", "brand": "Goodwill", "brand:wikidata": "Q5583655", "building": "yes", "name": "Goodwill", "opening_hours": "Mo-Fr 09:00-21:00; Sa-Su 09:00-21:00", "shop": "charity", "website": "https://seattlegoodwill.org/locations/9"}}, {"type": "way", "id": 681489293, "nodes": [6381993401, 6381993402, 6381993403, 6381993404, 6381993405, 6381993406, 6381993407, 6381993408, 6381993401], "tags": {"building": "yes", "name": "Airport Massage", "shop": "massage"}}, {"type": "way", "id": 856162714, "nodes": [7983165207, 7983165208, 7983165209, 12716202579, 12716202586, 7983165210, 12716202589, 12716202583, 7983165211, 7983165212, 7983165213, 7983165214, 7983165215, 7983165216, 7983165217, 7983165218, 7983165219, 7983165220, 7983165221, 7983165222, 7983165207], "tags": {"amenity": "bank", "brand": "BECU", "brand:wikidata": "Q4835409", "building": "yes", "name": "BECU"}}, {"type": "way", "id": 856162949, "nodes": [7983159958, 7983159959, 7983159960, 7983159961, 7983159962, 7983159963, 7983159964, 7983159965, 7983159966, 7983159967, 7983159968, 7983159969, 7983159970, 7983159971, 7983159972, 7983159973, 7983159974, 7983159975, 7983159958], "tags": {"amenity": "restaurant", "building": "yes"}}, {"type": "way", "id": 961433494, "nodes": [8893484793, 8893484794, 8893484795, 8893484796, 8893484793], "tags": {"addr:city": "Everett", "addr:housenumber": "11610", "addr:postcode": "98204", "addr:state": "WA", "addr:street": "Evergreen Way", "amenity": "fast_food", "branch": "Evergreen & Airport Road", "brand": "Panda Express", "brand:wikidata": "Q1358690", "building": "yes", "cuisine": "chinese", "name": "Panda Express", "opening_hours": "Mo-Su 10:00-22:00", "phone": "+1-425-710-0278", "takeaway": "yes", "website": "https://www.pandaexpress.com/userlocation/1291/wa/everett/11610-evergreen-way"}}, {"type": "way", "id": 968876357, "nodes": [8963873447, 8963873448, 8963873449, 8963873450, 8963873451, 8963873452, 8963873453, 8963873454, 8963873447], "tags": {"addr:city": "Everett", "addr:housenumber": "304", "addr:postcode": "98208", "addr:state": "WA", "addr:street": "Southeast Everett Mall Way", "amenity": "fast_food", "brand": "Panera Bread", "brand:wikidata": "Q7130852", "building": "yes", "cuisine": "sandwich;bakery", "drive_through": "yes", "name": "Panera Bread", "opening_hours": "Mo-Sa 06:00-21:00; Su 07:00-21:00", "phone": "+1-425-265-9531", "short_name": "Panera", "takeaway": "yes", "website": "https://locations.panerabread.com/wa/everett/304-se-everett-mall-way.html"}}, {"type": "way", "id": 1279766540, "nodes": [11879917446, 11879917447, 11879917448, 11879917449, 11879917446], "tags": {"amenity": "cafe", "building": "yes", "name": "The Woods"}}, {"type": "way", "id": 1279766541, "nodes": [11879917450, 11879917451, 11879917452, 11879917453, 11879917454, 11879917455, 11879917456, 11879917457, 11879917458, 11879917459, 11879917450], "tags": {"addr:city": "Everett", "addr:housenumber": "10316", "addr:postcode": "98204", "addr:state": "WA", "addr:street": "Evergreen Way", "amenity": "fast_food", "brand": "Sonic", "brand:wikidata": "Q7561808", "building": "yes", "cuisine": "burger", "drive_in": "yes", "name": "Sonic", "opening_hours": "08:00-23:00", "phone": "+1-425-374-7806", "takeaway": "yes", "website": "https://locations.sonicdrivein.com/wa/everett/10316-evergreen-way.html"}}]}