{"version": 0.6, "generator": "Overpass API 0.7.62.8 e802775f", "osm3s": {"timestamp_osm_base": "2025-12-13T00:38:22Z", "copyright": "The data included in this document is from www.openstreetmap.org. The data is made available under ODbL."}, "elements": [{"type": "node", "id": 177560576, "lat": 37.4708535, "lon": -108.5182154}, {"type": "node", "id": 358945533, "lat": 37.4725719, "lon": -108.508916, "tags": {"amenity": "place_of_worship", "denomination": "pentecostal", "ele": "2134", "gnis:feature_id": "1794971", "name": "Friendship Assembly of God", "religion": "christian"}}, {"type": "node", "id": 358945535, "lat": 37.4733212, "lon": -108.5046443, "tags": {"amenity": "place_of_worship", "denomination": "baptist", "ele": "2113", "gnis:feature_id": "1794972", "name": "Dolores Southern Baptist Church", "religion": "christian"}}, {"type": "node", "id": 358945540, "lat": 37.4761041, "lon": -108.4934241, "tags": {"amenity": "school", "ele": "2119", "gnis:feature_id": "1794977", "name": "Dolores High School"}}, {"type": "node", "id": 358945542, "lat": 37.4758309, "lon": -108.4949684, "tags": {"amenity": "school", "ele": "2120", "gnis:feature_id": "1794978", "name": "Dolores Elementary School"}}, {"type": "node", "id": 358945545, "lat": 37.4755485, "lon": -108.4995354, "tags": {"amenity": "place_of_worship", "denomination": "methodist", "ele": "2117", "gnis:feature_id": "1794979", "name": "United Methodist Church", "religion": "christian"}}, {"type": "node", "id": 358945551, "lat": 37.4746502, "lon": -108.5009638, "tags": {"amenity": "place_of_worship", "denomination": "baptist", "ele": "2115", "gnis:feature_id": "1794981", "name": "First Baptist Church", "religion": "christian"}}, {"type": "node", "id": 366394707, "lat": 37.4715904, "lon": -108.5114009, "tags": {"addr:state": "CO", "amenity": "fire_station", "ele": "2114", "gnis:feature_id": "1794984", "name": "Dolores Fire Protection District"}}, {"type": "node", "id": 366395594, "lat": 37.473604, "lon": -108.5039799, "tags": {"addr:state": "CO", "amenity": "library", "ele": "2113", "gnis:feature_id": "1794974", "name": "Dolores Public Library"}}, {"type": "node", "id": 366395886, "lat": 37.4737554, "lon": -108.5036989}, {"type": "node", "id": 4343777783, "lat": 37.4709047, "lon": -108.5075403}, {"type": "node", "id": 4343777784, "lat": 37.4708709, "lon": -108.5074714}, {"type": "node", "id": 4343777785, "lat": 37.4707486, "lon": -108.5075668}, {"type": "node", "id": 4343777786, "lat": 37.4707825, "lon": -108.5076357}, {"type": "node", "id": 4343778002, "lat": 37.471837, "lon": -108.5083941}, {"type": "node", "id": 4343778003, "lat": 37.4718805, "lon": -108.5081428}, {"type": "node", "id": 4343778004, "lat": 37.4715701, "lon": -108.5080295}, {"type": "node", "id": 4343778005, "lat": 37.4715126, "lon": -108.5079694}, {"type": "node", "id": 4343778006, "lat": 37.4714297, "lon": -108.5079888}, {"type": "node", "id": 4343778007, "lat": 37.4713735, "lon": -108.5082136}, {"type": "node", "id": 4343778008, "lat": 37.4714311, "lon": -108.5083091}, {"type": "node", "id": 4923112883, "lat": 37.4728076, "lon": -108.5046385, "tags": {"name": "Lizard Head Cyclery", "shop": "bicycle"}}, {"type": "node", "id": 5628545494, "lat": 37.4736427, "lon": -108.5039528}, {"type": "node", "id": 5628545495, "lat": 37.4737111, "lon": -108.5039705}, {"type": "node", "id": 5628545496, "lat": 37.473611, "lon": -108.5036615}, {"type": "node", "id": 5628545497, "lat": 37.4735484, "lon": -108.5040452}, {"type": "node", "id": 5628545498, "lat": 37.4736244, "lon": -108.5040648}, {"type": "node", "id": 6418186585, "lat": 37.4746882, "lon": -108.5004226}, {"type": "node", "id": 6418186586, "lat": 37.4746963, "lon": -108.5003691}, {"type": "node", "id": 6418186587, "lat": 37.4746721, "lon": -108.5003633}, {"type": "node", "id": 6418186588, "lat": 37.4747025, "lon": -108.5001611}, {"type": "node", "id": 6418186589, "lat": 37.4747328, "lon": -108.5001683}, {"type": "node", "id": 6418186590, "lat": 37.4747359, "lon": -108.5001481}, {"type": "node", "id": 6418186591, "lat": 37.4747575, "lon": -108.5001532}, {"type": "node", "id": 6418186592, "lat": 37.4747549, "lon": -108.5001707}, {"type": "node", "id": 6418186593, "lat": 37.4747885, "lon": -108.5001787}, {"type": "node", "id": 6418186594, "lat": 37.4747938, "lon": -108.5001434}, {"type": "node", "id": 6418186595, "lat": 37.4747377, "lon": -108.50013}, {"type": "node", "id": 6418186596, "lat": 37.4746962, "lon": -108.5001201}, {"type": "node", "id": 6418186597, "lat": 37.4747198, "lon": -108.4999635}, {"type": "node", "id": 6418186598, "lat": 37.4748318, "lon": -108.4999902}, {"type": "node", "id": 6418186599, "lat": 37.474835, "lon": -108.4999686}, {"type": "node", "id": 6418186600, "lat": 37.4748854, "lon": -108.4999806}, {"type": "node", "id": 6418186601, "lat": 37.4748584, "lon": -108.5001607}, {"type": "node", "id": 6418186602, "lat": 37.4748331, "lon": -108.5001547}, {"type": "node", "id": 6418186603, "lat": 37.4748167, "lon": -108.500264}, {"type": "node", "id": 6418186604, "lat": 37.474775, "lon": -108.5002541}, {"type": "node", "id": 6418186605, "lat": 37.4747557, "lon": -108.5003826}, {"type": "node", "id": 6418186606, "lat": 37.474731, "lon": -108.5003767}, {"type": "node", "id": 6418186607, "lat": 37.4747228, "lon": -108.5004309}, {"type": "node", "id": 6484780240, "lat": 37.4739644, "lon": -108.4971522, "tags": {"amenity": "post_office", "name": "Dolores Post Office"}}, {"type": "node", "id": 6633217536, "lat": 37.471496, "lon": -108.5079733}, {"type": "node", "id": 6633217539, "lat": 37.4708826, "lon": -108.5074952}, {"type": "node", "id": 6633217540, "lat": 37.4716798, "lon": -108.507967}, {"type": "node", "id": 6633217541, "lat": 37.4716074, "lon": -108.5079407}, {"type": "node", "id": 6633217542, "lat": 37.4716309, "lon": -108.5078377}, {"type": "node", "id": 6633217543, "lat": 37.4717033, "lon": -108.5078639}, {"type": "node", "id": 6633217544, "lat": 37.4716209, "lon": -108.5078809}, {"type": "node", "id": 6633217545, "lat": 37.4718778, "lon": -108.5080667, "tags": {"amenity": "drinking_water"}}, {"type": "node", "id": 6633243417, "lat": 37.4711065, "lon": -108.5181774}, {"type": "node", "id": 6633243418, "lat": 37.4709399, "lon": -108.5173586}, {"type": "node", "id": 6633243419, "lat": 37.4711661, "lon": -108.5174157}, {"type": "node", "id": 6633243421, "lat": 37.4711411, "lon": -108.517736}, {"type": "node", "id": 7165231172, "lat": 37.4735987, "lon": -108.502723, "tags": {"addr:city": "Dolores", "addr:housenumber": "501", "addr:postcode": "81323", "addr:state": "CO", "addr:street": "Railroad Avenue", "amenity": "fuel", "brand": "Speedway", "brand:wikidata": "Q7575683", "fuel:diesel": "yes", "fuel:octane_86": "yes", "fuel:octane_87": "no", "fuel:octane_88": "yes", "fuel:octane_91": "yes", "name": "Speedway", "payment:apple_pay": "yes", "payment:cards": "yes", "payment:contactless": "yes", "payment:credit_cards": "yes", "payment:visa": "yes", "ref": "9498", "self_service": "only", "website": "https://www.speedway.com/locations/CO/Dolores/501-RAILROAD-AVE"}}, {"type": "node", "id": 7183044715, "lat": 37.473744, "lon": -108.5026567, "tags": {"addr:city": "Dolores", "addr:housenumber": "501", "addr:postcode": "81323", "addr:state": "CO", "addr:street": "Railroad Avenue", "brand": "Speedway", "brand:wikidata": "Q7575683", "name": "Speedway", "ref": "9498", "shop": "convenience", "website": "https://www.speedway.com/locations/CO/Dolores/501-RAILROAD-AVE"}}, {"type": "node", "id": 7183053886, "lat": 37.4748515, "lon": -108.496128, "tags": {"addr:housenumber": "1009", "addr:street": "Railroad Avenue", "brand": "Family Dollar", "brand:wikidata": "Q5433101", "name": "Family Dollar", "shop": "variety_store"}}, {"type": "node", "id": 7265371958, "lat": 37.474583, "lon": -108.493103}, {"type": "node", "id": 7265371962, "lat": 37.474696, "lon": -108.493129}, {"type": "node", "id": 7265371966, "lat": 37.474717, "lon": -108.492989}, {"type": "node", "id": 7265371968, "lat": 37.474692, "lon": -108.492984}, {"type": "node", "id": 7265371970, "lat": 37.474706, "lon": -108.492885}, {"type": "node", "id": 7265371973, "lat": 37.474618, "lon": -108.492864}, {"type": "node", "id": 12196253065, "lat": 37.4745792, "lon": -108.5014634, "tags": {"amenity": "polling_station", "fixme": "survey placement", "location": "outdoor", "opening_hours": "24/7", "polling_station": "ballot_box"}}, {"type": "way", "id": 436488505, "nodes": [4343777783, 6633217539, 4343777784, 4343777785, 4343777786, 4343777783], "tags": {"amenity": "shelter", "shelter_type": "picnic_shelter"}}, {"type": "way", "id": 436488507, "nodes": [4343778002, 4343778003, 4343778004, 4343778005, 6633217536, 4343778006, 4343778007, 4343778008, 4343778002], "tags": {"amenity": "parking"}}, {"type": "way", "id": 589441210, "nodes": [366395886, 5628545495, 5628545494, 5628545498, 5628545497, 5628545496, 366395886], "tags": {"addr:state": "CO", "amenity": "townhall", "ele": "2113", "gnis:feature_id": "1794973", "name": "Dolores Town Hall"}}, {"type": "way", "id": 684981337, "nodes": [6418186607, 6418186606, 6418186605, 6418186604, 6418186603, 6418186602, 6418186601, 6418186600, 6418186599, 6418186598, 6418186597, 6418186596, 6418186595, 6418186594, 6418186593, 6418186592, 6418186591, 6418186590, 6418186589, 6418186588, 6418186587, 6418186586, 6418186585, 6418186607], "tags": {"addr:city": "Dolores", "addr:housenumber": "101", "addr:postcode": "81323", "addr:state": "CO", "addr:street": "North 7th Street", "amenity": "place_of_worship", "building": "church", "denomination": "roman_catholic", "description": "A member of the Montelores Catholic Community", "description_1": "Mail goes to:28 East Montezuma Avenue, Cortez, CO 81321-3299", "diocese": "Pueblo", "ele": "2115", "gnis:feature_id": "1794980", "name": "Our Lady of Victory Catholic Church", "phone": "+1 970-565-7308", "religion": "christian", "website": "http://www.montelorescatholic.org"}}, {"type": "way", "id": 705947305, "nodes": [6633217540, 6633217541, 6633217544, 6633217542, 6633217543, 6633217540], "tags": {"amenity": "toilets", "building": "yes"}}, {"type": "way", "id": 705950525, "nodes": [6633243417, 177560576, 6633243418, 6633243419, 6633243421, 6633243417], "tags": {"amenity": "parking"}}, {"type": "way", "id": 778453059, "nodes": [7265371973, 7265371970, 7265371968, 7265371966, 7265371962, 7265371958, 7265371973], "tags": {"amenity": "restaurant", "building": "yes", "cuisine": "mexican", "outdoor_seating": "yes", "payment:cards": "yes", "payment:cash": "yes", "toilets": "yes"}}]}