{"version": 0.6, "generator": "Overpass API 0.7.62.8 e802775f", "osm3s": {"timestamp_osm_base": "2025-12-06T17:48:45Z", "copyright": "The data included in this document is from www.openstreetmap.org. The data is made available under ODbL."}, "elements": [{"type": "node", "id": 495627636, "lat": 47.8540944, "lon": -121.6950051}, {"type": "node", "id": 1189681802, "lat": 47.8505351, "lon": -121.6892884}, {"type": "node", "id": 1189681807, "lat": 47.8501691, "lon": -121.6888522}, {"type": "node", "id": 1189681814, "lat": 47.8503383, "lon": -121.6895286}, {"type": "node", "id": 1189681816, "lat": 47.8502293, "lon": -121.6893301}, {"type": "node", "id": 1189681822, "lat": 47.8502448, "lon": -121.6887599}, {"type": "node", "id": 1189681826, "lat": 47.8501655, "lon": -121.689111, "tags": {"amenity": "restaurant", "check_date": "2025-05-09", "name": "Mountain View Diner", "opening_hours": "Mo-Su 12:00-21:00"}}, {"type": "node", "id": 1189681851, "lat": 47.8503247, "lon": -121.6889054}, {"type": "node", "id": 1189681856, "lat": 47.8503505, "lon": -121.6891823}, {"type": "node", "id": 1728642255, "lat": 47.8521152, "lon": -121.6905946}, {"type": "node", "id": 1728642257, "lat": 47.8533985, "lon": -121.6944141}, {"type": "node", "id": 1728642262, "lat": 47.8523352, "lon": -121.6910383}, {"type": "node", "id": 1728642269, "lat": 47.8535731, "lon": -121.6937516}, {"type": "node", "id": 1728642270, "lat": 47.8520306, "lon": -121.6913939}, {"type": "node", "id": 1728642275, "lat": 47.8517174, "lon": -121.6908065}, {"type": "node", "id": 1728642276, "lat": 47.8535263, "lon": -121.6942639}, {"type": "node", "id": 1728642282, "lat": 47.8534813, "lon": -121.6941861}, {"type": "node", "id": 1728642287, "lat": 47.8520238, "lon": -121.6904455}, {"type": "node", "id": 1728642301, "lat": 47.8534453, "lon": -121.6937597}, {"type": "node", "id": 1728642302, "lat": 47.8534885, "lon": -121.6938455}, {"type": "node", "id": 1728642303, "lat": 47.8536293, "lon": -121.6937902}, {"type": "node", "id": 1728642310, "lat": 47.8532131, "lon": -121.6940386}, {"type": "node", "id": 3224052355, "lat": 47.8576828, "lon": -121.7024213, "tags": {"amenity": "fuel", "check_date": "2023-09-17"}}, {"type": "node", "id": 3782519380, "lat": 47.8532121, "lon": -121.6938993, "tags": {"amenity": "restaurant", "cuisine": "mexican", "name": "Gold Bar Thai Cuisine"}}, {"type": "node", "id": 3782519384, "lat": 47.854993, "lon": -121.6974076}, {"type": "node", "id": 3782519394, "lat": 47.8551833, "lon": -121.6971892}, {"type": "node", "id": 3782519397, "lat": 47.8558244, "lon": -121.6975707}, {"type": "node", "id": 3782519399, "lat": 47.8546267, "lon": -121.6962705, "tags": {"check_date": "2024-08-18", "name": "Food Mart", "shop": "convenience"}}, {"type": "node", "id": 3782519414, "lat": 47.8576602, "lon": -121.6969647}, {"type": "node", "id": 3782519422, "lat": 47.8579932, "lon": -121.6974448}, {"type": "node", "id": 3782519423, "lat": 47.8556568, "lon": -121.6977618}, {"type": "node", "id": 3782519425, "lat": 47.8557578, "lon": -121.6979588}, {"type": "node", "id": 3782519438, "lat": 47.8576206, "lon": -121.6970881}, {"type": "node", "id": 3782519439, "lat": 47.8577424, "lon": -121.6956835}, {"type": "node", "id": 3782519441, "lat": 47.857698, "lon": -121.6965194}, {"type": "node", "id": 3782519442, "lat": 47.8575595, "lon": -121.6971793}, {"type": "node", "id": 3782519444, "lat": 47.8546349, "lon": -121.6965915, "tags": {"amenity": "fuel", "brand": "Mann", "compressed_air": "yes", "name": "Mann", "opening_hours": "24/7"}}, {"type": "node", "id": 3782519446, "lat": 47.8578006, "lon": -121.697713}, {"type": "node", "id": 3782519452, "lat": 47.8579536, "lon": -121.697544}, {"type": "node", "id": 3782519453, "lat": 47.8579338, "lon": -121.6969164}, {"type": "node", "id": 3782519454, "lat": 47.8524922, "lon": -121.6905627, "tags": {"check_date": "2023-09-17", "name": "Gold Bar Family Grocer", "shop": "supermarket"}}, {"type": "node", "id": 3782519455, "lat": 47.8578978, "lon": -121.6967447}, {"type": "node", "id": 3782519458, "lat": 47.8577547, "lon": -121.6964531}, {"type": "node", "id": 3782519461, "lat": 47.8550726, "lon": -121.6974636}, {"type": "node", "id": 3782519465, "lat": 47.8579944, "lon": -121.6950848}, {"type": "node", "id": 3782519469, "lat": 47.8565672, "lon": -121.6965531}, {"type": "node", "id": 3782519470, "lat": 47.8576401, "lon": -121.6954794}, {"type": "node", "id": 3782519477, "lat": 47.8552311, "lon": -121.6972816}, {"type": "node", "id": 3782519483, "lat": 47.8579788, "lon": -121.6975145}, {"type": "node", "id": 3782519485, "lat": 47.8559255, "lon": -121.6977678}, {"type": "node", "id": 3782519487, "lat": 47.8580967, "lon": -121.695289}, {"type": "node", "id": 3782519492, "lat": 47.8553719, "lon": -121.6980077, "tags": {"addr:housenumber": "429", "addr:street": "Croft Avenue", "amenity": "restaurant", "cuisine": "mexican", "name": "Maggy\u2019s Family Mexican Restaurant", "short_name": "Maggy\u2019s", "website": "https://maggysrestaurants.com"}}, {"type": "node", "id": 3782519498, "lat": 47.8557353, "lon": -121.6966675}, {"type": "node", "id": 3782519510, "lat": 47.8577924, "lon": -121.7026864, "tags": {"check_date": "2023-09-17", "name": "Gold Bar Market", "shop": "supermarket"}}, {"type": "node", "id": 4127251002, "lat": 47.8585844, "lon": -121.704359, "tags": {"addr:housenumber": "301", "addr:street": "Croft Avenue West", "check_date": "2024-08-18", "name": "The Red Door", "shop": "antiques"}}, {"type": "node", "id": 4127254396, "lat": 47.8579928, "lon": -121.7029118, "tags": {"amenity": "place_of_worship", "check_date": "2024-08-18", "denomination": "baptist", "name": "Sky Valley Baptist Church", "religion": "christian"}}, {"type": "node", "id": 4137530130, "lat": 47.8575387, "lon": -121.6984984}, {"type": "node", "id": 4137530131, "lat": 47.8580209, "lon": -121.6949406}, {"type": "node", "id": 4137530135, "lat": 47.8589924, "lon": -121.6968859}, {"type": "node", "id": 4236855195, "lat": 47.8566218, "lon": -121.7003558, "tags": {"check_date": "2023-09-17", "name": "Alpine Adventures Rafting", "shop": "outdoor"}}, {"type": "node", "id": 4236855201, "lat": 47.8563024, "lon": -121.6997523, "tags": {"addr:housenumber": "301", "addr:street": "Croft Avenue", "check_date": "2023-09-17", "name": "Gold Bar Chiropractic & Massage", "shop": "massage"}}, {"type": "node", "id": 4236855204, "lat": 47.8439646, "lon": -121.674911, "tags": {"check_date": "2023-09-16", "name": "Greener Day Marijuana", "shop": "cannabis"}}, {"type": "node", "id": 4236855205, "lat": 47.85119, "lon": -121.6907696, "tags": {"amenity": "cafe", "check_date": "2023-09-17", "cuisine": "coffee_shop", "name": "Let's Go Espresso"}}, {"type": "node", "id": 4236855209, "lat": 47.8571915, "lon": -121.701659, "tags": {"addr:housenumber": "107", "addr:street": "Croft Avenue", "name": "Prospectors Plus Used Furniture and Second Hand Store", "shop": "furniture"}}, {"type": "node", "id": 4236855210, "lat": 47.8489481, "lon": -121.6851544, "tags": {"amenity": "restaurant", "check_date": "2023-09-17", "cuisine": "pizza", "name": "Rico's Pizza"}}, {"type": "node", "id": 4236855211, "lat": 47.8490696, "lon": -121.6857619, "tags": {"name": "Rightway Auto", "shop": "car_repair"}}, {"type": "node", "id": 4236855213, "lat": 47.8544081, "lon": -121.6960978, "tags": {"addr:housenumber": "617", "addr:street": "Croft Avenue", "check_date": "2024-08-18", "name": "Stevens Pass Snowboard Shop", "shop": "outdoor"}}, {"type": "node", "id": 4236855216, "lat": 47.8574271, "lon": -121.7019678, "tags": {"addr:housenumber": "103", "addr:street": "Croft Avenue", "check_date": "2023-09-17", "name": "The Haircut Store", "shop": "hairdresser"}}, {"type": "node", "id": 4236855224, "lat": 47.8459537, "lon": -121.6798557}, {"type": "node", "id": 4236855225, "lat": 47.8459591, "lon": -121.6794292}, {"type": "node", "id": 4236855226, "lat": 47.8463282, "lon": -121.6805986}, {"type": "node", "id": 4236855227, "lat": 47.846879, "lon": -121.6805772}, {"type": "node", "id": 4236855228, "lat": 47.8468808, "lon": -121.6793997}, {"type": "node", "id": 4236855229, "lat": 47.856716, "lon": -121.702051}, {"type": "node", "id": 4236855231, "lat": 47.8569094, "lon": -121.7018469}, {"type": "node", "id": 4236855232, "lat": 47.8569633, "lon": -121.7025715}, {"type": "node", "id": 4236855235, "lat": 47.8571567, "lon": -121.7023674}, {"type": "node", "id": 4328682481, "lat": 47.8536396, "lon": -121.6948593}, {"type": "node", "id": 4328682482, "lat": 47.8538589, "lon": -121.6952787}, {"type": "node", "id": 4328682483, "lat": 47.8538751, "lon": -121.6945857}, {"type": "node", "id": 4386224592, "lat": 47.8548653, "lon": -121.6968558, "tags": {"addr:housenumber": "529", "addr:street": "Croft Avenue", "amenity": "childcare", "name": "Nanny Kettles Child Care"}}, {"type": "node", "id": 4668755812, "lat": 47.8531505, "lon": -121.6938838, "tags": {"amenity": "atm", "operator": "Coastal Community Bank"}}, {"type": "node", "id": 4668755813, "lat": 47.8528657, "lon": -121.6931077, "tags": {"amenity": "cafe", "check_date": "2024-08-18", "cuisine": "coffee_shop", "name": "The Woodshed Espresso"}}, {"type": "node", "id": 4668755814, "lat": 47.8485686, "lon": -121.6849336}, {"type": "node", "id": 4668755815, "lat": 47.8483115, "lon": -121.6844312}, {"type": "node", "id": 4668755816, "lat": 47.8491239, "lon": -121.6835084}, {"type": "node", "id": 4668755817, "lat": 47.8493809, "lon": -121.6840108}, {"type": "node", "id": 5155782925, "lat": 47.8527472, "lon": -121.6915954, "tags": {"amenity": "post_office", "check_date": "2023-09-17"}}, {"type": "node", "id": 5156148755, "lat": 47.8548, "lon": -121.6964637, "tags": {"amenity": "charging_station"}}, {"type": "node", "id": 5156154727, "lat": 47.8549143, "lon": -121.696331, "tags": {"name": "Ski & Snowboard Rentals", "shop": "outdoor"}}, {"type": "node", "id": 8288074115, "lat": 47.8557411, "lon": -121.6966056}, {"type": "node", "id": 8288074116, "lat": 47.8557605, "lon": -121.6967173}, {"type": "node", "id": 8288084174, "lat": 47.8550226, "lon": -121.6974647}, {"type": "node", "id": 8288084175, "lat": 47.8550543, "lon": -121.6974283}, {"type": "node", "id": 8288123017, "lat": 47.8558355, "lon": -121.6966883}, {"type": "node", "id": 8288123018, "lat": 47.8558413, "lon": -121.6966265}, {"type": "node", "id": 8288123019, "lat": 47.8558161, "lon": -121.6965766}, {"type": "node", "id": 8288123020, "lat": 47.8557746, "lon": -121.6965679}, {"type": "node", "id": 8288123021, "lat": 47.8558021, "lon": -121.696726}, {"type": "node", "id": 8295136596, "lat": 47.8610622, "lon": -121.709838}, {"type": "node", "id": 8295136597, "lat": 47.8610362, "lon": -121.7097829}, {"type": "node", "id": 8295136598, "lat": 47.8610591, "lon": -121.709759}, {"type": "node", "id": 8295136599, "lat": 47.8610851, "lon": -121.7098141}, {"type": "node", "id": 8295136624, "lat": 47.8608888, "lon": -121.7093524}, {"type": "node", "id": 8295136625, "lat": 47.8610104, "lon": -121.7092622}, {"type": "node", "id": 8295136626, "lat": 47.8610604, "lon": -121.7093789}, {"type": "node", "id": 8295136627, "lat": 47.8609467, "lon": -121.7094873}, {"type": "node", "id": 10915485713, "lat": 47.8557004, "lon": -121.6976588, "tags": {"amenity": "fountain"}}, {"type": "node", "id": 11196845237, "lat": 47.8571191, "lon": -121.7015225, "tags": {"name": "Rerouted", "shop": "outdoor"}}, {"type": "node", "id": 11196845238, "lat": 47.8479665, "lon": -121.6836627, "tags": {"name": "SnoHomes Realty", "office": "estate_agent"}}, {"type": "node", "id": 11942957912, "lat": 47.8609472, "lon": -121.7093224}, {"type": "node", "id": 11942957913, "lat": 47.8609394, "lon": -121.7093042}, {"type": "node", "id": 12120818973, "lat": 47.8494882, "lon": -121.6907966, "tags": {"check_date": "2024-08-18", "name": "Sydni's Blueberries", "shop": "greengrocer"}}, {"type": "node", "id": 12152457125, "lat": 47.8556394, "lon": -121.6967525, "tags": {"amenity": "polling_station", "location": "outdoor", "polling_station": "ballot_box"}}, {"type": "node", "id": 13108179546, "lat": 47.8554531, "lon": -121.6982594}, {"type": "node", "id": 13108179547, "lat": 47.8556269, "lon": -121.6980594}, {"type": "node", "id": 13108179548, "lat": 47.8555469, "lon": -121.6979049}, {"type": "node", "id": 13108179549, "lat": 47.8555271, "lon": -121.6979273}, {"type": "node", "id": 13108179550, "lat": 47.8555529, "lon": -121.6979809}, {"type": "node", "id": 13108179551, "lat": 47.8554717, "lon": -121.6980783}, {"type": "node", "id": 13108179552, "lat": 47.8554452, "lon": -121.6980235}, {"type": "node", "id": 13108179553, "lat": 47.8554053, "lon": -121.6980683}, {"type": "node", "id": 13108179554, "lat": 47.8553965, "lon": -121.6980511}, {"type": "node", "id": 13108179555, "lat": 47.8553395, "lon": -121.698116}, {"type": "node", "id": 13108179556, "lat": 47.8553672, "lon": -121.698175}, {"type": "node", "id": 13108179565, "lat": 47.8558594, "lon": -121.6981695}, {"type": "node", "id": 13108179566, "lat": 47.8560558, "lon": -121.6979452}, {"type": "node", "id": 13108179567, "lat": 47.8560476, "lon": -121.6978591}, {"type": "node", "id": 13108179568, "lat": 47.8559885, "lon": -121.6977927}, {"type": "node", "id": 13108179569, "lat": 47.8559321, "lon": -121.6977714}, {"type": "node", "id": 13108179570, "lat": 47.8557561, "lon": -121.6979707}, {"type": "node", "id": 13108179573, "lat": 47.8556228, "lon": -121.6977325}, {"type": "node", "id": 13108179574, "lat": 47.8557353, "lon": -121.697606}, {"type": "node", "id": 13108179575, "lat": 47.8556936, "lon": -121.6975247}, {"type": "node", "id": 13108179576, "lat": 47.8555793, "lon": -121.6976507}, {"type": "node", "id": 13108179577, "lat": 47.8557332, "lon": -121.6976747, "tags": {"entrance": "yes"}}, {"type": "way", "id": 103028208, "nodes": [1189681814, 1189681816, 1189681856, 1189681807, 1189681822, 1189681851, 1189681802, 1189681814], "tags": {"amenity": "parking"}}, {"type": "way", "id": 160892040, "nodes": [1728642257, 1728642276, 1728642282, 1728642303, 1728642269, 1728642302, 1728642301, 1728642310, 1728642257], "tags": {"amenity": "parking"}}, {"type": "way", "id": 160892055, "nodes": [1728642270, 1728642275, 1728642287, 1728642255, 1728642262, 1728642270], "tags": {"amenity": "parking"}}, {"type": "way", "id": 374871641, "nodes": [3782519397, 13108179577, 3782519423, 3782519425, 3782519485, 3782519397], "tags": {"amenity": "townhall", "building": "yes", "name": "Gold Bar City Hall", "townhall:type": "city"}}, {"type": "way", "id": 374871652, "nodes": [3782519439, 3782519470, 3782519465, 3782519487, 3782519439], "tags": {"amenity": "parking"}}, {"type": "way", "id": 374871654, "nodes": [3782519477, 3782519394, 3782519384, 8288084174, 8288084175, 3782519461, 3782519477], "tags": {"amenity": "public_building", "building": "yes", "name": "Gold Bar Public Works"}}, {"type": "way", "id": 374871655, "nodes": [3782519446, 3782519442, 3782519438, 3782519414, 3782519441, 3782519458, 3782519455, 3782519453, 3782519422, 3782519483, 3782519452, 3782519446], "tags": {"amenity": "parking"}}, {"type": "way", "id": 412281294, "nodes": [4137530130, 3782519469, 4137530131, 4137530135, 4137530130], "tags": {"addr:city": "Gold Bar", "addr:housenumber": "419", "addr:postcode": "98251", "addr:state": "Washington", "addr:street": "Lewis Avenue", "amenity": "school", "mascot": "Huskies", "name": "Gold Bar Elementary School", "operator:type": "public", "website": "https://gbe.sultanschools.org/"}}, {"type": "way", "id": 424226492, "nodes": [4236855232, 4236855229, 4236855231, 4236855235, 4236855232], "tags": {"amenity": "parking", "name": "Gold Bar Park & Ride", "operator": "Community Transit", "park_ride": "yes", "parking": "surface"}}, {"type": "way", "id": 424226495, "nodes": [4236855226, 4236855224, 4236855225, 4236855228, 4236855227, 4236855226], "tags": {"check_date": "2024-08-18", "landuse": "industrial", "name": "Gold Bar RV Storage", "shop": "storage_rental"}}, {"type": "way", "id": 434953275, "nodes": [495627636, 4328682483, 4328682481, 4328682482, 495627636], "tags": {"check_date": "2023-09-17", "landuse": "industrial", "name": "Gold Bar Mini Storage", "shop": "storage_rental"}}, {"type": "way", "id": 472682344, "nodes": [4668755814, 4668755815, 4668755816, 4668755817, 4668755814], "tags": {"check_date": "2023-09-17", "landuse": "industrial", "name": "Garage Village", "shop": "storage_rental"}}, {"type": "way", "id": 891741753, "nodes": [8288123020, 8288123019, 8288123018, 8288123017, 8288123021, 8288074116, 3782519498, 8288074115, 8288123020], "tags": {"amenity": "shelter", "building": "yes"}}, {"type": "way", "id": 892491236, "nodes": [8295136599, 8295136598, 8295136597, 8295136596, 8295136599], "tags": {"amenity": "cafe", "building": "retail", "name": "Timber Monster Coffee"}}, {"type": "way", "id": 892491242, "nodes": [8295136627, 8295136626, 8295136625, 11942957912, 11942957913, 8295136624, 8295136627], "tags": {"addr:city": "Gold Bar", "addr:housenumber": "715", "addr:postcode": "98251", "addr:state": "WA", "addr:street": "West Croft Avenue", "building": "shop", "name": "Connie's Pet Peeves Grooming", "shop": "pet"}}, {"type": "way", "id": 1425973128, "nodes": [13108179546, 13108179547, 13108179548, 13108179549, 13108179550, 13108179551, 13108179552, 13108179553, 13108179554, 13108179555, 13108179556, 13108179546], "tags": {"amenity": "parking"}}, {"type": "way", "id": 1425973132, "nodes": [13108179565, 13108179566, 13108179567, 13108179568, 13108179569, 13108179570, 13108179565], "tags": {"amenity": "parking"}}, {"type": "way", "id": 1425973134, "nodes": [13108179573, 13108179574, 13108179575, 13108179576, 13108179573], "tags": {"amenity": "parking"}}]}