{"version": 0.6, "generator": "Overpass API 0.7.62.8 e802775f", "osm3s": {"timestamp_osm_base": "2025-12-06T05:53:58Z", "copyright": "The data included in this document is from www.openstreetmap.org. The data is made available under ODbL."}, "elements": [{"type": "node", "id": 5856224558, "lat": 43.5037353, "lon": -116.4144179}, {"type": "node", "id": 5856224559, "lat": 43.5035526, "lon": -116.4144199}, {"type": "node", "id": 5856224560, "lat": 43.5035513, "lon": -116.4141609}, {"type": "node", "id": 5856224561, "lat": 43.5037341, "lon": -116.4141599}, {"type": "node", "id": 7118541245, "lat": 43.48762, "lon": -116.401916}, {"type": "node", "id": 7118567944, "lat": 43.487997, "lon": -116.402246}, {"type": "node", "id": 7118600451, "lat": 43.488786, "lon": -116.407128}, {"type": "node", "id": 7118603441, "lat": 43.487967, "lon": -116.400458}, {"type": "node", "id": 7118603477, "lat": 43.487967, "lon": -116.400278}, {"type": "node", "id": 7118606010, "lat": 43.487877, "lon": -116.400278}, {"type": "node", "id": 7118606663, "lat": 43.48762, "lon": -116.410478}, {"type": "node", "id": 7118607500, "lat": 43.487625, "lon": -116.403459}, {"type": "node", "id": 7118609097, "lat": 43.48762, "lon": -116.410135}, {"type": "node", "id": 7118610600, "lat": 43.487935, "lon": -116.402956}, {"type": "node", "id": 7118612175, "lat": 43.487906, "lon": -116.410478}, {"type": "node", "id": 7118612968, "lat": 43.487996, "lon": -116.401913}, {"type": "node", "id": 7118613017, "lat": 43.487938, "lon": -116.403455}, {"type": "node", "id": 7118627362, "lat": 43.490823, "lon": -116.414451}, {"type": "node", "id": 7118627712, "lat": 43.490977, "lon": -116.414577}, {"type": "node", "id": 7118630193, "lat": 43.4902696, "lon": -116.4131012}, {"type": "node", "id": 7118631650, "lat": 43.4903306, "lon": -116.4133156}, {"type": "node", "id": 7118631685, "lat": 43.488786, "lon": -116.407329}, {"type": "node", "id": 7118632186, "lat": 43.490004, "lon": -116.413523}, {"type": "node", "id": 7118632198, "lat": 43.489769, "lon": -116.413622}, {"type": "node", "id": 7118632583, "lat": 43.488681, "lon": -116.407128}, {"type": "node", "id": 7118633467, "lat": 43.490977, "lon": -116.414451}, {"type": "node", "id": 7118634599, "lat": 43.489769, "lon": -116.413399}, {"type": "node", "id": 7118634848, "lat": 43.489691, "lon": -116.413399}, {"type": "node", "id": 7118635037, "lat": 43.490004, "lon": -116.413421}, {"type": "node", "id": 7118635958, "lat": 43.489903, "lon": -116.413421}, {"type": "node", "id": 7118636099, "lat": 43.4904263, "lon": -116.4130992}, {"type": "node", "id": 8307448931, "lat": 43.4886394, "lon": -116.4045355, "tags": {"addr:city": "Kuna", "addr:housenumber": "780", "addr:postcode": "83634", "addr:state": "ID", "addr:street": "East Avalon Street", "amenity": "restaurant", "cuisine": "mexican", "name": "Fiesta Guadalajara"}}, {"type": "node", "id": 8307448932, "lat": 43.4889129, "lon": -116.4086338}, {"type": "node", "id": 8307448933, "lat": 43.4885845, "lon": -116.4086417}, {"type": "node", "id": 8307448934, "lat": 43.4885813, "lon": -116.4083817}, {"type": "node", "id": 8307448935, "lat": 43.4889096, "lon": -116.4083738}, {"type": "node", "id": 8307448936, "lat": 43.4897118, "lon": -116.4044321, "tags": {"addr:city": "Kuna", "addr:housenumber": "219", "addr:postcode": "83634", "addr:state": "ID", "addr:street": "North Kay Avenue", "brand": "H&R Block", "brand:wikidata": "Q5627799", "name": "H&R Block", "office": "tax_advisor"}}, {"type": "node", "id": 8307448941, "lat": 43.4879938, "lon": -116.4041131, "tags": {"amenity": "cafe", "cuisine": "coffee_shop", "name": "Latte' Da"}}, {"type": "node", "id": 8331515539, "lat": 43.490823, "lon": -116.414577}, {"type": "node", "id": 8331521324, "lat": 43.525369, "lon": -116.394586}, {"type": "node", "id": 8331522163, "lat": 43.498616, "lon": -116.394585}, {"type": "node", "id": 8331522164, "lat": 43.4984925, "lon": -116.3953536, "tags": {"addr:city": "Kuna", "addr:housenumber": "997", "addr:postcode": "83634", "addr:state": "ID", "addr:street": "North Meridian Road", "brand": "Commercial Tire", "brand:wikidata": "Q28403810", "name": "Commercial Tire", "phone": "+1 208-510-9505", "shop": "tyres"}}, {"type": "node", "id": 8331522166, "lat": 43.497029, "lon": -116.395365}, {"type": "node", "id": 8331522167, "lat": 43.496792, "lon": -116.394328}, {"type": "node", "id": 8331522168, "lat": 43.497596, "lon": -116.395395}, {"type": "node", "id": 8331522174, "lat": 43.5016, "lon": -116.3957569, "tags": {"addr:city": "Kuna", "addr:housenumber": "1415", "addr:postcode": "83634", "addr:state": "ID", "addr:street": "North Meridian Road", "amenity": "cafe", "brand": "Starbucks", "brand:wikidata": "Q37158", "cuisine": "coffee_shop", "name": "Starbucks", "official_name": "Starbucks Coffee", "takeaway": "yes"}}, {"type": "node", "id": 8331522206, "lat": 43.5013003, "lon": -116.395982, "tags": {"addr:city": "Kuna", "addr:housenumber": "1403", "addr:postcode": "83634", "addr:state": "ID", "addr:street": "North Meridian Road", "name": "Ridley's Family Markets", "ref": "8448", "shop": "supermarket"}}, {"type": "node", "id": 8331523211, "lat": 43.501656, "lon": -116.398544}, {"type": "node", "id": 8331523499, "lat": 43.4897561, "lon": -116.4044276, "tags": {"addr:city": "Kuna", "addr:housenumber": "225", "addr:postcode": "83634", "addr:state": "ID", "addr:street": "North Kay Avenue", "name": "Cloudz Vape", "shop": "e-cigarette"}}, {"type": "node", "id": 8331523562, "lat": 43.489903, "lon": -116.413523}, {"type": "node", "id": 8331523708, "lat": 43.490271, "lon": -116.413316}, {"type": "node", "id": 8331523741, "lat": 43.487906, "lon": -116.410135}, {"type": "node", "id": 8331523748, "lat": 43.487622, "lon": -116.40296}, {"type": "node", "id": 8331523749, "lat": 43.487621, "lon": -116.402248}, {"type": "node", "id": 8331523820, "lat": 43.4895765, "lon": -116.405352, "tags": {"addr:city": "Kuna", "addr:housenumber": "700", "addr:postcode": "83634", "addr:state": "ID", "addr:street": "East Avalon Street", "brand": "Albertsons", "brand:wikidata": "Q2831861", "name": "Albertsons", "opening_hours": "Mo-Fr 07:00-21:00; Sa 07:00-21:00; Su 07:00-21:00", "phone": "+1 208-922-9834", "shop": "supermarket", "website": "https://local.albertsons.com/id/kuna/700-e-avalon-st.html"}}, {"type": "node", "id": 8331525318, "lat": 43.489691, "lon": -116.413622}, {"type": "node", "id": 8331525343, "lat": 43.488667, "lon": -116.40953, "tags": {"addr:city": "Kuna", "addr:housenumber": "392", "addr:postcode": "83634", "addr:state": "ID", "addr:street": "East Avalon Street", "name": "Produce Tent", "shop": "farm"}}, {"type": "node", "id": 8331525345, "lat": 43.488681, "lon": -116.407329}, {"type": "node", "id": 8331525357, "lat": 43.487877, "lon": -116.400458}, {"type": "node", "id": 8331525385, "lat": 43.4899336, "lon": -116.4044157, "tags": {"addr:city": "Kuna", "addr:housenumber": "247", "addr:postcode": "83634", "addr:state": "ID", "addr:street": "North Kay Avenue", "name": "Orion Armament", "shop": "weapons"}}, {"type": "node", "id": 8331526329, "lat": 43.5039419, "lon": -116.41422, "tags": {"addr:city": "Kuna", "addr:housenumber": "1575", "addr:postcode": "83634", "addr:state": "ID", "addr:street": "North Linder Road", "amenity": "cafe", "cuisine": "coffee_shop", "name": "Moxie Java", "outdoor_seating": "yes"}}, {"type": "node", "id": 8331526330, "lat": 43.5040003, "lon": -116.414212, "tags": {"addr:city": "Kuna", "addr:housenumber": "1577", "addr:postcode": "83634", "addr:state": "ID", "addr:street": "North Linder Road", "amenity": "post_office", "brand": "The UPS Store", "brand:wikidata": "Q7771029", "name": "The UPS Store", "shop": "copyshop", "short_name": "UPS", "website": "https://locations.theupsstore.com/id/kuna/1577-n-linder-rd"}}, {"type": "node", "id": 8331526662, "lat": 43.5033389, "lon": -116.414759, "tags": {"addr:city": "Kuna", "addr:housenumber": "1533", "addr:postcode": "83634", "addr:state": "ID", "addr:street": "North Linder Road", "alt_name": "Verizon Wireless", "brand": "Verizon", "brand:wikidata": "Q919641", "name": "Verizon", "operator": "Victra", "operator:website": "https://victra.com/stores/id-kuna/", "operator:wikidata": "Q118402656", "shop": "mobile_phone"}}, {"type": "node", "id": 8331528846, "lat": 43.4853171, "lon": -116.4151617}, {"type": "node", "id": 8332260665, "lat": 43.4852792, "lon": -116.4146001}, {"type": "node", "id": 8332260666, "lat": 43.4852589, "lon": -116.4138259}, {"type": "node", "id": 8332260667, "lat": 43.485607, "lon": -116.4138367}, {"type": "node", "id": 8332260668, "lat": 43.4860131, "lon": -116.4151062}, {"type": "node", "id": 8672317184, "lat": 43.500569, "lon": -116.393248, "tags": {"addr:city": "Kuna", "addr:housenumber": "1378", "addr:postcode": "83634", "addr:state": "ID", "addr:street": "North Meridian Road", "addr:unit": "110", "amenity": "restaurant", "brand": "Cafe Rio", "brand:wikidata": "Q5017108", "cuisine": "mexican", "name": "Cafe Rio"}}, {"type": "node", "id": 8672352369, "lat": 43.5002304, "lon": -116.395757, "tags": {"addr:city": "Kuna", "addr:housenumber": "1327", "addr:postcode": "83634", "addr:state": "ID", "addr:street": "North Meridian Road", "addr:unit": "120", "amenity": "restaurant", "brand": "Pieology Pizzeria", "brand:wikidata": "Q60746053", "cuisine": "pizza", "name": "Pieology Pizzeria"}}, {"type": "node", "id": 8672352370, "lat": 43.5001738, "lon": -116.3957579, "tags": {"addr:city": "Kuna", "addr:housenumber": "1327", "addr:postcode": "83634", "addr:state": "ID", "addr:street": "North Meridian Road", "addr:unit": "110", "brand": "Great Clips", "brand:wikidata": "Q5598967", "female": "yes", "male": "yes", "name": "Great Clips", "shop": "hairdresser"}}, {"type": "node", "id": 8672353395, "lat": 43.502298, "lon": -116.392075}, {"type": "node", "id": 8672354619, "lat": 43.4879732, "lon": -116.399838, "tags": {"addr:city": "Kuna", "addr:housenumber": "1075", "addr:postcode": "83634", "addr:state": "ID", "addr:street": "East Kuna Road", "addr:unit": "100", "name": "Vape", "shop": "e-cigarette"}}, {"type": "node", "id": 8672354670, "lat": 43.5044738, "lon": -116.414902, "tags": {"addr:city": "Kuna", "addr:housenumber": "1619", "addr:postcode": "83634", "addr:state": "ID", "addr:street": "North Linder Road", "addr:unit": "110", "name": "Aspen Engineers", "office": "engineer"}}, {"type": "node", "id": 9262260901, "lat": 43.501726, "lon": -116.391692}, {"type": "node", "id": 9262271139, "lat": 43.498617, "lon": -116.394804}, {"type": "node", "id": 9262271155, "lat": 43.501174, "lon": -116.398175}, {"type": "node", "id": 9262271200, "lat": 43.497596, "lon": -116.395347}, {"type": "node", "id": 9262271210, "lat": 43.49768, "lon": -116.395346}, {"type": "node", "id": 9262271225, "lat": 43.497268, "lon": -116.395792}, {"type": "node", "id": 9262271237, "lat": 43.501249, "lon": -116.398175}, {"type": "node", "id": 9262271242, "lat": 43.497812, "lon": -116.395393}, {"type": "node", "id": 9262271246, "lat": 43.497813, "lon": -116.396039}, {"type": "node", "id": 9262271309, "lat": 43.497265, "lon": -116.395363}, {"type": "node", "id": 9262271321, "lat": 43.49768, "lon": -116.395393}, {"type": "node", "id": 9262271351, "lat": 43.497032, "lon": -116.394325}, {"type": "node", "id": 9262271411, "lat": 43.497466, "lon": -116.39604}, {"type": "node", "id": 9262271494, "lat": 43.496794, "lon": -116.394658}, {"type": "node", "id": 9262271498, "lat": 43.498415, "lon": -116.394588}, {"type": "node", "id": 9262271564, "lat": 43.498442, "lon": -116.394806}, {"type": "node", "id": 9262271575, "lat": 43.497031, "lon": -116.395794}, {"type": "node", "id": 9262271609, "lat": 43.501248, "lon": -116.398543}, {"type": "node", "id": 9262271616, "lat": 43.501657, "lon": -116.397775}, {"type": "node", "id": 9262271623, "lat": 43.498441, "lon": -116.394653}, {"type": "node", "id": 9262271639, "lat": 43.498416, "lon": -116.394653}, {"type": "node", "id": 9262271642, "lat": 43.497465, "lon": -116.395395}, {"type": "node", "id": 9262271719, "lat": 43.497034, "lon": -116.394655}, {"type": "node", "id": 9262271747, "lat": 43.501175, "lon": -116.397774}, {"type": "node", "id": 9262271822, "lat": 43.501888, "lon": -116.39161}, {"type": "node", "id": 9262271880, "lat": 43.502312, "lon": -116.392524}, {"type": "node", "id": 9262271914, "lat": 43.501675, "lon": -116.392306}, {"type": "node", "id": 9262272047, "lat": 43.502405, "lon": -116.392077}, {"type": "node", "id": 9262272058, "lat": 43.502034, "lon": -116.391696}, {"type": "node", "id": 9262272076, "lat": 43.502035, "lon": -116.391613}, {"type": "node", "id": 9262272089, "lat": 43.502209, "lon": -116.391612}, {"type": "node", "id": 9262272113, "lat": 43.502295, "lon": -116.392449}, {"type": "node", "id": 9262272123, "lat": 43.501673, "lon": -116.392511}, {"type": "node", "id": 9262272139, "lat": 43.502208, "lon": -116.391699}, {"type": "node", "id": 9262272156, "lat": 43.50172, "lon": -116.392307}, {"type": "node", "id": 9262272173, "lat": 43.50241, "lon": -116.391616}, {"type": "node", "id": 9262272266, "lat": 43.501887, "lon": -116.391696}, {"type": "node", "id": 9262272302, "lat": 43.502313, "lon": -116.39245}, {"type": "node", "id": 9262285657, "lat": 43.525188, "lon": -116.394587}, {"type": "node", "id": 9262285961, "lat": 43.525332, "lon": -116.394568}, {"type": "node", "id": 9262286078, "lat": 43.525221, "lon": -116.394586}, {"type": "node", "id": 9262286176, "lat": 43.525332, "lon": -116.394587}, {"type": "node", "id": 9262286191, "lat": 43.52519, "lon": -116.394748}, {"type": "node", "id": 9262286611, "lat": 43.525371, "lon": -116.394744}, {"type": "node", "id": 9262286699, "lat": 43.525221, "lon": -116.39457}, {"type": "node", "id": 9520404079, "lat": 43.4858347, "lon": -116.4167177}, {"type": "node", "id": 9520404080, "lat": 43.4862208, "lon": -116.4167435}, {"type": "node", "id": 9520404081, "lat": 43.48632, "lon": -116.4171464}, {"type": "node", "id": 9520404082, "lat": 43.4868186, "lon": -116.4171481}, {"type": "node", "id": 9520404083, "lat": 43.4865898, "lon": -116.4164048}, {"type": "node", "id": 9520404084, "lat": 43.4864952, "lon": -116.4164451}, {"type": "node", "id": 9572140852, "lat": 43.4904268, "lon": -116.4131788}, {"type": "node", "id": 9572140853, "lat": 43.4904044, "lon": -116.4131791}, {"type": "node", "id": 9572140854, "lat": 43.4903304, "lon": -116.4132861}, {"type": "node", "id": 9572140855, "lat": 43.490373, "lon": -116.4133005}, {"type": "node", "id": 9572140856, "lat": 43.4904167, "lon": -116.4132412}, {"type": "node", "id": 9572140857, "lat": 43.4904046, "lon": -116.4132243}, {"type": "node", "id": 9572140858, "lat": 43.4903625, "lon": -116.4132857}, {"type": "node", "id": 9622770536, "lat": 43.5010532, "lon": -116.3959956, "tags": {"addr:city": "Kuna", "addr:housenumber": "1403", "addr:postcode": "83634-1305", "addr:state": "ID", "addr:street": "North Meridian Road", "brand": "Ace Hardware", "brand:wikidata": "Q4672981", "name": "Ace Hardware", "opening_hours": "06:00-23:00", "phone": "+1 208-922-5586", "ref": "15822", "shop": "doityourself"}}, {"type": "node", "id": 9622770539, "lat": 43.5006081, "lon": -116.395757, "tags": {"addr:city": "Kuna", "addr:housenumber": "1353", "addr:postcode": "83634", "addr:state": "ID", "addr:street": "North Meridian Road", "beauty": "nails", "name": "Kuna Nails & Spa", "shop": "beauty"}}, {"type": "node", "id": 9622770546, "lat": 43.488201, "lon": -116.4073599, "tags": {"name": "Dynamic Doors", "shop": "doors"}}, {"type": "node", "id": 9622770547, "lat": 43.4895996, "lon": -116.404799, "tags": {"addr:city": "Kuna", "addr:housenumber": "718", "addr:postcode": "83634", "addr:state": "ID", "addr:street": "East Avalon Street", "name": "Idaho State Liquor Store", "shop": "alcohol"}}, {"type": "node", "id": 10909674369, "lat": 43.5019877, "lon": -116.3925174}, {"type": "node", "id": 11135047899, "lat": 43.4974677, "lon": -116.4143389, "tags": {"addr:city": "Kuna", "addr:housenumber": "943", "addr:postcode": "83634", "addr:state": "ID", "addr:street": "North Linder Road", "addr:unit": "102", "name": "Eyecare Associates of Kuna", "shop": "optician"}}, {"type": "node", "id": 11135047900, "lat": 43.4974687, "lon": -116.4144046, "tags": {"addr:city": "Kuna", "addr:housenumber": "943", "addr:postcode": "83634", "addr:state": "ID", "addr:street": "North Linder Road", "addr:unit": "103", "name": "Kuna Healthcare & Mud Spa", "shop": "beauty"}}, {"type": "node", "id": 11433938292, "lat": 43.4888177, "lon": -116.4097728, "tags": {"addr:city": "Kuna", "addr:housenumber": "392", "addr:postcode": "83634", "addr:state": "ID", "addr:street": "East Avalon Street", "amenity": "restaurant", "cuisine": "thai", "name": "Tasty Thai", "phone": "+1 208-789-1722"}}, {"type": "node", "id": 11433938293, "lat": 43.4886187, "lon": -116.4099409, "tags": {"addr:city": "Kuna", "addr:housenumber": "368", "addr:postcode": "83634", "addr:state": "ID", "addr:street": "East Avalon Street", "name": "Johannsen CPA", "office": "accountant", "phone": "+1 208-922-9080"}}, {"type": "node", "id": 11433938296, "lat": 43.4897189, "lon": -116.4135934, "tags": {"addr:city": "Kuna", "addr:housenumber": "102", "addr:postcode": "83634", "addr:state": "ID", "addr:street": "East 2nd Street", "name": "Kuna's Book Habit", "shop": "books"}}, {"type": "node", "id": 11544798037, "lat": 43.5016382, "lon": -116.3983151, "tags": {"addr:city": "Kuna", "addr:housenumber": "1277", "addr:postcode": "83634", "addr:state": "ID", "addr:street": "East Deer Flat Road", "name": "Blue Rhino", "operator": "Bi-Mart", "shop": "gas"}}, {"type": "way", "id": 619747098, "nodes": [5856224558, 5856224559, 5856224560, 5856224561, 5856224558], "tags": {"addr:city": "Kuna", "addr:housenumber": "150", "addr:postcode": "83634", "addr:state": "ID", "addr:street": "West Deer Flat Road", "brand": "Jacksons", "brand:wikidata": "Q64617393", "building": "yes", "fuel:diesel": "yes", "fuel:gasoline": "yes", "name": "Jacksons", "opening_hours": "24/7", "ref": "160", "shop": "convenience"}}, {"type": "way", "id": 761902366, "nodes": [8331525357, 7118606010, 7118603477, 7118603441, 8331525357], "tags": {"addr:city": "Kuna", "addr:housenumber": "1031", "addr:postcode": "83634", "addr:state": "ID", "addr:street": "East Kuna Road", "building": "yes", "name": "Big Smoke", "shop": "tobacco", "source": "microsoft/BuildingFootprints"}}, {"type": "way", "id": 761902372, "nodes": [8331523748, 7118610600, 7118613017, 7118607500, 8331523748], "tags": {"addr:city": "Kuna", "addr:housenumber": "869", "addr:postcode": "83634", "addr:state": "ID", "addr:street": "East Avalon Street", "brand": "Walgreens", "brand:wikidata": "Q1591889", "building": "yes", "name": "Walgreens", "shop": "chemist", "source": "microsoft/BuildingFootprints", "website": "https://www.walgreens.com/locator/walgreens-869+e+avalon+st-kuna-id-83634/id=13614"}}, {"type": "way", "id": 761902401, "nodes": [8331523741, 7118612175, 7118606663, 7118609097, 8331523741], "tags": {"addr:city": "Kuna", "addr:housenumber": "349", "addr:postcode": "83634", "addr:state": "ID", "addr:street": "East Avalon Street", "brand": "Family Dollar", "brand:wikidata": "Q5433101", "building": "yes", "name": "Family Dollar", "shop": "variety_store", "source": "microsoft/BuildingFootprints"}}, {"type": "way", "id": 761903739, "nodes": [8331523749, 7118541245, 7118612968, 7118567944, 8331523749], "tags": {"addr:city": "Kuna", "addr:housenumber": "975", "addr:postcode": "83634", "addr:state": "ID", "addr:street": "East Kuna Road", "brand": "Les Schwab Tire Center", "brand:wikidata": "Q6529977", "building": "yes", "name": "Les Schwab Tire Center", "shop": "tyres", "source": "microsoft/BuildingFootprints"}}, {"type": "way", "id": 761906030, "nodes": [8331515539, 7118627362, 7118633467, 7118627712, 8331515539], "tags": {"addr:city": "Kuna", "addr:housenumber": "172", "addr:postcode": "83634", "addr:state": "ID", "addr:street": "West Main Street", "building": "yes", "name": "Wildflower Boutique", "shop": "interior_decoration", "source": "microsoft/BuildingFootprints"}}, {"type": "way", "id": 761906075, "nodes": [8331525345, 7118632583, 7118600451, 7118631685, 8331525345], "tags": {"addr:city": "Kuna", "addr:housenumber": "564", "addr:postcode": "83634", "addr:state": "ID", "addr:street": "East Avalon Street", "building": "commercial", "name": "Lube 'n Go", "shop": "car_repair", "source": "microsoft/BuildingFootprints"}}, {"type": "way", "id": 761906246, "nodes": [8331523562, 7118635958, 7118635037, 7118632186, 8331523562], "tags": {"addr:city": "Kuna", "addr:housenumber": "240", "addr:postcode": "83634", "addr:state": "ID", "addr:street": "North Linder Avenue", "building": "yes", "name": "All Day Motors", "second_hand": "only", "shop": "car", "source": "microsoft/BuildingFootprints"}}, {"type": "way", "id": 761906802, "nodes": [8331525318, 7118634848, 7118634599, 7118632198, 8331525318], "tags": {"addr:city": "Kuna", "addr:housenumber": "102", "addr:postcode": "83634", "addr:state": "ID", "addr:street": "East 2nd Street", "building": "yes", "name": "Dapper Dan's Barbershop", "shop": "hairdresser", "source": "microsoft/BuildingFootprints"}}, {"type": "way", "id": 761907836, "nodes": [8331523708, 7118630193, 7118636099, 9572140852, 9572140853, 9572140857, 9572140856, 9572140855, 9572140858, 9572140854, 7118631650, 8331523708], "tags": {"addr:city": "Kuna", "addr:housenumber": "280", "addr:postcode": "83634", "addr:state": "ID", "addr:street": "North Linder Avenue", "building": "yes", "name": "Farm Bureau Insurance", "office": "insurance", "source": "microsoft/BuildingFootprints"}}, {"type": "way", "id": 893819447, "nodes": [8307448932, 8307448933, 8307448934, 8307448935, 8307448932], "tags": {"addr:city": "Kuna", "addr:housenumber": "480", "addr:postcode": "83634", "addr:state": "ID", "addr:street": "East Avalon Street", "brand": "AutoZone", "brand:wikidata": "Q4826087", "building": "yes", "name": "AutoZone", "shop": "car_parts", "website": "https://www.autozone.com/locations/id/kuna/480-e-avalon-st.html"}}, {"type": "way", "id": 1003784530, "nodes": [8331522163, 9262271139, 9262271564, 9262271623, 9262271639, 9262271498, 8331522163], "tags": {"addr:city": "Kuna", "addr:housenumber": "1011", "addr:postcode": "83634", "addr:state": "ID", "addr:street": "North Meridian Road", "amenity": "restaurant", "building": "yes", "cuisine": "barbecue", "name": "Smoky Mountain BBQ", "source": "microsoft/BuildingFootprints"}}, {"type": "way", "id": 1003784555, "nodes": [9262271747, 9262271616, 8331523211, 9262271609, 9262271237, 9262271155, 9262271747], "tags": {"addr:city": "Kuna", "addr:housenumber": "1277", "addr:postcode": "83634", "addr:state": "ID", "addr:street": "East Deer Flat Road", "brand": "Bi-Mart", "brand:wikidata": "Q4902331", "building": "yes", "name": "Bi-Mart", "shop": "department_store", "source": "microsoft/BuildingFootprints"}}, {"type": "way", "id": 1003784574, "nodes": [9262271242, 9262271246, 9262271411, 9262271642, 8331522168, 9262271200, 9262271210, 9262271321, 9262271242], "tags": {"addr:city": "Kuna", "addr:housenumber": "979", "addr:postcode": "83634", "addr:state": "ID", "addr:street": "North Meridian Road", "brand": "Tractor Supply Company", "brand:wikidata": "Q15109925", "building": "yes", "name": "Tractor Supply Company", "opening_hours": "Mo-Sa 08:00-21:00; Su 09:00-19:00", "phone": "+1 208-922-2800", "ref": "2069", "shop": "country_store", "source": "microsoft/BuildingFootprints"}}, {"type": "way", "id": 1003784577, "nodes": [9262271494, 8331522167, 9262271351, 9262271719, 9262271494], "tags": {"addr:city": "Kuna", "addr:housenumber": "933", "addr:postcode": "83634", "addr:state": "ID", "addr:street": "North Meridian Road", "brand": "O'Reilly Auto Parts", "brand:wikidata": "Q7071951", "building": "yes", "name": "O'Reilly Auto Parts", "shop": "car_parts", "source": "microsoft/BuildingFootprints", "website": "https://locations.oreillyauto.com/id/kuna/autoparts-5841.html"}}, {"type": "way", "id": 1003784599, "nodes": [8331522166, 9262271309, 9262271225, 9262271575, 8331522166], "tags": {"addr:city": "Kuna", "addr:housenumber": "975", "addr:postcode": "83634", "addr:state": "ID", "addr:street": "North Meridian Road", "brand": "Dollar Tree", "brand:wikidata": "Q5289230", "building": "yes", "check_date": "2024-07-11", "check_date:opening_hours": "2024-07-11", "name": "Dollar Tree", "opening_hours": "Mo-Sa 09:00-22:00; Su 09:00-21:00", "shop": "variety_store", "source": "microsoft/BuildingFootprints", "website": "https://www.dollartree.com/locations/id/kuna/7044/"}}, {"type": "way", "id": 1003784656, "nodes": [9262260901, 9262272266, 9262271822, 9262272076, 9262272058, 9262272139, 9262272089, 9262272173, 9262272047, 8672353395, 9262272113, 9262272302, 9262271880, 10909674369, 9262272123, 9262271914, 9262272156, 9262260901], "tags": {"addr:city": "Kuna", "addr:housenumber": "1845", "addr:postcode": "83634", "addr:state": "ID", "addr:street": "East Deer Flat Road", "building": "yes", "name": "D&B Supply", "shop": "agrarian", "source": "microsoft/BuildingFootprints"}}, {"type": "way", "id": 1003786929, "nodes": [8331521324, 9262286611, 9262286191, 9262285657, 9262286078, 9262286699, 9262285961, 9262286176, 8331521324], "tags": {"addr:city": "Meridian", "addr:housenumber": "8797", "addr:postcode": "83642", "addr:state": "ID", "addr:street": "South Meridian Road", "building": "yes", "name": "Indian Creek Sports", "shop": "boat", "source": "microsoft/BuildingFootprints"}}, {"type": "way", "id": 1033329753, "nodes": [8332260666, 8332260665, 8331528846, 9520404079, 9520404080, 9520404081, 9520404082, 9520404083, 9520404084, 8332260668, 8332260667, 8332260666], "tags": {"addr:city": "Kuna", "addr:housenumber": "387", "addr:postcode": "83634", "addr:state": "ID", "addr:street": "South Swan Falls Road", "name": "Swan Falls Storage", "shop": "storage_rental"}}]}