{"version": 0.6, "generator": "Overpass API 0.7.62.8 e802775f", "osm3s": {"timestamp_osm_base": "2025-11-30T00:08:29Z", "copyright": "The data included in this document is from www.openstreetmap.org. The data is made available under ODbL."}, "elements": [{"type": "node", "id": 5889465329, "lat": 33.5185787, "lon": -86.5839059}, {"type": "node", "id": 5889465330, "lat": 33.5186386, "lon": -86.5840292}, {"type": "node", "id": 5889465331, "lat": 33.5183833, "lon": -86.5842078}, {"type": "node", "id": 5889465332, "lat": 33.5183234, "lon": -86.5840845}, {"type": "node", "id": 5893354133, "lat": 33.53917, "lon": -86.5895437}, {"type": "node", "id": 5893354134, "lat": 33.5390868, "lon": -86.5894184}, {"type": "node", "id": 5893354135, "lat": 33.5391245, "lon": -86.5893824}, {"type": "node", "id": 5893354136, "lat": 33.5386923, "lon": -86.5887314}, {"type": "node", "id": 5893354137, "lat": 33.5385571, "lon": -86.5888605}, {"type": "node", "id": 5893354138, "lat": 33.5389823, "lon": -86.589501}, {"type": "node", "id": 5893354139, "lat": 33.5390205, "lon": -86.5894645}, {"type": "node", "id": 5893354140, "lat": 33.5391107, "lon": -86.5896004}, {"type": "node", "id": 5893354141, "lat": 33.537819, "lon": -86.590388}, {"type": "node", "id": 5893354142, "lat": 33.5375408, "lon": -86.5899608}, {"type": "node", "id": 5893354143, "lat": 33.5372945, "lon": -86.5901733}, {"type": "node", "id": 5893354144, "lat": 33.5374469, "lon": -86.5904029}, {"type": "node", "id": 5893354145, "lat": 33.5374682, "lon": -86.5903838}, {"type": "node", "id": 5893354146, "lat": 33.5375196, "lon": -86.5904688}, {"type": "node", "id": 5893354147, "lat": 33.5375957, "lon": -86.5905751}, {"type": "node", "id": 5893354154, "lat": 33.5372249, "lon": -86.5910499}, {"type": "node", "id": 5893354155, "lat": 33.5370432, "lon": -86.5906815}, {"type": "node", "id": 5893354156, "lat": 33.5369161, "lon": -86.5907717}, {"type": "node", "id": 5893354157, "lat": 33.5370978, "lon": -86.5911401}, {"type": "node", "id": 7712417452, "lat": 33.5242392, "lon": -86.5796687}, {"type": "node", "id": 7712417453, "lat": 33.5243132, "lon": -86.5795933}, {"type": "node", "id": 7712417454, "lat": 33.5241305, "lon": -86.5793352}, {"type": "node", "id": 7712417455, "lat": 33.5240454, "lon": -86.5794219}, {"type": "node", "id": 7712417456, "lat": 33.5241444, "lon": -86.5795617}, {"type": "node", "id": 7712417457, "lat": 33.5241554, "lon": -86.5795504}, {"type": "node", "id": 12525209497, "lat": 33.5214106, "lon": -86.5830879}, {"type": "node", "id": 12525209498, "lat": 33.5213184, "lon": -86.5831605}, {"type": "node", "id": 12525209499, "lat": 33.5212861, "lon": -86.5831124}, {"type": "node", "id": 12525209500, "lat": 33.5212628, "lon": -86.5831301}, {"type": "node", "id": 12525215701, "lat": 33.5212368, "lon": -86.5830829}, {"type": "node", "id": 12525215702, "lat": 33.5212593, "lon": -86.5830643}, {"type": "node", "id": 12525215703, "lat": 33.5212382, "lon": -86.583023}, {"type": "node", "id": 12525215704, "lat": 33.5213177, "lon": -86.5829597}, {"type": "node", "id": 12525215705, "lat": 33.5213578, "lon": -86.5830306}, {"type": "node", "id": 12525215706, "lat": 33.5213719, "lon": -86.5830188}, {"type": "node", "id": 12525239434, "lat": 33.5211094, "lon": -86.5826565}, {"type": "node", "id": 12525239435, "lat": 33.5209784, "lon": -86.5827604}, {"type": "node", "id": 12525239436, "lat": 33.5209052, "lon": -86.5826269}, {"type": "node", "id": 12525239437, "lat": 33.521008, "lon": -86.5825501}, {"type": "node", "id": 12525239438, "lat": 33.5210488, "lon": -86.5826227}, {"type": "node", "id": 12525239439, "lat": 33.5210777, "lon": -86.5825999}, {"type": "node", "id": 12525239440, "lat": 33.5210548, "lon": -86.5826067}, {"type": "node", "id": 12525239441, "lat": 33.5210382, "lon": -86.5825764}, {"type": "node", "id": 12525239442, "lat": 33.5210277, "lon": -86.5825848}, {"type": "node", "id": 12525239443, "lat": 33.5210439, "lon": -86.582614}, {"type": "node", "id": 12525239444, "lat": 33.520933, "lon": -86.5826779}, {"type": "node", "id": 12525239445, "lat": 33.5209081, "lon": -86.5826319}, {"type": "node", "id": 12525239446, "lat": 33.5208851, "lon": -86.5826498}, {"type": "node", "id": 12525239447, "lat": 33.5209078, "lon": -86.582695}, {"type": "node", "id": 12525253610, "lat": 33.5216664, "lon": -86.582719}, {"type": "node", "id": 12525253611, "lat": 33.5215911, "lon": -86.5825796}, {"type": "node", "id": 12525253612, "lat": 33.5215249, "lon": -86.5826337}, {"type": "node", "id": 12525253613, "lat": 33.5215488, "lon": -86.5826776}, {"type": "node", "id": 12525253614, "lat": 33.521539, "lon": -86.5826861}, {"type": "node", "id": 12525253615, "lat": 33.5215904, "lon": -86.5827781}, {"type": "node", "id": 12525253616, "lat": 33.5218636, "lon": -86.582953}, {"type": "node", "id": 12525253617, "lat": 33.5218031, "lon": -86.5828381}, {"type": "node", "id": 12525253618, "lat": 33.5216432, "lon": -86.5829623}, {"type": "node", "id": 12525253619, "lat": 33.5217045, "lon": -86.5830729}, {"type": "node", "id": 12525253620, "lat": 33.521991, "lon": -86.5832208}, {"type": "node", "id": 12525253621, "lat": 33.5218481, "lon": -86.583328}, {"type": "node", "id": 12525253622, "lat": 33.5218913, "lon": -86.5834074}, {"type": "node", "id": 12525253623, "lat": 33.5219218, "lon": -86.5833842}, {"type": "node", "id": 12525253624, "lat": 33.5219582, "lon": -86.5834503}, {"type": "node", "id": 12525253625, "lat": 33.5220699, "lon": -86.5833646}, {"type": "node", "id": 12525253626, "lat": 33.5214893, "lon": -86.5832806}, {"type": "node", "id": 12525253627, "lat": 33.5214833, "lon": -86.583286}, {"type": "node", "id": 12525253628, "lat": 33.5214967, "lon": -86.5833065}, {"type": "node", "id": 12525253629, "lat": 33.5214386, "lon": -86.5833539}, {"type": "node", "id": 12525253630, "lat": 33.5214252, "lon": -86.583328}, {"type": "node", "id": 12525253631, "lat": 33.5213568, "lon": -86.5833798}, {"type": "node", "id": 12525253632, "lat": 33.5212927, "lon": -86.5832672}, {"type": "node", "id": 12525253633, "lat": 33.5214565, "lon": -86.5832244}, {"type": "node", "id": 12525253634, "lat": 33.5214414, "lon": -86.5832367}, {"type": "node", "id": 12525253635, "lat": 33.5214357, "lon": -86.5832272}, {"type": "node", "id": 12525253636, "lat": 33.5214282, "lon": -86.583234}, {"type": "node", "id": 12525253637, "lat": 33.5214011, "lon": -86.5831822}, {"type": "node", "id": 12525253638, "lat": 33.5216597, "lon": -86.583536}, {"type": "node", "id": 12525253639, "lat": 33.5216545, "lon": -86.5835396}, {"type": "node", "id": 12525253640, "lat": 33.5216672, "lon": -86.5835646}, {"type": "node", "id": 12525253641, "lat": 33.5216046, "lon": -86.5836155}, {"type": "node", "id": 12525253642, "lat": 33.5215927, "lon": -86.5835932}, {"type": "node", "id": 12525253643, "lat": 33.5215228, "lon": -86.5836467}, {"type": "node", "id": 12525253644, "lat": 33.5214573, "lon": -86.5835244}, {"type": "node", "id": 12525253645, "lat": 33.5215659, "lon": -86.5834396}, {"type": "node", "id": 12525253646, "lat": 33.5215965, "lon": -86.5834949}, {"type": "node", "id": 12525253647, "lat": 33.5216076, "lon": -86.5834878}, {"type": "node", "id": 12525253648, "lat": 33.5216106, "lon": -86.5834949}, {"type": "node", "id": 12525253649, "lat": 33.5216292, "lon": -86.5834807}, {"type": "node", "id": 13205104000, "lat": 33.5210881, "lon": -86.5835731}, {"type": "node", "id": 13205106501, "lat": 33.5209606, "lon": -86.5836075}, {"type": "node", "id": 13205106502, "lat": 33.5209533, "lon": -86.5835721}, {"type": "node", "id": 13205106503, "lat": 33.5209475, "lon": -86.5835741}, {"type": "node", "id": 13205106504, "lat": 33.5209369, "lon": -86.5835269}, {"type": "node", "id": 13205106505, "lat": 33.5209455, "lon": -86.583525}, {"type": "node", "id": 13205106506, "lat": 33.5209426, "lon": -86.5835107}, {"type": "node", "id": 13205106507, "lat": 33.5209074, "lon": -86.58352}, {"type": "node", "id": 13205106508, "lat": 33.5208922, "lon": -86.5834463}, {"type": "node", "id": 13205106509, "lat": 33.5210569, "lon": -86.5834026}, {"type": "node", "id": 13205106510, "lat": 33.5206593, "lon": -86.5829313}, {"type": "node", "id": 13205106511, "lat": 33.5207663, "lon": -86.5828229}, {"type": "node", "id": 13205106512, "lat": 33.5208288, "lon": -86.5829078}, {"type": "node", "id": 13205106513, "lat": 33.5207655, "lon": -86.5829776}, {"type": "node", "id": 13205106514, "lat": 33.5207773, "lon": -86.5829969}, {"type": "node", "id": 13205106515, "lat": 33.5207371, "lon": -86.583039}, {"type": "node", "id": 13205106516, "lat": 33.5206392, "lon": -86.5833484}, {"type": "node", "id": 13205106517, "lat": 33.5204855, "lon": -86.583336}, {"type": "node", "id": 13205106518, "lat": 33.5204773, "lon": -86.5834773}, {"type": "node", "id": 13205106519, "lat": 33.5206019, "lon": -86.5834892}, {"type": "node", "id": 13205106520, "lat": 33.5206029, "lon": -86.5834406}, {"type": "node", "id": 13205106521, "lat": 33.5205933, "lon": -86.5834406}, {"type": "node", "id": 13205106522, "lat": 33.5205937, "lon": -86.5834248}, {"type": "node", "id": 13205106523, "lat": 33.5206378, "lon": -86.5834261}, {"type": "node", "id": 13205106524, "lat": 33.5206175, "lon": -86.5839014}, {"type": "node", "id": 13205106525, "lat": 33.5207093, "lon": -86.5838777}, {"type": "node", "id": 13205106526, "lat": 33.5206917, "lon": -86.5837776}, {"type": "node", "id": 13205106527, "lat": 33.5207161, "lon": -86.5837706}, {"type": "node", "id": 13205106528, "lat": 33.5205885, "lon": -86.583741}, {"type": "node", "id": 13205106529, "lat": 33.5207051, "lon": -86.5837113}, {"type": "node", "id": 13205106530, "lat": 33.5207791, "lon": -86.5841641}, {"type": "node", "id": 13205106531, "lat": 33.5207168, "lon": -86.5841798}, {"type": "node", "id": 13205106532, "lat": 33.5207229, "lon": -86.5842127}, {"type": "node", "id": 13205106533, "lat": 33.5206385, "lon": -86.5842324}, {"type": "node", "id": 13205106534, "lat": 33.5206639, "lon": -86.5843671}, {"type": "node", "id": 13205106535, "lat": 33.5207905, "lon": -86.5843317}, {"type": "node", "id": 13205106536, "lat": 33.520777, "lon": -86.5842575}, {"type": "node", "id": 13205106537, "lat": 33.5207955, "lon": -86.5842525}, {"type": "node", "id": 13205106538, "lat": 33.5208781, "lon": -86.5846502}, {"type": "node", "id": 13205106539, "lat": 33.5207256, "lon": -86.5846881}, {"type": "node", "id": 13205106540, "lat": 33.5207563, "lon": -86.5848422}, {"type": "node", "id": 13205106541, "lat": 33.520871, "lon": -86.5848127}, {"type": "node", "id": 13205106542, "lat": 33.520854, "lon": -86.5847283}, {"type": "node", "id": 13205106543, "lat": 33.5208918, "lon": -86.5847176}, {"type": "way", "id": 623624065, "nodes": [5889465329, 5889465330, 5889465331, 5889465332, 5889465329], "tags": {"building": "yes"}}, {"type": "way", "id": 624118717, "nodes": [5893354133, 5893354134, 5893354135, 5893354136, 5893354137, 5893354138, 5893354139, 5893354140, 5893354133], "tags": {"addr:city": "Leeds", "addr:housenumber": "310", "addr:postcode": "35094", "addr:state": "AL", "addr:street": "Rex Lake Road", "branch": "Birmingham/Leeds", "brand": "Hampton", "brand:wikidata": "Q5646230", "building": "hotel", "name": "Hampton Inn", "official_name": "Hampton Inn & Suites by Hilton", "phone": "+1 205-702-4141", "ref": "BHMLEHX", "tourism": "hotel", "website": "https://www.hilton.com/en/hotels/bhmlehx-hampton-birmingham-leeds-al/"}}, {"type": "way", "id": 624118718, "nodes": [5893354141, 5893354142, 5893354143, 5893354144, 5893354145, 5893354146, 5893354147, 5893354141], "tags": {"amenity": "clinic", "building": "yes", "healthcare": "clinic", "name": "UAB Medicine Leeds", "website": "https://uabmedicine.org/locations/uab-medicine-leeds"}}, {"type": "way", "id": 624118722, "nodes": [5893354154, 5893354155, 5893354156, 5893354157, 5893354154], "tags": {"building": "yes"}}, {"type": "way", "id": 826036671, "nodes": [7712417452, 7712417453, 7712417454, 7712417455, 7712417456, 7712417457, 7712417452], "tags": {"building": "industrial"}}, {"type": "way", "id": 1353550213, "nodes": [12525209497, 12525209498, 12525209499, 12525209500, 12525215701, 12525215702, 12525215703, 12525215704, 12525215705, 12525215706, 12525209497], "tags": {"addr:city": "Leeds", "addr:housenumber": "612", "addr:postcode": "35094-6604", "addr:state": "AL", "addr:street": "Southern Trace Parkway", "building": "house", "building:levels": "2", "house": "residential"}}, {"type": "way", "id": 1353553625, "nodes": [12525239434, 12525239435, 12525239444, 12525239447, 12525239446, 12525239445, 12525239436, 12525239437, 12525239442, 12525239441, 12525239440, 12525239443, 12525239438, 12525239439, 12525239434], "tags": {"addr:city": "Leeds", "addr:housenumber": "606", "addr:postcode": "35094-6604", "addr:state": "AL", "addr:street": "Southern Trace Parkway", "building": "house", "building:levels": "2", "house": "residential"}}, {"type": "way", "id": 1353554344, "nodes": [12525253610, 12525253611, 12525253612, 12525253613, 12525253614, 12525253615, 12525253610], "tags": {"addr:city": "Leeds", "addr:housenumber": "609", "addr:postcode": "35094-6603", "addr:state": "AL", "addr:street": "Southern Trace Parkway", "building": "house", "building:levels": "2", "house": "residential"}}, {"type": "way", "id": 1353554345, "nodes": [12525253616, 12525253617, 12525253618, 12525253619, 12525253616], "tags": {"addr:city": "Leeds", "addr:housenumber": "615", "addr:postcode": "35094-6603", "addr:state": "AL", "addr:street": "Southern Trace Parkway", "building": "house", "building:levels": "2", "house": "residential"}}, {"type": "way", "id": 1353554346, "nodes": [12525253620, 12525253621, 12525253622, 12525253623, 12525253624, 12525253625, 12525253620], "tags": {"addr:city": "Leeds", "addr:housenumber": "621", "addr:postcode": "35094-6603", "addr:state": "AL", "addr:street": "Southern Trace Parkway", "building": "house", "building:levels": "2", "house": "residential"}}, {"type": "way", "id": 1353554347, "nodes": [12525253626, 12525253627, 12525253628, 12525253629, 12525253630, 12525253631, 12525253632, 12525253637, 12525253636, 12525253635, 12525253634, 12525253633, 12525253626], "tags": {"addr:city": "Leeds", "addr:housenumber": "616", "addr:postcode": "35094-6604", "addr:state": "AL", "addr:street": "Southern Trace Parkway", "building": "house", "building:levels": "2", "house": "residential"}}, {"type": "way", "id": 1353554348, "nodes": [12525253638, 12525253639, 12525253640, 12525253641, 12525253642, 12525253643, 12525253644, 12525253645, 12525253646, 12525253647, 12525253648, 12525253649, 12525253638], "tags": {"addr:city": "Leeds", "addr:housenumber": "620", "addr:postcode": "35094-6604", "addr:state": "AL", "addr:street": "Southern Trace Parkway", "building": "house", "building:levels": "2", "house": "residential"}}, {"type": "way", "id": 1436716598, "nodes": [13205104000, 13205106501, 13205106502, 13205106503, 13205106504, 13205106505, 13205106506, 13205106507, 13205106508, 13205106509, 13205104000], "tags": {"addr:city": "Leeds", "addr:housenumber": "6538", "addr:postcode": "35094", "addr:state": "AL", "addr:street": "Hawks Place", "building": "house", "building:levels": "2"}}, {"type": "way", "id": 1436716599, "nodes": [13205106510, 13205106511, 13205106512, 13205106513, 13205106514, 13205106515, 13205106510], "tags": {"addr:city": "Leeds", "addr:housenumber": "6545", "addr:postcode": "35094", "addr:state": "AL", "addr:street": "Hawks Place", "building": "house", "building:levels": "2"}}, {"type": "way", "id": 1436716600, "nodes": [13205106516, 13205106517, 13205106518, 13205106519, 13205106520, 13205106521, 13205106522, 13205106523, 13205106516], "tags": {"addr:city": "Leeds", "addr:housenumber": "6539", "addr:postcode": "35094", "addr:state": "AL", "addr:street": "Hawks Place", "building": "house", "building:levels": "2"}}, {"type": "way", "id": 1436716601, "nodes": [13205106524, 13205106525, 13205106526, 13205106527, 13205106529, 13205106528, 13205106524], "tags": {"addr:city": "Leeds", "addr:housenumber": "6533", "addr:postcode": "35094", "addr:state": "AL", "addr:street": "Hawks Place", "building": "house"}}, {"type": "way", "id": 1436716602, "nodes": [13205106530, 13205106531, 13205106532, 13205106533, 13205106534, 13205106535, 13205106536, 13205106537, 13205106530], "tags": {"addr:city": "Leeds", "addr:housenumber": "6527", "addr:postcode": "35094", "addr:state": "AL", "addr:street": "Hawks Place", "building": "house"}}, {"type": "way", "id": 1436716603, "nodes": [13205106538, 13205106539, 13205106540, 13205106541, 13205106542, 13205106543, 13205106538], "tags": {"addr:city": "Leeds", "addr:housenumber": "6521", "addr:postcode": "35094", "addr:state": "AL", "addr:street": "Hawks Place", "building": "house"}}]}