{"version": 0.6, "generator": "Overpass API 0.7.62.8 e802775f", "osm3s": {"timestamp_osm_base": "2025-12-05T20:57:36Z", "copyright": "The data included in this document is from www.openstreetmap.org. The data is made available under ODbL."}, "elements": [{"type": "node", "id": 4317753706, "lat": 45.6608866, "lon": -111.0390523, "tags": {"addr:city": "Bozeman", "addr:housenumber": "85", "addr:state": "MT", "addr:street": "West Kagy Boulevard", "brand": "Snap Fitness", "brand:wikidata": "Q7547254", "leisure": "fitness_centre", "name": "Snap Fitness"}}, {"type": "node", "id": 4317753739, "lat": 45.6608343, "lon": -111.039147}, {"type": "node", "id": 4317753740, "lat": 45.6608345, "lon": -111.0389733}, {"type": "node", "id": 4317753749, "lat": 45.6610428, "lon": -111.0391474}, {"type": "node", "id": 4317753750, "lat": 45.661043, "lon": -111.0389737}, {"type": "node", "id": 12560130345, "lat": 45.6642839, "lon": -111.0505371, "tags": {"leisure": "sports_hall", "name": "Shroyer Gym"}}, {"type": "way", "id": 432823825, "nodes": [4317753740, 4317753739, 4317753749, 4317753750, 4317753740], "tags": {"addr:city": "Bozeman", "addr:state": "MT", "addr:street": "West Kagy Boulevard", "building": "yes", "leisure": "fitness_centre"}}]}