{"version": 0.6, "generator": "Overpass API 0.7.62.8 e802775f", "osm3s": {"timestamp_osm_base": "2025-12-06T04:21:20Z", "copyright": "The data included in this document is from www.openstreetmap.org. The data is made available under ODbL."}, "elements": [{"type": "node", "id": 2633249827, "lat": 48.3915157, "lon": -114.3344843}, {"type": "node", "id": 2928618901, "lat": 48.398353, "lon": -114.336769, "tags": {"shop": "laundry"}}, {"type": "node", "id": 2928619001, "lat": 48.399217, "lon": -114.336602, "tags": {"addr:city": "Whitefish", "addr:housenumber": "6580", "addr:postcode": "59937", "addr:state": "MT", "addr:street": "Highway 93 South", "brand": "Safeway", "brand:wikidata": "Q1508234", "name": "Safeway", "opening_hours": "Mo-Fr 06:00-23:00; Sa 06:00-23:00; Su 06:00-23:00", "phone": "+1 406-862-3006", "shop": "supermarket", "website": "https://local.safeway.com/safeway/mt/whitefish/6580-hwy-93-s.html"}}, {"type": "node", "id": 2954473498, "lat": 48.4001661, "lon": -114.3345341}, {"type": "node", "id": 3005068063, "lat": 48.3955844, "lon": -114.3327372, "tags": {"addr:city": "Whitefish", "addr:housenumber": "6475", "addr:postcode": "59937", "addr:street": "Highway 93 S", "name": "Super 1 Foods", "phone": "+1 406-862-2222", "shop": "supermarket", "website": "https://www.super1foods.net/"}}, {"type": "node", "id": 3005068064, "lat": 48.3946529, "lon": -114.3345799, "tags": {"addr:city": "Whitefish", "addr:housenumber": "6475", "addr:postcode": "59937", "addr:street": "Highway 93 S", "name": "Sportsman & Ski Haus", "phone": "+1 406-862-3111", "shop": "outdoor", "website": "https://www.sportsmanskihaus.com/"}}, {"type": "node", "id": 3632283183, "lat": 48.3931413, "lon": -114.3365303, "tags": {"addr:city": "Whitefish", "addr:housenumber": "6422", "addr:postcode": "59937", "addr:state": "MT", "addr:street": "Highway 93 South", "amenity": "restaurant", "cuisine": "chinese", "delivery": "yes", "name": "China Wall Restaurant", "phone": "+1 406-862-2604", "smoking": "no", "website": "https://www.chinawallwhitefish.com/dinner.html"}}, {"type": "node", "id": 5156828622, "lat": 48.400233, "lon": -114.33836, "tags": {"addr:housenumber": "1250", "addr:postcode": "59937", "addr:street": "Baker Avenue", "internet_access": "wlan", "name": "An Salon", "name:en": "An Salon", "shop": "beauty"}}, {"type": "node", "id": 5275666196, "lat": 48.3884453, "lon": -114.3340246}, {"type": "node", "id": 5275668136, "lat": 48.3880107, "lon": -114.3339549}, {"type": "node", "id": 5275668137, "lat": 48.3881745, "lon": -114.3339602}, {"type": "node", "id": 5275668138, "lat": 48.3881781, "lon": -114.3340246}, {"type": "node", "id": 5275668170, "lat": 48.3882315, "lon": -114.3353174}, {"type": "node", "id": 5275668180, "lat": 48.3884524, "lon": -114.3353067}, {"type": "node", "id": 5275668186, "lat": 48.3882246, "lon": -114.3347212}, {"type": "node", "id": 5275668187, "lat": 48.3880037, "lon": -114.3347105}, {"type": "node", "id": 5355462507, "lat": 48.4004715, "lon": -114.3345305}, {"type": "node", "id": 5355462508, "lat": 48.4004684, "lon": -114.3339303}, {"type": "node", "id": 5355462509, "lat": 48.400163, "lon": -114.3339339}, {"type": "node", "id": 5355469821, "lat": 48.39513, "lon": -114.3365263}, {"type": "node", "id": 5355469822, "lat": 48.395277, "lon": -114.3365244}, {"type": "node", "id": 5355469823, "lat": 48.395275, "lon": -114.3361631}, {"type": "node", "id": 5355469824, "lat": 48.3950239, "lon": -114.3361662}, {"type": "node", "id": 5355469825, "lat": 48.3950276, "lon": -114.3368577}, {"type": "node", "id": 5355469826, "lat": 48.3951319, "lon": -114.3368565}, {"type": "node", "id": 5355469863, "lat": 48.3925149, "lon": -114.3368918}, {"type": "node", "id": 5355469864, "lat": 48.392257, "lon": -114.336893}, {"type": "node", "id": 5355469865, "lat": 48.392256, "lon": -114.3364083}, {"type": "node", "id": 5355469866, "lat": 48.3925138, "lon": -114.3364071}, {"type": "node", "id": 5355469875, "lat": 48.391597, "lon": -114.3351003}, {"type": "node", "id": 5355469876, "lat": 48.3913774, "lon": -114.3351103}, {"type": "node", "id": 5355469877, "lat": 48.391362, "lon": -114.334343}, {"type": "node", "id": 5355469878, "lat": 48.3915127, "lon": -114.3343361}, {"type": "node", "id": 5355469880, "lat": 48.3915846, "lon": -114.3344812}, {"type": "node", "id": 6141352780, "lat": 48.3952662, "lon": -114.3331351, "tags": {"addr:city": "Whitefish", "addr:housenumber": "6475", "addr:postcode": "59937", "addr:state": "MT", "addr:street": "Highway 93 S", "brand": "Great Clips", "brand:wikidata": "Q5598967", "name": "Great Clips", "shop": "hairdresser"}}, {"type": "node", "id": 8483363671, "lat": 48.3838196, "lon": -114.3348927, "tags": {"addr:city": "Whitefish", "addr:housenumber": "6155", "addr:postcode": "59937", "addr:state": "MT", "addr:street": "US 93 South", "amenity": "restaurant", "indoor_seating": "yes", "name": "Jersey Boys Pizzeria", "opening_hours": "Mo-Su 11:00-22:00", "outdoor_seating": "yes"}}, {"type": "node", "id": 8538391944, "lat": 48.3925084, "lon": -114.336407}, {"type": "node", "id": 8919980771, "lat": 48.3947081, "lon": -114.337133}, {"type": "node", "id": 8919980772, "lat": 48.3947145, "lon": -114.3367547}, {"type": "node", "id": 8919980773, "lat": 48.3946521, "lon": -114.3367432}, {"type": "node", "id": 8919980774, "lat": 48.3945931, "lon": -114.3367487}, {"type": "node", "id": 8919980775, "lat": 48.3945924, "lon": -114.3371306}, {"type": "node", "id": 9900089036, "lat": 48.3957155, "lon": -114.3364527, "tags": {"addr:city": "Whitefish", "addr:housenumber": "6490", "addr:postcode": "59937-8237", "addr:state": "MT", "addr:street": "Commerce Street", "brand": "Ace Hardware", "brand:wikidata": "Q4672981", "name": "Nelson's Ace Hardware", "opening_hours": "Mo-Sa 08:00-19:00; Su 09:00-18:00", "phone": "+1 406-862-3573", "ref": "07568", "shop": "doityourself"}}, {"type": "node", "id": 10916487897, "lat": 48.3801783, "lon": -114.3310728, "tags": {"name": "Logan Health Gift Shop", "shop": "gift"}}, {"type": "node", "id": 10916544205, "lat": 48.3792251, "lon": -114.3313967, "tags": {"office": "therapist", "phone": "+1 406-862-1013"}}, {"type": "node", "id": 10916544209, "lat": 48.3791935, "lon": -114.3317315, "tags": {"name": "Aspire Massage", "opening_hours": "Mo-Fr 09:00-18:00", "phone": "+1 406-250-3366", "shop": "massage", "website": "https://aspiremassagewhitefish.com"}}, {"type": "node", "id": 12474350667, "lat": 48.4009622, "lon": -114.3359115}, {"type": "node", "id": 12474350668, "lat": 48.4012292, "lon": -114.3359048}, {"type": "node", "id": 12474350669, "lat": 48.4012242, "lon": -114.3359022}, {"type": "node", "id": 12474350670, "lat": 48.4012759, "lon": -114.3359009}, {"type": "node", "id": 12474350671, "lat": 48.4012782, "lon": -114.3361069}, {"type": "node", "id": 12474350672, "lat": 48.4012662, "lon": -114.3361008}, {"type": "node", "id": 12474350673, "lat": 48.4010876, "lon": -114.3361052}, {"type": "node", "id": 12474350674, "lat": 48.4010872, "lon": -114.3360693}, {"type": "node", "id": 12474350675, "lat": 48.4010141, "lon": -114.3360711}, {"type": "node", "id": 12474350676, "lat": 48.4009991, "lon": -114.3360635}, {"type": "node", "id": 12474350677, "lat": 48.4009891, "lon": -114.3360637}, {"type": "node", "id": 12474350678, "lat": 48.400859, "lon": -114.3359972}, {"type": "node", "id": 12474350679, "lat": 48.4008755, "lon": -114.3359242}, {"type": "node", "id": 12474350680, "lat": 48.400875, "lon": -114.3358761}, {"type": "node", "id": 12474350681, "lat": 48.4008922, "lon": -114.3358757}, {"type": "node", "id": 12474500233, "lat": 48.399934, "lon": -114.3327735}, {"type": "node", "id": 12474500234, "lat": 48.4002153, "lon": -114.3327682}, {"type": "node", "id": 12474500235, "lat": 48.4002171, "lon": -114.3329801}, {"type": "node", "id": 12474500236, "lat": 48.4000746, "lon": -114.3329828}, {"type": "node", "id": 12474500237, "lat": 48.4000748, "lon": -114.3330069}, {"type": "node", "id": 12474500238, "lat": 48.3999947, "lon": -114.3330084}, {"type": "node", "id": 12474500239, "lat": 48.3999945, "lon": -114.3329816}, {"type": "node", "id": 12474500240, "lat": 48.3999357, "lon": -114.3329827}, {"type": "node", "id": 12474500348, "lat": 48.3944299, "lon": -114.336384}, {"type": "node", "id": 12474500349, "lat": 48.3944288, "lon": -114.3360932}, {"type": "node", "id": 12474500350, "lat": 48.3947155, "lon": -114.3360908}, {"type": "node", "id": 12474500351, "lat": 48.3947171, "lon": -114.3365199}, {"type": "node", "id": 12474500352, "lat": 48.3946013, "lon": -114.3365209}, {"type": "node", "id": 12474500353, "lat": 48.3946008, "lon": -114.3363826}, {"type": "node", "id": 12474500358, "lat": 48.395003, "lon": -114.3361908}, {"type": "node", "id": 12474500359, "lat": 48.3950002, "lon": -114.3365486}, {"type": "node", "id": 12474500360, "lat": 48.3948855, "lon": -114.3365466}, {"type": "node", "id": 12474500361, "lat": 48.3948883, "lon": -114.3361888}, {"type": "node", "id": 12474500398, "lat": 48.3978206, "lon": -114.336112}, {"type": "node", "id": 12474500399, "lat": 48.3978178, "lon": -114.3360134}, {"type": "node", "id": 12474500400, "lat": 48.397791, "lon": -114.3360151}, {"type": "node", "id": 12474500401, "lat": 48.3977938, "lon": -114.3361137}, {"type": "node", "id": 12474500408, "lat": 48.3934044, "lon": -114.3352719}, {"type": "node", "id": 12474500409, "lat": 48.3934024, "lon": -114.3351395}, {"type": "node", "id": 12474500410, "lat": 48.3935419, "lon": -114.3351347}, {"type": "node", "id": 12474500411, "lat": 48.3935417, "lon": -114.335117}, {"type": "node", "id": 12474500412, "lat": 48.3936752, "lon": -114.3351124}, {"type": "node", "id": 12474500413, "lat": 48.3936769, "lon": -114.335224}, {"type": "node", "id": 12474500414, "lat": 48.3936353, "lon": -114.3352254}, {"type": "node", "id": 12474500415, "lat": 48.3936358, "lon": -114.335264}, {"type": "node", "id": 12474500416, "lat": 48.394296, "lon": -114.3343763, "tags": {"brand": "Dollar Tree", "brand:wikidata": "Q5289230", "name": "Dollar Tree", "shop": "variety_store"}}, {"type": "node", "id": 12474500498, "lat": 48.3895737, "lon": -114.3344923}, {"type": "node", "id": 12474500499, "lat": 48.3897761, "lon": -114.334491}, {"type": "node", "id": 12474500500, "lat": 48.3897786, "lon": -114.3353612}, {"type": "node", "id": 12474500501, "lat": 48.389578, "lon": -114.3353626}, {"type": "node", "id": 12474500502, "lat": 48.3895769, "lon": -114.3349939}, {"type": "node", "id": 12474500503, "lat": 48.3894968, "lon": -114.3349944}, {"type": "node", "id": 12474500504, "lat": 48.3894962, "lon": -114.3348079}, {"type": "node", "id": 12474500505, "lat": 48.3895746, "lon": -114.3348074}, {"type": "node", "id": 12474500520, "lat": 48.3877723, "lon": -114.3349464}, {"type": "node", "id": 12474500521, "lat": 48.3879469, "lon": -114.3349454}, {"type": "node", "id": 12474500522, "lat": 48.3879476, "lon": -114.3352593}, {"type": "node", "id": 12474500523, "lat": 48.387773, "lon": -114.3352602}, {"type": "node", "id": 12474503289, "lat": 48.3868041, "lon": -114.3347751, "tags": {"name": "Don K Whitefish", "shop": "car"}}, {"type": "node", "id": 12474515100, "lat": 48.3843839, "lon": -114.3354461}, {"type": "node", "id": 12474515101, "lat": 48.3843854, "lon": -114.3353768}, {"type": "node", "id": 12474515102, "lat": 48.3843035, "lon": -114.3353729}, {"type": "node", "id": 12474515103, "lat": 48.3843021, "lon": -114.3354421}, {"type": "node", "id": 12474527312, "lat": 48.3822886, "lon": -114.3367852}, {"type": "node", "id": 12474527313, "lat": 48.3822909, "lon": -114.3366753}, {"type": "node", "id": 12474527314, "lat": 48.3822706, "lon": -114.3366744}, {"type": "node", "id": 12474527315, "lat": 48.3822772, "lon": -114.3363568}, {"type": "node", "id": 12474527316, "lat": 48.3826438, "lon": -114.3363739}, {"type": "node", "id": 12474527317, "lat": 48.3826441, "lon": -114.3363579}, {"type": "node", "id": 12474527318, "lat": 48.3826875, "lon": -114.3363599}, {"type": "node", "id": 12474527319, "lat": 48.3826869, "lon": -114.336392}, {"type": "node", "id": 12474527320, "lat": 48.3828808, "lon": -114.3364011}, {"type": "node", "id": 12474527321, "lat": 48.3828769, "lon": -114.3365914}, {"type": "node", "id": 12474527322, "lat": 48.3828477, "lon": -114.33659}, {"type": "node", "id": 12474527323, "lat": 48.382843, "lon": -114.3368178}, {"type": "node", "id": 12474527324, "lat": 48.3826124, "lon": -114.336807}, {"type": "node", "id": 12474527325, "lat": 48.3826111, "lon": -114.3368713}, {"type": "node", "id": 12474527326, "lat": 48.3825096, "lon": -114.3368665}, {"type": "node", "id": 12474527327, "lat": 48.3825111, "lon": -114.3367956}, {"type": "node", "id": 12474527336, "lat": 48.3853003, "lon": -114.3369302}, {"type": "node", "id": 12474527337, "lat": 48.3851216, "lon": -114.3369225}, {"type": "node", "id": 12474527338, "lat": 48.3851319, "lon": -114.3363784}, {"type": "node", "id": 12474527339, "lat": 48.3853106, "lon": -114.3363861}, {"type": "node", "id": 12476949765, "lat": 48.3900152, "lon": -114.3366879, "tags": {"name": "Carpet Studio", "shop": "carpet"}}, {"type": "node", "id": 12476964563, "lat": 48.3791089, "lon": -114.3350443}, {"type": "node", "id": 12476964564, "lat": 48.3791052, "lon": -114.3346301}, {"type": "node", "id": 12476964565, "lat": 48.378756, "lon": -114.3346372}, {"type": "node", "id": 12476964566, "lat": 48.3787597, "lon": -114.3350514}, {"type": "way", "id": 545883968, "nodes": [5275668180, 5275666196, 5275668138, 5275668137, 5275668136, 5275668187, 5275668186, 5275668170, 5275668180], "tags": {"building": "yes", "name": "Wright's Furniture", "shop": "furniture"}}, {"type": "way", "id": 554986800, "nodes": [5355462507, 5355462508, 5355462509, 2954473498, 5355462507], "tags": {"brand": "Walgreens", "brand:wikidata": "Q1591889", "building": "yes", "name": "Walgreens", "shop": "chemist", "website": "https://www.walgreens.com/locator/walgreens-700+13th+st+e-whitefish-mt-59937/id=12347"}}, {"type": "way", "id": 554986820, "nodes": [5355469821, 5355469822, 5355469823, 5355469824, 5355469825, 5355469826, 5355469821], "tags": {"brand": "NAPA Auto Parts", "brand:wikidata": "Q6970842", "building": "yes", "name": "NAPA Auto Parts", "shop": "car_parts"}}, {"type": "way", "id": 554986828, "nodes": [5355469863, 5355469864, 5355469865, 8538391944, 5355469866, 5355469863], "tags": {"building": "yes", "name": "Army Navy Surplus", "shop": "military_surplus"}}, {"type": "way", "id": 554986831, "nodes": [5355469875, 5355469876, 5355469877, 5355469878, 2633249827, 5355469880, 5355469875], "tags": {"addr:city": "Whitefish", "addr:housenumber": "6355", "addr:postcode": "59937", "addr:state": "MT", "addr:street": "U.S. Highway 93 S", "brand": "Les Schwab Tire Center", "brand:wikidata": "Q6529977", "building": "yes", "name": "Les Schwab Tire Center", "shop": "tyres"}}, {"type": "way", "id": 964342172, "nodes": [8919980771, 8919980772, 8919980773, 8919980774, 8919980775, 8919980771], "tags": {"addr:city": "Whitefish", "addr:housenumber": "1875", "addr:postcode": "59937", "addr:state": "MT", "addr:street": "Baker Avenue", "amenity": "cafe", "building": "yes", "cuisine": "coffee_shop", "name": "Cowgirl Coffee"}}, {"type": "way", "id": 1348569153, "nodes": [12474350667, 12474350668, 12474350669, 12474350670, 12474350671, 12474350672, 12474350673, 12474350674, 12474350675, 12474350676, 12474350677, 12474350678, 12474350679, 12474350680, 12474350681, 12474350667], "tags": {"brand": "Town Pump", "brand:wikidata": "Q7830004", "building": "yes", "name": "Town Pump", "shop": "convenience", "source": "microsoft/BuildingFootprints"}}, {"type": "way", "id": 1348585013, "nodes": [12474500233, 12474500234, 12474500235, 12474500236, 12474500237, 12474500238, 12474500239, 12474500240, 12474500233], "tags": {"building": "yes", "name": "Insured Titles", "office": "insurance", "source": "microsoft/BuildingFootprints"}}, {"type": "way", "id": 1348585034, "nodes": [12474500348, 12474500349, 12474500350, 12474500351, 12474500352, 12474500353, 12474500348], "tags": {"building": "yes", "name": "Auto Glass Of Whitefish", "service:vehicle:glass": "yes", "shop": "car_repair", "source": "microsoft/BuildingFootprints"}}, {"type": "way", "id": 1348585036, "nodes": [12474500358, 12474500359, 12474500360, 12474500361, 12474500358], "tags": {"building": "yes", "name": "Green Go's", "shop": "cannabis", "source": "microsoft/BuildingFootprints"}}, {"type": "way", "id": 1348585046, "nodes": [12474500398, 12474500399, 12474500400, 12474500401, 12474500398], "tags": {"amenity": "cafe", "building": "yes", "cuisine": "coffee_shop", "drive_through": "only", "name": "Cowgirl Coffee"}}, {"type": "way", "id": 1348585048, "nodes": [12474500408, 12474500409, 12474500410, 12474500411, 12474500412, 12474500413, 12474500414, 12474500415, 12474500408], "tags": {"amenity": "cafe", "brand": "Starbucks", "brand:wikidata": "Q37158", "building": "yes", "cuisine": "coffee_shop", "name": "Starbucks", "official_name": "Starbucks Coffee", "source": "microsoft/BuildingFootprints", "takeaway": "yes"}}, {"type": "way", "id": 1348585057, "nodes": [12474500498, 12474500499, 12474500500, 12474500501, 12474500502, 12474500503, 12474500504, 12474500505, 12474500498], "tags": {"building": "yes", "name": "Wolf Auto Group", "second_hand": "only", "shop": "car", "source": "microsoft/BuildingFootprints"}}, {"type": "way", "id": 1348585061, "nodes": [12474500520, 12474500521, 12474500522, 12474500523, 12474500520], "tags": {"brand": "Carquest", "brand:wikidata": "Q5045948", "building": "yes", "name": "Carquest", "official_name": "Carquest Auto Parts", "shop": "car_parts", "source": "microsoft/BuildingFootprints"}}, {"type": "way", "id": 1348586107, "nodes": [12474515100, 12474515101, 12474515102, 12474515103, 12474515100], "tags": {"amenity": "cafe", "building": "yes", "cuisine": "coffee_shop", "drive_through": "only", "name": "Florence Coffee"}}, {"type": "way", "id": 1348588004, "nodes": [12474527312, 12474527313, 12474527314, 12474527315, 12474527316, 12474527317, 12474527318, 12474527319, 12474527320, 12474527321, 12474527322, 12474527323, 12474527324, 12474527325, 12474527326, 12474527327, 12474527312], "tags": {"building": "yes", "name": "Western Building Center", "shop": "hardware", "source": "microsoft/BuildingFootprints"}}, {"type": "way", "id": 1348588007, "nodes": [12474527336, 12474527337, 12474527338, 12474527339, 12474527336], "tags": {"building": "yes", "name": "Midway Rental", "shop": "rental", "source": "microsoft/BuildingFootprints"}}, {"type": "way", "id": 1348829892, "nodes": [12476964563, 12476964564, 12476964565, 12476964566, 12476964563], "tags": {"brand": "Town Pump", "brand:wikidata": "Q7830004", "building": "yes", "name": "Town Pump", "shop": "convenience"}}]}