{"version": 0.6, "generator": "Overpass API 0.7.62.8 e802775f", "osm3s": {"timestamp_osm_base": "2025-12-06T05:45:42Z", "copyright": "The data included in this document is from www.openstreetmap.org. The data is made available under ODbL."}, "elements": [{"type": "node", "id": 3219243591, "lat": 43.5177583, "lon": -114.3142899, "tags": {"addr:city": "Hailey", "addr:housenumber": "219", "addr:postcode": "83333", "addr:state": "ID", "addr:street": "South Main Street", "amenity": "cafe", "cuisine": "coffee_shop", "internet_access": "yes", "name": "Hailey Coffee Company", "note": "Retail and Wholesale coffee. Roaster.", "opening_hours": "06:00-18:00", "phone": "+1-208-788-8482", "smoking": "outside", "website": "https://haileycoffeeco.com/"}}, {"type": "node", "id": 3219256516, "lat": 43.513275, "lon": -114.3071802, "tags": {"addr:city": "Hailey", "addr:housenumber": "801", "addr:postcode": "83333", "addr:state": "ID", "addr:street": "S Main Street", "amenity": "restaurant", "cuisine": "burger", "name": "Snow Bunny Drive-In", "phone": "+1-208-471-4462", "smoking": "outside"}}, {"type": "node", "id": 3219266732, "lat": 43.5134679, "lon": -114.3035498}, {"type": "node", "id": 3219275037, "lat": 43.5182405, "lon": -114.3152584, "tags": {"addr:city": "Hailey", "addr:housenumber": "14", "addr:postcode": "83333", "addr:state": "ID", "addr:street": "West Croy Street", "amenity": "restaurant", "cuisine": "mexican", "name": "Lago Azul", "opening_hours": "Mo-Fr 11:00-21:00; Sa,Su 10:00-21:00", "phone": "+1-208-578-1700", "smoking": "outside"}}, {"type": "node", "id": 3219283346, "lat": 43.5210401, "lon": -114.3159163, "tags": {"addr:city": "Hailey", "addr:housenumber": "202", "addr:postcode": "83333", "addr:state": "ID", "addr:street": "South Main Street", "amenity": "restaurant", "cuisine": "regional", "name": "Sun Valley Brewery", "phone": "+1-208-788-0805", "smoking": "outside", "website": "http://www.sunvalleybrewery.com/The_Sun_Valley_Brewery/Brewery.html"}}, {"type": "node", "id": 4288596543, "lat": 43.527415, "lon": -114.3224016}, {"type": "node", "id": 5243859543, "lat": 43.5210704, "lon": -114.3162648}, {"type": "node", "id": 5243859544, "lat": 43.5212271, "lon": -114.3158703}, {"type": "node", "id": 5243859545, "lat": 43.5209367, "lon": -114.3156509}, {"type": "node", "id": 5243859546, "lat": 43.5208369, "lon": -114.3159021}, {"type": "node", "id": 5243859547, "lat": 43.5209983, "lon": -114.3160241}, {"type": "node", "id": 5243859548, "lat": 43.5209414, "lon": -114.3161673}, {"type": "node", "id": 5379112037, "lat": 43.518846, "lon": -114.3139179}, {"type": "node", "id": 5379112038, "lat": 43.5186743, "lon": -114.3137922}, {"type": "node", "id": 5379112039, "lat": 43.518722, "lon": -114.3136681}, {"type": "node", "id": 5379112040, "lat": 43.5188937, "lon": -114.3137938}, {"type": "node", "id": 5379154713, "lat": 43.5248919, "lon": -114.3188691}, {"type": "node", "id": 5379154714, "lat": 43.5249203, "lon": -114.3187981}, {"type": "node", "id": 5379154717, "lat": 43.5251125, "lon": -114.318829}, {"type": "node", "id": 5379154828, "lat": 43.5277051, "lon": -114.3217041}, {"type": "node", "id": 5379154829, "lat": 43.5273338, "lon": -114.3214401}, {"type": "node", "id": 5379154830, "lat": 43.5272701, "lon": -114.3214681}, {"type": "node", "id": 5379154831, "lat": 43.5270465, "lon": -114.3223273}, {"type": "node", "id": 5379154832, "lat": 43.5271597, "lon": -114.3223655}, {"type": "node", "id": 5379154833, "lat": 43.5272072, "lon": -114.3222453}, {"type": "node", "id": 8229296573, "lat": 43.5250481, "lon": -114.3189924}, {"type": "node", "id": 8229296651, "lat": 43.5135588, "lon": -114.3033361}, {"type": "node", "id": 8229296652, "lat": 43.5138106, "lon": -114.3035398}, {"type": "node", "id": 8229296653, "lat": 43.5137196, "lon": -114.3037536}, {"type": "node", "id": 8944805218, "lat": 43.5170745, "lon": -114.3132129}, {"type": "node", "id": 8944805219, "lat": 43.5171777, "lon": -114.312938}, {"type": "node", "id": 8944805220, "lat": 43.5171029, "lon": -114.3127728}, {"type": "node", "id": 8944805221, "lat": 43.5169667, "lon": -114.313136}, {"type": "node", "id": 8948966336, "lat": 43.5222534, "lon": -114.3171447}, {"type": "node", "id": 8948966337, "lat": 43.5221873, "lon": -114.3170961}, {"type": "node", "id": 8948966338, "lat": 43.5222925, "lon": -114.3168239}, {"type": "node", "id": 8948966339, "lat": 43.5223344, "lon": -114.3169351}, {"type": "node", "id": 8948970541, "lat": 43.5234179, "lon": -114.3180048}, {"type": "node", "id": 8948970542, "lat": 43.5233582, "lon": -114.3179559}, {"type": "node", "id": 8948970543, "lat": 43.5233397, "lon": -114.3179961}, {"type": "node", "id": 8948970544, "lat": 43.5232925, "lon": -114.3179567}, {"type": "node", "id": 8948970545, "lat": 43.523391, "lon": -114.3177083}, {"type": "node", "id": 8948970546, "lat": 43.5234984, "lon": -114.3177954}, {"type": "node", "id": 9903744449, "lat": 43.5259686, "lon": -114.319371}, {"type": "node", "id": 9903744450, "lat": 43.5258069, "lon": -114.3197749}, {"type": "node", "id": 9903744451, "lat": 43.5259461, "lon": -114.3198809}, {"type": "node", "id": 9903744452, "lat": 43.5259519, "lon": -114.3198663}, {"type": "node", "id": 9903744453, "lat": 43.5261169, "lon": -114.3200079}, {"type": "node", "id": 9903744454, "lat": 43.526269, "lon": -114.3195997}, {"type": "node", "id": 11976714587, "lat": 43.5275356, "lon": -114.3215761}, {"type": "node", "id": 11976714588, "lat": 43.5275304, "lon": -114.3215889}, {"type": "node", "id": 11976714589, "lat": 43.527656, "lon": -114.3218279}, {"type": "node", "id": 11976714590, "lat": 43.5276782, "lon": -114.3218447}, {"type": "node", "id": 11976714591, "lat": 43.5274964, "lon": -114.3223036}, {"type": "node", "id": 11976714592, "lat": 43.5274635, "lon": -114.3222789}, {"type": "node", "id": 11976714593, "lat": 43.5270608, "lon": -114.3222911}, {"type": "node", "id": 11976714594, "lat": 43.5269574, "lon": -114.3222605}, {"type": "node", "id": 12072440562, "lat": 43.5180969, "lon": -114.3144651}, {"type": "node", "id": 12072440563, "lat": 43.5180484, "lon": -114.3145954}, {"type": "node", "id": 12072440564, "lat": 43.5180258, "lon": -114.3145794}, {"type": "node", "id": 12072440565, "lat": 43.5179906, "lon": -114.3146741}, {"type": "node", "id": 12072440566, "lat": 43.517858, "lon": -114.3145803}, {"type": "node", "id": 12072440567, "lat": 43.5178908, "lon": -114.3144922}, {"type": "node", "id": 12072440568, "lat": 43.5178759, "lon": -114.3144717}, {"type": "node", "id": 12072440569, "lat": 43.517924, "lon": -114.3143427}, {"type": "node", "id": 12072440570, "lat": 43.5178269, "lon": -114.3142546}, {"type": "node", "id": 12072440571, "lat": 43.5177616, "lon": -114.3142054}, {"type": "node", "id": 12072440572, "lat": 43.5177051, "lon": -114.3143898}, {"type": "node", "id": 12072440573, "lat": 43.5177645, "lon": -114.3144349}, {"type": "node", "id": 12460582601, "lat": 43.5192598, "lon": -114.315472, "tags": {"addr:housenumber": "103", "addr:postcode": "83333", "addr:street": "South Main Street", "amenity": "cafe", "cuisine": "american;cake;coffee_shop;deli;local;sandwich", "diet:vegan": "yes", "name": "Caf\u00e9 Della", "opening_hours": "Mo-Sa 09:00-18:00", "website": "https://www.cafedella.com"}}, {"type": "node", "id": 12648440393, "lat": 43.5249489, "lon": -114.3187219}, {"type": "node", "id": 12653693786, "lat": 43.5261752, "lon": -114.3198621}, {"type": "node", "id": 12653693787, "lat": 43.5261666, "lon": -114.3198555}, {"type": "node", "id": 12653693788, "lat": 43.5260303, "lon": -114.319926}, {"type": "node", "id": 12653693789, "lat": 43.5260254, "lon": -114.3199382}, {"type": "node", "id": 12653693790, "lat": 43.524985, "lon": -114.3187221}, {"type": "node", "id": 12653693791, "lat": 43.5249772, "lon": -114.3187418}, {"type": "node", "id": 12653703113, "lat": 43.5223375, "lon": -114.3168569}, {"type": "node", "id": 12653703114, "lat": 43.5223132, "lon": -114.3169196}, {"type": "node", "id": 13032298139, "lat": 43.5171723, "lon": -114.3128223}, {"type": "node", "id": 13032298140, "lat": 43.5171392, "lon": -114.3129106}, {"type": "way", "id": 542379390, "nodes": [5243859543, 5243859544, 5243859545, 5243859546, 5243859547, 5243859548, 5243859543], "tags": {"addr:city": "Hailey", "addr:housenumber": "202", "addr:postcode": "83333", "addr:state": "ID", "addr:street": "South Main Street", "amenity": "restaurant", "building": "yes", "cuisine": "regional", "name": "Sun Valley Brewery", "phone": "+1 208-788-0805", "website": "http://www.sunvalleybrewery.com/The_Sun_Valley_Brewery/Brewery.html"}}, {"type": "way", "id": 557778825, "nodes": [5379112037, 5379112038, 5379112039, 5379112040, 5379112037], "tags": {"amenity": "restaurant", "building": "yes", "name": "Jersey Girl"}}, {"type": "way", "id": 557782564, "nodes": [4288596543, 11976714592, 11976714591, 11976714590, 11976714589, 5379154828, 11976714587, 11976714588, 5379154829, 5379154830, 11976714594, 5379154831, 11976714593, 5379154832, 5379154833, 4288596543], "tags": {"addr:city": "Hailey", "addr:housenumber": "911", "addr:postcode": "83333", "addr:state": "ID", "addr:street": "North Main Street", "brand": "Albertsons", "brand:wikidata": "Q2831861", "building": "yes", "name": "Albertsons", "opening_hours": "Mo-Fr 06:00-22:00; Sa 06:00-22:00; Su 06:00-22:00", "phone": "+1 208-788-6709", "shop": "supermarket", "website": "https://local.albertsons.com/id/hailey/911-n-main-st.html"}}, {"type": "way", "id": 884938360, "nodes": [8229296653, 8229296652, 8229296651, 3219266732, 8229296653], "tags": {"addr:city": "Hailey", "addr:housenumber": "960", "addr:postcode": "83333", "addr:state": "ID", "addr:street": "South 4th Avenue", "brand": "O'Reilly Auto Parts", "brand:wikidata": "Q7071951", "building": "retail", "name": "O'Reilly Auto Parts", "opening_hours": "Mo-Sa 07:30-21:00; Su 09:00-18:00", "phone": "+1 208-788-0959", "shop": "car_parts", "website": "https://locations.oreillyauto.com/id/hailey/autoparts-4635.html"}}, {"type": "way", "id": 966809576, "nodes": [8944805218, 8944805219, 13032298140, 13032298139, 8944805220, 8944805221, 8944805218], "tags": {"addr:city": "Hailey", "addr:housenumber": "320", "addr:postcode": "83333", "addr:state": "ID", "addr:street": "South Main Street", "amenity": "restaurant", "building": "yes", "name": "CK's Real Food"}}, {"type": "way", "id": 967289635, "nodes": [8948966336, 8948966337, 8948966338, 12653703113, 12653703114, 8948966339, 8948966336], "tags": {"addr:city": "Hailey", "addr:housenumber": "310", "addr:postcode": "83333", "addr:state": "ID", "addr:street": "North Main Street", "amenity": "restaurant", "building": "yes", "cuisine": "thai", "name": "Dang Thai Cuisine"}}, {"type": "way", "id": 967290496, "nodes": [8948970541, 8948970542, 8948970543, 8948970544, 8948970545, 8948970546, 8948970541], "tags": {"addr:city": "Hailey", "addr:housenumber": "416", "addr:postcode": "83333", "addr:state": "ID", "addr:street": "North Main Street", "amenity": "restaurant", "building": "yes"}}, {"type": "way", "id": 1080494805, "nodes": [9903744454, 12653693787, 12653693786, 9903744453, 12653693789, 12653693788, 9903744452, 9903744451, 9903744450, 9903744449, 9903744454], "tags": {"brand": "Natural Grocers", "brand:wikidata": "Q17146520", "building": "yes", "name": "Natural Grocers", "shop": "supermarket"}}, {"type": "way", "id": 1303579915, "nodes": [12072440562, 12072440563, 12072440564, 12072440565, 12072440566, 12072440567, 12072440568, 12072440569, 12072440562], "tags": {"building": "yes", "shop": "convenience"}}, {"type": "way", "id": 1303579916, "nodes": [12072440570, 12072440571, 12072440572, 12072440573, 12072440570], "tags": {"amenity": "cafe", "building": "yes", "cuisine": "coffee_shop"}}, {"type": "way", "id": 1365830658, "nodes": [5379154717, 8229296573, 5379154713, 5379154714, 12648440393, 12653693791, 12653693790, 5379154717], "tags": {"building": "yes", "name": "Base Camp Hailey", "shop": "convenience"}}]}