{"version": 0.6, "generator": "Overpass API 0.7.62.8 e802775f", "osm3s": {"timestamp_osm_base": "2025-12-06T05:30:04Z", "copyright": "The data included in this document is from www.openstreetmap.org. The data is made available under ODbL."}, "elements": [{"type": "node", "id": 4406088319, "lat": 43.1968459, "lon": -112.361882, "tags": {"addr:city": "Blackfoot", "addr:housenumber": "1295", "addr:postcode": "83221", "addr:state": "ID", "addr:street": "Parkway Drive", "name": "Ridley's Family Markets", "note": "No visible address.", "opening_hours": "Mo-Su 07:00-23:00", "phone": "+1-208-785-4261", "shop": "supermarket", "short_name": "Ridley's", "website": "https://shopridleys.com"}}, {"type": "node", "id": 4406106615, "lat": 43.1990898, "lon": -112.3592808}, {"type": "node", "id": 4406376178, "lat": 43.1955291, "lon": -112.3611996}, {"type": "node", "id": 4406376185, "lat": 43.1956443, "lon": -112.3614113}, {"type": "node", "id": 4406376193, "lat": 43.195723, "lon": -112.361001}, {"type": "node", "id": 4406376199, "lat": 43.1958382, "lon": -112.3612127}, {"type": "node", "id": 5611488610, "lat": 43.198221, "lon": -112.3596392}, {"type": "node", "id": 5611488611, "lat": 43.198182, "lon": -112.359639}, {"type": "node", "id": 5611488612, "lat": 43.198181, "lon": -112.359968}, {"type": "node", "id": 5611488613, "lat": 43.1982589, "lon": -112.3599684}, {"type": "node", "id": 5611488614, "lat": 43.198258, "lon": -112.3602876}, {"type": "node", "id": 5611488615, "lat": 43.1982124, "lon": -112.3602873}, {"type": "node", "id": 5611488616, "lat": 43.1982114, "lon": -112.3605901}, {"type": "node", "id": 5611488617, "lat": 43.1985501, "lon": -112.3605921}, {"type": "node", "id": 5611488618, "lat": 43.198551, "lon": -112.3602957}, {"type": "node", "id": 5611488619, "lat": 43.1990867, "lon": -112.3602987}, {"type": "node", "id": 5611488620, "lat": 43.1992379, "lon": -112.3592817}, {"type": "node", "id": 5611488921, "lat": 43.1992557, "lon": -112.359129}, {"type": "node", "id": 5611488922, "lat": 43.1990912, "lon": -112.3590901}, {"type": "node", "id": 5611488923, "lat": 43.1990929, "lon": -112.3585453}, {"type": "node", "id": 5611488924, "lat": 43.1983328, "lon": -112.358541}, {"type": "node", "id": 5611488925, "lat": 43.1983323, "lon": -112.3587201}, {"type": "node", "id": 5611488926, "lat": 43.1982243, "lon": -112.3587195}, {"type": "node", "id": 5611488927, "lat": 43.1982242, "lon": -112.3587534}, {"type": "node", "id": 5611488928, "lat": 43.198186, "lon": -112.3587532}, {"type": "node", "id": 5611488929, "lat": 43.1981851, "lon": -112.35905}, {"type": "node", "id": 5611488930, "lat": 43.1982228, "lon": -112.3590502}, {"type": "node", "id": 5866582444, "lat": 43.1956459, "lon": -112.3610801, "tags": {"entrance": "main"}}, {"type": "node", "id": 6610313088, "lat": 43.1941027, "lon": -112.3610826, "tags": {"addr:postcode": "83221", "addr:street": "Parkway Drive", "name": "Norco Medical Supply", "office": "company", "phone": "+1-208-782-0456", "website": "https://www.norco-inc.com/"}}, {"type": "node", "id": 6610323688, "lat": 43.1942229, "lon": -112.3622502, "tags": {"addr:postcode": "83221", "addr:street": "Parkway Drive", "name": "Tub Laundry", "phone": "+1-208-785-8551", "shop": "laundry"}}, {"type": "node", "id": 10740581148, "lat": 43.1969031, "lon": -112.3596999, "tags": {"name": "The Vaping Outlet", "shop": "e-cigarette"}}, {"type": "node", "id": 10740581149, "lat": 43.1968568, "lon": -112.3596654, "tags": {"brand": "Cricket Wireless", "brand:wikidata": "Q5184987", "name": "Cricket Wireless", "shop": "mobile_phone", "short_name": "Cricket"}}, {"type": "node", "id": 10740581150, "lat": 43.1968123, "lon": -112.3596308, "tags": {"addr:housenumber": "1235", "addr:unit": "Suite A", "brand": "AT&T", "brand:wikidata": "Q298594", "name": "AT&T", "shop": "mobile_phone"}}, {"type": "node", "id": 10740581151, "lat": 43.1967608, "lon": -112.3595617, "tags": {"addr:housenumber": "1235", "brand": "Cash Store", "brand:wikidata": "Q61943411", "name": "Cash Store", "opening_hours": "Mo-Fr 10:00-18:00; Sa 10:00-14:00; Su off", "phone": "+1-208-782-2274", "shop": "money_lender"}}, {"type": "node", "id": 10740581175, "lat": 43.1966272, "lon": -112.3595876}, {"type": "node", "id": 10740581176, "lat": 43.1964946, "lon": -112.3594777}, {"type": "node", "id": 10740581177, "lat": 43.1965386, "lon": -112.3593814}, {"type": "node", "id": 10740581178, "lat": 43.1965267, "lon": -112.3593687}, {"type": "node", "id": 10740581179, "lat": 43.1965564, "lon": -112.3592886}, {"type": "node", "id": 10740581180, "lat": 43.1965784, "lon": -112.3593037}, {"type": "node", "id": 10740581181, "lat": 43.1966156, "lon": -112.359212}, {"type": "node", "id": 10740581182, "lat": 43.1967476, "lon": -112.3593211}, {"type": "node", "id": 10742854106, "lat": 43.1966039, "lon": -112.3620779, "tags": {"addr:city": "Blackfoot", "addr:housenumber": "1295", "addr:postcode": "83221", "addr:state": "ID", "addr:street": "Parkway Drive", "amenity": "post_office", "brand": "The UPS Store", "brand:short": "UPS", "brand:wikidata": "Q7771029", "name": "The UPS Store", "opening_hours": "Mo-Fr 08:00-18:00; Sa 08:00-16:00; Su 10:00-15:00", "shop": "copyshop", "short_name": "UPS", "website": "https://www.ups.com/us/en/home"}}, {"type": "node", "id": 10872828708, "lat": 43.1943344, "lon": -112.3565048}, {"type": "node", "id": 10872828709, "lat": 43.1943327, "lon": -112.3563107}, {"type": "node", "id": 10872828710, "lat": 43.1942185, "lon": -112.356313}, {"type": "node", "id": 10872828711, "lat": 43.1942209, "lon": -112.3565073}, {"type": "node", "id": 11947476895, "lat": 43.1981484, "lon": -112.3749387, "tags": {"addr:city": "Blackfoot", "addr:housenumber": "395", "addr:postcode": "83221", "addr:state": "ID", "addr:street": "West State Highway 39", "contact:facebook": "https://www.facebook.com/MilestoneEquipment", "description": "Milestone, founded in 1961, is a designer and manufacturer of potato handling equipment.", "name": "Milestone International", "opening_hours": "Mo-Fr 08:00-17:00", "phone": "+1-208-785-4285", "shop": "agrarian", "start_date": "1961-01-01", "website": "https://milestone-equipment.com/"}}, {"type": "node", "id": 13027369825, "lat": 43.1937979, "lon": -112.3568366}, {"type": "node", "id": 13027369826, "lat": 43.193461, "lon": -112.3568452}, {"type": "node", "id": 13027369827, "lat": 43.1934548, "lon": -112.3563875}, {"type": "node", "id": 13027369828, "lat": 43.1937349, "lon": -112.3563804}, {"type": "node", "id": 13027369829, "lat": 43.1937355, "lon": -112.3564272}, {"type": "node", "id": 13027369830, "lat": 43.1937923, "lon": -112.3564258}, {"type": "node", "id": 13027369857, "lat": 43.1936148, "lon": -112.3563834}, {"type": "node", "id": 13027731215, "lat": 43.2017439, "lon": -112.3678658}, {"type": "node", "id": 13027731216, "lat": 43.2017019, "lon": -112.3679029}, {"type": "node", "id": 13027731217, "lat": 43.20171, "lon": -112.3679202}, {"type": "node", "id": 13027731218, "lat": 43.20167, "lon": -112.3679555}, {"type": "node", "id": 13027731219, "lat": 43.2016627, "lon": -112.3679398}, {"type": "node", "id": 13027731220, "lat": 43.2016146, "lon": -112.3679822}, {"type": "node", "id": 13027731221, "lat": 43.2014516, "lon": -112.3676354}, {"type": "node", "id": 13027731222, "lat": 43.20156, "lon": -112.3675395}, {"type": "node", "id": 13027731223, "lat": 43.2016716, "lon": -112.3677816}, {"type": "node", "id": 13027731224, "lat": 43.2016948, "lon": -112.3677611}, {"type": "node", "id": 13027731225, "lat": 43.20157, "lon": -112.3675022}, {"type": "node", "id": 13027731226, "lat": 43.2015506, "lon": -112.3675194}, {"type": "node", "id": 13027731227, "lat": 43.2016067, "lon": -112.3675803}, {"type": "node", "id": 13027731228, "lat": 43.2015858, "lon": -112.3675987}, {"type": "way", "id": 442986595, "nodes": [4406376185, 4406376178, 5866582444, 4406376193, 4406376199, 4406376185], "tags": {"addr:city": "Blackfoot", "addr:housenumber": "1355", "addr:postcode": "83221", "addr:state": "ID", "addr:street": "Parkway Drive", "amenity": "restaurant", "building": "restaurant", "building:levels": "1", "cuisine": "american", "name": "Homestead Family Restaurant", "note": "No visible address.", "phone": "+1-208-785-0700", "website": "https://homesteadrestaurant.wixsite.com/homestead"}}, {"type": "way", "id": 587470452, "nodes": [5611488930, 5611488929, 5611488928, 5611488927, 5611488926, 5611488925, 5611488924, 5611488923, 5611488922, 5611488921, 5611488620, 4406106615, 5611488619, 5611488618, 5611488617, 5611488616, 5611488615, 5611488614, 5611488613, 5611488612, 5611488611, 5611488610, 5611488930], "tags": {"addr:city": "Blackfoot", "addr:country": "US", "addr:housenumber": "565", "addr:postcode": "83221", "addr:state": "ID", "addr:street": "Jensen Grove Drive", "brand": "Walmart", "brand:wikidata": "Q483551", "building": "retail", "name": "Walmart Supercenter", "opening_hours": "Mo-Su 06:00-24:00", "operator": "Walmart", "payment:app:walmart": "yes", "payment:apple_pay": "no", "payment:google_pay": "no", "payment:samsung_pay": "no", "phone": "+1 208-785-6937", "ref": "1905", "ref:walmart": "1905", "sensory_friendly:accommodation": "dimmed_light;static_screens;no_pa", "sensory_friendly:conditional": "yes @ 08:00-10:00", "shop": "supermarket", "website": "https://www.walmart.com/store/1905-blackfoot-id"}}, {"type": "way", "id": 1154900083, "nodes": [10740581175, 10740581176, 10740581177, 10740581178, 10740581179, 10740581180, 10740581181, 10740581182, 10740581175], "tags": {"amenity": "cafe", "building": "yes", "internet_access": "yes", "internet_access:fee": "no", "name": "XII Stones", "opening_hours": "Mo off; Tu-Fr 05:00-16:00; Sa-Su 07:00-13:00", "outdoor_seating": "no"}}, {"type": "way", "id": 1169238992, "nodes": [10872828708, 10872828709, 10872828710, 10872828711, 10872828708], "tags": {"brand": "Jiffy Lube", "brand:wikidata": "Q6192247", "building": "yes", "name": "Jiffy Lube", "shop": "car_repair"}}, {"type": "way", "id": 1417631606, "nodes": [13027369825, 13027369826, 13027369827, 13027369857, 13027369828, 13027369829, 13027369830, 13027369825], "tags": {"building": "yes", "name": "Kesler's", "phone": "+1-208-785-0555", "shop": "supermarket", "website": "https://www.keslersmarket.com/"}}, {"type": "way", "id": 1417651305, "nodes": [13027731215, 13027731216, 13027731217, 13027731218, 13027731219, 13027731220, 13027731221, 13027731222, 13027731226, 13027731225, 13027731227, 13027731228, 13027731223, 13027731224, 13027731215], "tags": {"building": "yes", "shop": "convenience"}}]}