{"version": 0.6, "generator": "Overpass API 0.7.62.8 e802775f", "osm3s": {"timestamp_osm_base": "2025-12-07T02:59:44Z", "copyright": "The data included in this document is from www.openstreetmap.org. The data is made available under ODbL."}, "elements": [{"type": "node", "id": 366028931, "lat": 47.3742622, "lon": -122.6931901, "tags": {"addr:state": "WA", "building": "yes", "ele": "25", "gnis:feature_id": "1506731", "name": "Minter Community Center"}}, {"type": "node", "id": 11273286380, "lat": 47.3732476, "lon": -122.692967}, {"type": "node", "id": 11273286381, "lat": 47.3731868, "lon": -122.6931268}, {"type": "node", "id": 11273286382, "lat": 47.3722408, "lon": -122.6931717}, {"type": "node", "id": 11273286383, "lat": 47.3722294, "lon": -122.6931156}, {"type": "node", "id": 11273286384, "lat": 47.3721895, "lon": -122.6930932}, {"type": "node", "id": 11273286385, "lat": 47.37218, "lon": -122.6929529}, {"type": "node", "id": 11273286386, "lat": 47.3722123, "lon": -122.6929557}, {"type": "node", "id": 11273286387, "lat": 47.3722134, "lon": -122.6927499}, {"type": "node", "id": 11273286388, "lat": 47.3722581, "lon": -122.6927367}, {"type": "node", "id": 11273286389, "lat": 47.3722532, "lon": -122.6925753}, {"type": "node", "id": 11273286390, "lat": 47.3722671, "lon": -122.6925665}, {"type": "node", "id": 11273286391, "lat": 47.3727978, "lon": -122.6925151}, {"type": "node", "id": 11273286392, "lat": 47.3728107, "lon": -122.6928688}, {"type": "node", "id": 11273286393, "lat": 47.3728723, "lon": -122.6928585}, {"type": "node", "id": 11273286394, "lat": 47.3728833, "lon": -122.6928321}, {"type": "node", "id": 11273286395, "lat": 47.3728634, "lon": -122.6927925}, {"type": "node", "id": 11273286396, "lat": 47.3728674, "lon": -122.6926941}, {"type": "node", "id": 11273286397, "lat": 47.3729644, "lon": -122.6925446}, {"type": "node", "id": 11273286398, "lat": 47.3731878, "lon": -122.6928282}, {"type": "node", "id": 11933151618, "lat": 47.3734724, "lon": -122.6988905}, {"type": "node", "id": 11933151619, "lat": 47.3734434, "lon": -122.6991856}, {"type": "node", "id": 11933151620, "lat": 47.3733936, "lon": -122.6991749}, {"type": "node", "id": 11933151621, "lat": 47.3734227, "lon": -122.6988798}, {"type": "node", "id": 11933151627, "lat": 47.3731111, "lon": -122.6978822}, {"type": "node", "id": 11933151628, "lat": 47.3731166, "lon": -122.6976435}, {"type": "node", "id": 11933151629, "lat": 47.3731938, "lon": -122.6976474}, {"type": "node", "id": 11933151630, "lat": 47.3731883, "lon": -122.6978861}, {"type": "node", "id": 11933151631, "lat": 47.3733242, "lon": -122.6979229}, {"type": "node", "id": 11933151632, "lat": 47.3731444, "lon": -122.6979081}, {"type": "node", "id": 11933151633, "lat": 47.3731384, "lon": -122.6980685}, {"type": "node", "id": 11933151634, "lat": 47.3733182, "lon": -122.6980832}, {"type": "node", "id": 11933219597, "lat": 47.3718628, "lon": -122.6992801}, {"type": "node", "id": 11933219598, "lat": 47.3718669, "lon": -122.6991721}, {"type": "node", "id": 11933219599, "lat": 47.371925, "lon": -122.6991769}, {"type": "node", "id": 11933219600, "lat": 47.3719209, "lon": -122.6992849}, {"type": "node", "id": 11933219601, "lat": 47.3717143, "lon": -122.6989326}, {"type": "node", "id": 11933219602, "lat": 47.3717764, "lon": -122.6990178}, {"type": "node", "id": 11933219603, "lat": 47.3717145, "lon": -122.6990181}, {"type": "node", "id": 11933219604, "lat": 47.3716247, "lon": -122.6989331}, {"type": "node", "id": 11933219605, "lat": 47.3716251, "lon": -122.6991142}, {"type": "node", "id": 11933219606, "lat": 47.3717766, "lon": -122.6991135}, {"type": "node", "id": 11933219607, "lat": 47.3718795, "lon": -122.6995834}, {"type": "node", "id": 11933219608, "lat": 47.3719172, "lon": -122.6996686}, {"type": "node", "id": 11933219609, "lat": 47.3718078, "lon": -122.6995773}, {"type": "node", "id": 11933219610, "lat": 47.371806, "lon": -122.6995337}, {"type": "node", "id": 11933219611, "lat": 47.3718292, "lon": -122.6995316}, {"type": "node", "id": 11933219612, "lat": 47.371831, "lon": -122.6995752}, {"type": "node", "id": 11933219613, "lat": 47.3719261, "lon": -122.6998904}, {"type": "node", "id": 11933219614, "lat": 47.371883, "lon": -122.6996716}, {"type": "node", "id": 11933219615, "lat": 47.3718075, "lon": -122.6995897}, {"type": "node", "id": 11933219616, "lat": 47.3718199, "lon": -122.6998996}, {"type": "node", "id": 11933219617, "lat": 47.3715658, "lon": -122.7019008}, {"type": "node", "id": 11933219618, "lat": 47.3714877, "lon": -122.7017681}, {"type": "node", "id": 11933219619, "lat": 47.3715417, "lon": -122.7016988}, {"type": "node", "id": 11933219620, "lat": 47.3716198, "lon": -122.7018316}, {"type": "node", "id": 11933219625, "lat": 47.3721675, "lon": -122.7011047}, {"type": "node", "id": 11933219626, "lat": 47.3721085, "lon": -122.7011047}, {"type": "node", "id": 11933219627, "lat": 47.3721085, "lon": -122.7010216}, {"type": "node", "id": 11933219628, "lat": 47.3721675, "lon": -122.7010216}, {"type": "node", "id": 12916800870, "lat": 47.3794533, "lon": -122.6925934}, {"type": "node", "id": 12916800871, "lat": 47.3794704, "lon": -122.6921279}, {"type": "node", "id": 12916800872, "lat": 47.3792771, "lon": -122.6921124}, {"type": "node", "id": 12916800873, "lat": 47.3792599, "lon": -122.6925779}, {"type": "way", "id": 1216652000, "nodes": [11273286380, 11273286381, 11273286382, 11273286383, 11273286384, 11273286385, 11273286386, 11273286387, 11273286388, 11273286389, 11273286390, 11273286391, 11273286392, 11273286393, 11273286394, 11273286395, 11273286396, 11273286397, 11273286398, 11273286380], "tags": {"addr:city": "Gig Harbor", "addr:housenumber": "12617", "addr:postcode": "98329", "addr:state": "WA", "addr:street": "118th Ave NW", "building": "school", "name": "Minter Creek Elementary Scool"}}, {"type": "way", "id": 1286594029, "nodes": [11933151621, 11933151620, 11933151619, 11933151618, 11933151621], "tags": {"addr:city": "Gig Harbor", "addr:housenumber": "12113", "addr:postcode": "98329", "addr:state": "WA", "addr:street": "Creviston Drive Northwest", "building": "house"}}, {"type": "way", "id": 1286594031, "nodes": [11933151630, 11933151629, 11933151628, 11933151627, 11933151630], "tags": {"building": "garage"}}, {"type": "way", "id": 1286594032, "nodes": [11933151634, 11933151631, 11933151632, 11933151633, 11933151634], "tags": {"addr:city": "Gig Harbor", "addr:housenumber": "12016", "addr:postcode": "98329", "addr:state": "WA", "addr:street": "Creviston Drive Northwest", "building": "house"}}, {"type": "way", "id": 1286594041, "nodes": [11933219600, 11933219599, 11933219598, 11933219597, 11933219600], "tags": {"building": "garage"}}, {"type": "way", "id": 1286594042, "nodes": [11933219606, 11933219602, 11933219603, 11933219601, 11933219604, 11933219605, 11933219606], "tags": {"addr:city": "Gig Harbor", "addr:housenumber": "12503", "addr:postcode": "98329", "addr:state": "WA", "addr:street": "121st Avenue Court Northwest", "building": "house"}}, {"type": "way", "id": 1286594043, "nodes": [11933219612, 11933219611, 11933219610, 11933219609, 11933219612], "tags": {"building": "shed"}}, {"type": "way", "id": 1286594044, "nodes": [11933219616, 11933219613, 11933219608, 11933219614, 11933219607, 11933219615, 11933219616], "tags": {"addr:city": "Gig Harbor", "addr:housenumber": "12502", "addr:postcode": "98329", "addr:state": "WA", "addr:street": "121st Avenue Court Northwest", "building": "house"}}, {"type": "way", "id": 1286594045, "nodes": [11933219620, 11933219619, 11933219618, 11933219617, 11933219620], "tags": {"addr:city": "Gig Harbor", "addr:housenumber": "12223", "addr:postcode": "98329", "addr:state": "WA", "addr:street": "Creviston Drive Northwest", "building": "house"}}, {"type": "way", "id": 1286594047, "nodes": [11933219628, 11933219627, 11933219626, 11933219625, 11933219628], "tags": {"building": "garage"}}, {"type": "way", "id": 1395429705, "nodes": [12916800870, 12916800871, 12916800872, 12916800873, 12916800870], "tags": {"addr:city": "Gig Harbor", "addr:housenumber": "11619", "addr:postcode": "98329", "addr:state": "WA", "addr:street": "133rd St NW", "building": "house", "building:levels": "1"}}]}