{"version": 0.6, "generator": "Overpass API 0.7.62.8 e802775f", "osm3s": {"timestamp_osm_base": "2025-12-08T22:03:45Z", "copyright": "The data included in this document is from www.openstreetmap.org. The data is made available under ODbL."}, "elements": [{"type": "node", "id": 357973403, "lat": 48.174973, "lon": -111.9464081, "tags": {"amenity": "place_of_worship", "ele": "1071", "gnis:feature_id": "1748730", "name": "Abundant Life Christian Center", "religion": "christian"}}, {"type": "node", "id": 357973405, "lat": 48.1746051, "lon": -111.9464674, "tags": {"amenity": "place_of_worship", "ele": "1071", "gnis:feature_id": "1748731", "name": "Conrad Assembly of God Church", "religion": "christian"}}, {"type": "node", "id": 357973410, "lat": 48.1771953, "lon": -111.9441858, "tags": {"amenity": "place_of_worship", "ele": "1068", "gnis:feature_id": "1748733", "name": "Christian Reformed Church", "religion": "christian"}}, {"type": "node", "id": 357973412, "lat": 48.1685837, "lon": -111.9516859, "tags": {"amenity": "place_of_worship", "ele": "1073", "gnis:feature_id": "1748734", "name": "Conrad Mission Church", "religion": "christian"}}, {"type": "node", "id": 357973415, "lat": 48.1679393, "lon": -111.9530221, "tags": {"amenity": "place_of_worship", "denomination": "lutheran", "ele": "1074", "gnis:feature_id": "1748735", "name": "Pondera Valley Lutheran Church", "religion": "christian"}}, {"type": "node", "id": 357973419, "lat": 48.177751, "lon": -111.9489084, "tags": {"amenity": "place_of_worship", "denomination": "baptist", "ele": "1069", "gnis:feature_id": "1748736", "name": "Conrad Baptist Church", "religion": "christian"}}, {"type": "node", "id": 357973422, "lat": 48.1716077, "lon": -111.9595172, "tags": {"amenity": "place_of_worship", "denomination": "mormon", "ele": "1073", "gnis:feature_id": "1748737", "name": "The Church of Jesus Christ of Latter-day Saints", "religion": "christian"}}, {"type": "node", "id": 357973429, "lat": 48.173584, "lon": -111.9594643, "tags": {"amenity": "place_of_worship", "denomination": "baptist", "ele": "1072", "gnis:feature_id": "1748738", "name": "Conrad Southern Baptist Mission", "religion": "christian"}}, {"type": "node", "id": 357973442, "lat": 48.170806, "lon": -111.9525194, "tags": {"amenity": "place_of_worship", "ele": "1074", "gnis:feature_id": "1748740", "name": "First Christian Church of Conrad", "religion": "christian"}}, {"type": "node", "id": 357973447, "lat": 48.1702316, "lon": -111.9462863, "tags": {"amenity": "place_of_worship", "ele": "1072", "gnis:feature_id": "1748741", "name": "First Reformed Church", "religion": "christian"}}, {"type": "node", "id": 357973486, "lat": 48.1745247, "lon": -111.9589133, "tags": {"amenity": "nursing_home", "beds": "59", "gnis:feature_id": "1748763", "name": "Pondera Medical Center Long Term Care", "phone": "+1 406 271 2252", "website": "https://www.ponderamedical.org/ec"}}, {"type": "node", "id": 357973488, "lat": 48.1681781, "lon": -111.9462533, "tags": {"addr:city": "Conrad", "addr:housenumber": "514", "addr:postcode": "59425", "addr:street": "South Front Street", "amenity": "doctors", "healthcare:speciality": "psychiatry", "name": "Center for Mental Health", "phone": "+1 406 278 3205", "website": "https://www.center4mh.org/"}}, {"type": "node", "id": 357973493, "lat": 48.1748407, "lon": -111.9586878}, {"type": "node", "id": 357973501, "lat": 48.1702442, "lon": -111.9462295, "tags": {"amenity": "place_of_worship", "ele": "1072", "gnis:feature_id": "1748771", "name": "Lighthouse Tabernacle Church", "religion": "christian"}}, {"type": "node", "id": 357973568, "lat": 48.1672474, "lon": -111.9468292, "tags": {"amenity": "post_office", "ele": "1072", "gnis:feature_id": "1748803", "name": "Conrad Post Office"}}, {"type": "node", "id": 357973640, "lat": 48.17914, "lon": -111.9489084, "tags": {"amenity": "school", "ele": "1068", "gnis:feature_id": "1748835", "name": "Prairie View School"}}, {"type": "node", "id": 366093169, "lat": 48.1682, "lon": -111.9486023, "tags": {"addr:state": "MT", "amenity": "fire_station", "ele": "1072", "gnis:feature_id": "1748813", "name": "Conrad Fire Department", "source": "USGS Geonames"}}, {"type": "node", "id": 366093353, "lat": 48.1693156, "lon": -111.9473709, "tags": {"addr:state": "MT", "amenity": "library", "ele": "1073", "gnis:feature_id": "1748817", "name": "Conrad Public Library", "source": "USGS Geonames"}}, {"type": "node", "id": 366093506, "lat": 48.1689617, "lon": -111.9480263, "tags": {"addr:state": "MT", "amenity": "police", "ele": "1073", "gnis:feature_id": "1748814", "name": "Pondera County Sheriff Department", "source": "USGS Geonames"}}, {"type": "node", "id": 366093507, "lat": 48.1692217, "lon": -111.9470706, "tags": {"addr:state": "MT", "amenity": "police", "ele": "1072", "gnis:feature_id": "1748816", "name": "Conrad Police Department", "source": "USGS Geonames"}}, {"type": "node", "id": 1664935993, "lat": 48.1779146, "lon": -111.9413435}, {"type": "node", "id": 1664935999, "lat": 48.1779432, "lon": -111.9414615}, {"type": "node", "id": 1664936051, "lat": 48.1777648, "lon": -111.9415684}, {"type": "node", "id": 1664936151, "lat": 48.1780611, "lon": -111.9413971}, {"type": "node", "id": 1664936229, "lat": 48.1772891, "lon": -111.9411454}, {"type": "node", "id": 1664936298, "lat": 48.177355, "lon": -111.9412507}, {"type": "node", "id": 1664936304, "lat": 48.1780325, "lon": -111.9412791}, {"type": "node", "id": 1664936307, "lat": 48.1777347, "lon": -111.9414522}, {"type": "node", "id": 1664936347, "lat": 48.1779035, "lon": -111.9414876}, {"type": "node", "id": 1664936387, "lat": 48.1778734, "lon": -111.9413714}, {"type": "node", "id": 1664936401, "lat": 48.1774512, "lon": -111.9409172}, {"type": "node", "id": 1664936469, "lat": 48.1775171, "lon": -111.9410225}, {"type": "node", "id": 1665127318, "lat": 48.1724859, "lon": -111.9524726}, {"type": "node", "id": 1665127483, "lat": 48.170622, "lon": -111.9469446}, {"type": "node", "id": 1665127536, "lat": 48.1706148, "lon": -111.9469848}, {"type": "node", "id": 1665127623, "lat": 48.1715665, "lon": -111.9471538}, {"type": "node", "id": 1665127976, "lat": 48.1707293, "lon": -111.9474649}, {"type": "node", "id": 1665128012, "lat": 48.1717449, "lon": -111.9552771}, {"type": "node", "id": 1665128418, "lat": 48.1730256, "lon": -111.9544885}, {"type": "node", "id": 1665128500, "lat": 48.1716823, "lon": -111.9463239}, {"type": "node", "id": 1665128614, "lat": 48.1722122, "lon": -111.9482428}, {"type": "node", "id": 1665128651, "lat": 48.171672, "lon": -111.9545299}, {"type": "node", "id": 1665128720, "lat": 48.1720924, "lon": -111.9527006}, {"type": "node", "id": 1665128920, "lat": 48.1717178, "lon": -111.9470553}, {"type": "node", "id": 1665129039, "lat": 48.17152, "lon": -111.9539773}, {"type": "node", "id": 1665129068, "lat": 48.1709064, "lon": -111.9482481}, {"type": "node", "id": 1665129088, "lat": 48.1722762, "lon": -111.9534854}, {"type": "node", "id": 1665129097, "lat": 48.1722909, "lon": -111.9534114}, {"type": "node", "id": 1665129135, "lat": 48.1715575, "lon": -111.9545781}, {"type": "node", "id": 1665129641, "lat": 48.1722516, "lon": -111.9535267}, {"type": "node", "id": 1665129922, "lat": 48.1715235, "lon": -111.9470116}, {"type": "node", "id": 1665129977, "lat": 48.1718867, "lon": -111.9476607}, {"type": "node", "id": 1665130053, "lat": 48.1718634, "lon": -111.9469607}, {"type": "node", "id": 1665130221, "lat": 48.1710956, "lon": -111.9489096}, {"type": "node", "id": 3520809496, "lat": 48.1689667, "lon": -111.9482909}, {"type": "node", "id": 3520809498, "lat": 48.1690177, "lon": -111.9479463}, {"type": "node", "id": 3520809503, "lat": 48.1676233, "lon": -111.9463294}, {"type": "node", "id": 3520809505, "lat": 48.1688515, "lon": -111.9482233}, {"type": "node", "id": 3520809506, "lat": 48.1688097, "lon": -111.94804}, {"type": "node", "id": 3520809509, "lat": 48.1690457, "lon": -111.947932}, {"type": "node", "id": 3520809510, "lat": 48.1687401, "lon": -111.9480756}, {"type": "node", "id": 3520809515, "lat": 48.1661573, "lon": -111.9483238, "tags": {"amenity": "fuel"}}, {"type": "node", "id": 3520809516, "lat": 48.167512, "lon": -111.946394}, {"type": "node", "id": 3520809520, "lat": 48.1689408, "lon": -111.9481775}, {"type": "node", "id": 3520809523, "lat": 48.1730223, "lon": -111.9441388, "tags": {"addr:city": "Conrad", "addr:housenumber": "19", "addr:postcode": "59425", "addr:state": "MT", "addr:street": "South Main Street", "amenity": "fuel", "brand": "Cenex", "brand:wikidata": "Q62127191", "fuel:Gasoline": "yes", "fuel:diesel": "yes", "name": "Mountain View Co-op Cenex", "phone": "+1-406-278-5524", "self_service": "yes", "website": "https://mvc.ag/conrad/"}}, {"type": "node", "id": 3520809525, "lat": 48.1764416, "lon": -111.9421625, "tags": {"amenity": "fast_food", "name": "Main Drive In"}}, {"type": "node", "id": 3520809541, "lat": 48.1675887, "lon": -111.9466911}, {"type": "node", "id": 3520809545, "lat": 48.1690617, "lon": -111.9481123}, {"type": "node", "id": 3520809548, "lat": 48.1680131, "lon": -111.9478835, "tags": {"amenity": "bank", "name": "Stockman Bank"}}, {"type": "node", "id": 3520809551, "lat": 48.1688787, "lon": -111.9478438}, {"type": "node", "id": 3520809556, "lat": 48.1688967, "lon": -111.9479231}, {"type": "node", "id": 3520809559, "lat": 48.1690003, "lon": -111.9478701}, {"type": "node", "id": 3520809561, "lat": 48.1679381, "lon": -111.9471834, "tags": {"amenity": "bank", "name": "Wells Fargo"}}, {"type": "node", "id": 3520809565, "lat": 48.1687076, "lon": -111.9479286}, {"type": "node", "id": 3520809568, "lat": 48.1690882, "lon": -111.9482286}, {"type": "node", "id": 3520809570, "lat": 48.1690841, "lon": -111.9481008}, {"type": "node", "id": 3520809572, "lat": 48.1687288, "lon": -111.9480258}, {"type": "node", "id": 3520809574, "lat": 48.1654657, "lon": -111.9495975, "tags": {"amenity": "pub", "name": "The Keg"}}, {"type": "node", "id": 3520809576, "lat": 48.1677, "lon": -111.9466265}, {"type": "node", "id": 3520809581, "lat": 48.1688342, "lon": -111.9478665}, {"type": "node", "id": 3520809583, "lat": 48.1776828, "lon": -111.941229, "tags": {"name": "Town Pump", "shop": "convenience"}}, {"type": "node", "id": 4917715254, "lat": 48.1748425, "lon": -111.9565947}, {"type": "node", "id": 4917715255, "lat": 48.1739632, "lon": -111.956593}, {"type": "node", "id": 4917715256, "lat": 48.1739601, "lon": -111.9601655}, {"type": "node", "id": 4917715257, "lat": 48.1749926, "lon": -111.9601676}, {"type": "node", "id": 4917715258, "lat": 48.174993, "lon": -111.9597783}, {"type": "node", "id": 4917715259, "lat": 48.1756961, "lon": -111.9597797}, {"type": "node", "id": 4917715260, "lat": 48.1756971, "lon": -111.9586895}, {"type": "node", "id": 7113428959, "lat": 48.1692251, "lon": -111.9462825}, {"type": "node", "id": 7113428960, "lat": 48.169, "lon": -111.946412}, {"type": "node", "id": 7113428961, "lat": 48.1689652, "lon": -111.946276}, {"type": "node", "id": 7113428962, "lat": 48.1691903, "lon": -111.9461464}, {"type": "node", "id": 8201271371, "lat": 48.1706566, "lon": -111.9458092}, {"type": "node", "id": 8201271372, "lat": 48.1705563, "lon": -111.9454636}, {"type": "node", "id": 8201271373, "lat": 48.1702377, "lon": -111.9456628}, {"type": "node", "id": 8201271374, "lat": 48.1703326, "lon": -111.9460003}, {"type": "node", "id": 8867208492, "lat": 48.1727589, "lon": -111.9487697}, {"type": "node", "id": 8867208493, "lat": 48.1727723, "lon": -111.9488258}, {"type": "node", "id": 8867208494, "lat": 48.1729193, "lon": -111.9487471}, {"type": "node", "id": 8867208495, "lat": 48.1728999, "lon": -111.9486654}, {"type": "node", "id": 8867208496, "lat": 48.1728161, "lon": -111.9487103}, {"type": "node", "id": 8867208497, "lat": 48.1726133, "lon": -111.9486561}, {"type": "node", "id": 8867208498, "lat": 48.1725973, "lon": -111.9486645}, {"type": "node", "id": 8867208499, "lat": 48.1727375, "lon": -111.9485988}, {"type": "node", "id": 8867208500, "lat": 48.1727848, "lon": -111.9485743}, {"type": "node", "id": 8867208501, "lat": 48.1726575, "lon": -111.9482523}, {"type": "node", "id": 8867208502, "lat": 48.1725348, "lon": -111.9483159}, {"type": "node", "id": 8867208503, "lat": 48.1726362, "lon": -111.9488329}, {"type": "node", "id": 8867208504, "lat": 48.1728222, "lon": -111.9487358}, {"type": "node", "id": 8867208505, "lat": 48.1730386, "lon": -111.9494149}, {"type": "node", "id": 8867208506, "lat": 48.172765, "lon": -111.9495839}, {"type": "node", "id": 8867208507, "lat": 48.1726165, "lon": -111.9490394}, {"type": "node", "id": 8867208508, "lat": 48.1728955, "lon": -111.9488704}, {"type": "node", "id": 9954001196, "lat": 48.1658952, "lon": -111.9478354}, {"type": "node", "id": 9954001197, "lat": 48.1658142, "lon": -111.9475253}, {"type": "node", "id": 9954001198, "lat": 48.1657411, "lon": -111.9475682}, {"type": "node", "id": 9954001199, "lat": 48.1657592, "lon": -111.9476373}, {"type": "node", "id": 9954001200, "lat": 48.1656647, "lon": -111.9476928}, {"type": "node", "id": 9954001201, "lat": 48.165705, "lon": -111.947847}, {"type": "node", "id": 9954001202, "lat": 48.1657951, "lon": -111.9477941}, {"type": "node", "id": 9954001203, "lat": 48.1658178, "lon": -111.9478808}, {"type": "node", "id": 9954033779, "lat": 48.1689871, "lon": -111.9460714}, {"type": "node", "id": 9954033780, "lat": 48.168868, "lon": -111.9456132}, {"type": "node", "id": 9954033781, "lat": 48.1687837, "lon": -111.9456625}, {"type": "node", "id": 9954033782, "lat": 48.1689028, "lon": -111.9461207}, {"type": "node", "id": 9954311718, "lat": 48.1683467, "lon": -111.9474742}, {"type": "node", "id": 9954311719, "lat": 48.168193, "lon": -111.9475675}, {"type": "node", "id": 9954311720, "lat": 48.1682838, "lon": -111.9479037}, {"type": "node", "id": 9954311721, "lat": 48.1684375, "lon": -111.9478103}, {"type": "node", "id": 10731875666, "lat": 48.1658769, "lon": -111.9497716, "tags": {"addr:city": "Conrad", "addr:housenumber": "600", "addr:postcode": "59425", "addr:state": "MT", "addr:street": "South Main Street", "addr:unit": "1", "brand": "IGA", "brand:wikidata": "Q3146662", "name": "IGA", "opening_hours": "Mo-Su 07:00-22:00", "operator": "Gary & Leo's Fresh Foods", "phone": "+1 406-278-7843", "shop": "supermarket"}}, {"type": "node", "id": 10731875667, "lat": 48.1661971, "lon": -111.9496214, "tags": {"addr:city": "Conrad", "addr:housenumber": "600", "addr:postcode": "59425", "addr:state": "MT", "addr:street": "South Main Street", "addr:unit": "#2", "name": "Village Drug", "opening_hours": "Mo-Fr 08:30-17:30; Sa 10:00-16:00 open \"Front End Only\"", "shop": "chemist", "website": "https://www.villagedrugmt.com"}}, {"type": "node", "id": 10733165817, "lat": 48.169832, "lon": -111.9493807}, {"type": "node", "id": 10733165818, "lat": 48.1700662, "lon": -111.9492377}, {"type": "node", "id": 10733165819, "lat": 48.1700352, "lon": -111.9491235}, {"type": "node", "id": 10733165820, "lat": 48.1700915, "lon": -111.9490891}, {"type": "node", "id": 10733165821, "lat": 48.1700659, "lon": -111.9489949}, {"type": "node", "id": 10733165822, "lat": 48.1701474, "lon": -111.9489451}, {"type": "node", "id": 10733165823, "lat": 48.1702607, "lon": -111.9493623}, {"type": "node", "id": 10733165824, "lat": 48.1698887, "lon": -111.9495894}, {"type": "node", "id": 11774902313, "lat": 48.1769022, "lon": -111.9429351}, {"type": "node", "id": 11774902314, "lat": 48.1767928, "lon": -111.9425179}, {"type": "node", "id": 11774902315, "lat": 48.1769805, "lon": -111.9424073}, {"type": "node", "id": 11774902316, "lat": 48.1770898, "lon": -111.9428245}, {"type": "node", "id": 11774902371, "lat": 48.1665805, "lon": -111.9492058}, {"type": "node", "id": 11774902372, "lat": 48.1664158, "lon": -111.9485851}, {"type": "node", "id": 11774902373, "lat": 48.1654409, "lon": -111.9491666}, {"type": "node", "id": 11774902374, "lat": 48.1656058, "lon": -111.9497876}, {"type": "node", "id": 11774902375, "lat": 48.1668941, "lon": -111.9505305}, {"type": "node", "id": 11774902376, "lat": 48.1665561, "lon": -111.95073}, {"type": "node", "id": 11774902377, "lat": 48.1664229, "lon": -111.9502406}, {"type": "node", "id": 11774902378, "lat": 48.1667652, "lon": -111.9500426}, {"type": "way", "id": 153860627, "nodes": [1664936229, 1664936401, 1664936469, 1664936298, 1664936229], "tags": {"amenity": "fuel", "brand": "Exxon", "building": "roof", "source": "Bing"}}, {"type": "way", "id": 153860637, "nodes": [1664936347, 1664936387, 1664936307, 1664936051, 1664936347], "tags": {"amenity": "fuel", "brand": "Exxon", "building": "roof", "source": "Bing"}}, {"type": "way", "id": 153860650, "nodes": [1664936304, 1664935993, 1664935999, 1664936151, 1664936304], "tags": {"amenity": "fuel", "brand": "Exxon", "building": "roof", "source": "Bing"}}, {"type": "way", "id": 153884478, "nodes": [1665130053, 1665128920, 1665127623, 1665129922, 1665127976, 1665127536, 1665127483, 1665128500, 1665130053], "tags": {"amenity": "school", "name": "Meadowlark Elementary School", "source": "Bing", "source:name": "GNIS"}}, {"type": "way", "id": 153884480, "nodes": [1665129039, 1665128651, 1665129135, 1665128012, 1665128418, 1665127318, 1665128720, 1665129097, 1665129088, 1665129641, 1665129039], "tags": {"amenity": "school", "ele": "1074", "gnis:feature_id": "1748833", "name": "Conrad High School", "source": "Bing", "source:name": "GNIS"}}, {"type": "way", "id": 153884484, "nodes": [1665129977, 1665129068, 1665130221, 1665128614, 1665130053, 1665128920, 1665129977], "tags": {"amenity": "school", "name": "Utterback Middle School", "source": "Bing", "source:name": "GNIS"}}, {"type": "way", "id": 345396666, "nodes": [3520809570, 3520809509, 3520809498, 3520809559, 3520809556, 3520809551, 3520809581, 3520809565, 3520809572, 3520809510, 3520809506, 3520809505, 3520809520, 3520809496, 3520809568, 3520809545, 3520809570], "tags": {"amenity": "public_building", "building": "yes", "name": "Pondera County Courthouse"}}, {"type": "way", "id": 345396668, "nodes": [3520809576, 3520809503, 3520809516, 3520809541, 3520809576], "tags": {"amenity": "place_of_worship", "name": "Gospel Chapel", "religion": "christian"}}, {"type": "way", "id": 500795238, "nodes": [4917715260, 4917715259, 4917715258, 4917715257, 4917715256, 4917715255, 4917715254, 357973493, 4917715260], "tags": {"addr:city": "Conrad", "addr:housenumber": "805", "addr:postcode": "59425", "addr:state": "MT", "addr:street": "Sunset Boulevard", "amenity": "hospital", "emergency": "yes", "gnis:feature_id": "1748765", "name": "Pondera Medical Center", "opening_hours": "24/7", "phone": "+1 406 271 3211", "website": "https://www.ponderamedical.org/"}}, {"type": "way", "id": 761369463, "nodes": [7113428959, 7113428960, 7113428961, 7113428962, 7113428959], "tags": {"addr:city": "Conrad", "addr:housenumber": "7", "addr:postcode": "59425", "addr:state": "MT", "addr:street": "4th Avenue Southeast", "amenity": "cinema", "building": "yes", "name": "Orpheum Theatre", "screen": "1", "wikidata": "Q42902841"}}, {"type": "way", "id": 881883530, "nodes": [8201271371, 8201271372, 8201271373, 8201271374, 8201271371], "tags": {"building": "yes", "name": "Conrad Tire", "shop": "tyres"}}, {"type": "way", "id": 958333069, "nodes": [8867208496, 8867208495, 8867208494, 8867208493, 8867208492, 8867208504, 8867208496], "tags": {"amenity": "parking"}}, {"type": "way", "id": 958333070, "nodes": [8867208504, 8867208496, 8867208500, 8867208499, 8867208501, 8867208502, 8867208497, 8867208498, 8867208503, 8867208492, 8867208504], "tags": {"addr:city": "Conrad", "addr:housenumber": "106", "addr:postcode": "59425", "addr:state": "MT", "addr:street": "South Maryland", "amenity": "place_of_worship", "building": "church", "denomination": "roman_catholic", "diocese": "Helena", "ele": "1073", "gnis:feature_id": "1748732", "name": "Saint Michael the Archangel Catholic Church", "phone": "+1 406-278-7517", "religion": "christian"}}, {"type": "way", "id": 958333071, "nodes": [8867208508, 8867208507, 8867208506, 8867208505, 8867208508], "tags": {"amenity": "parking"}}, {"type": "way", "id": 1086352718, "nodes": [9954033779, 9954033780, 9954033781, 9954033782, 9954033779], "tags": {"amenity": "bar", "building": "yes", "name": "Ed's Tavern"}}, {"type": "way", "id": 1086355321, "nodes": [9954001196, 9954001197, 9954001198, 9954001199, 9954001200, 9954001201, 9954001202, 9954001203, 9954001196], "tags": {"amenity": "restaurant", "building": "yes", "cuisine": "pizza", "name": "Coaches Corner Pizza"}}, {"type": "way", "id": 1086387596, "nodes": [9954311718, 9954311719, 9954311720, 9954311721, 9954311718], "tags": {"amenity": "cafe", "building": "yes", "name": "Home Cafe"}}, {"type": "way", "id": 1154068314, "nodes": [10733165817, 10733165818, 10733165819, 10733165820, 10733165821, 10733165822, 10733165823, 10733165824, 10733165817], "tags": {"addr:city": "Conrad", "addr:housenumber": "123", "addr:postcode": "59425", "addr:state": "MT", "addr:street": "4th Avenue Southwest", "amenity": "place_of_worship", "building": "yes", "denomination": "presbyterian", "name": "First Presbyterian Church", "phone": "+1-406-278-3043", "religion": "christian", "website": "https://www.conradfirstpres.org/"}}, {"type": "way", "id": 1267845552, "nodes": [11774902313, 11774902314, 11774902315, 11774902316, 11774902313], "tags": {"building": "yes", "name": "Windrift Hill", "phone": "+1-406-278-5872", "shop": "chemist", "website": "https://windrifthill.com"}}, {"type": "way", "id": 1267845558, "nodes": [11774902371, 11774902372, 11774902373, 11774902374, 11774902371], "tags": {"amenity": "parking"}}, {"type": "way", "id": 1267845559, "nodes": [11774902375, 11774902376, 11774902377, 11774902378, 11774902375], "tags": {"amenity": "parking", "surface": "unpaved"}}]}