{"version": 0.6, "generator": "Overpass API 0.7.62.8 e802775f", "osm3s": {"timestamp_osm_base": "2025-12-06T05:55:56Z", "copyright": "The data included in this document is from www.openstreetmap.org. The data is made available under ODbL."}, "elements": [{"type": "node", "id": 2401095847, "lat": 43.6157399, "lon": -116.5901511}, {"type": "node", "id": 2401095851, "lat": 43.6136528, "lon": -116.596936}, {"type": "node", "id": 3353058517, "lat": 43.6136575, "lon": -116.5979414}, {"type": "node", "id": 3353058518, "lat": 43.6135205, "lon": -116.5979425}, {"type": "node", "id": 3353058519, "lat": 43.613521, "lon": -116.5980419}, {"type": "node", "id": 3353058520, "lat": 43.6133128, "lon": -116.5980436}, {"type": "node", "id": 3353058521, "lat": 43.6133124, "lon": -116.5979491}, {"type": "node", "id": 3353058522, "lat": 43.6131913, "lon": -116.5979501}, {"type": "node", "id": 3353058523, "lat": 43.6131871, "lon": -116.5969478}, {"type": "node", "id": 3353058524, "lat": 43.613347, "lon": -116.5969465}, {"type": "node", "id": 3353058525, "lat": 43.6133468, "lon": -116.5968948}, {"type": "node", "id": 3353058526, "lat": 43.6134971, "lon": -116.5968936}, {"type": "node", "id": 3353058527, "lat": 43.6134972, "lon": -116.5969373}, {"type": "node", "id": 3569445536, "lat": 43.6148216, "lon": -116.5897511}, {"type": "node", "id": 3569445537, "lat": 43.6147446, "lon": -116.5897424}, {"type": "node", "id": 3569445538, "lat": 43.6147478, "lon": -116.5900824}, {"type": "node", "id": 3569445539, "lat": 43.6149067, "lon": -116.5903147}, {"type": "node", "id": 4340113950, "lat": 43.6148468, "lon": -116.5950488, "tags": {"addr:city": "Nampa", "addr:housenumber": "16853", "addr:postcode": "83687", "addr:state": "ID", "addr:street": "North Marketplace Boulevard", "amenity": "restaurant", "brand": "Cracker Barrel", "brand:wikidata": "Q4492609", "cuisine": "american", "name": "Cracker Barrel", "official_name": "Cracker Barrel Old Country Store", "opening_hours": "Su-Th 06:00-22:00; Fr-Sa 06:00-23:00", "phone": "+1-208-442-1100", "ref": "683", "website": "https://www.crackerbarrel.com/Locations/States/id/nampa/683"}}, {"type": "node", "id": 4848722535, "lat": 43.6157399, "lon": -116.5884265}, {"type": "node", "id": 4848722536, "lat": 43.6150685, "lon": -116.588418}, {"type": "node", "id": 4848722537, "lat": 43.6150664, "lon": -116.5886244}, {"type": "node", "id": 4848722538, "lat": 43.6148241, "lon": -116.5886243}, {"type": "node", "id": 4848722539, "lat": 43.6153345, "lon": -116.5903272}, {"type": "node", "id": 4848722540, "lat": 43.6153346, "lon": -116.5902529}, {"type": "node", "id": 4848722541, "lat": 43.6154553, "lon": -116.5902501}, {"type": "node", "id": 4848722542, "lat": 43.6154574, "lon": -116.5901511}, {"type": "node", "id": 5573958958, "lat": 43.6136575, "lon": -116.5977916}, {"type": "node", "id": 5573958959, "lat": 43.6137978, "lon": -116.5977908}, {"type": "node", "id": 5573958960, "lat": 43.6137982, "lon": -116.5979287}, {"type": "node", "id": 5573958961, "lat": 43.6143387, "lon": -116.5979257}, {"type": "node", "id": 5573958962, "lat": 43.6143362, "lon": -116.5970804}, {"type": "node", "id": 5573958963, "lat": 43.6136554, "lon": -116.5970843}, {"type": "node", "id": 5573958964, "lat": 43.6143385, "lon": -116.5978549}, {"type": "node", "id": 5573958965, "lat": 43.6148109, "lon": -116.597853}, {"type": "node", "id": 5573958966, "lat": 43.6148111, "lon": -116.5979412}, {"type": "node", "id": 5573958967, "lat": 43.6149316, "lon": -116.5979407}, {"type": "node", "id": 5573958968, "lat": 43.6149328, "lon": -116.5970814}, {"type": "node", "id": 5573958969, "lat": 43.6152154, "lon": -116.5970874}, {"type": "node", "id": 5573958970, "lat": 43.6149283, "lon": -116.5975129}, {"type": "node", "id": 5573958971, "lat": 43.6152106, "lon": -116.5975185}, {"type": "node", "id": 5573958972, "lat": 43.6155329, "lon": -116.5970941}, {"type": "node", "id": 5573958973, "lat": 43.6155258, "lon": -116.5977299}, {"type": "node", "id": 5573958974, "lat": 43.6152083, "lon": -116.5977232}, {"type": "node", "id": 5719974555, "lat": 43.6171596, "lon": -116.607596, "tags": {"addr:city": "Nampa", "addr:housenumber": "3532", "addr:postcode": "83687", "addr:state": "ID", "addr:street": "North Black Butte Court", "fax": "+1-208-465-5562", "name": "ISE, Inc", "phone": "+1-208-465-5552", "shop": "equipment", "website": "http://isecranes.com"}}, {"type": "node", "id": 9484869779, "lat": 43.6158129, "lon": -116.5955114}, {"type": "node", "id": 9484869780, "lat": 43.6158149, "lon": -116.5946086}, {"type": "node", "id": 9484869781, "lat": 43.6153284, "lon": -116.5946065}, {"type": "node", "id": 9484869782, "lat": 43.6153266, "lon": -116.5954211}, {"type": "node", "id": 9484869783, "lat": 43.6157289, "lon": -116.5954228}, {"type": "node", "id": 9484869784, "lat": 43.6157287, "lon": -116.5955111}, {"type": "way", "id": 328476870, "nodes": [2401095851, 5573958963, 5573958958, 3353058517, 3353058518, 3353058519, 3353058520, 3353058521, 3353058522, 3353058523, 3353058524, 3353058525, 3353058526, 3353058527, 2401095851], "tags": {"addr:city": "Nampa", "addr:housenumber": "16865", "addr:postcode": "83687", "addr:state": "ID", "addr:street": "North Marketplace Boulevard", "brand": "Sportsman's Warehouse", "brand:wikidata": "Q7579979", "building": "retail", "name": "Sportsman's Warehouse", "opening_hours": "Su 10:00-18:00, Mo-Sa 09:00-21:00", "phone": "+1 208 468 7600", "ref:shop:num": "224", "shop": "outdoor", "website": "https://sportsmanswarehouse.com/"}}, {"type": "way", "id": 492904012, "nodes": [2401095847, 4848722535, 4848722536, 4848722537, 4848722538, 3569445536, 3569445537, 3569445538, 3569445539, 4848722539, 4848722540, 4848722541, 4848722542, 2401095847], "tags": {"addr:city": "Nampa", "addr:housenumber": "16700", "addr:postcode": "83687-7909", "addr:state": "ID", "addr:street": "North Market Place Boulevard", "branch": "Nampa", "brand": "Costco", "brand:wikidata": "Q715583", "building": "yes", "name": "Costco", "opening_hours": "Mo-Fr 10:00-20:30; Sa 09:30-18:00; Su 10:00-18:00", "operator": "Costco", "phone": "+1 208-465-3800", "ref": "734", "shop": "wholesale", "website": "https://www.costco.com/warehouse-locations/nampa-id-734.html"}}, {"type": "way", "id": 582956194, "nodes": [5573958958, 5573958959, 5573958960, 5573958961, 5573958964, 5573958962, 5573958963, 5573958958], "tags": {"addr:city": "Nampa", "addr:housenumber": "16884", "addr:postcode": "83687", "addr:state": "ID", "addr:street": "North Marketplace Boulevard", "brand": "Hobby Lobby", "brand:wikidata": "Q5874938", "building": "retail", "name": "Hobby Lobby", "opening_hours": "Mo-Sa 09:00-20:00, Su off", "phone": "+1 208 442 9729", "shop": "craft", "website": "https://hobbylobby.com/", "wheelchair": "yes"}}, {"type": "way", "id": 582956195, "nodes": [5573958964, 5573958965, 5573958966, 5573958967, 5573958970, 5573958968, 5573958962, 5573958964], "tags": {"addr:city": "Nampa", "addr:housenumber": "16905", "addr:postcode": "83687", "addr:state": "ID", "addr:street": "North Marketplace Boulevard", "brand": "Dick's Sporting Goods", "brand:wikidata": "Q5272601", "building": "retail", "name": "Dick's Sporting Goods", "opening_hours": "Su 10:00-19:00; Mo-Sa 09:00-21:00", "phone": "+1 208-546-3433", "ref": "1167", "shop": "sports", "website": "https://stores.dickssportinggoods.com/id/nampa/1167/", "wheelchair": "limited"}}, {"type": "way", "id": 582956196, "nodes": [5573958969, 5573958968, 5573958970, 5573958971, 5573958969], "tags": {"addr:city": "Nampa", "addr:housenumber": "16925", "addr:postcode": "83687", "addr:state": "ID", "addr:street": "North Market Place Boulevard", "brand": "PetSmart", "brand:wikidata": "Q3307147", "building": "retail", "name": "PetSmart", "opening_hours": "Mo-Sa 09:00-21:00; Su 10:00-19:00", "phone": "+1 208-546-3444", "ref": "2435", "shop": "pet", "website": "https://www.petsmart.com/stores/us/id/nampa-store2435.html", "wheelchair": "limited"}}, {"type": "way", "id": 582956197, "nodes": [5573958969, 5573958972, 5573958973, 5573958974, 5573958971, 5573958969], "tags": {"addr:city": "Nampa", "addr:housenumber": "16925", "addr:postcode": "83687", "addr:state": "ID", "addr:street": "North Marketplace Boulevard", "brand": "TJ Maxx", "brand:wikidata": "Q10860683", "building": "retail", "name": "TJ Maxx", "opening_hours": "Su 10:00-18:00, Mo-Sa 09:00-21:00", "phone": "+1 208 546 3444", "shop": "department_store", "website": "https://www.petsmart.com/", "wheelchair": "limited"}}, {"type": "way", "id": 1028800615, "nodes": [9484869779, 9484869780, 9484869781, 9484869782, 9484869783, 9484869784, 9484869779], "tags": {"addr:city": "Nampa", "addr:housenumber": "16828", "addr:postcode": "83687", "addr:state": "ID", "addr:street": "North Marketplace Boulevard", "alt_name": "Burlington Coat Factory", "brand": "Burlington", "brand:wikidata": "Q4999220", "building": "retail", "name": "Burlington", "opening_hours": "Mo-Sa 09:00-21:00; Su 09:00-19:00", "phone": "+1 208-205-9654", "ref": "569", "shop": "department_store", "toilets": "yes", "website": "https://stores.burlington.com/id/nampa/569", "wheelchair": "limited"}}]}