{"version": 0.6, "generator": "Overpass API 0.7.62.8 e802775f", "osm3s": {"timestamp_osm_base": "2025-12-06T04:42:53Z", "copyright": "The data included in this document is from www.openstreetmap.org. The data is made available under ODbL."}, "elements": [{"type": "node", "id": 3633665834, "lat": 47.1725933, "lon": -113.4777582, "tags": {"amenity": "restaurant", "name": "The Chicken Coop & Lounge"}}, {"type": "node", "id": 7764152063, "lat": 47.1776134, "lon": -113.4828228}, {"type": "node", "id": 7764152067, "lat": 47.1772915, "lon": -113.4820378}, {"type": "node", "id": 7764152068, "lat": 47.177457, "lon": -113.4817819}, {"type": "node", "id": 7764152069, "lat": 47.1776536, "lon": -113.4820571}, {"type": "node", "id": 7764152070, "lat": 47.1774881, "lon": -113.482313}, {"type": "node", "id": 7764159213, "lat": 47.1784352, "lon": -113.4835074}, {"type": "node", "id": 7764159214, "lat": 47.1783583, "lon": -113.4837379}, {"type": "node", "id": 7764159215, "lat": 47.1782699, "lon": -113.483674}, {"type": "node", "id": 7764159220, "lat": 47.1778629, "lon": -113.4839297, "tags": {"amenity": "restaurant", "cuisine": "regional", "name": "The Filling Station"}}, {"type": "node", "id": 9953779069, "lat": 47.1778267, "lon": -113.4827872}, {"type": "node", "id": 9953779070, "lat": 47.1777124, "lon": -113.4826475}, {"type": "node", "id": 9953779071, "lat": 47.1776645, "lon": -113.4828854}, {"type": "node", "id": 9953779072, "lat": 47.1776444, "lon": -113.4829015}, {"type": "node", "id": 9953779073, "lat": 47.177714, "lon": -113.4829866}, {"type": "node", "id": 9955883896, "lat": 47.1738703, "lon": -113.4792744}, {"type": "node", "id": 9955883897, "lat": 47.1737031, "lon": -113.4792886}, {"type": "node", "id": 9955883898, "lat": 47.1736069, "lon": -113.4794107}, {"type": "node", "id": 9955883899, "lat": 47.1737091, "lon": -113.4795912}, {"type": "node", "id": 9955883900, "lat": 47.1737753, "lon": -113.479501}, {"type": "node", "id": 9955883901, "lat": 47.1738751, "lon": -113.4795027}, {"type": "node", "id": 9955883902, "lat": 47.173886, "lon": -113.4793647}, {"type": "node", "id": 11168662125, "lat": 47.1955591, "lon": -113.5006536, "tags": {"amenity": "bar", "name": "Base Camp"}}, {"type": "node", "id": 11168662287, "lat": 47.1774902, "lon": -113.4839204, "tags": {"shop": "laundry"}}, {"type": "node", "id": 12125414501, "lat": 47.1783468, "lon": -113.4834436}, {"type": "way", "id": 831614444, "nodes": [7764152067, 7764152068, 7764152069, 7764152070, 7764152067], "tags": {"addr:city": "Seeley Lake", "addr:housenumber": "3182", "addr:postcode": "59868", "addr:state": "MT", "addr:street": "MT 83", "brand": "Ace Hardware", "brand:wikidata": "Q4672981", "building": "yes", "name": "Rovero's Ace Hardware", "opening_hours": "Mo-Fr 06:00-20:00; Sa-Su 07:00-20:00", "phone": "+1 406-677-2445", "ref": "16456", "shop": "doityourself"}}, {"type": "way", "id": 831614451, "nodes": [12125414501, 7764159213, 7764159214, 7764159215, 12125414501], "tags": {"addr:housenumber": "3196", "addr:postcode": "59868", "addr:street": "MT-83", "amenity": "restaurant", "building": "yes", "contact:facebook": "theicecreamplace", "cuisine": "american;burger;chicken;hot_dog;ice_cream;mexican", "name": "The Ice Cream Place", "opening_hours": "Mo-Su 11:00-22:00"}}, {"type": "way", "id": 1086330946, "nodes": [9953779069, 9953779070, 7764152063, 9953779071, 9953779072, 9953779073, 9953779069], "tags": {"building": "yes", "name": "Blue River Station", "shop": "yes"}}, {"type": "way", "id": 1086561792, "nodes": [9955883896, 9955883897, 9955883898, 9955883899, 9955883900, 9955883901, 9955883902, 9955883896], "tags": {"amenity": "restaurant", "building": "yes", "cuisine": "steak_house", "name": "Lindey's Prime Steak House"}}]}