{"version": 0.6, "generator": "Overpass API 0.7.62.8 e802775f", "osm3s": {"timestamp_osm_base": "2025-12-12T23:56:38Z", "copyright": "The data included in this document is from www.openstreetmap.org. The data is made available under ODbL."}, "elements": [{"type": "node", "id": 177294280, "lat": 39.289719, "lon": -103.063344}, {"type": "node", "id": 177294281, "lat": 39.2899162, "lon": -103.0633514}, {"type": "node", "id": 177301440, "lat": 39.287556, "lon": -103.061624}, {"type": "node", "id": 177301455, "lat": 39.2911838, "lon": -103.0676348}, {"type": "node", "id": 177302630, "lat": 39.289936, "lon": -103.0640017}, {"type": "node", "id": 177313990, "lat": 39.288197, "lon": -103.06164}, {"type": "node", "id": 1441571856, "lat": 39.2842151, "lon": -103.062099, "tags": {"addr:city": "Flagler", "addr:housenumber": "16995", "addr:postcode": "80815", "addr:state": "CO", "addr:street": "County Road 5", "amenity": "fuel", "brand": "Cenex", "brand:wikidata": "Q5011381", "name": "Cenex"}}, {"type": "node", "id": 2580371823, "lat": 39.2911917, "lon": -103.0669981}, {"type": "node", "id": 3562349140, "lat": 39.2877318, "lon": -103.063581, "tags": {"addr:city": "Flagler", "addr:country": "US", "addr:housenumber": "224", "addr:postcode": "80815", "addr:state": "CO", "addr:street": "East High Street", "brand": "NAPA Auto Parts", "brand:wikidata": "Q6970842", "fax": "+1 719 765 4387", "name": "NAPA Auto Parts", "opening_hours": "Mo-Sa 08:00-18:00; Su 11:00-13:00", "operator": "Witt Boys, Inc.", "operator:wikidata": "Q5533818", "operator:wikipedia": "en:Genuine Parts Company", "payment:cash": "yes", "phone": "+1-719-765-4646", "shop": "car_parts", "website": "https://www.napaonline.com/co/flagler", "wheelchair": "yes"}}, {"type": "node", "id": 3562349142, "lat": 39.2877717, "lon": -103.0631287}, {"type": "node", "id": 3562349143, "lat": 39.2877729, "lon": -103.063335}, {"type": "node", "id": 3562349145, "lat": 39.287938, "lon": -103.063127}, {"type": "node", "id": 3562349146, "lat": 39.2879393, "lon": -103.0633333}, {"type": "node", "id": 3562395339, "lat": 39.2872904, "lon": -103.0602247, "tags": {"addr:city": "Flagler", "addr:country": "US", "addr:housenumber": "404", "addr:postcode": "80815", "addr:state": "CO", "addr:street": "East High Street", "amenity": "doctors", "healthcare": "doctor", "name": "Dr. Hannah Jackson", "opening_hours": "Mo 09:00-16:00; We 09:00-16:00; Fr 09:00-16:00", "phone": "+1-719-765-4757", "wheelchair": "yes"}}, {"type": "node", "id": 3562395340, "lat": 39.287288, "lon": -103.0598982, "tags": {"addr:city": "Flagler", "addr:country": "US", "addr:housenumber": "410", "addr:postcode": "80815", "addr:state": "CO", "addr:street": "East High Street", "name": "Flagler Liquor", "opening_hours": "Mo-Th 10:00-20:00; Fr-Sa 10:00-22:00; Su 13:00-18:00", "shop": "alcohol"}}, {"type": "node", "id": 3562395344, "lat": 39.2873492, "lon": -103.0612641, "tags": {"addr:city": "Flagler", "addr:housenumber": "17044", "addr:postcode": "80815", "addr:state": "CO", "addr:street": "County Road 5", "amenity": "restaurant", "contact:website": "http://i-70diner.tripod.com/", "name": "I-70 Diner", "opening_hours": "08:00-19:00", "payment:cash": "yes", "payment:mastercard": "yes", "payment:visa": "yes", "phone": "+1-719-765-4040", "wheelchair": "yes"}}, {"type": "node", "id": 3562395347, "lat": 39.2872901, "lon": -103.0603363, "tags": {"addr:city": "Flagler", "addr:country": "US", "addr:housenumber": "402", "addr:postcode": "80815", "addr:state": "CO", "addr:street": "East High Street", "amenity": "fast_food", "brand": "Subway", "brand:wikidata": "Q244457", "cuisine": "sandwich", "fixme:atp": "no ATP match, check if still exists", "name": "Subway", "opening_hours": "Mo-Th 07:00-21:00; Fr-Sa 07:00-22:00; Su 09:00-21:00", "payment:cash": "yes", "payment:mastercard": "yes", "payment:visa": "yes", "payment:visa_debit": "no", "takeaway": "yes"}}, {"type": "node", "id": 3562395360, "lat": 39.287714, "lon": -103.0617754}, {"type": "node", "id": 3562395361, "lat": 39.2877146, "lon": -103.0618613}, {"type": "node", "id": 3562395362, "lat": 39.2877528, "lon": -103.0622376}, {"type": "node", "id": 3562395363, "lat": 39.2877532, "lon": -103.0620694}, {"type": "node", "id": 3562395364, "lat": 39.2878589, "lon": -103.0620537}, {"type": "node", "id": 3562395365, "lat": 39.2878589, "lon": -103.0620698}, {"type": "node", "id": 3562395366, "lat": 39.2879162, "lon": -103.0617729}, {"type": "node", "id": 3562395367, "lat": 39.2879169, "lon": -103.0618588}, {"type": "node", "id": 3562395368, "lat": 39.2879461, "lon": -103.0622385}, {"type": "node", "id": 3562395369, "lat": 39.2879466, "lon": -103.0620541}, {"type": "node", "id": 4616689240, "lat": 39.2923125, "lon": -103.0681291}, {"type": "node", "id": 4616689241, "lat": 39.2920984, "lon": -103.068126}, {"type": "node", "id": 4616689242, "lat": 39.2921015, "lon": -103.0677653}, {"type": "node", "id": 4616689243, "lat": 39.2923156, "lon": -103.0677684}, {"type": "node", "id": 5119855015, "lat": 39.2880726, "lon": -103.0619428}, {"type": "node", "id": 5119855016, "lat": 39.288303, "lon": -103.0619416}, {"type": "node", "id": 5119855017, "lat": 39.2883033, "lon": -103.0620451}, {"type": "node", "id": 5119855018, "lat": 39.2880729, "lon": -103.0620463}, {"type": "node", "id": 6900431817, "lat": 39.2928555, "lon": -103.0674952}, {"type": "node", "id": 6900431818, "lat": 39.2926954, "lon": -103.0674959}, {"type": "node", "id": 6900431819, "lat": 39.2926943, "lon": -103.0670882}, {"type": "node", "id": 6900431820, "lat": 39.2927927, "lon": -103.0670877}, {"type": "node", "id": 6900431821, "lat": 39.292793, "lon": -103.0672025}, {"type": "node", "id": 6900431822, "lat": 39.2928547, "lon": -103.0672022}, {"type": "node", "id": 7527273769, "lat": 39.2922911, "lon": -103.0686933, "tags": {"addr:city": "Flagler", "addr:postcode": "80815", "addr:state": "CO", "addr:street": "West 4th Street", "addr:street_1": "Loveland Avenue", "amenity": "place_of_worship", "denomination": "roman_catholic", "diocese": "Colorado Springs", "fixme": "Location Approximate", "name": "Saint Mary Catholic Church", "phone": "+1-719-775-2118", "religion": "christian", "website_1": "https://www.diocs.org"}}, {"type": "node", "id": 7527405614, "lat": 39.288023, "lon": -103.062577}, {"type": "node", "id": 7527405624, "lat": 39.287964, "lon": -103.062718}, {"type": "node", "id": 7527405625, "lat": 39.287963, "lon": -103.062578}, {"type": "node", "id": 7527405626, "lat": 39.2875715, "lon": -103.0625442}, {"type": "node", "id": 8038482043, "lat": 39.2932223, "lon": -103.0620393}, {"type": "node", "id": 8038482044, "lat": 39.2932256, "lon": -103.0618141}, {"type": "node", "id": 8038482045, "lat": 39.2935803, "lon": -103.0618227}, {"type": "node", "id": 8038482046, "lat": 39.293577, "lon": -103.062048}, {"type": "node", "id": 8409418692, "lat": 39.286887, "lon": -103.060965, "tags": {"access": "yes", "amenity": "charging_station", "brand": "Electrify America", "brand:wikidata": "Q59773555", "capacity": "4", "charge": "$0.43 USD/kwH", "charging_station:output": "350 kW", "fee": "yes", "name": "Electrify America", "operator": "Electrify America", "operator:wikidata": "Q59773555", "operator:wikipedia": "en:Electrify America", "payment:credit_cards": "yes", "payment:debit_cards": "yes"}}, {"type": "node", "id": 8409501800, "lat": 39.2902833, "lon": -103.0632775}, {"type": "node", "id": 8409501801, "lat": 39.2901605, "lon": -103.0632696}, {"type": "node", "id": 8409501802, "lat": 39.2901646, "lon": -103.0631621}, {"type": "node", "id": 8409501803, "lat": 39.2902874, "lon": -103.06317}, {"type": "node", "id": 8409525342, "lat": 39.2898439, "lon": -103.062728}, {"type": "node", "id": 8409525343, "lat": 39.2897747, "lon": -103.0627454}, {"type": "node", "id": 8409525344, "lat": 39.2897538, "lon": -103.0626069}, {"type": "node", "id": 8409525345, "lat": 39.289823, "lon": -103.0625895}, {"type": "node", "id": 8409531936, "lat": 39.2901698, "lon": -103.0625537}, {"type": "node", "id": 8409531937, "lat": 39.2901359, "lon": -103.0625828}, {"type": "node", "id": 8409531938, "lat": 39.290107, "lon": -103.0625267}, {"type": "node", "id": 8409531939, "lat": 39.2901409, "lon": -103.0624975}, {"type": "node", "id": 8409533924, "lat": 39.2900332, "lon": -103.0626537, "tags": {"amenity": "waste_disposal"}}, {"type": "node", "id": 8409542015, "lat": 39.2875687, "lon": -103.0609339}, {"type": "node", "id": 8409566126, "lat": 39.2866738, "lon": -103.0605985}, {"type": "node", "id": 8409566127, "lat": 39.2869535, "lon": -103.0615286}, {"type": "node", "id": 8409566128, "lat": 39.2869517, "lon": -103.0616112}, {"type": "node", "id": 8409583419, "lat": 39.2880228, "lon": -103.062512}, {"type": "node", "id": 8409583420, "lat": 39.287571, "lon": -103.062513}, {"type": "node", "id": 8409583421, "lat": 39.2875723, "lon": -103.0626092}, {"type": "node", "id": 8409583422, "lat": 39.2876634, "lon": -103.0626097}, {"type": "node", "id": 8409583423, "lat": 39.2877754, "lon": -103.0627204}, {"type": "node", "id": 8409620532, "lat": 39.2886313, "lon": -103.0633914}, {"type": "node", "id": 8409620533, "lat": 39.2886171, "lon": -103.0633918}, {"type": "node", "id": 8409620534, "lat": 39.2886153, "lon": -103.0632972}, {"type": "node", "id": 8409620535, "lat": 39.2885087, "lon": -103.0633005}, {"type": "node", "id": 8409620546, "lat": 39.2887386, "lon": -103.0631853}, {"type": "node", "id": 8409620547, "lat": 39.2885593, "lon": -103.0632989, "tags": {"access": "customers", "addr:city": "Flagler", "addr:housenumber": "226", "addr:postcode": "80815", "addr:state": "CO", "addr:street": "South 1st Street", "entrance": "main", "level": "1"}}, {"type": "node", "id": 8409620548, "lat": 39.288779, "lon": -103.0634638}, {"type": "node", "id": 8409620549, "lat": 39.2886327, "lon": -103.0634639}, {"type": "node", "id": 8409620550, "lat": 39.28847, "lon": -103.0633025}, {"type": "node", "id": 8409620551, "lat": 39.2884644, "lon": -103.0631497}, {"type": "node", "id": 8409620552, "lat": 39.2885876, "lon": -103.0631657}, {"type": "node", "id": 8409690048, "lat": 39.2900017, "lon": -103.0639176}, {"type": "node", "id": 8409690049, "lat": 39.2899638, "lon": -103.0637981}, {"type": "node", "id": 8409690050, "lat": 39.2900242, "lon": -103.0637662}, {"type": "node", "id": 8409690051, "lat": 39.2900169, "lon": -103.0637432}, {"type": "node", "id": 8409690052, "lat": 39.2900948, "lon": -103.0637021}, {"type": "node", "id": 8409690053, "lat": 39.2899869, "lon": -103.0637685, "tags": {"addr:city": "Flagler", "addr:housenumber": "207", "addr:postcode": "80815", "addr:state": "CO", "addr:street": "Pawnee Avenue", "amenity": "car_wash", "name": "Flagler Car Wash"}}, {"type": "node", "id": 8409690054, "lat": 39.2900478, "lon": -103.0637097, "tags": {"addr:city": "Flagler", "addr:housenumber": "207", "addr:postcode": "80815", "addr:state": "CO", "addr:street": "Pawnee Avenue", "name": "Flagler Laundromat", "shop": "laundry"}}, {"type": "node", "id": 8409690055, "lat": 39.2901475, "lon": -103.0636685}, {"type": "node", "id": 8409690056, "lat": 39.290053, "lon": -103.0633534}, {"type": "node", "id": 8409690057, "lat": 39.2901415, "lon": -103.0640043}, {"type": "node", "id": 8409690058, "lat": 39.2901339, "lon": -103.0638478}, {"type": "node", "id": 8409928847, "lat": 39.2874756, "lon": -103.0611267}, {"type": "node", "id": 8409928848, "lat": 39.2874404, "lon": -103.0611255}, {"type": "node", "id": 8409928849, "lat": 39.2874406, "lon": -103.0611141}, {"type": "node", "id": 8409928850, "lat": 39.2873691, "lon": -103.0611118}, {"type": "node", "id": 8409928851, "lat": 39.2873632, "lon": -103.0614206}, {"type": "node", "id": 8409928852, "lat": 39.2874375, "lon": -103.0614229}, {"type": "node", "id": 8409928853, "lat": 39.28744, "lon": -103.0612905}, {"type": "node", "id": 8409928854, "lat": 39.2874725, "lon": -103.0612915}, {"type": "node", "id": 8409928861, "lat": 39.2866617, "lon": -103.0602681}, {"type": "node", "id": 8409928862, "lat": 39.2867042, "lon": -103.0599791}, {"type": "node", "id": 8409928863, "lat": 39.2867743, "lon": -103.0597412}, {"type": "node", "id": 8409928864, "lat": 39.2868818, "lon": -103.0595028}, {"type": "node", "id": 8409928865, "lat": 39.2869513, "lon": -103.0593403}, {"type": "node", "id": 8409928866, "lat": 39.2870913, "lon": -103.0593791}, {"type": "node", "id": 8409928867, "lat": 39.287219, "lon": -103.0594509}, {"type": "node", "id": 8409928868, "lat": 39.2873123, "lon": -103.0595117}, {"type": "node", "id": 8409928869, "lat": 39.2873714, "lon": -103.0595798}, {"type": "node", "id": 8409928870, "lat": 39.2874138, "lon": -103.0596344}, {"type": "node", "id": 8409928871, "lat": 39.2874364, "lon": -103.0597441}, {"type": "node", "id": 8409928872, "lat": 39.2874472, "lon": -103.0604619}, {"type": "node", "id": 8409928873, "lat": 39.2874771, "lon": -103.0605988}, {"type": "node", "id": 8409928874, "lat": 39.2875056, "lon": -103.0607742}, {"type": "node", "id": 8409928875, "lat": 39.2875457, "lon": -103.0608943}, {"type": "node", "id": 8409928876, "lat": 39.2876785, "lon": -103.0610783}, {"type": "node", "id": 8409928877, "lat": 39.2878348, "lon": -103.0611202}, {"type": "node", "id": 8409928878, "lat": 39.287992, "lon": -103.06115}, {"type": "node", "id": 8409928879, "lat": 39.2880814, "lon": -103.0612394}, {"type": "node", "id": 8409928880, "lat": 39.2881564, "lon": -103.0613282}, {"type": "node", "id": 8409928881, "lat": 39.2881888, "lon": -103.0613529}, {"type": "node", "id": 8409928886, "lat": 39.2905479, "lon": -103.0651676}, {"type": "node", "id": 8409928887, "lat": 39.2904664, "lon": -103.0651661}, {"type": "node", "id": 8409928888, "lat": 39.2904673, "lon": -103.0650817}, {"type": "node", "id": 8409928889, "lat": 39.2904201, "lon": -103.0650808}, {"type": "node", "id": 8409928890, "lat": 39.2904224, "lon": -103.0648722}, {"type": "node", "id": 8409928891, "lat": 39.2903986, "lon": -103.0648717}, {"type": "node", "id": 8409928892, "lat": 39.2904003, "lon": -103.0647163}, {"type": "node", "id": 8409928893, "lat": 39.2907007, "lon": -103.0647217}, {"type": "node", "id": 8409928894, "lat": 39.2906983, "lon": -103.0649402}, {"type": "node", "id": 8409928895, "lat": 39.2906299, "lon": -103.064939}, {"type": "node", "id": 8409928896, "lat": 39.2906306, "lon": -103.0648712}, {"type": "node", "id": 8409928897, "lat": 39.2905369, "lon": -103.0648695}, {"type": "node", "id": 8409928898, "lat": 39.2905347, "lon": -103.0650758}, {"type": "node", "id": 8409928899, "lat": 39.2905489, "lon": -103.065076}, {"type": "node", "id": 8409961320, "lat": 39.2914836, "lon": -103.0675329}, {"type": "node", "id": 8409961321, "lat": 39.2913573, "lon": -103.0675308}, {"type": "node", "id": 8409961322, "lat": 39.2913617, "lon": -103.0670901}, {"type": "node", "id": 8409961323, "lat": 39.2914695, "lon": -103.0670919}, {"type": "node", "id": 8409961324, "lat": 39.2914693, "lon": -103.0671171}, {"type": "node", "id": 8409961325, "lat": 39.2914842, "lon": -103.0671186}, {"type": "node", "id": 8409961326, "lat": 39.291484, "lon": -103.067159}, {"type": "node", "id": 8409961329, "lat": 39.2914846, "lon": -103.0674306}, {"type": "node", "id": 8409961330, "lat": 39.2917527, "lon": -103.0676312}, {"type": "node", "id": 8409961331, "lat": 39.2917483, "lon": -103.0674989}, {"type": "node", "id": 8409961332, "lat": 39.2917438, "lon": -103.0670129}, {"type": "node", "id": 8409988307, "lat": 39.291585, "lon": -103.0673898}, {"type": "node", "id": 8409988308, "lat": 39.2914827, "lon": -103.0673888}, {"type": "node", "id": 8409988309, "lat": 39.2915866, "lon": -103.0671196}, {"type": "node", "id": 8409988310, "lat": 39.2916709, "lon": -103.0680476}, {"type": "node", "id": 8409988311, "lat": 39.2915899, "lon": -103.068045}, {"type": "node", "id": 8409988312, "lat": 39.2915945, "lon": -103.0678091}, {"type": "node", "id": 8409988313, "lat": 39.2916755, "lon": -103.0678117}, {"type": "node", "id": 8409988316, "lat": 39.2918009, "lon": -103.067755, "tags": {"addr:city": "Flagler", "addr:postcode": "80815", "addr:state": "CO", "addr:street": "Main Avenue", "amenity": "post_office", "name": "US Postal Service - Flagler Office", "operator": "United States Postal Service", "operator:short": "USPS", "operator:type": "public", "operator:website": "https://www.usps.com", "operator:wikidata": "Q668687", "operator:wikipedia": "en:United States Postal Service", "short_name": "USPS"}}, {"type": "node", "id": 8409991717, "lat": 39.2918716, "lon": -103.0677604, "tags": {"addr:city": "Flagler", "addr:housenumber": "317", "addr:postcode": "80815", "addr:state": "CO", "addr:street": "Main Avenue", "name": "Compass Financial", "office": "financial_advisor"}}, {"type": "node", "id": 10166984452, "lat": 39.2925324, "lon": -103.0678129, "tags": {"addr:city": "Flagler", "addr:housenumber": "401", "addr:postcode": "80815", "addr:state": "CO", "addr:street": "Main Avenue", "amenity": "cafe", "cuisine": "coffee_shop", "delivery": "no", "name": "Boho Brew", "opening_hours": "Mo-Fr 07:00-14:00, Sa 10:00-14:00", "outdoor_seating": "no", "phone": "+1-719-765-4009"}}, {"type": "way", "id": 350476567, "nodes": [3562349146, 3562349143, 3562349142, 3562349145, 3562349146], "tags": {"building": "yes", "building:levels": "1", "name": "NAPA Service Center", "shop": "car_repair"}}, {"type": "way", "id": 350479314, "nodes": [3562395367, 3562395361, 3562395360, 3562395366, 3562395367], "tags": {"addr:city": "Flagler", "addr:housenumber": "317", "addr:postcode": "80815", "addr:state": "CO", "addr:street": "East High Street", "amenity": "fuel", "brand": "Loaf 'N Jug", "brand:wikidata": "Q6663398", "layer": "1", "name": "Loaf 'N Jug", "self_service": "yes"}}, {"type": "way", "id": 350479315, "nodes": [3562395368, 3562395362, 3562395363, 3562395365, 3562395364, 3562395369, 3562395368], "tags": {"addr:city": "Flagler", "addr:housenumber": "317", "addr:postcode": "80815", "addr:state": "CO", "addr:street": "East High Street", "brand": "Loaf 'N Jug", "brand:wikidata": "Q6663398", "building": "yes", "name": "Loaf 'N Jug", "phone": "+1-719-765-4895", "shop": "convenience", "website": "https://loafnjug.com"}}, {"type": "way", "id": 466972425, "nodes": [4616689240, 4616689241, 4616689242, 4616689243, 4616689240], "tags": {"addr:city": "Flagler", "addr:housenumber": "329", "addr:postcode": "80815", "addr:state": "CO", "addr:street": "Main Avenue", "amenity": "bank", "atm": "yes", "building": "yes", "drive_through": "no", "name": "High Plains Bank", "opening_hours": "Mo-Fr 08:00-16:30", "phone": "+1-719-765-4000", "website": "https://www.highplainsbank.com"}}, {"type": "way", "id": 526509454, "nodes": [5119855018, 5119855017, 5119855016, 5119855015, 5119855018], "tags": {"addr:city": "Flagler", "addr:housenumber": "21", "addr:postcode": "80815", "addr:state": "CO", "addr:street": "South Ruffner Avenue", "building": "yes", "name": "Flagler U-Lock-It", "shop": "storage_rental"}}, {"type": "way", "id": 737055609, "nodes": [6900431817, 6900431818, 6900431819, 6900431820, 6900431821, 6900431822, 6900431817], "tags": {"addr:city": "Flagler", "addr:housenumber": "406", "addr:postcode": "80815", "addr:state": "CO", "addr:street": "Main Avenue", "amenity": "cinema", "building": "yes", "name": "Flagler Theatre", "screen": "1", "wikidata": "Q42385745"}}, {"type": "way", "id": 862877516, "nodes": [8038482043, 8038482044, 8038482045, 8038482046, 8038482043], "tags": {"amenity": "fire_station", "building": "yes", "name": "Flagler Rural Fire Protection DIstrict", "operator": "Flagler Rural Fire Protection District"}}, {"type": "way", "id": 905549286, "nodes": [8409525342, 8409525343, 8409525344, 8409525345, 8409525342], "tags": {"amenity": "shelter", "building": "yes", "operator": "Town of Flagler", "shelter_type": "picnic_shelter"}}, {"type": "way", "id": 905549419, "nodes": [8409501800, 8409501801, 8409501802, 8409501803, 8409501800], "tags": {"amenity": "toilets", "building": "yes"}}, {"type": "way", "id": 905550932, "nodes": [8409531936, 8409531937, 8409531938, 8409531939, 8409531936], "tags": {"amenity": "shelter", "building": "yes", "shelter_type": "picnic_shelter"}}, {"type": "way", "id": 905557840, "nodes": [7527405614, 8409583419, 8409583420, 7527405626, 8409583421, 8409583422, 8409583423, 7527405624, 7527405625, 7527405614], "tags": {"access": "customers", "amenity": "parking", "parking": "surface", "surface": "unpaved"}}, {"type": "way", "id": 905560821, "nodes": [8409620548, 8409620549, 8409620532, 8409620533, 8409620534, 8409620547, 8409620535, 8409620550, 8409620551, 8409620552, 8409620546, 8409620548], "tags": {"access": "customers", "amenity": "parking", "parking": "surface", "surface": "concrete"}}, {"type": "way", "id": 905568226, "nodes": [8409690052, 8409690055, 8409690056, 177294281, 177294280, 177302630, 8409690057, 8409690058, 8409690048, 8409690049, 8409690050, 8409690051, 8409690052], "tags": {"access": "customers", "amenity": "parking", "parking": "surface", "surface": "unpaved"}}, {"type": "way", "id": 905594233, "nodes": [8409928847, 8409928848, 8409928849, 8409928850, 8409928851, 8409928852, 8409928853, 8409928854, 8409928847], "tags": {"amenity": "restaurant", "building": "yes", "name": "Turner's I-70 Restaurant"}}, {"type": "way", "id": 905594235, "nodes": [8409566128, 8409566127, 8409566126, 8409928861, 8409928862, 8409928863, 8409928864, 8409928865, 8409928866, 8409928867, 8409928868, 8409928869, 8409928870, 8409928871, 8409928872, 8409928873, 8409928874, 8409928875, 8409542015, 8409928876, 8409928877, 8409928878, 8409928879, 8409928880, 8409928881, 177313990, 177301440, 8409566128], "tags": {"access": "permissive", "amenity": "parking", "parking": "surface", "surface": "unpaved"}}, {"type": "way", "id": 905594237, "nodes": [8409928886, 8409928887, 8409928888, 8409928889, 8409928890, 8409928891, 8409928892, 8409928893, 8409928894, 8409928895, 8409928896, 8409928897, 8409928898, 8409928899, 8409928886], "tags": {"addr:city": "Flagler", "addr:housenumber": "202", "addr:postcode": "80815", "addr:state": "CO", "addr:street": "East 2nd Street", "building": "yes", "government": "public_service", "name": "Town of Flagler Public Works", "office": "government"}}, {"type": "way", "id": 905596386, "nodes": [8409961320, 8409961321, 8409961322, 8409961323, 8409961324, 8409961325, 8409961326, 8409988308, 8409961329, 8409961320], "tags": {"addr:city": "Flagler", "addr:housenumber": "100", "addr:postcode": "80815", "addr:state": "CO", "addr:street": "East 3rd Street", "branch": "Flagler", "building": "yes", "check_date": "2024-10-03", "check_date:opening_hours": "2024-10-03", "name": "Stop & Shop Supermarket", "not:brand:wikidata": "Q3658429", "opening_hours": "Mo-Sa 07:30-18:30; Su 09:00-14:00", "phone": "+1 719-765-4529", "shop": "supermarket", "website": "https://flagler.stopnshopsuper.com/"}}, {"type": "way", "id": 905596387, "nodes": [8409961330, 8409961331, 8409961332, 2580371823, 177301455, 8409961330], "tags": {"access": "customers", "amenity": "parking", "parking": "surface", "surface": "unpaved"}}, {"type": "way", "id": 905599935, "nodes": [8409988307, 8409988308, 8409961326, 8409961325, 8409988309, 8409988307], "tags": {"addr:city": "Flagler", "addr:housenumber": "306", "addr:postcode": "80815", "addr:state": "CO", "addr:street": "Main Avenue", "amenity": "community_centre", "building": "yes", "name": "Flagler Senior Center"}}, {"type": "way", "id": 905599936, "nodes": [8409988310, 8409988311, 8409988312, 8409988313, 8409988310], "tags": {"addr:city": "Flagler", "addr:postcode": "80815", "addr:state": "CO", "addr:street": "Main Avenue", "amenity": "townhall", "building": "yes", "name": "Flagler Town Hall", "townhall:type": "city"}}]}