{"version": 0.6, "generator": "Overpass API 0.7.62.8 e802775f", "osm3s": {"timestamp_osm_base": "2025-11-30T00:15:37Z", "copyright": "The data included in this document is from www.openstreetmap.org. The data is made available under ODbL."}, "elements": [{"type": "node", "id": 2747470979, "lat": 33.8698841, "lon": -112.2878662}, {"type": "node", "id": 2747470981, "lat": 33.8701019, "lon": -112.2875917}, {"type": "node", "id": 2747470983, "lat": 33.8699939, "lon": -112.2874675}, {"type": "node", "id": 2747470985, "lat": 33.8699928, "lon": -112.2874191}, {"type": "node", "id": 2747470990, "lat": 33.8699229, "lon": -112.2874215}, {"type": "node", "id": 2747470991, "lat": 33.869924, "lon": -112.2874698}, {"type": "node", "id": 2747470995, "lat": 33.8698495, "lon": -112.2880725}, {"type": "node", "id": 2747470997, "lat": 33.8696515, "lon": -112.2878223}, {"type": "node", "id": 2747470998, "lat": 33.8696119, "lon": -112.2878678}, {"type": "node", "id": 2747471000, "lat": 33.86981, "lon": -112.2881179}, {"type": "node", "id": 2926906195, "lat": 33.8697406, "lon": -112.2877012}, {"type": "node", "id": 3076197081, "lat": 33.8670064, "lon": -112.2893885}, {"type": "node", "id": 3076197084, "lat": 33.8670318, "lon": -112.2894208}, {"type": "node", "id": 3076197085, "lat": 33.8670451, "lon": -112.2893443}, {"type": "node", "id": 3076197090, "lat": 33.8670705, "lon": -112.2893766}, {"type": "node", "id": 3076197160, "lat": 33.8739185, "lon": -112.292163}, {"type": "node", "id": 3076197178, "lat": 33.8740258, "lon": -112.2931865}, {"type": "node", "id": 3076197179, "lat": 33.8740343, "lon": -112.2931463}, {"type": "node", "id": 3076197182, "lat": 33.8740626, "lon": -112.2915521}, {"type": "node", "id": 3076197225, "lat": 33.8742376, "lon": -112.292418}, {"type": "node", "id": 3076197227, "lat": 33.8742457, "lon": -112.2932543}, {"type": "node", "id": 3076197230, "lat": 33.874247, "lon": -112.2922737}, {"type": "node", "id": 3076197237, "lat": 33.8742543, "lon": -112.293214}, {"type": "node", "id": 3076197245, "lat": 33.874268, "lon": -112.2922971}, {"type": "node", "id": 3076197274, "lat": 33.8743263, "lon": -112.293161}, {"type": "node", "id": 3076197279, "lat": 33.8743398, "lon": -112.2924553}, {"type": "node", "id": 3076197291, "lat": 33.8743567, "lon": -112.2930302}, {"type": "node", "id": 3076197299, "lat": 33.8743702, "lon": -112.2923344}, {"type": "node", "id": 3076197309, "lat": 33.8743805, "lon": -112.2931793}, {"type": "node", "id": 3076197311, "lat": 33.8743873, "lon": -112.2932546}, {"type": "node", "id": 3076197317, "lat": 33.874394, "lon": -112.2916689}, {"type": "node", "id": 3076197328, "lat": 33.874411, "lon": -112.2930485}, {"type": "node", "id": 3076197444, "lat": 33.8744291, "lon": -112.2933223}, {"type": "node", "id": 3076197448, "lat": 33.8744356, "lon": -112.2926158}, {"type": "node", "id": 3076197450, "lat": 33.8744385, "lon": -112.2932871}, {"type": "node", "id": 3076197456, "lat": 33.8744475, "lon": -112.2923473}, {"type": "node", "id": 3076197468, "lat": 33.8744669, "lon": -112.2929328}, {"type": "node", "id": 3076197471, "lat": 33.8744691, "lon": -112.2924723}, {"type": "node", "id": 3076197487, "lat": 33.8745032, "lon": -112.2926388}, {"type": "node", "id": 3076197488, "lat": 33.8745054, "lon": -112.293297}, {"type": "node", "id": 3076197491, "lat": 33.8745122, "lon": -112.2933543}, {"type": "node", "id": 3076197497, "lat": 33.8745214, "lon": -112.2932877}, {"type": "node", "id": 3076197498, "lat": 33.8745215, "lon": -112.2933191}, {"type": "node", "id": 3076197505, "lat": 33.8745368, "lon": -112.2924953}, {"type": "node", "id": 3076197511, "lat": 33.8745436, "lon": -112.2931993}, {"type": "node", "id": 3076197515, "lat": 33.8745542, "lon": -112.2932996}, {"type": "node", "id": 3076197530, "lat": 33.8745764, "lon": -112.2932113}, {"type": "node", "id": 3076197535, "lat": 33.874585, "lon": -112.2929752}, {"type": "node", "id": 3076197563, "lat": 33.8746848, "lon": -112.2913271}, {"type": "node", "id": 3076197569, "lat": 33.8746977, "lon": -112.2924318}, {"type": "node", "id": 3076197619, "lat": 33.8748558, "lon": -112.2924905}, {"type": "node", "id": 3076197658, "lat": 33.874935, "lon": -112.2914115}, {"type": "node", "id": 3076197722, "lat": 33.875074, "lon": -112.2925627}, {"type": "node", "id": 3076197730, "lat": 33.8750985, "lon": -112.2914706}, {"type": "node", "id": 3076197750, "lat": 33.8752065, "lon": -112.291006}, {"type": "node", "id": 3076197823, "lat": 33.8754264, "lon": -112.2910804}, {"type": "node", "id": 6202389826, "lat": 33.8751998, "lon": -112.292644}, {"type": "node", "id": 6202389827, "lat": 33.8757856, "lon": -112.2903301}, {"type": "node", "id": 6202389828, "lat": 33.8759813, "lon": -112.290402}, {"type": "node", "id": 6202389829, "lat": 33.8753956, "lon": -112.2927159}, {"type": "node", "id": 6202389872, "lat": 33.8785795, "lon": -112.3034117}, {"type": "node", "id": 6202389873, "lat": 33.8785456, "lon": -112.3034067}, {"type": "node", "id": 6202389874, "lat": 33.8785479, "lon": -112.3033867}, {"type": "node", "id": 6202389875, "lat": 33.8785818, "lon": -112.3033927}, {"type": "node", "id": 6202389876, "lat": 33.8786027, "lon": -112.3033957}, {"type": "node", "id": 6202389877, "lat": 33.8785214, "lon": -112.3033817}, {"type": "node", "id": 6202389878, "lat": 33.8785272, "lon": -112.3033327}, {"type": "node", "id": 6202389879, "lat": 33.8786085, "lon": -112.3033467}, {"type": "node", "id": 6204346735, "lat": 33.8636215, "lon": -112.3039698}, {"type": "node", "id": 6204346736, "lat": 33.863657, "lon": -112.3038798}, {"type": "node", "id": 6204346737, "lat": 33.8636911, "lon": -112.3038992}, {"type": "node", "id": 6204346738, "lat": 33.8636556, "lon": -112.3039893}, {"type": "node", "id": 8256064682, "lat": 33.8785105, "lon": -112.3030818}, {"type": "node", "id": 8256064683, "lat": 33.8785156, "lon": -112.3030404}, {"type": "node", "id": 8256064684, "lat": 33.8784824, "lon": -112.3030345}, {"type": "node", "id": 8256064685, "lat": 33.8784773, "lon": -112.3030758}, {"type": "node", "id": 8256064686, "lat": 33.8783335, "lon": -112.3030078}, {"type": "node", "id": 8256064687, "lat": 33.8783186, "lon": -112.3029722}, {"type": "node", "id": 8256064688, "lat": 33.8782874, "lon": -112.3029911}, {"type": "node", "id": 8256064689, "lat": 33.8783023, "lon": -112.3030267}, {"type": "node", "id": 8256064690, "lat": 33.8782157, "lon": -112.3033076}, {"type": "node", "id": 8256064691, "lat": 33.8782151, "lon": -112.3032667}, {"type": "node", "id": 8256064692, "lat": 33.8781794, "lon": -112.3032675}, {"type": "node", "id": 8256064693, "lat": 33.87818, "lon": -112.3033083}, {"type": "node", "id": 8256064694, "lat": 33.8788742, "lon": -112.3034473}, {"type": "node", "id": 8256064695, "lat": 33.8788472, "lon": -112.3034719}, {"type": "node", "id": 8256064696, "lat": 33.8788251, "lon": -112.3034366}, {"type": "node", "id": 8256064697, "lat": 33.878852, "lon": -112.3034121}, {"type": "way", "id": 269550541, "nodes": [2747470991, 2926906195, 2747470979, 2747470981, 2747470983, 2747470985, 2747470990, 2747470991], "tags": {"building": "yes"}}, {"type": "way", "id": 269550542, "nodes": [2747470995, 2747470997, 2747470998, 2747471000, 2747470995], "tags": {"building": "yes"}}, {"type": "way", "id": 303267836, "nodes": [3076197491, 3076197498, 3076197450, 3076197444, 3076197491], "tags": {"addr:city": "Peoria", "addr:country": "US", "addr:state": "AZ", "building": "yes", "layer": "5"}}, {"type": "way", "id": 303267838, "nodes": [3076197488, 3076197535, 3076197468, 3076197311, 3076197488], "tags": {"addr:city": "Peoria", "addr:country": "US", "addr:state": "AZ", "building": "yes", "layer": "5"}}, {"type": "way", "id": 303267839, "nodes": [3076197309, 3076197328, 3076197291, 3076197274, 3076197309], "tags": {"addr:city": "Peoria", "addr:country": "US", "addr:state": "AZ", "building": "yes", "layer": "5"}}, {"type": "way", "id": 303267841, "nodes": [3076197085, 3076197081, 3076197084, 3076197090, 3076197085], "tags": {"addr:city": "Peoria", "addr:country": "US", "addr:state": "AZ", "building": "yes", "layer": "4"}}, {"type": "way", "id": 303267842, "nodes": [3076197227, 3076197237, 3076197179, 3076197178, 3076197227], "tags": {"addr:city": "Phoenix", "addr:country": "US", "addr:state": "AZ", "building": "yes", "layer": "5"}}, {"type": "way", "id": 303267843, "nodes": [3076197230, 3076197317, 3076197182, 3076197160, 3076197230], "tags": {"addr:city": "Peoria", "addr:country": "US", "addr:state": "AZ", "building": "yes", "layer": "5"}}, {"type": "way", "id": 303267844, "nodes": [3076197456, 3076197569, 3076197658, 3076197563, 3076197456], "tags": {"addr:city": "Peoria", "addr:country": "US", "addr:state": "AZ", "building": "yes", "layer": "5"}}, {"type": "way", "id": 303267845, "nodes": [3076197245, 3076197225, 3076197279, 3076197299, 3076197245], "tags": {"addr:city": "Peoria", "addr:country": "US", "addr:state": "AZ", "building": "yes", "layer": "5"}}, {"type": "way", "id": 303267846, "nodes": [3076197487, 3076197505, 3076197471, 3076197448, 3076197487], "tags": {"addr:city": "Peoria", "addr:country": "US", "addr:state": "AZ", "building": "yes", "layer": "5"}}, {"type": "way", "id": 303267847, "nodes": [3076197511, 3076197497, 3076197515, 3076197530, 3076197511], "tags": {"addr:city": "Peoria", "addr:country": "US", "addr:state": "AZ", "building": "yes", "layer": "5"}}, {"type": "way", "id": 303267848, "nodes": [3076197619, 3076197722, 3076197823, 3076197750, 3076197730, 3076197619], "tags": {"addr:city": "Peoria", "addr:country": "US", "addr:state": "AZ", "building": "yes", "layer": "5"}}, {"type": "way", "id": 662523088, "nodes": [6202389829, 6202389828, 6202389827, 6202389826, 6202389829], "tags": {"building": "yes", "layer": "4", "man_made": "pier"}}, {"type": "way", "id": 662523102, "nodes": [6202389879, 6202389878, 6202389877, 6202389874, 6202389873, 6202389872, 6202389875, 6202389876, 6202389879], "tags": {"amenity": "toilets", "building": "yes", "toilets:disposal": "flush"}}, {"type": "way", "id": 662750091, "nodes": [6204346738, 6204346737, 6204346736, 6204346735, 6204346738], "tags": {"amenity": "toilets", "building": "yes"}}, {"type": "way", "id": 888006576, "nodes": [8256064682, 8256064683, 8256064684, 8256064685, 8256064682], "tags": {"amenity": "shelter", "building": "yes", "shelter_type": "picnic_shelter"}}, {"type": "way", "id": 888006577, "nodes": [8256064686, 8256064687, 8256064688, 8256064689, 8256064686], "tags": {"amenity": "shelter", "building": "yes", "shelter_type": "picnic_shelter"}}, {"type": "way", "id": 888006578, "nodes": [8256064690, 8256064691, 8256064692, 8256064693, 8256064690], "tags": {"amenity": "shelter", "building": "yes", "shelter_type": "picnic_shelter"}}, {"type": "way", "id": 888006579, "nodes": [8256064694, 8256064695, 8256064696, 8256064697, 8256064694], "tags": {"amenity": "shelter", "building": "yes", "shelter_type": "picnic_shelter"}}]}