{"version": 0.6, "generator": "Overpass API 0.7.62.8 e802775f", "osm3s": {"timestamp_osm_base": "2025-12-06T22:59:12Z", "copyright": "The data included in this document is from www.openstreetmap.org. The data is made available under ODbL."}, "elements": [{"type": "node", "id": 977669780, "lat": 48.3399779, "lon": -122.3471982, "tags": {"addr:city": "Conway", "addr:housenumber": "18444", "addr:postcode": "98238", "addr:street": "Spruce Street", "amenity": "restaurant", "name": "The Conway Muse", "website": "https://conwaymuse.com/"}}, {"type": "node", "id": 977670061, "lat": 48.3408123, "lon": -122.3469621}, {"type": "node", "id": 977670145, "lat": 48.3398015, "lon": -122.3471822, "tags": {"amenity": "theatre", "name": "Northwest Theatre Arts at the Conway Muse"}}, {"type": "node", "id": 1725718570, "lat": 48.3406153, "lon": -122.344146, "tags": {"name": "Curious Goods", "shop": "antiques"}}, {"type": "node", "id": 1750445959, "lat": 48.3406224, "lon": -122.343508, "tags": {"addr:city": "Conway", "addr:housenumber": "18611", "addr:postcode": "98238", "addr:state": "WA", "addr:street": "Main Street", "amenity": "pub", "name": "Conway Pub & Eatery"}}, {"type": "node", "id": 2197329546, "lat": 48.3408742, "lon": -122.341085, "tags": {"addr:city": "Conway", "addr:housenumber": "18707", "addr:postcode": "98238", "addr:state": "WA", "addr:street": "Main Street", "brand": "Shell", "brand:wikidata": "Q154950", "name": "Shell", "shop": "convenience"}}, {"type": "node", "id": 2637861137, "lat": 48.3414645, "lon": -122.3415868}, {"type": "node", "id": 2637861145, "lat": 48.3414694, "lon": -122.341126}, {"type": "node", "id": 2637861174, "lat": 48.3415412, "lon": -122.3411277}, {"type": "node", "id": 2637861175, "lat": 48.3415363, "lon": -122.3415885}, {"type": "node", "id": 3190402624, "lat": 48.3406017, "lon": -122.3412}, {"type": "node", "id": 3190402629, "lat": 48.3406174, "lon": -122.3415717}, {"type": "node", "id": 3190402631, "lat": 48.3406846, "lon": -122.3467351}, {"type": "node", "id": 3190402633, "lat": 48.3406868, "lon": -122.3469658}, {"type": "node", "id": 3190402638, "lat": 48.3407236, "lon": -122.3411883}, {"type": "node", "id": 3190402639, "lat": 48.3407283, "lon": -122.3412979}, {"type": "node", "id": 3190402642, "lat": 48.3407802, "lon": -122.3413754}, {"type": "node", "id": 3190402647, "lat": 48.3408114, "lon": -122.3467324}, {"type": "node", "id": 3190402648, "lat": 48.340811, "lon": -122.3467732}, {"type": "node", "id": 3190402649, "lat": 48.34085, "lon": -122.3413688}, {"type": "node", "id": 3190402650, "lat": 48.3408576, "lon": -122.3415488}, {"type": "node", "id": 3190402654, "lat": 48.3406599, "lon": -122.3410253}, {"type": "node", "id": 3190402657, "lat": 48.3409972, "lon": -122.3407491}, {"type": "node", "id": 3190402658, "lat": 48.3408756, "lon": -122.3415242}, {"type": "node", "id": 3190402659, "lat": 48.3409567, "lon": -122.3415039}, {"type": "node", "id": 3190402660, "lat": 48.3410554, "lon": -122.3409602}, {"type": "node", "id": 3190408261, "lat": 48.3410908, "lon": -122.3411695}, {"type": "node", "id": 3190408262, "lat": 48.3410936, "lon": -122.3412772}, {"type": "node", "id": 3190408263, "lat": 48.3411047, "lon": -122.3467645}, {"type": "node", "id": 3190408264, "lat": 48.3408132, "lon": -122.3469721}, {"type": "node", "id": 3190408265, "lat": 48.3411082, "lon": -122.3469641}, {"type": "node", "id": 3190408271, "lat": 48.3412539, "lon": -122.3403921}, {"type": "node", "id": 3190408272, "lat": 48.3412733, "lon": -122.341046}, {"type": "node", "id": 3190408273, "lat": 48.3413235, "lon": -122.3410872}, {"type": "node", "id": 3190408274, "lat": 48.3413702, "lon": -122.3403938}, {"type": "node", "id": 3190408275, "lat": 48.3414124, "lon": -122.3406324}, {"type": "node", "id": 3190408276, "lat": 48.3414181, "lon": -122.3409345}, {"type": "node", "id": 3190722744, "lat": 48.3408542, "lon": -122.3412962}, {"type": "node", "id": 3190722745, "lat": 48.3407865, "lon": -122.3412828}, {"type": "node", "id": 3190722746, "lat": 48.3407294, "lon": -122.3411326}, {"type": "node", "id": 3190722747, "lat": 48.3407419, "lon": -122.3412265}, {"type": "node", "id": 3190722748, "lat": 48.3406652, "lon": -122.3411112}, {"type": "node", "id": 3190722749, "lat": 48.3407401, "lon": -122.3410173}, {"type": "node", "id": 3735261282, "lat": 48.3413031, "lon": -122.341608}, {"type": "node", "id": 3735261283, "lat": 48.3413043, "lon": -122.3414893}, {"type": "node", "id": 3735261285, "lat": 48.3413567, "lon": -122.3414905}, {"type": "node", "id": 3735261286, "lat": 48.3415333, "lon": -122.3409386, "tags": {"name": "Skagit Barn", "shop": "convenience"}}, {"type": "node", "id": 3887467145, "lat": 48.3416797, "lon": -122.3405884, "tags": {"addr:city": "Conway", "addr:housenumber": "18729", "addr:postcode": "98273", "addr:street": "Fir Island Road", "addr:unit": "STE C", "name": "211", "shop": "medical_supply"}}, {"type": "node", "id": 4842360549, "lat": 48.3414449, "lon": -122.3504915}, {"type": "node", "id": 4842360550, "lat": 48.3420045, "lon": -122.3497901}, {"type": "node", "id": 4842360551, "lat": 48.3418583, "lon": -122.3508093}, {"type": "node", "id": 4842360552, "lat": 48.3416907, "lon": -122.3507128}, {"type": "node", "id": 4842360553, "lat": 48.3414946, "lon": -122.3505519}, {"type": "node", "id": 4842360554, "lat": 48.3414019, "lon": -122.3504392}, {"type": "node", "id": 4842360555, "lat": 48.341163, "lon": -122.3502944}, {"type": "node", "id": 4842360556, "lat": 48.341163, "lon": -122.3500154}, {"type": "node", "id": 4842360557, "lat": 48.3412307, "lon": -122.3499779}, {"type": "node", "id": 4842360558, "lat": 48.3413983, "lon": -122.3498652}, {"type": "node", "id": 4842360559, "lat": 48.3413912, "lon": -122.3495165}, {"type": "node", "id": 4842360560, "lat": 48.3416372, "lon": -122.349318}, {"type": "node", "id": 4842360561, "lat": 48.3417228, "lon": -122.3492966}, {"type": "node", "id": 4842360562, "lat": 48.341926, "lon": -122.3495272}, {"type": "node", "id": 4842360563, "lat": 48.3420081, "lon": -122.3496935}, {"type": "node", "id": 5688507991, "lat": 48.3403184, "lon": -122.343106, "tags": {"addr:city": "Conway", "addr:housenumber": "18620", "addr:postcode": "98238", "addr:street": "Main Street", "amenity": "post_office", "name": "Conway Post Office", "opening_hours": "Mo-Fr 10:00-13:00,13:30-16:30", "operator": "United States Postal Service", "operator:short": "USPS", "operator:type": "public", "operator:website": "https://www.usps.com", "operator:wikidata": "Q668687", "operator:wikipedia": "en:United States Postal Service", "short_name": "USPS"}}, {"type": "node", "id": 8765491443, "lat": 48.3414839, "lon": -122.3409726, "tags": {"amenity": "cafe", "cuisine": "mexican", "name": "Taqueria Corazon Nayarita"}}, {"type": "node", "id": 9515083974, "lat": 48.3410222, "lon": -122.3414849}, {"type": "node", "id": 9515083975, "lat": 48.3410222, "lon": -122.3414165}, {"type": "node", "id": 9515083976, "lat": 48.3410578, "lon": -122.3414165}, {"type": "node", "id": 9515083977, "lat": 48.3410578, "lon": -122.3414849}, {"type": "node", "id": 9515083978, "lat": 48.3409419, "lon": -122.3413045}, {"type": "node", "id": 9517162864, "lat": 48.3413554, "lon": -122.341609}, {"type": "node", "id": 9784300318, "lat": 48.3403065, "lon": -122.343673, "tags": {"addr:city": "Mount Vernon", "addr:housenumber": "18600", "addr:postcode": "98273", "addr:street": "Main Street", "name": "The Olive Branch Esthetics", "shop": "beauty"}}, {"type": "node", "id": 10115810885, "lat": 48.3416259, "lon": -122.3420239}, {"type": "node", "id": 10115810886, "lat": 48.3415938, "lon": -122.3420954}, {"type": "node", "id": 10115810887, "lat": 48.3414928, "lon": -122.3421526}, {"type": "node", "id": 10115810888, "lat": 48.3414333, "lon": -122.3421616}, {"type": "node", "id": 10115810889, "lat": 48.3413834, "lon": -122.3421276}, {"type": "node", "id": 10115810890, "lat": 48.341362, "lon": -122.3420954}, {"type": "node", "id": 10115810891, "lat": 48.3413442, "lon": -122.3420471}, {"type": "node", "id": 10115810892, "lat": 48.3413406, "lon": -122.3419184}, {"type": "node", "id": 10115810893, "lat": 48.3413489, "lon": -122.3418487}, {"type": "node", "id": 10115810894, "lat": 48.3413917, "lon": -122.3418111}, {"type": "node", "id": 10115810895, "lat": 48.3413894, "lon": -122.34177}, {"type": "node", "id": 10115810896, "lat": 48.3415237, "lon": -122.3417324}, {"type": "node", "id": 12376713984, "lat": 48.3414931, "lon": -122.3408529, "tags": {"amenity": "restaurant", "cuisine": "mexican", "name": "Juanas Taqueria Mexican Food"}}, {"type": "node", "id": 12628932208, "lat": 48.3402205, "lon": -122.3465812, "tags": {"amenity": "community_centre", "check_date": "2025-03-01", "community_centre": "club_home", "name": "Arcadian Public House"}}, {"type": "way", "id": 258429309, "nodes": [2637861175, 2637861174, 2637861145, 2637861137, 2637861175], "tags": {"amenity": "fuel", "brand": "Chevron", "brand:wikidata": "Q319642", "building": "roof", "check_date": "2025-03-01", "layer": "1", "name": "Super Duper Foods"}}, {"type": "way", "id": 313129299, "nodes": [3190408272, 3190408271, 3190408274, 3190408275, 3190408276, 3190408273, 3190408272], "tags": {"amenity": "parking", "parking": "surface"}}, {"type": "way", "id": 313129300, "nodes": [3190408262, 3190408261, 3190402660, 3190402657, 3190722749, 3190402654, 3190722748, 3190722746, 3190722747, 3190722745, 3190722744, 3190402658, 3190402659, 9515083978, 3190408262], "tags": {"amenity": "parking"}}, {"type": "way", "id": 313129301, "nodes": [3190408265, 3190408263, 3190402648, 3190402647, 3190402631, 3190402633, 977670061, 3190408264, 3190408265], "tags": {"addr:city": "Mount Vernon", "addr:housenumber": "21020", "addr:postcode": "98273", "addr:street": "Greenfield Street", "amenity": "fire_station", "building": "yes", "name": "Skagit County Fire District 3 Conway Fire Station"}}, {"type": "way", "id": 313129310, "nodes": [3190402650, 3190402649, 3190402642, 3190402639, 3190402638, 3190402624, 3190402629, 3190402650], "tags": {"addr:city": "Conway", "addr:housenumber": "18707", "addr:postcode": "98238", "addr:state": "WA", "addr:street": "Main Street", "building": "yes", "name": "Conway Foods", "shop": "convenience"}}, {"type": "way", "id": 369765881, "nodes": [9517162864, 3735261285, 3735261283, 3735261282, 9517162864], "tags": {"addr:city": "Conway", "addr:housenumber": "18729", "addr:postcode": "98273", "addr:street": "Fir Island Road", "amenity": "cafe", "building": "yes", "cuisine": "coffee_shop", "drive_through": "yes", "name": "Coffee Shack Co.", "outdoor_seating": "no", "shop": "coffee", "takeaway": "only"}}, {"type": "way", "id": 492188644, "nodes": [4842360550, 4842360551, 4842360552, 4842360553, 4842360549, 4842360554, 4842360555, 4842360556, 4842360557, 4842360558, 4842360559, 4842360560, 4842360561, 4842360562, 4842360563, 4842360550], "tags": {"amenity": "parking", "operator": "Skagit County", "parking": "surface", "surface": "gravel"}}, {"type": "way", "id": 1032720591, "nodes": [9515083977, 9515083976, 9515083975, 9515083974, 9515083977], "tags": {"addr:city": "Conway", "addr:housenumber": "18707", "addr:postcode": "98273", "addr:street": "Main Street", "amenity": "cafe", "building": "yes", "cuisine": "coffee_shop", "name": "Lulus Espresso - Conway", "operator": "Diedrich Espresso", "takeaway": "only"}}, {"type": "way", "id": 1105430060, "nodes": [10115810885, 10115810886, 10115810887, 10115810888, 10115810889, 10115810890, 10115810891, 10115810892, 10115810893, 10115810894, 10115810895, 10115810896, 10115810885], "tags": {"amenity": "parking"}}]}