{"version": 0.6, "generator": "Overpass API 0.7.62.8 e802775f", "osm3s": {"timestamp_osm_base": "2025-12-06T04:19:16Z", "copyright": "The data included in this document is from www.openstreetmap.org. The data is made available under ODbL."}, "elements": [{"type": "node", "id": 318162163, "lat": 45.6917226, "lon": -111.0318127, "tags": {"addr:city": "Bozeman", "addr:housenumber": "1203", "addr:postcode": "59715", "addr:state": "MT", "addr:street": "North Rouse Avenue", "amenity": "cafe", "cuisine": "coffee_shop", "internet_access": "wlan", "name": "The Daily Coffee Bar and Bakery", "opening_hours": "Mo-Fr 06:30-19:00", "phone": "+1 406-585-4574", "smoking": "no", "website": "https://dailycoffeeandeatery.com"}}, {"type": "node", "id": 2407532814, "lat": 45.6782863, "lon": -111.019695}, {"type": "node", "id": 2407532815, "lat": 45.6782871, "lon": -111.019463}, {"type": "node", "id": 2407532818, "lat": 45.6784099, "lon": -111.019695}, {"type": "node", "id": 2407532819, "lat": 45.6784107, "lon": -111.019464}, {"type": "node", "id": 2407532829, "lat": 45.6790131, "lon": -111.0189635}, {"type": "node", "id": 2407532832, "lat": 45.6791109, "lon": -111.0189008}, {"type": "node", "id": 2407532833, "lat": 45.6790851, "lon": -111.0192347}, {"type": "node", "id": 2407532834, "lat": 45.6791432, "lon": -111.019022}, {"type": "node", "id": 2407532835, "lat": 45.6791543, "lon": -111.0190158}, {"type": "node", "id": 2407532836, "lat": 45.6791969, "lon": -111.0191724}, {"type": "node", "id": 2756783907, "lat": 45.6790765, "lon": -111.0187747}, {"type": "node", "id": 2756783909, "lat": 45.6789741, "lon": -111.0188294}, {"type": "node", "id": 3956090945, "lat": 45.6779831, "lon": -111.0283074}, {"type": "node", "id": 3956090946, "lat": 45.6779865, "lon": -111.0280832}, {"type": "node", "id": 3956090947, "lat": 45.6783047, "lon": -111.0283798}, {"type": "node", "id": 3956090948, "lat": 45.6783057, "lon": -111.0283174}, {"type": "node", "id": 3956090949, "lat": 45.67864, "lon": -111.0283902}, {"type": "node", "id": 3956090950, "lat": 45.6786417, "lon": -111.0282831}, {"type": "node", "id": 3956091166, "lat": 45.6789004, "lon": -111.029694}, {"type": "node", "id": 3956091169, "lat": 45.6789044, "lon": -111.0293936}, {"type": "node", "id": 3956091174, "lat": 45.6789771, "lon": -111.0293956}, {"type": "node", "id": 3956091175, "lat": 45.6789782, "lon": -111.029315}, {"type": "node", "id": 3956091178, "lat": 45.6789972, "lon": -111.0266355}, {"type": "node", "id": 3956091179, "lat": 45.678998, "lon": -111.0264765}, {"type": "node", "id": 3956091192, "lat": 45.6790876, "lon": -111.0296992}, {"type": "node", "id": 3956091193, "lat": 45.6790907, "lon": -111.0294706}, {"type": "node", "id": 3956091211, "lat": 45.679219, "lon": -111.0283011}, {"type": "node", "id": 3956091212, "lat": 45.6792201, "lon": -111.0294742}, {"type": "node", "id": 3956091213, "lat": 45.6792217, "lon": -111.0281215}, {"type": "node", "id": 3956091214, "lat": 45.6792221, "lon": -111.0293217}, {"type": "node", "id": 3956091215, "lat": 45.6792242, "lon": -111.0266378}, {"type": "node", "id": 3956091216, "lat": 45.679225, "lon": -111.0264789}, {"type": "node", "id": 3956107067, "lat": 45.6795275, "lon": -111.0248463}, {"type": "node", "id": 3956107071, "lat": 45.6795296, "lon": -111.0251311}, {"type": "node", "id": 3956107081, "lat": 45.6795643, "lon": -111.0288951}, {"type": "node", "id": 3956107082, "lat": 45.6795653, "lon": -111.0286996}, {"type": "node", "id": 3956107084, "lat": 45.6795795, "lon": -111.0283881}, {"type": "node", "id": 3956107086, "lat": 45.6795888, "lon": -111.0275178}, {"type": "node", "id": 3956107087, "lat": 45.6795947, "lon": -111.0292273}, {"type": "node", "id": 3956107088, "lat": 45.6795964, "lon": -111.0288955}, {"type": "node", "id": 3956107092, "lat": 45.6796249, "lon": -111.0287538}, {"type": "node", "id": 3956107093, "lat": 45.6796251, "lon": -111.0287002}, {"type": "node", "id": 3956107094, "lat": 45.6796618, "lon": -111.0301007}, {"type": "node", "id": 3956107095, "lat": 45.6796678, "lon": -111.0296669}, {"type": "node", "id": 3956107096, "lat": 45.6797042, "lon": -111.0283909}, {"type": "node", "id": 3956107098, "lat": 45.6798655, "lon": -111.0248412}, {"type": "node", "id": 3956107099, "lat": 45.6797135, "lon": -111.0275206}, {"type": "node", "id": 3956107101, "lat": 45.6798677, "lon": -111.0251403}, {"type": "node", "id": 3956107104, "lat": 45.679783, "lon": -111.0287554}, {"type": "node", "id": 3956107105, "lat": 45.6797834, "lon": -111.0286786}, {"type": "node", "id": 3956107113, "lat": 45.6798257, "lon": -111.0292298}, {"type": "node", "id": 3956107114, "lat": 45.6798274, "lon": -111.0288979}, {"type": "node", "id": 3956107115, "lat": 45.6798277, "lon": -111.0288567}, {"type": "node", "id": 3956107122, "lat": 45.6798468, "lon": -111.0288569}, {"type": "node", "id": 3956107124, "lat": 45.6798477, "lon": -111.0286793}, {"type": "node", "id": 3956107131, "lat": 45.6798853, "lon": -111.030107}, {"type": "node", "id": 3956107132, "lat": 45.6798912, "lon": -111.0296731}, {"type": "node", "id": 3960854310, "lat": 45.6799527, "lon": -111.0295766}, {"type": "node", "id": 3960854312, "lat": 45.6799585, "lon": -111.0292135}, {"type": "node", "id": 3960854314, "lat": 45.6799642, "lon": -111.0288725}, {"type": "node", "id": 3960854315, "lat": 45.6799679, "lon": -111.0286681}, {"type": "node", "id": 3960854338, "lat": 45.6803205, "lon": -111.0295885}, {"type": "node", "id": 3960854339, "lat": 45.6803262, "lon": -111.0292254}, {"type": "node", "id": 3960854340, "lat": 45.6803366, "lon": -111.0288863}, {"type": "node", "id": 3960854341, "lat": 45.6803403, "lon": -111.0286818}, {"type": "node", "id": 3960854348, "lat": 45.6805335, "lon": -111.0284248}, {"type": "node", "id": 3960854349, "lat": 45.680534, "lon": -111.0281921}, {"type": "node", "id": 3960854352, "lat": 45.6806042, "lon": -111.0280933}, {"type": "node", "id": 3960854353, "lat": 45.6806063, "lon": -111.0277935}, {"type": "node", "id": 3960854354, "lat": 45.6806126, "lon": -111.0259224}, {"type": "node", "id": 3960854355, "lat": 45.6806354, "lon": -111.0260862}, {"type": "node", "id": 3960854356, "lat": 45.6806608, "lon": -111.0266534}, {"type": "node", "id": 3960854957, "lat": 45.6806619, "lon": -111.0268505}, {"type": "node", "id": 3960854958, "lat": 45.6807071, "lon": -111.0284256}, {"type": "node", "id": 3960854959, "lat": 45.6807076, "lon": -111.0281929}, {"type": "node", "id": 3960854962, "lat": 45.6807376, "lon": -111.0258867}, {"type": "node", "id": 3960854963, "lat": 45.6807604, "lon": -111.0260505}, {"type": "node", "id": 3960854964, "lat": 45.6807681, "lon": -111.0266522}, {"type": "node", "id": 3960854965, "lat": 45.6807692, "lon": -111.0268493}, {"type": "node", "id": 3960854966, "lat": 45.6808766, "lon": -111.026651}, {"type": "node", "id": 3960854967, "lat": 45.6808777, "lon": -111.0268481}, {"type": "node", "id": 3960854968, "lat": 45.6808821, "lon": -111.0280974}, {"type": "node", "id": 3960854969, "lat": 45.6808842, "lon": -111.0277976}, {"type": "node", "id": 3960854970, "lat": 45.6810062, "lon": -111.02895}, {"type": "node", "id": 3960854971, "lat": 45.6810062, "lon": -111.0287772}, {"type": "node", "id": 3960854972, "lat": 45.6810188, "lon": -111.0280232}, {"type": "node", "id": 3960854973, "lat": 45.6810198, "lon": -111.0277824}, {"type": "node", "id": 3960854974, "lat": 45.6811833, "lon": -111.0283892}, {"type": "node", "id": 3960854975, "lat": 45.6811848, "lon": -111.0280246}, {"type": "node", "id": 3960854976, "lat": 45.6812427, "lon": -111.0290632}, {"type": "node", "id": 3960854977, "lat": 45.6812427, "lon": -111.0287771}, {"type": "node", "id": 3960854978, "lat": 45.6813759, "lon": -111.0283909}, {"type": "node", "id": 3960854979, "lat": 45.6813774, "lon": -111.0280308}, {"type": "node", "id": 3960854980, "lat": 45.6814156, "lon": -111.0280312}, {"type": "node", "id": 3960854981, "lat": 45.6814167, "lon": -111.0277858}, {"type": "node", "id": 4274774764, "lat": 45.6795355, "lon": -111.0270709, "tags": {"addr:city": "Bozeman", "addr:housenumber": "777", "addr:postcode": "59715", "addr:state": "MT", "addr:street": "East Main Street", "amenity": "cafe", "cuisine": "coffee_shop", "internet_access": "yes", "name": "Cafe M", "opening_hours": "06:00-17:00", "smoking": "no"}}, {"type": "node", "id": 4274774766, "lat": 45.679602, "lon": -111.0264899, "tags": {"addr:city": "Bozeman", "addr:housenumber": "777", "addr:postcode": "59715", "addr:state": "MT", "addr:street": "East Main Street", "name": "Cowlicks, Haircuts for Kids", "opening_hours": "10:00-17:00", "shop": "hairdresser"}}, {"type": "node", "id": 4274798153, "lat": 45.6796041, "lon": -111.0232454, "tags": {"addr:city": "Bozeman", "addr:housenumber": "1007", "addr:postcode": "59715", "addr:state": "MT", "addr:street": "East Main Street", "name": "Locati Architects", "office": "architect"}}, {"type": "node", "id": 4274798154, "lat": 45.6795618, "lon": -111.0234191, "tags": {"addr:city": "Bozeman", "addr:housenumber": "1007", "addr:postcode": "59715", "addr:state": "MT", "addr:street": "East Main Street", "name": "Avitel", "shop": "electronics"}}, {"type": "node", "id": 4276037430, "lat": 45.6786123, "lon": -111.0182044}, {"type": "node", "id": 4276037431, "lat": 45.6787894, "lon": -111.0181021}, {"type": "node", "id": 4276037432, "lat": 45.6787572, "lon": -111.017988}, {"type": "node", "id": 4276037433, "lat": 45.6787382, "lon": -111.0179991}, {"type": "node", "id": 4276037434, "lat": 45.6787206, "lon": -111.0179367}, {"type": "node", "id": 4276037435, "lat": 45.6785626, "lon": -111.018028}, {"type": "node", "id": 4276037436, "lat": 45.6786077, "lon": -111.0177639}, {"type": "node", "id": 4276037437, "lat": 45.6785373, "lon": -111.0178071}, {"type": "node", "id": 4276037438, "lat": 45.6784874, "lon": -111.0176409}, {"type": "node", "id": 4276037439, "lat": 45.6785577, "lon": -111.0175976}, {"type": "node", "id": 4276037440, "lat": 45.6781691, "lon": -111.0167416}, {"type": "node", "id": 4276037441, "lat": 45.6782569, "lon": -111.0166816}, {"type": "node", "id": 4276037442, "lat": 45.6780948, "lon": -111.0161951}, {"type": "node", "id": 4276037443, "lat": 45.678007, "lon": -111.016255}, {"type": "node", "id": 4276188638, "lat": 45.6764661, "lon": -111.0170977}, {"type": "node", "id": 4276188639, "lat": 45.6765841, "lon": -111.0168596}, {"type": "node", "id": 4276188640, "lat": 45.676394, "lon": -111.0166667}, {"type": "node", "id": 4276188641, "lat": 45.676276, "lon": -111.0169047}, {"type": "node", "id": 4276188642, "lat": 45.6771968, "lon": -111.0172012}, {"type": "node", "id": 4276188643, "lat": 45.6768715, "lon": -111.0171228}, {"type": "node", "id": 4276188644, "lat": 45.6768323, "lon": -111.017456}, {"type": "node", "id": 4276188645, "lat": 45.6771576, "lon": -111.0175344}, {"type": "node", "id": 4276188646, "lat": 45.676589, "lon": -111.018416}, {"type": "node", "id": 4276188647, "lat": 45.6763718, "lon": -111.0185039}, {"type": "node", "id": 4276188648, "lat": 45.6763047, "lon": -111.0181643}, {"type": "node", "id": 4276188649, "lat": 45.6765219, "lon": -111.0180764}, {"type": "node", "id": 4276188669, "lat": 45.6762204, "lon": -111.0174505, "tags": {"addr:city": "Bozeman", "addr:housenumber": "205", "addr:postcode": "59715", "addr:state": "MT", "addr:street": "Haggerty Lane", "name": "Preservation Capital", "office": "financial"}}, {"type": "node", "id": 4276188670, "lat": 45.6761127, "lon": -111.017063, "tags": {"addr:city": "Bozeman", "addr:housenumber": "205", "addr:postcode": "59715", "addr:state": "MT", "addr:street": "Haggerty Lane", "name": "First Choice Home Health", "shop": "medical_supply"}}, {"type": "node", "id": 4276188679, "lat": 45.6762632, "lon": -111.0162939, "tags": {"addr:city": "Bozeman", "addr:housenumber": "215", "addr:postcode": "59715", "addr:state": "MT", "addr:street": "Haggerty Lane", "name": "Terrell's Office Machines", "shop": "electronics"}}, {"type": "node", "id": 4276188681, "lat": 45.673284, "lon": -111.0134752}, {"type": "node", "id": 4276188682, "lat": 45.6735217, "lon": -111.0132324}, {"type": "node", "id": 4286979462, "lat": 45.6713272, "lon": -111.0145124, "tags": {"addr:city": "Bozeman", "addr:housenumber": "1532", "addr:postcode": "59715", "addr:state": "MT", "addr:street": "Ellis Street", "amenity": "cafe", "cuisine": "sandwich", "name": "Off the Eatin' Path", "opening_hours": "07:00-15:00"}}, {"type": "node", "id": 4286979484, "lat": 45.6789286, "lon": -111.0213078, "tags": {"addr:city": "Bozeman", "addr:housenumber": "1122", "addr:postcode": "59715", "addr:state": "MT", "addr:street": "East Main Street", "name": "RAM Computer Services", "shop": "computer"}}, {"type": "node", "id": 4286979485, "lat": 45.6788279, "lon": -111.0208613, "tags": {"addr:city": "Bozeman", "addr:housenumber": "1128", "addr:postcode": "59715", "addr:state": "MT", "addr:street": "East Main Street", "name": "Splashlab Social LLC", "office": "company"}}, {"type": "node", "id": 4286979486, "lat": 45.6788179, "lon": -111.0213126, "tags": {"addr:city": "Bozeman", "addr:housenumber": "1128", "addr:postcode": "59715", "addr:state": "MT", "addr:street": "East Main Street", "name": "Sarah B Fricke PC", "office": "lawyer"}}, {"type": "node", "id": 4286979510, "lat": 45.6788883, "lon": -111.0225201, "tags": {"addr:city": "Bozeman", "addr:housenumber": "1050", "addr:postcode": "59715", "addr:state": "MT", "addr:street": "East Main Street", "name": "Big Sky Journal", "office": "company"}}, {"type": "node", "id": 4797188846, "lat": 45.6988638, "lon": -111.0318062}, {"type": "node", "id": 4797188847, "lat": 45.6988652, "lon": -111.0320627}, {"type": "node", "id": 4797188848, "lat": 45.6987247, "lon": -111.0320643}, {"type": "node", "id": 4797188850, "lat": 45.6991401, "lon": -111.0318003}, {"type": "node", "id": 4797188851, "lat": 45.6991453, "lon": -111.0321918}, {"type": "node", "id": 4797188852, "lat": 45.6990179, "lon": -111.0321952}, {"type": "node", "id": 4797301596, "lat": 45.692837, "lon": -111.0325622}, {"type": "node", "id": 4797301597, "lat": 45.6928383, "lon": -111.0328931}, {"type": "node", "id": 4797301598, "lat": 45.6926211, "lon": -111.0329464}, {"type": "node", "id": 4797301599, "lat": 45.6926196, "lon": -111.0325639}, {"type": "node", "id": 5379929275, "lat": 45.6878062, "lon": -111.026411, "tags": {"shop": "motorcycle"}}, {"type": "node", "id": 5409042760, "lat": 45.6796653, "lon": -111.025129}, {"type": "node", "id": 5409042761, "lat": 45.679665, "lon": -111.0250914}, {"type": "node", "id": 5409042762, "lat": 45.6797968, "lon": -111.0250894}, {"type": "node", "id": 5409042763, "lat": 45.6797972, "lon": -111.0251413}, {"type": "node", "id": 5409042819, "lat": 45.6781765, "lon": -111.0163624}, {"type": "node", "id": 5409042820, "lat": 45.678301, "lon": -111.0167728}, {"type": "node", "id": 5409043721, "lat": 45.6784841, "lon": -111.016659}, {"type": "node", "id": 5409043722, "lat": 45.6783596, "lon": -111.0162486}, {"type": "node", "id": 5499495842, "lat": 45.6933573, "lon": -111.0282084}, {"type": "node", "id": 5499495843, "lat": 45.6934436, "lon": -111.0285239}, {"type": "node", "id": 5499495844, "lat": 45.6935433, "lon": -111.028468}, {"type": "node", "id": 5499495846, "lat": 45.6935936, "lon": -111.0285472}, {"type": "node", "id": 5499495847, "lat": 45.6934467, "lon": -111.0286859}, {"type": "node", "id": 5499495848, "lat": 45.6935165, "lon": -111.0288375}, {"type": "node", "id": 5502263161, "lat": 45.6927694, "lon": -111.0329452}, {"type": "node", "id": 5502263162, "lat": 45.6927692, "lon": -111.0328936}, {"type": "node", "id": 6848650333, "lat": 45.6730849, "lon": -111.0130759}, {"type": "node", "id": 6848650334, "lat": 45.6733226, "lon": -111.0128331}, {"type": "node", "id": 6917323937, "lat": 45.6810725, "lon": -111.0290633}, {"type": "node", "id": 6917323938, "lat": 45.6810724, "lon": -111.02895}, {"type": "node", "id": 7823641044, "lat": 45.6799875, "lon": -111.0292643, "tags": {"addr:city": "Bozeman", "addr:housenumber": "225", "addr:postcode": "59715", "addr:state": "MT", "addr:street": "East Mendenhall Street", "name": "Big Sky Youth Empowerment", "office": "association", "phone": "+1-4065519660", "website": "https://www.byep.org"}}, {"type": "node", "id": 8223126423, "lat": 45.6773208, "lon": -111.0186796}, {"type": "node", "id": 8223126424, "lat": 45.6773271, "lon": -111.0181846}, {"type": "node", "id": 8223126425, "lat": 45.6772797, "lon": -111.0181836}, {"type": "node", "id": 8223126426, "lat": 45.6772805, "lon": -111.0181186}, {"type": "node", "id": 8223126427, "lat": 45.6771583, "lon": -111.0181156}, {"type": "node", "id": 8223126428, "lat": 45.6771594, "lon": -111.0180286}, {"type": "node", "id": 8223126429, "lat": 45.677049, "lon": -111.0180256}, {"type": "node", "id": 8223126430, "lat": 45.677048, "lon": -111.0181026}, {"type": "node", "id": 8223126431, "lat": 45.6769137, "lon": -111.0180996}, {"type": "node", "id": 8223126432, "lat": 45.6769113, "lon": -111.0182966}, {"type": "node", "id": 8223126433, "lat": 45.6768492, "lon": -111.0182946}, {"type": "node", "id": 8223126434, "lat": 45.6768483, "lon": -111.0183736}, {"type": "node", "id": 8223126435, "lat": 45.676867, "lon": -111.0183746}, {"type": "node", "id": 8223126436, "lat": 45.6768647, "lon": -111.0185536}, {"type": "node", "id": 8223126437, "lat": 45.6769022, "lon": -111.0185546}, {"type": "node", "id": 8223126438, "lat": 45.6769009, "lon": -111.0186606}, {"type": "node", "id": 8223126439, "lat": 45.6770231, "lon": -111.0186636}, {"type": "node", "id": 8223126440, "lat": 45.6770221, "lon": -111.0187486}, {"type": "node", "id": 8223126441, "lat": 45.6771132, "lon": -111.0187506}, {"type": "node", "id": 8223126442, "lat": 45.6771141, "lon": -111.0186746}, {"type": "node", "id": 8342887607, "lat": 45.699822, "lon": -111.032901}, {"type": "node", "id": 8342887608, "lat": 45.699702, "lon": -111.032901}, {"type": "node", "id": 8342887609, "lat": 45.699702, "lon": -111.032625}, {"type": "node", "id": 8343166116, "lat": 45.6725699, "lon": -111.0012484}, {"type": "node", "id": 8343166117, "lat": 45.6725408, "lon": -111.0011082}, {"type": "node", "id": 8343166118, "lat": 45.6724271, "lon": -111.0011563}, {"type": "node", "id": 8343166119, "lat": 45.6724392, "lon": -111.0012147}, {"type": "node", "id": 8343166120, "lat": 45.6721673, "lon": -111.0013298}, {"type": "node", "id": 8343166121, "lat": 45.672146, "lon": -111.001227}, {"type": "node", "id": 8343166122, "lat": 45.6720777, "lon": -111.0012559}, {"type": "node", "id": 8343166123, "lat": 45.6720233, "lon": -111.000993}, {"type": "node", "id": 8343166124, "lat": 45.6720667, "lon": -111.0009747}, {"type": "node", "id": 8343166125, "lat": 45.6720505, "lon": -111.0008966}, {"type": "node", "id": 8343166126, "lat": 45.6723691, "lon": -111.0007616}, {"type": "node", "id": 8343166127, "lat": 45.6723994, "lon": -111.0009078}, {"type": "node", "id": 8343166128, "lat": 45.6725027, "lon": -111.000864}, {"type": "node", "id": 8343166129, "lat": 45.6724736, "lon": -111.0007236}, {"type": "node", "id": 8343166130, "lat": 45.6726202, "lon": -111.0006614}, {"type": "node", "id": 8902384652, "lat": 45.7010799, "lon": -111.0346011, "tags": {"name": "NorthWestern Energy", "office": "energy_supplier"}}, {"type": "node", "id": 8902384668, "lat": 45.700483, "lon": -111.033071, "tags": {"addr:city": "Bozeman", "addr:housenumber": "2104", "addr:postcode": "59715", "addr:state": "MT", "addr:street": "Industrial Drive", "addr:unit": "A", "association": "ngo", "name": "Bozeman Bike Kitchen", "payment:cash": "yes", "payment:credit_cards": "yes", "payment:debit_cards": "yes", "service:bicycle:diy": "yes", "service:bicycle:parts": "yes", "service:bicycle:retail": "yes", "service:bicycle:sales": "yes", "service:bicycle:second_hand": "yes", "shop": "bicycle", "website": "https://www.bozemanbikekitchen.org/"}}, {"type": "node", "id": 9090608206, "lat": 45.6772245, "lon": -111.0286965, "tags": {"name": "JTech Communications", "office": "yes"}}, {"type": "node", "id": 9297850600, "lat": 45.6727279, "lon": -111.0011815}, {"type": "node", "id": 9297868758, "lat": 45.6712223, "lon": -110.9972649, "tags": {"name": "Fancy Flours", "shop": "bakery"}}, {"type": "node", "id": 9297868759, "lat": 45.671157, "lon": -110.9960113, "tags": {"name": "D & R Coffee Services", "shop": "coffee"}}, {"type": "node", "id": 9297868784, "lat": 45.6714512, "lon": -110.9954912, "tags": {"name": "Top Shelf Hockey", "shop": "sports"}}, {"type": "node", "id": 9297868787, "lat": 45.6714132, "lon": -110.99411, "tags": {"name": "Deeter Automotive Repair", "shop": "car_repair"}}, {"type": "node", "id": 9297868788, "lat": 45.6717407, "lon": -110.9943695, "tags": {"name": "Scrappers Hockey", "shop": "clothes"}}, {"type": "node", "id": 9297868789, "lat": 45.6713803, "lon": -110.9945681, "tags": {"name": "Bike Shack", "shop": "motorcycle_repair"}}, {"type": "node", "id": 9309662006, "lat": 45.6908556, "lon": -111.0326301}, {"type": "node", "id": 9309662007, "lat": 45.6907765, "lon": -111.0327653}, {"type": "node", "id": 9309662009, "lat": 45.690773, "lon": -111.0322342}, {"type": "node", "id": 9309662010, "lat": 45.6905115, "lon": -111.0322377}, {"type": "node", "id": 9309662011, "lat": 45.6905141, "lon": -111.0326383}, {"type": "node", "id": 9309662012, "lat": 45.6903001, "lon": -111.0326412}, {"type": "node", "id": 9309662013, "lat": 45.6902974, "lon": -111.0322381}, {"type": "node", "id": 9309662014, "lat": 45.6896883, "lon": -111.0322463}, {"type": "node", "id": 9309662015, "lat": 45.6896856, "lon": -111.0318428}, {"type": "node", "id": 9309662016, "lat": 45.6903528, "lon": -111.0318338}, {"type": "node", "id": 9309692217, "lat": 45.6903525, "lon": -111.0317868}, {"type": "node", "id": 9309692218, "lat": 45.6905432, "lon": -111.0317842}, {"type": "node", "id": 9309692219, "lat": 45.6905439, "lon": -111.0318915}, {"type": "node", "id": 9309692220, "lat": 45.6907544, "lon": -111.0318886}, {"type": "node", "id": 9309692221, "lat": 45.6907541, "lon": -111.0318386}, {"type": "node", "id": 9309692222, "lat": 45.6909024, "lon": -111.0318365}, {"type": "node", "id": 9309692224, "lat": 45.691033, "lon": -111.0321306}, {"type": "node", "id": 9309692225, "lat": 45.6910337, "lon": -111.032242}, {"type": "node", "id": 9309692226, "lat": 45.6909757, "lon": -111.0322428}, {"type": "node", "id": 10219130462, "lat": 45.6909044, "lon": -111.0321324}, {"type": "node", "id": 10258386556, "lat": 45.6938596, "lon": -111.0278972, "tags": {"addr:city": "Bozeman", "addr:housenumber": "1404", "addr:postcode": "59715", "addr:state": "MT", "addr:street": "Gold Avenue", "name": "Yellowstone Safari Company", "office": "guide", "phone": "+1 406-586-1155", "website": "https://www.yellowstonesafari.com/"}}, {"type": "node", "id": 10585041721, "lat": 45.6909783, "lon": -111.0326284}, {"type": "node", "id": 10766795455, "lat": 45.6940275, "lon": -111.0263801, "tags": {"name": "Barnard Construction Co. Inc.", "office": "yes"}}, {"type": "node", "id": 10766795456, "lat": 45.6938495, "lon": -111.0282091, "tags": {"name": "Rocky Mountain Embroidery", "shop": "sewing"}}, {"type": "node", "id": 10766795457, "lat": 45.6934569, "lon": -111.0281525}, {"type": "node", "id": 10766795458, "lat": 45.6936635, "lon": -111.0286988}, {"type": "node", "id": 10766795460, "lat": 45.6940387, "lon": -111.0293984, "tags": {"name": "Hidden Treasures Office Furniture", "shop": "stationery"}}, {"type": "node", "id": 10766795461, "lat": 45.6941344, "lon": -111.0283119, "tags": {"name": "Caravan Skis", "shop": "outdoor"}}, {"type": "node", "id": 10766795462, "lat": 45.6943062, "lon": -111.0281251, "tags": {"name": "CA Auto Repair", "shop": "car_repair"}}, {"type": "node", "id": 10766795463, "lat": 45.694341, "lon": -111.0291369, "tags": {"name": "Rising Sun Auto Repair", "shop": "car_repair"}}, {"type": "node", "id": 10766795466, "lat": 45.6952322, "lon": -111.0302921, "tags": {"name": "Montana Tow Truck Association", "shop": "car_repair"}}, {"type": "node", "id": 10766795468, "lat": 45.6957087, "lon": -111.0299472, "tags": {"name": "Hot Mama's Salsa", "shop": "supermarket"}}, {"type": "node", "id": 10766795469, "lat": 45.6957204, "lon": -111.0302205, "tags": {"clothes": "wedding", "name": "Poppy Bride", "shop": "clothes"}}, {"type": "node", "id": 10766795470, "lat": 45.6957343, "lon": -111.0305864, "tags": {"name": "Industrial Communications & Electronics of Bozeman, Inc.", "office": "telecommunication"}}, {"type": "node", "id": 10766795472, "lat": 45.6954478, "lon": -111.0302718, "tags": {"name": "AwlWorks", "shop": "leather"}}, {"type": "node", "id": 10766795474, "lat": 45.6966068, "lon": -111.0309443, "tags": {"name": "Rethink Thrift Inc.", "shop": "second_hand"}}, {"type": "node", "id": 10766795475, "lat": 45.6953456, "lon": -111.0318503, "tags": {"name": "OnSite Energy, Inc.", "office": "energy_supplier"}}, {"type": "node", "id": 10766795476, "lat": 45.6955674, "lon": -111.0321647, "tags": {"name": "Lone Peak Cannabis Company", "shop": "cannabis"}}, {"type": "node", "id": 10766795477, "lat": 45.6960958, "lon": -111.0317693, "tags": {"name": "A-1 Security Storage", "shop": "storage_rental"}}, {"type": "node", "id": 10766795480, "lat": 45.6987233, "lon": -111.0318078}, {"type": "node", "id": 10766795482, "lat": 45.6990127, "lon": -111.0318037}, {"type": "node", "id": 10766795483, "lat": 45.699822, "lon": -111.032625}, {"type": "node", "id": 10766795484, "lat": 45.6998837, "lon": -111.0342009, "tags": {"amenity": "cafe", "cuisine": "coffee_shop", "name": "The Bumble Bean Espresso Barn"}}, {"type": "node", "id": 10766795485, "lat": 45.6989813, "lon": -111.0303715, "tags": {"name": "Bozeman Mobile Truck Repair", "shop": "car_repair"}}, {"type": "node", "id": 10766795486, "lat": 45.7004556, "lon": -111.0312058, "tags": {"name": "Shih Tzu's & Giggles Grooming", "shop": "pet_grooming"}}, {"type": "node", "id": 10766795487, "lat": 45.7005665, "lon": -111.0309661, "tags": {"name": "Arcs Ski and Bike", "shop": "sports"}}, {"type": "node", "id": 10766806613, "lat": 45.7033593, "lon": -111.0234451, "tags": {"name": "AutoBody Experience", "shop": "car_repair"}}, {"type": "node", "id": 10766806619, "lat": 45.7033552, "lon": -111.0261859, "tags": {"addr:city": "Bozeman", "addr:housenumber": "851", "addr:postcode": "59715", "addr:state": "MT", "addr:street": "Bridger Drive", "name": "Bridger Bowl Ski Foundation", "office": "ngo"}}, {"type": "node", "id": 10766806620, "lat": 45.7034575, "lon": -111.0246127, "tags": {"name": "Haven Interior Design", "shop": "interior_decoration"}}, {"type": "node", "id": 10766806621, "lat": 45.7034645, "lon": -111.024767, "tags": {"name": "The Flower Bar", "shop": "florist"}}, {"type": "node", "id": 10766806623, "lat": 45.7034168, "lon": -111.0255104, "tags": {"name": "Stahly Engineering & Associates", "office": "yes"}}, {"type": "node", "id": 10766806628, "lat": 45.7029122, "lon": -111.0274734, "tags": {"addr:city": "Bozeman", "addr:housenumber": "703", "addr:postcode": "59715", "addr:state": "MT", "addr:street": "Bridger Drive", "name": "Archery Range and Supply", "shop": "sports"}}, {"type": "node", "id": 10766806629, "lat": 45.7023281, "lon": -111.0285153, "tags": {"amenity": "cafe", "name": "Ghost Town Coffee"}}, {"type": "node", "id": 10766806631, "lat": 45.702774, "lon": -111.0284413, "tags": {"name": "Rotech", "shop": "medical_supply"}}, {"type": "node", "id": 10766806632, "lat": 45.7034116, "lon": -111.0288156, "tags": {"name": "Advanced Level Auto Bozeman", "shop": "car_repair"}}, {"type": "node", "id": 10766806633, "lat": 45.7028076, "lon": -111.0296299, "tags": {"name": "Herbarium Supply Co", "shop": "yes"}}, {"type": "node", "id": 10766806634, "lat": 45.7033939, "lon": -111.0293466, "tags": {"name": "Neuralynx", "office": "it"}}, {"type": "node", "id": 10766806638, "lat": 45.7033762, "lon": -111.0302317, "tags": {"name": "Pursuit Cycles", "shop": "bicycle"}}, {"type": "node", "id": 10766806639, "lat": 45.703325, "lon": -111.0311295, "tags": {"name": "Resonon", "office": "yes"}}, {"type": "node", "id": 10766806641, "lat": 45.7024955, "lon": -111.0296333, "tags": {"name": "Bozeman Glass", "shop": "car_parts"}}, {"type": "node", "id": 10766806642, "lat": 45.7018237, "lon": -111.0294994, "tags": {"name": "General Distributing Co", "shop": "hardware"}}, {"type": "node", "id": 10766806645, "lat": 45.7015201, "lon": -111.0292683, "tags": {"name": "Zeke's Little Store", "shop": "convenience"}}, {"type": "node", "id": 10766806648, "lat": 45.7040232, "lon": -111.02167, "tags": {"name": "The Ice House", "shop": "wholesale"}}, {"type": "node", "id": 10766806649, "lat": 45.7044916, "lon": -111.0219229, "tags": {"name": "Natural Resources Conservation", "office": "government"}}, {"type": "node", "id": 11619677385, "lat": 45.6858719, "lon": -111.0280447, "tags": {"addr:city": "Bozeman", "addr:housenumber": "600", "addr:postcode": "59715", "addr:state": "MT", "addr:street": "North Wallace Avenue", "name": "The Wild Crumb", "shop": "bakery"}}, {"type": "node", "id": 11781069574, "lat": 45.6729494, "lon": -111.0024148}, {"type": "node", "id": 11781069575, "lat": 45.672934, "lon": -111.0023312}, {"type": "node", "id": 11781069576, "lat": 45.6727479, "lon": -111.0024126}, {"type": "node", "id": 11781069577, "lat": 45.6727064, "lon": -111.0022498}, {"type": "node", "id": 11781069578, "lat": 45.6724619, "lon": -111.0023554}, {"type": "node", "id": 11781069579, "lat": 45.6723804, "lon": -111.0020033}, {"type": "node", "id": 11781069580, "lat": 45.6729678, "lon": -111.0017392}, {"type": "node", "id": 11781069581, "lat": 45.6730201, "lon": -111.0018405}, {"type": "node", "id": 11781069582, "lat": 45.6730586, "lon": -111.0019527}, {"type": "node", "id": 11781069583, "lat": 45.6730801, "lon": -111.0020429}, {"type": "node", "id": 11781069584, "lat": 45.6730908, "lon": -111.0021552}, {"type": "node", "id": 11781069585, "lat": 45.6730955, "lon": -111.002219}, {"type": "node", "id": 11781069586, "lat": 45.6730924, "lon": -111.0023048}, {"type": "node", "id": 11781069587, "lat": 45.6730693, "lon": -111.002318}, {"type": "node", "id": 11781069588, "lat": 45.6730755, "lon": -111.0023576}, {"type": "node", "id": 12168984046, "lat": 45.6906535, "lon": -111.03189}, {"type": "node", "id": 12560727494, "lat": 45.6908565, "lon": -111.0327642}, {"type": "node", "id": 13152663375, "lat": 45.6795324, "lon": -111.0292922, "tags": {"addr:city": "Bozeman", "addr:housenumber": "233", "addr:postcode": "59715", "addr:state": "MT", "addr:street": "East Main Street", "addr:unit": "#400", "name": "HKM Employment Attorneys LLP", "office": "lawyer", "opening_hours": "Mo-Fr 08:00-18:00, Sa - Su 08:00-16:00", "phone": "+1-406-380-3800", "website": "https://www.hkm.com/bozeman"}}, {"type": "node", "id": 13249198533, "lat": 45.6858396, "lon": -111.0276965, "tags": {"addr:city": "Bozeman", "addr:housenumber": "609", "addr:postcode": "59715", "addr:state": "MT", "addr:street": "East Peach Street", "name": "Biome Slow Craft", "opening_hours": "Tu-Su 09:00-15:00", "phone": "+1-406-577-2121", "shop": "art", "website": "https://www.biomeslowcraft.com/"}}, {"type": "way", "id": 232402251, "nodes": [2407532818, 2407532814, 2407532815, 2407532819, 2407532818], "tags": {"addr:housenumber": "1210", "addr:state": "MT", "addr:street": "East Main Street", "building": "yes", "shop": "convenience"}}, {"type": "way", "id": 232402253, "nodes": [2407532833, 2407532836, 2407532835, 2407532834, 2407532832, 2407532829, 2407532833], "tags": {"addr:city": "Bozeman", "addr:country": "US", "addr:state": "MT", "building": "yes", "name": "Casey's Corner", "shop": "convenience", "source": "Bing 2011"}}, {"type": "way", "id": 270664875, "nodes": [2407532832, 2756783907, 2756783909, 2407532829, 2407532832], "tags": {"building": "yes", "name": "East Main Liquor", "shop": "alcohol"}}, {"type": "way", "id": 392380970, "nodes": [3956091179, 3956091178, 3956091215, 3956091216, 3956091179], "tags": {"addr:city": "Bozeman", "addr:housenumber": "702", "addr:state": "MT", "addr:street": "East Main Street", "building": "yes", "name": "East Main Trading Co.", "shop": "antiques"}}, {"type": "way", "id": 392380971, "nodes": [3956090946, 3956090945, 3956090948, 3956090947, 3956090949, 3956090950, 3956091211, 3956091213, 3956090946], "tags": {"addr:city": "Bozeman", "addr:housenumber": "608", "addr:state": "MT", "addr:street": "East Main Street", "building": "yes", "name": "Empire Building Materials", "shop": "hardware"}}, {"type": "way", "id": 392380976, "nodes": [3956091169, 3956091166, 3956091192, 3956091193, 3956091212, 3956091214, 3956091175, 3956091174, 3956091169], "tags": {"addr:city": "Bozeman", "addr:housenumber": "512", "addr:state": "MT", "addr:street": "East Main Street", "building": "yes", "name": "Tire O Rama", "shop": "car_parts"}}, {"type": "way", "id": 392383309, "nodes": [3956107094, 3956107095, 3956107132, 3956107131, 3956107094], "tags": {"addr:city": "Bozeman", "addr:housenumber": "14", "addr:state": "MT", "addr:street": "North Church Avenue", "amenity": "bar", "building": "yes", "name": "14 North"}}, {"type": "way", "id": 392383318, "nodes": [3956107086, 3956107084, 3956107096, 3956107099, 3956107086], "tags": {"addr:city": "Bozeman", "addr:housenumber": "611", "addr:postcode": "59715", "addr:state": "MT", "addr:street": "East Main Street", "amenity": "bar", "amenity_1": "restaurant", "brewery": "yes;various", "building": "yes", "cuisine": "burger;sandwich;barbecue;pasta", "name": "Montana Ale Works", "smoking": "outside"}}, {"type": "way", "id": 392383319, "nodes": [3956107114, 3956107088, 3956107087, 3956107113, 3956107114], "tags": {"addr:city": "Bozeman", "addr:state": "MT", "addr:street": "East Main Street", "building": "retail", "name": "Music Villa", "opening_hours": "Mo-Sa 10:00-18:00; Su 12:00-17:00", "shop": "musical_instrument"}}, {"type": "way", "id": 392383322, "nodes": [3956107082, 3956107081, 3956107088, 3956107114, 3956107115, 3956107122, 3956107124, 3956107105, 3956107104, 3956107092, 3956107093, 3956107082], "tags": {"addr:city": "Bozeman", "addr:housenumber": "549", "addr:state": "MT", "addr:street": "East Main Street", "building": "yes", "name": "The Paint Pot", "shop": "paint"}}, {"type": "way", "id": 392383323, "nodes": [3956107071, 3956107067, 3956107098, 3956107101, 5409042763, 5409042762, 5409042761, 5409042760, 3956107071], "tags": {"addr:city": "Bozeman", "addr:state": "MT", "brand": "Town Pump", "brand:wikidata": "Q7830004", "building": "yes", "name": "Town Pump", "shop": "convenience"}}, {"type": "way", "id": 392888950, "nodes": [3960854971, 3960854970, 6917323938, 6917323937, 3960854976, 3960854977, 3960854971], "tags": {"addr:city": "Bozeman", "addr:housenumber": "125", "addr:state": "MT", "addr:street": "North Wallace Avenue", "building": "yes", "name": "Eagle Tire", "shop": "tyres"}}, {"type": "way", "id": 392888952, "nodes": [3960854356, 3960854957, 3960854965, 3960854964, 3960854356], "tags": {"addr:city": "Bozeman", "addr:housenumber": "701", "addr:state": "MT", "addr:street": "East Mendenhall Street", "building": "yes", "name": "Hush", "shop": "beauty"}}, {"type": "way", "id": 392888953, "nodes": [3960854312, 3960854310, 3960854338, 3960854339, 3960854312], "tags": {"addr:city": "Bozeman", "addr:housenumber": "544", "addr:state": "MT", "addr:street": "East Mendenhall Street", "building": "yes", "name": "J&V Restaurant Supply and Design", "shop": "houseware"}}, {"type": "way", "id": 392888955, "nodes": [3960854353, 3960854352, 3960854968, 3960854969, 3960854353], "tags": {"addr:city": "Bozeman", "addr:state": "MT", "building": "yes", "name": "Simkins Hallin", "shop": "hardware"}}, {"type": "way", "id": 392888956, "nodes": [3960854349, 3960854348, 3960854958, 3960854959, 3960854349], "tags": {"addr:city": "Bozeman", "addr:state": "MT", "building": "yes", "name": "Simkins Hallin", "shop": "hardware"}}, {"type": "way", "id": 392888957, "nodes": [3960854972, 3960854975, 3960854974, 3960854978, 3960854979, 3960854980, 3960854981, 3960854973, 3960854972], "tags": {"addr:city": "Bozeman", "addr:housenumber": "610", "addr:state": "MT", "addr:street": "East Lamme Street", "building": "yes", "name": "Simkins Hallin", "shop": "hardware"}}, {"type": "way", "id": 392888958, "nodes": [3960854354, 3960854355, 3960854963, 3960854962, 3960854354], "tags": {"addr:city": "Bozeman", "addr:housenumber": "715", "addr:state": "MT", "addr:street": "East Mendenhall Street", "building": "yes", "name": "Tire World", "shop": "tyres"}}, {"type": "way", "id": 392888959, "nodes": [3960854964, 3960854965, 3960854967, 3960854966, 3960854964], "tags": {"addr:city": "Bozeman", "addr:state": "MT", "addr:street": "East Mendenhall Street", "building": "yes", "name": "Twenty6 Products", "shop": "bicycle"}}, {"type": "way", "id": 392888960, "nodes": [3960854315, 3960854314, 3960854340, 3960854341, 3960854315], "tags": {"addr:city": "Bozeman", "addr:housenumber": "548", "addr:state": "MT", "building": "yes", "name": "Western Plumbing Heating", "shop": "hardware"}}, {"type": "way", "id": 428514078, "nodes": [4276037430, 4276037431, 4276037432, 4276037433, 4276037434, 4276037435, 4276037430], "tags": {"addr:city": "Bozeman", "addr:housenumber": "1315", "addr:postcode": "59715", "addr:state": "MT", "addr:street": "East Main Street", "building": "yes", "name": "Family Outreach", "office": "ngo"}}, {"type": "way", "id": 428514079, "nodes": [4276037436, 4276037437, 4276037438, 4276037439, 4276037436], "tags": {"addr:city": "Bozeman", "addr:housenumber": "1325", "addr:postcode": "59715", "addr:state": "MT", "addr:street": "East Main Street", "building": "yes", "name": "East Main Ink", "shop": "tattoo"}}, {"type": "way", "id": 428514080, "nodes": [4276037440, 4276037441, 4276037442, 4276037443, 4276037440], "tags": {"addr:city": "Bozeman", "addr:housenumber": "1401", "addr:postcode": "59715", "addr:state": "MT", "addr:street": "East Main Street", "building": "yes", "name": "Auto Stop", "shop": "car_repair"}}, {"type": "way", "id": 428526234, "nodes": [4276188638, 4276188639, 4276188640, 4276188641, 4276188638], "tags": {"addr:city": "Bozeman", "addr:housenumber": "205", "addr:postcode": "59715", "addr:state": "MT", "addr:street": "Haggerty Lane", "building": "yes", "name": "Laser Cycle of Montana", "shop": "electronics"}}, {"type": "way", "id": 428526236, "nodes": [4276188642, 4276188643, 4276188644, 4276188645, 4276188642], "tags": {"addr:city": "Bozeman", "addr:housenumber": "203", "addr:postcode": "59715", "addr:state": "MT", "addr:street": "Haggerty Lane", "building": "yes", "name": "Kelley Create", "office": "it", "phone": "+1-405-586-3103", "website": "https://kelleycreate.com/locations/bozeman-montana/"}}, {"type": "way", "id": 428526238, "nodes": [4276188646, 4276188647, 4276188648, 4276188649, 4276188646], "tags": {"addr:city": "Bozeman", "addr:housenumber": "300", "addr:postcode": "59715", "addr:state": "MT", "addr:street": "Highland Boulevard", "building": "yes", "name": "Dahl Funeral & Cremation Service", "shop": "funeral_directors"}}, {"type": "way", "id": 428526244, "nodes": [6848650333, 4276188681, 4276188682, 6848650334, 6848650333], "tags": {"addr:city": "Bozeman", "addr:housenumber": "601", "addr:postcode": "59715", "addr:state": "MT", "addr:street": "Haggerty Lane", "building": "yes", "name": "Montana Water Courts", "office": "government", "opening_hours": "Mo-Fr 08:00-17:00", "website": "https://courts.mt.gov/courts/water"}}, {"type": "way", "id": 487208056, "nodes": [10766795480, 4797188848, 4797188847, 4797188846, 10766795480], "tags": {"addr:city": "Bozeman", "addr:housenumber": "2005", "addr:postcode": "59715", "addr:state": "MT", "addr:street": "North Rouse Avenue", "amenity": "bar", "building": "commercial", "name": "The Filling Station"}}, {"type": "way", "id": 487208057, "nodes": [10766795482, 4797188852, 4797188851, 4797188850, 10766795482], "tags": {"addr:city": "Bozeman", "addr:housenumber": "2013", "addr:postcode": "59715", "addr:state": "MT", "addr:street": "North Rouse Avenue", "building": "commercial", "name": "The Finer Detail MT", "shop": "car_repair"}}, {"type": "way", "id": 487219684, "nodes": [4797301599, 4797301598, 5502263161, 5502263162, 4797301597, 4797301596, 4797301599], "tags": {"addr:city": "Bozeman", "addr:housenumber": "1285", "addr:postcode": "59715", "addr:state": "MT", "addr:street": "North Rouse Avenue", "amenity": "restaurant", "building": "yes", "cuisine": "pizza;pasta;salad", "name": "Pizza Campania", "opening_hours": "Mo-Fr 11:00-21:00; Sa-Su 16:00-21:00", "outdoor_seating": "yes", "phone": "+1-406-404-1270", "smoking": "no", "website": "https://www.pizzacampania.net/"}}, {"type": "way", "id": 560890776, "nodes": [5409042819, 5409042820, 5409043721, 5409043722, 5409042819], "tags": {"building": "yes", "shop": "car_repair"}}, {"type": "way", "id": 572435236, "nodes": [10766795457, 5499495842, 5499495843, 5499495844, 10766795457], "tags": {"building": "yes", "name": "New Again Detailing", "shop": "car_repair"}}, {"type": "way", "id": 572435238, "nodes": [10766795458, 5499495846, 5499495847, 5499495848, 10766795458], "tags": {"building": "yes", "name": "Capelli's Salon", "shop": "beauty"}}, {"type": "way", "id": 884218076, "nodes": [8223126423, 8223126424, 8223126425, 8223126426, 8223126427, 8223126428, 8223126429, 8223126430, 8223126431, 8223126432, 8223126433, 8223126434, 8223126435, 8223126436, 8223126437, 8223126438, 8223126439, 8223126440, 8223126441, 8223126442, 8223126423], "tags": {"addr:city": "Bozeman", "addr:housenumber": "200", "addr:postcode": "59715", "addr:state": "MT", "addr:street": "Highland Boulevard", "building": "yes", "building:levels": "3", "name": "Town & Country", "opening_hours": "Mo-Su 07:00-22:00", "roof:shape": "flat", "shop": "supermarket"}}, {"type": "way", "id": 897669493, "nodes": [10766795483, 8342887607, 8342887608, 8342887609, 10766795483], "tags": {"building": "yes", "name": "Parkland, Story Distributing Co.", "shop": "fuel", "source": "microsoft/BuildingFootprints"}}, {"type": "way", "id": 897701446, "nodes": [9297850600, 8343166116, 8343166117, 8343166118, 8343166119, 8343166120, 8343166121, 8343166122, 8343166123, 8343166124, 8343166125, 8343166126, 8343166127, 8343166128, 8343166129, 8343166130, 9297850600], "tags": {"brand": "Audi", "brand:wikidata": "Q23317", "building": "yes", "name": "Audi", "shop": "car"}}, {"type": "way", "id": 1008996234, "nodes": [10585041721, 9309662006, 12560727494, 9309662007, 9309662009, 9309662010, 9309662011, 9309662012, 9309662013, 9309662014, 9309662015, 9309662016, 9309692217, 9309692218, 9309692219, 12168984046, 9309692220, 9309692221, 9309692222, 10219130462, 9309692224, 9309692225, 9309692226, 10585041721], "tags": {"building": "yes", "government": "public_service", "name": "Bozeman Public Saftey Center", "office": "government"}}, {"type": "way", "id": 1268448054, "nodes": [11781069588, 11781069574, 11781069575, 11781069576, 11781069577, 11781069578, 11781069579, 11781069580, 11781069581, 11781069582, 11781069583, 11781069584, 11781069585, 11781069586, 11781069587, 11781069588], "tags": {"brand": "Subaru", "brand:wikidata": "Q172741", "building": "yes", "name": "Gallatin Subaru", "shop": "car"}}]}