{"version": 0.6, "generator": "Overpass API 0.7.62.8 e802775f", "osm3s": {"timestamp_osm_base": "2025-12-07T01:24:25Z", "copyright": "The data included in this document is from www.openstreetmap.org. The data is made available under ODbL."}, "elements": [{"type": "node", "id": 6550640293, "lat": 48.0590855, "lon": -122.6945306}, {"type": "node", "id": 7840539368, "lat": 48.0381957, "lon": -122.6971867}, {"type": "node", "id": 7840539369, "lat": 48.0381975, "lon": -122.6970365}, {"type": "node", "id": 7840539370, "lat": 48.0381209, "lon": -122.6970345}, {"type": "node", "id": 7840539371, "lat": 48.0381191, "lon": -122.6971847}, {"type": "node", "id": 7840539372, "lat": 48.0389333, "lon": -122.6967019}, {"type": "node", "id": 7840539373, "lat": 48.0388293, "lon": -122.6967019}, {"type": "node", "id": 7840539374, "lat": 48.0388293, "lon": -122.6966241}, {"type": "node", "id": 7840539375, "lat": 48.0389333, "lon": -122.6966241}, {"type": "node", "id": 7840539376, "lat": 48.0388982, "lon": -122.6968318}, {"type": "node", "id": 7840539377, "lat": 48.0390005, "lon": -122.6968399}, {"type": "node", "id": 7840539378, "lat": 48.0389979, "lon": -122.6969138}, {"type": "node", "id": 7840539379, "lat": 48.0388956, "lon": -122.6969057}, {"type": "node", "id": 7840539380, "lat": 48.0385561, "lon": -122.6976885}, {"type": "node", "id": 7840539381, "lat": 48.0386781, "lon": -122.6978145}, {"type": "node", "id": 7840539382, "lat": 48.0386159, "lon": -122.6979491}, {"type": "node", "id": 7840539383, "lat": 48.0384939, "lon": -122.6978231}, {"type": "node", "id": 9473260979, "lat": 48.0430472, "lon": -122.6916723}, {"type": "node", "id": 9473261009, "lat": 48.0670852, "lon": -122.6909762, "tags": {"addr:city": "Nordland", "addr:country": "US", "addr:county": "Jefferson", "addr:housenumber": "660", "addr:postcode": "98358", "addr:state": "WA", "addr:street": "Schwartz Road", "source": "Jefferson County Washington Open Data Site"}}, {"type": "node", "id": 9473261174, "lat": 48.0620021, "lon": -122.6901607, "tags": {"addr:city": "Nordland", "addr:country": "US", "addr:county": "Jefferson", "addr:housenumber": "304", "addr:postcode": "98358", "addr:state": "WA", "addr:street": "Schwartz Road", "source": "Jefferson County Washington Open Data Site"}}, {"type": "node", "id": 9473261415, "lat": 48.0445617, "lon": -122.6925649, "tags": {"addr:city": "Nordland", "addr:country": "US", "addr:county": "Jefferson", "addr:housenumber": "6679", "addr:postcode": "98358", "addr:state": "WA", "addr:street": "Flagler Road", "source": "Jefferson County Washington Open Data Site"}}, {"type": "node", "id": 9473261467, "lat": 48.0647675, "lon": -122.691532, "tags": {"addr:city": "Nordland", "addr:country": "US", "addr:county": "Jefferson", "addr:housenumber": "511", "addr:postcode": "98358", "addr:state": "WA", "addr:street": "Schwartz Road", "source": "Jefferson County Washington Open Data Site"}}, {"type": "node", "id": 9473263659, "lat": 48.0532192, "lon": -122.6945588, "tags": {"addr:city": "Nordland", "addr:country": "US", "addr:county": "Jefferson", "addr:housenumber": "1411", "addr:postcode": "98358", "addr:state": "WA", "addr:street": "Griffith Point Road", "source": "Jefferson County Washington Open Data Site"}}, {"type": "node", "id": 9473264261, "lat": 48.0663447, "lon": -122.6913373, "tags": {"addr:city": "Nordland", "addr:country": "US", "addr:county": "Jefferson", "addr:housenumber": "611", "addr:postcode": "98358", "addr:state": "WA", "addr:street": "Schwartz Road", "source": "Jefferson County Washington Open Data Site"}}, {"type": "node", "id": 9473264784, "lat": 48.0677433, "lon": -122.7013338, "tags": {"addr:city": "Nordland", "addr:country": "US", "addr:county": "Jefferson", "addr:housenumber": "23", "addr:postcode": "98358", "addr:state": "WA", "addr:street": "Nolton Road", "source": "Jefferson County Washington Open Data Site"}}, {"type": "node", "id": 9473266589, "lat": 48.064475, "lon": -122.7020723, "tags": {"addr:city": "Nordland", "addr:country": "US", "addr:county": "Jefferson", "addr:housenumber": "8335", "addr:postcode": "98358", "addr:state": "WA", "addr:street": "Flagler Road", "source": "Jefferson County Washington Open Data Site"}}, {"type": "node", "id": 9473267327, "lat": 48.0693296, "lon": -122.7027199, "tags": {"addr:city": "Nordland", "addr:country": "US", "addr:county": "Jefferson", "addr:housenumber": "8693", "addr:postcode": "98358", "addr:state": "WA", "addr:street": "Flagler Road", "source": "Jefferson County Washington Open Data Site"}}, {"type": "node", "id": 9473267329, "lat": 48.0688737, "lon": -122.7023351, "tags": {"addr:city": "Nordland", "addr:country": "US", "addr:county": "Jefferson", "addr:housenumber": "8643", "addr:postcode": "98358", "addr:state": "WA", "addr:street": "Flagler Road", "source": "Jefferson County Washington Open Data Site"}}, {"type": "node", "id": 9473267356, "lat": 48.0683405, "lon": -122.7024078, "tags": {"addr:city": "Nordland", "addr:country": "US", "addr:county": "Jefferson", "addr:housenumber": "8595", "addr:postcode": "98358", "addr:state": "WA", "addr:street": "Flagler Road", "source": "Jefferson County Washington Open Data Site"}}, {"type": "node", "id": 9473267366, "lat": 48.0675371, "lon": -122.7025241, "tags": {"addr:city": "Nordland", "addr:country": "US", "addr:county": "Jefferson", "addr:housenumber": "8545", "addr:postcode": "98358", "addr:state": "WA", "addr:street": "Flagler Road", "source": "Jefferson County Washington Open Data Site"}}, {"type": "node", "id": 9473267370, "lat": 48.067437, "lon": -122.7023878, "tags": {"addr:city": "Nordland", "addr:country": "US", "addr:county": "Jefferson", "addr:housenumber": "8533", "addr:postcode": "98358", "addr:state": "WA", "addr:street": "Flagler Road", "source": "Jefferson County Washington Open Data Site"}}, {"type": "node", "id": 9473267429, "lat": 48.0666685, "lon": -122.7024455, "tags": {"addr:city": "Nordland", "addr:country": "US", "addr:county": "Jefferson", "addr:housenumber": "8485", "addr:postcode": "98358", "addr:state": "WA", "addr:street": "Flagler Road", "source": "Jefferson County Washington Open Data Site"}}, {"type": "node", "id": 9473267439, "lat": 48.0661216, "lon": -122.7022891, "tags": {"addr:city": "Nordland", "addr:country": "US", "addr:county": "Jefferson", "addr:housenumber": "8455", "addr:postcode": "98358", "addr:state": "WA", "addr:street": "Flagler Road", "source": "Jefferson County Washington Open Data Site"}}, {"type": "node", "id": 9473267451, "lat": 48.0658318, "lon": -122.7023027, "tags": {"addr:city": "Nordland", "addr:country": "US", "addr:county": "Jefferson", "addr:housenumber": "8417", "addr:postcode": "98358", "addr:state": "WA", "addr:street": "Flagler Road", "source": "Jefferson County Washington Open Data Site"}}, {"type": "node", "id": 9473267462, "lat": 48.0683682, "lon": -122.6933995, "tags": {"addr:city": "Nordland", "addr:country": "US", "addr:county": "Jefferson", "addr:housenumber": "728", "addr:postcode": "98358", "addr:state": "WA", "addr:street": "Schwartz Road", "source": "Jefferson County Washington Open Data Site"}}, {"type": "node", "id": 9473267504, "lat": 48.0649271, "lon": -122.7019644, "tags": {"addr:city": "Nordland", "addr:country": "US", "addr:county": "Jefferson", "addr:housenumber": "8359", "addr:postcode": "98358", "addr:state": "WA", "addr:street": "Flagler Road", "source": "Jefferson County Washington Open Data Site"}}, {"type": "node", "id": 9473267538, "lat": 48.0641958, "lon": -122.702044, "tags": {"addr:city": "Nordland", "addr:country": "US", "addr:county": "Jefferson", "addr:housenumber": "8327", "addr:postcode": "98358", "addr:state": "WA", "addr:street": "Flagler Road", "source": "Jefferson County Washington Open Data Site"}}, {"type": "node", "id": 9473267769, "lat": 48.0618792, "lon": -122.7001593, "tags": {"addr:city": "Nordland", "addr:country": "US", "addr:county": "Jefferson", "addr:housenumber": "8123", "addr:postcode": "98358", "addr:state": "WA", "addr:street": "Flagler Road", "source": "Jefferson County Washington Open Data Site"}}, {"type": "node", "id": 9473267883, "lat": 48.0688378, "lon": -122.6935652, "tags": {"addr:city": "Nordland", "addr:country": "US", "addr:county": "Jefferson", "addr:housenumber": "809", "addr:postcode": "98358", "addr:state": "WA", "addr:street": "Schwartz Road", "source": "Jefferson County Washington Open Data Site"}}, {"type": "node", "id": 9473268097, "lat": 48.0577475, "lon": -122.6895165, "tags": {"addr:city": "Nordland", "addr:country": "US", "addr:county": "Jefferson", "addr:housenumber": "7656", "addr:postcode": "98358", "addr:state": "WA", "addr:street": "Flagler Road", "source": "Jefferson County Washington Open Data Site"}}, {"type": "node", "id": 9473268202, "lat": 48.0554672, "lon": -122.6879656, "tags": {"addr:city": "Nordland", "addr:country": "US", "addr:county": "Jefferson", "addr:housenumber": "7466", "addr:postcode": "98358", "addr:state": "WA", "addr:street": "Flagler Road", "source": "Jefferson County Washington Open Data Site"}}, {"type": "node", "id": 9473268623, "lat": 48.068054, "lon": -122.7011681, "tags": {"addr:city": "Nordland", "addr:country": "US", "addr:county": "Jefferson", "addr:housenumber": "71", "addr:postcode": "98358", "addr:state": "WA", "addr:street": "Nolton Road", "source": "Jefferson County Washington Open Data Site"}}, {"type": "node", "id": 9473268752, "lat": 48.067804, "lon": -122.6913911, "tags": {"addr:city": "Nordland", "addr:country": "US", "addr:county": "Jefferson", "addr:housenumber": "701", "addr:postcode": "98358", "addr:state": "WA", "addr:street": "Schwartz Road", "source": "Jefferson County Washington Open Data Site"}}, {"type": "node", "id": 9473269197, "lat": 48.0394464, "lon": -122.6911378, "tags": {"addr:city": "Nordland", "addr:country": "US", "addr:county": "Jefferson", "addr:housenumber": "6382", "addr:postcode": "98358", "addr:state": "WA", "addr:street": "Flagler Road", "source": "Jefferson County Washington Open Data Site"}}, {"type": "node", "id": 9473269493, "lat": 48.0665426, "lon": -122.6909101, "tags": {"addr:city": "Nordland", "addr:country": "US", "addr:county": "Jefferson", "addr:housenumber": "610", "addr:postcode": "98358", "addr:state": "WA", "addr:street": "Schwartz Road", "source": "Jefferson County Washington Open Data Site"}}, {"type": "node", "id": 9473270241, "lat": 48.0653761, "lon": -122.6926276, "tags": {"addr:city": "Nordland", "addr:country": "US", "addr:county": "Jefferson", "addr:housenumber": "541", "addr:postcode": "98358", "addr:state": "WA", "addr:street": "Schwartz Road", "source": "Jefferson County Washington Open Data Site"}}, {"type": "node", "id": 9473270918, "lat": 48.0674194, "lon": -122.7001246, "tags": {"addr:city": "Nordland", "addr:country": "US", "addr:county": "Jefferson", "addr:housenumber": "50", "addr:postcode": "98358", "addr:state": "WA", "addr:street": "Nolton Road", "source": "Jefferson County Washington Open Data Site"}}, {"type": "node", "id": 9473271364, "lat": 48.0643027, "lon": -122.6920625, "tags": {"addr:city": "Nordland", "addr:country": "US", "addr:county": "Jefferson", "addr:housenumber": "461", "addr:postcode": "98358", "addr:state": "WA", "addr:street": "Schwartz Road", "source": "Jefferson County Washington Open Data Site"}}, {"type": "node", "id": 9473271529, "lat": 48.0656529, "lon": -122.6959871, "tags": {"addr:city": "Nordland", "addr:country": "US", "addr:county": "Jefferson", "addr:housenumber": "449", "addr:postcode": "98358", "addr:state": "WA", "addr:street": "Schwartz Road", "source": "Jefferson County Washington Open Data Site"}}, {"type": "node", "id": 9473274881, "lat": 48.0611315, "lon": -122.6889477, "tags": {"addr:city": "Nordland", "addr:country": "US", "addr:county": "Jefferson", "addr:housenumber": "250", "addr:postcode": "98358", "addr:state": "WA", "addr:street": "Schwartz Road", "source": "Jefferson County Washington Open Data Site"}}, {"type": "node", "id": 9473275552, "lat": 48.041715, "lon": -122.6978113, "tags": {"addr:city": "Nordland", "addr:country": "US", "addr:county": "Jefferson", "addr:housenumber": "223", "addr:postcode": "98358", "addr:state": "WA", "addr:street": "Griffith Point Road", "source": "Jefferson County Washington Open Data Site"}}, {"type": "node", "id": 9473276662, "lat": 48.067216, "lon": -122.6992375, "tags": {"addr:city": "Nordland", "addr:country": "US", "addr:county": "Jefferson", "addr:housenumber": "196", "addr:postcode": "98358", "addr:state": "WA", "addr:street": "Nolton Road", "source": "Jefferson County Washington Open Data Site"}}, {"type": "node", "id": 9473276839, "lat": 48.0686191, "lon": -122.6990288, "tags": {"addr:city": "Nordland", "addr:country": "US", "addr:county": "Jefferson", "addr:housenumber": "191", "addr:postcode": "98358", "addr:state": "WA", "addr:street": "Nolton Road", "source": "Jefferson County Washington Open Data Site"}}, {"type": "node", "id": 9473277279, "lat": 48.0673836, "lon": -122.6992141, "tags": {"addr:city": "Nordland", "addr:country": "US", "addr:county": "Jefferson", "addr:housenumber": "174", "addr:postcode": "98358", "addr:state": "WA", "addr:street": "Nolton Road", "source": "Jefferson County Washington Open Data Site"}}, {"type": "node", "id": 9473277363, "lat": 48.0679214, "lon": -122.6993802, "tags": {"addr:city": "Nordland", "addr:country": "US", "addr:county": "Jefferson", "addr:housenumber": "172", "addr:postcode": "98358", "addr:state": "WA", "addr:street": "Nolton Road", "source": "Jefferson County Washington Open Data Site"}}, {"type": "node", "id": 9473277547, "lat": 48.0688188, "lon": -122.7007187, "tags": {"addr:city": "Nordland", "addr:country": "US", "addr:county": "Jefferson", "addr:housenumber": "107", "addr:postcode": "98358", "addr:state": "WA", "addr:street": "Nolton Road", "source": "Jefferson County Washington Open Data Site"}}, {"type": "node", "id": 9473278603, "lat": 48.0525703, "lon": -122.6937907, "tags": {"addr:city": "Nordland", "addr:country": "US", "addr:county": "Jefferson", "addr:housenumber": "1461", "addr:postcode": "98358", "addr:state": "WA", "addr:street": "Griffith Point Road", "source": "Jefferson County Washington Open Data Site"}}, {"type": "node", "id": 9473279490, "lat": 48.0680854, "lon": -122.7004499, "tags": {"addr:city": "Nordland", "addr:country": "US", "addr:county": "Jefferson", "addr:housenumber": "130", "addr:postcode": "98358", "addr:state": "WA", "addr:street": "Nolton Road", "source": "Jefferson County Washington Open Data Site"}}, {"type": "node", "id": 9473279940, "lat": 48.0683004, "lon": -122.7005028, "tags": {"addr:city": "Nordland", "addr:country": "US", "addr:county": "Jefferson", "addr:housenumber": "121", "addr:postcode": "98358", "addr:state": "WA", "addr:street": "Nolton Road", "source": "Jefferson County Washington Open Data Site"}}, {"type": "node", "id": 9473280808, "lat": 48.0685455, "lon": -122.7004073, "tags": {"addr:city": "Nordland", "addr:country": "US", "addr:county": "Jefferson", "addr:housenumber": "109", "addr:postcode": "98358", "addr:state": "WA", "addr:street": "Nolton Road", "source": "Jefferson County Washington Open Data Site"}}, {"type": "node", "id": 9473280918, "lat": 48.0690727, "lon": -122.7011757, "tags": {"addr:city": "Nordland", "addr:country": "US", "addr:county": "Jefferson", "addr:housenumber": "105", "addr:postcode": "98358", "addr:state": "WA", "addr:street": "Nolton Road", "source": "Jefferson County Washington Open Data Site"}}, {"type": "node", "id": 10559741605, "lat": 48.0413478, "lon": -122.690504}, {"type": "node", "id": 10559741606, "lat": 48.0403499, "lon": -122.6876693}, {"type": "node", "id": 10559741607, "lat": 48.0403064, "lon": -122.687673}, {"type": "node", "id": 10559741608, "lat": 48.0403048, "lon": -122.6876246}, {"type": "node", "id": 10559764509, "lat": 48.0403483, "lon": -122.6876213}, {"type": "node", "id": 10559764510, "lat": 48.0404422, "lon": -122.6876612}, {"type": "node", "id": 10559764511, "lat": 48.0402638, "lon": -122.6876767}, {"type": "node", "id": 10559764512, "lat": 48.0402698, "lon": -122.6878325}, {"type": "node", "id": 10559764513, "lat": 48.0404482, "lon": -122.6878171}, {"type": "node", "id": 10559764526, "lat": 48.0403189, "lon": -122.6870242}, {"type": "node", "id": 10559764527, "lat": 48.0401467, "lon": -122.6870336}, {"type": "node", "id": 10559764528, "lat": 48.0401492, "lon": -122.6871358}, {"type": "node", "id": 10559764529, "lat": 48.0403214, "lon": -122.6871264}, {"type": "node", "id": 10559764530, "lat": 48.0401341, "lon": -122.6874444}, {"type": "node", "id": 10559764531, "lat": 48.0401296, "lon": -122.6873224}, {"type": "node", "id": 10559764532, "lat": 48.0401806, "lon": -122.6873182}, {"type": "node", "id": 10559764533, "lat": 48.0401851, "lon": -122.6874402}, {"type": "node", "id": 10559764534, "lat": 48.0399954, "lon": -122.6880024}, {"type": "node", "id": 10559764535, "lat": 48.0399335, "lon": -122.6879997}, {"type": "node", "id": 10559764536, "lat": 48.0399322, "lon": -122.6880679}, {"type": "node", "id": 10559764537, "lat": 48.0399941, "lon": -122.6880705}, {"type": "node", "id": 10559764538, "lat": 48.0400219, "lon": -122.6883981}, {"type": "node", "id": 10559764539, "lat": 48.0400129, "lon": -122.6881889}, {"type": "node", "id": 10559764540, "lat": 48.0400721, "lon": -122.6881832}, {"type": "node", "id": 10559764541, "lat": 48.0400811, "lon": -122.6883924}, {"type": "node", "id": 10559764542, "lat": 48.0418731, "lon": -122.6907162}, {"type": "node", "id": 10559764543, "lat": 48.041735, "lon": -122.6907242}, {"type": "node", "id": 10559764544, "lat": 48.0417363, "lon": -122.6907729}, {"type": "node", "id": 10559764545, "lat": 48.0418744, "lon": -122.6907648}, {"type": "node", "id": 10559764546, "lat": 48.0413842, "lon": -122.6905034}, {"type": "node", "id": 10559764547, "lat": 48.0413475, "lon": -122.6905386}, {"type": "node", "id": 10559764548, "lat": 48.0413845, "lon": -122.690538}, {"type": "node", "id": 10559764549, "lat": 48.0413474, "lon": -122.6905268}, {"type": "node", "id": 10559764550, "lat": 48.0413476, "lon": -122.690465}, {"type": "node", "id": 10559764551, "lat": 48.0413147, "lon": -122.6904655}, {"type": "node", "id": 10559764552, "lat": 48.0413151, "lon": -122.6905273}, {"type": "node", "id": 10559764553, "lat": 48.0412468, "lon": -122.6900151}, {"type": "node", "id": 10559764554, "lat": 48.0411231, "lon": -122.6900164}, {"type": "node", "id": 10559764555, "lat": 48.0411239, "lon": -122.6901841}, {"type": "node", "id": 10559764556, "lat": 48.0412476, "lon": -122.6901828}, {"type": "node", "id": 11848085445, "lat": 48.0704174, "lon": -122.7007191}, {"type": "node", "id": 11848085446, "lat": 48.0704156, "lon": -122.7009015}, {"type": "node", "id": 11848085447, "lat": 48.0703538, "lon": -122.7009001}, {"type": "node", "id": 11848085448, "lat": 48.0703556, "lon": -122.7007177}, {"type": "node", "id": 11848085454, "lat": 48.0680016, "lon": -122.7005282}, {"type": "node", "id": 11848085455, "lat": 48.068001, "lon": -122.7004316}, {"type": "node", "id": 11848085456, "lat": 48.0680351, "lon": -122.7004312}, {"type": "node", "id": 11848085457, "lat": 48.0680348, "lon": -122.7003817}, {"type": "node", "id": 11848085458, "lat": 48.068085, "lon": -122.7003811}, {"type": "node", "id": 11848085459, "lat": 48.0680858, "lon": -122.7005271}, {"type": "node", "id": 11848085460, "lat": 48.0677387, "lon": -122.6999557}, {"type": "node", "id": 11848085461, "lat": 48.0677814, "lon": -122.700212}, {"type": "node", "id": 11848085462, "lat": 48.0677097, "lon": -122.7002387}, {"type": "node", "id": 11848085463, "lat": 48.0676912, "lon": -122.7001276}, {"type": "node", "id": 11848085464, "lat": 48.0676684, "lon": -122.7001361}, {"type": "node", "id": 11848085465, "lat": 48.0676443, "lon": -122.699991}, {"type": "node", "id": 11848085466, "lat": 48.0673863, "lon": -122.7002496}, {"type": "node", "id": 11848085467, "lat": 48.0673687, "lon": -122.7001435}, {"type": "node", "id": 11848085468, "lat": 48.0674666, "lon": -122.700107}, {"type": "node", "id": 11848100475, "lat": 48.0426817, "lon": -122.6979597}, {"type": "node", "id": 11848100476, "lat": 48.0426005, "lon": -122.697975}, {"type": "node", "id": 11848100477, "lat": 48.0425758, "lon": -122.6976808}, {"type": "node", "id": 11848100478, "lat": 48.042688, "lon": -122.6976597}, {"type": "node", "id": 11848100479, "lat": 48.0426956, "lon": -122.6977495}, {"type": "node", "id": 11848100480, "lat": 48.0426645, "lon": -122.6977553}, {"type": "node", "id": 11848100481, "lat": 48.0430272, "lon": -122.6982551}, {"type": "node", "id": 11848100482, "lat": 48.0431559, "lon": -122.6983071}, {"type": "node", "id": 11848100483, "lat": 48.0431382, "lon": -122.6984046}, {"type": "node", "id": 11848100484, "lat": 48.0430714, "lon": -122.6983776}, {"type": "node", "id": 11848100485, "lat": 48.0430551, "lon": -122.6984675}, {"type": "node", "id": 11848100486, "lat": 48.0429933, "lon": -122.6984425}, {"type": "node", "id": 11848100487, "lat": 48.0539492, "lon": -122.6946637}, {"type": "node", "id": 11848100488, "lat": 48.0540365, "lon": -122.6947849}, {"type": "node", "id": 11848100489, "lat": 48.0539596, "lon": -122.6949088}, {"type": "node", "id": 11848100490, "lat": 48.0538723, "lon": -122.6947876}, {"type": "node", "id": 11848100491, "lat": 48.0531724, "lon": -122.6945306}, {"type": "node", "id": 11848100492, "lat": 48.0532187, "lon": -122.6943586}, {"type": "node", "id": 11848100493, "lat": 48.053394, "lon": -122.6944641}, {"type": "node", "id": 11848100494, "lat": 48.0533478, "lon": -122.6946362}, {"type": "node", "id": 11848100495, "lat": 48.0527396, "lon": -122.6944482}, {"type": "node", "id": 11848100496, "lat": 48.0526643, "lon": -122.6944306}, {"type": "node", "id": 11848100497, "lat": 48.0526863, "lon": -122.6942212}, {"type": "node", "id": 11848100498, "lat": 48.0527615, "lon": -122.6942388}, {"type": "node", "id": 11848100499, "lat": 48.0525268, "lon": -122.6936122}, {"type": "node", "id": 11848100500, "lat": 48.0526567, "lon": -122.6936485}, {"type": "node", "id": 11848100501, "lat": 48.0526366, "lon": -122.6938092}, {"type": "node", "id": 11848100502, "lat": 48.0525067, "lon": -122.6937729}, {"type": "node", "id": 11848100503, "lat": 48.0523426, "lon": -122.6938533}, {"type": "node", "id": 11848100504, "lat": 48.0522471, "lon": -122.6938108}, {"type": "node", "id": 11848100505, "lat": 48.0522782, "lon": -122.6936543}, {"type": "node", "id": 11848100506, "lat": 48.0524057, "lon": -122.693711}, {"type": "node", "id": 11848100507, "lat": 48.0523866, "lon": -122.6938071}, {"type": "node", "id": 11848100508, "lat": 48.0523546, "lon": -122.6937929}, {"type": "node", "id": 11848100509, "lat": 48.0522599, "lon": -122.6941863}, {"type": "node", "id": 11848100510, "lat": 48.0523222, "lon": -122.6942121}, {"type": "node", "id": 11848100511, "lat": 48.0522951, "lon": -122.6943578}, {"type": "node", "id": 11848100512, "lat": 48.0522329, "lon": -122.694332}, {"type": "node", "id": 11848100513, "lat": 48.0523175, "lon": -122.693883}, {"type": "node", "id": 11848100514, "lat": 48.0523564, "lon": -122.693965}, {"type": "node", "id": 11848100515, "lat": 48.0522975, "lon": -122.6940276}, {"type": "node", "id": 11848100516, "lat": 48.0522586, "lon": -122.6939455}, {"type": "node", "id": 11848100517, "lat": 48.0518928, "lon": -122.6936262}, {"type": "node", "id": 11848100518, "lat": 48.0518591, "lon": -122.6938706}, {"type": "node", "id": 11848100519, "lat": 48.0517869, "lon": -122.6938484}, {"type": "node", "id": 11848100520, "lat": 48.0518, "lon": -122.6937532}, {"type": "node", "id": 11848100521, "lat": 48.0517718, "lon": -122.6937445}, {"type": "node", "id": 11848100522, "lat": 48.0517778, "lon": -122.6937007}, {"type": "node", "id": 11848100523, "lat": 48.051696, "lon": -122.6936755}, {"type": "node", "id": 11848100524, "lat": 48.0517105, "lon": -122.69357}, {"type": "node", "id": 11848100525, "lat": 48.0517486, "lon": -122.6940872}, {"type": "node", "id": 11848100526, "lat": 48.0517631, "lon": -122.6939649}, {"type": "node", "id": 11848100527, "lat": 48.0518343, "lon": -122.6939838}, {"type": "node", "id": 11848100528, "lat": 48.0518199, "lon": -122.694106}, {"type": "node", "id": 11848100529, "lat": 48.0521471, "lon": -122.6934302}, {"type": "node", "id": 11848100530, "lat": 48.0521446, "lon": -122.693532}, {"type": "node", "id": 11848100531, "lat": 48.0520444, "lon": -122.6935265}, {"type": "node", "id": 11848100532, "lat": 48.0520468, "lon": -122.6934248}, {"type": "node", "id": 11848100533, "lat": 48.0515302, "lon": -122.6936876}, {"type": "node", "id": 11848100534, "lat": 48.0514584, "lon": -122.6936711}, {"type": "node", "id": 11848100535, "lat": 48.0514457, "lon": -122.6937955}, {"type": "node", "id": 11848100536, "lat": 48.0513388, "lon": -122.693771}, {"type": "node", "id": 11848100537, "lat": 48.0513505, "lon": -122.6936571}, {"type": "node", "id": 11848100538, "lat": 48.0514013, "lon": -122.6936687}, {"type": "node", "id": 11848100539, "lat": 48.0514186, "lon": -122.6934996}, {"type": "node", "id": 11848100540, "lat": 48.0515465, "lon": -122.6935289}, {"type": "node", "id": 11848100541, "lat": 48.050688, "lon": -122.6931034}, {"type": "node", "id": 11848100542, "lat": 48.0507091, "lon": -122.6929406}, {"type": "node", "id": 11848100543, "lat": 48.0508249, "lon": -122.6929741}, {"type": "node", "id": 11848100544, "lat": 48.0508038, "lon": -122.693137}, {"type": "node", "id": 11848100545, "lat": 48.0505261, "lon": -122.6934909}, {"type": "node", "id": 11848100546, "lat": 48.0505531, "lon": -122.6934972}, {"type": "node", "id": 11848100547, "lat": 48.0505577, "lon": -122.6934539}, {"type": "node", "id": 11848100548, "lat": 48.0506241, "lon": -122.6934697}, {"type": "node", "id": 11848100549, "lat": 48.0506011, "lon": -122.6936868}, {"type": "node", "id": 11848100550, "lat": 48.0505077, "lon": -122.6936647}, {"type": "node", "id": 11848100551, "lat": 48.05035, "lon": -122.6930487}, {"type": "node", "id": 11848100552, "lat": 48.0504819, "lon": -122.6930915}, {"type": "node", "id": 11848100553, "lat": 48.0504693, "lon": -122.6931786}, {"type": "node", "id": 11848100554, "lat": 48.050447, "lon": -122.6931714}, {"type": "node", "id": 11848100555, "lat": 48.0504277, "lon": -122.6933046}, {"type": "node", "id": 11848100556, "lat": 48.0503181, "lon": -122.6932691}, {"type": "node", "id": 11848100557, "lat": 48.0499673, "lon": -122.6932293}, {"type": "node", "id": 11848100558, "lat": 48.049986, "lon": -122.6930968}, {"type": "node", "id": 11848100559, "lat": 48.050033, "lon": -122.6931116}, {"type": "node", "id": 11848100560, "lat": 48.0500265, "lon": -122.6931579}, {"type": "node", "id": 11848100561, "lat": 48.0500986, "lon": -122.6931806}, {"type": "node", "id": 11848100562, "lat": 48.0501142, "lon": -122.6930702}, {"type": "node", "id": 11848100563, "lat": 48.0500232, "lon": -122.6930415}, {"type": "node", "id": 11848100564, "lat": 48.050041, "lon": -122.6929157}, {"type": "node", "id": 11848100565, "lat": 48.050156, "lon": -122.692952}, {"type": "node", "id": 11848100566, "lat": 48.0501512, "lon": -122.6929853}, {"type": "node", "id": 11848100567, "lat": 48.050201, "lon": -122.6930011}, {"type": "node", "id": 11848100568, "lat": 48.0501818, "lon": -122.6931372}, {"type": "node", "id": 11848130390, "lat": 48.073094, "lon": -122.6864692}, {"type": "node", "id": 11848130391, "lat": 48.0731243, "lon": -122.686245}, {"type": "node", "id": 11848130392, "lat": 48.073293, "lon": -122.6862961}, {"type": "node", "id": 11848130393, "lat": 48.0732627, "lon": -122.6865203}, {"type": "node", "id": 11848130394, "lat": 48.0728485, "lon": -122.6860663}, {"type": "node", "id": 11848130395, "lat": 48.0729678, "lon": -122.6860927}, {"type": "node", "id": 11848130396, "lat": 48.0729538, "lon": -122.6862344}, {"type": "node", "id": 11848130397, "lat": 48.0728345, "lon": -122.686208}, {"type": "node", "id": 11848130398, "lat": 48.0719736, "lon": -122.6865278}, {"type": "node", "id": 11848130399, "lat": 48.0720675, "lon": -122.686486}, {"type": "node", "id": 11848130400, "lat": 48.0720626, "lon": -122.6864614}, {"type": "node", "id": 11848130401, "lat": 48.0721383, "lon": -122.6864277}, {"type": "node", "id": 11848130402, "lat": 48.0721442, "lon": -122.6864573}, {"type": "node", "id": 11848130403, "lat": 48.072192, "lon": -122.6864361}, {"type": "node", "id": 11848130404, "lat": 48.0722281, "lon": -122.6866185}, {"type": "node", "id": 11848130405, "lat": 48.0722677, "lon": -122.686601}, {"type": "node", "id": 11848130406, "lat": 48.0722892, "lon": -122.6867094}, {"type": "node", "id": 11848130407, "lat": 48.0722497, "lon": -122.686727}, {"type": "node", "id": 11848130408, "lat": 48.072256, "lon": -122.686759}, {"type": "node", "id": 11848130409, "lat": 48.0721861, "lon": -122.6867901}, {"type": "node", "id": 11848130410, "lat": 48.0721729, "lon": -122.6867235}, {"type": "node", "id": 11848130411, "lat": 48.0721357, "lon": -122.68674}, {"type": "node", "id": 11848130412, "lat": 48.0721211, "lon": -122.6866661}, {"type": "node", "id": 11848130413, "lat": 48.0720107, "lon": -122.6867151}, {"type": "node", "id": 11848130414, "lat": 48.0713299, "lon": -122.6867499}, {"type": "node", "id": 11848130415, "lat": 48.0714678, "lon": -122.6867446}, {"type": "node", "id": 11848130416, "lat": 48.0714722, "lon": -122.6869992}, {"type": "node", "id": 11848130417, "lat": 48.0713988, "lon": -122.687002}, {"type": "node", "id": 11848130418, "lat": 48.0713981, "lon": -122.6869618}, {"type": "node", "id": 11848130419, "lat": 48.071364, "lon": -122.6869631}, {"type": "node", "id": 11848130420, "lat": 48.0713635, "lon": -122.686931}, {"type": "node", "id": 11848130421, "lat": 48.071333, "lon": -122.6869322}, {"type": "node", "id": 11848130422, "lat": 48.0706293, "lon": -122.686762}, {"type": "node", "id": 11848130423, "lat": 48.0706347, "lon": -122.6868226}, {"type": "node", "id": 11848130424, "lat": 48.0705642, "lon": -122.6868366}, {"type": "node", "id": 11848130425, "lat": 48.0705726, "lon": -122.6869315}, {"type": "node", "id": 11848130426, "lat": 48.070518, "lon": -122.6869423}, {"type": "node", "id": 11848130427, "lat": 48.0705092, "lon": -122.6868421}, {"type": "node", "id": 11848130428, "lat": 48.0704792, "lon": -122.686848}, {"type": "node", "id": 11848130429, "lat": 48.0704725, "lon": -122.6867716}, {"type": "node", "id": 11848130430, "lat": 48.070513, "lon": -122.6867636}, {"type": "node", "id": 11848130431, "lat": 48.0705069, "lon": -122.686695}, {"type": "node", "id": 11848130432, "lat": 48.0706408, "lon": -122.6866685}, {"type": "node", "id": 11848130433, "lat": 48.0706359, "lon": -122.6866132}, {"type": "node", "id": 11848130434, "lat": 48.070761, "lon": -122.6865884}, {"type": "node", "id": 11848130435, "lat": 48.0707738, "lon": -122.6867334}, {"type": "node", "id": 11848130436, "lat": 48.0688822, "lon": -122.6869952}, {"type": "node", "id": 11848130437, "lat": 48.0688784, "lon": -122.6867888}, {"type": "node", "id": 11848130438, "lat": 48.0689984, "lon": -122.6867839}, {"type": "node", "id": 11848130439, "lat": 48.0689979, "lon": -122.6867571}, {"type": "node", "id": 11848130440, "lat": 48.0690606, "lon": -122.6867546}, {"type": "node", "id": 11848130441, "lat": 48.0690609, "lon": -122.6867734}, {"type": "node", "id": 11848130442, "lat": 48.0691003, "lon": -122.6867718}, {"type": "node", "id": 11848130443, "lat": 48.0691, "lon": -122.6867503}, {"type": "node", "id": 11848130444, "lat": 48.069168, "lon": -122.6867476}, {"type": "node", "id": 11848130445, "lat": 48.0691684, "lon": -122.686769}, {"type": "node", "id": 11848130446, "lat": 48.0692257, "lon": -122.6867667}, {"type": "node", "id": 11848130447, "lat": 48.0692262, "lon": -122.6867908}, {"type": "node", "id": 11848130448, "lat": 48.0692881, "lon": -122.6867883}, {"type": "node", "id": 11848130449, "lat": 48.0692921, "lon": -122.6870107}, {"type": "node", "id": 11848130450, "lat": 48.0692061, "lon": -122.6870142}, {"type": "node", "id": 11848130451, "lat": 48.0692039, "lon": -122.6868909}, {"type": "node", "id": 11848130452, "lat": 48.0691502, "lon": -122.6868931}, {"type": "node", "id": 11848130453, "lat": 48.0691506, "lon": -122.6869157}, {"type": "node", "id": 11848130454, "lat": 48.0691058, "lon": -122.6869175}, {"type": "node", "id": 11848130455, "lat": 48.0691072, "lon": -122.6869914}, {"type": "node", "id": 11848130456, "lat": 48.0690524, "lon": -122.6869936}, {"type": "node", "id": 11848130457, "lat": 48.0690523, "lon": -122.6869883}, {"type": "node", "id": 11848130458, "lat": 48.0683597, "lon": -122.6870184}, {"type": "node", "id": 11848130459, "lat": 48.0685716, "lon": -122.6870858}, {"type": "node", "id": 11848130460, "lat": 48.0685748, "lon": -122.6870627}, {"type": "node", "id": 11848130461, "lat": 48.0686383, "lon": -122.6870829}, {"type": "node", "id": 11848130462, "lat": 48.0686323, "lon": -122.6871251}, {"type": "node", "id": 11848130463, "lat": 48.0686512, "lon": -122.6871311}, {"type": "node", "id": 11848130464, "lat": 48.0686415, "lon": -122.6871992}, {"type": "node", "id": 11848130465, "lat": 48.0686165, "lon": -122.6871913}, {"type": "node", "id": 11848130466, "lat": 48.0686061, "lon": -122.6872643}, {"type": "node", "id": 11848130467, "lat": 48.0685471, "lon": -122.6872455}, {"type": "node", "id": 11848130468, "lat": 48.0685524, "lon": -122.6872084}, {"type": "node", "id": 11848130469, "lat": 48.0685129, "lon": -122.6871959}, {"type": "node", "id": 11848130470, "lat": 48.0685089, "lon": -122.6872241}, {"type": "node", "id": 11848130471, "lat": 48.0684643, "lon": -122.6872099}, {"type": "node", "id": 11848130472, "lat": 48.0684696, "lon": -122.6871726}, {"type": "node", "id": 11848130473, "lat": 48.0683753, "lon": -122.6871426}, {"type": "node", "id": 11848130474, "lat": 48.068366, "lon": -122.6872082}, {"type": "node", "id": 11848130475, "lat": 48.0683153, "lon": -122.687192}, {"type": "node", "id": 11848130476, "lat": 48.0683344, "lon": -122.6870572}, {"type": "node", "id": 11848130477, "lat": 48.0683533, "lon": -122.6870632}, {"type": "node", "id": 11848135669, "lat": 48.0501612, "lon": -122.6931307}, {"type": "node", "id": 11848135670, "lat": 48.0501507, "lon": -122.6932051}, {"type": "node", "id": 11848135671, "lat": 48.0501198, "lon": -122.6931954}, {"type": "node", "id": 11848135672, "lat": 48.0501162, "lon": -122.693221}, {"type": "node", "id": 11848135673, "lat": 48.0500681, "lon": -122.6932059}, {"type": "node", "id": 11848135674, "lat": 48.0500607, "lon": -122.6932587}, {"type": "node", "id": 11848135675, "lat": 48.0498702, "lon": -122.6934884}, {"type": "node", "id": 11848135676, "lat": 48.0498956, "lon": -122.6934514}, {"type": "node", "id": 11848135677, "lat": 48.0499443, "lon": -122.693526}, {"type": "node", "id": 11848135678, "lat": 48.049919, "lon": -122.693563}, {"type": "node", "id": 11848135679, "lat": 48.0496105, "lon": -122.6936406}, {"type": "node", "id": 11848135680, "lat": 48.0494773, "lon": -122.6936101}, {"type": "node", "id": 11848135681, "lat": 48.0494864, "lon": -122.693521}, {"type": "node", "id": 11848135682, "lat": 48.0496196, "lon": -122.6935515}, {"type": "node", "id": 11848135683, "lat": 48.0489686, "lon": -122.6925063}, {"type": "node", "id": 11848135684, "lat": 48.0490174, "lon": -122.6926557}, {"type": "node", "id": 11848135685, "lat": 48.0489522, "lon": -122.6927033}, {"type": "node", "id": 11848135686, "lat": 48.0489034, "lon": -122.6925539}, {"type": "node", "id": 11848135687, "lat": 48.048592, "lon": -122.6922551}, {"type": "node", "id": 11848135688, "lat": 48.0485878, "lon": -122.6924846}, {"type": "node", "id": 11848135689, "lat": 48.0485, "lon": -122.692481}, {"type": "node", "id": 11848135690, "lat": 48.0485049, "lon": -122.6922113}, {"type": "node", "id": 11848135691, "lat": 48.0485533, "lon": -122.6922133}, {"type": "node", "id": 11848135692, "lat": 48.0485526, "lon": -122.6922535}, {"type": "node", "id": 11848135693, "lat": 48.0484565, "lon": -122.6927932}, {"type": "node", "id": 11848135694, "lat": 48.0484593, "lon": -122.6926502}, {"type": "node", "id": 11848135695, "lat": 48.0486055, "lon": -122.6926568}, {"type": "node", "id": 11848135696, "lat": 48.0486026, "lon": -122.6927998}, {"type": "node", "id": 11848135697, "lat": 48.0480037, "lon": -122.6929046}, {"type": "node", "id": 11848135698, "lat": 48.048003, "lon": -122.6929572}, {"type": "node", "id": 11848135699, "lat": 48.048022, "lon": -122.6929577}, {"type": "node", "id": 11848135700, "lat": 48.0480206, "lon": -122.6930623}, {"type": "node", "id": 11848135701, "lat": 48.0480482, "lon": -122.6930631}, {"type": "node", "id": 11848135702, "lat": 48.0480476, "lon": -122.6931114}, {"type": "node", "id": 11848135703, "lat": 48.0478952, "lon": -122.6931069}, {"type": "node", "id": 11848135704, "lat": 48.0478971, "lon": -122.6929701}, {"type": "node", "id": 11848135705, "lat": 48.0479042, "lon": -122.6929703}, {"type": "node", "id": 11848135706, "lat": 48.0479051, "lon": -122.6929017}, {"type": "node", "id": 11848135707, "lat": 48.048101, "lon": -122.6931576}, {"type": "node", "id": 11848135708, "lat": 48.0481701, "lon": -122.6931613}, {"type": "node", "id": 11848135709, "lat": 48.0481683, "lon": -122.693239}, {"type": "node", "id": 11848135710, "lat": 48.0480992, "lon": -122.6932353}, {"type": "node", "id": 11848135711, "lat": 48.0477576, "lon": -122.6930047}, {"type": "node", "id": 11848135712, "lat": 48.0475985, "lon": -122.6929253}, {"type": "node", "id": 11848135713, "lat": 48.0475738, "lon": -122.6930363}, {"type": "node", "id": 11848135714, "lat": 48.0475011, "lon": -122.6930001}, {"type": "node", "id": 11848135715, "lat": 48.0475329, "lon": -122.6928577}, {"type": "node", "id": 11848135716, "lat": 48.0475677, "lon": -122.6928751}, {"type": "node", "id": 11848135717, "lat": 48.0475855, "lon": -122.6927954}, {"type": "node", "id": 11848135718, "lat": 48.0476088, "lon": -122.692807}, {"type": "node", "id": 11848135719, "lat": 48.0476228, "lon": -122.6927443}, {"type": "node", "id": 11848135720, "lat": 48.047747, "lon": -122.6928063}, {"type": "node", "id": 11848135721, "lat": 48.0477341, "lon": -122.6928642}, {"type": "node", "id": 11848135722, "lat": 48.0477834, "lon": -122.6928888}, {"type": "node", "id": 11848135723, "lat": 48.0496965, "lon": -122.6901891}, {"type": "node", "id": 11848135724, "lat": 48.0496502, "lon": -122.6901829}, {"type": "node", "id": 11848135725, "lat": 48.0496523, "lon": -122.6901483}, {"type": "node", "id": 11848135726, "lat": 48.0496087, "lon": -122.6901425}, {"type": "node", "id": 11848135727, "lat": 48.0496069, "lon": -122.6901717}, {"type": "node", "id": 11848135728, "lat": 48.0495625, "lon": -122.6901658}, {"type": "node", "id": 11848135729, "lat": 48.0495763, "lon": -122.6899343}, {"type": "node", "id": 11848135730, "lat": 48.0497106, "lon": -122.6899522}, {"type": "node", "id": 11848135731, "lat": 48.0501702, "lon": -122.6908767}, {"type": "node", "id": 11848135732, "lat": 48.0501649, "lon": -122.6906678}, {"type": "node", "id": 11848135733, "lat": 48.0502437, "lon": -122.6906633}, {"type": "node", "id": 11848135734, "lat": 48.050249, "lon": -122.6908722}, {"type": "node", "id": 11848135735, "lat": 48.0500614, "lon": -122.6901427}, {"type": "node", "id": 11848135736, "lat": 48.0499691, "lon": -122.6901407}, {"type": "node", "id": 11848135737, "lat": 48.0499709, "lon": -122.689953}, {"type": "node", "id": 11848135738, "lat": 48.0501018, "lon": -122.6899559}, {"type": "node", "id": 11848135739, "lat": 48.0501007, "lon": -122.6900701}, {"type": "node", "id": 11848135740, "lat": 48.0500621, "lon": -122.6900692}, {"type": "node", "id": 11848135741, "lat": 48.0495528, "lon": -122.690351}, {"type": "node", "id": 11848135742, "lat": 48.0496121, "lon": -122.6903657}, {"type": "node", "id": 11848135743, "lat": 48.0495867, "lon": -122.6905944}, {"type": "node", "id": 11848135744, "lat": 48.0495274, "lon": -122.6905797}, {"type": "node", "id": 11848135745, "lat": 48.0505223, "lon": -122.6905835}, {"type": "node", "id": 11848135746, "lat": 48.0505164, "lon": -122.6904742}, {"type": "node", "id": 11848135747, "lat": 48.0505628, "lon": -122.6904687}, {"type": "node", "id": 11848135748, "lat": 48.0505595, "lon": -122.6904074}, {"type": "node", "id": 11848135749, "lat": 48.0505898, "lon": -122.6904038}, {"type": "node", "id": 11848135750, "lat": 48.0505911, "lon": -122.6904278}, {"type": "node", "id": 11848135751, "lat": 48.0506659, "lon": -122.6904188}, {"type": "node", "id": 11848135752, "lat": 48.0506747, "lon": -122.6905841}, {"type": "node", "id": 11848135753, "lat": 48.0505634, "lon": -122.6905974}, {"type": "node", "id": 11848135754, "lat": 48.0505624, "lon": -122.6905787}, {"type": "node", "id": 11848135755, "lat": 48.0504944, "lon": -122.6902252}, {"type": "node", "id": 11848135756, "lat": 48.0504923, "lon": -122.6901153}, {"type": "node", "id": 11848135757, "lat": 48.0505855, "lon": -122.6901115}, {"type": "node", "id": 11848135758, "lat": 48.0505875, "lon": -122.6902213}, {"type": "node", "id": 11848135759, "lat": 48.0506345, "lon": -122.6901092}, {"type": "node", "id": 11848135760, "lat": 48.0506358, "lon": -122.6900127}, {"type": "node", "id": 11848135761, "lat": 48.0507558, "lon": -122.6900162}, {"type": "node", "id": 11848135762, "lat": 48.0507546, "lon": -122.6901128}, {"type": "node", "id": 11848135763, "lat": 48.0505288, "lon": -122.6902956}, {"type": "node", "id": 11848135764, "lat": 48.0505276, "lon": -122.6902421}, {"type": "node", "id": 11848135765, "lat": 48.0505885, "lon": -122.690239}, {"type": "node", "id": 11848135766, "lat": 48.0505897, "lon": -122.6902926}, {"type": "node", "id": 11848135767, "lat": 48.0509871, "lon": -122.6909581}, {"type": "node", "id": 11848135768, "lat": 48.05099, "lon": -122.6908107}, {"type": "node", "id": 11848135769, "lat": 48.0508762, "lon": -122.6908057}, {"type": "node", "id": 11848135770, "lat": 48.0508782, "lon": -122.6907066}, {"type": "node", "id": 11848135771, "lat": 48.0511326, "lon": -122.6907178}, {"type": "node", "id": 11848135772, "lat": 48.0511277, "lon": -122.6909643}, {"type": "node", "id": 11848135773, "lat": 48.050994, "lon": -122.6903401}, {"type": "node", "id": 11848135774, "lat": 48.0510925, "lon": -122.6903455}, {"type": "node", "id": 11848135775, "lat": 48.0510871, "lon": -122.6905678}, {"type": "node", "id": 11848135776, "lat": 48.0509886, "lon": -122.6905624}, {"type": "node", "id": 11848135777, "lat": 48.0511508, "lon": -122.6911486}, {"type": "node", "id": 11848135778, "lat": 48.0512045, "lon": -122.6911456}, {"type": "node", "id": 11848135779, "lat": 48.0512075, "lon": -122.6912634}, {"type": "node", "id": 11848135780, "lat": 48.0511538, "lon": -122.6912665}, {"type": "node", "id": 11848135781, "lat": 48.0509757, "lon": -122.689653}, {"type": "node", "id": 11848135782, "lat": 48.0511245, "lon": -122.68965}, {"type": "node", "id": 11848135783, "lat": 48.0511256, "lon": -122.6897707}, {"type": "node", "id": 11848135784, "lat": 48.0509768, "lon": -122.6897737}, {"type": "node", "id": 11848135785, "lat": 48.0510212, "lon": -122.6891771}, {"type": "node", "id": 11848135786, "lat": 48.0510201, "lon": -122.6894507}, {"type": "node", "id": 11848135787, "lat": 48.0509179, "lon": -122.6894497}, {"type": "node", "id": 11848135788, "lat": 48.0509182, "lon": -122.6893639}, {"type": "node", "id": 11848135789, "lat": 48.0508869, "lon": -122.6893636}, {"type": "node", "id": 11848135790, "lat": 48.0508877, "lon": -122.6891758}, {"type": "node", "id": 11848135791, "lat": 48.0504489, "lon": -122.6892987}, {"type": "node", "id": 11848135792, "lat": 48.0504483, "lon": -122.6894274}, {"type": "node", "id": 11848135793, "lat": 48.0504277, "lon": -122.6894272}, {"type": "node", "id": 11848135794, "lat": 48.0504274, "lon": -122.6894942}, {"type": "node", "id": 11848135795, "lat": 48.0503404, "lon": -122.6894933}, {"type": "node", "id": 11848135796, "lat": 48.050341, "lon": -122.6893673}, {"type": "node", "id": 11848135797, "lat": 48.0503177, "lon": -122.689367}, {"type": "node", "id": 11848135798, "lat": 48.0503181, "lon": -122.6892946}, {"type": "node", "id": 11848135799, "lat": 48.0503862, "lon": -122.6892953}, {"type": "node", "id": 11848135800, "lat": 48.0503862, "lon": -122.689298}, {"type": "node", "id": 11848135801, "lat": 48.0512724, "lon": -122.6887722}, {"type": "node", "id": 11848135802, "lat": 48.0514149, "lon": -122.6887668}, {"type": "node", "id": 11848135803, "lat": 48.0514174, "lon": -122.6889142}, {"type": "node", "id": 11848135804, "lat": 48.0513179, "lon": -122.688918}, {"type": "node", "id": 11848135805, "lat": 48.0513177, "lon": -122.6889058}, {"type": "node", "id": 11848135806, "lat": 48.0512747, "lon": -122.6889074}, {"type": "node", "id": 11848135807, "lat": 48.0515227, "lon": -122.6905589}, {"type": "node", "id": 11848135808, "lat": 48.0515208, "lon": -122.6906756}, {"type": "node", "id": 11848135809, "lat": 48.0514957, "lon": -122.6906747}, {"type": "node", "id": 11848135810, "lat": 48.0514951, "lon": -122.6907068}, {"type": "node", "id": 11848135811, "lat": 48.0514414, "lon": -122.6907049}, {"type": "node", "id": 11848135812, "lat": 48.0514421, "lon": -122.6906632}, {"type": "node", "id": 11848135813, "lat": 48.0513857, "lon": -122.6906611}, {"type": "node", "id": 11848135814, "lat": 48.0513874, "lon": -122.6905539}, {"type": "node", "id": 11848135815, "lat": 48.0518943, "lon": -122.690245}, {"type": "node", "id": 11848135816, "lat": 48.0519128, "lon": -122.6903674}, {"type": "node", "id": 11848135817, "lat": 48.0517542, "lon": -122.6904212}, {"type": "node", "id": 11848135818, "lat": 48.0517357, "lon": -122.6902988}, {"type": "node", "id": 11848135819, "lat": 48.0517693, "lon": -122.6902473}, {"type": "node", "id": 11848135820, "lat": 48.0517463, "lon": -122.6901055}, {"type": "node", "id": 11848135821, "lat": 48.0518157, "lon": -122.6900802}, {"type": "node", "id": 11848135822, "lat": 48.0518387, "lon": -122.6902221}, {"type": "node", "id": 11848135823, "lat": 48.0520961, "lon": -122.6894468}, {"type": "node", "id": 11848135824, "lat": 48.0520944, "lon": -122.6893678}, {"type": "node", "id": 11848135825, "lat": 48.0521249, "lon": -122.6893663}, {"type": "node", "id": 11848135826, "lat": 48.0521265, "lon": -122.6894453}, {"type": "node", "id": 11848135827, "lat": 48.0526148, "lon": -122.6894687}, {"type": "node", "id": 11848135828, "lat": 48.0526852, "lon": -122.689419}, {"type": "node", "id": 11848135829, "lat": 48.0526727, "lon": -122.6893795}, {"type": "node", "id": 11848135830, "lat": 48.0527622, "lon": -122.6893164}, {"type": "node", "id": 11848135831, "lat": 48.0527923, "lon": -122.6894118}, {"type": "node", "id": 11848135832, "lat": 48.0527827, "lon": -122.6894185}, {"type": "node", "id": 11848135833, "lat": 48.0528094, "lon": -122.689503}, {"type": "node", "id": 11848135834, "lat": 48.0527837, "lon": -122.6895211}, {"type": "node", "id": 11848135835, "lat": 48.0527927, "lon": -122.6895497}, {"type": "node", "id": 11848135836, "lat": 48.0527575, "lon": -122.6895745}, {"type": "node", "id": 11848135837, "lat": 48.052752, "lon": -122.6895569}, {"type": "node", "id": 11848135838, "lat": 48.0527138, "lon": -122.6895838}, {"type": "node", "id": 11848135839, "lat": 48.0527076, "lon": -122.6895641}, {"type": "node", "id": 11848135840, "lat": 48.0526563, "lon": -122.6896003}, {"type": "node", "id": 11848135841, "lat": 48.0526738, "lon": -122.6891054}, {"type": "node", "id": 11848135842, "lat": 48.0526988, "lon": -122.6890829}, {"type": "node", "id": 11848135843, "lat": 48.0526842, "lon": -122.6890464}, {"type": "node", "id": 11848135844, "lat": 48.0527277, "lon": -122.6890073}, {"type": "node", "id": 11848135845, "lat": 48.0528191, "lon": -122.6892351}, {"type": "node", "id": 11848135846, "lat": 48.0527505, "lon": -122.6892967}, {"type": "node", "id": 11848135847, "lat": 48.0530548, "lon": -122.6888278}, {"type": "node", "id": 11848135848, "lat": 48.053123, "lon": -122.6888284}, {"type": "node", "id": 11848135849, "lat": 48.0531225, "lon": -122.6889316}, {"type": "node", "id": 11848135850, "lat": 48.0530544, "lon": -122.6889309}, {"type": "node", "id": 11848135851, "lat": 48.0539541, "lon": -122.6883228}, {"type": "node", "id": 11848135852, "lat": 48.0540394, "lon": -122.6883485}, {"type": "node", "id": 11848135853, "lat": 48.0540047, "lon": -122.6886063}, {"type": "node", "id": 11848135854, "lat": 48.0539194, "lon": -122.6885806}, {"type": "node", "id": 11848135855, "lat": 48.0543132, "lon": -122.6885809}, {"type": "node", "id": 11848135856, "lat": 48.0544528, "lon": -122.6886262}, {"type": "node", "id": 11848135857, "lat": 48.0544339, "lon": -122.6887569}, {"type": "node", "id": 11848135858, "lat": 48.0544261, "lon": -122.6887544}, {"type": "node", "id": 11848135859, "lat": 48.0544139, "lon": -122.6888389}, {"type": "node", "id": 11848135860, "lat": 48.054282, "lon": -122.6887961}, {"type": "node", "id": 11848139574, "lat": 48.0543578, "lon": -122.6906727}, {"type": "node", "id": 11848139575, "lat": 48.0542782, "lon": -122.6906119}, {"type": "node", "id": 11848139576, "lat": 48.0542197, "lon": -122.6907833}, {"type": "node", "id": 11848139577, "lat": 48.0541742, "lon": -122.6907486}, {"type": "node", "id": 11848139578, "lat": 48.0542813, "lon": -122.6904346}, {"type": "node", "id": 11848139579, "lat": 48.0544065, "lon": -122.6905302}, {"type": "node", "id": 11848139580, "lat": 48.0544547, "lon": -122.6902272}, {"type": "node", "id": 11848139581, "lat": 48.0545265, "lon": -122.690278}, {"type": "node", "id": 11848139582, "lat": 48.0544998, "lon": -122.6903626}, {"type": "node", "id": 11848139583, "lat": 48.054428, "lon": -122.6903118}, {"type": "node", "id": 11848139584, "lat": 48.0545941, "lon": -122.6905729}, {"type": "node", "id": 11848139585, "lat": 48.0545292, "lon": -122.6905224}, {"type": "node", "id": 11848139586, "lat": 48.0545791, "lon": -122.6903789}, {"type": "node", "id": 11848139587, "lat": 48.054644, "lon": -122.6904294}, {"type": "node", "id": 11848139588, "lat": 48.05458, "lon": -122.6899352}, {"type": "node", "id": 11848139589, "lat": 48.0545886, "lon": -122.6899941}, {"type": "node", "id": 11848139590, "lat": 48.0546083, "lon": -122.6899876}, {"type": "node", "id": 11848139591, "lat": 48.0546161, "lon": -122.6900414}, {"type": "node", "id": 11848139592, "lat": 48.0545947, "lon": -122.6900484}, {"type": "node", "id": 11848139593, "lat": 48.0546035, "lon": -122.6901083}, {"type": "node", "id": 11848139594, "lat": 48.0545351, "lon": -122.6901307}, {"type": "node", "id": 11848139595, "lat": 48.0545098, "lon": -122.6899582}, {"type": "node", "id": 11848139600, "lat": 48.0555455, "lon": -122.6880429}, {"type": "node", "id": 11848139601, "lat": 48.0553956, "lon": -122.6878949}, {"type": "node", "id": 11848139602, "lat": 48.0554483, "lon": -122.6877753}, {"type": "node", "id": 11848139603, "lat": 48.055517, "lon": -122.6878431}, {"type": "node", "id": 11848139604, "lat": 48.0555269, "lon": -122.6878207}, {"type": "node", "id": 11848139605, "lat": 48.0555631, "lon": -122.6878564}, {"type": "node", "id": 11848139606, "lat": 48.0555508, "lon": -122.6878845}, {"type": "node", "id": 11848139607, "lat": 48.0555958, "lon": -122.6879289}, {"type": "node", "id": 11848139608, "lat": 48.0556773, "lon": -122.6895776}, {"type": "node", "id": 11848139609, "lat": 48.0555183, "lon": -122.6895353}, {"type": "node", "id": 11848139610, "lat": 48.0555344, "lon": -122.6893991}, {"type": "node", "id": 11848139611, "lat": 48.0556935, "lon": -122.6894414}, {"type": "node", "id": 11848139612, "lat": 48.0557521, "lon": -122.6895227}, {"type": "node", "id": 11848139613, "lat": 48.0558274, "lon": -122.689525}, {"type": "node", "id": 11848139614, "lat": 48.0558244, "lon": -122.6897422}, {"type": "node", "id": 11848139615, "lat": 48.0557492, "lon": -122.6897399}, {"type": "node", "id": 11848139616, "lat": 48.0553827, "lon": -122.691059}, {"type": "node", "id": 11848139617, "lat": 48.0553865, "lon": -122.6909386}, {"type": "node", "id": 11848139618, "lat": 48.0552772, "lon": -122.6909308}, {"type": "node", "id": 11848139619, "lat": 48.0552396, "lon": -122.6909497}, {"type": "node", "id": 11848139620, "lat": 48.0551863, "lon": -122.690712}, {"type": "node", "id": 11848139621, "lat": 48.0552588, "lon": -122.6906756}, {"type": "node", "id": 11848139622, "lat": 48.0552955, "lon": -122.6908393}, {"type": "node", "id": 11848139623, "lat": 48.055384, "lon": -122.6908456}, {"type": "node", "id": 11848139624, "lat": 48.0553827, "lon": -122.6908884}, {"type": "node", "id": 11848139625, "lat": 48.0553867, "lon": -122.6909064}, {"type": "node", "id": 11848139626, "lat": 48.0554336, "lon": -122.6909097}, {"type": "node", "id": 11848139627, "lat": 48.0554898, "lon": -122.6908815}, {"type": "node", "id": 11848139628, "lat": 48.0554967, "lon": -122.690882}, {"type": "node", "id": 11848139629, "lat": 48.0554957, "lon": -122.6909134}, {"type": "node", "id": 11848139630, "lat": 48.0555226, "lon": -122.6908999}, {"type": "node", "id": 11848139631, "lat": 48.0555789, "lon": -122.6909039}, {"type": "node", "id": 11848139632, "lat": 48.0555848, "lon": -122.69093}, {"type": "node", "id": 11848139633, "lat": 48.0555829, "lon": -122.6909884}, {"type": "node", "id": 11848139634, "lat": 48.0555499, "lon": -122.690986}, {"type": "node", "id": 11848139635, "lat": 48.0555472, "lon": -122.6910707}, {"type": "node", "id": 11848139636, "lat": 48.0549393, "lon": -122.6906867}, {"type": "node", "id": 11848139637, "lat": 48.0549233, "lon": -122.690613}, {"type": "node", "id": 11848139638, "lat": 48.0550125, "lon": -122.6905697}, {"type": "node", "id": 11848139639, "lat": 48.0550741, "lon": -122.6908536}, {"type": "node", "id": 11848139640, "lat": 48.0549881, "lon": -122.6908953}, {"type": "node", "id": 11848139641, "lat": 48.0549694, "lon": -122.6908089}, {"type": "node", "id": 11848139642, "lat": 48.0549142, "lon": -122.6908357}, {"type": "node", "id": 11848139643, "lat": 48.0548874, "lon": -122.6907119}, {"type": "node", "id": 11848139652, "lat": 48.0563257, "lon": -122.6911192}, {"type": "node", "id": 11848139653, "lat": 48.0563248, "lon": -122.6911006}, {"type": "node", "id": 11848139654, "lat": 48.0562962, "lon": -122.6911036}, {"type": "node", "id": 11848139655, "lat": 48.0562897, "lon": -122.6909675}, {"type": "node", "id": 11848139656, "lat": 48.0563476, "lon": -122.6909613}, {"type": "node", "id": 11848139657, "lat": 48.0563452, "lon": -122.6909106}, {"type": "node", "id": 11848139658, "lat": 48.0564318, "lon": -122.6909014}, {"type": "node", "id": 11848139659, "lat": 48.0564416, "lon": -122.6911068}, {"type": "node", "id": 11848139660, "lat": 48.057772, "lon": -122.6893527}, {"type": "node", "id": 11848139661, "lat": 48.0578061, "lon": -122.6893995}, {"type": "node", "id": 11848139662, "lat": 48.057823, "lon": -122.6893718}, {"type": "node", "id": 11848139663, "lat": 48.0578532, "lon": -122.6894132}, {"type": "node", "id": 11848139664, "lat": 48.0578345, "lon": -122.6894438}, {"type": "node", "id": 11848139665, "lat": 48.0578774, "lon": -122.6895026}, {"type": "node", "id": 11848139666, "lat": 48.0578238, "lon": -122.6895901}, {"type": "node", "id": 11848139667, "lat": 48.0577873, "lon": -122.68954}, {"type": "node", "id": 11848139668, "lat": 48.0577769, "lon": -122.6895569}, {"type": "node", "id": 11848154069, "lat": 48.0577063, "lon": -122.68946}, {"type": "node", "id": 11848154070, "lat": 48.0578563, "lon": -122.6895545}, {"type": "node", "id": 11848154071, "lat": 48.0578783, "lon": -122.689583}, {"type": "node", "id": 11848154072, "lat": 48.057834, "lon": -122.6896597}, {"type": "node", "id": 11848154073, "lat": 48.0578119, "lon": -122.6896312}, {"type": "node", "id": 11848154074, "lat": 48.0571613, "lon": -122.6915715}, {"type": "node", "id": 11848154075, "lat": 48.0572143, "lon": -122.6916139}, {"type": "node", "id": 11848154076, "lat": 48.0571765, "lon": -122.6917194}, {"type": "node", "id": 11848154077, "lat": 48.0572086, "lon": -122.691745}, {"type": "node", "id": 11848154078, "lat": 48.0571889, "lon": -122.6918001}, {"type": "node", "id": 11848154079, "lat": 48.0572223, "lon": -122.6918269}, {"type": "node", "id": 11848154080, "lat": 48.057191, "lon": -122.6919144}, {"type": "node", "id": 11848154081, "lat": 48.0570976, "lon": -122.6918396}, {"type": "node", "id": 11848154082, "lat": 48.0571516, "lon": -122.6916887}, {"type": "node", "id": 11848154083, "lat": 48.0571266, "lon": -122.6916686}, {"type": "node", "id": 11848154088, "lat": 48.0574275, "lon": -122.6924753}, {"type": "node", "id": 11848154089, "lat": 48.0573919, "lon": -122.6923161}, {"type": "node", "id": 11848154090, "lat": 48.0574894, "lon": -122.6922673}, {"type": "node", "id": 11848154091, "lat": 48.0575028, "lon": -122.6923276}, {"type": "node", "id": 11848154092, "lat": 48.0575915, "lon": -122.6922832}, {"type": "node", "id": 11848154093, "lat": 48.0576233, "lon": -122.6924256}, {"type": "node", "id": 11848154094, "lat": 48.0575637, "lon": -122.6924554}, {"type": "node", "id": 11848154095, "lat": 48.0575484, "lon": -122.6923869}, {"type": "node", "id": 11848154096, "lat": 48.0575209, "lon": -122.6924006}, {"type": "node", "id": 11848154097, "lat": 48.0575368, "lon": -122.6924715}, {"type": "node", "id": 11848154098, "lat": 48.0574804, "lon": -122.6924998}, {"type": "node", "id": 11848154099, "lat": 48.0574701, "lon": -122.692454}, {"type": "node", "id": 11848154100, "lat": 48.057621, "lon": -122.6923801}, {"type": "node", "id": 11848154101, "lat": 48.0575901, "lon": -122.6922708}, {"type": "node", "id": 11848154102, "lat": 48.0576632, "lon": -122.6922247}, {"type": "node", "id": 11848154103, "lat": 48.057694, "lon": -122.6923339}, {"type": "node", "id": 11848154104, "lat": 48.0576112, "lon": -122.6927674}, {"type": "node", "id": 11848154105, "lat": 48.0575811, "lon": -122.6926923}, {"type": "node", "id": 11848154106, "lat": 48.0576617, "lon": -122.6926202}, {"type": "node", "id": 11848154107, "lat": 48.0577403, "lon": -122.6928169}, {"type": "node", "id": 11848154108, "lat": 48.0576815, "lon": -122.6928696}, {"type": "node", "id": 11848154109, "lat": 48.0576491, "lon": -122.6927886}, {"type": "node", "id": 11848154110, "lat": 48.0576293, "lon": -122.6928063}, {"type": "node", "id": 11848154111, "lat": 48.057613, "lon": -122.6927657}, {"type": "node", "id": 11848154112, "lat": 48.0578169, "lon": -122.6932075}, {"type": "node", "id": 11848154113, "lat": 48.0577739, "lon": -122.6931219}, {"type": "node", "id": 11848154114, "lat": 48.0577941, "lon": -122.6930992}, {"type": "node", "id": 11848154115, "lat": 48.0577948, "lon": -122.6931038}, {"type": "node", "id": 11848154116, "lat": 48.0578272, "lon": -122.6930674}, {"type": "node", "id": 11848154117, "lat": 48.0578302, "lon": -122.6930881}, {"type": "node", "id": 11848154118, "lat": 48.0578623, "lon": -122.6930908}, {"type": "node", "id": 11848154119, "lat": 48.0578728, "lon": -122.6931117}, {"type": "node", "id": 11848154120, "lat": 48.0578851, "lon": -122.6931077}, {"type": "node", "id": 11848154121, "lat": 48.0579033, "lon": -122.693144}, {"type": "node", "id": 11848154122, "lat": 48.0579217, "lon": -122.6931234}, {"type": "node", "id": 11848154123, "lat": 48.0579186, "lon": -122.6931172}, {"type": "node", "id": 11848154124, "lat": 48.0579197, "lon": -122.6930872}, {"type": "node", "id": 11848154125, "lat": 48.0579125, "lon": -122.6930377}, {"type": "node", "id": 11848154126, "lat": 48.0579137, "lon": -122.6930051}, {"type": "node", "id": 11848154127, "lat": 48.0579498, "lon": -122.6929646}, {"type": "node", "id": 11848154128, "lat": 48.0580148, "lon": -122.6929436}, {"type": "node", "id": 11848154129, "lat": 48.0580405, "lon": -122.6929457}, {"type": "node", "id": 11848154130, "lat": 48.0580504, "lon": -122.6929655}, {"type": "node", "id": 11848154131, "lat": 48.0580482, "lon": -122.6930261}, {"type": "node", "id": 11848154132, "lat": 48.0580496, "lon": -122.693036}, {"type": "node", "id": 11848154133, "lat": 48.0580462, "lon": -122.6931293}, {"type": "node", "id": 11848154134, "lat": 48.0579354, "lon": -122.693165}, {"type": "node", "id": 11848154135, "lat": 48.057917, "lon": -122.6931635}, {"type": "node", "id": 11848154136, "lat": 48.0579024, "lon": -122.6931799}, {"type": "node", "id": 11848154137, "lat": 48.0586746, "lon": -122.6937103}, {"type": "node", "id": 11848154138, "lat": 48.0587027, "lon": -122.6938091}, {"type": "node", "id": 11848154139, "lat": 48.0585808, "lon": -122.6938869}, {"type": "node", "id": 11848154140, "lat": 48.0585526, "lon": -122.693788}, {"type": "node", "id": 11848154141, "lat": 48.0588575, "lon": -122.6940094}, {"type": "node", "id": 11848154142, "lat": 48.0588555, "lon": -122.6938754}, {"type": "node", "id": 11848154143, "lat": 48.0589928, "lon": -122.6938708}, {"type": "node", "id": 11848154144, "lat": 48.0589948, "lon": -122.6940049}, {"type": "node", "id": 11848154145, "lat": 48.0597454, "lon": -122.6985701}, {"type": "node", "id": 11848154146, "lat": 48.0597721, "lon": -122.6987204}, {"type": "node", "id": 11848154147, "lat": 48.0596833, "lon": -122.6987557}, {"type": "node", "id": 11848154148, "lat": 48.0596567, "lon": -122.6986053}, {"type": "node", "id": 11848154153, "lat": 48.0593077, "lon": -122.6973383}, {"type": "node", "id": 11848154154, "lat": 48.0593209, "lon": -122.6971635}, {"type": "node", "id": 11848154155, "lat": 48.0594236, "lon": -122.6971808}, {"type": "node", "id": 11848154156, "lat": 48.0594176, "lon": -122.6972602}, {"type": "node", "id": 11848154157, "lat": 48.0593698, "lon": -122.6972522}, {"type": "node", "id": 11848154158, "lat": 48.0593626, "lon": -122.6973475}, {"type": "node", "id": 11848154159, "lat": 48.0594825, "lon": -122.6974679}, {"type": "node", "id": 11848154160, "lat": 48.0594423, "lon": -122.6974626}, {"type": "node", "id": 11848154161, "lat": 48.0594498, "lon": -122.6973348}, {"type": "node", "id": 11848154162, "lat": 48.05949, "lon": -122.6973401}, {"type": "node", "id": 11848154163, "lat": 48.0592708, "lon": -122.6990189}, {"type": "node", "id": 11848154164, "lat": 48.0593535, "lon": -122.6990071}, {"type": "node", "id": 11848154165, "lat": 48.0593636, "lon": -122.6991639}, {"type": "node", "id": 11848154166, "lat": 48.0592534, "lon": -122.6991797}, {"type": "node", "id": 11848154167, "lat": 48.0592469, "lon": -122.6990787}, {"type": "node", "id": 11848154168, "lat": 48.0592744, "lon": -122.6990748}, {"type": "node", "id": 11848154169, "lat": 48.0592872, "lon": -122.6994562}, {"type": "node", "id": 11848154170, "lat": 48.0593832, "lon": -122.6994798}, {"type": "node", "id": 11848154171, "lat": 48.0593754, "lon": -122.6995503}, {"type": "node", "id": 11848154172, "lat": 48.0594121, "lon": -122.6995593}, {"type": "node", "id": 11848154173, "lat": 48.0594001, "lon": -122.699669}, {"type": "node", "id": 11848154174, "lat": 48.0593267, "lon": -122.699651}, {"type": "node", "id": 11848154175, "lat": 48.0593325, "lon": -122.6995987}, {"type": "node", "id": 11848154176, "lat": 48.0592731, "lon": -122.6995841}, {"type": "node", "id": 11848154177, "lat": 48.0591897, "lon": -122.6999454}, {"type": "node", "id": 11848154178, "lat": 48.0591421, "lon": -122.6997803}, {"type": "node", "id": 11848154179, "lat": 48.0592192, "lon": -122.6997306}, {"type": "node", "id": 11848154180, "lat": 48.0592313, "lon": -122.6997724}, {"type": "node", "id": 11848154181, "lat": 48.0592895, "lon": -122.6997348}, {"type": "node", "id": 11848154182, "lat": 48.0593251, "lon": -122.6998581}, {"type": "node", "id": 11848154183, "lat": 48.0599508, "lon": -122.6997033}, {"type": "node", "id": 11848154184, "lat": 48.0599559, "lon": -122.6995575}, {"type": "node", "id": 11848154185, "lat": 48.0599845, "lon": -122.6995597}, {"type": "node", "id": 11848154186, "lat": 48.0599884, "lon": -122.6994461}, {"type": "node", "id": 11848154187, "lat": 48.060076, "lon": -122.6994529}, {"type": "node", "id": 11848154188, "lat": 48.060067, "lon": -122.6997124}, {"type": "node", "id": 11848154196, "lat": 48.0616865, "lon": -122.7000417}, {"type": "node", "id": 11848154197, "lat": 48.061795, "lon": -122.7000882}, {"type": "node", "id": 11848154198, "lat": 48.0617864, "lon": -122.700133}, {"type": "node", "id": 11848154199, "lat": 48.0617938, "lon": -122.7001494}, {"type": "node", "id": 11848154200, "lat": 48.0618393, "lon": -122.7001688}, {"type": "node", "id": 11848154201, "lat": 48.0618579, "lon": -122.70015}, {"type": "node", "id": 11848154202, "lat": 48.0618989, "lon": -122.7001675}, {"type": "node", "id": 11848154203, "lat": 48.0619118, "lon": -122.7001961}, {"type": "node", "id": 11848154204, "lat": 48.0619459, "lon": -122.7002107}, {"type": "node", "id": 11848154205, "lat": 48.0620057, "lon": -122.70015}, {"type": "node", "id": 11848154206, "lat": 48.0620642, "lon": -122.700279}, {"type": "node", "id": 11848154207, "lat": 48.0620618, "lon": -122.7002916}, {"type": "node", "id": 11848154208, "lat": 48.0620059, "lon": -122.7003482}, {"type": "node", "id": 11848154209, "lat": 48.0620376, "lon": -122.700418}, {"type": "node", "id": 11848154210, "lat": 48.0619738, "lon": -122.7004828}, {"type": "node", "id": 11848154211, "lat": 48.0619088, "lon": -122.7003397}, {"type": "node", "id": 11848154212, "lat": 48.0617741, "lon": -122.7002819}, {"type": "node", "id": 11848154213, "lat": 48.0617831, "lon": -122.7002348}, {"type": "node", "id": 11848154214, "lat": 48.0616597, "lon": -122.700182}, {"type": "node", "id": 11848154215, "lat": 48.0616288, "lon": -122.6997456}, {"type": "node", "id": 11848154216, "lat": 48.0616392, "lon": -122.6994083}, {"type": "node", "id": 11848154217, "lat": 48.0617724, "lon": -122.6994176}, {"type": "node", "id": 11848154218, "lat": 48.0617688, "lon": -122.6995354}, {"type": "node", "id": 11848154219, "lat": 48.0617304, "lon": -122.6995327}, {"type": "node", "id": 11848154220, "lat": 48.0617236, "lon": -122.6997522}, {"type": "node", "id": 11848154221, "lat": 48.0634856, "lon": -122.6986974}, {"type": "node", "id": 11848154222, "lat": 48.0634831, "lon": -122.6984587}, {"type": "node", "id": 11848154223, "lat": 48.063595, "lon": -122.6984561}, {"type": "node", "id": 11848154224, "lat": 48.0635975, "lon": -122.6986947}, {"type": "node", "id": 11848154225, "lat": 48.0632416, "lon": -122.7011509}, {"type": "node", "id": 11848154226, "lat": 48.0632788, "lon": -122.7011573}, {"type": "node", "id": 11848154227, "lat": 48.0632815, "lon": -122.701122}, {"type": "node", "id": 11848154228, "lat": 48.0633204, "lon": -122.7011287}, {"type": "node", "id": 11848154229, "lat": 48.0633188, "lon": -122.7011499}, {"type": "node", "id": 11848154230, "lat": 48.063394, "lon": -122.7011629}, {"type": "node", "id": 11848154231, "lat": 48.0633864, "lon": -122.7012609}, {"type": "node", "id": 11848154232, "lat": 48.063359, "lon": -122.7012561}, {"type": "node", "id": 11848154233, "lat": 48.063353, "lon": -122.7013338}, {"type": "node", "id": 11848154234, "lat": 48.0632628, "lon": -122.7013182}, {"type": "node", "id": 11848154235, "lat": 48.0632664, "lon": -122.7012705}, {"type": "node", "id": 11848154236, "lat": 48.0632328, "lon": -122.7012647}, {"type": "node", "id": 11848154237, "lat": 48.0634945, "lon": -122.7017852}, {"type": "node", "id": 11848154238, "lat": 48.0635002, "lon": -122.701657}, {"type": "node", "id": 11848154239, "lat": 48.063593, "lon": -122.7016662}, {"type": "node", "id": 11848154240, "lat": 48.0635986, "lon": -122.7015417}, {"type": "node", "id": 11848154241, "lat": 48.0636735, "lon": -122.7015492}, {"type": "node", "id": 11848154242, "lat": 48.0636679, "lon": -122.7016764}, {"type": "node", "id": 11848154243, "lat": 48.0636625, "lon": -122.7016759}, {"type": "node", "id": 11848154244, "lat": 48.0636569, "lon": -122.7018014}, {"type": "node", "id": 11848154245, "lat": 48.0638391, "lon": -122.701295}, {"type": "node", "id": 11848154246, "lat": 48.0639482, "lon": -122.7012889}, {"type": "node", "id": 11848154247, "lat": 48.0639468, "lon": -122.7012299}, {"type": "node", "id": 11848154248, "lat": 48.0639933, "lon": -122.7012273}, {"type": "node", "id": 11848154249, "lat": 48.063997, "lon": -122.7013756}, {"type": "node", "id": 11848154250, "lat": 48.0639541, "lon": -122.7013781}, {"type": "node", "id": 11848154251, "lat": 48.0639552, "lon": -122.7014209}, {"type": "node", "id": 11848154252, "lat": 48.0638424, "lon": -122.7014273}, {"type": "node", "id": 11848154253, "lat": 48.063988, "lon": -122.7010655}, {"type": "node", "id": 11848154254, "lat": 48.0639898, "lon": -122.7011942}, {"type": "node", "id": 11848154255, "lat": 48.0638984, "lon": -122.701197}, {"type": "node", "id": 11848154256, "lat": 48.0638966, "lon": -122.7010683}, {"type": "node", "id": 11848154257, "lat": 48.0642698, "lon": -122.7021921}, {"type": "node", "id": 11848154258, "lat": 48.0640785, "lon": -122.7021766}, {"type": "node", "id": 11848154259, "lat": 48.0640822, "lon": -122.7020734}, {"type": "node", "id": 11848154260, "lat": 48.0641331, "lon": -122.7020775}, {"type": "node", "id": 11848154261, "lat": 48.0641345, "lon": -122.702039}, {"type": "node", "id": 11848154262, "lat": 48.0642471, "lon": -122.7020481}, {"type": "node", "id": 11848154263, "lat": 48.0642463, "lon": -122.7020695}, {"type": "node", "id": 11848154264, "lat": 48.0642741, "lon": -122.7020717}, {"type": "node", "id": 11848154265, "lat": 48.0643992, "lon": -122.7022142}, {"type": "node", "id": 11848154266, "lat": 48.0644023, "lon": -122.7020658}, {"type": "node", "id": 11848154267, "lat": 48.0645616, "lon": -122.7020731}, {"type": "node", "id": 11848154268, "lat": 48.0645586, "lon": -122.7022216}, {"type": "node", "id": 11848154269, "lat": 48.0644529, "lon": -122.7019861}, {"type": "node", "id": 11848154270, "lat": 48.0643902, "lon": -122.701989}, {"type": "node", "id": 11848154271, "lat": 48.0643877, "lon": -122.7018657}, {"type": "node", "id": 11848154272, "lat": 48.0644504, "lon": -122.7018628}, {"type": "node", "id": 11848154273, "lat": 48.0646889, "lon": -122.7022165}, {"type": "node", "id": 11848154274, "lat": 48.0647929, "lon": -122.7022165}, {"type": "node", "id": 11848154275, "lat": 48.0647929, "lon": -122.7022916}, {"type": "node", "id": 11848154276, "lat": 48.0646889, "lon": -122.7022916}, {"type": "node", "id": 11848154277, "lat": 48.0648718, "lon": -122.702158}, {"type": "node", "id": 11848154278, "lat": 48.0649095, "lon": -122.7021578}, {"type": "node", "id": 11848154279, "lat": 48.0649093, "lon": -122.7020747}, {"type": "node", "id": 11848154280, "lat": 48.0649254, "lon": -122.7020746}, {"type": "node", "id": 11848154281, "lat": 48.0650059, "lon": -122.701975}, {"type": "node", "id": 11848154282, "lat": 48.0650065, "lon": -122.7022835}, {"type": "node", "id": 11848154283, "lat": 48.0648721, "lon": -122.7022841}, {"type": "node", "id": 11848154284, "lat": 48.0657618, "lon": -122.7022992}, {"type": "node", "id": 11848154285, "lat": 48.065897, "lon": -122.7023059}, {"type": "node", "id": 11848154286, "lat": 48.0658941, "lon": -122.7024372}, {"type": "node", "id": 11848154287, "lat": 48.0657589, "lon": -122.7024305}, {"type": "node", "id": 11848154288, "lat": 48.0662298, "lon": -122.7024439}, {"type": "node", "id": 11848154289, "lat": 48.0661932, "lon": -122.7024346}, {"type": "node", "id": 11848154290, "lat": 48.0661902, "lon": -122.7024607}, {"type": "node", "id": 11848154291, "lat": 48.0660386, "lon": -122.7024225}, {"type": "node", "id": 11848154292, "lat": 48.0660555, "lon": -122.7022724}, {"type": "node", "id": 11848154293, "lat": 48.0661932, "lon": -122.7023071}, {"type": "node", "id": 11848154294, "lat": 48.0661971, "lon": -122.702272}, {"type": "node", "id": 11848154295, "lat": 48.0662477, "lon": -122.7022848}, {"type": "node", "id": 11848154296, "lat": 48.0666178, "lon": -122.7024713}, {"type": "node", "id": 11848154297, "lat": 48.0666465, "lon": -122.7024704}, {"type": "node", "id": 11848154298, "lat": 48.0666461, "lon": -122.7024462}, {"type": "node", "id": 11848154299, "lat": 48.0666865, "lon": -122.7024449}, {"type": "node", "id": 11848154300, "lat": 48.0666877, "lon": -122.7025253}, {"type": "node", "id": 11848154301, "lat": 48.0667261, "lon": -122.7025241}, {"type": "node", "id": 11848154302, "lat": 48.0667273, "lon": -122.7026045}, {"type": "node", "id": 11848154303, "lat": 48.0666889, "lon": -122.7026058}, {"type": "node", "id": 11848154304, "lat": 48.0666896, "lon": -122.7026527}, {"type": "node", "id": 11848154305, "lat": 48.0666205, "lon": -122.702655}, {"type": "node", "id": 11848154306, "lat": 48.0676085, "lon": -122.7024572}, {"type": "node", "id": 11848154307, "lat": 48.0676855, "lon": -122.702455}, {"type": "node", "id": 11848154308, "lat": 48.0676873, "lon": -122.7025957}, {"type": "node", "id": 11848154309, "lat": 48.0676103, "lon": -122.7025979}, {"type": "node", "id": 11848154310, "lat": 48.06752, "lon": -122.7021385}, {"type": "node", "id": 11848154311, "lat": 48.0675943, "lon": -122.7021361}, {"type": "node", "id": 11848154312, "lat": 48.0675961, "lon": -122.7022594}, {"type": "node", "id": 11848154313, "lat": 48.0675219, "lon": -122.7022619}, {"type": "node", "id": 11848154314, "lat": 48.0675867, "lon": -122.7025209}, {"type": "node", "id": 11848154315, "lat": 48.0675907, "lon": -122.7026601}, {"type": "node", "id": 11848154316, "lat": 48.0674977, "lon": -122.7026661}, {"type": "node", "id": 11848154317, "lat": 48.0674937, "lon": -122.7025269}, {"type": "node", "id": 11848154318, "lat": 48.0674614, "lon": -122.702387}, {"type": "node", "id": 11848154319, "lat": 48.0674629, "lon": -122.7024889}, {"type": "node", "id": 11848154320, "lat": 48.0674136, "lon": -122.7024905}, {"type": "node", "id": 11848154321, "lat": 48.0674121, "lon": -122.7023887}, {"type": "node", "id": 11848154322, "lat": 48.0678952, "lon": -122.7023444}, {"type": "node", "id": 11848154323, "lat": 48.068017, "lon": -122.7023486}, {"type": "node", "id": 11848154324, "lat": 48.068015, "lon": -122.7024799}, {"type": "node", "id": 11848154325, "lat": 48.0679773, "lon": -122.7024786}, {"type": "node", "id": 11848154326, "lat": 48.0679757, "lon": -122.7025832}, {"type": "node", "id": 11848154327, "lat": 48.0678915, "lon": -122.7025803}, {"type": "node", "id": 11848154328, "lat": 48.0681282, "lon": -122.7021547}, {"type": "node", "id": 11848154329, "lat": 48.0681263, "lon": -122.7023746}, {"type": "node", "id": 11848154330, "lat": 48.0680474, "lon": -122.702373}, {"type": "node", "id": 11848154331, "lat": 48.0680494, "lon": -122.7021531}, {"type": "node", "id": 11848154332, "lat": 48.0683195, "lon": -122.7025175}, {"type": "node", "id": 11848154333, "lat": 48.0683173, "lon": -122.7024089}, {"type": "node", "id": 11848154334, "lat": 48.068448, "lon": -122.7024029}, {"type": "node", "id": 11848154335, "lat": 48.0684502, "lon": -122.7025116}, {"type": "node", "id": 11848154445, "lat": 48.0689354, "lon": -122.7023383}, {"type": "node", "id": 11848154446, "lat": 48.0687949, "lon": -122.7023314}, {"type": "node", "id": 11848154447, "lat": 48.0687971, "lon": -122.7022323}, {"type": "node", "id": 11848154448, "lat": 48.0689376, "lon": -122.7022392}, {"type": "node", "id": 11848154449, "lat": 48.0690928, "lon": -122.7022139}, {"type": "node", "id": 11848154450, "lat": 48.0690915, "lon": -122.7020675}, {"type": "node", "id": 11848154451, "lat": 48.0691578, "lon": -122.7020661}, {"type": "node", "id": 11848154452, "lat": 48.0691592, "lon": -122.7022125}, {"type": "node", "id": 11848154453, "lat": 48.0691022, "lon": -122.7013339}, {"type": "node", "id": 11848154454, "lat": 48.0689406, "lon": -122.7013108}, {"type": "node", "id": 11848154455, "lat": 48.0689506, "lon": -122.701154}, {"type": "node", "id": 11848154456, "lat": 48.0689772, "lon": -122.7011578}, {"type": "node", "id": 11848154457, "lat": 48.068982, "lon": -122.7010823}, {"type": "node", "id": 11848154458, "lat": 48.0690478, "lon": -122.7010917}, {"type": "node", "id": 11848154459, "lat": 48.0690427, "lon": -122.7011714}, {"type": "node", "id": 11848154460, "lat": 48.0691119, "lon": -122.7011813}, {"type": "node", "id": 11848154461, "lat": 48.0681029, "lon": -122.7012992}, {"type": "node", "id": 11848154462, "lat": 48.067992, "lon": -122.7013061}, {"type": "node", "id": 11848154463, "lat": 48.0679883, "lon": -122.7011722}, {"type": "node", "id": 11848154464, "lat": 48.0680992, "lon": -122.7011653}, {"type": "node", "id": 11848154465, "lat": 48.0678061, "lon": -122.7013364}, {"type": "node", "id": 11848154466, "lat": 48.067803, "lon": -122.7015026}, {"type": "node", "id": 11848154467, "lat": 48.0677296, "lon": -122.7014996}, {"type": "node", "id": 11848154468, "lat": 48.0677284, "lon": -122.7015612}, {"type": "node", "id": 11848218769, "lat": 48.0676818, "lon": -122.7015593}, {"type": "node", "id": 11848218770, "lat": 48.0676861, "lon": -122.7013315}, {"type": "node", "id": 11848218771, "lat": 48.0677579, "lon": -122.7012233}, {"type": "node", "id": 11848218772, "lat": 48.0676703, "lon": -122.7011733}, {"type": "node", "id": 11848218773, "lat": 48.0676962, "lon": -122.7010715}, {"type": "node", "id": 11848218774, "lat": 48.0677839, "lon": -122.7011215}, {"type": "node", "id": 11848218775, "lat": 48.0704326, "lon": -122.7021226}, {"type": "node", "id": 11848218776, "lat": 48.0704121, "lon": -122.7022368}, {"type": "node", "id": 11848218777, "lat": 48.0703092, "lon": -122.7021956}, {"type": "node", "id": 11848218778, "lat": 48.0703297, "lon": -122.7020814}, {"type": "node", "id": 11848230269, "lat": 48.0674842, "lon": -122.7002131}, {"type": "node", "id": 11848230270, "lat": 48.0671066, "lon": -122.700027}, {"type": "node", "id": 11848230271, "lat": 48.0670304, "lon": -122.7000286}, {"type": "node", "id": 11848230272, "lat": 48.0670288, "lon": -122.6998557}, {"type": "node", "id": 11848230273, "lat": 48.067105, "lon": -122.699854}, {"type": "node", "id": 11848230274, "lat": 48.0670705, "lon": -122.700037}, {"type": "node", "id": 11848230275, "lat": 48.0670721, "lon": -122.7000959}, {"type": "node", "id": 11848230276, "lat": 48.0670345, "lon": -122.7000983}, {"type": "node", "id": 11848230277, "lat": 48.0670329, "lon": -122.7000394}, {"type": "node", "id": 11848230278, "lat": 48.0672745, "lon": -122.6992389}, {"type": "node", "id": 11848230279, "lat": 48.0672729, "lon": -122.6993918}, {"type": "node", "id": 11848230280, "lat": 48.0671359, "lon": -122.6993884}, {"type": "node", "id": 11848230281, "lat": 48.0671375, "lon": -122.6992356}, {"type": "node", "id": 11848230282, "lat": 48.0674164, "lon": -122.6993476}, {"type": "node", "id": 11848230283, "lat": 48.0673078, "lon": -122.6993272}, {"type": "node", "id": 11848230284, "lat": 48.0673183, "lon": -122.6992018}, {"type": "node", "id": 11848230285, "lat": 48.0674269, "lon": -122.6992222}, {"type": "node", "id": 11848230286, "lat": 48.0679795, "lon": -122.6994591}, {"type": "node", "id": 11848230287, "lat": 48.0678783, "lon": -122.6993216}, {"type": "node", "id": 11848230288, "lat": 48.0679336, "lon": -122.6992304}, {"type": "node", "id": 11848230289, "lat": 48.0680348, "lon": -122.6993679}, {"type": "node", "id": 11848230290, "lat": 48.0678546, "lon": -122.6988182}, {"type": "node", "id": 11848230291, "lat": 48.0679513, "lon": -122.698814}, {"type": "node", "id": 11848230292, "lat": 48.067954, "lon": -122.6989479}, {"type": "node", "id": 11848230293, "lat": 48.0678214, "lon": -122.6989538}, {"type": "node", "id": 11848230294, "lat": 48.0678196, "lon": -122.69886}, {"type": "node", "id": 11848230295, "lat": 48.0678554, "lon": -122.6988584}, {"type": "node", "id": 11848230296, "lat": 48.0679111, "lon": -122.6996019}, {"type": "node", "id": 11848230297, "lat": 48.0679129, "lon": -122.6994973}, {"type": "node", "id": 11848230298, "lat": 48.0679451, "lon": -122.6994986}, {"type": "node", "id": 11848230299, "lat": 48.0679433, "lon": -122.6996031}, {"type": "node", "id": 11848230302, "lat": 48.0671298, "lon": -122.69342}, {"type": "node", "id": 11848230303, "lat": 48.0671337, "lon": -122.6935512}, {"type": "node", "id": 11848230304, "lat": 48.0670668, "lon": -122.6935557}, {"type": "node", "id": 11848230305, "lat": 48.0670629, "lon": -122.6934245}, {"type": "node", "id": 11848230306, "lat": 48.0678909, "lon": -122.6913771}, {"type": "node", "id": 11848230307, "lat": 48.0679902, "lon": -122.6913739}, {"type": "node", "id": 11848230308, "lat": 48.0679934, "lon": -122.6915964}, {"type": "node", "id": 11848230309, "lat": 48.067894, "lon": -122.6915996}, {"type": "node", "id": 11848230310, "lat": 48.0660672, "lon": -122.6864889}, {"type": "node", "id": 11848230311, "lat": 48.0661925, "lon": -122.686494}, {"type": "node", "id": 11848230312, "lat": 48.0661923, "lon": -122.6865086}, {"type": "node", "id": 11848230313, "lat": 48.066246, "lon": -122.6865108}, {"type": "node", "id": 11848230314, "lat": 48.0662434, "lon": -122.6866555}, {"type": "node", "id": 11848230315, "lat": 48.0661377, "lon": -122.6866512}, {"type": "node", "id": 11848230316, "lat": 48.066136, "lon": -122.686745}, {"type": "node", "id": 11848230317, "lat": 48.0660625, "lon": -122.686742}, {"type": "node", "id": 11848230318, "lat": 48.0663559, "lon": -122.6872015}, {"type": "node", "id": 11848230319, "lat": 48.0663559, "lon": -122.6870379}, {"type": "node", "id": 11848230320, "lat": 48.0664617, "lon": -122.6870379}, {"type": "node", "id": 11848230321, "lat": 48.0664617, "lon": -122.6872015}, {"type": "node", "id": 11848230322, "lat": 48.0659597, "lon": -122.6865225}, {"type": "node", "id": 11848230323, "lat": 48.0658573, "lon": -122.6865033}, {"type": "node", "id": 11848230324, "lat": 48.0658695, "lon": -122.686358}, {"type": "node", "id": 11848230325, "lat": 48.0659719, "lon": -122.6863773}, {"type": "node", "id": 11848230326, "lat": 48.0657892, "lon": -122.68662}, {"type": "node", "id": 11848230327, "lat": 48.0657861, "lon": -122.6867888}, {"type": "node", "id": 11848230328, "lat": 48.0657718, "lon": -122.6867882}, {"type": "node", "id": 11848230329, "lat": 48.0657702, "lon": -122.686874}, {"type": "node", "id": 11848230330, "lat": 48.0656674, "lon": -122.6868698}, {"type": "node", "id": 11848230331, "lat": 48.065672, "lon": -122.6866152}, {"type": "node", "id": 11848230332, "lat": 48.0653943, "lon": -122.6868365}, {"type": "node", "id": 11848230333, "lat": 48.0653915, "lon": -122.6866703}, {"type": "node", "id": 11848230334, "lat": 48.0655348, "lon": -122.6866648}, {"type": "node", "id": 11848230335, "lat": 48.0655369, "lon": -122.6867908}, {"type": "node", "id": 11848230336, "lat": 48.0654689, "lon": -122.6867934}, {"type": "node", "id": 11848230337, "lat": 48.0654695, "lon": -122.6868336}, {"type": "node", "id": 11848230338, "lat": 48.0653454, "lon": -122.6860915}, {"type": "node", "id": 11848230339, "lat": 48.0652605, "lon": -122.6860884}, {"type": "node", "id": 11848230340, "lat": 48.0652611, "lon": -122.6860563}, {"type": "node", "id": 11848230341, "lat": 48.0651758, "lon": -122.6860532}, {"type": "node", "id": 11848230342, "lat": 48.065175, "lon": -122.6861026}, {"type": "node", "id": 11848230343, "lat": 48.0650836, "lon": -122.6860992}, {"type": "node", "id": 11848230344, "lat": 48.065084, "lon": -122.6860751}, {"type": "node", "id": 11848230345, "lat": 48.0650446, "lon": -122.6860737}, {"type": "node", "id": 11848230346, "lat": 48.065045, "lon": -122.6860495}, {"type": "node", "id": 11848230347, "lat": 48.0649841, "lon": -122.6860473}, {"type": "node", "id": 11848230348, "lat": 48.0649864, "lon": -122.6859026}, {"type": "node", "id": 11848230349, "lat": 48.0650466, "lon": -122.6859048}, {"type": "node", "id": 11848230350, "lat": 48.065047, "lon": -122.6858806}, {"type": "node", "id": 11848230351, "lat": 48.0651778, "lon": -122.6858854}, {"type": "node", "id": 11848230352, "lat": 48.0651772, "lon": -122.6859218}, {"type": "node", "id": 11848230353, "lat": 48.0653481, "lon": -122.685928}, {"type": "node", "id": 11848230354, "lat": 48.064458, "lon": -122.6857315}, {"type": "node", "id": 11848230355, "lat": 48.0644577, "lon": -122.6856472}, {"type": "node", "id": 11848230356, "lat": 48.0645473, "lon": -122.6856466}, {"type": "node", "id": 11848230357, "lat": 48.0645471, "lon": -122.6855726}, {"type": "node", "id": 11848230358, "lat": 48.0646367, "lon": -122.6855719}, {"type": "node", "id": 11848230359, "lat": 48.0646369, "lon": -122.6856406}, {"type": "node", "id": 11848230360, "lat": 48.0646799, "lon": -122.6856403}, {"type": "node", "id": 11848230361, "lat": 48.0646802, "lon": -122.6857191}, {"type": "node", "id": 11848230362, "lat": 48.0646203, "lon": -122.6857196}, {"type": "node", "id": 11848230363, "lat": 48.0646204, "lon": -122.6857507}, {"type": "node", "id": 11848230364, "lat": 48.0645631, "lon": -122.6857511}, {"type": "node", "id": 11848230365, "lat": 48.064563, "lon": -122.6857307}, {"type": "node", "id": 11848230366, "lat": 48.0646294, "lon": -122.6862995}, {"type": "node", "id": 11848230367, "lat": 48.0644806, "lon": -122.6862972}, {"type": "node", "id": 11848230368, "lat": 48.0644815, "lon": -122.6861792}, {"type": "node", "id": 11848230369, "lat": 48.0646302, "lon": -122.6861815}, {"type": "node", "id": 11848230370, "lat": 48.0640972, "lon": -122.6854367}, {"type": "node", "id": 11848230371, "lat": 48.0642327, "lon": -122.6854727}, {"type": "node", "id": 11848230372, "lat": 48.0642153, "lon": -122.6856193}, {"type": "node", "id": 11848230373, "lat": 48.0640798, "lon": -122.6855833}, {"type": "node", "id": 11848230374, "lat": 48.0639526, "lon": -122.6854556}, {"type": "node", "id": 11848230375, "lat": 48.0637576, "lon": -122.6854143}, {"type": "node", "id": 11848230376, "lat": 48.0637684, "lon": -122.6853002}, {"type": "node", "id": 11848230377, "lat": 48.0638316, "lon": -122.6853136}, {"type": "node", "id": 11848230378, "lat": 48.0638336, "lon": -122.6852926}, {"type": "node", "id": 11848230379, "lat": 48.0639654, "lon": -122.6853205}, {"type": "node", "id": 11848230380, "lat": 48.0635498, "lon": -122.6855131}, {"type": "node", "id": 11848230381, "lat": 48.0635264, "lon": -122.6853293}, {"type": "node", "id": 11848230382, "lat": 48.0636216, "lon": -122.6853022}, {"type": "node", "id": 11848230383, "lat": 48.0636341, "lon": -122.6854005}, {"type": "node", "id": 11848230384, "lat": 48.0636203, "lon": -122.6854045}, {"type": "node", "id": 11848230385, "lat": 48.0636311, "lon": -122.6854899}, {"type": "node", "id": 11848230386, "lat": 48.0631935, "lon": -122.6855881}, {"type": "node", "id": 11848230387, "lat": 48.0631941, "lon": -122.6855443}, {"type": "node", "id": 11848230388, "lat": 48.0631673, "lon": -122.6855433}, {"type": "node", "id": 11848230389, "lat": 48.0631686, "lon": -122.6854602}, {"type": "node", "id": 11848230390, "lat": 48.0633442, "lon": -122.6854664}, {"type": "node", "id": 11848230391, "lat": 48.0633422, "lon": -122.6855934}, {"type": "node", "id": 11848230392, "lat": 48.0634126, "lon": -122.6854886}, {"type": "node", "id": 11848230393, "lat": 48.0634897, "lon": -122.6854866}, {"type": "node", "id": 11848230394, "lat": 48.0634915, "lon": -122.6856404}, {"type": "node", "id": 11848230395, "lat": 48.0634144, "lon": -122.6856424}, {"type": "node", "id": 11848230396, "lat": 48.0634788, "lon": -122.6856841}, {"type": "node", "id": 11848230397, "lat": 48.0634812, "lon": -122.6858423}, {"type": "node", "id": 11848230398, "lat": 48.0634202, "lon": -122.6858443}, {"type": "node", "id": 11848230399, "lat": 48.0634179, "lon": -122.6856861}, {"type": "node", "id": 11848230400, "lat": 48.0630333, "lon": -122.6851204}, {"type": "node", "id": 11848230401, "lat": 48.0630336, "lon": -122.6852974}, {"type": "node", "id": 11848230402, "lat": 48.0630687, "lon": -122.6852972}, {"type": "node", "id": 11848230403, "lat": 48.0630689, "lon": -122.6854099}, {"type": "node", "id": 11848230404, "lat": 48.0629334, "lon": -122.6854104}, {"type": "node", "id": 11848230405, "lat": 48.0629332, "lon": -122.6852887}, {"type": "node", "id": 11848230406, "lat": 48.0628991, "lon": -122.6852889}, {"type": "node", "id": 11848230407, "lat": 48.062899, "lon": -122.6852174}, {"type": "node", "id": 11848230408, "lat": 48.0629324, "lon": -122.6852173}, {"type": "node", "id": 11848230409, "lat": 48.0629322, "lon": -122.6851208}, {"type": "node", "id": 11848230410, "lat": 48.0625516, "lon": -122.6851685}, {"type": "node", "id": 11848230411, "lat": 48.0625079, "lon": -122.6851674}, {"type": "node", "id": 11848230412, "lat": 48.0625071, "lon": -122.6852415}, {"type": "node", "id": 11848230413, "lat": 48.0624558, "lon": -122.6852402}, {"type": "node", "id": 11848230414, "lat": 48.0624588, "lon": -122.6849667}, {"type": "node", "id": 11848230415, "lat": 48.0625359, "lon": -122.6849686}, {"type": "node", "id": 11848230416, "lat": 48.0625353, "lon": -122.6850206}, {"type": "node", "id": 11848230417, "lat": 48.0625532, "lon": -122.685021}, {"type": "node", "id": 11848230418, "lat": 48.0626395, "lon": -122.6854342}, {"type": "node", "id": 11848230419, "lat": 48.062636, "lon": -122.6856658}, {"type": "node", "id": 11848230420, "lat": 48.0625446, "lon": -122.6856626}, {"type": "node", "id": 11848230421, "lat": 48.0625481, "lon": -122.6854311}, {"type": "node", "id": 11848230422, "lat": 48.062395, "lon": -122.6855513}, {"type": "node", "id": 11848230423, "lat": 48.0623986, "lon": -122.6856728}, {"type": "node", "id": 11848230424, "lat": 48.062293, "lon": -122.6856797}, {"type": "node", "id": 11848230425, "lat": 48.0622957, "lon": -122.6857707}, {"type": "node", "id": 11848230426, "lat": 48.0622044, "lon": -122.6857767}, {"type": "node", "id": 11848230427, "lat": 48.0621982, "lon": -122.6855642}, {"type": "node", "id": 11848230428, "lat": 48.0621932, "lon": -122.686149}, {"type": "node", "id": 11848230429, "lat": 48.0621918, "lon": -122.6860069}, {"type": "node", "id": 11848230430, "lat": 48.0622688, "lon": -122.6860051}, {"type": "node", "id": 11848230431, "lat": 48.0622703, "lon": -122.6861472}, {"type": "node", "id": 11848230432, "lat": 48.0630013, "lon": -122.6857461}, {"type": "node", "id": 11848230433, "lat": 48.0630029, "lon": -122.6859472}, {"type": "node", "id": 11848230434, "lat": 48.0629402, "lon": -122.6859483}, {"type": "node", "id": 11848230435, "lat": 48.0629395, "lon": -122.6858598}, {"type": "node", "id": 11848230436, "lat": 48.0628796, "lon": -122.6858609}, {"type": "node", "id": 11848230437, "lat": 48.0628787, "lon": -122.6857483}, {"type": "node", "id": 11848230438, "lat": 48.0628354, "lon": -122.6856392}, {"type": "node", "id": 11848230439, "lat": 48.0628333, "lon": -122.6855159}, {"type": "node", "id": 11848230440, "lat": 48.0629677, "lon": -122.6855108}, {"type": "node", "id": 11848230441, "lat": 48.0629684, "lon": -122.6855564}, {"type": "node", "id": 11848230442, "lat": 48.0629458, "lon": -122.6855573}, {"type": "node", "id": 11848230443, "lat": 48.0629472, "lon": -122.685635}, {"type": "node", "id": 11848230444, "lat": 48.0619569, "lon": -122.6871236}, {"type": "node", "id": 11848230445, "lat": 48.0619589, "lon": -122.6872657}, {"type": "node", "id": 11848230446, "lat": 48.0617618, "lon": -122.6872718}, {"type": "node", "id": 11848230447, "lat": 48.0617598, "lon": -122.6871297}, {"type": "node", "id": 11848230448, "lat": 48.0617025, "lon": -122.6876106}, {"type": "node", "id": 11848230449, "lat": 48.0617813, "lon": -122.6876074}, {"type": "node", "id": 11848230450, "lat": 48.0617831, "lon": -122.6877055}, {"type": "node", "id": 11848230451, "lat": 48.0617043, "lon": -122.6877086}, {"type": "node", "id": 11848230452, "lat": 48.062068, "lon": -122.6873784}, {"type": "node", "id": 11848230453, "lat": 48.0620674, "lon": -122.6874202}, {"type": "node", "id": 11848230454, "lat": 48.0619965, "lon": -122.6874179}, {"type": "node", "id": 11848230455, "lat": 48.0619971, "lon": -122.6873761}, {"type": "node", "id": 11848230456, "lat": 48.0617134, "lon": -122.6873809}, {"type": "node", "id": 11848230457, "lat": 48.0617708, "lon": -122.68738}, {"type": "node", "id": 11848230458, "lat": 48.0617712, "lon": -122.6874363}, {"type": "node", "id": 11848230459, "lat": 48.0617139, "lon": -122.6874372}, {"type": "node", "id": 11848230460, "lat": 48.0615613, "lon": -122.6853561}, {"type": "node", "id": 11848230461, "lat": 48.0615616, "lon": -122.6854806}, {"type": "node", "id": 11848230462, "lat": 48.0615149, "lon": -122.6854809}, {"type": "node", "id": 11848230463, "lat": 48.061515, "lon": -122.685497}, {"type": "node", "id": 11848230464, "lat": 48.0614336, "lon": -122.6854974}, {"type": "node", "id": 11848230465, "lat": 48.0614335, "lon": -122.6854265}, {"type": "node", "id": 11848230466, "lat": 48.0613797, "lon": -122.6854268}, {"type": "node", "id": 11848230467, "lat": 48.0613795, "lon": -122.685357}, {"type": "node", "id": 11848230468, "lat": 48.0614333, "lon": -122.6853568}, {"type": "node", "id": 11848230469, "lat": 48.0614332, "lon": -122.685307}, {"type": "node", "id": 11848230470, "lat": 48.0614859, "lon": -122.6853067}, {"type": "node", "id": 11848230471, "lat": 48.061486, "lon": -122.6853565}, {"type": "node", "id": 11848230472, "lat": 48.0613962, "lon": -122.6856498}, {"type": "node", "id": 11848230473, "lat": 48.0613994, "lon": -122.6857971}, {"type": "node", "id": 11848230474, "lat": 48.0613199, "lon": -122.685801}, {"type": "node", "id": 11848230475, "lat": 48.0613167, "lon": -122.6856537}, {"type": "node", "id": 11848230476, "lat": 48.0608837, "lon": -122.6855845}, {"type": "node", "id": 11848230477, "lat": 48.0607574, "lon": -122.6855566}, {"type": "node", "id": 11848230478, "lat": 48.0607681, "lon": -122.685449}, {"type": "node", "id": 11848230479, "lat": 48.0608944, "lon": -122.6854769}, {"type": "node", "id": 11848230480, "lat": 48.0603042, "lon": -122.6859041}, {"type": "node", "id": 11848230481, "lat": 48.0603303, "lon": -122.6861747}, {"type": "node", "id": 11848230482, "lat": 48.0602461, "lon": -122.686193}, {"type": "node", "id": 11848230483, "lat": 48.0602199, "lon": -122.6859224}, {"type": "node", "id": 11848230484, "lat": 48.0601829, "lon": -122.6858251}, {"type": "node", "id": 11848230485, "lat": 48.0600008, "lon": -122.6858285}, {"type": "node", "id": 11848230486, "lat": 48.0600002, "lon": -122.6857628}, {"type": "node", "id": 11848230487, "lat": 48.0600497, "lon": -122.6857619}, {"type": "node", "id": 11848230488, "lat": 48.060049, "lon": -122.6856734}, {"type": "node", "id": 11848230489, "lat": 48.0601314, "lon": -122.6856719}, {"type": "node", "id": 11848230490, "lat": 48.0601321, "lon": -122.685755}, {"type": "node", "id": 11848230491, "lat": 48.0601823, "lon": -122.6857541}, {"type": "node", "id": 11848230492, "lat": 48.059625, "lon": -122.6855531}, {"type": "node", "id": 11848230493, "lat": 48.0596556, "lon": -122.685527}, {"type": "node", "id": 11848230494, "lat": 48.0596633, "lon": -122.6855472}, {"type": "node", "id": 11848230495, "lat": 48.0596957, "lon": -122.6855195}, {"type": "node", "id": 11848230496, "lat": 48.0597467, "lon": -122.685653}, {"type": "node", "id": 11848230497, "lat": 48.0596837, "lon": -122.6857068}, {"type": "node", "id": 11848230498, "lat": 48.0618699, "lon": -122.6900132}, {"type": "node", "id": 11848230499, "lat": 48.0619606, "lon": -122.6899562}, {"type": "node", "id": 11848230500, "lat": 48.0619727, "lon": -122.6899995}, {"type": "node", "id": 11848230501, "lat": 48.0620383, "lon": -122.6899583}, {"type": "node", "id": 11848230502, "lat": 48.0620811, "lon": -122.690111}, {"type": "node", "id": 11848230503, "lat": 48.061925, "lon": -122.6902092}, {"type": "node", "id": 11848230504, "lat": 48.0643558, "lon": -122.6922031}, {"type": "node", "id": 11848230505, "lat": 48.0642411, "lon": -122.6922005}, {"type": "node", "id": 11848230506, "lat": 48.0642425, "lon": -122.6920611}, {"type": "node", "id": 11848230507, "lat": 48.0643751, "lon": -122.6920641}, {"type": "node", "id": 11848230508, "lat": 48.0643746, "lon": -122.6921097}, {"type": "node", "id": 11848230509, "lat": 48.0643567, "lon": -122.6921093}, {"type": "node", "id": 11848230510, "lat": 48.0643945, "lon": -122.6922884}, {"type": "node", "id": 11848230511, "lat": 48.0643915, "lon": -122.692156}, {"type": "node", "id": 11848230512, "lat": 48.0644836, "lon": -122.6921513}, {"type": "node", "id": 11848230513, "lat": 48.0644866, "lon": -122.6922837}, {"type": "node", "id": 11848230514, "lat": 48.0646628, "lon": -122.6915702}, {"type": "node", "id": 11848230515, "lat": 48.0648533, "lon": -122.6915007}, {"type": "node", "id": 11848230516, "lat": 48.0648739, "lon": -122.6916273}, {"type": "node", "id": 11848230517, "lat": 48.0646834, "lon": -122.6916968}, {"type": "node", "id": 11848232502, "lat": 48.0648741, "lon": -122.6915614}, {"type": "node", "id": 11848232503, "lat": 48.0649437, "lon": -122.6915344}, {"type": "node", "id": 11848232504, "lat": 48.0649572, "lon": -122.6916123}, {"type": "node", "id": 11848232505, "lat": 48.0648876, "lon": -122.6916393}, {"type": "node", "id": 11848232506, "lat": 48.0654579, "lon": -122.6926364}, {"type": "node", "id": 11848232507, "lat": 48.0654466, "lon": -122.6926494}, {"type": "node", "id": 11848232508, "lat": 48.0654694, "lon": -122.6926943}, {"type": "node", "id": 11848232509, "lat": 48.0654023, "lon": -122.6927705}, {"type": "node", "id": 11848232510, "lat": 48.0653467, "lon": -122.692661}, {"type": "node", "id": 11848232511, "lat": 48.0654251, "lon": -122.6925718}, {"type": "node", "id": 11848232512, "lat": 48.066543, "lon": -122.6909638}, {"type": "node", "id": 11848232513, "lat": 48.0665423, "lon": -122.6908753}, {"type": "node", "id": 11848232514, "lat": 48.0665244, "lon": -122.6908756}, {"type": "node", "id": 11848232515, "lat": 48.0665235, "lon": -122.6907764}, {"type": "node", "id": 11848232516, "lat": 48.0665809, "lon": -122.6907753}, {"type": "node", "id": 11848232517, "lat": 48.0665813, "lon": -122.6908263}, {"type": "node", "id": 11848232518, "lat": 48.0666189, "lon": -122.6908256}, {"type": "node", "id": 11848232519, "lat": 48.0666201, "lon": -122.6909623}, {"type": "node", "id": 11848232520, "lat": 48.0663473, "lon": -122.6900327}, {"type": "node", "id": 11848232521, "lat": 48.0662946, "lon": -122.6901294}, {"type": "node", "id": 11848232522, "lat": 48.0661858, "lon": -122.6899967}, {"type": "node", "id": 11848232523, "lat": 48.0662385, "lon": -122.6899}, {"type": "node", "id": 11848232524, "lat": 48.0663809, "lon": -122.6913357}, {"type": "node", "id": 11848232525, "lat": 48.0663829, "lon": -122.6914321}, {"type": "node", "id": 11848232526, "lat": 48.0662844, "lon": -122.6914367}, {"type": "node", "id": 11848232527, "lat": 48.0662832, "lon": -122.691375}, {"type": "node", "id": 11848232528, "lat": 48.06632, "lon": -122.6913733}, {"type": "node", "id": 11848232529, "lat": 48.0663192, "lon": -122.6913385}, {"type": "node", "id": 11848232530, "lat": 48.0663275, "lon": -122.6917491}, {"type": "node", "id": 11848232531, "lat": 48.0663291, "lon": -122.6918268}, {"type": "node", "id": 11848232532, "lat": 48.0662431, "lon": -122.6918309}, {"type": "node", "id": 11848232533, "lat": 48.0662415, "lon": -122.6917532}, {"type": "node", "id": 11848232534, "lat": 48.0661171, "lon": -122.6914431}, {"type": "node", "id": 11848232535, "lat": 48.0661274, "lon": -122.6914964}, {"type": "node", "id": 11848232536, "lat": 48.0660233, "lon": -122.6915417}, {"type": "node", "id": 11848232537, "lat": 48.0660226, "lon": -122.6915379}, {"type": "node", "id": 11848232538, "lat": 48.0659812, "lon": -122.6915558}, {"type": "node", "id": 11848232539, "lat": 48.0659716, "lon": -122.6915063}, {"type": "node", "id": 11848232540, "lat": 48.0670598, "lon": -122.6907658}, {"type": "node", "id": 11848232541, "lat": 48.0671386, "lon": -122.6907696}, {"type": "node", "id": 11848232542, "lat": 48.0671341, "lon": -122.6909786}, {"type": "node", "id": 11848232543, "lat": 48.0670553, "lon": -122.6909748}, {"type": "node", "id": 11848232544, "lat": 48.0678259, "lon": -122.691392}, {"type": "node", "id": 11848232545, "lat": 48.0678249, "lon": -122.6914497}, {"type": "node", "id": 11848232546, "lat": 48.0677282, "lon": -122.6914456}, {"type": "node", "id": 11848232547, "lat": 48.0677292, "lon": -122.6913879}, {"type": "node", "id": 11848232548, "lat": 48.0606711, "lon": -122.6947004}, {"type": "node", "id": 11848232549, "lat": 48.0606192, "lon": -122.6945614}, {"type": "node", "id": 11848232550, "lat": 48.0607354, "lon": -122.6944643}, {"type": "node", "id": 11848232551, "lat": 48.0607873, "lon": -122.6946033}, {"type": "node", "id": 11848232552, "lat": 48.0606489, "lon": -122.6944704}, {"type": "node", "id": 11848232553, "lat": 48.0605682, "lon": -122.6942612}, {"type": "node", "id": 11848232554, "lat": 48.0607053, "lon": -122.6941427}, {"type": "node", "id": 11848232555, "lat": 48.0607861, "lon": -122.6943519}, {"type": "node", "id": 11848232556, "lat": 48.0607427, "lon": -122.6936659}, {"type": "node", "id": 11848232557, "lat": 48.0608145, "lon": -122.693846}, {"type": "node", "id": 11848232558, "lat": 48.0607325, "lon": -122.6939191}, {"type": "node", "id": 11848232559, "lat": 48.0606607, "lon": -122.693739}, {"type": "node", "id": 11848232560, "lat": 48.0587533, "lon": -122.6914906}, {"type": "node", "id": 11848232561, "lat": 48.0587759, "lon": -122.6915858}, {"type": "node", "id": 11848232562, "lat": 48.0587091, "lon": -122.6916214}, {"type": "node", "id": 11848232563, "lat": 48.0587226, "lon": -122.6916785}, {"type": "node", "id": 11848232564, "lat": 48.0586621, "lon": -122.6917107}, {"type": "node", "id": 11848232565, "lat": 48.058626, "lon": -122.6915582}, {"type": "node", "id": 11848232566, "lat": 48.0582865, "lon": -122.6907918}, {"type": "node", "id": 11848232567, "lat": 48.0582465, "lon": -122.6905434}, {"type": "node", "id": 11848232568, "lat": 48.058432, "lon": -122.6904764}, {"type": "node", "id": 11848234569, "lat": 48.0584463, "lon": -122.6905652}, {"type": "node", "id": 11848234570, "lat": 48.0584074, "lon": -122.6905792}, {"type": "node", "id": 11848234571, "lat": 48.0584115, "lon": -122.6906046}, {"type": "node", "id": 11848234572, "lat": 48.0583682, "lon": -122.6906202}, {"type": "node", "id": 11848234573, "lat": 48.0583899, "lon": -122.6907545}, {"type": "node", "id": 11848234574, "lat": 48.0589659, "lon": -122.6904005}, {"type": "node", "id": 11848234575, "lat": 48.0590259, "lon": -122.6903434}, {"type": "node", "id": 11848234576, "lat": 48.0591079, "lon": -122.6905361}, {"type": "node", "id": 11848234577, "lat": 48.0590479, "lon": -122.6905932}, {"type": "node", "id": 11848234578, "lat": 48.0589516, "lon": -122.6902112}, {"type": "node", "id": 11848234579, "lat": 48.0590327, "lon": -122.690126}, {"type": "node", "id": 11848234580, "lat": 48.0590929, "lon": -122.6902546}, {"type": "node", "id": 11848234581, "lat": 48.0590118, "lon": -122.6903397}, {"type": "node", "id": 11848234582, "lat": 48.0575982, "lon": -122.6873919}, {"type": "node", "id": 11848234583, "lat": 48.057636, "lon": -122.6872261}, {"type": "node", "id": 11848234584, "lat": 48.0576995, "lon": -122.6872585}, {"type": "node", "id": 11848234585, "lat": 48.0577055, "lon": -122.6872321}, {"type": "node", "id": 11848234586, "lat": 48.0578292, "lon": -122.6872952}, {"type": "node", "id": 11848234587, "lat": 48.057798, "lon": -122.6874321}, {"type": "node", "id": 11848234588, "lat": 48.0577762, "lon": -122.687421}, {"type": "node", "id": 11848234589, "lat": 48.0577677, "lon": -122.6874585}, {"type": "node", "id": 11848234590, "lat": 48.0576851, "lon": -122.6874163}, {"type": "node", "id": 11848234591, "lat": 48.057681, "lon": -122.6874342}, {"type": "node", "id": 11848234595, "lat": 48.057778, "lon": -122.6855822}, {"type": "node", "id": 11848234596, "lat": 48.0577729, "lon": -122.6857158}, {"type": "node", "id": 11848234597, "lat": 48.0576872, "lon": -122.6857086}, {"type": "node", "id": 11848234598, "lat": 48.0576914, "lon": -122.6855963}, {"type": "node", "id": 11848234599, "lat": 48.0577361, "lon": -122.6856001}, {"type": "node", "id": 11848234600, "lat": 48.0577369, "lon": -122.6855787}, {"type": "node", "id": 11848234601, "lat": 48.0579482, "lon": -122.6858078}, {"type": "node", "id": 11848234602, "lat": 48.0579521, "lon": -122.6857142}, {"type": "node", "id": 11848234603, "lat": 48.0580467, "lon": -122.685723}, {"type": "node", "id": 11848234604, "lat": 48.0580429, "lon": -122.6858165}, {"type": "node", "id": 11848234605, "lat": 48.0581119, "lon": -122.6856326}, {"type": "node", "id": 11848234606, "lat": 48.0581372, "lon": -122.6854472}, {"type": "node", "id": 11848234607, "lat": 48.0582243, "lon": -122.6854739}, {"type": "node", "id": 11848234608, "lat": 48.0581989, "lon": -122.6856592}, {"type": "node", "id": 11848234609, "lat": 48.058768, "lon": -122.68562}, {"type": "node", "id": 11848234610, "lat": 48.0587717, "lon": -122.6855576}, {"type": "node", "id": 11848234611, "lat": 48.0588197, "lon": -122.685564}, {"type": "node", "id": 11848234612, "lat": 48.058816, "lon": -122.6856264}, {"type": "node", "id": 11848234613, "lat": 48.0566, "lon": -122.6842212}, {"type": "node", "id": 11848234614, "lat": 48.0565969, "lon": -122.6840909}, {"type": "node", "id": 11848234615, "lat": 48.0566614, "lon": -122.6840875}, {"type": "node", "id": 11848234616, "lat": 48.0566645, "lon": -122.6842177}, {"type": "node", "id": 11848234617, "lat": 48.0564861, "lon": -122.685545}, {"type": "node", "id": 11848234618, "lat": 48.0565201, "lon": -122.6856816}, {"type": "node", "id": 11848234619, "lat": 48.0564068, "lon": -122.6857448}, {"type": "node", "id": 11848234620, "lat": 48.0563728, "lon": -122.6856082}, {"type": "node", "id": 11848234621, "lat": 48.0563946, "lon": -122.6864821}, {"type": "node", "id": 11848234622, "lat": 48.0564855, "lon": -122.6864425}, {"type": "node", "id": 11848234623, "lat": 48.0565257, "lon": -122.6866493}, {"type": "node", "id": 11848234624, "lat": 48.0564348, "lon": -122.6866889}, {"type": "node", "id": 11848234625, "lat": 48.0565228, "lon": -122.6866806}, {"type": "node", "id": 11848234626, "lat": 48.0565499, "lon": -122.6867706}, {"type": "node", "id": 11848234627, "lat": 48.0564843, "lon": -122.6868148}, {"type": "node", "id": 11848234628, "lat": 48.0564572, "lon": -122.6867248}, {"type": "node", "id": 11848234632, "lat": 48.0553382, "lon": -122.6855938}, {"type": "node", "id": 11848234633, "lat": 48.0553813, "lon": -122.6853612}, {"type": "node", "id": 11848234634, "lat": 48.0555011, "lon": -122.6854109}, {"type": "node", "id": 11848234635, "lat": 48.055458, "lon": -122.6856435}, {"type": "node", "id": 11848300338, "lat": 48.0407717, "lon": -122.6918538}, {"type": "node", "id": 11848300339, "lat": 48.0407369, "lon": -122.69168}, {"type": "node", "id": 11848300340, "lat": 48.0408545, "lon": -122.6916273}, {"type": "node", "id": 11848300341, "lat": 48.0408893, "lon": -122.6918011}, {"type": "node", "id": 11848300342, "lat": 48.0405972, "lon": -122.6916015}, {"type": "node", "id": 11848300343, "lat": 48.0405967, "lon": -122.6917366}, {"type": "node", "id": 11848300344, "lat": 48.0406367, "lon": -122.6917197}, {"type": "node", "id": 11848300345, "lat": 48.0406803, "lon": -122.6919508}, {"type": "node", "id": 11848300346, "lat": 48.0405906, "lon": -122.6919886}, {"type": "node", "id": 11848300347, "lat": 48.0405595, "lon": -122.6918239}, {"type": "node", "id": 11848300348, "lat": 48.0405006, "lon": -122.6918234}, {"type": "node", "id": 11848300349, "lat": 48.040501, "lon": -122.6917083}, {"type": "node", "id": 11848300350, "lat": 48.0405377, "lon": -122.6916928}, {"type": "node", "id": 11848300351, "lat": 48.040538, "lon": -122.6916011}, {"type": "node", "id": 11848300352, "lat": 48.0411159, "lon": -122.6919209}, {"type": "node", "id": 11848300353, "lat": 48.0412378, "lon": -122.6919239}, {"type": "node", "id": 11848300354, "lat": 48.0412363, "lon": -122.692058}, {"type": "node", "id": 11848300355, "lat": 48.0411144, "lon": -122.692055}, {"type": "node", "id": 11848300356, "lat": 48.0430492, "lon": -122.6918477}, {"type": "node", "id": 11848300358, "lat": 48.0431762, "lon": -122.691669}, {"type": "node", "id": 11848300359, "lat": 48.0431783, "lon": -122.6918444}, {"type": "node", "id": 11848300360, "lat": 48.0437493, "lon": -122.692782}, {"type": "node", "id": 11848300361, "lat": 48.0437548, "lon": -122.6929318}, {"type": "node", "id": 11848300362, "lat": 48.0436135, "lon": -122.6929433}, {"type": "node", "id": 11848300363, "lat": 48.0436081, "lon": -122.6927935}, {"type": "node", "id": 11848300364, "lat": 48.0431963, "lon": -122.6927052}, {"type": "node", "id": 11848300365, "lat": 48.0432606, "lon": -122.6926931}, {"type": "node", "id": 11848300366, "lat": 48.0432786, "lon": -122.6929069}, {"type": "node", "id": 11848300367, "lat": 48.0432144, "lon": -122.6929191}, {"type": "node", "id": 11848300368, "lat": 48.0428681, "lon": -122.6924135}, {"type": "node", "id": 11848312069, "lat": 48.0429542, "lon": -122.6923949}, {"type": "node", "id": 11848312070, "lat": 48.0429628, "lon": -122.6924843}, {"type": "node", "id": 11848312071, "lat": 48.0429934, "lon": -122.6924777}, {"type": "node", "id": 11848312072, "lat": 48.043002, "lon": -122.692567}, {"type": "node", "id": 11848312073, "lat": 48.0429652, "lon": -122.692575}, {"type": "node", "id": 11848312074, "lat": 48.0429703, "lon": -122.6926286}, {"type": "node", "id": 11848312075, "lat": 48.0428695, "lon": -122.6926504}, {"type": "node", "id": 11848312076, "lat": 48.0428611, "lon": -122.6925637}, {"type": "node", "id": 11848312077, "lat": 48.0428822, "lon": -122.6925591}, {"type": "node", "id": 11848312078, "lat": 48.0435243, "lon": -122.6917766}, {"type": "node", "id": 11848312079, "lat": 48.043523, "lon": -122.6916425}, {"type": "node", "id": 11848312080, "lat": 48.0436503, "lon": -122.6916398}, {"type": "node", "id": 11848312081, "lat": 48.0436516, "lon": -122.6917739}, {"type": "node", "id": 11848312082, "lat": 48.0444784, "lon": -122.6923678}, {"type": "node", "id": 11848312083, "lat": 48.0445238, "lon": -122.6923952}, {"type": "node", "id": 11848312084, "lat": 48.0445101, "lon": -122.692446}, {"type": "node", "id": 11848312085, "lat": 48.0444647, "lon": -122.6924186}, {"type": "node", "id": 11848312086, "lat": 48.0444486, "lon": -122.692658}, {"type": "node", "id": 11848312087, "lat": 48.0444792, "lon": -122.6924996}, {"type": "node", "id": 11848312088, "lat": 48.0445345, "lon": -122.6925236}, {"type": "node", "id": 11848312089, "lat": 48.0445293, "lon": -122.6925508}, {"type": "node", "id": 11848312090, "lat": 48.0446129, "lon": -122.6925871}, {"type": "node", "id": 11848312091, "lat": 48.0445875, "lon": -122.6927182}, {"type": "node", "id": 11848312092, "lat": 48.0394227, "lon": -122.6910986}, {"type": "node", "id": 11848312093, "lat": 48.0393492, "lon": -122.6911015}, {"type": "node", "id": 11848312094, "lat": 48.039347, "lon": -122.6909782}, {"type": "node", "id": 11848312095, "lat": 48.0395692, "lon": -122.6909693}, {"type": "node", "id": 11848312096, "lat": 48.0395713, "lon": -122.6910845}, {"type": "node", "id": 11848312097, "lat": 48.0394727, "lon": -122.6910885}, {"type": "node", "id": 11848312098, "lat": 48.0394736, "lon": -122.6911367}, {"type": "node", "id": 11848312099, "lat": 48.0394234, "lon": -122.6911388}, {"type": "node", "id": 11970216978, "lat": 48.0408442, "lon": -122.697626}, {"type": "node", "id": 11970216979, "lat": 48.0407752, "lon": -122.6976222}, {"type": "node", "id": 11970216980, "lat": 48.0407739, "lon": -122.6977184}, {"type": "node", "id": 11970216981, "lat": 48.0407512, "lon": -122.6977198}, {"type": "node", "id": 11970216982, "lat": 48.0407503, "lon": -122.6976778}, {"type": "node", "id": 11970216983, "lat": 48.0406992, "lon": -122.6976778}, {"type": "node", "id": 11970216984, "lat": 48.0406986, "lon": -122.6977198}, {"type": "node", "id": 11970216985, "lat": 48.0406566, "lon": -122.697716}, {"type": "node", "id": 11970216986, "lat": 48.0406585, "lon": -122.697849}, {"type": "node", "id": 11970216987, "lat": 48.0407837, "lon": -122.6978589}, {"type": "node", "id": 11970216988, "lat": 48.040784, "lon": -122.6978452}, {"type": "node", "id": 11970216989, "lat": 48.0408256, "lon": -122.6978447}, {"type": "node", "id": 11970216990, "lat": 48.0408266, "lon": -122.697732}, {"type": "node", "id": 11970216991, "lat": 48.0408436, "lon": -122.6977306}, {"type": "node", "id": 11970216992, "lat": 48.0417267, "lon": -122.6976927}, {"type": "node", "id": 11970216993, "lat": 48.0416743, "lon": -122.6976811}, {"type": "node", "id": 11970216994, "lat": 48.0416805, "lon": -122.6976177}, {"type": "node", "id": 11970216995, "lat": 48.0415589, "lon": -122.6975907}, {"type": "node", "id": 11970216996, "lat": 48.0415364, "lon": -122.6978181}, {"type": "node", "id": 11970216997, "lat": 48.0417105, "lon": -122.6978566}, {"type": "node", "id": 11970216998, "lat": 48.0412101, "lon": -122.6992717}, {"type": "node", "id": 11970216999, "lat": 48.0411419, "lon": -122.6992614}, {"type": "node", "id": 11970217000, "lat": 48.0411467, "lon": -122.6991906}, {"type": "node", "id": 11970217001, "lat": 48.0410456, "lon": -122.6991752}, {"type": "node", "id": 11970217002, "lat": 48.0410586, "lon": -122.6989841}, {"type": "node", "id": 11970217003, "lat": 48.0411549, "lon": -122.6989988}, {"type": "node", "id": 11970217004, "lat": 48.0411509, "lon": -122.6990574}, {"type": "node", "id": 11970217005, "lat": 48.0412238, "lon": -122.6990685}, {"type": "node", "id": 11970248381, "lat": 48.0611302, "lon": -122.6888972}, {"type": "node", "id": 11970248382, "lat": 48.0610489, "lon": -122.688901}, {"type": "node", "id": 11970248383, "lat": 48.0610521, "lon": -122.6890113}, {"type": "node", "id": 11970248384, "lat": 48.0611331, "lon": -122.6890066}, {"type": "node", "id": 11970248385, "lat": 48.0688919, "lon": -122.6935603}, {"type": "node", "id": 11970248386, "lat": 48.0687956, "lon": -122.693569}, {"type": "node", "id": 11970248387, "lat": 48.068797, "lon": -122.6936425}, {"type": "node", "id": 11970248388, "lat": 48.0688957, "lon": -122.693636}, {"type": "node", "id": 11970248389, "lat": 48.0683406, "lon": -122.6934173}, {"type": "node", "id": 11970248390, "lat": 48.0683609, "lon": -122.6933881}, {"type": "node", "id": 11970248391, "lat": 48.0683788, "lon": -122.6934161}, {"type": "node", "id": 11970248392, "lat": 48.0683585, "lon": -122.6934453}, {"type": "node", "id": 11970248393, "lat": 48.0658382, "lon": -122.696044}, {"type": "node", "id": 11970248394, "lat": 48.0656839, "lon": -122.6959082}, {"type": "node", "id": 11970248395, "lat": 48.0656186, "lon": -122.6960745}, {"type": "node", "id": 11970248396, "lat": 48.0657687, "lon": -122.6962166}, {"type": "node", "id": 11970248397, "lat": 48.068297, "lon": -122.7005842}, {"type": "node", "id": 11970248398, "lat": 48.0683027, "lon": -122.7004502}, {"type": "node", "id": 11970248399, "lat": 48.0683462, "lon": -122.7004543}, {"type": "node", "id": 11970248400, "lat": 48.0683475, "lon": -122.7004237}, {"type": "node", "id": 11970248401, "lat": 48.0683913, "lon": -122.7004279}, {"type": "node", "id": 11970248402, "lat": 48.0683843, "lon": -122.7005925}, {"type": "node", "id": 11970248403, "lat": 48.0686126, "lon": -122.7004083}, {"type": "node", "id": 11970248404, "lat": 48.0684803, "lon": -122.7004064}, {"type": "node", "id": 11970248405, "lat": 48.0684771, "lon": -122.7002734}, {"type": "node", "id": 11970248406, "lat": 48.0685014, "lon": -122.7002725}, {"type": "node", "id": 11970248407, "lat": 48.0685008, "lon": -122.7002428}, {"type": "node", "id": 11970248408, "lat": 48.0685608, "lon": -122.7002428}, {"type": "node", "id": 11970248409, "lat": 48.0685615, "lon": -122.7002715}, {"type": "node", "id": 11970248410, "lat": 48.0686094, "lon": -122.7002706}, {"type": "node", "id": 11970248411, "lat": 48.0688814, "lon": -122.7007202}, {"type": "node", "id": 11970248412, "lat": 48.0687613, "lon": -122.7007173}, {"type": "node", "id": 11970248413, "lat": 48.0687632, "lon": -122.7004811}, {"type": "node", "id": 11970248414, "lat": 48.0688853, "lon": -122.700485}, {"type": "node", "id": 11970248415, "lat": 48.06862, "lon": -122.699208}, {"type": "node", "id": 11970248416, "lat": 48.0686142, "lon": -122.6993128}, {"type": "node", "id": 11970248417, "lat": 48.0687559, "lon": -122.6993304}, {"type": "node", "id": 11970248418, "lat": 48.0687617, "lon": -122.6992256}, {"type": "node", "id": 11970248419, "lat": 48.0686103, "lon": -122.6991314}, {"type": "node", "id": 11970248420, "lat": 48.0685335, "lon": -122.6991166}, {"type": "node", "id": 11970248421, "lat": 48.0685501, "lon": -122.6989232}, {"type": "node", "id": 11970248422, "lat": 48.0686269, "lon": -122.698938}, {"type": "node", "id": 11970248423, "lat": 48.0692928, "lon": -122.7027293}, {"type": "node", "id": 11970248424, "lat": 48.0692845, "lon": -122.7026652}, {"type": "node", "id": 11970248425, "lat": 48.0693502, "lon": -122.7026478}, {"type": "node", "id": 11970248426, "lat": 48.0693585, "lon": -122.7027124}, {"type": "node", "id": 12960090988, "lat": 48.0590632, "lon": -122.6945009}, {"type": "node", "id": 12960090989, "lat": 48.0590939, "lon": -122.6944494}, {"type": "node", "id": 12960090990, "lat": 48.0591162, "lon": -122.6944791}, {"type": "node", "id": 12960090992, "lat": 48.058817, "lon": -122.6943532}, {"type": "node", "id": 12960090993, "lat": 48.0587552, "lon": -122.694356}, {"type": "node", "id": 12960090994, "lat": 48.0587563, "lon": -122.6944121}, {"type": "node", "id": 12960090995, "lat": 48.0588181, "lon": -122.6944093}, {"type": "way", "id": 840244723, "nodes": [7840539371, 7840539368, 7840539369, 7840539370, 7840539371], "tags": {"addr:city": "Nordland", "addr:country": "US", "addr:county": "Jefferson", "addr:housenumber": "160", "addr:postcode": "98358", "addr:state": "WA", "addr:street": "Smith Road", "building": "yes", "source": "Jefferson County Washington Open Data Site"}}, {"type": "way", "id": 840244724, "nodes": [7840539375, 7840539374, 7840539373, 7840539372, 7840539375], "tags": {"building": "yes"}}, {"type": "way", "id": 840244725, "nodes": [7840539379, 7840539378, 7840539377, 7840539376, 7840539379], "tags": {"building": "yes"}}, {"type": "way", "id": 840244726, "nodes": [7840539383, 7840539382, 7840539381, 7840539380, 7840539383], "tags": {"addr:city": "Nordland", "addr:country": "US", "addr:county": "Jefferson", "addr:housenumber": "154", "addr:postcode": "98358", "addr:state": "WA", "addr:street": "Smith Road", "building": "yes", "source": "Jefferson County Washington Open Data Site"}}, {"type": "way", "id": 1132494227, "nodes": [10559764552, 10559764549, 10559764547, 10559764548, 10559764546, 10559741605, 10559764550, 10559764551, 10559764552], "tags": {"building": "yes"}}, {"type": "way", "id": 1132494228, "nodes": [10559741607, 10559764511, 10559764512, 10559764513, 10559764510, 10559741606, 10559764509, 10559741608, 10559741607], "tags": {"addr:city": "Nordland", "addr:country": "US", "addr:county": "Jefferson", "addr:housenumber": "6456", "addr:postcode": "98358", "addr:state": "WA", "addr:street": "Flagler Road", "building": "yes", "source": "Jefferson County Washington Open Data Site"}}, {"type": "way", "id": 1132494232, "nodes": [10559764529, 10559764526, 10559764527, 10559764528, 10559764529], "tags": {"building": "yes"}}, {"type": "way", "id": 1132494233, "nodes": [10559764533, 10559764532, 10559764531, 10559764530, 10559764533], "tags": {"building": "yes"}}, {"type": "way", "id": 1132494234, "nodes": [10559764537, 10559764534, 10559764535, 10559764536, 10559764537], "tags": {"building": "yes"}}, {"type": "way", "id": 1132494235, "nodes": [10559764541, 10559764540, 10559764539, 10559764538, 10559764541], "tags": {"building": "yes"}}, {"type": "way", "id": 1132494236, "nodes": [10559764545, 10559764542, 10559764543, 10559764544, 10559764545], "tags": {"addr:city": "Nordland", "addr:country": "US", "addr:county": "Jefferson", "addr:housenumber": "6504", "addr:postcode": "98358", "addr:state": "WA", "addr:street": "Flagler Road", "building": "yes", "source": "Jefferson County Washington Open Data Site"}}, {"type": "way", "id": 1132494237, "nodes": [10559764556, 10559764553, 10559764554, 10559764555, 10559764556], "tags": {"building": "yes"}}, {"type": "way", "id": 1276202528, "nodes": [11848130390, 11848130391, 11848130392, 11848130393, 11848130390], "tags": {"addr:city": "Nordland", "addr:country": "US", "addr:county": "Jefferson", "addr:housenumber": "1076", "addr:postcode": "98358", "addr:state": "WA", "addr:street": "Schwartz Road", "building": "yes", "source": "Jefferson County Washington Open Data Site, microsoft/BuildingFootprints"}}, {"type": "way", "id": 1276202529, "nodes": [11848130394, 11848130395, 11848130396, 11848130397, 11848130394], "tags": {"building": "yes", "source": "microsoft/BuildingFootprints"}}, {"type": "way", "id": 1276202530, "nodes": [11848130398, 11848130399, 11848130400, 11848130401, 11848130402, 11848130403, 11848130404, 11848130405, 11848130406, 11848130407, 11848130408, 11848130409, 11848130410, 11848130411, 11848130412, 11848130413, 11848130398], "tags": {"building": "yes", "source": "microsoft/BuildingFootprints"}}, {"type": "way", "id": 1276202531, "nodes": [11848130414, 11848130415, 11848130416, 11848130417, 11848130418, 11848130419, 11848130420, 11848130421, 11848130414], "tags": {"building": "yes", "source": "microsoft/BuildingFootprints"}}, {"type": "way", "id": 1276202532, "nodes": [11848130422, 11848130423, 11848130424, 11848130425, 11848130426, 11848130427, 11848130428, 11848130429, 11848130430, 11848130431, 11848130432, 11848130433, 11848130434, 11848130435, 11848130422], "tags": {"building": "yes", "source": "microsoft/BuildingFootprints"}}, {"type": "way", "id": 1276202533, "nodes": [11848130436, 11848130437, 11848130438, 11848130439, 11848130440, 11848130441, 11848130442, 11848130443, 11848130444, 11848130445, 11848130446, 11848130447, 11848130448, 11848130449, 11848130450, 11848130451, 11848130452, 11848130453, 11848130454, 11848130455, 11848130456, 11848130457, 11848130436], "tags": {"addr:city": "Nordland", "addr:country": "US", "addr:county": "Jefferson", "addr:housenumber": "824", "addr:postcode": "98358", "addr:state": "WA", "addr:street": "Schwartz Road", "building": "yes", "source": "Jefferson County Washington Open Data Site, microsoft/BuildingFootprints"}}, {"type": "way", "id": 1276202534, "nodes": [11848130458, 11848130459, 11848130460, 11848130461, 11848130462, 11848130463, 11848130464, 11848130465, 11848130466, 11848130467, 11848130468, 11848130469, 11848130470, 11848130471, 11848130472, 11848130473, 11848130474, 11848130475, 11848130476, 11848130477, 11848130458], "tags": {"addr:city": "Nordland", "addr:country": "US", "addr:county": "Jefferson", "addr:housenumber": "780", "addr:postcode": "98358", "addr:state": "WA", "addr:street": "Schwartz Road", "building": "yes", "source": "Jefferson County Washington Open Data Site, microsoft/BuildingFootprints"}}, {"type": "way", "id": 1276203259, "nodes": [11848100475, 11848100476, 11848100477, 11848100478, 11848100479, 11848100480, 11848100475], "tags": {"addr:city": "Nordland", "addr:country": "US", "addr:county": "Jefferson", "addr:housenumber": "270", "addr:postcode": "98358", "addr:state": "WA", "addr:street": "Griffith Point Road", "building": "yes", "source": "Jefferson County Washington Open Data Site, microsoft/BuildingFootprints"}}, {"type": "way", "id": 1276203260, "nodes": [11848100481, 11848100482, 11848100483, 11848100484, 11848100485, 11848100486, 11848100481], "tags": {"addr:city": "Nordland", "addr:country": "US", "addr:county": "Jefferson", "addr:housenumber": "274", "addr:postcode": "98358", "addr:state": "WA", "addr:street": "Griffith Point Road", "building": "yes", "source": "Jefferson County Washington Open Data Site, microsoft/BuildingFootprints"}}, {"type": "way", "id": 1276203261, "nodes": [11848100487, 11848100488, 11848100489, 11848100490, 11848100487], "tags": {"addr:city": "Nordland", "addr:country": "US", "addr:county": "Jefferson", "addr:housenumber": "1371", "addr:postcode": "98358", "addr:state": "WA", "addr:street": "Griffith Point Road", "building": "yes", "source": "Jefferson County Washington Open Data Site, microsoft/BuildingFootprints"}}, {"type": "way", "id": 1276203262, "nodes": [11848100491, 11848100492, 11848100493, 11848100494, 9473263659, 11848100491], "tags": {"building": "yes", "source": "microsoft/BuildingFootprints"}}, {"type": "way", "id": 1276203263, "nodes": [11848100495, 11848100496, 11848100497, 11848100498, 11848100495], "tags": {"building": "yes", "source": "microsoft/BuildingFootprints"}}, {"type": "way", "id": 1276203264, "nodes": [11848100499, 11848100500, 11848100501, 9473278603, 11848100502, 11848100499], "tags": {"building": "yes", "source": "microsoft/BuildingFootprints"}}, {"type": "way", "id": 1276203265, "nodes": [11848100503, 11848100504, 11848100505, 11848100506, 11848100507, 11848100508, 11848100503], "tags": {"addr:city": "Nordland", "addr:country": "US", "addr:county": "Jefferson", "addr:housenumber": "1481", "addr:postcode": "98358", "addr:state": "WA", "addr:street": "Griffith Point Road", "building": "yes", "source": "Jefferson County Washington Open Data Site, microsoft/BuildingFootprints"}}, {"type": "way", "id": 1276203266, "nodes": [11848100509, 11848100510, 11848100511, 11848100512, 11848100509], "tags": {"building": "yes", "source": "microsoft/BuildingFootprints"}}, {"type": "way", "id": 1276203267, "nodes": [11848100513, 11848100514, 11848100515, 11848100516, 11848100513], "tags": {"building": "yes", "source": "microsoft/BuildingFootprints"}}, {"type": "way", "id": 1276203268, "nodes": [11848100517, 11848100518, 11848100519, 11848100520, 11848100521, 11848100522, 11848100523, 11848100524, 11848100517], "tags": {"addr:city": "Nordland", "addr:country": "US", "addr:county": "Jefferson", "addr:housenumber": "1511", "addr:postcode": "98358", "addr:state": "WA", "addr:street": "Griffith Point Road", "building": "yes", "source": "Jefferson County Washington Open Data Site, microsoft/BuildingFootprints"}}, {"type": "way", "id": 1276203269, "nodes": [11848100525, 11848100526, 11848100527, 11848100528, 11848100525], "tags": {"building": "yes", "source": "microsoft/BuildingFootprints"}}, {"type": "way", "id": 1276203270, "nodes": [11848100529, 11848100530, 11848100531, 11848100532, 11848100529], "tags": {"building": "yes", "source": "microsoft/BuildingFootprints"}}, {"type": "way", "id": 1276203271, "nodes": [11848100533, 11848100534, 11848100535, 11848100536, 11848100537, 11848100538, 11848100539, 11848100540, 11848100533], "tags": {"building": "yes", "source": "microsoft/BuildingFootprints"}}, {"type": "way", "id": 1276203272, "nodes": [11848100541, 11848100542, 11848100543, 11848100544, 11848100541], "tags": {"building": "yes", "source": "microsoft/BuildingFootprints"}}, {"type": "way", "id": 1276203273, "nodes": [11848100545, 11848100546, 11848100547, 11848100548, 11848100549, 11848100550, 11848100545], "tags": {"addr:city": "Nordland", "addr:country": "US", "addr:county": "Jefferson", "addr:housenumber": "1597", "addr:postcode": "98358", "addr:state": "WA", "addr:street": "Griffith Point Road", "building": "yes", "source": "Jefferson County Washington Open Data Site, microsoft/BuildingFootprints"}}, {"type": "way", "id": 1276203274, "nodes": [11848100551, 11848100552, 11848100553, 11848100554, 11848100555, 11848100556, 11848100551], "tags": {"addr:city": "Nordland", "addr:country": "US", "addr:county": "Jefferson", "addr:housenumber": "1611", "addr:postcode": "98358", "addr:state": "WA", "addr:street": "Griffith Point Road", "building": "yes", "source": "Jefferson County Washington Open Data Site, microsoft/BuildingFootprints"}}, {"type": "way", "id": 1276203275, "nodes": [11848100557, 11848100558, 11848100559, 11848100560, 11848100561, 11848100562, 11848100563, 11848100564, 11848100565, 11848100566, 11848100567, 11848100568, 11848135669, 11848135670, 11848135671, 11848135672, 11848135673, 11848135674, 11848100557], "tags": {"addr:city": "Nordland", "addr:country": "US", "addr:county": "Jefferson", "addr:housenumber": "1631", "addr:postcode": "98358", "addr:state": "WA", "addr:street": "Griffith Point Road", "building": "yes", "source": "Jefferson County Washington Open Data Site, microsoft/BuildingFootprints"}}, {"type": "way", "id": 1276203276, "nodes": [11848135675, 11848135676, 11848135677, 11848135678, 11848135675], "tags": {"building": "yes", "source": "microsoft/BuildingFootprints"}}, {"type": "way", "id": 1276203277, "nodes": [11848135679, 11848135680, 11848135681, 11848135682, 11848135679], "tags": {"addr:city": "Nordland", "addr:country": "US", "addr:county": "Jefferson", "addr:housenumber": "1651", "addr:postcode": "98358", "addr:state": "WA", "addr:street": "Griffith Point Road", "building": "yes", "source": "Jefferson County Washington Open Data Site, microsoft/BuildingFootprints"}}, {"type": "way", "id": 1276203278, "nodes": [11848135683, 11848135684, 11848135685, 11848135686, 11848135683], "tags": {"addr:city": "Nordland", "addr:country": "US", "addr:county": "Jefferson", "addr:housenumber": "7015", "addr:postcode": "98358", "addr:state": "WA", "addr:street": "Flagler Road", "building": "yes", "source": "Jefferson County Washington Open Data Site, microsoft/BuildingFootprints"}}, {"type": "way", "id": 1276203279, "nodes": [11848135687, 11848135688, 11848135689, 11848135690, 11848135691, 11848135692, 11848135687], "tags": {"addr:city": "Nordland", "addr:country": "US", "addr:county": "Jefferson", "addr:housenumber": "7013", "addr:postcode": "98358", "addr:state": "WA", "addr:street": "Flagler Road", "building": "yes", "source": "Jefferson County Washington Open Data Site, microsoft/BuildingFootprints"}}, {"type": "way", "id": 1276203280, "nodes": [11848135693, 11848135694, 11848135695, 11848135696, 11848135693], "tags": {"building": "yes", "source": "microsoft/BuildingFootprints"}}, {"type": "way", "id": 1276203281, "nodes": [11848135697, 11848135698, 11848135699, 11848135700, 11848135701, 11848135702, 11848135703, 11848135704, 11848135705, 11848135706, 11848135697], "tags": {"addr:city": "Nordland", "addr:country": "US", "addr:county": "Jefferson", "addr:housenumber": "6945", "addr:postcode": "98358", "addr:state": "WA", "addr:street": "Flagler Road", "building": "yes", "source": "Jefferson County Washington Open Data Site, microsoft/BuildingFootprints"}}, {"type": "way", "id": 1276203282, "nodes": [11848135707, 11848135708, 11848135709, 11848135710, 11848135707], "tags": {"building": "yes", "source": "microsoft/BuildingFootprints"}}, {"type": "way", "id": 1276203283, "nodes": [11848135711, 11848135712, 11848135713, 11848135714, 11848135715, 11848135716, 11848135717, 11848135718, 11848135719, 11848135720, 11848135721, 11848135722, 11848135711], "tags": {"building": "yes", "source": "microsoft/BuildingFootprints"}}, {"type": "way", "id": 1276203284, "nodes": [11848135723, 11848135724, 11848135725, 11848135726, 11848135727, 11848135728, 11848135729, 11848135730, 11848135723], "tags": {"building": "yes", "source": "microsoft/BuildingFootprints"}}, {"type": "way", "id": 1276203285, "nodes": [11848135731, 11848135732, 11848135733, 11848135734, 11848135731], "tags": {"addr:city": "Nordland", "addr:country": "US", "addr:county": "Jefferson", "addr:housenumber": "7120", "addr:postcode": "98358", "addr:state": "WA", "addr:street": "Flagler Road", "building": "yes", "source": "Jefferson County Washington Open Data Site, microsoft/BuildingFootprints"}}, {"type": "way", "id": 1276203286, "nodes": [11848135735, 11848135736, 11848135737, 11848135738, 11848135739, 11848135740, 11848135735], "tags": {"building": "yes", "source": "microsoft/BuildingFootprints"}}, {"type": "way", "id": 1276203287, "nodes": [11848135741, 11848135742, 11848135743, 11848135744, 11848135741], "tags": {"addr:city": "Nordland", "addr:country": "US", "addr:county": "Jefferson", "addr:housenumber": "7082", "addr:postcode": "98358", "addr:state": "WA", "addr:street": "Flagler Road", "building": "yes", "source": "Jefferson County Washington Open Data Site, microsoft/BuildingFootprints"}}, {"type": "way", "id": 1276203288, "nodes": [11848135745, 11848135746, 11848135747, 11848135748, 11848135749, 11848135750, 11848135751, 11848135752, 11848135753, 11848135754, 11848135745], "tags": {"addr:city": "Nordland", "addr:country": "US", "addr:county": "Jefferson", "addr:housenumber": "7164", "addr:postcode": "98358", "addr:state": "WA", "addr:street": "Flagler Road", "building": "yes", "source": "Jefferson County Washington Open Data Site, microsoft/BuildingFootprints"}}, {"type": "way", "id": 1276203289, "nodes": [11848135755, 11848135756, 11848135757, 11848135758, 11848135755], "tags": {"building": "yes", "source": "microsoft/BuildingFootprints"}}, {"type": "way", "id": 1276203290, "nodes": [11848135759, 11848135760, 11848135761, 11848135762, 11848135759], "tags": {"building": "yes", "source": "microsoft/BuildingFootprints"}}, {"type": "way", "id": 1276203291, "nodes": [11848135763, 11848135764, 11848135765, 11848135766, 11848135763], "tags": {"building": "yes", "source": "microsoft/BuildingFootprints"}}, {"type": "way", "id": 1276203292, "nodes": [11848135767, 11848135768, 11848135769, 11848135770, 11848135771, 11848135772, 11848135767], "tags": {"addr:housenumber": "7180", "addr:postcode": "98358", "addr:street": "Flagler Road", "building": "yes", "email": "hello@nordlandgeneralstore.com", "name": "Nordland General Store", "opening_hours": "Mo-Su 09:00-18:00", "phone": "+1-360-385-3737", "shop": "convenience", "source": "microsoft/BuildingFootprints", "website": "https://www.nordlandgeneralstore.com/"}}, {"type": "way", "id": 1276203293, "nodes": [11848135773, 11848135774, 11848135775, 11848135776, 11848135773], "tags": {"addr:city": "Nordland", "addr:country": "US", "addr:county": "Jefferson", "addr:housenumber": "7180", "addr:postcode": "98358", "addr:state": "WA", "addr:street": "Flagler Road", "building": "yes", "source": "Jefferson County Washington Open Data Site, microsoft/BuildingFootprints"}}, {"type": "way", "id": 1276203294, "nodes": [11848135777, 11848135778, 11848135779, 11848135780, 11848135777], "tags": {"building": "yes", "source": "microsoft/BuildingFootprints"}}, {"type": "way", "id": 1276203295, "nodes": [11848135781, 11848135782, 11848135783, 11848135784, 11848135781], "tags": {"addr:city": "Nordland", "addr:country": "US", "addr:county": "Jefferson", "addr:housenumber": "62", "addr:postcode": "98358", "addr:state": "WA", "addr:street": "Beveridge Lane", "building": "yes", "source": "Jefferson County Washington Open Data Site, microsoft/BuildingFootprints"}}, {"type": "way", "id": 1276203296, "nodes": [11848135785, 11848135786, 11848135787, 11848135788, 11848135789, 11848135790, 11848135785], "tags": {"building": "yes", "source": "microsoft/BuildingFootprints"}}, {"type": "way", "id": 1276203297, "nodes": [11848135791, 11848135792, 11848135793, 11848135794, 11848135795, 11848135796, 11848135797, 11848135798, 11848135799, 11848135800, 11848135791], "tags": {"building": "yes", "source": "microsoft/BuildingFootprints"}}, {"type": "way", "id": 1276203298, "nodes": [11848135801, 11848135802, 11848135803, 11848135804, 11848135805, 11848135806, 11848135801], "tags": {"building": "yes", "source": "microsoft/BuildingFootprints"}}, {"type": "way", "id": 1276203299, "nodes": [11848135807, 11848135808, 11848135809, 11848135810, 11848135811, 11848135812, 11848135813, 11848135814, 11848135807], "tags": {"addr:city": "Nordland", "addr:country": "US", "addr:county": "Jefferson", "addr:housenumber": "7194", "addr:postcode": "98358", "addr:state": "WA", "addr:street": "Flagler Road", "building": "yes", "source": "Jefferson County Washington Open Data Site, microsoft/BuildingFootprints"}}, {"type": "way", "id": 1276203300, "nodes": [11848135815, 11848135816, 11848135817, 11848135818, 11848135815], "tags": {"addr:city": "Nordland", "addr:country": "US", "addr:county": "Jefferson", "addr:housenumber": "7244", "addr:postcode": "98358", "addr:state": "WA", "addr:street": "Flagler Road", "building": "yes", "source": "Jefferson County Washington Open Data Site, microsoft/BuildingFootprints"}}, {"type": "way", "id": 1276203301, "nodes": [11848135819, 11848135820, 11848135821, 11848135822, 11848135819], "tags": {"building": "yes", "source": "microsoft/BuildingFootprints"}}, {"type": "way", "id": 1276203302, "nodes": [11848135823, 11848135824, 11848135825, 11848135826, 11848135823], "tags": {"building": "yes", "source": "microsoft/BuildingFootprints"}}, {"type": "way", "id": 1276203303, "nodes": [11848135827, 11848135828, 11848135829, 11848135830, 11848135831, 11848135832, 11848135833, 11848135834, 11848135835, 11848135836, 11848135837, 11848135838, 11848135839, 11848135840, 11848135827], "tags": {"addr:city": "Nordland", "addr:country": "US", "addr:county": "Jefferson", "addr:housenumber": "7334", "addr:postcode": "98358", "addr:state": "WA", "addr:street": "Flagler Road", "building": "yes", "source": "Jefferson County Washington Open Data Site, microsoft/BuildingFootprints"}}, {"type": "way", "id": 1276203304, "nodes": [11848135841, 11848135842, 11848135843, 11848135844, 11848135845, 11848135846, 11848135841], "tags": {"building": "yes", "source": "microsoft/BuildingFootprints"}}, {"type": "way", "id": 1276203305, "nodes": [11848135847, 11848135848, 11848135849, 11848135850, 11848135847], "tags": {"building": "yes", "source": "microsoft/BuildingFootprints"}}, {"type": "way", "id": 1276203306, "nodes": [11848135851, 11848135852, 11848135853, 11848135854, 11848135851], "tags": {"addr:city": "Nordland", "addr:country": "US", "addr:county": "Jefferson", "addr:housenumber": "7412", "addr:postcode": "98358", "addr:state": "WA", "addr:street": "Flagler Road", "building": "yes", "source": "Jefferson County Washington Open Data Site, microsoft/BuildingFootprints"}}, {"type": "way", "id": 1276203307, "nodes": [11848135855, 11848135856, 11848135857, 11848135858, 11848135859, 11848135860, 11848135855], "tags": {"addr:city": "Nordland", "addr:country": "US", "addr:county": "Jefferson", "addr:housenumber": "7416", "addr:postcode": "98358", "addr:state": "WA", "addr:street": "Flagler Road", "building": "yes", "source": "Jefferson County Washington Open Data Site, microsoft/BuildingFootprints"}}, {"type": "way", "id": 1276205889, "nodes": [11848139574, 11848139575, 11848139576, 11848139577, 11848139578, 11848139579, 11848139574], "tags": {"addr:city": "Nordland", "addr:country": "US", "addr:county": "Jefferson", "addr:housenumber": "7413", "addr:postcode": "98358", "addr:state": "WA", "addr:street": "Flagler Road", "building": "yes", "source": "Jefferson County Washington Open Data Site, microsoft/BuildingFootprints"}}, {"type": "way", "id": 1276205890, "nodes": [11848139580, 11848139581, 11848139582, 11848139583, 11848139580], "tags": {"building": "yes", "source": "microsoft/BuildingFootprints"}}, {"type": "way", "id": 1276205891, "nodes": [11848139584, 11848139585, 11848139586, 11848139587, 11848139584], "tags": {"building": "yes", "source": "microsoft/BuildingFootprints"}}, {"type": "way", "id": 1276205892, "nodes": [11848139588, 11848139589, 11848139590, 11848139591, 11848139592, 11848139593, 11848139594, 11848139595, 11848139588], "tags": {"addr:city": "Nordland", "addr:country": "US", "addr:county": "Jefferson", "addr:housenumber": "7415", "addr:postcode": "98358", "addr:state": "WA", "addr:street": "Flagler Road", "building": "yes", "source": "Jefferson County Washington Open Data Site, microsoft/BuildingFootprints"}}, {"type": "way", "id": 1276205894, "nodes": [11848139600, 9473268202, 11848139601, 11848139602, 11848139603, 11848139604, 11848139605, 11848139606, 11848139607, 11848139600], "tags": {"building": "yes", "source": "microsoft/BuildingFootprints"}}, {"type": "way", "id": 1276205895, "nodes": [11848139608, 11848139609, 11848139610, 11848139611, 11848139608], "tags": {"addr:city": "Nordland", "addr:country": "US", "addr:county": "Jefferson", "addr:housenumber": "7534", "addr:postcode": "98358", "addr:state": "WA", "addr:street": "Flagler Road", "building": "yes", "source": "Jefferson County Washington Open Data Site, microsoft/BuildingFootprints"}}, {"type": "way", "id": 1276205896, "nodes": [11848139612, 11848139613, 11848139614, 11848139615, 11848139612], "tags": {"building": "yes", "source": "microsoft/BuildingFootprints"}}, {"type": "way", "id": 1276205897, "nodes": [11848139616, 11848139617, 11848139618, 11848139619, 11848139620, 11848139621, 11848139622, 11848139623, 11848139624, 11848139625, 11848139626, 11848139627, 11848139628, 11848139629, 11848139630, 11848139631, 11848139632, 11848139633, 11848139634, 11848139635, 11848139616], "tags": {"addr:city": "Nordland", "addr:country": "US", "addr:county": "Jefferson", "addr:housenumber": "7513", "addr:postcode": "98358", "addr:state": "WA", "addr:street": "Flagler Road", "building": "yes", "source": "Jefferson County Washington Open Data Site, microsoft/BuildingFootprints"}}, {"type": "way", "id": 1276205898, "nodes": [11848139636, 11848139637, 11848139638, 11848139639, 11848139640, 11848139641, 11848139642, 11848139643, 11848139636], "tags": {"building": "yes", "source": "microsoft/BuildingFootprints"}}, {"type": "way", "id": 1276205900, "nodes": [11848139652, 11848139653, 11848139654, 11848139655, 11848139656, 11848139657, 11848139658, 11848139659, 11848139652], "tags": {"addr:city": "Nordland", "addr:country": "US", "addr:county": "Jefferson", "addr:housenumber": "7523", "addr:postcode": "98358", "addr:state": "WA", "addr:street": "Flagler Road", "building": "yes", "source": "Jefferson County Washington Open Data Site, microsoft/BuildingFootprints"}}, {"type": "way", "id": 1276205901, "nodes": [11848139660, 11848139661, 11848139662, 11848139663, 11848139664, 11848139665, 11848139666, 11848139667, 11848139668, 9473268097, 11848154069, 11848139660], "tags": {"building": "yes", "source": "microsoft/BuildingFootprints"}}, {"type": "way", "id": 1276205902, "nodes": [11848154070, 11848154071, 11848154072, 11848154073, 11848154070], "tags": {"building": "yes", "source": "microsoft/BuildingFootprints"}}, {"type": "way", "id": 1276205903, "nodes": [11848154074, 11848154075, 11848154076, 11848154077, 11848154078, 11848154079, 11848154080, 11848154081, 11848154082, 11848154083, 11848154074], "tags": {"addr:city": "Nordland", "addr:country": "US", "addr:county": "Jefferson", "addr:housenumber": "7663", "addr:postcode": "98358", "addr:state": "WA", "addr:street": "Flagler Road", "building": "yes", "source": "Jefferson County Washington Open Data Site, microsoft/BuildingFootprints"}}, {"type": "way", "id": 1276205905, "nodes": [11848154088, 11848154089, 11848154090, 11848154091, 11848154092, 11848154093, 11848154094, 11848154095, 11848154096, 11848154097, 11848154098, 11848154099, 11848154088], "tags": {"addr:city": "Nordland", "addr:country": "US", "addr:county": "Jefferson", "addr:housenumber": "7715", "addr:postcode": "98358", "addr:state": "WA", "addr:street": "Flagler Road", "building": "yes", "source": "Jefferson County Washington Open Data Site, microsoft/BuildingFootprints"}}, {"type": "way", "id": 1276205906, "nodes": [11848154100, 11848154101, 11848154102, 11848154103, 11848154100], "tags": {"building": "yes", "source": "microsoft/BuildingFootprints"}}, {"type": "way", "id": 1276205907, "nodes": [11848154104, 11848154105, 11848154106, 11848154107, 11848154108, 11848154109, 11848154110, 11848154111, 11848154104], "tags": {"addr:city": "Nordland", "addr:country": "US", "addr:county": "Jefferson", "addr:housenumber": "7723", "addr:postcode": "98358", "addr:state": "WA", "addr:street": "Flagler Road", "building": "yes", "source": "Jefferson County Washington Open Data Site, microsoft/BuildingFootprints"}}, {"type": "way", "id": 1276205908, "nodes": [11848154112, 11848154113, 11848154114, 11848154115, 11848154116, 11848154117, 11848154118, 11848154119, 11848154120, 11848154121, 11848154122, 11848154123, 11848154124, 11848154125, 11848154126, 11848154127, 11848154128, 11848154129, 11848154130, 11848154131, 11848154132, 11848154133, 11848154134, 11848154135, 11848154136, 11848154112], "tags": {"addr:city": "Nordland", "addr:country": "US", "addr:county": "Jefferson", "addr:housenumber": "7745", "addr:postcode": "98358", "addr:state": "WA", "addr:street": "Flagler Road", "building": "yes", "source": "Jefferson County Washington Open Data Site, microsoft/BuildingFootprints"}}, {"type": "way", "id": 1276205909, "nodes": [11848154137, 11848154138, 11848154139, 11848154140, 11848154137], "tags": {"addr:city": "Nordland", "addr:country": "US", "addr:county": "Jefferson", "addr:housenumber": "7835", "addr:postcode": "98358", "addr:state": "WA", "addr:street": "Flagler Road", "building": "yes", "source": "Jefferson County Washington Open Data Site, microsoft/BuildingFootprints"}}, {"type": "way", "id": 1276205910, "nodes": [11848154141, 11848154142, 11848154143, 11848154144, 11848154141], "tags": {"building": "yes", "source": "microsoft/BuildingFootprints"}}, {"type": "way", "id": 1276205911, "nodes": [11848154145, 11848154146, 11848154147, 11848154148, 11848154145], "tags": {"building": "yes", "source": "microsoft/BuildingFootprints"}}, {"type": "way", "id": 1276205912, "nodes": [11848154153, 11848154154, 11848154155, 11848154156, 11848154157, 11848154158, 11848154153], "tags": {"addr:city": "Nordland", "addr:country": "US", "addr:county": "Jefferson", "addr:housenumber": "61", "addr:postcode": "98358", "addr:state": "WA", "addr:street": "Blue Heron Road", "building": "yes", "source": "Jefferson County Washington Open Data Site, microsoft/BuildingFootprints"}}, {"type": "way", "id": 1276205913, "nodes": [11848154159, 11848154160, 11848154161, 11848154162, 11848154159], "tags": {"building": "yes", "source": "microsoft/BuildingFootprints"}}, {"type": "way", "id": 1276205914, "nodes": [11848154163, 11848154164, 11848154165, 11848154166, 11848154167, 11848154168, 11848154163], "tags": {"building": "yes", "source": "microsoft/BuildingFootprints"}}, {"type": "way", "id": 1276205915, "nodes": [11848154169, 11848154170, 11848154171, 11848154172, 11848154173, 11848154174, 11848154175, 11848154176, 11848154169], "tags": {"building": "yes", "source": "microsoft/BuildingFootprints"}}, {"type": "way", "id": 1276205916, "nodes": [11848154177, 11848154178, 11848154179, 11848154180, 11848154181, 11848154182, 11848154177], "tags": {"addr:city": "Nordland", "addr:country": "US", "addr:county": "Jefferson", "addr:housenumber": "83", "addr:postcode": "98358", "addr:state": "WA", "addr:street": "Heinzinger Road", "building": "yes", "source": "Jefferson County Washington Open Data Site, microsoft/BuildingFootprints"}}, {"type": "way", "id": 1276205917, "nodes": [11848154183, 11848154184, 11848154185, 11848154186, 11848154187, 11848154188, 11848154183], "tags": {"addr:city": "Nordland", "addr:country": "US", "addr:county": "Jefferson", "addr:housenumber": "81", "addr:postcode": "98358", "addr:state": "WA", "addr:street": "Heinzinger Road", "building": "yes", "source": "Jefferson County Washington Open Data Site, microsoft/BuildingFootprints"}}, {"type": "way", "id": 1276205919, "nodes": [11848154196, 11848154197, 11848154198, 11848154199, 11848154200, 11848154201, 9473267769, 11848154202, 11848154203, 11848154204, 11848154205, 11848154206, 11848154207, 11848154208, 11848154209, 11848154210, 11848154211, 11848154212, 11848154213, 11848154214, 11848154196], "tags": {"building": "yes", "source": "microsoft/BuildingFootprints"}}, {"type": "way", "id": 1276205920, "nodes": [11848154215, 11848154216, 11848154217, 11848154218, 11848154219, 11848154220, 11848154215], "tags": {"building": "yes", "source": "microsoft/BuildingFootprints"}}, {"type": "way", "id": 1276205921, "nodes": [11848154221, 11848154222, 11848154223, 11848154224, 11848154221], "tags": {"addr:city": "Nordland", "addr:country": "US", "addr:county": "Jefferson", "addr:housenumber": "8234", "addr:postcode": "98358", "addr:state": "WA", "addr:street": "Flagler Road", "building": "yes", "source": "Jefferson County Washington Open Data Site, microsoft/BuildingFootprints"}}, {"type": "way", "id": 1276205922, "nodes": [11848154225, 11848154226, 11848154227, 11848154228, 11848154229, 11848154230, 11848154231, 11848154232, 11848154233, 11848154234, 11848154235, 11848154236, 11848154225], "tags": {"addr:city": "Nordland", "addr:country": "US", "addr:county": "Jefferson", "addr:housenumber": "8235", "addr:postcode": "98358", "addr:state": "WA", "addr:street": "Flagler Road", "building": "yes", "source": "Jefferson County Washington Open Data Site, microsoft/BuildingFootprints"}}, {"type": "way", "id": 1276205923, "nodes": [11848154237, 11848154238, 11848154239, 11848154240, 11848154241, 11848154242, 11848154243, 11848154244, 11848154237], "tags": {"addr:city": "Nordland", "addr:country": "US", "addr:county": "Jefferson", "addr:housenumber": "8265", "addr:postcode": "98358", "addr:state": "WA", "addr:street": "Flagler Road", "building": "yes", "source": "Jefferson County Washington Open Data Site, microsoft/BuildingFootprints"}}, {"type": "way", "id": 1276205924, "nodes": [11848154245, 11848154246, 11848154247, 11848154248, 11848154249, 11848154250, 11848154251, 11848154252, 11848154245], "tags": {"building": "yes", "source": "microsoft/BuildingFootprints"}}, {"type": "way", "id": 1276205925, "nodes": [11848154253, 11848154254, 11848154255, 11848154256, 11848154253], "tags": {"building": "yes", "source": "microsoft/BuildingFootprints"}}, {"type": "way", "id": 1276205926, "nodes": [11848154257, 11848154258, 11848154259, 11848154260, 11848154261, 9473267538, 11848154262, 11848154263, 11848154264, 11848154257], "tags": {"building": "yes", "source": "microsoft/BuildingFootprints"}}, {"type": "way", "id": 1276205927, "nodes": [11848154265, 11848154266, 9473266589, 11848154267, 11848154268, 11848154265], "tags": {"building": "yes", "source": "microsoft/BuildingFootprints"}}, {"type": "way", "id": 1276205928, "nodes": [11848154269, 11848154270, 11848154271, 11848154272, 11848154269], "tags": {"building": "yes", "source": "microsoft/BuildingFootprints"}}, {"type": "way", "id": 1276205929, "nodes": [11848154273, 11848154274, 11848154275, 11848154276, 11848154273], "tags": {"addr:city": "Nordland", "addr:country": "US", "addr:county": "Jefferson", "addr:housenumber": "8357", "addr:postcode": "98358", "addr:state": "WA", "addr:street": "Flagler Road", "building": "yes", "source": "Jefferson County Washington Open Data Site, microsoft/BuildingFootprints"}}, {"type": "way", "id": 1276205930, "nodes": [11848154277, 11848154278, 11848154279, 11848154280, 9473267504, 11848154281, 11848154282, 11848154283, 11848154277], "tags": {"building": "yes", "source": "microsoft/BuildingFootprints"}}, {"type": "way", "id": 1276205931, "nodes": [11848154284, 9473267451, 11848154285, 11848154286, 11848154287, 11848154284], "tags": {"building": "yes", "source": "microsoft/BuildingFootprints"}}, {"type": "way", "id": 1276205932, "nodes": [11848154288, 11848154289, 11848154290, 11848154291, 11848154292, 9473267439, 11848154293, 11848154294, 11848154295, 11848154288], "tags": {"building": "yes", "source": "microsoft/BuildingFootprints"}}, {"type": "way", "id": 1276205933, "nodes": [11848154296, 11848154297, 11848154298, 9473267429, 11848154299, 11848154300, 11848154301, 11848154302, 11848154303, 11848154304, 11848154305, 11848154296], "tags": {"building": "yes", "source": "microsoft/BuildingFootprints"}}, {"type": "way", "id": 1276205934, "nodes": [11848154306, 11848154307, 11848154308, 11848154309, 11848154306], "tags": {"building": "yes", "source": "microsoft/BuildingFootprints"}}, {"type": "way", "id": 1276205935, "nodes": [11848154310, 11848154311, 11848154312, 11848154313, 11848154310], "tags": {"building": "yes", "source": "microsoft/BuildingFootprints"}}, {"type": "way", "id": 1276205936, "nodes": [11848154314, 11848154315, 11848154316, 11848154317, 9473267366, 11848154314], "tags": {"building": "yes", "source": "microsoft/BuildingFootprints"}}, {"type": "way", "id": 1276205937, "nodes": [11848154318, 11848154319, 11848154320, 11848154321, 9473267370, 11848154318], "tags": {"building": "yes", "source": "microsoft/BuildingFootprints"}}, {"type": "way", "id": 1276205938, "nodes": [11848154322, 11848154323, 11848154324, 11848154325, 11848154326, 11848154327, 11848154322], "tags": {"addr:city": "Nordland", "addr:country": "US", "addr:county": "Jefferson", "addr:housenumber": "8593", "addr:postcode": "98358", "addr:state": "WA", "addr:street": "Flagler Road", "building": "yes", "source": "Jefferson County Washington Open Data Site, microsoft/BuildingFootprints"}}, {"type": "way", "id": 1276205939, "nodes": [11848154328, 11848154329, 11848154330, 11848154331, 11848154328], "tags": {"building": "yes", "source": "microsoft/BuildingFootprints"}}, {"type": "way", "id": 1276205940, "nodes": [11848154332, 11848154333, 9473267356, 11848154334, 11848154335, 11848154332], "tags": {"building": "yes", "source": "microsoft/BuildingFootprints"}}, {"type": "way", "id": 1276209481, "nodes": [11848154445, 9473267329, 11848154446, 11848154447, 11848154448, 11848154445], "tags": {"building": "yes", "source": "microsoft/BuildingFootprints"}}, {"type": "way", "id": 1276209482, "nodes": [11848154449, 11848154450, 11848154451, 11848154452, 11848154449], "tags": {"building": "yes", "source": "microsoft/BuildingFootprints"}}, {"type": "way", "id": 1276209483, "nodes": [11848154453, 11848154454, 11848154455, 11848154456, 11848154457, 11848154458, 11848154459, 9473280918, 11848154460, 11848154453], "tags": {"building": "yes", "source": "microsoft/BuildingFootprints"}}, {"type": "way", "id": 1276209484, "nodes": [11848154461, 11848154462, 11848154463, 9473268623, 11848154464, 11848154461], "tags": {"building": "yes", "source": "microsoft/BuildingFootprints"}}, {"type": "way", "id": 1276209485, "nodes": [11848154465, 11848154466, 11848154467, 11848154468, 11848218769, 11848218770, 9473264784, 11848154465], "tags": {"building": "yes", "source": "microsoft/BuildingFootprints"}}, {"type": "way", "id": 1276209486, "nodes": [11848218771, 11848218772, 11848218773, 11848218774, 11848218771], "tags": {"building": "yes", "source": "microsoft/BuildingFootprints"}}, {"type": "way", "id": 1276209487, "nodes": [11848218775, 11848218776, 11848218777, 11848218778, 11848218775], "tags": {"addr:city": "Nordland", "addr:country": "US", "addr:county": "Jefferson", "addr:housenumber": "8735", "addr:postcode": "98358", "addr:state": "WA", "addr:street": "Flagler Road", "building": "yes", "source": "Jefferson County Washington Open Data Site, microsoft/BuildingFootprints"}}, {"type": "way", "id": 1276210613, "nodes": [11848085445, 11848085446, 11848085447, 11848085448, 11848085445], "tags": {"building": "yes", "source": "microsoft/BuildingFootprints"}}, {"type": "way", "id": 1276210615, "nodes": [11848085454, 11848085455, 11848085456, 11848085457, 11848085458, 9473279490, 11848085459, 11848085454], "tags": {"building": "yes", "source": "microsoft/BuildingFootprints"}}, {"type": "way", "id": 1276210616, "nodes": [11848085460, 11848085461, 11848085462, 11848085463, 11848085464, 11848085465, 11848085460], "tags": {"building": "yes", "source": "microsoft/BuildingFootprints"}}, {"type": "way", "id": 1276210617, "nodes": [11848085466, 11848085467, 9473270918, 11848085468, 11848230269, 11848085466], "tags": {"building": "yes", "source": "microsoft/BuildingFootprints"}}, {"type": "way", "id": 1276210618, "nodes": [11848230270, 11848230271, 11848230272, 11848230273, 11848230270], "tags": {"building": "yes", "source": "microsoft/BuildingFootprints"}}, {"type": "way", "id": 1276210619, "nodes": [11848230274, 11848230275, 11848230276, 11848230277, 11848230274], "tags": {"building": "yes", "source": "microsoft/BuildingFootprints"}}, {"type": "way", "id": 1276210620, "nodes": [11848230278, 11848230279, 11848230280, 11848230281, 9473276662, 11848230278], "tags": {"building": "yes", "source": "microsoft/BuildingFootprints"}}, {"type": "way", "id": 1276210621, "nodes": [11848230282, 11848230283, 11848230284, 9473277279, 11848230285, 11848230282], "tags": {"building": "yes", "source": "microsoft/BuildingFootprints"}}, {"type": "way", "id": 1276210622, "nodes": [11848230286, 9473277363, 11848230287, 11848230288, 11848230289, 11848230286], "tags": {"building": "yes", "source": "microsoft/BuildingFootprints"}}, {"type": "way", "id": 1276210623, "nodes": [11848230290, 11848230291, 11848230292, 11848230293, 11848230294, 11848230295, 11848230290], "tags": {"building": "yes", "source": "microsoft/BuildingFootprints"}}, {"type": "way", "id": 1276210624, "nodes": [11848230296, 11848230297, 11848230298, 11848230299, 11848230296], "tags": {"building": "yes", "source": "microsoft/BuildingFootprints"}}, {"type": "way", "id": 1276210626, "nodes": [11848230302, 11848230303, 11848230304, 11848230305, 11848230302], "tags": {"building": "yes", "source": "microsoft/BuildingFootprints"}}, {"type": "way", "id": 1276210627, "nodes": [11848230306, 11848230307, 11848230308, 11848230309, 11848230306], "tags": {"building": "yes", "source": "microsoft/BuildingFootprints"}}, {"type": "way", "id": 1276210628, "nodes": [11848230310, 11848230311, 11848230312, 11848230313, 11848230314, 11848230315, 11848230316, 11848230317, 11848230310], "tags": {"addr:city": "Nordland", "addr:country": "US", "addr:county": "Jefferson", "addr:housenumber": "176", "addr:postcode": "98358", "addr:state": "WA", "addr:street": "Plute Road", "building": "yes", "source": "Jefferson County Washington Open Data Site, microsoft/BuildingFootprints"}}, {"type": "way", "id": 1276210629, "nodes": [11848230318, 11848230319, 11848230320, 11848230321, 11848230318], "tags": {"addr:city": "Nordland", "addr:country": "US", "addr:county": "Jefferson", "addr:housenumber": "180", "addr:postcode": "98358", "addr:state": "WA", "addr:street": "Plute Road", "building": "yes", "source": "Jefferson County Washington Open Data Site, microsoft/BuildingFootprints"}}, {"type": "way", "id": 1276210630, "nodes": [11848230322, 11848230323, 11848230324, 11848230325, 11848230322], "tags": {"building": "yes", "source": "microsoft/BuildingFootprints"}}, {"type": "way", "id": 1276210631, "nodes": [11848230326, 11848230327, 11848230328, 11848230329, 11848230330, 11848230331, 11848230326], "tags": {"addr:city": "Nordland", "addr:country": "US", "addr:county": "Jefferson", "addr:housenumber": "532", "addr:postcode": "98358", "addr:state": "WA", "addr:street": "Schwartz Road", "building": "yes", "source": "Jefferson County Washington Open Data Site, microsoft/BuildingFootprints"}}, {"type": "way", "id": 1276210632, "nodes": [11848230332, 11848230333, 11848230334, 11848230335, 11848230336, 11848230337, 11848230332], "tags": {"building": "yes", "source": "microsoft/BuildingFootprints"}}, {"type": "way", "id": 1276210633, "nodes": [11848230338, 11848230339, 11848230340, 11848230341, 11848230342, 11848230343, 11848230344, 11848230345, 11848230346, 11848230347, 11848230348, 11848230349, 11848230350, 11848230351, 11848230352, 11848230353, 11848230338], "tags": {"addr:city": "Nordland", "addr:country": "US", "addr:county": "Jefferson", "addr:housenumber": "536", "addr:postcode": "98358", "addr:state": "WA", "addr:street": "Schwartz Road", "building": "yes", "source": "Jefferson County Washington Open Data Site, microsoft/BuildingFootprints"}}, {"type": "way", "id": 1276210634, "nodes": [11848230354, 11848230355, 11848230356, 11848230357, 11848230358, 11848230359, 11848230360, 11848230361, 11848230362, 11848230363, 11848230364, 11848230365, 11848230354], "tags": {"addr:city": "Nordland", "addr:country": "US", "addr:county": "Jefferson", "addr:housenumber": "484", "addr:postcode": "98358", "addr:state": "WA", "addr:street": "Schwartz Road", "building": "yes", "source": "Jefferson County Washington Open Data Site, microsoft/BuildingFootprints"}}, {"type": "way", "id": 1276210635, "nodes": [11848230366, 11848230367, 11848230368, 11848230369, 11848230366], "tags": {"building": "yes", "source": "microsoft/BuildingFootprints"}}, {"type": "way", "id": 1276210636, "nodes": [11848230370, 11848230371, 11848230372, 11848230373, 11848230370], "tags": {"addr:city": "Nordland", "addr:country": "US", "addr:county": "Jefferson", "addr:housenumber": "482", "addr:postcode": "98358", "addr:state": "WA", "addr:street": "Schwartz Road", "building": "yes", "source": "Jefferson County Washington Open Data Site, microsoft/BuildingFootprints"}}, {"type": "way", "id": 1276210637, "nodes": [11848230374, 11848230375, 11848230376, 11848230377, 11848230378, 11848230379, 11848230374], "tags": {"building": "yes", "source": "microsoft/BuildingFootprints"}}, {"type": "way", "id": 1276210638, "nodes": [11848230380, 11848230381, 11848230382, 11848230383, 11848230384, 11848230385, 11848230380], "tags": {"addr:city": "Nordland", "addr:country": "US", "addr:county": "Jefferson", "addr:housenumber": "430", "addr:postcode": "98358", "addr:state": "WA", "addr:street": "Schwartz Road", "building": "yes", "source": "Jefferson County Washington Open Data Site, microsoft/BuildingFootprints"}}, {"type": "way", "id": 1276210639, "nodes": [11848230386, 11848230387, 11848230388, 11848230389, 11848230390, 11848230391, 11848230386], "tags": {"addr:city": "Nordland", "addr:country": "US", "addr:county": "Jefferson", "addr:housenumber": "372", "addr:postcode": "98358", "addr:state": "WA", "addr:street": "Schwartz Road", "building": "yes", "source": "Jefferson County Washington Open Data Site, microsoft/BuildingFootprints"}}, {"type": "way", "id": 1276210640, "nodes": [11848230392, 11848230393, 11848230394, 11848230395, 11848230392], "tags": {"building": "yes", "source": "microsoft/BuildingFootprints"}}, {"type": "way", "id": 1276210641, "nodes": [11848230396, 11848230397, 11848230398, 11848230399, 11848230396], "tags": {"building": "yes", "source": "microsoft/BuildingFootprints"}}, {"type": "way", "id": 1276210642, "nodes": [11848230400, 11848230401, 11848230402, 11848230403, 11848230404, 11848230405, 11848230406, 11848230407, 11848230408, 11848230409, 11848230400], "tags": {"addr:city": "Nordland", "addr:country": "US", "addr:county": "Jefferson", "addr:housenumber": "374", "addr:postcode": "98358", "addr:state": "WA", "addr:street": "Schwartz Road", "building": "yes", "source": "Jefferson County Washington Open Data Site, microsoft/BuildingFootprints"}}, {"type": "way", "id": 1276210643, "nodes": [11848230410, 11848230411, 11848230412, 11848230413, 11848230414, 11848230415, 11848230416, 11848230417, 11848230410], "tags": {"addr:city": "Nordland", "addr:country": "US", "addr:county": "Jefferson", "addr:housenumber": "376", "addr:postcode": "98358", "addr:state": "WA", "addr:street": "Schwartz Road", "building": "yes", "source": "Jefferson County Washington Open Data Site, microsoft/BuildingFootprints"}}, {"type": "way", "id": 1276210644, "nodes": [11848230418, 11848230419, 11848230420, 11848230421, 11848230418], "tags": {"building": "yes", "source": "microsoft/BuildingFootprints"}}, {"type": "way", "id": 1276210645, "nodes": [11848230422, 11848230423, 11848230424, 11848230425, 11848230426, 11848230427, 11848230422], "tags": {"addr:city": "Nordland", "addr:country": "US", "addr:county": "Jefferson", "addr:housenumber": "378", "addr:postcode": "98358", "addr:state": "WA", "addr:street": "Schwartz Road", "building": "yes", "source": "Jefferson County Washington Open Data Site, microsoft/BuildingFootprints"}}, {"type": "way", "id": 1276210646, "nodes": [11848230428, 11848230429, 11848230430, 11848230431, 11848230428], "tags": {"building": "yes", "source": "microsoft/BuildingFootprints"}}, {"type": "way", "id": 1276210647, "nodes": [11848230432, 11848230433, 11848230434, 11848230435, 11848230436, 11848230437, 11848230432], "tags": {"building": "yes", "source": "microsoft/BuildingFootprints"}}, {"type": "way", "id": 1276210648, "nodes": [11848230438, 11848230439, 11848230440, 11848230441, 11848230442, 11848230443, 11848230438], "tags": {"building": "yes", "source": "microsoft/BuildingFootprints"}}, {"type": "way", "id": 1276210649, "nodes": [11848230444, 11848230445, 11848230446, 11848230447, 11848230444], "tags": {"addr:city": "Nordland", "addr:country": "US", "addr:county": "Jefferson", "addr:housenumber": "310", "addr:postcode": "98358", "addr:state": "WA", "addr:street": "Schwartz Road", "building": "yes", "source": "Jefferson County Washington Open Data Site, microsoft/BuildingFootprints"}}, {"type": "way", "id": 1276210650, "nodes": [11848230448, 11848230449, 11848230450, 11848230451, 11848230448], "tags": {"building": "yes", "source": "microsoft/BuildingFootprints"}}, {"type": "way", "id": 1276210651, "nodes": [11848230452, 11848230453, 11848230454, 11848230455, 11848230452], "tags": {"building": "yes", "source": "microsoft/BuildingFootprints"}}, {"type": "way", "id": 1276210652, "nodes": [11848230456, 11848230457, 11848230458, 11848230459, 11848230456], "tags": {"building": "yes", "source": "microsoft/BuildingFootprints"}}, {"type": "way", "id": 1276210653, "nodes": [11848230460, 11848230461, 11848230462, 11848230463, 11848230464, 11848230465, 11848230466, 11848230467, 11848230468, 11848230469, 11848230470, 11848230471, 11848230460], "tags": {"addr:city": "Nordland", "addr:country": "US", "addr:county": "Jefferson", "addr:housenumber": "254", "addr:postcode": "98358", "addr:state": "WA", "addr:street": "Schwartz Road", "building": "yes", "source": "Jefferson County Washington Open Data Site, microsoft/BuildingFootprints"}}, {"type": "way", "id": 1276210654, "nodes": [11848230472, 11848230473, 11848230474, 11848230475, 11848230472], "tags": {"building": "yes", "source": "microsoft/BuildingFootprints"}}, {"type": "way", "id": 1276210655, "nodes": [11848230476, 11848230477, 11848230478, 11848230479, 11848230476], "tags": {"building": "yes", "source": "microsoft/BuildingFootprints"}}, {"type": "way", "id": 1276210656, "nodes": [11848230480, 11848230481, 11848230482, 11848230483, 11848230480], "tags": {"building": "yes", "source": "microsoft/BuildingFootprints"}}, {"type": "way", "id": 1276210657, "nodes": [11848230484, 11848230485, 11848230486, 11848230487, 11848230488, 11848230489, 11848230490, 11848230491, 11848230484], "tags": {"addr:city": "Nordland", "addr:country": "US", "addr:county": "Jefferson", "addr:housenumber": "166", "addr:postcode": "98358", "addr:state": "WA", "addr:street": "Schwartz Road", "building": "yes", "source": "Jefferson County Washington Open Data Site, microsoft/BuildingFootprints"}}, {"type": "way", "id": 1276210658, "nodes": [11848230492, 11848230493, 11848230494, 11848230495, 11848230496, 11848230497, 11848230492], "tags": {"building": "yes", "source": "microsoft/BuildingFootprints"}}, {"type": "way", "id": 1276210659, "nodes": [11848230498, 11848230499, 11848230500, 11848230501, 11848230502, 9473261174, 11848230503, 11848230498], "tags": {"building": "yes", "source": "microsoft/BuildingFootprints"}}, {"type": "way", "id": 1276210660, "nodes": [11848230504, 11848230505, 11848230506, 9473271364, 11848230507, 11848230508, 11848230509, 11848230504], "tags": {"building": "yes", "source": "microsoft/BuildingFootprints"}}, {"type": "way", "id": 1276210661, "nodes": [11848230510, 11848230511, 11848230512, 11848230513, 11848230510], "tags": {"building": "yes", "source": "microsoft/BuildingFootprints"}}, {"type": "way", "id": 1276210662, "nodes": [11848230514, 9473261467, 11848230515, 11848230516, 11848230517, 11848230514], "tags": {"building": "yes", "source": "microsoft/BuildingFootprints"}}, {"type": "way", "id": 1276211249, "nodes": [11848232502, 11848232503, 11848232504, 11848232505, 11848232502], "tags": {"building": "yes", "source": "microsoft/BuildingFootprints"}}, {"type": "way", "id": 1276211250, "nodes": [11848232506, 11848232507, 11848232508, 11848232509, 11848232510, 9473270241, 11848232511, 11848232506], "tags": {"building": "yes", "source": "microsoft/BuildingFootprints"}}, {"type": "way", "id": 1276211251, "nodes": [11848232512, 9473269493, 11848232513, 11848232514, 11848232515, 11848232516, 11848232517, 11848232518, 11848232519, 11848232512], "tags": {"building": "yes", "source": "microsoft/BuildingFootprints"}}, {"type": "way", "id": 1276211252, "nodes": [11848232520, 11848232521, 11848232522, 11848232523, 11848232520], "tags": {"building": "yes", "source": "microsoft/BuildingFootprints"}}, {"type": "way", "id": 1276211253, "nodes": [11848232524, 11848232525, 11848232526, 11848232527, 11848232528, 11848232529, 9473264261, 11848232524], "tags": {"building": "yes", "source": "microsoft/BuildingFootprints"}}, {"type": "way", "id": 1276211254, "nodes": [11848232530, 11848232531, 11848232532, 11848232533, 11848232530], "tags": {"building": "yes", "source": "microsoft/BuildingFootprints"}}, {"type": "way", "id": 1276211255, "nodes": [11848232534, 11848232535, 11848232536, 11848232537, 11848232538, 11848232539, 11848232534], "tags": {"building": "yes", "source": "microsoft/BuildingFootprints"}}, {"type": "way", "id": 1276211256, "nodes": [11848232540, 11848232541, 11848232542, 9473261009, 11848232543, 11848232540], "tags": {"building": "yes", "source": "microsoft/BuildingFootprints"}}, {"type": "way", "id": 1276211257, "nodes": [11848232544, 11848232545, 11848232546, 11848232547, 9473268752, 11848232544], "tags": {"building": "yes", "source": "microsoft/BuildingFootprints"}}, {"type": "way", "id": 1276211258, "nodes": [11848232548, 11848232549, 11848232550, 11848232551, 11848232548], "tags": {"building": "yes", "source": "microsoft/BuildingFootprints"}}, {"type": "way", "id": 1276211259, "nodes": [11848232552, 11848232553, 11848232554, 11848232555, 11848232552], "tags": {"building": "yes", "source": "microsoft/BuildingFootprints"}}, {"type": "way", "id": 1276211260, "nodes": [11848232556, 11848232557, 11848232558, 11848232559, 11848232556], "tags": {"building": "yes", "source": "microsoft/BuildingFootprints"}}, {"type": "way", "id": 1276211261, "nodes": [11848232560, 11848232561, 11848232562, 11848232563, 11848232564, 11848232565, 11848232560], "tags": {"addr:city": "Nordland", "addr:country": "US", "addr:county": "Jefferson", "addr:housenumber": "61", "addr:postcode": "98358", "addr:state": "WA", "addr:street": "Schwartz Road", "building": "yes", "source": "Jefferson County Washington Open Data Site, microsoft/BuildingFootprints"}}, {"type": "way", "id": 1276211262, "nodes": [11848232566, 11848232567, 11848232568, 11848234569, 11848234570, 11848234571, 11848234572, 11848234573, 11848232566], "tags": {"addr:city": "Nordland", "addr:country": "US", "addr:county": "Jefferson", "addr:housenumber": "54", "addr:postcode": "98358", "addr:state": "WA", "addr:street": "Schwartz Road", "building": "yes", "source": "Jefferson County Washington Open Data Site, microsoft/BuildingFootprints"}}, {"type": "way", "id": 1276211263, "nodes": [11848234574, 11848234575, 11848234576, 11848234577, 11848234574], "tags": {"building": "yes", "source": "microsoft/BuildingFootprints"}}, {"type": "way", "id": 1276211264, "nodes": [11848234578, 11848234579, 11848234580, 11848234581, 11848234578], "tags": {"addr:city": "Nordland", "addr:country": "US", "addr:county": "Jefferson", "addr:housenumber": "70", "addr:postcode": "98358", "addr:state": "WA", "addr:street": "Schwartz Road", "building": "yes", "source": "Jefferson County Washington Open Data Site, microsoft/BuildingFootprints"}}, {"type": "way", "id": 1276211265, "nodes": [11848234582, 11848234583, 11848234584, 11848234585, 11848234586, 11848234587, 11848234588, 11848234589, 11848234590, 11848234591, 11848234582], "tags": {"addr:city": "Nordland", "addr:country": "US", "addr:county": "Jefferson", "addr:housenumber": "155", "addr:postcode": "98358", "addr:state": "WA", "addr:street": "East Beach Road", "building": "yes", "source": "Jefferson County Washington Open Data Site, microsoft/BuildingFootprints"}}, {"type": "way", "id": 1276211267, "nodes": [11848234595, 11848234596, 11848234597, 11848234598, 11848234599, 11848234600, 11848234595], "tags": {"building": "yes", "source": "microsoft/BuildingFootprints"}}, {"type": "way", "id": 1276211268, "nodes": [11848234601, 11848234602, 11848234603, 11848234604, 11848234601], "tags": {"addr:city": "Nordland", "addr:country": "US", "addr:county": "Jefferson", "addr:housenumber": "177", "addr:postcode": "98358", "addr:state": "WA", "addr:street": "East Beach Road", "building": "yes", "source": "Jefferson County Washington Open Data Site, microsoft/BuildingFootprints"}}, {"type": "way", "id": 1276211269, "nodes": [11848234605, 11848234606, 11848234607, 11848234608, 11848234605], "tags": {"addr:city": "Nordland", "addr:country": "US", "addr:county": "Jefferson", "addr:housenumber": "173", "addr:postcode": "98358", "addr:state": "WA", "addr:street": "East Beach Road", "building": "yes", "source": "Jefferson County Washington Open Data Site, microsoft/BuildingFootprints"}}, {"type": "way", "id": 1276211270, "nodes": [11848234609, 11848234610, 11848234611, 11848234612, 11848234609], "tags": {"building": "yes", "source": "microsoft/BuildingFootprints"}}, {"type": "way", "id": 1276211271, "nodes": [11848234613, 11848234614, 11848234615, 11848234616, 11848234613], "tags": {"building": "yes", "source": "microsoft/BuildingFootprints"}}, {"type": "way", "id": 1276211272, "nodes": [11848234617, 11848234618, 11848234619, 11848234620, 11848234617], "tags": {"building": "yes", "source": "microsoft/BuildingFootprints"}}, {"type": "way", "id": 1276211273, "nodes": [11848234621, 11848234622, 11848234623, 11848234624, 11848234621], "tags": {"addr:city": "Nordland", "addr:country": "US", "addr:county": "Jefferson", "addr:housenumber": "190", "addr:postcode": "98358", "addr:state": "WA", "addr:street": "East Beach Road", "building": "yes", "source": "Jefferson County Washington Open Data Site, microsoft/BuildingFootprints"}}, {"type": "way", "id": 1276211274, "nodes": [11848234625, 11848234626, 11848234627, 11848234628, 11848234625], "tags": {"building": "yes", "source": "microsoft/BuildingFootprints"}}, {"type": "way", "id": 1276211276, "nodes": [11848234632, 11848234633, 11848234634, 11848234635, 11848234632], "tags": {"addr:city": "Nordland", "addr:country": "US", "addr:county": "Jefferson", "addr:housenumber": "2813", "addr:postcode": "98358", "addr:state": "WA", "addr:street": "East Marrowstone Road", "building": "yes", "source": "Jefferson County Washington Open Data Site, microsoft/BuildingFootprints"}}, {"type": "way", "id": 1276220492, "nodes": [11848300338, 11848300339, 11848300340, 11848300341, 11848300338], "tags": {"building": "yes", "source": "microsoft/BuildingFootprints"}}, {"type": "way", "id": 1276220493, "nodes": [11848300342, 11848300343, 11848300344, 11848300345, 11848300346, 11848300347, 11848300348, 11848300349, 11848300350, 11848300351, 11848300342], "tags": {"building": "yes", "source": "microsoft/BuildingFootprints"}}, {"type": "way", "id": 1276220494, "nodes": [11848300352, 11848300353, 11848300354, 11848300355, 11848300352], "tags": {"building": "yes", "source": "microsoft/BuildingFootprints"}}, {"type": "way", "id": 1276220495, "nodes": [11848300356, 9473260979, 11848300358, 11848300359, 11848300356], "tags": {"addr:city": "Nordland", "addr:country": "US", "addr:county": "Jefferson", "addr:housenumber": "6633", "addr:postcode": "98358", "addr:state": "WA", "addr:street": "Flagler Road", "amenity": "fire_station", "building": "fire_station", "name": "East Jefferson Fire Rescue Station 12"}}, {"type": "way", "id": 1276220496, "nodes": [11848300360, 11848300361, 11848300362, 11848300363, 11848300360], "tags": {"building": "yes", "source": "microsoft/BuildingFootprints"}}, {"type": "way", "id": 1276220497, "nodes": [11848300364, 11848300365, 11848300366, 11848300367, 11848300364], "tags": {"building": "yes", "source": "microsoft/BuildingFootprints"}}, {"type": "way", "id": 1276220498, "nodes": [11848300368, 11848312069, 11848312070, 11848312071, 11848312072, 11848312073, 11848312074, 11848312075, 11848312076, 11848312077, 11848300368], "tags": {"addr:city": "Nordland", "addr:country": "US", "addr:county": "Jefferson", "addr:housenumber": "6615", "addr:postcode": "98358", "addr:state": "WA", "addr:street": "Flagler Road", "building": "yes", "source": "Jefferson County Washington Open Data Site, microsoft/BuildingFootprints"}}, {"type": "way", "id": 1276220499, "nodes": [11848312078, 11848312079, 11848312080, 11848312081, 11848312078], "tags": {"building": "yes", "source": "microsoft/BuildingFootprints"}}, {"type": "way", "id": 1276220500, "nodes": [11848312082, 11848312083, 11848312084, 11848312085, 11848312082], "tags": {"building": "yes", "source": "microsoft/BuildingFootprints"}}, {"type": "way", "id": 1276220501, "nodes": [11848312086, 11848312087, 11848312088, 11848312089, 9473261415, 11848312090, 11848312091, 11848312086], "tags": {"building": "yes", "source": "microsoft/BuildingFootprints"}}, {"type": "way", "id": 1276220502, "nodes": [11848312092, 11848312093, 11848312094, 11848312095, 11848312096, 11848312097, 11848312098, 9473269197, 11848312099, 11848312092], "tags": {"building": "yes", "source": "microsoft/BuildingFootprints"}}, {"type": "way", "id": 1291073347, "nodes": [11970216978, 11970216979, 11970216980, 11970216981, 11970216982, 11970216983, 11970216984, 11970216985, 11970216986, 11970216987, 11970216988, 11970216989, 11970216990, 11970216991, 11970216978], "tags": {"building": "yes"}}, {"type": "way", "id": 1291073348, "nodes": [11970216992, 11970216993, 11970216994, 11970216995, 11970216996, 11970216997, 9473275552, 11970216992], "tags": {"building": "yes"}}, {"type": "way", "id": 1291073349, "nodes": [11970216998, 11970216999, 11970217000, 11970217001, 11970217002, 11970217003, 11970217004, 11970217005, 11970216998], "tags": {"addr:city": "Nordland", "addr:country": "US", "addr:county": "Jefferson", "addr:housenumber": "64", "addr:postcode": "98358", "addr:state": "WA", "addr:street": "Emily J Lane", "building": "yes", "source": "Jefferson County Washington Open Data Site"}}, {"type": "way", "id": 1291092257, "nodes": [11970248381, 11970248382, 11970248383, 11970248384, 9473274881, 11970248381], "tags": {"building": "yes"}}, {"type": "way", "id": 1291092258, "nodes": [11970248385, 9473267883, 11970248386, 11970248387, 11970248388, 11970248385], "tags": {"building": "yes"}}, {"type": "way", "id": 1291092259, "nodes": [11970248389, 11970248390, 9473267462, 11970248391, 11970248392, 11970248389], "tags": {"building": "yes"}}, {"type": "way", "id": 1291092260, "nodes": [11970248393, 11970248394, 9473271529, 11970248395, 11970248396, 11970248393], "tags": {"building": "yes"}}, {"type": "way", "id": 1291092261, "nodes": [11970248397, 9473279940, 11970248398, 11970248399, 11970248400, 11970248401, 11970248402, 11970248397], "tags": {"building": "yes"}}, {"type": "way", "id": 1291092262, "nodes": [11970248403, 9473280808, 11970248404, 11970248405, 11970248406, 11970248407, 11970248408, 11970248409, 11970248410, 11970248403], "tags": {"building": "yes"}}, {"type": "way", "id": 1291092263, "nodes": [11970248411, 9473277547, 11970248412, 11970248413, 11970248414, 11970248411], "tags": {"building": "yes"}}, {"type": "way", "id": 1291092264, "nodes": [11970248415, 11970248416, 11970248417, 11970248418, 11970248415], "tags": {"building": "yes"}}, {"type": "way", "id": 1291092265, "nodes": [11970248419, 11970248420, 11970248421, 11970248422, 9473276839, 11970248419], "tags": {"building": "yes"}}, {"type": "way", "id": 1291092266, "nodes": [11970248423, 11970248424, 11970248425, 11970248426, 9473267327, 11970248423], "tags": {"building": "yes"}}, {"type": "way", "id": 1410437530, "nodes": [6550640293, 12960090990, 12960090989, 12960090988, 6550640293], "tags": {"amenity": "toilets", "building": "yes"}}, {"type": "way", "id": 1410437532, "nodes": [12960090995, 12960090992, 12960090993, 12960090994, 12960090995], "tags": {"amenity": "shelter", "building": "yes"}}]}