{"version": 0.6, "generator": "Overpass API 0.7.62.8 e802775f", "osm3s": {"timestamp_osm_base": "2025-12-12T16:56:33Z", "copyright": "The data included in this document is from www.openstreetmap.org. The data is made available under ODbL."}, "elements": [{"type": "node", "id": 3894171850, "lat": 39.7757398, "lon": -105.0355621, "tags": {"addr:city": "Denver", "addr:housenumber": "3698", "addr:postcode": "80211", "addr:state": "CO", "addr:street": "West 44th Avenue", "addr:unit": "G", "branch": "Denver", "brand": "Anytime Fitness", "brand:wikidata": "Q4778364", "leisure": "fitness_centre", "name": "Anytime Fitness", "phone": "+1 720-475-0072", "ref": "3070", "website": "https://www.anytimefitness.com/gyms/3070/denver-co-80211/"}}, {"type": "node", "id": 4639103950, "lat": 39.7886864, "lon": -105.0313312, "tags": {"leisure": "fitness_centre", "name": "Regis Fitness Center"}}, {"type": "node", "id": 4741576416, "lat": 39.7761291, "lon": -105.0438192, "tags": {"addr:city": "Denver", "addr:housenumber": "4342", "addr:postcode": "80212", "addr:state": "CO", "addr:street": "Tennyson Street", "leisure": "fitness_centre", "name": "The Dailey Method", "sport": "yoga"}}, {"type": "node", "id": 4961468234, "lat": 39.7768738, "lon": -105.0341628, "tags": {"addr:city": "Denver", "addr:housenumber": "3537", "addr:postcode": "80211", "addr:state": "CO", "addr:street": "West 44th Avenue", "leisure": "fitness_centre", "name": "Personal Pilates Plus"}}, {"type": "node", "id": 4961501409, "lat": 39.776278, "lon": -105.0341873, "tags": {"addr:city": "Denver", "addr:housenumber": "4272", "addr:postcode": "80211", "addr:state": "CO", "addr:street": "Lowell Boulevard", "leisure": "fitness_centre", "name": "CrossFit Vantage"}}, {"type": "node", "id": 5051690919, "lat": 39.7842159, "lon": -105.054125, "tags": {"addr:city": "Denver", "addr:housenumber": "5275", "addr:postcode": "80212", "addr:state": "CO", "addr:street": "West 48th Avenue", "leisure": "fitness_centre", "name": "FitBox"}}, {"type": "node", "id": 12310636596, "lat": 39.7732868, "lon": -105.0438733, "tags": {"addr:city": "Denver", "addr:housenumber": "4144", "addr:postcode": "80212", "addr:state": "CO", "addr:street": "Tennyson Street", "leisure": "fitness_centre", "name": "Alchemy 365", "sport": "fitness"}}]}