{"version": 0.6, "generator": "Overpass API 0.7.62.8 e802775f", "osm3s": {"timestamp_osm_base": "2025-12-06T05:41:37Z", "copyright": "The data included in this document is from www.openstreetmap.org. The data is made available under ODbL."}, "elements": [{"type": "node", "id": 363191439, "lat": 43.4983298, "lon": -112.0026864}, {"type": "node", "id": 363191441, "lat": 43.4992146, "lon": -112.0028001}, {"type": "node", "id": 363191444, "lat": 43.4992047, "lon": -112.001754}, {"type": "node", "id": 363191446, "lat": 43.4983175, "lon": -112.0017704}, {"type": "node", "id": 366079355, "lat": 43.5088194, "lon": -112.007175, "tags": {"addr:state": "ID", "ele": "1444", "gnis:feature_id": "2106541", "name": "Bureau of Land Management Idaho Falls District", "office": "government"}}, {"type": "node", "id": 366079400, "lat": 43.5090742, "lon": -112.007299, "tags": {"addr:state": "ID", "ele": "1444", "gnis:feature_id": "2417999", "name": "Bureau of Land Management Upper Snake Field Office", "office": "government"}}, {"type": "node", "id": 1492137254, "lat": 43.5002637, "lon": -111.9996237}, {"type": "node", "id": 1492137307, "lat": 43.4999837, "lon": -111.9999077}, {"type": "node", "id": 1492137332, "lat": 43.4992052, "lon": -112.0020039}, {"type": "node", "id": 1492137351, "lat": 43.5002678, "lon": -111.9998997}, {"type": "node", "id": 1492137366, "lat": 43.4999797, "lon": -111.9996317}, {"type": "node", "id": 1721183131, "lat": 43.4992579, "lon": -112.0018849, "tags": {"brand": "Great Clips", "brand:wikidata": "Q5598967", "name": "Great Clips", "shop": "hairdresser"}}, {"type": "node", "id": 3531108368, "lat": 43.4985681, "lon": -112.0026802}, {"type": "node", "id": 3531108369, "lat": 43.4985707, "lon": -112.0028691}, {"type": "node", "id": 3531108370, "lat": 43.4987478, "lon": -112.0026814}, {"type": "node", "id": 3531108371, "lat": 43.4987504, "lon": -112.0028644}, {"type": "node", "id": 3531108372, "lat": 43.4990248, "lon": -112.0026749}, {"type": "node", "id": 3531108373, "lat": 43.4990658, "lon": -112.0028045}, {"type": "node", "id": 3902069804, "lat": 43.4973623, "lon": -112.0022787}, {"type": "node", "id": 3902069805, "lat": 43.4971155, "lon": -112.0022763}, {"type": "node", "id": 3902069806, "lat": 43.4971136, "lon": -112.0026679}, {"type": "node", "id": 3902069807, "lat": 43.4973603, "lon": -112.0026702}, {"type": "node", "id": 4174047896, "lat": 43.5142854, "lon": -112.0115929}, {"type": "node", "id": 4174047897, "lat": 43.5143102, "lon": -112.0115103}, {"type": "node", "id": 4174047898, "lat": 43.5142437, "lon": -112.0114711}, {"type": "node", "id": 4174047899, "lat": 43.5142589, "lon": -112.0114237}, {"type": "node", "id": 4174047900, "lat": 43.514207, "lon": -112.0113959}, {"type": "node", "id": 4174047901, "lat": 43.5142242, "lon": -112.0113387}, {"type": "node", "id": 4174047902, "lat": 43.5141561, "lon": -112.0112994}, {"type": "node", "id": 4174047903, "lat": 43.5141222, "lon": -112.0114041}, {"type": "node", "id": 4174047904, "lat": 43.5140886, "lon": -112.0113864}, {"type": "node", "id": 4174047905, "lat": 43.5140501, "lon": -112.0114541}, {"type": "node", "id": 4569927854, "lat": 43.5119008, "lon": -112.0057085, "tags": {"addr:city": "Idaho Falls", "addr:housenumber": "1355", "addr:postcode": "83401", "addr:state": "ID", "addr:street": "East Lincoln Road", "brand": "KTM;Kawasaki;Suzuki;Honda", "description": "KTM, Kawasaki, Suzuki, Honda", "name": "Action Motor Sports", "opening_hours": "Mo-Fr 08:00-18:00; Sa 08:00-17:00; PH,Su off", "phone": "+1-208-522-3050", "shop": "motorcycle", "website": "https://www.actionmotor.com/"}}, {"type": "node", "id": 5316670946, "lat": 43.498324, "lon": -112.0023955}, {"type": "node", "id": 5316670947, "lat": 43.4981169, "lon": -112.0023995}, {"type": "node", "id": 5316670948, "lat": 43.4981105, "lon": -112.0017745}, {"type": "node", "id": 8834809076, "lat": 43.5002384, "lon": -112.0110994, "tags": {"name": "All Things Wireless", "shop": "mobile_phone"}}, {"type": "node", "id": 8837732223, "lat": 43.5042238, "lon": -112.0086628, "tags": {"name": "Bonneville Storage", "shop": "storage_rental"}}, {"type": "node", "id": 8841027490, "lat": 43.4972272, "lon": -112.0036358, "tags": {"name": "Cierra Ashley - Fragrance For Life", "shop": "houseware"}}, {"type": "node", "id": 8841027558, "lat": 43.4978922, "lon": -111.9995582}, {"type": "node", "id": 8841027559, "lat": 43.4977822, "lon": -111.9995623}, {"type": "node", "id": 8841027560, "lat": 43.4977791, "lon": -111.9994035}, {"type": "node", "id": 8841027561, "lat": 43.4978891, "lon": -111.9993994}, {"type": "node", "id": 8841027588, "lat": 43.4984062, "lon": -111.9996504, "tags": {"clothes": "wedding", "name": "Tangled in Tulle Bridal & Prom", "shop": "clothes"}}, {"type": "node", "id": 8841027589, "lat": 43.4984062, "lon": -111.9994294, "tags": {"name": "Beamers Action Sports Shop", "shop": "bicycle"}}, {"type": "node", "id": 8841027590, "lat": 43.4983381, "lon": -111.9996541, "tags": {"name": "Liberty Tax & Loans", "shop": "money_lender"}}, {"type": "node", "id": 8841027712, "lat": 43.4993682, "lon": -112.0018843, "tags": {"name": "Idaho State Liquor Store", "shop": "alcohol"}}, {"type": "node", "id": 8841027713, "lat": 43.4994684, "lon": -112.0018855, "tags": {"addr:city": "Idaho Falls", "addr:housenumber": "399", "addr:postcode": "83401", "addr:state": "ID", "addr:street": "North Woodruff", "amenity": "restaurant", "brand": "Pizza Hut", "brand:wikidata": "Q191615", "cuisine": "pizza", "name": "Pizza Hut", "phone": "+1 208-524-2727", "website": "https://locations.pizzahut.com/id/idaho-falls/399-n-woodruff"}}, {"type": "node", "id": 8873853905, "lat": 43.5111153, "lon": -112.0210728}, {"type": "node", "id": 8873853906, "lat": 43.5103696, "lon": -112.0210867}, {"type": "node", "id": 8873853907, "lat": 43.5103665, "lon": -112.0207665}, {"type": "node", "id": 8873853908, "lat": 43.5103441, "lon": -112.0207669}, {"type": "node", "id": 8873853909, "lat": 43.5103431, "lon": -112.0206721}, {"type": "node", "id": 8873853910, "lat": 43.5102782, "lon": -112.0206734}, {"type": "node", "id": 8873853911, "lat": 43.510272, "lon": -112.0200717}, {"type": "node", "id": 8873853912, "lat": 43.5102971, "lon": -112.0200713}, {"type": "node", "id": 8873853913, "lat": 43.5102928, "lon": -112.0196521}, {"type": "node", "id": 8873853914, "lat": 43.5102769, "lon": -112.0196525}, {"type": "node", "id": 8873853915, "lat": 43.5102755, "lon": -112.0195133}, {"type": "node", "id": 8873853916, "lat": 43.5102997, "lon": -112.0195128}, {"type": "node", "id": 8873853917, "lat": 43.5102978, "lon": -112.0193176}, {"type": "node", "id": 8873853918, "lat": 43.5103306, "lon": -112.019317}, {"type": "node", "id": 8873853919, "lat": 43.5103297, "lon": -112.0192187}, {"type": "node", "id": 8873853920, "lat": 43.510349, "lon": -112.0192183}, {"type": "node", "id": 8873853921, "lat": 43.5103468, "lon": -112.0189953}, {"type": "node", "id": 8873853922, "lat": 43.5104323, "lon": -112.0189937}, {"type": "node", "id": 8873853923, "lat": 43.5104312, "lon": -112.0188734}, {"type": "node", "id": 8873853924, "lat": 43.5110261, "lon": -112.0188624}, {"type": "node", "id": 8873853925, "lat": 43.5110273, "lon": -112.0189846}, {"type": "node", "id": 8873853926, "lat": 43.5110948, "lon": -112.0189834}, {"type": "node", "id": 9217615257, "lat": 43.5133881, "lon": -111.9853969}, {"type": "node", "id": 9217615258, "lat": 43.513412, "lon": -111.9853967}, {"type": "node", "id": 9217615259, "lat": 43.5135518, "lon": -111.985639}, {"type": "node", "id": 9217615260, "lat": 43.5147392, "lon": -111.9855076}, {"type": "node", "id": 9217615261, "lat": 43.5147376, "lon": -111.9852198}, {"type": "node", "id": 9217615262, "lat": 43.5149165, "lon": -111.9852179}, {"type": "node", "id": 9217615263, "lat": 43.5149111, "lon": -111.9842838}, {"type": "node", "id": 9217615264, "lat": 43.5133817, "lon": -111.9843006}, {"type": "node", "id": 9475447481, "lat": 43.5117507, "lon": -112.0168918}, {"type": "node", "id": 9475447482, "lat": 43.5117508, "lon": -112.0168266}, {"type": "node", "id": 9475447483, "lat": 43.5116271, "lon": -112.0168263}, {"type": "node", "id": 9475447484, "lat": 43.511627, "lon": -112.0168916}, {"type": "node", "id": 9592862583, "lat": 43.5067523, "lon": -111.9984036}, {"type": "node", "id": 9592862584, "lat": 43.5069, "lon": -111.9984736}, {"type": "node", "id": 9592862585, "lat": 43.5068439, "lon": -111.9986986}, {"type": "node", "id": 9592862586, "lat": 43.5070424, "lon": -111.9987927}, {"type": "node", "id": 9592862587, "lat": 43.5070958, "lon": -111.9985784}, {"type": "node", "id": 9592862588, "lat": 43.5071529, "lon": -111.9986055}, {"type": "node", "id": 9592862589, "lat": 43.5072976, "lon": -111.9980248}, {"type": "node", "id": 9592862590, "lat": 43.5071827, "lon": -111.9979705}, {"type": "node", "id": 9592862591, "lat": 43.5071524, "lon": -111.9980922}, {"type": "node", "id": 9592862592, "lat": 43.5069816, "lon": -111.9980113}, {"type": "node", "id": 9592862593, "lat": 43.5069234, "lon": -111.9982446}, {"type": "node", "id": 9592862594, "lat": 43.5068828, "lon": -111.9982254}, {"type": "node", "id": 9592862595, "lat": 43.5068597, "lon": -111.9983181}, {"type": "node", "id": 9592862596, "lat": 43.5067827, "lon": -111.9982817}, {"type": "node", "id": 11407283297, "lat": 43.5183373, "lon": -112.0036513}, {"type": "node", "id": 11407283298, "lat": 43.5182109, "lon": -112.0035621}, {"type": "node", "id": 11407283299, "lat": 43.5183356, "lon": -112.0032264}, {"type": "node", "id": 11407283300, "lat": 43.518462, "lon": -112.0033156}, {"type": "node", "id": 11695255709, "lat": 43.5110046, "lon": -111.9955934}, {"type": "node", "id": 11695255710, "lat": 43.5109039, "lon": -111.9955957}, {"type": "node", "id": 11695255711, "lat": 43.5109029, "lon": -111.9955056}, {"type": "node", "id": 11695255712, "lat": 43.5110035, "lon": -111.9955033}, {"type": "node", "id": 11695255713, "lat": 43.5105556, "lon": -111.9956115}, {"type": "node", "id": 11695255714, "lat": 43.51082, "lon": -111.9956052}, {"type": "node", "id": 11695255715, "lat": 43.5108188, "lon": -111.9955078}, {"type": "node", "id": 11695255716, "lat": 43.5105544, "lon": -111.9955141}, {"type": "node", "id": 11695255721, "lat": 43.5056279, "lon": -111.997805}, {"type": "node", "id": 11695255722, "lat": 43.5056261, "lon": -111.9975811}, {"type": "node", "id": 11695255723, "lat": 43.5057528, "lon": -111.9975791}, {"type": "node", "id": 11695255724, "lat": 43.5057497, "lon": -111.9971847}, {"type": "node", "id": 11695255725, "lat": 43.5056247, "lon": -111.9971866}, {"type": "node", "id": 11695255726, "lat": 43.5056241, "lon": -111.9971065}, {"type": "node", "id": 11695255727, "lat": 43.5054575, "lon": -111.997109}, {"type": "node", "id": 11695255728, "lat": 43.505458, "lon": -111.997176}, {"type": "node", "id": 11695255729, "lat": 43.5053902, "lon": -111.997177}, {"type": "node", "id": 11695255730, "lat": 43.5053899, "lon": -111.997146}, {"type": "node", "id": 11695255731, "lat": 43.5052698, "lon": -111.9971478}, {"type": "node", "id": 11695255732, "lat": 43.5052752, "lon": -111.9978104}, {"type": "node", "id": 11695255733, "lat": 43.5074295, "lon": -112.0006235}, {"type": "node", "id": 11695255734, "lat": 43.5074288, "lon": -112.0004838}, {"type": "node", "id": 11695255735, "lat": 43.5073839, "lon": -112.0004842}, {"type": "node", "id": 11695255736, "lat": 43.5073837, "lon": -112.0004427}, {"type": "node", "id": 11695255737, "lat": 43.5072973, "lon": -112.0004435}, {"type": "node", "id": 11695255738, "lat": 43.5072975, "lon": -112.0004737}, {"type": "node", "id": 11695255739, "lat": 43.5071657, "lon": -112.0004749}, {"type": "node", "id": 11695255740, "lat": 43.507165, "lon": -112.0003306}, {"type": "node", "id": 11695255741, "lat": 43.5070199, "lon": -112.000332}, {"type": "node", "id": 11695255742, "lat": 43.5070213, "lon": -112.0006272}, {"type": "node", "id": 11695255743, "lat": 43.5067883, "lon": -112.000719}, {"type": "node", "id": 11695255744, "lat": 43.5066677, "lon": -112.0007201}, {"type": "node", "id": 11695255745, "lat": 43.5066679, "lon": -112.0007647}, {"type": "node", "id": 11695255746, "lat": 43.506528, "lon": -112.0007659}, {"type": "node", "id": 11695255747, "lat": 43.5065278, "lon": -112.0007218}, {"type": "node", "id": 11695255748, "lat": 43.5064379, "lon": -112.0007226}, {"type": "node", "id": 11695255749, "lat": 43.5064355, "lon": -112.000203}, {"type": "node", "id": 11695255750, "lat": 43.5065401, "lon": -112.0002021}, {"type": "node", "id": 11695255751, "lat": 43.5065397, "lon": -112.0001005}, {"type": "node", "id": 11695255752, "lat": 43.5067854, "lon": -112.0000984}, {"type": "node", "id": 11695255781, "lat": 43.5106441, "lon": -112.0023824}, {"type": "node", "id": 11695255782, "lat": 43.5104703, "lon": -112.0023904}, {"type": "node", "id": 11695255783, "lat": 43.5104673, "lon": -112.0022663}, {"type": "node", "id": 11695255784, "lat": 43.5106411, "lon": -112.0022582}, {"type": "node", "id": 11833752051, "lat": 43.513779, "lon": -111.9855178}, {"type": "node", "id": 11833752052, "lat": 43.5137797, "lon": -111.9856366}, {"type": "node", "id": 11833752053, "lat": 43.5134123, "lon": -111.9854466}, {"type": "node", "id": 11833765979, "lat": 43.5134821, "lon": -111.9855428}, {"type": "node", "id": 11999796669, "lat": 43.5082553, "lon": -112.0013584, "tags": {"addr:housenumber": "1445", "addr:street": "North Woodruff Avenue", "name": "City Storage", "shop": "storage_rental"}}, {"type": "node", "id": 12042935635, "lat": 43.5092591, "lon": -112.001912}, {"type": "node", "id": 12042935636, "lat": 43.5091195, "lon": -112.001911}, {"type": "node", "id": 12042935637, "lat": 43.5091215, "lon": -112.0014003}, {"type": "node", "id": 12042935638, "lat": 43.5092433, "lon": -112.0014012}, {"type": "node", "id": 12042935639, "lat": 43.5092427, "lon": -112.0015594}, {"type": "node", "id": 12042935640, "lat": 43.5092208, "lon": -112.0015592}, {"type": "node", "id": 12042935641, "lat": 43.5092204, "lon": -112.0016543}, {"type": "node", "id": 12042935642, "lat": 43.5092601, "lon": -112.0016546}, {"type": "way", "id": 32291060, "nodes": [363191439, 3531108368, 3531108369, 3531108371, 3531108370, 3531108372, 3531108373, 363191441, 1492137332, 363191444, 363191446, 5316670946, 363191439], "tags": {"addr:city": "Idaho Falls", "addr:housenumber": "333", "addr:postcode": "83401", "addr:state": "ID", "addr:street": "North Woodruff Road", "brand": "WinCo Foods", "brand:wikidata": "Q8023592", "building": "yes", "name": "WinCo Foods", "opening_hours": "24/7", "phone": "+1 208-552-9733", "shop": "supermarket", "website": "https://www.wincofoods.com/supermarket/n-woodruff-avenue/"}}, {"type": "way", "id": 135952009, "nodes": [1492137351, 1492137254, 1492137366, 1492137307, 1492137351], "tags": {"brand": "O'Reilly Auto Parts", "brand:wikidata": "Q7071951", "building": "yes", "name": "O'Reilly Auto Parts", "shop": "car_parts", "website": "https://locations.oreillyauto.com/id/idahofalls/autoparts-3746.html"}}, {"type": "way", "id": 386850704, "nodes": [3902069804, 3902069805, 3902069806, 3902069807, 3902069804], "tags": {"brand": "Family Dollar", "brand:wikidata": "Q5433101", "building": "yes", "name": "Family Dollar", "shop": "variety_store"}}, {"type": "way", "id": 416673488, "nodes": [4174047896, 4174047897, 4174047898, 4174047899, 4174047900, 4174047901, 4174047902, 4174047903, 4174047904, 4174047905, 4174047896], "tags": {"addr:city": "Idaho Falls", "addr:housenumber": "1975", "addr:postcode": "83401", "addr:state": "ID", "addr:street": "North Yellowstone Highway", "amenity": "recycling", "building": "yes", "name": "e-Cyclers of Idaho", "opening_hours": "09:00-18:00", "shop": "computer"}}, {"type": "way", "id": 550457587, "nodes": [5316670946, 5316670947, 5316670948, 363191446, 5316670946], "tags": {"building": "yes", "name": "Idaho Youth Ranch Thrift Store", "shop": "charity"}}, {"type": "way", "id": 955215487, "nodes": [8841027558, 8841027559, 8841027560, 8841027561, 8841027558], "tags": {"addr:city": "Idaho Falls", "addr:housenumber": "221", "addr:postcode": "83401", "addr:state": "ID", "addr:street": "North Woodruff Avenue", "amenity": "cafe", "branch": "Idaho Falls", "brand": "Dutch Bros. Coffee", "brand:wikidata": "Q5317253", "building": "yes", "cuisine": "coffee_shop", "name": "Dutch Bros. Coffee", "opening_hours": "05:00-23:00", "ref": "DB307", "takeaway": "only", "website": "https://locations.dutchbros.com/dutch-bros-coffee-0f9092f70861"}}, {"type": "way", "id": 959011302, "nodes": [8873853905, 8873853906, 8873853907, 8873853908, 8873853909, 8873853910, 8873853911, 8873853912, 8873853913, 8873853914, 8873853915, 8873853916, 8873853917, 8873853918, 8873853919, 8873853920, 8873853921, 8873853922, 8873853923, 8873853924, 8873853925, 8873853926, 8873853905], "tags": {"addr:city": "Idaho Falls", "addr:housenumber": "1555", "addr:postcode": "83401", "addr:state": "ID", "addr:street": "Northgate Mile", "branch": "Idaho Falls", "brand": "Fred Meyer", "brand:wikidata": "Q5495932", "building": "yes", "name": "Fred Meyer", "opening_hours": "Mo-Su 07:00-23:00", "phone": "+1 208-535-2561", "ref": "70100156", "shop": "supermarket", "website": "https://www.fredmeyer.com/stores/grocery/id/idaho-falls/idaho-falls/701/00156"}}, {"type": "way", "id": 998307459, "nodes": [9217615264, 9217615263, 9217615262, 9217615261, 9217615260, 11833752051, 11833752052, 9217615259, 11833765979, 11833752053, 9217615258, 9217615257, 9217615264], "tags": {"addr:city": "Idaho Falls", "addr:housenumber": "2495", "addr:postcode": "83401", "addr:state": "ID", "addr:street": "East Lincoln Road", "branch": "Idaho Falls", "brand": "Costco", "brand:wikidata": "Q715583", "building": "warehouse", "building:levels": "1", "name": "Costco", "opening_hours": "Mo-Fr 10:00-20:30; Sa 09:30-18:00; Su 10:00-18:00", "phone": "+1 986-497-3149", "ref": "1379", "shop": "wholesale", "website": "https://www.costco.com/warehouse-locations/idaho-falls-id-1379.html"}}, {"type": "way", "id": 1027936923, "nodes": [9475447481, 9475447482, 9475447483, 9475447484, 9475447481], "tags": {"amenity": "cafe", "building": "yes", "cuisine": "coffee_shop", "name": "Jave Express"}}, {"type": "way", "id": 1042044642, "nodes": [9592862583, 9592862584, 9592862585, 9592862586, 9592862587, 9592862588, 9592862589, 9592862590, 9592862591, 9592862592, 9592862593, 9592862594, 9592862595, 9592862596, 9592862583], "tags": {"addr:housenumber": "1222", "addr:postcode": "83401", "addr:street": "North Woodruff Avenue", "alt_name": "Stones kia", "brand": "Kia", "brand:wikidata": "Q35349", "building": "yes", "name": "Stone's Kia", "operator": "Stones", "phone": "+1 208-524-2400", "shop": "car"}}, {"type": "way", "id": 1230082452, "nodes": [11407283297, 11407283298, 11407283299, 11407283300, 11407283297], "tags": {"building": "yes", "name": "Mike's Music", "shop": "musical_instrument", "source": "microsoft/BuildingFootprints"}}, {"type": "way", "id": 1257996065, "nodes": [11695255709, 11695255710, 11695255711, 11695255712, 11695255709], "tags": {"building": "yes", "building:levels": "2", "shop": "storage_rental"}}, {"type": "way", "id": 1257996066, "nodes": [11695255713, 11695255714, 11695255715, 11695255716, 11695255713], "tags": {"building": "yes", "shop": "storage_rental"}}, {"type": "way", "id": 1257996068, "nodes": [11695255721, 11695255722, 11695255723, 11695255724, 11695255725, 11695255726, 11695255727, 11695255728, 11695255729, 11695255730, 11695255731, 11695255732, 11695255721], "tags": {"brand": "Subaru", "brand:wikidata": "Q172741", "building": "yes", "name": "Subaru", "shop": "car"}}, {"type": "way", "id": 1257996069, "nodes": [11695255733, 11695255734, 11695255735, 11695255736, 11695255737, 11695255738, 11695255739, 11695255740, 11695255741, 11695255742, 11695255733], "tags": {"building": "yes", "shop": "car"}}, {"type": "way", "id": 1257996070, "nodes": [11695255743, 11695255744, 11695255745, 11695255746, 11695255747, 11695255748, 11695255749, 11695255750, 11695255751, 11695255752, 11695255743], "tags": {"brand": "Nissan", "brand:wikidata": "Q20165", "building": "yes", "name": "Nissan", "shop": "car"}}, {"type": "way", "id": 1257996076, "nodes": [11695255781, 11695255782, 11695255783, 11695255784, 11695255781], "tags": {"building": "yes", "building:levels": "2", "name": "Timberline Auto", "shop": "car"}}, {"type": "way", "id": 1300160829, "nodes": [12042935635, 12042935636, 12042935637, 12042935638, 12042935639, 12042935640, 12042935641, 12042935642, 12042935635], "tags": {"brand": "Hyundai", "brand:wikidata": "Q55931", "building": "yes", "name": "Hyundai", "shop": "car"}}]}