{"version": 0.6, "generator": "Overpass API 0.7.62.8 e802775f", "osm3s": {"timestamp_osm_base": "2025-12-12T18:21:51Z", "copyright": "The data included in this document is from www.openstreetmap.org. The data is made available under ODbL."}, "elements": [{"type": "node", "id": 358913790, "lat": 37.3530493, "lon": -108.587871, "tags": {"amenity": "school", "ele": "1881", "gnis:feature_id": "179051", "name": "Downey School"}}, {"type": "node", "id": 358945499, "lat": 37.3547159, "lon": -108.5817597, "tags": {"amenity": "place_of_worship", "ele": "1879", "gnis:feature_id": "1794950", "name": "New Life Chapel", "religion": "christian"}}, {"type": "node", "id": 358945502, "lat": 37.3541567, "lon": -108.5835237, "tags": {"amenity": "school", "ele": "1878", "gnis:feature_id": "1794951", "name": "Beech Street Kingergarten", "website": "https://www.cortez.k12.co.us/our-schools/beechstreet"}}, {"type": "node", "id": 358946215, "lat": 37.3488827, "lon": -108.5856487, "tags": {"amenity": "school", "ele": "1887", "gnis:feature_id": "1795392", "name": "University of Colorado Center"}}, {"type": "node", "id": 358946220, "lat": 37.3494382, "lon": -108.5853709, "tags": {"amenity": "place_of_worship", "denomination": "baptist", "ele": "1890", "gnis:feature_id": "1795393", "name": "First Baptist Church", "religion": "christian"}}, {"type": "node", "id": 358946242, "lat": 37.3516604, "lon": -108.5881488, "tags": {"amenity": "place_of_worship", "denomination": "baptist", "ele": "1887", "gnis:feature_id": "1795395", "name": "First Southern Baptist Church", "religion": "christian"}}, {"type": "node", "id": 358946251, "lat": 37.3527715, "lon": -108.5884266, "tags": {"amenity": "school", "ele": "1883", "gnis:feature_id": "1795396", "name": "Downey Elementary School"}}, {"type": "node", "id": 366394770, "lat": 37.3494515, "lon": -108.5816593, "tags": {"addr:city": "Cortez", "addr:housenumber": "31", "addr:state": "CO", "addr:street": "North Washington Street", "amenity": "fire_station", "ele": "1887", "gnis:feature_id": "1795372", "name": "Cortez Fire Department", "postal_code": "81321"}}, {"type": "node", "id": 3163894807, "lat": 37.357335, "lon": -108.5907639}, {"type": "node", "id": 3163894808, "lat": 37.3576733, "lon": -108.5909084}, {"type": "node", "id": 3163894809, "lat": 37.3567992, "lon": -108.5910291}, {"type": "node", "id": 3163894810, "lat": 37.3578787, "lon": -108.5905117}, {"type": "node", "id": 3163894811, "lat": 37.3567274, "lon": -108.5900611}, {"type": "node", "id": 3163894812, "lat": 37.3569783, "lon": -108.5910238}, {"type": "node", "id": 3163894813, "lat": 37.3567992, "lon": -108.5900662}, {"type": "node", "id": 3163894814, "lat": 37.357264, "lon": -108.5900099}, {"type": "node", "id": 3163894817, "lat": 37.3574559, "lon": -108.5905463}, {"type": "node", "id": 3163894819, "lat": 37.3575198, "lon": -108.5906}, {"type": "node", "id": 3163894820, "lat": 37.3571261, "lon": -108.5899002}, {"type": "node", "id": 3163894821, "lat": 37.3573606, "lon": -108.5907826}, {"type": "node", "id": 3163894823, "lat": 37.3571111, "lon": -108.5908041}, {"type": "node", "id": 3163894825, "lat": 37.3572519, "lon": -108.5909302}, {"type": "node", "id": 3163894826, "lat": 37.3576441, "lon": -108.5903267}, {"type": "node", "id": 3163894827, "lat": 37.356753, "lon": -108.589632}, {"type": "node", "id": 3163894829, "lat": 37.3573152, "lon": -108.5908763}, {"type": "node", "id": 3163894830, "lat": 37.356979, "lon": -108.5906003}, {"type": "node", "id": 3213001762, "lat": 37.3484244, "lon": -108.5846644, "tags": {"addr:city": "Cortez", "addr:housenumber": "21", "addr:state": "CO", "addr:street": "US 491", "amenity": "restaurant", "brewery": "Main Street Brewery & Restaurant", "microbrewery": "yes", "name": "Main Street Brewery & Restaurant", "phone": "+1-970-564-9112", "postal_code": "81321", "website": "http://www.mainstreetbrewerycortez.com"}}, {"type": "node", "id": 3375088825, "lat": 37.3507138, "lon": -108.5778905}, {"type": "node", "id": 3375088826, "lat": 37.3503283, "lon": -108.5778823}, {"type": "node", "id": 3375088827, "lat": 37.3503363, "lon": -108.577293}, {"type": "node", "id": 3375088828, "lat": 37.3500731, "lon": -108.5772873}, {"type": "node", "id": 3375088829, "lat": 37.3500618, "lon": -108.5781211}, {"type": "node", "id": 3375088830, "lat": 37.3497164, "lon": -108.5782552}, {"type": "node", "id": 3375088831, "lat": 37.349099, "lon": -108.578242}, {"type": "node", "id": 3375088832, "lat": 37.3491125, "lon": -108.577243}, {"type": "node", "id": 3375088833, "lat": 37.3495937, "lon": -108.5772532}, {"type": "node", "id": 3375088834, "lat": 37.3496079, "lon": -108.5762038}, {"type": "node", "id": 3375088835, "lat": 37.3493048, "lon": -108.5761973}, {"type": "node", "id": 3375088836, "lat": 37.3493016, "lon": -108.5764353}, {"type": "node", "id": 3375088837, "lat": 37.3488596, "lon": -108.5764258}, {"type": "node", "id": 3375088838, "lat": 37.3488343, "lon": -108.5783017}, {"type": "node", "id": 3375088839, "lat": 37.3492584, "lon": -108.5783107}, {"type": "node", "id": 3375088840, "lat": 37.3492546, "lon": -108.5785909}, {"type": "node", "id": 3375088841, "lat": 37.3507039, "lon": -108.5786219}, {"type": "node", "id": 4331310199, "lat": 37.3490192, "lon": -108.579633, "tags": {"addr:housenumber": "400", "addr:street": "East Main Street", "amenity": "restaurant", "cuisine": "american;burger;mexican", "name": "Burger Boy's Drive In", "opening_hours": "Mo-Fr 07:00-19:00; Sa 10:30-18:00", "phone": "+1-970-565-7921", "postal_code": "81321"}}, {"type": "node", "id": 5972559357, "lat": 37.3500235, "lon": -108.5853302, "tags": {"amenity": "pub", "food": "yes", "microbrewery": "yes", "name": "WildEdge Brewing Collective"}}, {"type": "node", "id": 6418144023, "lat": 37.3511097, "lon": -108.5845659}, {"type": "node", "id": 6418144024, "lat": 37.3511096, "lon": -108.5847577}, {"type": "node", "id": 6418144025, "lat": 37.3511592, "lon": -108.5847577}, {"type": "node", "id": 6418144026, "lat": 37.3511593, "lon": -108.5846393}, {"type": "node", "id": 6418144027, "lat": 37.351335, "lon": -108.5846394}, {"type": "node", "id": 6418144028, "lat": 37.3513353, "lon": -108.584225}, {"type": "node", "id": 6418144029, "lat": 37.3512127, "lon": -108.5842249}, {"type": "node", "id": 6418144030, "lat": 37.3512124, "lon": -108.584566}, {"type": "node", "id": 6418144031, "lat": 37.3510039, "lon": -108.5848975, "tags": {"entrance": "main"}}, {"type": "node", "id": 6418144032, "lat": 37.3512392, "lon": -108.585043, "tags": {"entrance": "yes"}}, {"type": "node", "id": 6418144033, "lat": 37.3512264, "lon": -108.5850155}, {"type": "node", "id": 6418144034, "lat": 37.3512259, "lon": -108.585043}, {"type": "node", "id": 6418144035, "lat": 37.3513266, "lon": -108.585043}, {"type": "node", "id": 6418144036, "lat": 37.3513309, "lon": -108.5847768}, {"type": "node", "id": 6418144037, "lat": 37.3512259, "lon": -108.5847708}, {"type": "node", "id": 6418144038, "lat": 37.3512243, "lon": -108.5848264}, {"type": "node", "id": 6418144039, "lat": 37.3510052, "lon": -108.5848244}, {"type": "node", "id": 6418144040, "lat": 37.351002, "lon": -108.5850095}, {"type": "node", "id": 7015025522, "lat": 37.3484734, "lon": -108.5860672}, {"type": "node", "id": 7015025523, "lat": 37.3481069, "lon": -108.5860648}, {"type": "node", "id": 7015025524, "lat": 37.3481079, "lon": -108.5858252}, {"type": "node", "id": 7015025525, "lat": 37.3484743, "lon": -108.5858275}, {"type": "node", "id": 7165237769, "lat": 37.3610748, "lon": -108.5950998, "tags": {"addr:housenumber": "10255", "addr:street": "US 491", "name": "Smitty's Liquors", "shop": "alcohol"}}, {"type": "node", "id": 7165239298, "lat": 37.3484668, "lon": -108.592783, "tags": {"addr:city": "Cortez", "addr:housenumber": "520", "addr:postcode": "81321-3113", "addr:state": "CO", "addr:street": "West Main Street", "amenity": "fast_food", "brand": "Burger King", "brand:wikidata": "Q177054", "cuisine": "burger", "delivery": "yes", "drive_through": "yes", "internet_access": "wlan", "name": "Burger King", "opening_hours": "Mo-Sa 06:00-23:00; Su 07:00-23:00", "phone": "+1 970-516-7419", "ref": "9714", "takeaway": "yes", "website": "https://www.bk.com/store-locator/store/restaurant_5471"}}, {"type": "node", "id": 7165239541, "lat": 37.3488057, "lon": -108.588206, "tags": {"addr:housenumber": "210", "addr:street": "West Main Street", "name": "Southwest Realty", "office": "estate_agent"}}, {"type": "node", "id": 7165239650, "lat": 37.3490438, "lon": -108.5809777, "tags": {"addr:city": "Cortez", "addr:country": "US", "addr:housenumber": "300", "addr:postcode": "81321", "addr:state": "CO", "addr:street": "East Main Street", "amenity": "restaurant", "cuisine": "chinese", "name": "Ocean Pearl", "website": "https://oceanpearlco.com"}}, {"type": "node", "id": 7165239821, "lat": 37.3525071, "lon": -108.590792, "tags": {"addr:housenumber": "309", "addr:street": "North Broadway", "name": "Antique Corral", "shop": "antiques"}}, {"type": "node", "id": 7165239891, "lat": 37.348428, "lon": -108.588077, "tags": {"addr:housenumber": "209", "addr:street": "West Main Street", "brand": "Rent-A-Center", "brand:wikidata": "Q7313497", "name": "Rent-A-Center", "shop": "furniture"}}, {"type": "node", "id": 7165239901, "lat": 37.3483806, "lon": -108.584883, "tags": {"addr:housenumber": "1", "addr:street": "East Main Street", "brand": "Sears", "brand:wikidata": "Q6499202", "name": "Sears", "shop": "department_store"}}, {"type": "node", "id": 7165239961, "lat": 37.3535989, "lon": -108.590776, "tags": {"addr:housenumber": "487", "addr:street": "North Broadway", "name": "Petersons Auto Body", "shop": "car_repair"}}, {"type": "node", "id": 7165240262, "lat": 37.3487896, "lon": -108.5856715, "tags": {"addr:city": "Cortez", "addr:country": "US", "addr:housenumber": "16", "addr:state": "CO", "addr:street": "West Main Street", "amenity": "restaurant", "cuisine": "sushi", "name": "Stonefish Sushi", "website": "https://www.stonefishsushi.com"}}, {"type": "node", "id": 7165240494, "lat": 37.3492356, "lon": -108.5840564, "tags": {"addr:city": "Cortez", "addr:housenumber": "25", "addr:postcode": "81321", "addr:state": "CO", "addr:street": "North Beech Street", "check_date": "2025-04-30", "email": "info@puebloseed.com", "name": "Pueblo Seed & Food Co.", "not:brand:wikidata": "Q7258464", "opening_hours": "Fr 12:00-18:00 Sa 08:00-15:00", "phone": "+1 719-250-9835", "shop": "yes", "website": "https://farmdirectseed.com/"}}, {"type": "node", "id": 7165241386, "lat": 37.3695329, "lon": -108.5881289, "tags": {"addr:housenumber": "110", "addr:street": "West Progress Circle", "description": "City Service Center", "office": "government"}}, {"type": "node", "id": 7183046106, "lat": 37.3483105, "lon": -108.5868784, "tags": {"addr:housenumber": "109", "addr:street": "West Main Street", "name": "County Administration", "office": "government"}}, {"type": "node", "id": 7183046130, "lat": 37.3487439, "lon": -108.585411, "tags": {"addr:city": "Cortez", "addr:housenumber": "2", "addr:postcode": "81321", "addr:state": "CO", "addr:street": "West Main Street", "air_conditioning": "yes", "alt_name": "Loungin Lizard", "amenity": "restaurant", "bar": "yes", "cuisine": "regional", "diet:gluten_free": "yes", "diet:vegetarian": "yes", "name": "Loungin' Lizard", "outdoor_seating": "yes", "phone": "+1-970-516-1998", "website": "https://www.lounginlizardcortez.com"}}, {"type": "node", "id": 7183046404, "lat": 37.3491536, "lon": -108.5789113, "tags": {"addr:city": "Cortez", "addr:housenumber": "17", "addr:postcode": "81321", "addr:state": "CO", "addr:street": "Harrison", "name": "The Pie Maker", "shop": "bakery", "website": "https://piemakerbakery.square.site/"}}, {"type": "node", "id": 7265285417, "lat": 37.349043, "lon": -108.586083}, {"type": "node", "id": 7265291651, "lat": 37.3487432, "lon": -108.5895201}, {"type": "node", "id": 7265291653, "lat": 37.3487425, "lon": -108.5893374}, {"type": "node", "id": 7265291655, "lat": 37.3488126, "lon": -108.5893221}, {"type": "node", "id": 7265291657, "lat": 37.3488135, "lon": -108.5895017}, {"type": "node", "id": 7265298093, "lat": 37.3488448, "lon": -108.5897101}, {"type": "node", "id": 7265298095, "lat": 37.3487696, "lon": -108.5895653}, {"type": "node", "id": 7265298113, "lat": 37.3488446, "lon": -108.5895042}, {"type": "node", "id": 7265298115, "lat": 37.3489198, "lon": -108.589649}, {"type": "node", "id": 7265302446, "lat": 37.348905, "lon": -108.57941}, {"type": "node", "id": 7265302452, "lat": 37.349208, "lon": -108.579413}, {"type": "node", "id": 7265302453, "lat": 37.349177, "lon": -108.579244}, {"type": "node", "id": 7265302454, "lat": 37.349209, "lon": -108.579245}, {"type": "node", "id": 7265302455, "lat": 37.348835, "lon": -108.579135}, {"type": "node", "id": 7265302456, "lat": 37.349178, "lon": -108.57914}, {"type": "node", "id": 7265302457, "lat": 37.348906, "lon": -108.579329}, {"type": "node", "id": 7265302458, "lat": 37.348834, "lon": -108.579329}, {"type": "node", "id": 7695388842, "lat": 37.3487768, "lon": -108.5862744, "tags": {"addr:city": "Cortez", "addr:housenumber": "44", "addr:state": "CO", "addr:street": "West Main Street", "amenity": "restaurant", "name": "The Wigglin\u2019 Pig"}}, {"type": "node", "id": 9029594618, "lat": 37.3487386, "lon": -108.5861237, "tags": {"access": "customers", "door": "yes", "entrance": "main"}}, {"type": "node", "id": 9029594619, "lat": 37.349042, "lon": -108.5861566}, {"type": "node", "id": 9029594620, "lat": 37.3487385, "lon": -108.5861552}, {"type": "node", "id": 9029594621, "lat": 37.3487387, "lon": -108.5860799}, {"type": "node", "id": 11068172735, "lat": 37.3488521, "lon": -108.5897591}, {"type": "node", "id": 11068172736, "lat": 37.3488078, "lon": -108.5898318}, {"type": "node", "id": 11068172737, "lat": 37.3487507, "lon": -108.5897767}, {"type": "node", "id": 11068172738, "lat": 37.348795, "lon": -108.5897041}, {"type": "node", "id": 11162457012, "lat": 37.3611025, "lon": -108.594752}, {"type": "node", "id": 11162457013, "lat": 37.3607795, "lon": -108.5954413}, {"type": "node", "id": 11162457014, "lat": 37.3604278, "lon": -108.5950081}, {"type": "node", "id": 11162457015, "lat": 37.3606612, "lon": -108.5942785}, {"type": "node", "id": 11209057692, "lat": 37.3610292, "lon": -108.5885543, "tags": {"amenity": "waste_basket"}}, {"type": "node", "id": 11209057694, "lat": 37.3611195, "lon": -108.5886443, "tags": {"access": "yes", "amenity": "toilets", "wheelchair": "no"}}, {"type": "node", "id": 12003572836, "lat": 37.3488192, "lon": -108.5855808, "tags": {"addr:city": "Cortez", "addr:country": "US", "addr:housenumber": "10", "addr:postcode": "81321", "addr:state": "CO", "addr:street": "West Main Street", "addr:unit": "102", "contact:email": "general@scyclistens.org", "contact:facebook": "https://www.facebook.com/scyclistens", "name": "School Community Youth Collaborative", "office": "association", "phone": "+1-970-480-7293", "website": "https://www.scyclistens.org/"}}, {"type": "node", "id": 12158306301, "lat": 37.3489147, "lon": -108.5806842, "tags": {"addr:housenumber": "318", "addr:postcode": "81321", "addr:street": "East Main Street", "internet_access": "wlan", "name": "Loops Coffee House & Bistro", "opening_hours": "Mo-Sa 07:00-13:00; Su 07:00-13:00", "outdoor_seating": "no", "phone": "+1-970-676-4250", "shop": "coffee"}}, {"type": "node", "id": 12196109458, "lat": 37.3491515, "lon": -108.5876576, "tags": {"amenity": "polling_station", "location": "outdoor", "opening_hours": "24/7", "polling_station": "ballot_box"}}, {"type": "node", "id": 13246554511, "lat": 37.3684439, "lon": -108.5824332}, {"type": "node", "id": 13246554512, "lat": 37.3684002, "lon": -108.5820858}, {"type": "node", "id": 13246554513, "lat": 37.3684774, "lon": -108.5820705}, {"type": "node", "id": 13246554514, "lat": 37.3685211, "lon": -108.5824178}, {"type": "way", "id": 310884976, "nodes": [3163894812, 3163894809, 3163894813, 3163894811, 3163894827, 3163894820, 3163894814, 3163894830, 3163894829, 3163894821, 3163894807, 3163894817, 3163894819, 3163894826, 3163894810, 3163894808, 3163894825, 3163894823, 3163894812], "tags": {"amenity": "parking", "source": "Bing"}}, {"type": "way", "id": 330543391, "nodes": [3375088825, 3375088826, 3375088827, 3375088828, 3375088829, 3375088830, 3375088831, 3375088832, 3375088833, 3375088834, 3375088835, 3375088836, 3375088837, 3375088838, 3375088839, 3375088840, 3375088841, 3375088825], "tags": {"amenity": "parking"}}, {"type": "way", "id": 684976988, "nodes": [6418144030, 6418144029, 6418144028, 6418144027, 6418144026, 6418144025, 6418144024, 6418144023, 6418144030], "tags": {"amenity": "parking", "operator": "Saint Mary Magdelena Alacoque", "surface": "asphalt"}}, {"type": "way", "id": 684976990, "nodes": [6418144040, 6418144031, 6418144039, 6418144038, 6418144037, 6418144036, 6418144035, 6418144032, 6418144034, 6418144033, 6418144040], "tags": {"addr:city": "Cortez", "addr:housenumber": "28", "addr:postcode": "81321-3299", "addr:state": "CO", "addr:street": "East Montezuma Avenue", "alt_name": "Montelores Catholic Community Offices", "amenity": "place_of_worship", "building": "church", "denomination": "roman_catholic", "diocese": "Pueblo", "name": "Saint Margaret Mary Alacoque Catholic Church", "phone": "+1 970-565-7308", "religion": "christian", "website": "http://www.montelorescatholic.org"}}, {"type": "way", "id": 750224574, "nodes": [7015025522, 7015025523, 7015025524, 7015025525, 7015025522], "tags": {"addr:city": "Cortez", "addr:housenumber": "23", "addr:state": "CO", "addr:street": "West Main Street", "amenity": "cinema", "building": "yes", "name": "Fiesta Twin Cinema", "postal_code": "81321", "screen": "2", "wikidata": "Q42385241"}}, {"type": "way", "id": 778441688, "nodes": [7265291651, 7265291653, 7265291655, 7265291657, 7265291651], "tags": {"addr:city": "Cortez", "addr:housenumber": "302", "addr:postcode": "81321", "addr:state": "CO", "addr:street": "West Main Street", "amenity": "fuel", "brand": "Conoco", "brand:wikidata": "Q109341187", "building": "roof", "fixme": "Please add and verify tags:\n fuel:octane_XX; hours", "fuel:diesel": "yesa", "fuel:octane_85": "unknown", "fuel:octane_86": "unknown", "fuel:octane_87": "unknown", "fuel:octane_88": "unknown", "fuel:octane_89": "unknown", "fuel:octane_90": "unknown", "fuel:octane_91": "unknown", "fuel:octane_92": "unknown", "fuel:octane_93": "unknown", "name": "Conoco", "phone": "+1-970-565-8477", "website": "https://www.conoco.com/station/CON-G2G-711-CORTEZ-0000868403"}}, {"type": "way", "id": 778442986, "nodes": [7265298093, 7265298095, 7265298113, 7265298115, 7265298093], "tags": {"building": "retail", "building:levels": "1", "shop": "convenience"}}, {"type": "way", "id": 778443808, "nodes": [7265302446, 7265302457, 7265302458, 7265302455, 7265302456, 7265302453, 7265302454, 7265302452, 7265302446], "tags": {"addr:housenumber": "444", "addr:state": "CO", "addr:street": "East Main Street", "building": "retail", "name": "Methodist Thrift Shop", "opening_hours": "Tu-Sa 10:00-16:00", "shop": "second_hand"}}, {"type": "way", "id": 975784860, "nodes": [7265285417, 9029594621, 9029594618, 9029594620, 9029594619, 7265285417], "tags": {"addr:city": "Cortez", "addr:housenumber": "34", "addr:postcode": "81231", "addr:state": "CO", "addr:street": "West Main Street", "air_conditioning": "yes", "amenity": "restaurant", "bar": "yes", "building:part": "yes", "capacity": "54", "cuisine": "burger", "diet:gluten_free": "yes", "diet:vegan": "yes", "diet:vegetarian": "yes", "name": "The Farm Bistro", "outdoor_seating": "no", "phone": "+1 970-565-3834", "website": "http://www.thefarmbistrocortez.com/"}}, {"type": "way", "id": 1192240394, "nodes": [11068172735, 11068172736, 11068172737, 11068172738, 11068172735], "tags": {"addr:city": "Cortez", "addr:housenumber": "302", "addr:postcode": "81321", "addr:state": "CO", "addr:street": "West Main Street", "amenity": "fuel", "brand": "Conoco", "brand:wikidata": "Q109341187", "building": "roof", "fixme": "Please add and verify tags:\n fuel:octane_XX; hours", "fuel:diesel": "yesa", "fuel:octane_85": "unknown", "fuel:octane_86": "unknown", "fuel:octane_87": "unknown", "fuel:octane_88": "unknown", "fuel:octane_89": "unknown", "fuel:octane_90": "unknown", "fuel:octane_91": "unknown", "fuel:octane_92": "unknown", "fuel:octane_93": "unknown", "name": "Conoco", "phone": "+1-970-565-8477", "website": "https://www.conoco.com/station/CON-G2G-711-CORTEZ-0000868403"}}, {"type": "way", "id": 1204360412, "nodes": [11162457015, 11162457014, 11162457013, 11162457012, 11162457015], "tags": {"amenity": "fuel"}}, {"type": "way", "id": 1443560938, "nodes": [13246554514, 13246554513, 13246554512, 13246554511, 13246554514], "tags": {"amenity": "parking"}}]}