{"version": 0.6, "generator": "Overpass API 0.7.62.8 e802775f", "osm3s": {"timestamp_osm_base": "2025-12-06T05:11:34Z", "copyright": "The data included in this document is from www.openstreetmap.org. The data is made available under ODbL."}, "elements": [{"type": "node", "id": 692089781, "lat": 46.7335911, "lon": -117.018166}, {"type": "node", "id": 3462492769, "lat": 46.7336983, "lon": -117.0095962}, {"type": "node", "id": 3462492770, "lat": 46.7336994, "lon": -117.0091683}, {"type": "node", "id": 3462492786, "lat": 46.7340918, "lon": -117.0095983}, {"type": "node", "id": 3462492787, "lat": 46.734093, "lon": -117.0091705}, {"type": "node", "id": 3694577183, "lat": 46.7332096, "lon": -117.0256069}, {"type": "node", "id": 3694577184, "lat": 46.7331169, "lon": -117.0258803}, {"type": "node", "id": 3694577188, "lat": 46.7331762, "lon": -117.0258806}, {"type": "node", "id": 3694577191, "lat": 46.7330704, "lon": -117.0290631}, {"type": "node", "id": 3694577200, "lat": 46.7332094, "lon": -117.0257198}, {"type": "node", "id": 3694577202, "lat": 46.7331168, "lon": -117.0259213}, {"type": "node", "id": 3694577203, "lat": 46.7331766, "lon": -117.0257196}, {"type": "node", "id": 3694577207, "lat": 46.7330433, "lon": -117.0259209}, {"type": "node", "id": 3694577212, "lat": 46.7330434, "lon": -117.0258789}, {"type": "node", "id": 3694577217, "lat": 46.7329676, "lon": -117.0255608}, {"type": "node", "id": 3694577219, "lat": 46.7330743, "lon": -117.0285901}, {"type": "node", "id": 3694577926, "lat": 46.7331386, "lon": -117.0255616}, {"type": "node", "id": 3694577929, "lat": 46.7328202, "lon": -117.0290531}, {"type": "node", "id": 3694577931, "lat": 46.7329669, "lon": -117.0258785}, {"type": "node", "id": 3694577933, "lat": 46.7328262, "lon": -117.0285771}, {"type": "node", "id": 3694577935, "lat": 46.7331385, "lon": -117.0256066}, {"type": "node", "id": 4439600383, "lat": 46.7326654, "lon": -117.0063878, "tags": {"addr:city": "Moscow", "addr:housenumber": "428", "addr:postcode": "83843", "addr:state": "ID", "addr:street": "West 3rd Street", "amenity": "restaurant", "cuisine": "pizza", "delivery": "yes", "name": "Pizza Perfection", "opening_hours": "Su-Th 11:00-01:00; Fr-Sa 11:00-02:00", "phone": "+1-208-882-1111", "smoking": "no", "takeaway": "yes", "website": "http://pizzap.co"}}, {"type": "node", "id": 4967013971, "lat": 46.7342369, "lon": -117.036704}, {"type": "node", "id": 4967013972, "lat": 46.7331633, "lon": -117.0380983}, {"type": "node", "id": 4967013973, "lat": 46.7330302, "lon": -117.0379913}, {"type": "node", "id": 4967013974, "lat": 46.7349966, "lon": -117.0346766}, {"type": "node", "id": 4967013975, "lat": 46.733363, "lon": -117.0380605}, {"type": "node", "id": 4967013976, "lat": 46.7328842, "lon": -117.0379883}, {"type": "node", "id": 4967013977, "lat": 46.7328818, "lon": -117.0383163}, {"type": "node", "id": 4967013978, "lat": 46.7330294, "lon": -117.0380963}, {"type": "node", "id": 4967013980, "lat": 46.7335632, "lon": -117.0383145}, {"type": "node", "id": 4967013981, "lat": 46.7349401, "lon": -117.0346506}, {"type": "node", "id": 4967013982, "lat": 46.7335615, "lon": -117.0380575}, {"type": "node", "id": 4967013983, "lat": 46.734879, "lon": -117.0348512}, {"type": "node", "id": 4967013984, "lat": 46.7342378, "lon": -117.0348506}, {"type": "node", "id": 4967013985, "lat": 46.7349691, "lon": -117.0367047}, {"type": "node", "id": 4967013986, "lat": 46.7333647, "lon": -117.0383175}, {"type": "node", "id": 5067610802, "lat": 46.7326581, "lon": -117.0331807}, {"type": "node", "id": 5067610803, "lat": 46.7349422, "lon": -117.0332337}, {"type": "node", "id": 5067610804, "lat": 46.7349992, "lon": -117.0273764}, {"type": "node", "id": 5067610805, "lat": 46.7349367, "lon": -117.0272691}, {"type": "node", "id": 5067610806, "lat": 46.73495, "lon": -117.0252668}, {"type": "node", "id": 5067610807, "lat": 46.7347809, "lon": -117.0248209}, {"type": "node", "id": 5067610808, "lat": 46.7327679, "lon": -117.0247713}, {"type": "node", "id": 5067610809, "lat": 46.7344703, "lon": -117.0254342, "tags": {"addr:city": "Moscow", "addr:housenumber": "1700", "addr:postcode": "83843", "addr:state": "ID", "addr:street": "West Pullman Road", "brand": "WinCo Foods", "brand:wikidata": "Q8023592", "name": "WinCo Foods", "opening_hours": "24/7", "phone": "+1-208-883-8335", "shop": "supermarket", "website": "https://www.wincofoods.com", "wheelchair": "yes"}}, {"type": "node", "id": 5077663119, "lat": 46.7330295, "lon": -117.0037295}, {"type": "node", "id": 5077663120, "lat": 46.7330301, "lon": -117.00356}, {"type": "node", "id": 5077669021, "lat": 46.7327358, "lon": -117.0035581}, {"type": "node", "id": 5077669022, "lat": 46.7327352, "lon": -117.0037276}, {"type": "node", "id": 5096010978, "lat": 46.7340821, "lon": -117.0122174}, {"type": "node", "id": 5096010979, "lat": 46.7338635, "lon": -117.0122206}, {"type": "node", "id": 5096010981, "lat": 46.7340838, "lon": -117.0124651}, {"type": "node", "id": 5096010982, "lat": 46.733867, "lon": -117.0130285}, {"type": "node", "id": 5096010983, "lat": 46.7341214, "lon": -117.0130278}, {"type": "node", "id": 5096010984, "lat": 46.7341207, "lon": -117.0125612}, {"type": "node", "id": 5096010985, "lat": 46.7340642, "lon": -117.0125614}, {"type": "node", "id": 5150664722, "lat": 46.73497, "lon": -117.0348725}, {"type": "node", "id": 5150664723, "lat": 46.7349953, "lon": -117.0348725}, {"type": "node", "id": 5156179195, "lat": 46.7343924, "lon": -117.0389456}, {"type": "node", "id": 5156179197, "lat": 46.734398, "lon": -117.038441}, {"type": "node", "id": 5156179198, "lat": 46.7342207, "lon": -117.0384408}, {"type": "node", "id": 5156179199, "lat": 46.7340198, "lon": -117.0388068}, {"type": "node", "id": 5156179200, "lat": 46.7340446, "lon": -117.0388537}, {"type": "node", "id": 5156179201, "lat": 46.7342354, "lon": -117.0388509}, {"type": "node", "id": 5156179202, "lat": 46.7342343, "lon": -117.0389452}, {"type": "node", "id": 5156179203, "lat": 46.7340168, "lon": -117.0383791}, {"type": "node", "id": 5156179204, "lat": 46.7342202, "lon": -117.0383761}, {"type": "node", "id": 5162245473, "lat": 46.7334186, "lon": -117.0157082}, {"type": "node", "id": 5162245474, "lat": 46.7334183, "lon": -117.0155612}, {"type": "node", "id": 5162245475, "lat": 46.7331876, "lon": -117.0155622}, {"type": "node", "id": 5162245476, "lat": 46.733188, "lon": -117.0157092}, {"type": "node", "id": 5162263190, "lat": 46.7331727, "lon": -117.0161037}, {"type": "node", "id": 5162263191, "lat": 46.7331729, "lon": -117.0161487}, {"type": "node", "id": 5162263192, "lat": 46.733234, "lon": -117.0161481}, {"type": "node", "id": 5162263193, "lat": 46.7332338, "lon": -117.016103}, {"type": "node", "id": 5162300995, "lat": 46.733606, "lon": -117.01464}, {"type": "node", "id": 5162300996, "lat": 46.7336023, "lon": -117.014396}, {"type": "node", "id": 5162300997, "lat": 46.7333557, "lon": -117.014404}, {"type": "node", "id": 5162300998, "lat": 46.7332941, "lon": -117.014351}, {"type": "node", "id": 5162300999, "lat": 46.7332986, "lon": -117.014649}, {"type": "node", "id": 5208833201, "lat": 46.7354985, "lon": -117.0375037}, {"type": "node", "id": 5208833202, "lat": 46.7354489, "lon": -117.0381877}, {"type": "node", "id": 5208833203, "lat": 46.735493, "lon": -117.0379812}, {"type": "node", "id": 5208833204, "lat": 46.7352981, "lon": -117.0385203}, {"type": "node", "id": 5208833205, "lat": 46.7351952, "lon": -117.0386249}, {"type": "node", "id": 5208833206, "lat": 46.7350297, "lon": -117.0387563}, {"type": "node", "id": 5208833207, "lat": 46.7353753, "lon": -117.0383835}, {"type": "node", "id": 5208833208, "lat": 46.7326362, "lon": -117.0383674}, {"type": "node", "id": 5208833209, "lat": 46.7333201, "lon": -117.0383781}, {"type": "node", "id": 5208833210, "lat": 46.7333127, "lon": -117.0390219}, {"type": "node", "id": 5208833211, "lat": 46.7348238, "lon": -117.0390272}, {"type": "node", "id": 5208833212, "lat": 46.7355003, "lon": -117.0372462}, {"type": "node", "id": 5208833213, "lat": 46.735482, "lon": -117.0341966}, {"type": "node", "id": 5208833214, "lat": 46.7344635, "lon": -117.0341885}, {"type": "node", "id": 5208833215, "lat": 46.7344635, "lon": -117.0332471}, {"type": "node", "id": 5208833688, "lat": 46.7347808, "lon": -117.0380978}, {"type": "node", "id": 5208833691, "lat": 46.7350764, "lon": -117.0381031}, {"type": "node", "id": 5208833692, "lat": 46.7347382, "lon": -117.0380975}, {"type": "node", "id": 5208833693, "lat": 46.734736, "lon": -117.0383943}, {"type": "node", "id": 5208833694, "lat": 46.7350742, "lon": -117.0383996}, {"type": "node", "id": 5208833768, "lat": 46.7330903, "lon": -117.0337647}, {"type": "node", "id": 5208833769, "lat": 46.7330903, "lon": -117.0335153}, {"type": "node", "id": 5208833770, "lat": 46.7331914, "lon": -117.0335153}, {"type": "node", "id": 5208833771, "lat": 46.7331914, "lon": -117.0337647}, {"type": "node", "id": 5516637416, "lat": 46.7340641, "lon": -117.0124654}, {"type": "node", "id": 5516637417, "lat": 46.7338652, "lon": -117.0124683}, {"type": "node", "id": 5518872848, "lat": 46.7330736, "lon": -117.0222995}, {"type": "node", "id": 5518872849, "lat": 46.7330714, "lon": -117.0220575}, {"type": "node", "id": 5518872850, "lat": 46.7328616, "lon": -117.0220615}, {"type": "node", "id": 5518872851, "lat": 46.7328618, "lon": -117.0220835}, {"type": "node", "id": 5518872852, "lat": 46.7327861, "lon": -117.0220855}, {"type": "node", "id": 5518872853, "lat": 46.7327882, "lon": -117.0223135}, {"type": "node", "id": 5518872854, "lat": 46.7328684, "lon": -117.0223115}, {"type": "node", "id": 5518872855, "lat": 46.7328684, "lon": -117.0223025}, {"type": "node", "id": 5518898040, "lat": 46.7335852, "lon": -117.0171518}, {"type": "node", "id": 5518898041, "lat": 46.7336238, "lon": -117.0171513}, {"type": "node", "id": 5518898042, "lat": 46.7336196, "lon": -117.0164197}, {"type": "node", "id": 5518898043, "lat": 46.733295, "lon": -117.0164237}, {"type": "node", "id": 5518898044, "lat": 46.7332988, "lon": -117.0170804}, {"type": "node", "id": 5518898045, "lat": 46.733242, "lon": -117.0170811}, {"type": "node", "id": 5518898046, "lat": 46.7332483, "lon": -117.0181711}, {"type": "node", "id": 5518898047, "lat": 46.7334818, "lon": -117.018963}, {"type": "node", "id": 5518898048, "lat": 46.7335807, "lon": -117.0187241}, {"type": "node", "id": 5518898049, "lat": 46.7335821, "lon": -117.0185956}, {"type": "node", "id": 5518898050, "lat": 46.733464, "lon": -117.0183537}, {"type": "node", "id": 5518898051, "lat": 46.7332145, "lon": -117.018411}, {"type": "node", "id": 5518898052, "lat": 46.7332083, "lon": -117.0189564}, {"type": "node", "id": 5577253045, "lat": 46.7347274, "lon": -117.0247996}, {"type": "node", "id": 5577324508, "lat": 46.7341218, "lon": -117.0247909}, {"type": "node", "id": 5577324511, "lat": 46.7327671, "lon": -117.0248306}, {"type": "node", "id": 5577324512, "lat": 46.7327879, "lon": -117.0247716}, {"type": "node", "id": 6371400882, "lat": 46.7330052, "lon": -117.0281394, "tags": {"addr:city": "Moscow", "addr:housenumber": "1930", "addr:postcode": "83843", "addr:state": "ID", "addr:street": "Pullman Road", "amenity": "cafe", "branch": "Palouse Mall - Moscow", "brand": "Starbucks", "brand:wikidata": "Q37158", "cuisine": "coffee_shop", "name": "Starbucks", "official_name": "Starbucks Coffee", "phone": "+1 208-882-2163", "takeaway": "yes", "website": "https://www.starbucks.com/store-locator/store/1009987/palouse-mall-moscow-1930-west-pullman-road-moscow-id-838434013-us"}}, {"type": "node", "id": 6371416615, "lat": 46.7344122, "lon": -117.0299921, "tags": {"addr:city": "Moscow", "addr:housenumber": "2040", "addr:postcode": "83843", "addr:state": "ID", "addr:street": "West Pullman Road", "brand": "Ross", "brand:wikidata": "Q3442791", "name": "Ross", "official_name": "Ross Dress for Less", "opening_hours": "Mo-Sa 10:00-20:00; Su 11:00-18:00", "phone": "+1 208-882-3704", "ref": "821", "shop": "department_store", "website": "https://www.rossstores.com"}}, {"type": "node", "id": 6371446878, "lat": 46.7335752, "lon": -117.023703, "tags": {"addr:city": "Moscow", "addr:housenumber": "1516", "addr:postcode": "83843", "addr:state": "ID", "addr:street": "Pullman Road", "amenity": "restaurant", "name": "Seasons Public House", "outdoor_seating": "yes", "phone": "+1-208-882-0550", "website": "https://www.uinnmoscow.com/seasons/"}}, {"type": "node", "id": 7154100926, "lat": 46.7341782, "lon": -117.0100024, "tags": {"addr:city": "Moscow", "addr:country": "US", "addr:housenumber": "672", "addr:postcode": "83843", "addr:state": "ID", "addr:street": "Pullman Road", "entrance": "yes", "name": "Precision Engraving", "service": "engraving", "shop": "trophy", "wheelchair": "yes"}}, {"type": "node", "id": 7154100927, "lat": 46.7342604, "lon": -117.010002, "tags": {"addr:city": "Moscow", "addr:country": "US", "addr:housenumber": "674", "addr:postcode": "83843", "addr:state": "ID", "addr:street": "Pullman Road", "brand": "Benjamin Moore", "brand:wikidata": "Q4889038", "entrance": "yes", "name": "Benjamin Moore", "shop": "paint", "wheelchair": "yes"}}, {"type": "node", "id": 7170675611, "lat": 46.7338646, "lon": -117.0123748}, {"type": "node", "id": 7170703809, "lat": 46.7332957, "lon": -117.0165406}, {"type": "node", "id": 7630868666, "lat": 46.7327864, "lon": -117.0333619}, {"type": "node", "id": 7630868667, "lat": 46.7338655, "lon": -117.03337}, {"type": "node", "id": 7630868668, "lat": 46.7338674, "lon": -117.0345797}, {"type": "node", "id": 7630868669, "lat": 46.7327662, "lon": -117.0346011}, {"type": "node", "id": 7827961800, "lat": 46.7333234, "lon": -117.0089978, "tags": {"addr:city": "Moscow", "addr:housenumber": "630", "addr:postcode": "83843", "addr:state": "ID", "addr:street": "Pullman Road", "name": "Furniture Center", "shop": "furniture"}}, {"type": "node", "id": 7827961801, "lat": 46.7332677, "lon": -117.00834, "tags": {"addr:city": "Moscow", "addr:housenumber": "610", "addr:postcode": "83843", "addr:state": "ID", "addr:street": "Pullman Road", "brand": "Sherwin-Williams", "brand:wikidata": "Q48881", "name": "Sherwin-Williams", "shop": "paint"}}, {"type": "node", "id": 8504827091, "lat": 46.7357222, "lon": -117.0036448}, {"type": "node", "id": 8504827092, "lat": 46.7357281, "lon": -117.0029742}, {"type": "node", "id": 8504827093, "lat": 46.7354049, "lon": -117.0029682}, {"type": "node", "id": 8504827094, "lat": 46.7354017, "lon": -117.0036389}, {"type": "node", "id": 8657291011, "lat": 46.7334845, "lon": -117.0187218}, {"type": "node", "id": 8657291012, "lat": 46.7335625, "lon": -117.0185951}, {"type": "node", "id": 8657291013, "lat": 46.7335653, "lon": -117.0183562}, {"type": "node", "id": 8657291014, "lat": 46.7334633, "lon": -117.018417}, {"type": "node", "id": 8703246803, "lat": 46.7354035, "lon": -117.0034239}, {"type": "node", "id": 8703246804, "lat": 46.7354668, "lon": -117.0034251}, {"type": "node", "id": 8703246805, "lat": 46.7354689, "lon": -117.0031725}, {"type": "node", "id": 8703246806, "lat": 46.7354031, "lon": -117.0031712}, {"type": "node", "id": 9506948951, "lat": 46.7340386, "lon": -117.0314766, "tags": {"addr:city": "Moscow", "addr:housenumber": "2132", "addr:postcode": "83843", "addr:state": "ID", "addr:street": "Pullman Road", "brand": "Target", "brand:wikidata": "Q1046951", "name": "Target", "opening_hours": "Mo-Fr 07:00-22:00; Sa-Su 08:00-22:00", "phone": "+1 208-997-3293", "shop": "department_store", "website": "https://www.target.com/sl/moscow-west-pullman-road/3407"}}, {"type": "node", "id": 9836442095, "lat": 46.7331617, "lon": -117.0383203}, {"type": "node", "id": 11845901330, "lat": 46.734342, "lon": -117.0265732, "tags": {"addr:city": "Moscow", "addr:housenumber": "1730", "addr:postcode": "83843", "addr:state": "ID", "addr:street": "West Pullman Road", "alt_name": "Ulta Skin Bar", "beauty": "skin_care", "brand": "Ulta Beauty", "name": "Ulta", "not:brand:wikidata": "Q7880076", "opening_hours": "Mo-We 10:00-20:00; Th-Sa 10:00-21:00; Su 11:00-18:00", "phone": "+1 208-882-1578", "ref": "1235", "shop": "beauty", "website": "https://www.ulta.com/stores/moscow-id-1235"}}, {"type": "node", "id": 11845901336, "lat": 46.7332879, "lon": -117.0323896, "tags": {"addr:city": "Moscow", "addr:housenumber": "2242", "addr:postcode": "83843-4010", "addr:state": "ID", "addr:street": "West Pullman Road", "branch": "Moscow", "brand": "Petco", "brand:wikidata": "Q7171798", "name": "Petco", "opening_hours": "Mo-Sa 09:00-20:00; Su 10:00-19:00", "phone": "+1 208-997-5057", "ref": "1282", "shop": "pet", "website": "https://stores.petco.com/id/moscow/pet-supplies-moscow-id-1282.html"}}, {"type": "node", "id": 12826105723, "lat": 46.7348413, "lon": -117.0379798, "tags": {"addr:city": "Moscow", "addr:country": "US", "addr:housenumber": "233", "addr:postcode": "83843", "addr:state": "ID", "addr:street": "Warbonnet Drive", "name": "Bellevue Healthcare", "shop": "medical_supply", "website": "https://bellevuehealthcare.com/locations/moscow-id"}}, {"type": "way", "id": 339062514, "nodes": [3462492786, 3462492769, 3462492770, 3462492787, 3462492786], "tags": {"addr:city": "Moscow", "addr:country": "US", "addr:county": "Latah", "addr:housenumber": "625", "addr:postcode": "83843", "addr:state": "ID", "addr:street": "West A Street", "brand": "Shaw Floors", "building": "warehouse", "building:levels": "1", "craft": "floorer", "name": "Superior Floors", "opening_hours": "Mo-Fr 08:00-17:30; PH off", "phone": "+1 208 8821919", "roof:colour": "lightcyan", "roof:height": "1", "roof:material": "metal", "roof:shape": "gabled", "shop": "flooring", "source": "Bing", "website": "https://shawfloors.com/stores/dealerprofile/2371/superior-floors-inc"}}, {"type": "way", "id": 365441373, "nodes": [3694577188, 3694577203, 3694577200, 3694577183, 3694577935, 3694577926, 3694577217, 3694577931, 3694577212, 3694577207, 3694577202, 3694577184, 3694577188], "tags": {"addr:city": "Moscow", "addr:housenumber": "1710", "addr:postcode": "83843", "addr:state": "ID", "addr:street": "Pullman Road", "amenity": "restaurant", "brand": "Buffalo Wild Wings", "brand:wikidata": "Q509255", "building": "commercial", "cuisine": "wings", "name": "Buffalo Wild Wings", "outdoor_seating": "yes", "phone": "+1-208-882-7630", "short_name": "BW3", "website": "https://www.buffalowildwings.com/en/locations/detail/0604"}}, {"type": "way", "id": 365441374, "nodes": [3694577219, 3694577933, 3694577929, 3694577191, 3694577219], "tags": {"addr:city": "Moscow", "addr:housenumber": "2122", "addr:postcode": "83843", "addr:state": "ID", "addr:street": "Pullman Road", "brand": "Big 5 Sporting Goods", "brand:wikidata": "Q4904902", "building": "yes", "name": "Big 5 Sporting Goods", "opening_hours": "Mo-Th 10:00-21:00; Fr 09:00-22:00; Sa 09:00-21:00", "phone": "+1-208-883-4808", "shop": "sports", "website": "https://www.big5sportinggoods.com/"}}, {"type": "way", "id": 507113730, "nodes": [4967013982, 4967013975, 4967013986, 4967013980, 4967013982], "tags": {"addr:city": "Moscow", "addr:housenumber": "121", "addr:postcode": "83843", "addr:state": "ID", "addr:street": "War Bonnet Drive", "amenity": "restaurant", "brand": "Shari's", "brand:wikidata": "Q7489612", "building": "retail", "cuisine": "american", "name": "Shari's", "phone": "+1-208-882-1971", "source": "DigitalGlobe-Premium", "source:name": "local_knowledge", "website": "https://www.sharis.com"}}, {"type": "way", "id": 507113731, "nodes": [5150664723, 5150664722, 4967013985, 4967013971, 4967013984, 4967013983, 4967013981, 4967013974, 5150664723], "tags": {"addr:city": "Moscow", "addr:country": "US", "addr:housenumber": "2470", "addr:postcode": "83843", "addr:state": "ID", "addr:street": "West Pullman Road", "brand": "Walmart", "brand:wikidata": "Q483551", "building": "retail", "name": "Walmart Supercenter", "opening_hours": "24/7", "operator": "Walmart", "payment:app:walmart": "yes", "payment:apple_pay": "no", "payment:google_pay": "no", "payment:samsung_pay": "no", "phone": "+1 208-883-8828", "ref": "5869", "ref:walmart": "5869", "sensory_friendly:accommodation": "dimmed_light;static_screens;no_pa", "sensory_friendly:conditional": "yes @ 08:00-10:00", "shop": "supermarket", "source:name": "local_knowledge", "website": "https://www.walmart.com/store/5869-moscow-id"}}, {"type": "way", "id": 507113732, "nodes": [9836442095, 4967013977, 4967013976, 4967013973, 4967013978, 4967013972, 9836442095], "tags": {"addr:city": "Moscow", "addr:housenumber": "105", "addr:postcode": "83843", "addr:state": "ID", "addr:street": "War Bonnet Drive", "amenity": "restaurant", "brand": "Applebee's Neighborhood Grill & Bar", "brand:wikidata": "Q621532", "building": "retail", "cuisine": "american", "internet_access": "wlan", "name": "Applebee's", "official_name": "Applebee's Neighborhood Grill & Bar", "phone": "+1-208-883-4821", "source": "DigitalGlobe-Premium", "source:name": "local_knowledge", "website": "https://restaurants.applebees.com/en-us/id/moscow/105-war-bonnet-drive-84085", "website:menu": "https://www.applebees.com/en/menu?StoreNumber=84085&action=viewmenu"}}, {"type": "way", "id": 519767130, "nodes": [5067610808, 5577324512, 5577324508, 5577253045, 5067610807, 5067610806, 5067610805, 5067610804, 5067610803, 5208833215, 5208833214, 5208833213, 5208833212, 5208833201, 5208833203, 5208833202, 5208833207, 5208833204, 5208833205, 5208833206, 5208833211, 5208833210, 5208833209, 5208833208, 5067610802, 5577324511, 5067610808], "tags": {"landuse": "retail", "name": "Palouse Mall", "shop": "mall"}}, {"type": "way", "id": 521080869, "nodes": [5077663119, 5077663120, 5077669021, 5077669022, 5077663119], "tags": {"addr:city": "Moscow", "addr:housenumber": "200", "addr:postcode": "83843", "addr:state": "ID", "addr:street": "South Almon Street", "building": "yes", "name": "Latah County Annex", "office": "government"}}, {"type": "way", "id": 523455254, "nodes": [5096010978, 5096010979, 7170675611, 5516637417, 5516637416, 5096010981, 5096010978], "tags": {"addr:city": "Moscow", "addr:housenumber": "904", "addr:postcode": "83843", "addr:state": "ID", "addr:street": "West Pullman Road", "building": "yes", "drive_through": "no", "name": "Idaho State Liquor Store 303", "opening_hours": "Mo-Th 11:00-20:00; Fr-Sa 11:00-21:00; Su 12:00-17:00", "operator": "Idaho State Liquor Division", "phone": "+1-208-882-1538", "shop": "alcohol", "website": "https://liquor.idaho.gov/"}}, {"type": "way", "id": 523455255, "nodes": [5516637417, 5096010982, 5096010983, 5096010984, 5096010985, 5516637416, 5516637417], "tags": {"addr:city": "Moscow", "addr:housenumber": "908", "addr:postcode": "83843", "addr:state": "ID", "addr:street": "West Pullman Road", "building": "yes", "name": "Howard Hughes Appliance, TV, and Sleepshop", "opening_hours": "Mo-Sa 09:00-18:00", "phone": "+1-208-882-2123", "shop": "electronics", "website": "https://www.howardhughesappliance.com/"}}, {"type": "way", "id": 531147143, "nodes": [5156179195, 5156179197, 5156179198, 5156179204, 5156179203, 5156179199, 5156179200, 5156179201, 5156179202, 5156179195], "tags": {"addr:city": "Moscow", "addr:housenumber": "201", "addr:postcode": "83843", "addr:state": "ID", "addr:street": "War Bonnet Drive", "brand": "Goodwill", "brand:wikidata": "Q5583655", "building": "yes", "building:levels": "1", "name": "Goodwill", "not:operator:wikidata": "Q109721945", "phone": "+1 208-883-4280", "shop": "charity", "smoking": "no"}}, {"type": "way", "id": 531866128, "nodes": [5162245473, 5162245474, 5162245475, 5162245476, 5162245473], "tags": {"brand": "Stinker", "brand:wikidata": "Q95990164", "building": "yes", "fuel:diesel": "yes", "name": "Stinker", "shop": "convenience"}}, {"type": "way", "id": 531868474, "nodes": [5162263190, 5162263191, 5162263192, 5162263193, 5162263190], "tags": {"addr:city": "Moscow", "addr:housenumber": "1046", "addr:postcode": "83843", "addr:state": "ID", "addr:street": "Pullman Road", "amenity": "cafe", "building": "yes", "cuisine": "coffee;coffee_shop", "name": "Red Star Coffee Company"}}, {"type": "way", "id": 531872898, "nodes": [5162300995, 5162300996, 5162300997, 5162300998, 5162300999, 5162300995], "tags": {"addr:city": "Moscow", "addr:housenumber": "1006", "addr:postcode": "83843", "addr:state": "ID", "addr:street": "Pullman Road", "brand": "AutoZone", "brand:wikidata": "Q4826087", "building": "yes", "name": "AutoZone", "opening_hours": "Mo-Sa 07:30-21:00; Su 08:00-20:00", "phone": "+1-208-882-1256", "shop": "car_parts", "website": "https://www.autozone.com/locations/id/moscow/1006-pullman-rd.html"}}, {"type": "way", "id": 538053126, "nodes": [5208833694, 5208833691, 5208833688, 5208833692, 5208833693, 5208833694], "tags": {"addr:city": "Moscow", "addr:housenumber": "217", "addr:postcode": "83843", "addr:state": "ID", "addr:street": "War Bonnet Drive", "building": "yes", "name": "Deranleau's", "phone": "+1-208-882-7016", "shop": "appliance", "website": "https://deranleaus.com"}}, {"type": "way", "id": 538053135, "nodes": [5208833771, 5208833770, 5208833769, 5208833768, 5208833771], "tags": {"addr:city": "Moscow", "addr:housenumber": "2320", "addr:postcode": "83843", "addr:state": "ID", "addr:street": "Pullman Road", "brand": "U-Haul", "brand:wikidata": "Q7862902", "building": "yes", "name": "U-Haul", "phone": "+1-208-883-0500", "shop": "rental", "website": "https://uhaul.com"}}, {"type": "way", "id": 575075744, "nodes": [5518872848, 5518872849, 5518872850, 5518872851, 5518872852, 5518872853, 5518872854, 5518872855, 5518872848], "tags": {"addr:housenumber": "1420", "addr:state": "ID", "addr:street": "Pullman Road", "brand": "O'Reilly Auto Parts", "brand:wikidata": "Q7071951", "building": "yes", "name": "O'Reilly Auto Parts", "shop": "car_parts", "website": "https://locations.oreillyauto.com/id/moscow/autoparts-2523.html"}}, {"type": "way", "id": 575077984, "nodes": [692089781, 5518898040, 5518898041, 5518898042, 5518898043, 7170703809, 5518898044, 5518898045, 5518898046, 692089781], "tags": {"addr:city": "Moscow", "addr:housenumber": "1104", "addr:postcode": "83843", "addr:state": "ID", "addr:street": "Pullman Road", "building": "yes", "name": "Tri-State Outfitters", "opening_hours": "Mo-Sa 08:00-20:00; Su 10:00-18:00", "phone": "+1-208-882-4555", "shop": "outdoor", "website": "https://t-state.com"}}, {"type": "way", "id": 575077985, "nodes": [5518898047, 8657291011, 5518898048, 5518898049, 8657291012, 8657291013, 5518898050, 8657291014, 5518898051, 5518898052, 5518898047], "tags": {"addr:housenumber": "1222", "addr:state": "ID", "addr:street": "Pullman Road", "building": "yes", "name": "The Hope Center", "shop": "charity"}}, {"type": "way", "id": 817052964, "nodes": [7630868666, 7630868667, 7630868668, 7630868669, 7630868666], "tags": {"brand": "U-Haul", "brand:wikidata": "Q7862902", "landuse": "commercial", "name": "U-Haul", "shop": "storage_rental"}}, {"type": "way", "id": 915588212, "nodes": [8504827091, 8504827092, 8504827093, 8703246806, 8703246805, 8703246804, 8703246803, 8504827094, 8504827091], "tags": {"addr:city": "Moscow", "addr:housenumber": "232", "addr:postcode": "83843", "addr:state": "ID", "addr:street": "North Almon Street", "building": "office", "fax": "+1-208-882-3317", "name": "Lightcast", "office": "company", "phone": "+1-208-883-3500", "website": "https://lightcast.io/"}}]}