{"version": 0.6, "generator": "Overpass API 0.7.62.8 e802775f", "osm3s": {"timestamp_osm_base": "2025-12-13T00:02:43Z", "copyright": "The data included in this document is from www.openstreetmap.org. The data is made available under ODbL."}, "elements": [{"type": "node", "id": 2768505019, "lat": 39.5084848, "lon": -104.767432}, {"type": "node", "id": 2768505021, "lat": 39.5084843, "lon": -104.7668311}, {"type": "node", "id": 2768505025, "lat": 39.5078999, "lon": -104.766899}, {"type": "node", "id": 2768505026, "lat": 39.5079056, "lon": -104.76743}, {"type": "node", "id": 3988126752, "lat": 39.5078306, "lon": -104.7668977}, {"type": "node", "id": 3988126753, "lat": 39.5078342, "lon": -104.7668262}, {"type": "node", "id": 3988134943, "lat": 39.5084844, "lon": -104.7672239}, {"type": "node", "id": 3988134944, "lat": 39.5084749, "lon": -104.7672234}, {"type": "node", "id": 3988134945, "lat": 39.5084747, "lon": -104.7670563}, {"type": "node", "id": 3988134946, "lat": 39.5084841, "lon": -104.7670553}, {"type": "node", "id": 3988134947, "lat": 39.5079065, "lon": -104.7671293}, {"type": "node", "id": 3988134948, "lat": 39.5078999, "lon": -104.7671306}, {"type": "node", "id": 3990008074, "lat": 39.5081869, "lon": -104.7668352}, {"type": "node", "id": 3995574917, "lat": 39.5122557, "lon": -104.7656403, "tags": {"addr:city": "Parker", "addr:housenumber": "11153", "addr:postcode": "80134", "addr:state": "CO", "addr:street": "South Parker Road", "addr:unit": "H", "leisure": "fitness_centre", "name": "FitX"}}, {"type": "node", "id": 4026058901, "lat": 39.5259415, "lon": -104.767792, "tags": {"addr:city": "Parker", "addr:housenumber": "10490", "addr:postcode": "80134", "addr:state": "CO", "addr:street": "Progress Way", "brand": "Jazzercise", "brand:wikidata": "Q6168434", "leisure": "fitness_centre", "name": "Jazzercise"}}, {"type": "node", "id": 4036610496, "lat": 39.5272887, "lon": -104.767575, "tags": {"addr:city": "Parker", "addr:housenumber": "10453", "addr:postcode": "80134", "addr:state": "CO", "addr:street": "South Parker Road", "brand": "Curves", "brand:wikidata": "Q5196080", "leisure": "fitness_centre", "name": "Curves"}}, {"type": "node", "id": 5702330608, "lat": 39.5079055, "lon": -104.76734}, {"type": "node", "id": 5702330611, "lat": 39.5078525, "lon": -104.7668261}, {"type": "node", "id": 5702395852, "lat": 39.5080748, "lon": -104.766825}, {"type": "node", "id": 5725765754, "lat": 39.5117305, "lon": -104.771511, "tags": {"addr:city": "Parker", "addr:housenumber": "11280", "addr:postcode": "80134", "addr:state": "CO", "addr:street": "Twenty Mile Road", "addr:unit": "108", "leisure": "fitness_centre", "name": "Farrell's eXtreme Bodyshaping"}}, {"type": "node", "id": 5817959800, "lat": 39.5237118, "lon": -104.774803, "tags": {"addr:city": "Parker", "addr:housenumber": "18448", "addr:postcode": "80134", "addr:state": "CO", "addr:street": "Longs Way", "branch": "Parker Fitness Center", "brand": "Jazzercise", "brand:wikidata": "Q6168434", "leisure": "fitness_centre", "name": "Jazzercise"}}, {"type": "node", "id": 5832049113, "lat": 39.524646, "lon": -104.7753562, "tags": {"addr:city": "Parker", "addr:housenumber": "18499", "addr:postcode": "80134", "addr:state": "CO", "addr:street": "Longs Way", "leisure": "fitness_centre", "name": "20 Mile Athletic Center Gymnastics", "sport": "gymnastics"}}, {"type": "node", "id": 11291597844, "lat": 39.4942686, "lon": -104.759642, "tags": {"addr:city": "Parker", "addr:housenumber": "12227", "addr:postcode": "80134", "addr:state": "CO", "addr:street": "Pine Bluffs Way", "addr:unit": "103", "brand": "Orangetheory Fitness", "brand:wikidata": "Q25005163", "leisure": "fitness_centre", "name": "Orangetheory Fitness", "opening_hours": "Mo-Sa 05:00-20:00", "phone": "+1 720-600-4711", "ref": "30593", "sport": "fitness;weightlifting"}}, {"type": "way", "id": 271926136, "nodes": [2768505019, 3988134943, 3988134944, 3988134945, 3988134946, 2768505021, 3990008074, 5702395852, 5702330611, 3988126753, 3988126752, 2768505025, 3988134948, 3988134947, 5702330608, 2768505026, 2768505019], "tags": {"addr:city": "Parker", "addr:housenumber": "11445", "addr:postcode": "80134", "addr:state": "CO", "addr:street": "Twenty Mile Road", "brand": "24 Hour Fitness", "brand:wikidata": "Q4631849", "building": "yes", "leisure": "fitness_centre", "name": "24 Hour Fitness"}}]}