{"version": 0.6, "generator": "Overpass API 0.7.62.8 e802775f", "osm3s": {"timestamp_osm_base": "2025-12-06T08:57:17Z", "copyright": "The data included in this document is from www.openstreetmap.org. The data is made available under ODbL."}, "elements": [{"type": "node", "id": 357981808, "lat": 48.3855202, "lon": -114.0726203, "tags": {"amenity": "place_of_worship", "ele": "949", "gnis:feature_id": "1795825", "name": "Hungry Horse Chapel", "religion": "christian"}}, {"type": "node", "id": 357982287, "lat": 48.3805201, "lon": -114.0587306, "tags": {"amenity": "school", "ele": "944", "gnis:feature_id": "1796290", "name": "Canyon Community School"}}, {"type": "node", "id": 366093247, "lat": 48.3850415, "lon": -114.0623515, "tags": {"addr:city": "Hungry Horse", "addr:housenumber": "155", "addr:state": "MT", "addr:street": "Hungry Horse Boulevard", "amenity": "fire_station", "ele": "947", "facebook": "https://www.facebook.com/people/Hungry-Horse-Volunteer-Fire-Department/100057362262797", "gnis:feature_id": "1796126", "name": "Hungry Horse Fire Department", "source": "USGS Geonames"}}, {"type": "node", "id": 6644921313, "lat": 48.3859855, "lon": -114.0643354}, {"type": "node", "id": 6644921314, "lat": 48.3859867, "lon": -114.0641469}, {"type": "node", "id": 6644921315, "lat": 48.38588, "lon": -114.0641453}, {"type": "node", "id": 6644921316, "lat": 48.3858788, "lon": -114.0643338}, {"type": "node", "id": 6644921317, "lat": 48.3862228, "lon": -114.0646047}, {"type": "node", "id": 6644921318, "lat": 48.3862287, "lon": -114.0643416}, {"type": "node", "id": 6644921319, "lat": 48.3860919, "lon": -114.0643347}, {"type": "node", "id": 6644921320, "lat": 48.386086, "lon": -114.0645978}, {"type": "node", "id": 6644921321, "lat": 48.3859092, "lon": -114.058571, "tags": {"amenity": "fuel", "atm": "yes", "brand": "Sinclair", "brand:wikidata": "Q1290900", "check_date": "2024-09-25", "name": "Sinclair", "phone": "+1 406-387-4153", "website": "https://stations.sinclairoil.com/mt/hungry-horse/8930-us-highway-2-e"}}, {"type": "node", "id": 6644921330, "lat": 48.3862701, "lon": -114.0533394, "tags": {"name": "Glacier Fine Art", "tourism": "gallery"}}, {"type": "node", "id": 8908311358, "lat": 48.386258, "lon": -114.0624442}, {"type": "node", "id": 8908311359, "lat": 48.3862587, "lon": -114.0626925}, {"type": "node", "id": 8908311360, "lat": 48.3861897, "lon": -114.0626934}, {"type": "node", "id": 8908311361, "lat": 48.3861737, "lon": -114.0627123}, {"type": "node", "id": 8908311362, "lat": 48.3861531, "lon": -114.0627128}, {"type": "node", "id": 8908311363, "lat": 48.3861525, "lon": -114.062679}, {"type": "node", "id": 8908311364, "lat": 48.3860584, "lon": -114.0626827}, {"type": "node", "id": 8908311365, "lat": 48.3860643, "lon": -114.0629162}, {"type": "node", "id": 8908311366, "lat": 48.3860394, "lon": -114.0631341}, {"type": "node", "id": 8908311367, "lat": 48.385918, "lon": -114.062929}, {"type": "node", "id": 8908311368, "lat": 48.3858761, "lon": -114.0626931}, {"type": "node", "id": 8908311369, "lat": 48.3858389, "lon": -114.0626668}, {"type": "node", "id": 8908311370, "lat": 48.3858213, "lon": -114.0625385}, {"type": "node", "id": 8908311371, "lat": 48.3858351, "lon": -114.0624479}, {"type": "node", "id": 9155149605, "lat": 48.3886128, "lon": -114.0476611}, {"type": "node", "id": 9155149606, "lat": 48.3886338, "lon": -114.0477003}, {"type": "node", "id": 9155149607, "lat": 48.3886573, "lon": -114.047695}, {"type": "node", "id": 9155149608, "lat": 48.3887231, "lon": -114.0477534}, {"type": "node", "id": 9155149609, "lat": 48.3887114, "lon": -114.0479144}, {"type": "node", "id": 9155149610, "lat": 48.3886855, "lon": -114.0479356}, {"type": "node", "id": 9155149611, "lat": 48.3886921, "lon": -114.0480254}, {"type": "node", "id": 9155149612, "lat": 48.3886463, "lon": -114.048033}, {"type": "node", "id": 9155149613, "lat": 48.388642, "lon": -114.0479746}, {"type": "node", "id": 9155149614, "lat": 48.3886056, "lon": -114.0479586}, {"type": "node", "id": 9155149615, "lat": 48.3885645, "lon": -114.0478454}, {"type": "node", "id": 9155149616, "lat": 48.3885844, "lon": -114.0477374}, {"type": "node", "id": 9155248917, "lat": 48.3885762, "lon": -114.0477056}, {"type": "node", "id": 9155248918, "lat": 48.3887307, "lon": -114.0478401}, {"type": "node", "id": 9155248919, "lat": 48.3886926, "lon": -114.0477127}, {"type": "node", "id": 9155248920, "lat": 48.388566, "lon": -114.0477925}, {"type": "node", "id": 9155248921, "lat": 48.3885803, "lon": -114.0479091}, {"type": "node", "id": 9494344582, "lat": 48.3841255, "lon": -114.0545231}, {"type": "node", "id": 9494344583, "lat": 48.3841444, "lon": -114.0544749}, {"type": "node", "id": 9494344584, "lat": 48.384167, "lon": -114.0544177}, {"type": "node", "id": 9494344585, "lat": 48.3840919, "lon": -114.0543506}, {"type": "node", "id": 9494344586, "lat": 48.3841345, "lon": -114.0542424}, {"type": "node", "id": 9494344587, "lat": 48.3840792, "lon": -114.0541929}, {"type": "node", "id": 9494344588, "lat": 48.3841241, "lon": -114.0540788}, {"type": "node", "id": 9494344589, "lat": 48.383844, "lon": -114.0538285}, {"type": "node", "id": 9494344590, "lat": 48.3837257, "lon": -114.0541288}, {"type": "node", "id": 9494344591, "lat": 48.3837988, "lon": -114.0541941}, {"type": "node", "id": 9494344592, "lat": 48.3838682, "lon": -114.0540178}, {"type": "node", "id": 9494344593, "lat": 48.3839743, "lon": -114.0541126}, {"type": "node", "id": 9494344594, "lat": 48.3839012, "lon": -114.0542985}, {"type": "node", "id": 9494344595, "lat": 48.383852, "lon": -114.0542547}, {"type": "node", "id": 9494344596, "lat": 48.3838118, "lon": -114.0543571}, {"type": "node", "id": 9494344597, "lat": 48.3837454, "lon": -114.054298}, {"type": "node", "id": 9494344598, "lat": 48.3837039, "lon": -114.0544037}, {"type": "node", "id": 9494344599, "lat": 48.3838807, "lon": -114.054561}, {"type": "node", "id": 9494344600, "lat": 48.3839178, "lon": -114.0544663}, {"type": "node", "id": 9494344601, "lat": 48.3839975, "lon": -114.0545371}, {"type": "node", "id": 9494344602, "lat": 48.3840347, "lon": -114.0544424}, {"type": "node", "id": 9912573515, "lat": 48.385981, "lon": -114.0597283, "tags": {"addr:housenumber": "8900", "addr:street": "US 2", "name": "Canyon Foods", "shop": "supermarket"}}, {"type": "node", "id": 9912579303, "lat": 48.3861141, "lon": -114.0597036, "tags": {"name": "Hungry Horse Laundrymat", "note": "Name is not a typo.", "shop": "laundry"}}, {"type": "node", "id": 9956587070, "lat": 48.3862079, "lon": -114.0705599}, {"type": "node", "id": 9956587071, "lat": 48.3862137, "lon": -114.0702062}, {"type": "node", "id": 9956587072, "lat": 48.3860139, "lon": -114.0701988}, {"type": "node", "id": 9956587073, "lat": 48.3860081, "lon": -114.0705525}, {"type": "node", "id": 10576336028, "lat": 48.3860842, "lon": -114.0722152, "tags": {"addr:city": "Hungry Horse", "addr:country": "US", "addr:housenumber": "8688", "addr:state": "MT", "addr:street": "US 2", "cabins": "yes", "caravans": "yes", "contact:email": "beargrasslodging@gmail.com", "contact:phone": "+1 406 387 5531", "contact:website": "https://beargrasslodging.com", "fee": "yes", "internet_access": "wlan", "name": "Beargrass Lodging and RV Resort", "opening_hours": "Mo-Su 08:00-20:00", "payment:american_express": "yes", "payment:cash": "yes", "payment:credit_cards": "yes", "payment:debit_cards": "yes", "payment:discover_card": "yes", "payment:mastercard": "yes", "payment:notes": "yes", "payment:visa": "yes", "payment:visa_debit": "yes", "postal_code": "59919", "power_supply": "yes", "sanitary_dump_station": "yes", "tents": "yes", "tourism": "motel;caravan_site"}}, {"type": "node", "id": 10720365820, "lat": 48.3851334, "lon": -114.0621483}, {"type": "node", "id": 10720365821, "lat": 48.3851354, "lon": -114.0619974}, {"type": "node", "id": 10720365822, "lat": 48.384913, "lon": -114.0619905}, {"type": "node", "id": 10720365823, "lat": 48.3849109, "lon": -114.0621415}, {"type": "node", "id": 10720365832, "lat": 48.3854197, "lon": -114.0585178}, {"type": "node", "id": 10720365833, "lat": 48.3843286, "lon": -114.0585273}, {"type": "node", "id": 10720365834, "lat": 48.3843286, "lon": -114.0577485}, {"type": "node", "id": 10720365835, "lat": 48.3854197, "lon": -114.0577391}, {"type": "node", "id": 10916487889, "lat": 48.3851014, "lon": -114.0626266, "tags": {"name": "Mommaz Dispensary", "shop": "cannabis"}}, {"type": "node", "id": 10916487890, "lat": 48.3859788, "lon": -114.056708, "tags": {"name": "Hungry Horse Liquor Store", "shop": "alcohol"}}, {"type": "node", "id": 10916487895, "lat": 48.3859551, "lon": -114.0631376}, {"type": "node", "id": 10916487896, "lat": 48.3851203, "lon": -114.0635009}, {"type": "node", "id": 10916487898, "lat": 48.3850817, "lon": -114.0632628, "tags": {"contact:facebook": "https://www.facebook.com/p/World-Museum-of-Wildlife-100057162051501/", "name": "Museum Of Wildlife", "tourism": "museum"}}, {"type": "node", "id": 10916487899, "lat": 48.3850136, "lon": -114.0636071}, {"type": "node", "id": 10916487904, "lat": 48.3851225, "lon": -114.0636063}, {"type": "node", "id": 10916544207, "lat": 48.3850139, "lon": -114.0635022}, {"type": "node", "id": 10916544215, "lat": 48.3860358, "lon": -114.058995, "tags": {"name": "Glacier Bed And Breakfasr", "tourism": "hotel"}}, {"type": "node", "id": 10916544217, "lat": 48.3859201, "lon": -114.0626831}, {"type": "node", "id": 11343800928, "lat": 48.384754, "lon": -114.053505}, {"type": "node", "id": 11343800929, "lat": 48.3841416, "lon": -114.0529472}, {"type": "node", "id": 11343800930, "lat": 48.3839011, "lon": -114.0535458}, {"type": "node", "id": 11343800931, "lat": 48.3845135, "lon": -114.0541037}, {"type": "way", "id": 707097431, "nodes": [6644921313, 6644921314, 6644921315, 6644921316, 6644921313], "tags": {"amenity": "fuel", "brand": "Cenex", "brand:wikidata": "Q5011381", "name": "Cenex"}}, {"type": "way", "id": 707097432, "nodes": [6644921317, 6644921318, 6644921319, 6644921320, 6644921317], "tags": {"building": "yes", "name": "Zip Trip", "shop": "convenience"}}, {"type": "way", "id": 963042566, "nodes": [8908311358, 8908311359, 8908311360, 8908311361, 8908311362, 8908311363, 8908311364, 8908311365, 8908311366, 10916487895, 8908311367, 10916544217, 8908311368, 8908311369, 8908311370, 8908311371, 8908311358], "tags": {"addr:city": "Hungry Horse", "addr:housenumber": "8868", "addr:postcode": "59919", "addr:state": "MT", "addr:street": "US Hwy 2 E", "amenity": "restaurant", "building": "yes", "name": "The Huckleberry Patch", "opening_hours": "Mo-Su 08:00-20:00", "outdoor_seating": "yes", "shop": "gift"}}, {"type": "way", "id": 990857264, "nodes": [9155149605, 9155149606, 9155149607, 9155248919, 9155149608, 9155248918, 9155149609, 9155149610, 9155149611, 9155149612, 9155149613, 9155149614, 9155248921, 9155149615, 9155248920, 9155149616, 9155248917, 9155149605], "tags": {"addr:city": "Columbia Falls", "addr:housenumber": "9128", "addr:postcode": "59912", "addr:state": "MT", "addr:street": "Old US Highway 2", "building": "yes", "name": "Glacier Park Inn Bed & Brkfst", "tourism": "hotel"}}, {"type": "way", "id": 1029926073, "nodes": [9494344582, 9494344583, 9494344584, 9494344585, 9494344586, 9494344587, 9494344588, 9494344589, 9494344590, 9494344591, 9494344592, 9494344593, 9494344594, 9494344595, 9494344596, 9494344597, 9494344598, 9494344599, 9494344600, 9494344601, 9494344602, 9494344582], "tags": {"addr:city": "Hungry Horse", "addr:housenumber": "10", "addr:postcode": "59919", "addr:state": "MT", "addr:street": "Hungry Horse Drive", "amenity": "ranger_station", "building": "yes", "name": "Hungry Horse Ranger Station", "operator": "Flathead National Forest", "operator:short": "USFS"}}, {"type": "way", "id": 1086643038, "nodes": [9956587070, 9956587071, 9956587072, 9956587073, 9956587070], "tags": {"building": "yes", "name": "Willows Huckleberryland", "shop": "bakery"}}, {"type": "way", "id": 1152582879, "nodes": [10720365820, 10720365821, 10720365822, 10720365823, 10720365820], "tags": {"amenity": "townhall", "building": "yes"}}, {"type": "way", "id": 1152582882, "nodes": [10720365832, 10720365833, 10720365834, 10720365835, 10720365832], "tags": {"addr:city": "Hungry Horse", "addr:housenumber": "8955", "addr:postcode": "59919", "addr:state": "MT", "addr:street": "US 2", "facebook": "https://www.facebook.com/people/Mini-Golden-Inns/100054600393485/", "name": "Mini Golden Inns", "tourism": "motel"}}, {"type": "way", "id": 1174834133, "nodes": [10916487899, 10916544207, 10916487896, 10916487904, 10916487899], "tags": {"amenity": "restaurant", "brand": "Restoration Hardware", "building": "yes", "name": "Great Bear Cafe", "outdoor_seating": "yes", "shop": "furniture"}}, {"type": "way", "id": 1222989280, "nodes": [11343800931, 11343800930, 11343800929, 11343800928, 11343800931], "tags": {"amenity": "parking"}}]}