{"version": 0.6, "generator": "Overpass API 0.7.62.8 e802775f", "osm3s": {"timestamp_osm_base": "2025-12-12T18:55:45Z", "copyright": "The data included in this document is from www.openstreetmap.org. The data is made available under ODbL."}, "elements": [{"type": "node", "id": 373771205, "lat": 37.114888, "lon": -107.638803}, {"type": "node", "id": 3233312746, "lat": 37.117039, "lon": -107.633301}, {"type": "node", "id": 6418077104, "lat": 37.1225433, "lon": -107.6352372, "tags": {"entrance": "main"}}, {"type": "node", "id": 6418077105, "lat": 37.1223778, "lon": -107.6358394}, {"type": "node", "id": 6418077106, "lat": 37.1226622, "lon": -107.6358528}, {"type": "node", "id": 6418077107, "lat": 37.1226622, "lon": -107.6355471}, {"type": "node", "id": 6418077108, "lat": 37.1226034, "lon": -107.6354411}, {"type": "node", "id": 6418077109, "lat": 37.1225104, "lon": -107.6353191}, {"type": "node", "id": 6418077110, "lat": 37.1223756, "lon": -107.6351528}, {"type": "node", "id": 6418077119, "lat": 37.1227007, "lon": -107.6351514}, {"type": "node", "id": 6418077120, "lat": 37.1226109, "lon": -107.6351246}, {"type": "node", "id": 6418077121, "lat": 37.122612, "lon": -107.6351514}, {"type": "node", "id": 6418077122, "lat": 37.1225906, "lon": -107.6351501}, {"type": "node", "id": 6418077123, "lat": 37.1225916, "lon": -107.6352038}, {"type": "node", "id": 6418077124, "lat": 37.1225446, "lon": -107.6352051}, {"type": "node", "id": 6418077125, "lat": 37.1225392, "lon": -107.6353432}, {"type": "node", "id": 6418077126, "lat": 37.1225938, "lon": -107.6354183}, {"type": "node", "id": 6418077127, "lat": 37.1226451, "lon": -107.6354264}, {"type": "node", "id": 6418077128, "lat": 37.1226922, "lon": -107.63537}, {"type": "node", "id": 6418077129, "lat": 37.1227125, "lon": -107.6353727}, {"type": "node", "id": 6418077130, "lat": 37.1227082, "lon": -107.6355672}, {"type": "node", "id": 6418077131, "lat": 37.1226718, "lon": -107.6355605}, {"type": "node", "id": 6418077132, "lat": 37.1226654, "lon": -107.6358381}, {"type": "node", "id": 6418077133, "lat": 37.1227702, "lon": -107.6358435}, {"type": "node", "id": 6418077134, "lat": 37.1227756, "lon": -107.6355658}, {"type": "node", "id": 6418077135, "lat": 37.1227617, "lon": -107.6355632}, {"type": "node", "id": 6418077136, "lat": 37.1227552, "lon": -107.6355377}, {"type": "node", "id": 6418077137, "lat": 37.1227563, "lon": -107.6353861}, {"type": "node", "id": 6418077138, "lat": 37.1227948, "lon": -107.6353848}, {"type": "node", "id": 6418077139, "lat": 37.1227969, "lon": -107.6352735}, {"type": "node", "id": 6418077140, "lat": 37.1228419, "lon": -107.6352762}, {"type": "node", "id": 6418077141, "lat": 37.1228419, "lon": -107.635185}, {"type": "node", "id": 6418077142, "lat": 37.1228526, "lon": -107.635181}, {"type": "node", "id": 6418077143, "lat": 37.1228515, "lon": -107.6351421}, {"type": "node", "id": 6418077144, "lat": 37.1228472, "lon": -107.6351179}, {"type": "node", "id": 6418077145, "lat": 37.122829, "lon": -107.6350951}, {"type": "node", "id": 6418077146, "lat": 37.1228087, "lon": -107.6350804}, {"type": "node", "id": 6418077147, "lat": 37.1227061, "lon": -107.6350804}, {"type": "node", "id": 6418077148, "lat": 37.1222559, "lon": -107.6365046}, {"type": "node", "id": 6509706286, "lat": 37.1194559, "lon": -107.6352188}, {"type": "node", "id": 6509706287, "lat": 37.1222506, "lon": -107.6351358}, {"type": "node", "id": 6509706288, "lat": 37.1233093, "lon": -107.6365098}, {"type": "node", "id": 6509706289, "lat": 37.1235515, "lon": -107.6366893}, {"type": "node", "id": 6509706290, "lat": 37.1235185, "lon": -107.6383877}, {"type": "node", "id": 6509706291, "lat": 37.1216909, "lon": -107.6378215}, {"type": "node", "id": 6509706292, "lat": 37.1204413, "lon": -107.6371657}, {"type": "node", "id": 6509706293, "lat": 37.1202761, "lon": -107.637283}, {"type": "node", "id": 6509706294, "lat": 37.1195879, "lon": -107.6370914}, {"type": "node", "id": 6509706295, "lat": 37.1194504, "lon": -107.6366065}, {"type": "node", "id": 6509706296, "lat": 37.1168327, "lon": -107.6409825}, {"type": "node", "id": 6509706297, "lat": 37.11679, "lon": -107.6387634}, {"type": "node", "id": 6509706298, "lat": 37.1148728, "lon": -107.6410309}, {"type": "node", "id": 6509706299, "lat": 37.1169043, "lon": -107.6386628}, {"type": "node", "id": 6509706300, "lat": 37.1168932, "lon": -107.6361084}, {"type": "node", "id": 6509706301, "lat": 37.1173282, "lon": -107.6362188}, {"type": "node", "id": 6509706302, "lat": 37.1175098, "lon": -107.6365709}, {"type": "node", "id": 6509706303, "lat": 37.117653, "lon": -107.6369023}, {"type": "node", "id": 6509706304, "lat": 37.1179557, "lon": -107.6372544}, {"type": "node", "id": 6509706305, "lat": 37.1181209, "lon": -107.637427}, {"type": "node", "id": 6509706306, "lat": 37.1186604, "lon": -107.6377929}, {"type": "node", "id": 6509706307, "lat": 37.1186714, "lon": -107.6386007}, {"type": "node", "id": 6511584442, "lat": 37.1201119, "lon": -107.6337414}, {"type": "node", "id": 6511584443, "lat": 37.1201107, "lon": -107.6336271}, {"type": "node", "id": 6511584444, "lat": 37.1199411, "lon": -107.6336167}, {"type": "node", "id": 6511584445, "lat": 37.1199424, "lon": -107.6337441}, {"type": "node", "id": 6511584450, "lat": 37.116604, "lon": -107.6330835}, {"type": "node", "id": 6511584451, "lat": 37.1165979, "lon": -107.6328471}, {"type": "node", "id": 6511584452, "lat": 37.1163519, "lon": -107.6328509}, {"type": "node", "id": 6511584453, "lat": 37.1163701, "lon": -107.633003}, {"type": "node", "id": 6511584463, "lat": 37.115361, "lon": -107.632944}, {"type": "node", "id": 6511584464, "lat": 37.1148032, "lon": -107.6336077}, {"type": "node", "id": 6511584465, "lat": 37.1144124, "lon": -107.633444, "tags": {"addr:city": "Ignacio", "addr:housenumber": "677", "addr:postcode": "81137", "addr:state": "CO", "addr:street": "Goddard Avenue", "amenity": "bar", "name": "Sidekick Lounge", "phone": "+1-970-563-4169"}}, {"type": "node", "id": 6816383838, "lat": 37.1086728, "lon": -107.6337819}, {"type": "node", "id": 6816383839, "lat": 37.1086777, "lon": -107.6334994}, {"type": "node", "id": 6816383840, "lat": 37.1089651, "lon": -107.6335071}, {"type": "node", "id": 7231146296, "lat": 37.1089603, "lon": -107.633789}, {"type": "node", "id": 7231146348, "lat": 37.109554, "lon": -107.633138}, {"type": "node", "id": 7231146506, "lat": 37.120841, "lon": -107.634134}, {"type": "node", "id": 7258107702, "lat": 37.115341, "lon": -107.633599}, {"type": "node", "id": 7258107720, "lat": 37.115159, "lon": -107.633602}, {"type": "node", "id": 7258107721, "lat": 37.115156, "lon": -107.633326}, {"type": "node", "id": 7258121867, "lat": 37.115338, "lon": -107.633323}, {"type": "node", "id": 7258122048, "lat": 37.1150117, "lon": -107.6336037}, {"type": "node", "id": 7258122049, "lat": 37.1150083, "lon": -107.6333277}, {"type": "node", "id": 7258122050, "lat": 37.1147998, "lon": -107.6333317}, {"type": "node", "id": 7258122792, "lat": 37.116918, "lon": -107.633301}, {"type": "node", "id": 7258122793, "lat": 37.116918, "lon": -107.633389}, {"type": "node", "id": 7258122794, "lat": 37.117039, "lon": -107.633389}, {"type": "node", "id": 7258124363, "lat": 37.109551, "lon": -107.632918}, {"type": "node", "id": 7258124365, "lat": 37.109819, "lon": -107.632914}, {"type": "node", "id": 7258124367, "lat": 37.10982, "lon": -107.633033}, {"type": "node", "id": 7258124369, "lat": 37.109886, "lon": -107.633032}, {"type": "node", "id": 7258124371, "lat": 37.109887, "lon": -107.633133}, {"type": "node", "id": 7258126219, "lat": 37.120824, "lon": -107.634214}, {"type": "node", "id": 7258126237, "lat": 37.120661, "lon": -107.634071}, {"type": "node", "id": 7258126238, "lat": 37.12062, "lon": -107.634257}, {"type": "node", "id": 7258126241, "lat": 37.120866, "lon": -107.634342}, {"type": "node", "id": 7258126242, "lat": 37.120889, "lon": -107.634236}, {"type": "node", "id": 7258127165, "lat": 37.115361, "lon": -107.632853}, {"type": "node", "id": 7258127167, "lat": 37.115247, "lon": -107.632853}, {"type": "node", "id": 7258127169, "lat": 37.115247, "lon": -107.632944}, {"type": "node", "id": 8221190308, "lat": 37.116521, "lon": -107.6330868}, {"type": "node", "id": 8221190309, "lat": 37.1164719, "lon": -107.633087}, {"type": "node", "id": 8221190310, "lat": 37.1164335, "lon": -107.6330698}, {"type": "node", "id": 8221190311, "lat": 37.1163975, "lon": -107.6330404}, {"type": "node", "id": 8221190312, "lat": 37.1163507, "lon": -107.6329408}, {"type": "node", "id": 8221205021, "lat": 37.1200824, "lon": -107.6336276}, {"type": "node", "id": 8221205022, "lat": 37.1200823, "lon": -107.6336158}, {"type": "node", "id": 8221205023, "lat": 37.1200437, "lon": -107.6336164}, {"type": "node", "id": 8221205024, "lat": 37.1200438, "lon": -107.6336255}, {"type": "node", "id": 8221205025, "lat": 37.1199617, "lon": -107.6336269}, {"type": "node", "id": 8221205026, "lat": 37.1199616, "lon": -107.6336164}, {"type": "way", "id": 684972076, "nodes": [6418077110, 6418077109, 6418077108, 6418077107, 6418077106, 6418077105, 6418077110], "tags": {"amenity": "parking", "operator": "Saint Ignatius Catholic Church", "parking": "surface", "surface": "asphalt"}}, {"type": "way", "id": 684972078, "nodes": [6418077147, 6418077146, 6418077145, 6418077144, 6418077143, 6418077142, 6418077141, 6418077140, 6418077139, 6418077138, 6418077137, 6418077136, 6418077135, 6418077134, 6418077133, 6418077132, 6418077131, 6418077130, 6418077129, 6418077128, 6418077127, 6418077126, 6418077125, 6418077104, 6418077124, 6418077123, 6418077122, 6418077121, 6418077120, 6418077119, 6418077147], "tags": {"addr:city": "Ignacio", "addr:housenumber": "15449", "addr:postcode": "81137", "addr:state": "CO", "addr:street": "Highway 172", "amenity": "place_of_worship", "building": "church", "denomination": "roman_catholic", "description": "Also serves the missions of Saints Peter & Rose in Arboles and Saint Bartholomew in Bayfield", "description_1": "Mail goes to:P.O. Box 1350, Ignacio, CO 81137-1350", "diocese": "Pueblo", "name": "Saint Ignatius Catholic Church", "phone": "+1 970-563-4241", "religion": "christian", "website": "http://www.stignatiuschurch-ignacio.com"}}, {"type": "way", "id": 693400970, "nodes": [6509706286, 6509706287, 6418077148, 6509706288, 6509706289, 6509706290, 6509706291, 6509706292, 6509706293, 6509706294, 6509706295, 6509706286], "tags": {"addr:city": "Ignacio", "addr:housenumber": "315", "addr:postcode": "81137", "addr:state": "CO", "addr:street": "Ignacio Street", "amenity": "school", "name": "Ignacio High School", "website": "https://www.ignacioschools.org/"}}, {"type": "way", "id": 693400971, "nodes": [6509706296, 6509706297, 373771205, 6509706298, 6509706296], "tags": {"addr:city": "Ignacio", "addr:housenumber": "222", "addr:postcode": "81137", "addr:state": "CO", "addr:street": "CR 320", "amenity": "school", "name": "Ignacio Middle School", "website": "https://www.ignacioschools.org"}}, {"type": "way", "id": 693400972, "nodes": [6509706299, 6509706300, 6509706301, 6509706302, 6509706303, 6509706304, 6509706305, 6509706306, 6509706307, 6509706299], "tags": {"addr:city": "Ignacio", "addr:housenumber": "85", "addr:postcode": "81137", "addr:state": "CO", "addr:street": "CR 320", "amenity": "school", "name": "Ignacio Elementary School", "website": "https://www.ignacioschools.org"}}, {"type": "way", "id": 693566517, "nodes": [6511584442, 6511584443, 8221205021, 8221205022, 8221205023, 8221205024, 8221205025, 8221205026, 6511584444, 6511584445, 6511584442], "tags": {"addr:city": "Ignacio", "addr:housenumber": "125", "addr:postcode": "81137", "addr:state": "CO", "addr:street": "Goddard Avenue", "building": "yes", "name": "Pinon Liquors", "phone": "+1-970-536-4083", "shop": "alcohol"}}, {"type": "way", "id": 693566520, "nodes": [6511584450, 6511584451, 6511584452, 8221190312, 6511584453, 8221190311, 8221190310, 8221190309, 8221190308, 6511584450], "tags": {"addr:city": "Ignacio", "addr:housenumber": "470", "addr:postcode": "81137", "addr:state": "CO", "addr:street": "Goddard Avenue", "amenity": "library", "building": "yes", "name": "Ignacio Community Library", "phone": "+1-970-563-9287", "website": "https://www.ignaciolibrary.org/"}}, {"type": "way", "id": 727351898, "nodes": [7231146296, 6816383838, 6816383839, 6816383840, 7231146296], "tags": {"addr:city": "Ignacio", "addr:housenumber": "1101", "addr:postcode": "81137", "addr:state": "CO", "addr:street": "Goddard Avenue", "brand": "Family Dollar", "brand:wikidata": "Q5433101", "building": "yes", "name": "Family Dollar", "shop": "variety_store"}}, {"type": "way", "id": 777727871, "nodes": [7258107720, 7258107721, 7258121867, 7258107702, 7258107720], "tags": {"addr:city": "Ignacio", "addr:housenumber": "585", "addr:postcode": "81137", "addr:state": "CO", "addr:street": "Goddard Avenue", "building": "yes", "name": "Waci-ci Trading Company", "shop": "yes"}}, {"type": "way", "id": 777727925, "nodes": [6511584464, 7258122050, 7258122049, 7258122048, 6511584464], "tags": {"addr:city": "Ignacio", "addr:housenumber": "615", "addr:postcode": "81137", "addr:state": "CO", "addr:street": "Goddard Avenue", "amenity": "bank", "atm": "yes", "brand": "Wells Fargo", "brand:wikidata": "Q744149", "building": "yes", "drive_through": "yes", "name": "Wells Fargo", "phone": "+1-970-563-9401", "website": "https://wellsfargo.com"}}, {"type": "way", "id": 777728085, "nodes": [3233312746, 7258122794, 7258122793, 7258122792, 3233312746], "tags": {"amenity": "fuel", "brand": "Vito", "brand:wikidata": "Q62536473", "building": "roof", "check_date": "2023-07-22", "name": "7-2-11 Food Store #41"}}, {"type": "way", "id": 777728403, "nodes": [7231146348, 7258124363, 7258124365, 7258124367, 7258124369, 7258124371, 7231146348], "tags": {"addr:city": "Ignacio", "addr:housenumber": "1001", "addr:postcode": "81137", "addr:state": "CO", "addr:street": "Williams Avenue", "amenity": "post_office", "building": "yes", "name": "Ignacio Post Office"}}, {"type": "way", "id": 777728741, "nodes": [7231146506, 7258126219, 7258126242, 7258126241, 7258126238, 7258126237, 7231146506], "tags": {"addr:city": "Ignacio", "addr:housenumber": "85", "addr:postcode": "81137", "addr:state": "CO", "addr:street": "Goddard Avenue", "amenity": "restaurant", "building": "yes", "name": "Porky's Smokehouse"}}, {"type": "way", "id": 777728950, "nodes": [6511584463, 7258127169, 7258127167, 7258127165, 6511584463], "tags": {"addr:city": "Ignacio", "addr:housenumber": "580", "addr:postcode": "81137", "addr:state": "CO", "addr:street": "Goddard Avenue", "amenity": "fast_food", "brand": "Subway", "brand:wikidata": "Q244457", "building": "yes", "cuisine": "sandwich", "drive_through": "no", "name": "Subway", "opening_hours": "Mo-Sa 10:00-20:00; Su 10:00-22:00", "phone": "+1 970-563-0337", "takeaway": "yes", "website": "https://restaurants.subway.com/united-states/co/ignacio/580-goddard-avenue"}}]}