{"version": 0.6, "generator": "Overpass API 0.7.62.8 e802775f", "osm3s": {"timestamp_osm_base": "2025-12-06T05:21:45Z", "copyright": "The data included in this document is from www.openstreetmap.org. The data is made available under ODbL."}, "elements": [{"type": "node", "id": 2565714119, "lat": 44.9100299, "lon": -116.1026749}, {"type": "node", "id": 2565714120, "lat": 44.9096477, "lon": -116.1026652}, {"type": "node", "id": 2565714121, "lat": 44.9096507, "lon": -116.10243}, {"type": "node", "id": 2565714122, "lat": 44.9096056, "lon": -116.1024289}, {"type": "node", "id": 2565714123, "lat": 44.9096089, "lon": -116.1021696}, {"type": "node", "id": 2565714124, "lat": 44.9095685, "lon": -116.1021686}, {"type": "node", "id": 2565714125, "lat": 44.90957, "lon": -116.1020533}, {"type": "node", "id": 2565714126, "lat": 44.9096069, "lon": -116.1020542}, {"type": "node", "id": 2565714127, "lat": 44.9096115, "lon": -116.1016917}, {"type": "node", "id": 2565714128, "lat": 44.9100417, "lon": -116.1017026}, {"type": "node", "id": 2565714129, "lat": 44.9100318, "lon": -116.102527}, {"type": "node", "id": 2565714130, "lat": 44.9100526, "lon": -116.101956}, {"type": "node", "id": 2565714131, "lat": 44.9099945, "lon": -116.1019545}, {"type": "node", "id": 2565714132, "lat": 44.9099951, "lon": -116.1019058}, {"type": "node", "id": 2565714133, "lat": 44.9100391, "lon": -116.1019069}, {"type": "node", "id": 2565714134, "lat": 44.9100453, "lon": -116.1025273}, {"type": "node", "id": 2921314919, "lat": 44.9113004, "lon": -116.0995906}, {"type": "node", "id": 2921314920, "lat": 44.9113516, "lon": -116.0992295}, {"type": "node", "id": 2921314921, "lat": 44.9111928, "lon": -116.0991845}, {"type": "node", "id": 2921314922, "lat": 44.9111416, "lon": -116.0995457}, {"type": "node", "id": 2921314927, "lat": 44.9112909, "lon": -116.1002652}, {"type": "node", "id": 2921314928, "lat": 44.9113122, "lon": -116.1001263}, {"type": "node", "id": 2921314929, "lat": 44.9109873, "lon": -116.1000271}, {"type": "node", "id": 2921314930, "lat": 44.9109473, "lon": -116.1002885}, {"type": "node", "id": 2921314931, "lat": 44.9112151, "lon": -116.1003703}, {"type": "node", "id": 2921314932, "lat": 44.9112339, "lon": -116.1002478}, {"type": "node", "id": 2921314933, "lat": 44.9110904, "lon": -116.1005594}, {"type": "node", "id": 2921314934, "lat": 44.9111181, "lon": -116.1003854}, {"type": "node", "id": 2921314935, "lat": 44.911039, "lon": -116.1003602}, {"type": "node", "id": 2921314936, "lat": 44.9110113, "lon": -116.1005342}, {"type": "node", "id": 2921314991, "lat": 44.910466, "lon": -116.0987529}, {"type": "node", "id": 2921314992, "lat": 44.9104829, "lon": -116.0986377}, {"type": "node", "id": 2921314993, "lat": 44.9103496, "lon": -116.0985988}, {"type": "node", "id": 2921314994, "lat": 44.9103578, "lon": -116.0985422}, {"type": "node", "id": 2921314995, "lat": 44.9102603, "lon": -116.0985138}, {"type": "node", "id": 2921314996, "lat": 44.9102352, "lon": -116.0986855}, {"type": "node", "id": 2953628625, "lat": 44.9126455, "lon": -116.096074, "tags": {"name": "Gravity Sports", "shop": "sports"}}, {"type": "node", "id": 3258307124, "lat": 44.9062598, "lon": -116.0972295}, {"type": "node", "id": 3258307125, "lat": 44.9060896, "lon": -116.0973275}, {"type": "node", "id": 3258307126, "lat": 44.9061127, "lon": -116.0970608}, {"type": "node", "id": 3258307127, "lat": 44.9062608, "lon": -116.0970563}, {"type": "node", "id": 3258307128, "lat": 44.9062612, "lon": -116.097088}, {"type": "node", "id": 3258307130, "lat": 44.9066961, "lon": -116.0981103}, {"type": "node", "id": 3258307131, "lat": 44.9063713, "lon": -116.0981065}, {"type": "node", "id": 3258307132, "lat": 44.9063724, "lon": -116.0979267}, {"type": "node", "id": 3258307133, "lat": 44.9066972, "lon": -116.0979306}, {"type": "node", "id": 3258311963, "lat": 44.9110142, "lon": -116.0972987}, {"type": "node", "id": 3258311964, "lat": 44.9107602, "lon": -116.0974685}, {"type": "node", "id": 3258311965, "lat": 44.9107096, "lon": -116.0973175}, {"type": "node", "id": 3258311966, "lat": 44.9109635, "lon": -116.0971477}, {"type": "node", "id": 3258312279, "lat": 44.9126306, "lon": -116.0964494}, {"type": "node", "id": 3283271263, "lat": 44.9125812, "lon": -116.0964784}, {"type": "node", "id": 3283272733, "lat": 44.9064097, "lon": -116.097076}, {"type": "node", "id": 3283272734, "lat": 44.9066604, "lon": -116.0970728}, {"type": "node", "id": 3283272735, "lat": 44.9066589, "lon": -116.0968236}, {"type": "node", "id": 3283272736, "lat": 44.9064082, "lon": -116.0968268}, {"type": "node", "id": 3283275761, "lat": 44.9096222, "lon": -116.0976127}, {"type": "node", "id": 3283275762, "lat": 44.9097316, "lon": -116.0973898}, {"type": "node", "id": 3283275763, "lat": 44.9096269, "lon": -116.0972873}, {"type": "node", "id": 3283275764, "lat": 44.9095175, "lon": -116.0975102}, {"type": "node", "id": 4583318249, "lat": 44.910713, "lon": -116.0982911, "tags": {"addr:city": "McCall", "addr:housenumber": "1012", "addr:postcode": "83638", "addr:state": "ID", "addr:street": "North 3rd Street", "name": "The McCall Store", "phone": "+1-208-634-4581", "shop": "clothes"}}, {"type": "node", "id": 4583318250, "lat": 44.9108456, "lon": -116.0973096, "tags": {"addr:city": "McCall", "addr:housenumber": "411", "addr:postcode": "83638", "addr:state": "ID", "addr:street": "Railroad Avenue", "amenity": "restaurant", "cuisine": "pub", "name": "Salmon River Brewery", "outdoor_seating": "yes", "phone": "+1-208-634-4772", "website": "https://salmonriverbrewery.com/"}}, {"type": "node", "id": 4583318251, "lat": 44.9112387, "lon": -116.0986638, "tags": {"addr:city": "McCall", "addr:housenumber": "317", "addr:postcode": "83638", "addr:state": "ID", "addr:street": "East Lake Street", "amenity": "restaurant", "cuisine": "mexican", "name": "Lago Chapala Mexican Restaurant", "outdoor_seating": "yes", "phone": "+1-208-634-3905"}}, {"type": "node", "id": 4583318252, "lat": 44.9105229, "lon": -116.0997554, "tags": {"amenity": "cafe", "name": "TJ's Cafe"}}, {"type": "node", "id": 4583318256, "lat": 44.909087, "lon": -116.0967382, "tags": {"name": "May Ace Hardware", "shop": "hardware"}}, {"type": "node", "id": 4583355344, "lat": 44.9097505, "lon": -116.1001066}, {"type": "node", "id": 4583355345, "lat": 44.9097701, "lon": -116.0999747}, {"type": "node", "id": 4583355346, "lat": 44.9096147, "lon": -116.0999286}, {"type": "node", "id": 4583355347, "lat": 44.9095951, "lon": -116.1000605}, {"type": "node", "id": 8244009779, "lat": 44.9092745, "lon": -116.0970277}, {"type": "node", "id": 8244009780, "lat": 44.909375, "lon": -116.0970899}, {"type": "node", "id": 8244009781, "lat": 44.9094463, "lon": -116.0968294}, {"type": "node", "id": 8244009782, "lat": 44.9094642, "lon": -116.0967647}, {"type": "node", "id": 8244009783, "lat": 44.9093752, "lon": -116.0967005}, {"type": "node", "id": 8244009784, "lat": 44.909187, "lon": -116.0965893}, {"type": "node", "id": 8244009785, "lat": 44.9091322, "lon": -116.0965636}, {"type": "node", "id": 8244009786, "lat": 44.9089927, "lon": -116.0965771}, {"type": "node", "id": 8244009787, "lat": 44.909009, "lon": -116.096522}, {"type": "node", "id": 8244009788, "lat": 44.9087783, "lon": -116.0963915}, {"type": "node", "id": 8244009789, "lat": 44.9087119, "lon": -116.0966485}, {"type": "node", "id": 8244009790, "lat": 44.908933, "lon": -116.0967624}, {"type": "node", "id": 8244009791, "lat": 44.908917, "lon": -116.0968164}, {"type": "node", "id": 8244009793, "lat": 44.9089117, "lon": -116.0974613}, {"type": "node", "id": 8244009794, "lat": 44.9089346, "lon": -116.0971206}, {"type": "node", "id": 8244009795, "lat": 44.9090437, "lon": -116.0971352}, {"type": "node", "id": 8244009796, "lat": 44.9090208, "lon": -116.097476}, {"type": "node", "id": 8244038985, "lat": 44.9100657, "lon": -116.0984354}, {"type": "node", "id": 8244038986, "lat": 44.9100856, "lon": -116.0984422}, {"type": "node", "id": 8244038987, "lat": 44.910095, "lon": -116.0983863}, {"type": "node", "id": 8244038988, "lat": 44.9100766, "lon": -116.0983801}, {"type": "node", "id": 8244038989, "lat": 44.9100917, "lon": -116.0982912}, {"type": "node", "id": 8244038990, "lat": 44.9098585, "lon": -116.0982122}, {"type": "node", "id": 8244038991, "lat": 44.9098245, "lon": -116.0984123}, {"type": "node", "id": 8244038992, "lat": 44.9099114, "lon": -116.0984417}, {"type": "node", "id": 8244038993, "lat": 44.9099139, "lon": -116.0984269}, {"type": "node", "id": 8244038994, "lat": 44.9099443, "lon": -116.0984372}, {"type": "node", "id": 8244038995, "lat": 44.9099413, "lon": -116.0984553}, {"type": "node", "id": 8244038996, "lat": 44.9100052, "lon": -116.0984769}, {"type": "node", "id": 8244038997, "lat": 44.9100096, "lon": -116.0984508}, {"type": "node", "id": 8244038998, "lat": 44.9100602, "lon": -116.0984679}, {"type": "node", "id": 8246242091, "lat": 44.9090492, "lon": -116.0968945}, {"type": "node", "id": 8246242153, "lat": 44.910364, "lon": -116.0987231}, {"type": "node", "id": 8246242175, "lat": 44.9112225, "lon": -116.0988955, "tags": {"addr:city": "McCall", "addr:housenumber": "309", "addr:postcode": "83638", "addr:state": "ID", "addr:street": "East Lake Street", "name": "44 Degrees North", "phone": "+1-208-634-3260", "shop": "gift"}}, {"type": "node", "id": 8246242176, "lat": 44.9112539, "lon": -116.098552, "tags": {"addr:city": "McCall", "addr:housenumber": "317", "addr:postcode": "83638", "addr:state": "ID", "addr:street": "East Lake Street", "amenity": "restaurant", "cuisine": "brunch", "name": "Brunchette on the Lake", "phone": "+1-208-849-4040", "website": "https://www.brunchetteonthelake.com/"}}, {"type": "node", "id": 8246242177, "lat": 44.9112681, "lon": -116.0984637, "tags": {"name": "Squatch Sweets", "shop": "confectionery"}}, {"type": "node", "id": 8246242182, "lat": 44.9106055, "lon": -116.0976501}, {"type": "node", "id": 8246242183, "lat": 44.910578, "lon": -116.0978777}, {"type": "node", "id": 8246242184, "lat": 44.9106538, "lon": -116.097896}, {"type": "node", "id": 8246242185, "lat": 44.9106812, "lon": -116.0976683}, {"type": "node", "id": 8246242186, "lat": 44.9105176, "lon": -116.0978177}, {"type": "node", "id": 8246242187, "lat": 44.9105507, "lon": -116.0978274}, {"type": "node", "id": 8246242188, "lat": 44.9105721, "lon": -116.097681}, {"type": "node", "id": 8246242189, "lat": 44.9104921, "lon": -116.0976578}, {"type": "node", "id": 8246242190, "lat": 44.9104863, "lon": -116.0976977}, {"type": "node", "id": 8246242191, "lat": 44.9104606, "lon": -116.0976902}, {"type": "node", "id": 8246242192, "lat": 44.9104401, "lon": -116.0978306}, {"type": "node", "id": 8246242193, "lat": 44.9105127, "lon": -116.0978517}, {"type": "node", "id": 8246242194, "lat": 44.9085413, "lon": -116.0973063, "tags": {"addr:city": "McCall", "addr:housenumber": "617", "addr:postcode": "83638", "addr:state": "ID", "addr:street": "North 3rd Street", "name": "Bruneel Point S", "phone": "+1-208-634-2252", "shop": "tyres", "website": "https://bruneelpoints.com/"}}, {"type": "node", "id": 8246242195, "lat": 44.9083608, "lon": -116.0973761, "tags": {"addr:city": "McCall", "addr:housenumber": "617", "addr:postcode": "83638", "addr:state": "ID", "addr:street": "North 3rd Street", "name": "3rd Street Salon", "phone": "+1-208-634-3210", "shop": "hairdresser", "website": "m.facebook.com/3rd-Street-Salon-227710830577884/"}}, {"type": "node", "id": 8246242196, "lat": 44.9074095, "lon": -116.0973881, "tags": {"addr:city": "McCall", "addr:housenumber": "611", "addr:postcode": "83638", "addr:state": "ID", "addr:street": "North 3rd Street", "name": "Rustic Log Elements", "office": "architect", "phone": "+1-208-298-7818", "website": "rusticlogelements.com"}}, {"type": "node", "id": 8246242197, "lat": 44.9073559, "lon": -116.0973874, "tags": {"access": "customers", "addr:city": "McCall", "addr:housenumber": "611", "addr:postcode": "83638", "addr:state": "ID", "addr:street": "North 3rd Street", "name": "Leisure Pool & Spa", "office": "yes", "phone": "+1-208-634-7570", "website": "https://leisuremccall.com/"}}, {"type": "node", "id": 8246242208, "lat": 44.9071183, "lon": -116.0974372}, {"type": "node", "id": 8246242209, "lat": 44.9071195, "lon": -116.0972877}, {"type": "node", "id": 8246242210, "lat": 44.9071817, "lon": -116.0972887}, {"type": "node", "id": 8246242211, "lat": 44.9071805, "lon": -116.0974382}, {"type": "node", "id": 8907636022, "lat": 44.9108138, "lon": -116.0992219, "tags": {"name": "Food Mart", "shop": "convenience"}}, {"type": "node", "id": 8907636025, "lat": 44.9107922, "lon": -116.0992986, "tags": {"name": "Chevron", "shop": "car_repair"}}, {"type": "node", "id": 8958553729, "lat": 44.9105543, "lon": -116.0967785}, {"type": "node", "id": 8958553730, "lat": 44.9104985, "lon": -116.096737}, {"type": "node", "id": 8958553731, "lat": 44.9105033, "lon": -116.096724}, {"type": "node", "id": 8958553732, "lat": 44.9104072, "lon": -116.0966526}, {"type": "node", "id": 8958553733, "lat": 44.9103207, "lon": -116.0968834}, {"type": "node", "id": 8958553734, "lat": 44.9103622, "lon": -116.0969143}, {"type": "node", "id": 8958553735, "lat": 44.9103485, "lon": -116.0969508}, {"type": "node", "id": 8958553736, "lat": 44.9104327, "lon": -116.0970133}, {"type": "node", "id": 8958553737, "lat": 44.9104449, "lon": -116.0969807}, {"type": "node", "id": 8958553738, "lat": 44.9104769, "lon": -116.0970044}, {"type": "node", "id": 8958553739, "lat": 44.9105012, "lon": -116.0969396}, {"type": "node", "id": 8958553740, "lat": 44.910523, "lon": -116.0969557}, {"type": "node", "id": 8958553741, "lat": 44.910539, "lon": -116.0969131}, {"type": "node", "id": 8958553742, "lat": 44.9105115, "lon": -116.0968927}, {"type": "node", "id": 8958553743, "lat": 44.9105806, "lon": -116.0964035}, {"type": "node", "id": 8958553744, "lat": 44.9105333, "lon": -116.0965268}, {"type": "node", "id": 8958553745, "lat": 44.9106303, "lon": -116.0966004}, {"type": "node", "id": 8958553746, "lat": 44.9106776, "lon": -116.0964772}, {"type": "node", "id": 8958553781, "lat": 44.9126233, "lon": -116.0964512}, {"type": "node", "id": 8958553782, "lat": 44.9125807, "lon": -116.09646}, {"type": "node", "id": 8958553783, "lat": 44.9125362, "lon": -116.096492}, {"type": "node", "id": 8958553784, "lat": 44.9125418, "lon": -116.0965345}, {"type": "node", "id": 8958553785, "lat": 44.912523, "lon": -116.0965401}, {"type": "node", "id": 8958553786, "lat": 44.9125321, "lon": -116.0966011}, {"type": "node", "id": 8958553787, "lat": 44.9125471, "lon": -116.0965974}, {"type": "node", "id": 8958553788, "lat": 44.9125571, "lon": -116.0966762}, {"type": "node", "id": 8958553789, "lat": 44.9126489, "lon": -116.0966532}, {"type": "node", "id": 8958553790, "lat": 44.9126133, "lon": -116.0963129}, {"type": "node", "id": 8958553791, "lat": 44.9125977, "lon": -116.0963169}, {"type": "node", "id": 8958553792, "lat": 44.9125957, "lon": -116.0962965}, {"type": "node", "id": 8958553793, "lat": 44.9125279, "lon": -116.0963196}, {"type": "node", "id": 8958553794, "lat": 44.9125375, "lon": -116.0963774}, {"type": "node", "id": 8958553795, "lat": 44.9125677, "lon": -116.0963678}, {"type": "node", "id": 8958553796, "lat": 44.9125734, "lon": -116.0963991}, {"type": "node", "id": 8958553797, "lat": 44.9125625, "lon": -116.0964015}, {"type": "node", "id": 8958553798, "lat": 44.912571, "lon": -116.0964632}, {"type": "node", "id": 9838866401, "lat": 44.9061659, "lon": -116.0972064, "tags": {"addr:city": "McCall", "addr:housenumber": "501", "addr:postcode": "83638", "addr:state": "ID", "addr:street": "North 3rd Street", "amenity": "restaurant", "cuisine": "pizza", "name": "Growler\u2019s Pizza Grill", "outdoor_seating": "yes", "phone": "+1-208-634-7755", "website": "https://growlerspizza.com/"}}, {"type": "node", "id": 11817773346, "lat": 44.9102243, "lon": -116.0909054, "tags": {"addr:city": "McCall", "addr:housenumber": "614", "addr:postcode": "83638", "addr:state": "ID", "addr:street": "Thompson Avenue", "email": "jthrower@mtntoplaw.com", "name": "Mountain Top Law LLC", "office": "lawyer", "phone": "+1-208-271-6503", "website": "https://www.mtntoplaw.com/"}}, {"type": "node", "id": 11817773347, "lat": 44.9102276, "lon": -116.0901708, "tags": {"addr:city": "McCall", "addr:housenumber": "911", "addr:postcode": "83638", "addr:state": "ID", "addr:street": "Davis Avenue", "name": "Merrily Munther PLLC", "office": "lawyer", "phone": "+1-208-724-3838", "website": "https://muntherlaw.com/"}}, {"type": "node", "id": 11820242740, "lat": 44.9076907, "lon": -116.0978323, "tags": {"addr:city": "McCall", "addr:housenumber": "616", "addr:postcode": "83638", "addr:state": "ID", "addr:street": "North 3rd Street", "amenity": "restaurant", "cuisine": "mexican", "name": "KB's McCall", "phone": "+1-208-634-5500", "website": "https://www.kbsburrito.com/"}}, {"type": "node", "id": 11820242741, "lat": 44.9062215, "lon": -116.0973147}, {"type": "node", "id": 11820242742, "lat": 44.9062202, "lon": -116.0972287}, {"type": "node", "id": 11820242743, "lat": 44.9061143, "lon": -116.0972158}, {"type": "node", "id": 11820242744, "lat": 44.9060903, "lon": -116.097219}, {"type": "node", "id": 11820242745, "lat": 44.9061204, "lon": -116.0973314}, {"type": "node", "id": 11820242747, "lat": 44.9096256, "lon": -116.0974587, "tags": {"addr:city": "McCall", "addr:housenumber": "901", "addr:postcode": "83638", "addr:state": "ID", "addr:street": "North 3rd Street", "amenity": "restaurant", "cuisine": "burger;american", "name": "My Father's Place", "phone": "+208-634-4401", "website": "https://mfpmccall.com/"}}, {"type": "node", "id": 11820242749, "lat": 44.9105048, "lon": -116.0977632, "tags": {"addr:city": "McCall", "addr:housenumber": "1003", "addr:postcode": "83638", "addr:state": "ID", "addr:street": "North 3rd Street", "amenity": "cafe", "cuisine": "american", "internet_access": "wlan", "internet_access:fee": "customers", "name": "Fogglifter Cafe", "outdoor_seating": "yes", "phone": "+1-208-634-5507", "website": "https://m.facebook.com/Fogglifter-Cafe-328310196898/"}}, {"type": "node", "id": 11820242750, "lat": 44.9106831, "lon": -116.0974798, "tags": {"addr:city": "McCall", "addr:housenumber": "401", "addr:postcode": "83638", "addr:state": "ID", "addr:street": "Railroad Avenue", "name": "Bella Kitchen", "phone": "+1-208-634-4730", "shop": "kitchen", "website": "https://www.bellakitchen.com/"}}, {"type": "node", "id": 11820242751, "lat": 44.911311, "lon": -116.0979992, "tags": {"addr:city": "McCall", "addr:housenumber": "1101", "addr:postcode": "83638", "addr:state": "ID", "addr:street": "North 3rd Street", "amenity": "restaurant", "cuisine": "fine_dining", "name": "Rupert's Restaurant", "phone": "+1-208-634-8108", "website": "rupertsathotelmccall.com"}}, {"type": "node", "id": 11820242752, "lat": 44.910606, "lon": -116.0965088, "tags": {"addr:city": "McCall", "addr:housenumber": "414", "addr:postcode": "83638", "addr:state": "ID", "addr:street": "Railroad Avenue", "amenity": "restaurant", "cuisine": "sushi", "name": "Sushi Bar", "phone": "+1-208-634-7874", "website": "sushibarmccall.com"}}, {"type": "node", "id": 11820242755, "lat": 44.9104421, "lon": -116.0968592, "tags": {"addr:city": "McCall", "addr:housenumber": "410", "addr:postcode": "83638", "addr:state": "ID", "addr:street": "Railroad Avenue", "amenity": "restaurant", "cuisine": "pizza", "name": "Toll Station Pizza & Grill", "phone": "+1-208-634-7818", "website": "tollstationpizza.com"}}, {"type": "node", "id": 11820242758, "lat": 44.9091103, "lon": -116.0966442}, {"type": "node", "id": 11820242759, "lat": 44.9089769, "lon": -116.0973022, "tags": {"addr:city": "McCall", "addr:housenumber": "805", "addr:postcode": "83638", "addr:state": "ID", "addr:street": "North 3rd Street", "name": "Wild Onion", "phone": "+1-208-634-7788", "shop": "art"}}, {"type": "node", "id": 11820242760, "lat": 44.9071449, "lon": -116.0973665, "tags": {"addr:city": "McCall", "addr:housenumber": "605", "addr:postcode": "83638", "addr:state": "ID", "addr:street": "North 3rd Street", "name": "McCall Area Chamber of Commerce", "office": "government", "phone": "+1-208-634-7631", "website": "https://visitmccall.org/"}}, {"type": "node", "id": 11820242763, "lat": 44.9109767, "lon": -116.0984404, "tags": {"addr:city": "McCall", "addr:housenumber": "314", "addr:postcode": "83638", "addr:state": "ID", "addr:street": "East Lake Street", "amenity": "restaurant", "cuisine": "coffee_shop;ice_cream", "name": "Payette Dream Coffee House & Diner", "phone": "+1-208-634-2746", "website": "https://payettedream.com/"}}, {"type": "node", "id": 11820335874, "lat": 44.9103525, "lon": -116.0986566, "tags": {"addr:city": "McCall", "addr:housenumber": "301", "addr:postcode": "83638", "addr:state": "ID", "addr:street": "Lenora Street", "name": "McPaws Thrift Store", "phone": "+1 208-634-4434", "second_hand": "yes", "shop": "second_hand", "website": "https://mcpaws.org/"}}, {"type": "node", "id": 11820335875, "lat": 44.9099573, "lon": -116.0983522, "tags": {"addr:city": "McCall", "addr:housenumber": "300", "addr:postcode": "83638", "addr:state": "ID", "addr:street": "Lenora Street", "name": "Home Town Sports", "phone": "+1-208-634-2302", "shop": "sports", "website": "hometownsportsmccall.com"}}, {"type": "node", "id": 11820335876, "lat": 44.9077402, "lon": -116.0982202, "tags": {"addr:city": "McCall", "addr:housenumber": "616", "addr:postcode": "83638", "addr:state": "ID", "addr:street": "North 3rd Street", "addr:unit": "110", "name": "Barn Owl Books", "phone": "+1-208-634-4440", "shop": "books", "website": "https://thebarnowlmccall.com/"}}, {"type": "way", "id": 250053450, "nodes": [2565714119, 2565714120, 2565714121, 2565714122, 2565714123, 2565714124, 2565714125, 2565714126, 2565714127, 2565714128, 2565714133, 2565714132, 2565714131, 2565714130, 2565714134, 2565714129, 2565714119], "tags": {"addr:city": "McCall", "addr:housenumber": "132", "addr:postcode": "83638", "addr:state": "ID", "addr:street": "East Lake Street", "brand": "Albertsons", "brand:wikidata": "Q2831861", "building": "yes", "name": "Albertsons", "opening_hours": "Mo-Fr 06:00-22:00; Sa 06:00-22:00; Su 06:00-22:00", "phone": "+1 208-634-8166", "shop": "supermarket", "website": "https://local.albertsons.com/id/mccall/132-e-lake-st.html"}}, {"type": "way", "id": 288581179, "nodes": [2921314919, 2921314920, 2921314921, 2921314922, 2921314919], "tags": {"building": "yes", "name": "McCall Real Estate Company", "office": "estate_agent"}}, {"type": "way", "id": 288581181, "nodes": [2921314927, 2921314928, 2921314929, 2921314930, 2921314931, 2921314932, 2921314927], "tags": {"building": "yes", "name": "Krahn's Home Funishings", "shop": "furniture"}}, {"type": "way", "id": 288581182, "nodes": [2921314933, 2921314934, 2921314935, 2921314936, 2921314933], "tags": {"building": "yes", "name": "McCall Jewelrey Company", "shop": "jewelry"}}, {"type": "way", "id": 288581193, "nodes": [2921314991, 2921314992, 2921314993, 2921314994, 2921314995, 2921314996, 8246242153, 2921314991], "tags": {"addr:city": "McCall", "addr:housenumber": "301", "addr:postcode": "83638", "addr:state": "ID", "addr:street": "Lenora Street", "building": "yes", "name": "McPaws Thrift Store", "phone": "+1-208-634-4434", "second_hand": "yes", "shop": "second_hand", "website": "https://mcpaws.org/"}}, {"type": "way", "id": 319417670, "nodes": [3258307124, 11820242742, 11820242741, 11820242745, 3258307125, 11820242744, 11820242743, 3258307126, 3258307127, 3258307128, 3258307124], "tags": {"addr:city": "McCall", "addr:housenumber": "501", "addr:postcode": "83638", "addr:state": "ID", "addr:street": "North 3rd Street", "amenity": "restaurant", "building": "retail", "building:levels": "1", "building:levels:underground": "0", "cuisine": "pizza", "name": "Growler's Pizza Grill", "phone": "+1-208-636-7755", "website": "https://growlerspizza.com/"}}, {"type": "way", "id": 319417671, "nodes": [3258307130, 3258307131, 3258307132, 3258307133, 3258307130], "tags": {"addr:city": "McCall", "addr:housenumber": "502", "addr:postcode": "83638", "addr:state": "ID", "addr:street": "North 3rd Street", "addr:unit": "2", "building": "yes", "name": "Sunset video", "operator": "Independant", "payment:credit_cards": "yes", "shop": "video"}}, {"type": "way", "id": 319418107, "nodes": [3258311963, 3258311964, 3258311965, 3258311966, 3258311963], "tags": {"addr:city": "McCall", "addr:housenumber": "411", "addr:postcode": "83638", "addr:state": "ID", "addr:street": "Railroad Avenue", "amenity": "restaurant", "building": "yes", "cuisine": "pub", "name": "Salmon River Brewery", "phone": "+1-208-634-4772", "website": "https://salmonriverbrewery.com/"}}, {"type": "way", "id": 321567063, "nodes": [3283272733, 3283272734, 3283272735, 3283272736, 3283272733], "tags": {"addr:city": "McCall", "addr:housenumber": "507", "addr:postcode": "83638", "addr:state": "ID", "addr:street": "North 3rd Street", "building": "yes", "name": "Old Town Cafe", "opening_hours": "Mo-Fr 07:00-22:00", "shop": "convenience"}}, {"type": "way", "id": 321567122, "nodes": [3283275761, 3283275762, 3283275763, 3283275764, 3283275761], "tags": {"addr:city": "McCall", "addr:housenumber": "901", "addr:postcode": "83638", "addr:state": "ID", "addr:street": "North 3rd Street", "amenity": "restaurant", "building": "yes", "cuisine": "diner;burger;american", "name": "My Father's Place", "phone": "+1-208-634-4401", "website": "https://mfpmccall.com/"}}, {"type": "way", "id": 463017706, "nodes": [4583355344, 4583355345, 4583355346, 4583355347, 4583355344], "tags": {"amenity": "restaurant", "building": "yes", "cuisine": "pizza", "description": "live music on Saturday @ 18:00", "name": "Crusty's Pizza", "opening_hours": "Th-Su 11:00-21:00", "outdoor_seating": "summer"}}, {"type": "way", "id": 886581039, "nodes": [8244009779, 8246242091, 8244009791, 8244009790, 8244009789, 8244009788, 8244009787, 8244009786, 11820242758, 8244009785, 8244009784, 8244009783, 8244009782, 8244009781, 8244009780, 8244009779], "tags": {"addr:city": "McCall", "addr:housenumber": "809", "addr:postcode": "83638", "addr:state": "ID", "addr:street": "North 3rd Street", "brand": "Ace Hardware", "brand:wikidata": "Q4672981", "building": "retail", "name": "May Ace Hardware", "opening_hours": "Mo-Sa 08:00-17:00; Su 10:00-16:00", "phone": "+1 208-634-7665", "ref": "15694", "shop": "hardware", "website": "https://mayhardware.com/"}}, {"type": "way", "id": 886581040, "nodes": [8244009796, 8244009795, 8244009794, 8244009793, 8244009796], "tags": {"addr:city": "McCall", "addr:housenumber": "805", "addr:postcode": "83638", "addr:state": "ID", "addr:street": "North 3rd Street", "building": "yes", "name": "Wild Onion", "phone": "+1-208-634-7788", "shop": "art"}}, {"type": "way", "id": 886583651, "nodes": [8244038998, 8244038997, 8244038996, 8244038995, 8244038994, 8244038993, 8244038992, 8244038991, 8244038990, 8244038989, 8244038988, 8244038987, 8244038986, 8244038985, 8244038998], "tags": {"addr:city": "McCall", "addr:housenumber": "300", "addr:postcode": "83638", "addr:state": "ID", "addr:street": "Lenora Street", "building": "yes", "name": "Home Town Sports", "phone": "+1-208-634-2302", "shop": "sports", "website": "hometownsportsmccall.com"}}, {"type": "way", "id": 886816222, "nodes": [8246242185, 8246242184, 8246242183, 8246242182, 8246242185], "tags": {"building": "yes", "name": "Kirk-Fig Insurance", "office": "insurance"}}, {"type": "way", "id": 886816223, "nodes": [8246242193, 8246242192, 8246242191, 8246242190, 8246242189, 8246242188, 8246242187, 8246242186, 8246242193], "tags": {"amenity": "cafe", "building": "yes", "name": "Foglifter Cafe"}}, {"type": "way", "id": 886816226, "nodes": [8246242211, 8246242210, 8246242209, 8246242208, 8246242211], "tags": {"addr:city": "McCall", "addr:housenumber": "605", "addr:postcode": "83638", "addr:state": "ID", "addr:street": "North 3rd Street", "building": "yes", "name": "McCall Area Chamber Of Comerce", "office": "government"}}, {"type": "way", "id": 968325909, "nodes": [8958553729, 8958553730, 8958553731, 8958553732, 8958553733, 8958553734, 8958553735, 8958553736, 8958553737, 8958553738, 8958553739, 8958553740, 8958553741, 8958553742, 8958553729], "tags": {"addr:city": "McCall", "addr:housenumber": "410", "addr:postcode": "83638", "addr:state": "ID", "addr:street": "Railroad Avenue", "amenity": "restaurant", "building": "yes", "cuisine": "pizza", "name": "Toll Station Pizza & Grill", "phone": "+1-208-634-7818", "source": "esri/McCall_ID_Buildings", "website": "tollstationpizza.com"}}, {"type": "way", "id": 968325910, "nodes": [8958553743, 8958553744, 8958553745, 8958553746, 8958553743], "tags": {"addr:city": "McCall", "addr:housenumber": "414", "addr:postcode": "83638", "addr:state": "ID", "addr:street": "Railroad Avenue", "amenity": "restaurant", "building": "yes", "cuisine": "sushi", "name": "Sushi Bar", "phone": "+1-208-634-7874", "website": "sushibarmccall.com"}}, {"type": "way", "id": 968325916, "nodes": [8958553781, 8958553782, 3283271263, 8958553783, 8958553784, 8958553785, 8958553786, 8958553787, 8958553788, 8958553789, 8958553781], "tags": {"addr:state": "ID", "building": "commercial", "name": "Engel & Volkers", "office": "estate_agent", "source": "esri/McCall_ID_Buildings"}}, {"type": "way", "id": 968325917, "nodes": [8958553782, 8958553781, 3258312279, 8958553790, 8958553791, 8958553792, 8958553793, 8958553794, 8958553795, 8958553796, 8958553797, 8958553798, 8958553782], "tags": {"addr:state": "ID", "amenity": "cafe", "building": "yes", "cuisine": "coffee_shop", "name": "Mountain Java", "source": "esri/McCall_ID_Buildings"}}]}