{"version": 0.6, "generator": "Overpass API 0.7.62.8 e802775f", "osm3s": {"timestamp_osm_base": "2025-12-06T04:19:16Z", "copyright": "The data included in this document is from www.openstreetmap.org. The data is made available under ODbL."}, "elements": [{"type": "node", "id": 5315599481, "lat": 47.6845939, "lon": -114.1208004}, {"type": "node", "id": 5953888177, "lat": 47.6839209, "lon": -114.1213365}, {"type": "node", "id": 5953888178, "lat": 47.6839601, "lon": -114.1213361}, {"type": "node", "id": 5953888179, "lat": 47.6839611, "lon": -114.121578}, {"type": "node", "id": 5953888180, "lat": 47.6840046, "lon": -114.1215776}, {"type": "node", "id": 5953888181, "lat": 47.6840052, "lon": -114.1217401}, {"type": "node", "id": 5953888182, "lat": 47.6840208, "lon": -114.1217399}, {"type": "node", "id": 5953888183, "lat": 47.6840214, "lon": -114.1218911}, {"type": "node", "id": 5953888184, "lat": 47.684215, "lon": -114.1218893}, {"type": "node", "id": 5953899485, "lat": 47.6842136, "lon": -114.1215459}, {"type": "node", "id": 5953899486, "lat": 47.6845969, "lon": -114.1215425}, {"type": "node", "id": 5953899487, "lat": 47.6847071, "lon": -114.1207994}, {"type": "node", "id": 5953899488, "lat": 47.684704, "lon": -114.1200371}, {"type": "node", "id": 5953899489, "lat": 47.6847584, "lon": -114.1200366}, {"type": "node", "id": 5953899490, "lat": 47.6847574, "lon": -114.1197797}, {"type": "node", "id": 5953899491, "lat": 47.6839521, "lon": -114.119787}, {"type": "node", "id": 5953899492, "lat": 47.6839529, "lon": -114.1199991}, {"type": "node", "id": 5953899493, "lat": 47.6839155, "lon": -114.1199995}, {"type": "node", "id": 6641689944, "lat": 47.6875576, "lon": -114.1235808, "tags": {"addr:city": "Polson", "addr:housenumber": "146", "addr:postcode": "59860", "addr:state": "MT", "addr:street": "South Shore Route", "brand": "Safeway", "brand:wikidata": "Q1508234", "name": "Safeway", "opening_hours": "Mo-Fr 06:00-23:00; Sa 06:00-23:00; Su 06:00-23:00", "phone": "+1 406-883-2340", "shop": "supermarket", "website": "https://local.safeway.com/safeway/mt/polson/146-south-shore-route.html"}}, {"type": "node", "id": 6641689949, "lat": 47.687715, "lon": -114.1233515, "tags": {"addr:city": "Polson", "addr:housenumber": "146", "addr:postcode": "59860", "addr:state": "MT", "addr:street": "South Shore Route", "amenity": "cafe", "branch": "Safeway Polson 1646", "brand": "Starbucks", "brand:wikidata": "Q37158", "cuisine": "coffee_shop", "name": "Starbucks", "official_name": "Starbucks Coffee", "phone": "+1 406-883-2340", "ref": "7595", "takeaway": "yes", "website": "https://www.starbucks.com/store-locator/store/7595/safeway-polson-1646-146-s-shore-rte-polson-mt-598609651-us"}}, {"type": "node", "id": 6644791403, "lat": 47.6882344, "lon": -114.1225334, "tags": {"brand": "Walgreens", "brand:wikidata": "Q1591889", "name": "Walgreens", "shop": "chemist", "website": "https://www.walgreens.com/locator/walgreens-40770+mt+highway+35-polson-mt-59860/id=16084"}}, {"type": "node", "id": 8920041871, "lat": 47.684354, "lon": -114.124827}, {"type": "node", "id": 8963505121, "lat": 47.6894488, "lon": -114.1179471}, {"type": "node", "id": 8963505122, "lat": 47.6894497, "lon": -114.1178486}, {"type": "node", "id": 8963505123, "lat": 47.6894022, "lon": -114.1178476}, {"type": "node", "id": 8963505124, "lat": 47.6894013, "lon": -114.1179461}, {"type": "node", "id": 9953700350, "lat": 47.6889225, "lon": -114.1238933}, {"type": "node", "id": 9953700351, "lat": 47.6889207, "lon": -114.1236037}, {"type": "node", "id": 9953700352, "lat": 47.6887258, "lon": -114.1236064}, {"type": "node", "id": 9953700353, "lat": 47.6887276, "lon": -114.123896}, {"type": "node", "id": 12216288744, "lat": 47.6861984, "lon": -114.1223088}, {"type": "node", "id": 12216288745, "lat": 47.686198, "lon": -114.122166}, {"type": "node", "id": 12216288746, "lat": 47.6864694, "lon": -114.1221645}, {"type": "node", "id": 12216288747, "lat": 47.6864681, "lon": -114.1216728}, {"type": "node", "id": 12216288748, "lat": 47.6865103, "lon": -114.1216726}, {"type": "node", "id": 12216288749, "lat": 47.6865092, "lon": -114.1212728}, {"type": "node", "id": 12216288750, "lat": 47.6863283, "lon": -114.1212739}, {"type": "node", "id": 12216288751, "lat": 47.6863284, "lon": -114.1213188}, {"type": "node", "id": 12216288752, "lat": 47.6860064, "lon": -114.1213208}, {"type": "node", "id": 12216288753, "lat": 47.6860062, "lon": -114.1212472}, {"type": "node", "id": 12216288754, "lat": 47.6858062, "lon": -114.1212484}, {"type": "node", "id": 12216288755, "lat": 47.6858064, "lon": -114.1213258}, {"type": "node", "id": 12216288756, "lat": 47.6857705, "lon": -114.121326}, {"type": "node", "id": 12216288757, "lat": 47.6857731, "lon": -114.1223112}, {"type": "node", "id": 12643778392, "lat": 47.6845337, "lon": -114.1246019}, {"type": "node", "id": 12643778393, "lat": 47.6845132, "lon": -114.1245669}, {"type": "node", "id": 12643778394, "lat": 47.6845307, "lon": -114.1245442}, {"type": "node", "id": 12643778395, "lat": 47.6844514, "lon": -114.1244086}, {"type": "node", "id": 12643778396, "lat": 47.6844588, "lon": -114.1243991}, {"type": "node", "id": 12643778397, "lat": 47.6844402, "lon": -114.1243674}, {"type": "node", "id": 12643778398, "lat": 47.6842656, "lon": -114.1245928}, {"type": "node", "id": 12643778399, "lat": 47.684313, "lon": -114.1246738}, {"type": "node", "id": 12643778400, "lat": 47.6842878, "lon": -114.1247063}, {"type": "node", "id": 12650085610, "lat": 47.6854607, "lon": -114.1245223}, {"type": "node", "id": 12650085611, "lat": 47.6854674, "lon": -114.1246896}, {"type": "node", "id": 12650085612, "lat": 47.6852996, "lon": -114.1247046}, {"type": "node", "id": 12650085613, "lat": 47.6852928, "lon": -114.1245373}, {"type": "node", "id": 13184521297, "lat": 47.6899398, "lon": -114.1257781, "tags": {"addr:city": "Polson", "addr:housenumber": "109", "addr:postcode": "59860-7219", "addr:state": "MT", "addr:street": "Anchor Way", "amenity": "bar", "name": "South Shore Lounge", "phone": "+14068832553", "website": "https://www.facebook.com/243181706363590"}}, {"type": "node", "id": 13184553284, "lat": 47.6901575, "lon": -114.1237747, "tags": {"contact:facebook": "https://www.facebook.com/302216623139556", "name": "The DePoe Junction", "shop": "pawnbroker"}}, {"type": "node", "id": 13184576210, "lat": 47.688076, "lon": -114.1197083, "tags": {"contact:facebook": "https://www.facebook.com/2041703242521240", "name": "Polson Lube Center", "phone": "+14068830055", "shop": "car_repair"}}, {"type": "node", "id": 13184576211, "lat": 47.6881514, "lon": -114.1191339, "tags": {"contact:facebook": "https://www.facebook.com/102296065787565", "name": "Wash N Go", "phone": "+14068834419", "self_service": "yes", "shop": "laundry", "website": "http://washngomt.com/"}}, {"type": "node", "id": 13184576212, "lat": 47.6880745, "lon": -114.1204501, "tags": {"amenity": "restaurant", "contact:facebook": "https://www.facebook.com/116028165091665", "cuisine": "barbecue", "name": "Sportspage Bowl Grill & Lounge", "phone": "+14068834030", "website": "https://www.sportspagebowl.com/"}}, {"type": "node", "id": 13184576277, "lat": 47.6836892, "lon": -114.1234659, "tags": {"contact:facebook": "https://www.facebook.com/107463867470102", "name": "Valley Glass", "phone": "+14068835055", "service:vehicle:glass": "yes", "shop": "car_repair", "website": "https://www.valleyglassmt.com/"}}, {"type": "way", "id": 630522632, "nodes": [5953899493, 5953899492, 5953899491, 5953899490, 5953899489, 5953899488, 5953899487, 5315599481, 5953899486, 5953899485, 5953888184, 5953888183, 5953888182, 5953888181, 5953888180, 5953888179, 5953888178, 5953888177, 5953899493], "tags": {"addr:city": "Polson", "addr:country": "US", "addr:housenumber": "36318", "addr:postcode": "59860", "addr:state": "MT", "addr:street": "Memory Lane", "brand": "Walmart", "brand:wikidata": "Q483551", "building": "retail", "name": "Walmart Supercenter", "opening_hours": "Mo-Su 06:00-24:00", "operator": "Walmart", "payment:app:walmart": "yes", "payment:apple_pay": "no", "payment:google_pay": "no", "payment:samsung_pay": "no", "phone": "+1 406-883-9211", "ref": "2607", "ref:walmart": "2607", "sensory_friendly:accommodation": "dimmed_light;static_screens;no_pa", "sensory_friendly:conditional": "yes @ 08:00-10:00", "shop": "supermarket", "website": "https://www.walmart.com/store/2607-polson-mt"}}, {"type": "way", "id": 968838570, "nodes": [8963505121, 8963505122, 8963505123, 8963505124, 8963505121], "tags": {"building": "yes", "name": "Florence Coffee", "shop": "coffee"}}, {"type": "way", "id": 1086310944, "nodes": [9953700350, 9953700351, 9953700352, 9953700353, 9953700350], "tags": {"addr:city": "Polson", "addr:housenumber": "40768", "addr:postcode": "59001", "addr:state": "MT", "addr:street": "Mt Highway 35", "amenity": "restaurant", "building": "yes", "name": "4B's Restaurant of Polson", "website": "https://usmapsa.design/4bs-restaurant-of-polson"}}, {"type": "way", "id": 1320120313, "nodes": [12216288744, 12216288745, 12216288746, 12216288747, 12216288748, 12216288749, 12216288750, 12216288751, 12216288752, 12216288753, 12216288754, 12216288755, 12216288756, 12216288757, 12216288744], "tags": {"addr:city": "Polson", "addr:housenumber": "170", "addr:postcode": "59860", "addr:state": "MT", "addr:street": "Heritage Lane", "building": "yes", "name": "Murdoch's Ranch & Home Supply", "phone": "+14068832140", "shop": "agrarian"}}, {"type": "way", "id": 1365352973, "nodes": [12643778392, 12643778393, 12643778394, 12643778395, 12643778396, 12643778397, 12643778398, 12643778399, 12643778400, 8920041871, 12643778392], "tags": {"addr:city": "Polson", "addr:housenumber": "207", "addr:postcode": "59860", "addr:state": "MT", "addr:street": "Ridgewater Drive", "amenity": "restaurant", "building": "yes", "cuisine": "pizza", "name": "MacKenzie River Pizza", "opening_hours": "Mo-Su 11:00-21:00", "phone": "+1 406-872-2100", "website": "https://locations.mackenzieriverpizza.com/locations/mt/polson/207-ridgewater-dr/"}}, {"type": "way", "id": 1365997981, "nodes": [12650085610, 12650085611, 12650085612, 12650085613, 12650085610], "tags": {"addr:city": "Polson", "addr:housenumber": "51657", "addr:postcode": "59860", "addr:state": "MT", "addr:street": "US-93", "building": "yes", "name": "The Hi-Line Company", "operator": "The Hi-Line Company", "phone": "+1 406-676-0079", "shop": "cannabis", "source": "microsoft/BuildingFootprints", "website": "https://www.hi-line.co/polson/"}}]}