{"version": 0.6, "generator": "Overpass API 0.7.62.8 e802775f", "osm3s": {"timestamp_osm_base": "2025-12-06T04:32:44Z", "copyright": "The data included in this document is from www.openstreetmap.org. The data is made available under ODbL."}, "elements": [{"type": "node", "id": 2399956227, "lat": 45.258167, "lon": -111.2538485}, {"type": "node", "id": 2399956228, "lat": 45.2581685, "lon": -111.2537007}, {"type": "node", "id": 2399956235, "lat": 45.2584988, "lon": -111.2538549}, {"type": "node", "id": 2399956236, "lat": 45.2585002, "lon": -111.2537072}, {"type": "node", "id": 2409965114, "lat": 45.2658279, "lon": -111.2535172, "tags": {"addr:city": "Big Sky", "addr:country": "US", "addr:state": "MT", "amenity": "restaurant", "name": "Bugaboo"}}, {"type": "node", "id": 2409970006, "lat": 45.2628438, "lon": -111.2541066}, {"type": "node", "id": 2409970007, "lat": 45.2628724, "lon": -111.2543774}, {"type": "node", "id": 2409970009, "lat": 45.2629475, "lon": -111.2540845}, {"type": "node", "id": 2409970011, "lat": 45.2629761, "lon": -111.2543553}, {"type": "node", "id": 2410351548, "lat": 45.2569289, "lon": -111.2539137, "tags": {"name": "Fly Shop", "shop": "yes"}}, {"type": "node", "id": 2410351549, "lat": 45.2569369, "lon": -111.253705, "tags": {"name": "Gallatin River Guides", "office": "guide"}}, {"type": "node", "id": 2417988843, "lat": 45.2644729, "lon": -111.254522}, {"type": "node", "id": 2417988846, "lat": 45.2644996, "lon": -111.2545578}, {"type": "node", "id": 2417988848, "lat": 45.2645019, "lon": -111.2544784}, {"type": "node", "id": 2417988850, "lat": 45.2645286, "lon": -111.2545142}, {"type": "node", "id": 8639145715, "lat": 45.2674824, "lon": -111.2914781, "tags": {"name": "Country Market", "shop": "supermarket"}}, {"type": "way", "id": 231656803, "nodes": [2399956235, 2399956227, 2399956228, 2399956236, 2399956235], "tags": {"building": "yes", "shop": "yes", "source": "Bing 2011"}}, {"type": "way", "id": 232658872, "nodes": [2409970011, 2409970007, 2409970006, 2409970009, 2409970011], "tags": {"addr:city": "Big Sky", "addr:country": "US", "addr:state": "MT", "building": "yes", "name": "Grizzly Outfitters on the River", "shop": "yes", "source": "Bing 2011"}}, {"type": "way", "id": 233404256, "nodes": [2417988850, 2417988848, 2417988843, 2417988846, 2417988850], "tags": {"amenity": "restaurant", "building": "yes", "cuisine": "ice_cream"}}]}