{"version": 0.6, "generator": "Overpass API 0.7.62.8 e802775f", "osm3s": {"timestamp_osm_base": "2025-12-06T21:52:41Z", "copyright": "The data included in this document is from www.openstreetmap.org. The data is made available under ODbL."}, "elements": [{"type": "node", "id": 280005823, "lat": 47.2659108, "lon": -122.2268769}, {"type": "node", "id": 280005824, "lat": 47.2665268, "lon": -122.2251727}, {"type": "node", "id": 280005825, "lat": 47.2667516, "lon": -122.224545}, {"type": "node", "id": 280005826, "lat": 47.2669428, "lon": -122.2241894}, {"type": "node", "id": 280005827, "lat": 47.2671306, "lon": -122.2239232}, {"type": "node", "id": 280005828, "lat": 47.2678255, "lon": -122.2233995}, {"type": "node", "id": 280005829, "lat": 47.2683644, "lon": -122.2228708}, {"type": "node", "id": 280005830, "lat": 47.2689696, "lon": -122.2219781}, {"type": "node", "id": 280005831, "lat": 47.2690165, "lon": -122.221905}, {"type": "node", "id": 280005832, "lat": 47.2691893, "lon": -122.2214559}, {"type": "node", "id": 280005833, "lat": 47.2692315, "lon": -122.2213019}, {"type": "node", "id": 280005834, "lat": 47.2692387, "lon": -122.2211356}, {"type": "node", "id": 280005835, "lat": 47.2690398, "lon": -122.2202957}, {"type": "node", "id": 356551626, "lat": 47.2744653, "lon": -122.2179976}, {"type": "node", "id": 1094639840, "lat": 47.2637615, "lon": -122.2289478}, {"type": "node", "id": 1094639867, "lat": 47.254997, "lon": -122.2156887}, {"type": "node", "id": 1094639903, "lat": 47.2529022, "lon": -122.2172161}, {"type": "node", "id": 1094639905, "lat": 47.2685867, "lon": -122.220575}, {"type": "node", "id": 1094639985, "lat": 47.2626743, "lon": -122.2275193}, {"type": "node", "id": 1094640002, "lat": 47.2457133, "lon": -122.2130744}, {"type": "node", "id": 1094640007, "lat": 47.2459635, "lon": -122.2110417}, {"type": "node", "id": 1094640010, "lat": 47.2641212, "lon": -122.2256345}, {"type": "node", "id": 1094640219, "lat": 47.253206, "lon": -122.2152685}, {"type": "node", "id": 1094640225, "lat": 47.264711, "lon": -122.2251646}, {"type": "node", "id": 1094640274, "lat": 47.2441089, "lon": -122.2086629}, {"type": "node", "id": 1094640283, "lat": 47.2667751, "lon": -122.2220948}, {"type": "node", "id": 1094640369, "lat": 47.2682512, "lon": -122.2204839}, {"type": "node", "id": 1094640419, "lat": 47.2630393, "lon": -122.2289132}, {"type": "node", "id": 1094640449, "lat": 47.268093, "lon": -122.2201143}, {"type": "node", "id": 1094640468, "lat": 47.2457227, "lon": -122.2128353}, {"type": "node", "id": 1094640701, "lat": 47.2555566, "lon": -122.2144636}, {"type": "node", "id": 1094640794, "lat": 47.2531794, "lon": -122.2172239}, {"type": "node", "id": 1094640799, "lat": 47.2676114, "lon": -122.2212967}, {"type": "node", "id": 1094640831, "lat": 47.2455786, "lon": -122.2116742}, {"type": "node", "id": 1094641000, "lat": 47.2677243, "lon": -122.2203944}, {"type": "node", "id": 1094641008, "lat": 47.2457341, "lon": -122.2130083}, {"type": "node", "id": 1094641036, "lat": 47.2459239, "lon": -122.2110116}, {"type": "node", "id": 1094641041, "lat": 47.2637561, "lon": -122.2264945}, {"type": "node", "id": 1094641078, "lat": 47.2456541, "lon": -122.2128603}, {"type": "node", "id": 1094641351, "lat": 47.2648256, "lon": -122.2255245}, {"type": "node", "id": 1094641355, "lat": 47.2458031, "lon": -122.2129591}, {"type": "node", "id": 1094641420, "lat": 47.2664777, "lon": -122.2224587}, {"type": "node", "id": 1094641522, "lat": 47.2678992, "lon": -122.2207674}, {"type": "node", "id": 1094641565, "lat": 47.2456073, "lon": -122.2121836}, {"type": "node", "id": 1094641571, "lat": 47.2630393, "lon": -122.2293412}, {"type": "node", "id": 1094641603, "lat": 47.268109, "lon": -122.2201641}, {"type": "node", "id": 1094641615, "lat": 47.2457041, "lon": -122.2128944}, {"type": "node", "id": 1094641819, "lat": 47.25549, "lon": -122.2139885}, {"type": "node", "id": 1094641829, "lat": 47.2463661, "lon": -122.2112267}, {"type": "node", "id": 1094641917, "lat": 47.2537577, "lon": -122.2170629}, {"type": "node", "id": 1094641921, "lat": 47.2648493, "lon": -122.2268843}, {"type": "node", "id": 1094641926, "lat": 47.2455408, "lon": -122.2117993}, {"type": "node", "id": 1094642121, "lat": 47.2677519, "lon": -122.2208056}, {"type": "node", "id": 1094642158, "lat": 47.2458188, "lon": -122.2113674}, {"type": "node", "id": 1094642161, "lat": 47.2647047, "lon": -122.2260233}, {"type": "node", "id": 1094642190, "lat": 47.2456277, "lon": -122.2129441}, {"type": "node", "id": 1094642289, "lat": 47.2448314, "lon": -122.2095415, "tags": {"addr:city": "Auburn", "addr:country": "US", "addr:housenumber": "1408", "addr:postcode": "98092", "addr:state": "WA", "addr:street": "Lake Tapps Parkway E", "amenity": "restaurant", "cuisine": "pizza", "name": "The Rock Wood Fired Pizza - Lake Tapps", "opening_hours": "Mo-Su 11:30-00:00", "phone": "+1-253-833-7887", "website": "https://www.therockwfp.com/"}}, {"type": "node", "id": 1094642507, "lat": 47.2458789, "lon": -122.2128129}, {"type": "node", "id": 1094642605, "lat": 47.2648693, "lon": -122.2260009}, {"type": "node", "id": 1094642658, "lat": 47.265767, "lon": -122.2234136}, {"type": "node", "id": 1094642755, "lat": 47.2678692, "lon": -122.2207312}, {"type": "node", "id": 1094642784, "lat": 47.264606, "lon": -122.2289698}, {"type": "node", "id": 1094642808, "lat": 47.2455636, "lon": -122.2121555}, {"type": "node", "id": 1094642814, "lat": 47.2637135, "lon": -122.2294275}, {"type": "node", "id": 1094642831, "lat": 47.2681848, "lon": -122.2201177}, {"type": "node", "id": 1094642874, "lat": 47.245827, "lon": -122.2114921}, {"type": "node", "id": 1094642878, "lat": 47.2646034, "lon": -122.2288668}, {"type": "node", "id": 1094643087, "lat": 47.2459922, "lon": -122.2109834}, {"type": "node", "id": 1094643152, "lat": 47.2541308, "lon": -122.2168509}, {"type": "node", "id": 1094643362, "lat": 47.2458434, "lon": -122.2114418}, {"type": "node", "id": 1094643369, "lat": 47.2647021, "lon": -122.2257249}, {"type": "node", "id": 1094643388, "lat": 47.245676, "lon": -122.2129771}, {"type": "node", "id": 1094643408, "lat": 47.2645534, "lon": -122.2285969}, {"type": "node", "id": 1094643688, "lat": 47.2646783, "lon": -122.2247505}, {"type": "node", "id": 1094643872, "lat": 47.2454722, "lon": -122.2124731}, {"type": "node", "id": 1094643891, "lat": 47.2634204, "lon": -122.2269028}, {"type": "node", "id": 1094643919, "lat": 47.2682716, "lon": -122.2203794}, {"type": "node", "id": 1094643978, "lat": 47.2457902, "lon": -122.2115262}, {"type": "node", "id": 1094644009, "lat": 47.2645598, "lon": -122.228788}, {"type": "node", "id": 1094644291, "lat": 47.2457782, "lon": -122.2130384}, {"type": "node", "id": 1094644615, "lat": 47.2454845, "lon": -122.2125415}, {"type": "node", "id": 1094644618, "lat": 47.2646381, "lon": -122.22545}, {"type": "node", "id": 1094644670, "lat": 47.2456574, "lon": -122.2130362}, {"type": "node", "id": 1094644675, "lat": 47.2646049, "lon": -122.2284948}, {"type": "node", "id": 1094645028, "lat": 47.2455022, "lon": -122.2124952}, {"type": "node", "id": 1094645034, "lat": 47.263122, "lon": -122.2272012}, {"type": "node", "id": 1094645083, "lat": 47.2457479, "lon": -122.2116368}, {"type": "node", "id": 1094645086, "lat": 47.2644383, "lon": -122.2254461}, {"type": "node", "id": 1094645213, "lat": 47.2675841, "lon": -122.2206287}, {"type": "node", "id": 1094645589, "lat": 47.2645422, "lon": -122.2251634}, {"type": "node", "id": 1094645657, "lat": 47.2457549, "lon": -122.2129263}, {"type": "node", "id": 1094645668, "lat": 47.2540215, "lon": -122.2133642}, {"type": "node", "id": 1094645674, "lat": 47.2646909, "lon": -122.2284462}, {"type": "node", "id": 1094645904, "lat": 47.254432, "lon": -122.2165564}, {"type": "node", "id": 1094646147, "lat": 47.2628448, "lon": -122.2273622}, {"type": "node", "id": 1094646215, "lat": 47.2457574, "lon": -122.2117192}, {"type": "node", "id": 1094646235, "lat": 47.2642731, "lon": -122.2254029}, {"type": "node", "id": 1094646535, "lat": 47.2536298, "lon": -122.2154256}, {"type": "node", "id": 1094646542, "lat": 47.2646224, "lon": -122.2248973}, {"type": "node", "id": 1094646776, "lat": 47.2682307, "lon": -122.2204276}, {"type": "node", "id": 1094646855, "lat": 47.2624958, "lon": -122.2287404}, {"type": "node", "id": 1094646916, "lat": 47.2457728, "lon": -122.2128695}, {"type": "node", "id": 1094646947, "lat": 47.2647047, "lon": -122.2269224}, {"type": "node", "id": 3710448018, "lat": 47.2451026, "lon": -122.2085824}, {"type": "node", "id": 3710448019, "lat": 47.2451137, "lon": -122.2086328}, {"type": "node", "id": 3710448020, "lat": 47.2451815, "lon": -122.2086043}, {"type": "node", "id": 3710448021, "lat": 47.2451746, "lon": -122.2085735}, {"type": "node", "id": 3710448022, "lat": 47.245343, "lon": -122.2081402}, {"type": "node", "id": 3710448023, "lat": 47.2452173, "lon": -122.2080287}, {"type": "node", "id": 3710448024, "lat": 47.2448803, "lon": -122.2083799}, {"type": "node", "id": 3710450425, "lat": 47.2450215, "lon": -122.2080448}, {"type": "node", "id": 3710450426, "lat": 47.2452047, "lon": -122.2080585}, {"type": "node", "id": 3710450427, "lat": 47.2450036, "lon": -122.2078864}, {"type": "node", "id": 3710450428, "lat": 47.2449597, "lon": -122.2079911}, {"type": "node", "id": 4184748289, "lat": 47.2728215, "lon": -122.227384, "tags": {"addr:city": "Auburn", "addr:housenumber": "4010", "addr:postcode": "98002", "addr:state": "WA", "addr:street": "A Street", "brand": "Safeway", "brand:wikidata": "Q1508234", "name": "Safeway", "opening_hours": "Mo-Su 05:30-24:00", "phone": "+1-253-939-1850", "shop": "supermarket", "website": "https://local.safeway.com/safeway/wa/auburn/4010-a-st.html"}}, {"type": "node", "id": 4184748290, "lat": 47.2737635, "lon": -122.2273297, "tags": {"addr:city": "Auburn", "addr:housenumber": "3802", "addr:postcode": "98002", "addr:state": "WA", "addr:street": "A Street Southeast", "brand": "Dollar Tree", "brand:wikidata": "Q5289230", "name": "Dollar Tree", "opening_hours": "Mo-Sa 08:00-22:00; Su 09:00-21:00", "shop": "variety_store", "wheelchair": "yes"}}, {"type": "node", "id": 4184748291, "lat": 47.272392, "lon": -122.2273156, "tags": {"name": "HairMasters", "shop": "hairdresser"}}, {"type": "node", "id": 4184748292, "lat": 47.2734248, "lon": -122.2282688}, {"type": "node", "id": 4184748293, "lat": 47.273112, "lon": -122.2282588}, {"type": "node", "id": 4184748314, "lat": 47.2720772, "lon": -122.2239542}, {"type": "node", "id": 4184748315, "lat": 47.272079, "lon": -122.2234559}, {"type": "node", "id": 4184748316, "lat": 47.2720856, "lon": -122.2223666}, {"type": "node", "id": 4184748317, "lat": 47.2721866, "lon": -122.228612}, {"type": "node", "id": 4184748326, "lat": 47.272301, "lon": -122.2282108}, {"type": "node", "id": 4184748327, "lat": 47.2722248, "lon": -122.2221587}, {"type": "node", "id": 4184748333, "lat": 47.2724223, "lon": -122.2212883}, {"type": "node", "id": 4184748456, "lat": 47.2737545, "lon": -122.2239676}, {"type": "node", "id": 4184748460, "lat": 47.2737641, "lon": -122.2213705}, {"type": "node", "id": 4184748501, "lat": 47.2742101, "lon": -122.2179989}, {"type": "node", "id": 4184748511, "lat": 47.2746282, "lon": -122.2172083}, {"type": "node", "id": 4184748518, "lat": 47.2746992, "lon": -122.2169804}, {"type": "node", "id": 4184748520, "lat": 47.2747383, "lon": -122.2168576}, {"type": "node", "id": 4184748522, "lat": 47.274787, "lon": -122.2166417}, {"type": "node", "id": 4184748534, "lat": 47.2750125, "lon": -122.2194849}, {"type": "node", "id": 4184748535, "lat": 47.2750154, "lon": -122.2187138}, {"type": "node", "id": 4184748539, "lat": 47.2750363, "lon": -122.2150498}, {"type": "node", "id": 4184748559, "lat": 47.2751765, "lon": -122.2196454}, {"type": "node", "id": 4184748560, "lat": 47.2751771, "lon": -122.2194862}, {"type": "node", "id": 4184748575, "lat": 47.2752749, "lon": -122.2208766}, {"type": "node", "id": 4184748576, "lat": 47.2752758, "lon": -122.2213826}, {"type": "node", "id": 4184748601, "lat": 47.2755598, "lon": -122.220878}, {"type": "node", "id": 4184748602, "lat": 47.2755712, "lon": -122.2196485}, {"type": "node", "id": 4184748603, "lat": 47.2755747, "lon": -122.2187183}, {"type": "node", "id": 4184748605, "lat": 47.2755882, "lon": -122.2150543}, {"type": "node", "id": 4184748825, "lat": 47.2773801, "lon": -122.2174051}, {"type": "node", "id": 4184748829, "lat": 47.27739, "lon": -122.2147345}, {"type": "node", "id": 4184749053, "lat": 47.2791919, "lon": -122.2174196}, {"type": "node", "id": 4184749054, "lat": 47.2792018, "lon": -122.214749}, {"type": "node", "id": 4251884153, "lat": 47.2461356, "lon": -122.2086041}, {"type": "node", "id": 4439863130, "lat": 47.2590845, "lon": -122.2113857}, {"type": "node", "id": 4439863133, "lat": 47.25913, "lon": -122.2114876}, {"type": "node", "id": 4439863134, "lat": 47.2591321, "lon": -122.2113395}, {"type": "node", "id": 4439863137, "lat": 47.2591776, "lon": -122.2114414}, {"type": "node", "id": 4514292753, "lat": 47.243306, "lon": -122.2138343}, {"type": "node", "id": 4909971811, "lat": 47.2739808, "lon": -122.2285679, "tags": {"addr:city": "Auburn", "addr:housenumber": "3840", "addr:postcode": "98002", "addr:state": "WA", "addr:street": "A Street Southeast", "addr:unit": "101", "amenity": "fast_food", "brand": "Subway", "brand:wikidata": "Q244457", "cuisine": "sandwich", "name": "Subway", "opening_hours": "Mo-Fr 08:00-21:00; Sa-Su 10:00-20:00", "phone": "+1-253-735-0323", "takeaway": "yes", "website": "https://restaurants.subway.com/united-states/wa/auburn/3840-a-st-se"}}, {"type": "node", "id": 4909971812, "lat": 47.2739834, "lon": -122.2284607, "tags": {"amenity": "cafe", "cuisine": "donut", "name": "Le Donut"}}, {"type": "node", "id": 4909971813, "lat": 47.2739861, "lon": -122.2283521, "tags": {"amenity": "restaurant", "cuisine": "chinese", "name": "Top Gun China Express"}}, {"type": "node", "id": 4909971814, "lat": 47.2739885, "lon": -122.2282514, "tags": {"brand": "Jackson Hewitt", "brand:wikidata": "Q6117132", "name": "Jackson Hewitt", "office": "tax_advisor", "official_name": "Jackson Hewitt Tax Service"}}, {"type": "node", "id": 4909971815, "lat": 47.2740945, "lon": -122.228183, "tags": {"amenity": "atm", "brand": "BECU", "brand:wikidata": "Q4835409", "name": "BECU", "operator": "BECU", "operator:wikidata": "Q4835409", "operator:wikipedia": "en:BECU"}}, {"type": "node", "id": 4909973922, "lat": 47.2740963, "lon": -122.2273032, "tags": {"amenity": "restaurant", "cuisine": "mexican", "name": "Rio Blanco Mexican Restaurant"}}, {"type": "node", "id": 4909973923, "lat": 47.2739644, "lon": -122.2273046, "tags": {"amenity": "clinic", "healthcare": "clinic", "name": "South Auburn General Medical Clinic"}}, {"type": "node", "id": 4909973924, "lat": 47.2734812, "lon": -122.2273032, "tags": {"name": "Wine & Spirits", "shop": "alcohol"}}, {"type": "node", "id": 4909973925, "lat": 47.2734048, "lon": -122.2273059, "tags": {"name": "Cigar Land", "shop": "tobacco"}}, {"type": "node", "id": 4909973926, "lat": 47.2733384, "lon": -122.2273059, "tags": {"name": "Dollar Plus", "shop": "variety_store"}}, {"type": "node", "id": 4909973927, "lat": 47.2732838, "lon": -122.2273059, "tags": {"amenity": "restaurant", "cuisine": "teriyaki;japanese", "name": "Joy Pho Teriyaki"}}, {"type": "node", "id": 4909973928, "lat": 47.2732283, "lon": -122.2273113, "tags": {"beauty": "nails", "name": "Sunflower Nails", "shop": "beauty"}}, {"type": "node", "id": 4909973929, "lat": 47.2722328, "lon": -122.227312, "tags": {"alt_name": "MetroPCS", "brand": "Metro by T-Mobile", "brand:wikidata": "Q1925685", "name": "Metro by T-Mobile", "shop": "mobile_phone"}}, {"type": "node", "id": 4909973930, "lat": 47.2725758, "lon": -122.2272979, "tags": {"addr:city": "Auburn", "addr:housenumber": "4010", "addr:postcode": "98002", "addr:state": "WA", "addr:street": "A Street Southeast", "amenity": "cafe", "branch": "Safeway South Auburn 4483", "brand": "Starbucks", "brand:wikidata": "Q37158", "cuisine": "coffee_shop", "name": "Starbucks", "official_name": "Starbucks Coffee", "phone": "+1-253-939-1850", "ref": "12711", "takeaway": "yes", "website": "https://www.starbucks.com/store-locator/store/12711/safeway-south-auburn-4483-4010-a-st-se-auburn-wa-980028642-us"}}, {"type": "node", "id": 4910237996, "lat": 47.2725831, "lon": -122.2296985, "tags": {"amenity": "fast_food", "cuisine": "burger;ice_cream", "name": "Shake 'n Go"}}, {"type": "node", "id": 4910237997, "lat": 47.272524, "lon": -122.2297494, "tags": {"amenity": "restaurant", "cuisine": "japanese", "name": "Teriyaki 2 U"}}, {"type": "node", "id": 4910237998, "lat": 47.2724744, "lon": -122.2297575, "tags": {"beauty": "tanning", "name": "Sky Tanning", "shop": "beauty"}}, {"type": "node", "id": 4910237999, "lat": 47.2724239, "lon": -122.2297521, "tags": {"amenity": "dentist", "healthcare": "dentist", "name": "You First Dental Care"}}, {"type": "node", "id": 4910238000, "lat": 47.2723629, "lon": -122.2297561, "tags": {"beauty": "nails", "name": "Sky Nail Salon", "shop": "beauty"}}, {"type": "node", "id": 4910238001, "lat": 47.2722601, "lon": -122.22976, "tags": {"brand": "Cricket Wireless", "brand:wikidata": "Q5184987", "name": "Cricket Wireless", "shop": "mobile_phone", "short_name": "Cricket"}}, {"type": "node", "id": 4910238002, "lat": 47.2721855, "lon": -122.2297655, "tags": {"amenity": "doctors", "healthcare": "doctor", "name": "Advise Chiropractic"}}, {"type": "node", "id": 4910238004, "lat": 47.2723338, "lon": -122.229382, "tags": {"brand": "American Family Insurance", "brand:wikidata": "Q4743730", "name": "American Family Insurance", "office": "insurance"}}, {"type": "node", "id": 4910238005, "lat": 47.2723338, "lon": -122.2292733, "tags": {"addr:city": "Auburn", "addr:housenumber": "4025", "addr:postcode": "98002", "addr:state": "WA", "addr:street": "A Street Southeast", "addr:unit": "101", "amenity": "cafe", "branch": "Ellingson Road- Auburn", "brand": "Starbucks", "brand:wikidata": "Q37158", "cuisine": "coffee_shop", "delivery": "no", "internet_access": "wlan", "internet_access:fee": "no", "name": "Starbucks", "official_name": "Starbucks Coffee", "phone": "+1-253-833-8516", "ref": "17143", "smoking": "no", "takeaway": "yes", "website": "https://www.starbucks.com/store-locator/store/17143/ellingson-rd-auburn-4025-a-street-se-bldg-a-suite-101-auburn-wa-980028"}}, {"type": "node", "id": 4910238006, "lat": 47.2729062, "lon": -122.2294074}, {"type": "node", "id": 4910238158, "lat": 47.271712, "lon": -122.2292385}, {"type": "node", "id": 5111995524, "lat": 47.2622117, "lon": -122.2288932, "tags": {"amenity": "fountain"}}, {"type": "node", "id": 5163523753, "lat": 47.2694205, "lon": -122.2220479}, {"type": "node", "id": 5163523754, "lat": 47.2694268, "lon": -122.2222713}, {"type": "node", "id": 5163523755, "lat": 47.2693453, "lon": -122.2222743}, {"type": "node", "id": 5163523756, "lat": 47.2693411, "lon": -122.2220525}, {"type": "node", "id": 5196901817, "lat": 47.2515234, "lon": -122.2106218, "tags": {"amenity": "bench", "backrest": "yes"}}, {"type": "node", "id": 5200341267, "lat": 47.2439551, "lon": -122.2117569}, {"type": "node", "id": 5200341269, "lat": 47.243268, "lon": -122.211067, "tags": {"alt_name": "Edward Jones Investments", "brand": "Edward Jones", "brand:wikidata": "Q5343830", "name": "Edward Jones", "office": "financial_advisor"}}, {"type": "node", "id": 5200341271, "lat": 47.242998, "lon": -122.2104518, "tags": {"addr:city": "Auburn", "addr:housenumber": "1404", "addr:postcode": "98092", "addr:state": "WA", "addr:street": "Lake Tapps Parkway Southeast", "amenity": "dentist", "brand": "Gentle Dental", "brand:wikidata": "Q108410773", "healthcare": "dentist", "name": "Gentle Dental"}}, {"type": "node", "id": 5200341272, "lat": 47.2444763, "lon": -122.2091647, "tags": {"brand": "Great Clips", "brand:wikidata": "Q5598967", "name": "Great Clips", "shop": "hairdresser"}}, {"type": "node", "id": 5200341274, "lat": 47.2439442, "lon": -122.2089531, "tags": {"name": "Head & Malesis Insurance Agency", "office": "insurance"}}, {"type": "node", "id": 5200341275, "lat": 47.244166, "lon": -122.2112092, "tags": {"amenity": "restaurant", "name": "HopsnDrops"}}, {"type": "node", "id": 5200341276, "lat": 47.2444413, "lon": -122.2090828, "tags": {"amenity": "restaurant", "check_date": "2024-05-31", "cuisine": "teriyaki;japanese", "name": "Ichi Teriyaki"}}, {"type": "node", "id": 5200341279, "lat": 47.2432159, "lon": -122.21099, "tags": {"amenity": "cafe", "check_date:opening_hours": "2022-09-04", "cuisine": "donut", "name": "Legendary Doughnuts - Lakeland Hills", "opening_hours": "Su-Th 05:00-18:00; Fr-Sa 05:00-19:00", "phone": "+1-253-736-0036", "website": "https://www.legendarydoughnuts.com/"}}, {"type": "node", "id": 5200341280, "lat": 47.244571, "lon": -122.2100374, "tags": {"amenity": "ice_cream", "brand": "Menchie's", "brand:wikidata": "Q6816528", "cuisine": "frozen_yogurt", "name": "Menchie's"}}, {"type": "node", "id": 5200341281, "lat": 47.2430428, "lon": -122.2102776, "tags": {"addr:city": "Auburn", "addr:housenumber": "1404", "addr:postcode": "98092", "addr:state": "WA", "addr:street": "Lake Tapps Parkway Southeast", "name": "Pet Pros", "shop": "pet"}}, {"type": "node", "id": 5200341282, "lat": 47.2445612, "lon": -122.2092111, "tags": {"amenity": "restaurant", "check_date": "2024-05-31", "cuisine": "mexican", "name": "Puerto Vallarta Mexican Restaurant"}}, {"type": "node", "id": 5200341285, "lat": 47.2437819, "lon": -122.208997, "tags": {"name": "Salon Mogano", "shop": "hairdresser"}}, {"type": "node", "id": 5200341286, "lat": 47.2438584, "lon": -122.2089571, "tags": {"beauty": "tanning", "name": "Seattle Suntan", "shop": "beauty"}}, {"type": "node", "id": 5200341287, "lat": 47.243721, "lon": -122.2090191, "tags": {"name": "Solei Day Spa", "shop": "beauty"}}, {"type": "node", "id": 5200341288, "lat": 47.2443877, "lon": -122.2104223, "tags": {"addr:city": "Auburn", "addr:housenumber": "1402", "addr:postcode": "98092", "addr:state": "WA", "addr:street": "Lake Tapps Parkway East", "addr:unit": "108", "amenity": "fast_food", "brand": "Subway", "brand:wikidata": "Q244457", "cuisine": "sandwich", "name": "Subway", "opening_hours": "08:00-21:00", "phone": "+1-253-887-1816", "takeaway": "yes", "website": "https://restaurants.subway.com/united-states/wa/auburn/1402-lake-tapps-pkwy-e", "wheelchair": "limited"}}, {"type": "node", "id": 5200341289, "lat": 47.2433388, "lon": -122.2111318, "tags": {"amenity": "restaurant", "name": "Sushi Konami"}}, {"type": "node", "id": 5200341290, "lat": 47.2442239, "lon": -122.2107953, "tags": {"amenity": "post_office", "brand": "The UPS Store", "brand:wikidata": "Q7771029", "name": "The UPS Store", "shop": "copyshop", "short_name": "UPS"}}, {"type": "node", "id": 5200341291, "lat": 47.2434324, "lon": -122.211181, "tags": {"alt_name": "Verizon Wireless", "brand": "Verizon", "brand:wikidata": "Q919641", "name": "Verizon", "operator": "Victra", "operator:website": "https://victra.com/stores/wa-auburn/", "operator:wikidata": "Q118402656", "shop": "mobile_phone"}}, {"type": "node", "id": 5200341292, "lat": 47.2441854, "lon": -122.2109267, "tags": {"name": "Windermere Real Estate", "office": "estate_agent"}}, {"type": "node", "id": 5200341293, "lat": 47.2458661, "lon": -122.2092333}, {"type": "node", "id": 5211327621, "lat": 47.2516709, "lon": -122.2078876, "tags": {"amenity": "bench", "backrest": "yes"}}, {"type": "node", "id": 5211327622, "lat": 47.2517741, "lon": -122.2077545, "tags": {"amenity": "bench", "backrest": "yes"}}, {"type": "node", "id": 5211327628, "lat": 47.2518333, "lon": -122.2078193}, {"type": "node", "id": 5211327629, "lat": 47.2518086, "lon": -122.2077596}, {"type": "node", "id": 5211327630, "lat": 47.251845, "lon": -122.2077269}, {"type": "node", "id": 5211327631, "lat": 47.2518697, "lon": -122.2077867}, {"type": "node", "id": 5211344521, "lat": 47.2456286, "lon": -122.2128915, "tags": {"amenity": "drinking_water"}}, {"type": "node", "id": 5211344522, "lat": 47.2454166, "lon": -122.2129992, "tags": {"amenity": "bench", "backrest": "yes"}}, {"type": "node", "id": 5211344523, "lat": 47.2454852, "lon": -122.2129763, "tags": {"amenity": "bench", "backrest": "yes"}}, {"type": "node", "id": 5211344524, "lat": 47.2455825, "lon": -122.2128604, "tags": {"amenity": "bench", "backrest": "yes"}}, {"type": "node", "id": 5211344525, "lat": 47.2453076, "lon": -122.2129662, "tags": {"amenity": "bench", "backrest": "yes"}}, {"type": "node", "id": 5211406493, "lat": 47.2690632, "lon": -122.2225371}, {"type": "node", "id": 5211406494, "lat": 47.2690687, "lon": -122.2224206}, {"type": "node", "id": 5211406495, "lat": 47.2691547, "lon": -122.2224293}, {"type": "node", "id": 5211406496, "lat": 47.2691492, "lon": -122.2225458}, {"type": "node", "id": 5317980590, "lat": 47.2456656, "lon": -122.2117312}, {"type": "node", "id": 5317980591, "lat": 47.2456278, "lon": -122.2118563}, {"type": "node", "id": 5476562344, "lat": 47.2439723, "lon": -122.2116163}, {"type": "node", "id": 5996582314, "lat": 47.2617585, "lon": -122.228323}, {"type": "node", "id": 5996582320, "lat": 47.2445481, "lon": -122.2081608}, {"type": "node", "id": 5996582323, "lat": 47.2444712, "lon": -122.2079789}, {"type": "node", "id": 5996582324, "lat": 47.2443724, "lon": -122.2082138}, {"type": "node", "id": 5996582325, "lat": 47.2444834, "lon": -122.2083021}, {"type": "node", "id": 5996582327, "lat": 47.2449041, "lon": -122.2072267, "tags": {"addr:city": "Auburn", "addr:housenumber": "1620", "addr:postcode": "98092", "addr:state": "WA", "addr:street": "Lake Tapps Parkway East", "amenity": "dentist", "healthcare": "dentist", "healthcare:speciality": "dentist", "name": "Lakeland Hills Dental Care"}}, {"type": "node", "id": 5996582333, "lat": 47.2512716, "lon": -122.2274716}, {"type": "node", "id": 5996582339, "lat": 47.2440873, "lon": -122.2076023, "tags": {"addr:city": "Auburn", "addr:housenumber": "7084", "addr:postcode": "98092", "addr:state": "WA", "addr:street": "Lakeland Hills Way", "addr:unit": "101", "name": "Lakeland Vision Clinic", "shop": "optician"}}, {"type": "node", "id": 5996582340, "lat": 47.2443099, "lon": -122.2083607}, {"type": "node", "id": 5996582341, "lat": 47.2443113, "lon": -122.2081752}, {"type": "node", "id": 5996582342, "lat": 47.2441128, "lon": -122.2081787}, {"type": "node", "id": 5996582343, "lat": 47.2441286, "lon": -122.2083732}, {"type": "node", "id": 5996582345, "lat": 47.2446784, "lon": -122.2071334, "tags": {"addr:city": "Auburn", "addr:housenumber": "1620", "addr:postcode": "98092", "addr:state": "WA", "addr:street": "Lake Tapps Pkwy E", "beauty": "nails", "check_date": "2024-05-31", "name": "Lakeland Nails Spa", "shop": "beauty"}}, {"type": "node", "id": 6118455094, "lat": 47.2513749, "lon": -122.2278449}, {"type": "node", "id": 6118455095, "lat": 47.2513753, "lon": -122.2278115}, {"type": "node", "id": 6118455096, "lat": 47.2514895, "lon": -122.2278142}, {"type": "node", "id": 6118455097, "lat": 47.2514911, "lon": -122.2276668}, {"type": "node", "id": 6118455098, "lat": 47.2514248, "lon": -122.2276653}, {"type": "node", "id": 6118455099, "lat": 47.2514256, "lon": -122.2275861}, {"type": "node", "id": 6118455100, "lat": 47.2513804, "lon": -122.227585}, {"type": "node", "id": 6118455101, "lat": 47.2513807, "lon": -122.2275513}, {"type": "node", "id": 6118455102, "lat": 47.2513265, "lon": -122.22755}, {"type": "node", "id": 6118455103, "lat": 47.2513273, "lon": -122.2274729}, {"type": "node", "id": 6118455104, "lat": 47.2512721, "lon": -122.2274239}, {"type": "node", "id": 6118455105, "lat": 47.2512183, "lon": -122.2274226}, {"type": "node", "id": 6118455106, "lat": 47.2512187, "lon": -122.2273847}, {"type": "node", "id": 6118455107, "lat": 47.2506683, "lon": -122.227372}, {"type": "node", "id": 6118455108, "lat": 47.2506649, "lon": -122.2276914}, {"type": "node", "id": 6118455109, "lat": 47.2507077, "lon": -122.2276923}, {"type": "node", "id": 6118455110, "lat": 47.250707, "lon": -122.2277574}, {"type": "node", "id": 6118455111, "lat": 47.2507458, "lon": -122.2277583}, {"type": "node", "id": 6118455112, "lat": 47.250745, "lon": -122.2278304}, {"type": "node", "id": 6118455467, "lat": 47.2431827, "lon": -122.2096087, "tags": {"addr:city": "Auburn", "addr:housenumber": "1406", "addr:postcode": "98092", "addr:street": "Lake Tapps Parkway Southeast", "name": "Haggen Northwest Fresh", "shop": "supermarket", "wheelchair": "yes"}}, {"type": "node", "id": 6118455703, "lat": 47.2445343, "lon": -122.210127, "tags": {"addr:city": "Auburn", "addr:housenumber": "1408", "addr:postcode": "98092", "addr:street": "Lake Tapps Parkway Southeast", "amenity": "bank", "brand": "Wells Fargo", "brand:wikidata": "Q744149", "name": "Wells Fargo"}}, {"type": "node", "id": 6118464558, "lat": 47.2678889, "lon": -122.2229539}, {"type": "node", "id": 6118464567, "lat": 47.268129, "lon": -122.2227719}, {"type": "node", "id": 6118464573, "lat": 47.2678673, "lon": -122.2228924}, {"type": "node", "id": 6118464575, "lat": 47.2681074, "lon": -122.2227104}, {"type": "node", "id": 6118467004, "lat": 47.2688375, "lon": -122.2212923}, {"type": "node", "id": 6118467006, "lat": 47.2689148, "lon": -122.2212542}, {"type": "node", "id": 6118467012, "lat": 47.2690207, "lon": -122.2212546}, {"type": "node", "id": 6118467022, "lat": 47.2689715, "lon": -122.2215022}, {"type": "node", "id": 6118467024, "lat": 47.2688942, "lon": -122.2215403}, {"type": "node", "id": 6118467481, "lat": 47.2660939, "lon": -122.2270392}, {"type": "node", "id": 6118467482, "lat": 47.2662472, "lon": -122.2271498}, {"type": "node", "id": 6118467483, "lat": 47.2661568, "lon": -122.2274203}, {"type": "node", "id": 6118467484, "lat": 47.2660035, "lon": -122.2273097}, {"type": "node", "id": 6118468552, "lat": 47.2432908, "lon": -122.2139845}, {"type": "node", "id": 6118468553, "lat": 47.243332, "lon": -122.2139671}, {"type": "node", "id": 6118468556, "lat": 47.2430717, "lon": -122.2140051}, {"type": "node", "id": 6118468557, "lat": 47.2431541, "lon": -122.2139703}, {"type": "node", "id": 6118468558, "lat": 47.2431801, "lon": -122.2141031}, {"type": "node", "id": 6118468559, "lat": 47.2433038, "lon": -122.2140508}, {"type": "node", "id": 6118468561, "lat": 47.2432648, "lon": -122.2138517}, {"type": "node", "id": 6118468562, "lat": 47.2432518, "lon": -122.2137854}, {"type": "node", "id": 6118468563, "lat": 47.2430457, "lon": -122.2138724}, {"type": "node", "id": 6118472451, "lat": 47.2457498, "lon": -122.2091276}, {"type": "node", "id": 6118472454, "lat": 47.2458432, "lon": -122.2089041}, {"type": "node", "id": 6118472456, "lat": 47.2457621, "lon": -122.2092156}, {"type": "node", "id": 6118472459, "lat": 47.2457856, "lon": -122.2091588}, {"type": "node", "id": 6118472462, "lat": 47.2460601, "lon": -122.2088711}, {"type": "node", "id": 6118472465, "lat": 47.2459925, "lon": -122.2090317}, {"type": "node", "id": 6118472468, "lat": 47.2459378, "lon": -122.2089851}, {"type": "node", "id": 6118472471, "lat": 47.246007, "lon": -122.2088252}, {"type": "node", "id": 6118472475, "lat": 47.2459803, "lon": -122.2090644}, {"type": "node", "id": 6118472478, "lat": 47.2459006, "lon": -122.2092633}, {"type": "node", "id": 6118472480, "lat": 47.2460038, "lon": -122.2090414}, {"type": "node", "id": 6118472484, "lat": 47.2459907, "lon": -122.2090733}, {"type": "node", "id": 6118472707, "lat": 47.2452711, "lon": -122.2083108}, {"type": "node", "id": 6118472713, "lat": 47.2452854, "lon": -122.2083233}, {"type": "node", "id": 6118472720, "lat": 47.2458436, "lon": -122.2092876}, {"type": "node", "id": 6118473860, "lat": 47.2560342, "lon": -122.2147235}, {"type": "node", "id": 6118473862, "lat": 47.2560285, "lon": -122.2146805}, {"type": "node", "id": 6118473864, "lat": 47.2559983, "lon": -122.2146886}, {"type": "node", "id": 6118473866, "lat": 47.2559958, "lon": -122.2146698}, {"type": "node", "id": 6118473874, "lat": 47.2560774, "lon": -122.2147119}, {"type": "node", "id": 6118473892, "lat": 47.2560495, "lon": -122.2148617}, {"type": "node", "id": 6118473894, "lat": 47.2560452, "lon": -122.21483}, {"type": "node", "id": 6118473896, "lat": 47.2560902, "lon": -122.2148176}, {"type": "node", "id": 6118473900, "lat": 47.2558757, "lon": -122.2148446}, {"type": "node", "id": 6118473902, "lat": 47.2558798, "lon": -122.2148752}, {"type": "node", "id": 6118473904, "lat": 47.2559252, "lon": -122.2148626}, {"type": "node", "id": 6118473906, "lat": 47.2559297, "lon": -122.2148962}, {"type": "node", "id": 6118473908, "lat": 47.2558681, "lon": -122.214749}, {"type": "node", "id": 6118473910, "lat": 47.2558712, "lon": -122.2147727}, {"type": "node", "id": 6118473912, "lat": 47.2558568, "lon": -122.2147766}, {"type": "node", "id": 6118473914, "lat": 47.2558664, "lon": -122.214847}, {"type": "node", "id": 6118473916, "lat": 47.2559431, "lon": -122.2146845}, {"type": "node", "id": 6118473918, "lat": 47.2559451, "lon": -122.2147002}, {"type": "node", "id": 6118473920, "lat": 47.255911, "lon": -122.21471}, {"type": "node", "id": 6118473922, "lat": 47.2559145, "lon": -122.2147358}, {"type": "node", "id": 6118484372, "lat": 47.2615577, "lon": -122.2281261}, {"type": "node", "id": 6118484375, "lat": 47.2615523, "lon": -122.228574}, {"type": "node", "id": 6118484380, "lat": 47.2617607, "lon": -122.2281296}, {"type": "node", "id": 6118484383, "lat": 47.2618015, "lon": -122.2284264}, {"type": "node", "id": 6118484686, "lat": 47.2618025, "lon": -122.2283239}, {"type": "node", "id": 6118484689, "lat": 47.2617551, "lon": -122.2285787}, {"type": "node", "id": 6118484692, "lat": 47.2617568, "lon": -122.2284261}, {"type": "node", "id": 6118485711, "lat": 47.2644779, "lon": -122.2293472}, {"type": "node", "id": 6118485713, "lat": 47.2644792, "lon": -122.2290929}, {"type": "node", "id": 6118485715, "lat": 47.2641572, "lon": -122.2290893}, {"type": "node", "id": 6118485717, "lat": 47.2641559, "lon": -122.2293436}, {"type": "node", "id": 6118486180, "lat": 47.2436676, "lon": -122.2117516}, {"type": "node", "id": 6118486181, "lat": 47.2438946, "lon": -122.2119269}, {"type": "node", "id": 6118486183, "lat": 47.2437579, "lon": -122.2115968}, {"type": "node", "id": 6118486184, "lat": 47.2437116, "lon": -122.211561}, {"type": "node", "id": 6118486185, "lat": 47.2436562, "lon": -122.2117167}, {"type": "node", "id": 6118486186, "lat": 47.2436748, "lon": -122.2117312}, {"type": "node", "id": 6118486189, "lat": 47.2437848, "lon": -122.2116254}, {"type": "node", "id": 6118486190, "lat": 47.2437861, "lon": -122.2116}, {"type": "node", "id": 6120997465, "lat": 47.2692156, "lon": -122.2284647}, {"type": "node", "id": 6120997466, "lat": 47.26891, "lon": -122.2284645}, {"type": "node", "id": 6120997467, "lat": 47.2688087, "lon": -122.2285423}, {"type": "node", "id": 6120997468, "lat": 47.2689099, "lon": -122.2285423}, {"type": "node", "id": 6120997470, "lat": 47.2694366, "lon": -122.2285122}, {"type": "node", "id": 6120997471, "lat": 47.2692156, "lon": -122.228512}, {"type": "node", "id": 6120997475, "lat": 47.2688089, "lon": -122.2280582}, {"type": "node", "id": 6120997476, "lat": 47.2694368, "lon": -122.2280587}, {"type": "node", "id": 6121001274, "lat": 47.2711684, "lon": -122.2295434}, {"type": "node", "id": 6121001276, "lat": 47.271168, "lon": -122.2295949}, {"type": "node", "id": 6121001278, "lat": 47.271082, "lon": -122.2295947}, {"type": "node", "id": 6121001280, "lat": 47.2710863, "lon": -122.2293609}, {"type": "node", "id": 6121001282, "lat": 47.271151, "lon": -122.2293618}, {"type": "node", "id": 6121001284, "lat": 47.2711513, "lon": -122.2293329}, {"type": "node", "id": 6121001386, "lat": 47.2712426, "lon": -122.2293327}, {"type": "node", "id": 6121001388, "lat": 47.2712422, "lon": -122.2293635}, {"type": "node", "id": 6121001390, "lat": 47.2712842, "lon": -122.2293635}, {"type": "node", "id": 6121001392, "lat": 47.271283, "lon": -122.2295456}, {"type": "node", "id": 6121001406, "lat": 47.2717139, "lon": -122.2294243}, {"type": "node", "id": 6121001408, "lat": 47.2716283, "lon": -122.2294261}, {"type": "node", "id": 6121001410, "lat": 47.271629, "lon": -122.2294577}, {"type": "node", "id": 6121001412, "lat": 47.2715857, "lon": -122.2294592}, {"type": "node", "id": 6121001414, "lat": 47.2715848, "lon": -122.2294164}, {"type": "node", "id": 6121001416, "lat": 47.2715176, "lon": -122.2294182}, {"type": "node", "id": 6121001418, "lat": 47.2715172, "lon": -122.2293991}, {"type": "node", "id": 6121001420, "lat": 47.2714556, "lon": -122.2294009}, {"type": "node", "id": 6121001422, "lat": 47.2714546, "lon": -122.2293078}, {"type": "node", "id": 6121001424, "lat": 47.2715207, "lon": -122.229306}, {"type": "node", "id": 6121001426, "lat": 47.2715197, "lon": -122.2292315}, {"type": "node", "id": 6121001428, "lat": 47.2715767, "lon": -122.2292298}, {"type": "node", "id": 6121001430, "lat": 47.2715764, "lon": -122.2292141}, {"type": "node", "id": 6121001432, "lat": 47.2716219, "lon": -122.2292126}, {"type": "node", "id": 6121001434, "lat": 47.2716225, "lon": -122.22924}, {"type": "node", "id": 6121001714, "lat": 47.2686013, "lon": -122.2285252}, {"type": "node", "id": 6121001716, "lat": 47.2686013, "lon": -122.2285135}, {"type": "node", "id": 6121001718, "lat": 47.268433, "lon": -122.2285132}, {"type": "node", "id": 6121001720, "lat": 47.2684346, "lon": -122.2283723}, {"type": "node", "id": 6121001722, "lat": 47.2686029, "lon": -122.2283689}, {"type": "node", "id": 6121001724, "lat": 47.268603, "lon": -122.2283265}, {"type": "node", "id": 6121001726, "lat": 47.2686947, "lon": -122.2283243}, {"type": "node", "id": 6121001728, "lat": 47.2686946, "lon": -122.2283115}, {"type": "node", "id": 6121001730, "lat": 47.268786, "lon": -122.2283136}, {"type": "node", "id": 6121001732, "lat": 47.2687842, "lon": -122.2285236}, {"type": "node", "id": 6121018874, "lat": 47.2705603, "lon": -122.2284468}, {"type": "node", "id": 6121018875, "lat": 47.2711259, "lon": -122.2284531}, {"type": "node", "id": 6121018876, "lat": 47.2705616, "lon": -122.2281835}, {"type": "node", "id": 6121018879, "lat": 47.2711273, "lon": -122.2281897}, {"type": "node", "id": 6121026435, "lat": 47.2733147, "lon": -122.2282696}, {"type": "node", "id": 6121026437, "lat": 47.2733119, "lon": -122.2285532}, {"type": "node", "id": 6121026439, "lat": 47.273422, "lon": -122.2285524}, {"type": "node", "id": 6121026443, "lat": 47.2729472, "lon": -122.2282607}, {"type": "node", "id": 6121026445, "lat": 47.2729461, "lon": -122.2283982}, {"type": "node", "id": 6121026447, "lat": 47.2729296, "lon": -122.2283985}, {"type": "node", "id": 6121026449, "lat": 47.2729298, "lon": -122.2284678}, {"type": "node", "id": 6121026467, "lat": 47.2721336, "lon": -122.228213}, {"type": "node", "id": 6121026469, "lat": 47.2721322, "lon": -122.2283927}, {"type": "node", "id": 6121026471, "lat": 47.2722996, "lon": -122.2283905}, {"type": "node", "id": 6121026483, "lat": 47.2729451, "lon": -122.2284675}, {"type": "node", "id": 6121026485, "lat": 47.2729441, "lon": -122.228604}, {"type": "node", "id": 6121026487, "lat": 47.2731088, "lon": -122.2286021}, {"type": "node", "id": 6121026491, "lat": 47.2721287, "lon": -122.2285675}, {"type": "node", "id": 6121026493, "lat": 47.2720985, "lon": -122.2286491}, {"type": "node", "id": 6121026495, "lat": 47.2721565, "lon": -122.2286936}, {"type": "node", "id": 6121028196, "lat": 47.2699963, "lon": -122.229413}, {"type": "node", "id": 6121028198, "lat": 47.2697732, "lon": -122.2294159}, {"type": "node", "id": 6121028208, "lat": 47.2697732, "lon": -122.2297975}, {"type": "node", "id": 6121028210, "lat": 47.2699988, "lon": -122.2297942}, {"type": "node", "id": 6121028254, "lat": 47.270137, "lon": -122.2281278}, {"type": "node", "id": 6121028256, "lat": 47.2698712, "lon": -122.2281317}, {"type": "node", "id": 6121028264, "lat": 47.2698733, "lon": -122.2284403}, {"type": "node", "id": 6121028266, "lat": 47.2701391, "lon": -122.2284364}, {"type": "node", "id": 6121030477, "lat": 47.2730739, "lon": -122.229405}, {"type": "node", "id": 6121030480, "lat": 47.2730739, "lon": -122.2295795}, {"type": "node", "id": 6121030505, "lat": 47.2729062, "lon": -122.229582}, {"type": "node", "id": 6309409486, "lat": 47.2723323, "lon": -122.2294838, "tags": {"addr:city": "Auburn", "addr:housenumber": "4025", "addr:postcode": "98002", "addr:state": "WA", "addr:street": "A Street Southeast", "addr:unit": "Suite 103", "amenity": "fast_food", "brand": "Domino's", "brand:wikidata": "Q839466", "cuisine": "pizza", "delivery": "yes", "drive_through": "no", "name": "Domino's", "opening_hours": "Su-Th 10:00-01:00; Fr-Sa 10:00-02:00", "phone": "+1-253-275-1266", "ref": "7023", "takeaway": "yes", "website": "https://pizza.dominos.com/washington/auburn/4025-a-street-se-suite-103"}}, {"type": "node", "id": 6309819738, "lat": 47.245769, "lon": -122.2075592}, {"type": "node", "id": 6309819739, "lat": 47.2455707, "lon": -122.2073759}, {"type": "node", "id": 6309819740, "lat": 47.2456417, "lon": -122.2072093}, {"type": "node", "id": 6309819741, "lat": 47.24584, "lon": -122.2073927}, {"type": "node", "id": 6309819742, "lat": 47.2457155, "lon": -122.2069794}, {"type": "node", "id": 6309819743, "lat": 47.2458822, "lon": -122.2071321}, {"type": "node", "id": 6309819744, "lat": 47.2459439, "lon": -122.2069858}, {"type": "node", "id": 6309819745, "lat": 47.2457773, "lon": -122.2068331}, {"type": "node", "id": 6309819746, "lat": 47.2456181, "lon": -122.2071246}, {"type": "node", "id": 6309819747, "lat": 47.2456916, "lon": -122.2069468}, {"type": "node", "id": 6309819748, "lat": 47.2456389, "lon": -122.2068995}, {"type": "node", "id": 6309819749, "lat": 47.2455654, "lon": -122.2070773}, {"type": "node", "id": 6309819777, "lat": 47.2439292, "lon": -122.2082493, "tags": {"addr:city": "Auburn", "addr:housenumber": "7096", "addr:postcode": "98092", "addr:state": "WA", "addr:street": "Lakeland Hills Way SE", "addr:unit": "Suite 101", "amenity": "restaurant", "cuisine": "burger;bar_and_grill", "name": "Stack 571 Burger & Whiskey Bar", "opening_hours": "Su-Th 11:00-22:00; Fr-Sa 11:00-23:00", "phone": "+1-253-397-4899", "website": "https://stack571.com/lake-tapps/"}}, {"type": "node", "id": 6311881723, "lat": 47.2656083, "lon": -122.2268818}, {"type": "node", "id": 6311881724, "lat": 47.2661892, "lon": -122.2261056}, {"type": "node", "id": 6311985754, "lat": 47.2622199, "lon": -122.2286958}, {"type": "node", "id": 6311985755, "lat": 47.2618698, "lon": -122.2286863}, {"type": "node", "id": 6311985756, "lat": 47.2617951, "lon": -122.2285478}, {"type": "node", "id": 6311985757, "lat": 47.2618067, "lon": -122.2282178}, {"type": "node", "id": 6311985758, "lat": 47.2619341, "lon": -122.2279637}, {"type": "node", "id": 6311985759, "lat": 47.262225, "lon": -122.2279504}, {"type": "node", "id": 6324402092, "lat": 47.2453479, "lon": -122.2071404}, {"type": "node", "id": 6433019669, "lat": 47.2440214, "lon": -122.2077031}, {"type": "node", "id": 6433019670, "lat": 47.2441072, "lon": -122.2077076}, {"type": "node", "id": 6515959990, "lat": 47.2693721, "lon": -122.2296791, "tags": {"amenity": "doctors", "healthcare": "doctor", "name": "Docere Integrated Medicine"}}, {"type": "node", "id": 6548837840, "lat": 47.2441962, "lon": -122.2081642}, {"type": "node", "id": 6548837841, "lat": 47.2441989, "lon": -122.2081768}, {"type": "node", "id": 6548837842, "lat": 47.2442107, "lon": -122.2083638}, {"type": "node", "id": 6548837843, "lat": 47.2442111, "lon": -122.2083532}, {"type": "node", "id": 6970257816, "lat": 47.275576, "lon": -122.2183606}, {"type": "node", "id": 7154936789, "lat": 47.2665916, "lon": -122.2244474}, {"type": "node", "id": 7154936790, "lat": 47.2666187, "lon": -122.2244989}, {"type": "node", "id": 7154936791, "lat": 47.2667677, "lon": -122.2243288}, {"type": "node", "id": 7154936792, "lat": 47.266742, "lon": -122.2242798}, {"type": "node", "id": 7154936793, "lat": 47.2667581, "lon": -122.2242615}, {"type": "node", "id": 7154936794, "lat": 47.2667863, "lon": -122.2242722}, {"type": "node", "id": 7154936795, "lat": 47.2669364, "lon": -122.2240509}, {"type": "node", "id": 7154936796, "lat": 47.2671219, "lon": -122.2238273}, {"type": "node", "id": 7154936797, "lat": 47.2670723, "lon": -122.2237381}, {"type": "node", "id": 7154936798, "lat": 47.2670315, "lon": -122.2237873}, {"type": "node", "id": 7154936799, "lat": 47.2669897, "lon": -122.223712}, {"type": "node", "id": 7154936800, "lat": 47.2670006, "lon": -122.2236989}, {"type": "node", "id": 7154936801, "lat": 47.2670337, "lon": -122.2237587}, {"type": "node", "id": 7154936802, "lat": 47.2673277, "lon": -122.2234045}, {"type": "node", "id": 7154936803, "lat": 47.267315, "lon": -122.2233589}, {"type": "node", "id": 7154936804, "lat": 47.2673168, "lon": -122.2233415}, {"type": "node", "id": 7154936805, "lat": 47.2672371, "lon": -122.2231938}, {"type": "node", "id": 7154936806, "lat": 47.2669306, "lon": -122.2235531}, {"type": "node", "id": 7154936807, "lat": 47.2669613, "lon": -122.22361}, {"type": "node", "id": 7154936808, "lat": 47.2669501, "lon": -122.2236231}, {"type": "node", "id": 7154936809, "lat": 47.2669355, "lon": -122.223615}, {"type": "node", "id": 7154936810, "lat": 47.2668931, "lon": -122.2235341}, {"type": "node", "id": 7154936811, "lat": 47.2669315, "lon": -122.2234905}, {"type": "node", "id": 7154936812, "lat": 47.266658, "lon": -122.2229686}, {"type": "node", "id": 7154936813, "lat": 47.266615, "lon": -122.2230176}, {"type": "node", "id": 7154936814, "lat": 47.266564, "lon": -122.2229204}, {"type": "node", "id": 7154936815, "lat": 47.2666032, "lon": -122.2228758}, {"type": "node", "id": 7154936816, "lat": 47.2666369, "lon": -122.2229401}, {"type": "node", "id": 7154936817, "lat": 47.2668669, "lon": -122.2226783}, {"type": "node", "id": 7154936818, "lat": 47.2668407, "lon": -122.2226284}, {"type": "node", "id": 7154936819, "lat": 47.2668417, "lon": -122.2226123}, {"type": "node", "id": 7154936820, "lat": 47.2668517, "lon": -122.222609}, {"type": "node", "id": 7154936821, "lat": 47.2669067, "lon": -122.2226355}, {"type": "node", "id": 7154936822, "lat": 47.2669299, "lon": -122.2226303}, {"type": "node", "id": 7154936823, "lat": 47.2669653, "lon": -122.2226066}, {"type": "node", "id": 7154936824, "lat": 47.2670071, "lon": -122.222554}, {"type": "node", "id": 7154936825, "lat": 47.2670341, "lon": -122.2224866}, {"type": "node", "id": 7154936826, "lat": 47.2670418, "lon": -122.2224449}, {"type": "node", "id": 7154936827, "lat": 47.2670418, "lon": -122.222389}, {"type": "node", "id": 7154936828, "lat": 47.2670296, "lon": -122.2223197}, {"type": "node", "id": 7154936829, "lat": 47.2670077, "lon": -122.2222666}, {"type": "node", "id": 7154936830, "lat": 47.2669556, "lon": -122.2222059}, {"type": "node", "id": 7154936831, "lat": 47.2669241, "lon": -122.2221893}, {"type": "node", "id": 7154936832, "lat": 47.2668147, "lon": -122.2222107}, {"type": "node", "id": 7154936833, "lat": 47.266777, "lon": -122.2222529}, {"type": "node", "id": 7154936834, "lat": 47.2667552, "lon": -122.2222965}, {"type": "node", "id": 7154936835, "lat": 47.2667391, "lon": -122.2223515}, {"type": "node", "id": 7154936836, "lat": 47.2663844, "lon": -122.2227639}, {"type": "node", "id": 7154936837, "lat": 47.2664389, "lon": -122.2228657}, {"type": "node", "id": 7154936838, "lat": 47.2664244, "lon": -122.2228825}, {"type": "node", "id": 7154936839, "lat": 47.2663901, "lon": -122.2228183}, {"type": "node", "id": 7154936840, "lat": 47.265978, "lon": -122.2232968}, {"type": "node", "id": 7154936841, "lat": 47.2660158, "lon": -122.2233674}, {"type": "node", "id": 7154936842, "lat": 47.2659636, "lon": -122.2234279}, {"type": "node", "id": 7154936843, "lat": 47.2661047, "lon": -122.223692}, {"type": "node", "id": 7154936844, "lat": 47.2661481, "lon": -122.2236417}, {"type": "node", "id": 7154936845, "lat": 47.2661532, "lon": -122.2236514}, {"type": "node", "id": 7154936846, "lat": 47.2661121, "lon": -122.2236987}, {"type": "node", "id": 7154936847, "lat": 47.2662195, "lon": -122.2239016}, {"type": "node", "id": 7154936848, "lat": 47.2662635, "lon": -122.2238511}, {"type": "node", "id": 7154936849, "lat": 47.2662718, "lon": -122.2238669}, {"type": "node", "id": 7154936850, "lat": 47.2662316, "lon": -122.2239129}, {"type": "node", "id": 7154936851, "lat": 47.2663561, "lon": -122.2241493}, {"type": "node", "id": 7154936852, "lat": 47.266397, "lon": -122.2241025}, {"type": "node", "id": 7154936853, "lat": 47.2664263, "lon": -122.2241582}, {"type": "node", "id": 7154936854, "lat": 47.2663857, "lon": -122.2242046}, {"type": "node", "id": 7154936855, "lat": 47.2665427, "lon": -122.2245032}, {"type": "node", "id": 7154936856, "lat": 47.2677437, "lon": -122.2218865}, {"type": "node", "id": 7154936857, "lat": 47.2678257, "lon": -122.2218198}, {"type": "node", "id": 7154936858, "lat": 47.2677685, "lon": -122.221574}, {"type": "node", "id": 7154936859, "lat": 47.267708, "lon": -122.2215114}, {"type": "node", "id": 7154936860, "lat": 47.267656, "lon": -122.2215142}, {"type": "node", "id": 7154936861, "lat": 47.2674563, "lon": -122.2216428}, {"type": "node", "id": 7154936862, "lat": 47.2673828, "lon": -122.2217342}, {"type": "node", "id": 7154936863, "lat": 47.2673572, "lon": -122.2218249}, {"type": "node", "id": 7154936864, "lat": 47.267374, "lon": -122.2219073}, {"type": "node", "id": 7154936865, "lat": 47.2674727, "lon": -122.2220933}, {"type": "node", "id": 7154936866, "lat": 47.2675535, "lon": -122.2220327}, {"type": "node", "id": 7154936867, "lat": 47.2675355, "lon": -122.2219628}, {"type": "node", "id": 7154936868, "lat": 47.2677184, "lon": -122.2218267}, {"type": "node", "id": 7154936869, "lat": 47.2682426, "lon": -122.2213238}, {"type": "node", "id": 7154936870, "lat": 47.268267, "lon": -122.2213733}, {"type": "node", "id": 7154936871, "lat": 47.2682908, "lon": -122.221386}, {"type": "node", "id": 7154936872, "lat": 47.2683103, "lon": -122.2214163}, {"type": "node", "id": 7154936873, "lat": 47.2683438, "lon": -122.2214395}, {"type": "node", "id": 7154936874, "lat": 47.2683839, "lon": -122.2214339}, {"type": "node", "id": 7154936875, "lat": 47.2684255, "lon": -122.2214084}, {"type": "node", "id": 7154936876, "lat": 47.2684591, "lon": -122.2213573}, {"type": "node", "id": 7154936877, "lat": 47.2684899, "lon": -122.2213366}, {"type": "node", "id": 7154936878, "lat": 47.2685083, "lon": -122.2214108}, {"type": "node", "id": 7154936879, "lat": 47.2687567, "lon": -122.2212903}, {"type": "node", "id": 7154936880, "lat": 47.2687432, "lon": -122.2212202}, {"type": "node", "id": 7154936881, "lat": 47.2687913, "lon": -122.221201}, {"type": "node", "id": 7154936882, "lat": 47.2688011, "lon": -122.2212951}, {"type": "node", "id": 7154936883, "lat": 47.2687545, "lon": -122.2213206}, {"type": "node", "id": 7154936884, "lat": 47.268859, "lon": -122.2217879}, {"type": "node", "id": 7154938985, "lat": 47.2689044, "lon": -122.2217776}, {"type": "node", "id": 7154938986, "lat": 47.2689656, "lon": -122.2217289}, {"type": "node", "id": 7154938987, "lat": 47.2689526, "lon": -122.2216779}, {"type": "node", "id": 7154938988, "lat": 47.2690024, "lon": -122.221638}, {"type": "node", "id": 7154938989, "lat": 47.2689258, "lon": -122.2213022}, {"type": "node", "id": 7154938990, "lat": 47.2690045, "lon": -122.2211859}, {"type": "node", "id": 7154938991, "lat": 47.2691295, "lon": -122.2211237}, {"type": "node", "id": 7154938992, "lat": 47.2690159, "lon": -122.2205679}, {"type": "node", "id": 7154938993, "lat": 47.2689602, "lon": -122.2205958}, {"type": "node", "id": 7154938994, "lat": 47.2689412, "lon": -122.2205129}, {"type": "node", "id": 7154938995, "lat": 47.2687567, "lon": -122.2205942}, {"type": "node", "id": 7154938996, "lat": 47.2687675, "lon": -122.2206763}, {"type": "node", "id": 7154938997, "lat": 47.2687567, "lon": -122.2206779}, {"type": "node", "id": 7154938998, "lat": 47.2687248, "lon": -122.2205926}, {"type": "node", "id": 7154938999, "lat": 47.2686517, "lon": -122.2206468}, {"type": "node", "id": 7154939000, "lat": 47.2686923, "lon": -122.2207959}, {"type": "node", "id": 7154939001, "lat": 47.2684023, "lon": -122.2209387}, {"type": "node", "id": 7154939002, "lat": 47.2683557, "lon": -122.2209658}, {"type": "node", "id": 7154939003, "lat": 47.2683633, "lon": -122.22102}, {"type": "node", "id": 7154939004, "lat": 47.2683173, "lon": -122.2210439}, {"type": "node", "id": 7154939005, "lat": 47.2682865, "lon": -122.2210543}, {"type": "node", "id": 7154939006, "lat": 47.2682605, "lon": -122.221083}, {"type": "node", "id": 7154939007, "lat": 47.2682394, "lon": -122.2211141}, {"type": "node", "id": 7154939008, "lat": 47.2682237, "lon": -122.2211923}, {"type": "node", "id": 7154939009, "lat": 47.2682259, "lon": -122.2212632}, {"type": "node", "id": 7154939010, "lat": 47.2682313, "lon": -122.2212959}, {"type": "node", "id": 7154939011, "lat": 47.2677376, "lon": -122.2232768}, {"type": "node", "id": 7154939012, "lat": 47.2683588, "lon": -122.2227617}, {"type": "node", "id": 7154939013, "lat": 47.2683896, "lon": -122.2226485}, {"type": "node", "id": 7154939014, "lat": 47.2682284, "lon": -122.2227362}, {"type": "node", "id": 7154939015, "lat": 47.2679778, "lon": -122.2229188}, {"type": "node", "id": 7154939016, "lat": 47.2677549, "lon": -122.2231524}, {"type": "node", "id": 7259090015, "lat": 47.2565086, "lon": -122.2185194, "tags": {"amenity": "post_box"}}, {"type": "node", "id": 7261742582, "lat": 47.2559578, "lon": -122.2189772, "tags": {"amenity": "post_box"}}, {"type": "node", "id": 7261745140, "lat": 47.2569688, "lon": -122.2177254, "tags": {"amenity": "post_box"}}, {"type": "node", "id": 7261745141, "lat": 47.2580613, "lon": -122.2190606, "tags": {"amenity": "post_box"}}, {"type": "node", "id": 7261745142, "lat": 47.2580604, "lon": -122.2190482, "tags": {"amenity": "post_box"}}, {"type": "node", "id": 7290003928, "lat": 47.2562377, "lon": -122.2213102, "tags": {"amenity": "post_box"}}, {"type": "node", "id": 7564198121, "lat": 47.2445342, "lon": -122.2081478}, {"type": "node", "id": 7564198122, "lat": 47.2445696, "lon": -122.2080639}, {"type": "node", "id": 7564198123, "lat": 47.2445512, "lon": -122.2080479}, {"type": "node", "id": 7564198124, "lat": 47.2445596, "lon": -122.2080275}, {"type": "node", "id": 7564198125, "lat": 47.2445124, "lon": -122.2079863}, {"type": "node", "id": 7564198126, "lat": 47.244504, "lon": -122.2080084}, {"type": "node", "id": 7564198127, "lat": 47.2443963, "lon": -122.2082349}, {"type": "node", "id": 7564198128, "lat": 47.2443855, "lon": -122.2082588}, {"type": "node", "id": 7564198129, "lat": 47.2444427, "lon": -122.2083082}, {"type": "node", "id": 7564198130, "lat": 47.2444561, "lon": -122.2082775}, {"type": "node", "id": 8113815405, "lat": 47.243464, "lon": -122.2079297}, {"type": "node", "id": 8113815406, "lat": 47.2436532, "lon": -122.2079373}, {"type": "node", "id": 8113815407, "lat": 47.2434604, "lon": -122.2083481}, {"type": "node", "id": 8113815408, "lat": 47.2436592, "lon": -122.2073696}, {"type": "node", "id": 8113815409, "lat": 47.2438519, "lon": -122.2073738}, {"type": "node", "id": 8113815410, "lat": 47.2438497, "lon": -122.2076318}, {"type": "node", "id": 8113815411, "lat": 47.2440217, "lon": -122.2076392}, {"type": "node", "id": 8113815412, "lat": 47.2441083, "lon": -122.2076457}, {"type": "node", "id": 8113815413, "lat": 47.2443606, "lon": -122.2076573}, {"type": "node", "id": 8113815414, "lat": 47.2443324, "lon": -122.2081434}, {"type": "node", "id": 8113815415, "lat": 47.2436602, "lon": -122.2081359}, {"type": "node", "id": 8113815416, "lat": 47.243658, "lon": -122.2083576}, {"type": "node", "id": 8113817627, "lat": 47.2452059, "lon": -122.207483}, {"type": "node", "id": 8113817628, "lat": 47.2450142, "lon": -122.2073007}, {"type": "node", "id": 8113817629, "lat": 47.2445663, "lon": -122.2072623}, {"type": "node", "id": 8113817630, "lat": 47.2445619, "lon": -122.2073273}, {"type": "node", "id": 8113817631, "lat": 47.2444946, "lon": -122.2073177}, {"type": "node", "id": 8113817632, "lat": 47.2444657, "lon": -122.2077505}, {"type": "node", "id": 8113817633, "lat": 47.244855, "lon": -122.2077889}, {"type": "node", "id": 8113817634, "lat": 47.2449852, "lon": -122.2076258}, {"type": "node", "id": 8113817635, "lat": 47.2450272, "lon": -122.2075352}, {"type": "node", "id": 8113817636, "lat": 47.2451372, "lon": -122.2076332}, {"type": "node", "id": 8113817637, "lat": 47.2456514, "lon": -122.2076645}, {"type": "node", "id": 8113817638, "lat": 47.2455704, "lon": -122.2078531}, {"type": "node", "id": 8113817639, "lat": 47.2451902, "lon": -122.2075174}, {"type": "node", "id": 8113817640, "lat": 47.2455573, "lon": -122.2073479}, {"type": "node", "id": 8113817641, "lat": 47.2454908, "lon": -122.2075152}, {"type": "node", "id": 8113817642, "lat": 47.24449, "lon": -122.2083255}, {"type": "node", "id": 8113817643, "lat": 47.2446388, "lon": -122.2079668}, {"type": "node", "id": 8113817644, "lat": 47.2446401, "lon": -122.2079408}, {"type": "node", "id": 8113817645, "lat": 47.2445115, "lon": -122.2079338}, {"type": "node", "id": 8113817646, "lat": 47.2445102, "lon": -122.2078286}, {"type": "node", "id": 8113817647, "lat": 47.24482, "lon": -122.207854}, {"type": "node", "id": 8113817648, "lat": 47.2448135, "lon": -122.2079864}, {"type": "node", "id": 8113817649, "lat": 47.2447343, "lon": -122.2080416}, {"type": "node", "id": 8113817650, "lat": 47.2445777, "lon": -122.2084047}, {"type": "node", "id": 8113817651, "lat": 47.2447165, "lon": -122.2085578}, {"type": "node", "id": 8113817652, "lat": 47.2448176, "lon": -122.2083264}, {"type": "node", "id": 8113817653, "lat": 47.2451056, "lon": -122.2085955}, {"type": "node", "id": 8113817654, "lat": 47.2450861, "lon": -122.2086769}, {"type": "node", "id": 8113817655, "lat": 47.2451214, "lon": -122.2086998}, {"type": "node", "id": 8113817656, "lat": 47.2451635, "lon": -122.2086991}, {"type": "node", "id": 8113817657, "lat": 47.2451928, "lon": -122.2086769}, {"type": "node", "id": 8113817658, "lat": 47.2452199, "lon": -122.2086345}, {"type": "node", "id": 8113817659, "lat": 47.2451876, "lon": -122.2086015}, {"type": "node", "id": 8113817660, "lat": 47.2451837, "lon": -122.2085755}, {"type": "node", "id": 8113817661, "lat": 47.2453434, "lon": -122.2082022}, {"type": "node", "id": 8113817662, "lat": 47.2453821, "lon": -122.2081116}, {"type": "node", "id": 8113817663, "lat": 47.2451274, "lon": -122.2078727}, {"type": "node", "id": 8113817664, "lat": 47.2451842, "lon": -122.2077237}, {"type": "node", "id": 8113817665, "lat": 47.2455998, "lon": -122.2081072}, {"type": "node", "id": 8113817666, "lat": 47.2452711, "lon": -122.2088373}, {"type": "node", "id": 8113817667, "lat": 47.2450749, "lon": -122.208888}, {"type": "node", "id": 8113817670, "lat": 47.2439317, "lon": -122.2117225}, {"type": "node", "id": 8113817671, "lat": 47.2436145, "lon": -122.2114602}, {"type": "node", "id": 8113817672, "lat": 47.2435751, "lon": -122.2115672}, {"type": "node", "id": 8113817673, "lat": 47.2434308, "lon": -122.2115084}, {"type": "node", "id": 8113817674, "lat": 47.2433817, "lon": -122.2114602}, {"type": "node", "id": 8113817675, "lat": 47.2435106, "lon": -122.2110622}, {"type": "node", "id": 8113817676, "lat": 47.2440223, "lon": -122.2114858}, {"type": "node", "id": 8113817681, "lat": 47.2446713, "lon": -122.2094983}, {"type": "node", "id": 8113817682, "lat": 47.2439837, "lon": -122.2112754}, {"type": "node", "id": 8113817683, "lat": 47.2438035, "lon": -122.2113047}, {"type": "node", "id": 8113817684, "lat": 47.2434907, "lon": -122.2111237}, {"type": "node", "id": 8113817685, "lat": 47.2432087, "lon": -122.2109086}, {"type": "node", "id": 8113817686, "lat": 47.2430691, "lon": -122.2112721}, {"type": "node", "id": 8113817687, "lat": 47.2425531, "lon": -122.2108521}, {"type": "node", "id": 8113817688, "lat": 47.2425379, "lon": -122.2102883}, {"type": "node", "id": 8113817689, "lat": 47.2427623, "lon": -122.2104151}, {"type": "node", "id": 8113817690, "lat": 47.2430271, "lon": -122.2106293}, {"type": "node", "id": 8113817691, "lat": 47.2431711, "lon": -122.2102424}, {"type": "node", "id": 8113817692, "lat": 47.2432218, "lon": -122.2102797}, {"type": "node", "id": 8113817693, "lat": 47.2436067, "lon": -122.2092458}, {"type": "node", "id": 8113817694, "lat": 47.2435908, "lon": -122.2090475}, {"type": "node", "id": 8113817695, "lat": 47.2435279, "lon": -122.2090561}, {"type": "node", "id": 8113817696, "lat": 47.2435213, "lon": -122.2089751}, {"type": "node", "id": 8113817697, "lat": 47.2433108, "lon": -122.2089729}, {"type": "node", "id": 8113817698, "lat": 47.2429641, "lon": -122.2086805}, {"type": "node", "id": 8113817699, "lat": 47.2436479, "lon": -122.2086695}, {"type": "node", "id": 8113817700, "lat": 47.2436726, "lon": -122.2090934}, {"type": "node", "id": 8113817701, "lat": 47.2439736, "lon": -122.209022}, {"type": "node", "id": 8113817702, "lat": 47.2440778, "lon": -122.2090262}, {"type": "node", "id": 8113817703, "lat": 47.2444293, "lon": -122.2087593}, {"type": "node", "id": 8113817704, "lat": 47.2443658, "lon": -122.2091136}, {"type": "node", "id": 8113817705, "lat": 47.2446509, "lon": -122.2092991}, {"type": "node", "id": 8554890721, "lat": 47.2462136, "lon": -122.2086083}, {"type": "node", "id": 8554890722, "lat": 47.2462234, "lon": -122.2082066}, {"type": "node", "id": 8554890723, "lat": 47.2461493, "lon": -122.2082027}, {"type": "node", "id": 8554890724, "lat": 47.2461471, "lon": -122.2082922}, {"type": "node", "id": 8554890725, "lat": 47.2461038, "lon": -122.2082899}, {"type": "node", "id": 8554890726, "lat": 47.246097, "lon": -122.2085677}, {"type": "node", "id": 8554890727, "lat": 47.2461364, "lon": -122.2085697}, {"type": "node", "id": 10695803508, "lat": 47.271041, "lon": -122.220211, "tags": {"amenity": "bench", "armrest": "no", "backrest": "yes", "material": "metal"}}, {"type": "node", "id": 10695804306, "lat": 47.2734657, "lon": -122.2168955, "tags": {"amenity": "bench", "backrest": "yes"}}, {"type": "node", "id": 10695816605, "lat": 47.2733672, "lon": -122.2170396, "tags": {"amenity": "waste_basket"}}, {"type": "node", "id": 10695816606, "lat": 47.2723689, "lon": -122.2185986, "tags": {"amenity": "bench", "backrest": "yes"}}, {"type": "node", "id": 10695816608, "lat": 47.271191, "lon": -122.220235, "tags": {"amenity": "bench", "backrest": "yes"}}, {"type": "node", "id": 10695816609, "lat": 47.2708232, "lon": -122.2203896, "tags": {"amenity": "waste_basket"}}, {"type": "node", "id": 10695828005, "lat": 47.2698585, "lon": -122.2218935, "tags": {"amenity": "waste_basket"}}, {"type": "node", "id": 10695828006, "lat": 47.2687193, "lon": -122.2231506, "tags": {"amenity": "bench", "backrest": "yes"}}, {"type": "node", "id": 10695828105, "lat": 47.269896, "lon": -122.2219997, "tags": {"amenity": "bench", "backrest": "yes"}}, {"type": "node", "id": 10695831805, "lat": 47.2688031, "lon": -122.2230182, "tags": {"amenity": "bench", "backrest": "yes"}}, {"type": "node", "id": 10695831806, "lat": 47.2687001, "lon": -122.223193, "tags": {"amenity": "bench", "backrest": "yes"}}, {"type": "node", "id": 10695831807, "lat": 47.2687491, "lon": -122.2230866, "tags": {"amenity": "waste_basket"}}, {"type": "node", "id": 10977877576, "lat": 47.2439453, "lon": -122.2088076, "tags": {"beauty": "nails", "name": "8th Day Nails", "shop": "beauty"}}, {"type": "node", "id": 11011826323, "lat": 47.2714811, "lon": -122.2293071}, {"type": "node", "id": 11011826324, "lat": 47.2714812, "lon": -122.2294002}, {"type": "node", "id": 11039705567, "lat": 47.2460293, "lon": -122.2089443}, {"type": "node", "id": 11039705568, "lat": 47.245977, "lon": -122.2088945}, {"type": "node", "id": 11365718905, "lat": 47.2684456, "lon": -122.2216303, "tags": {"addr:city": "Auburn", "addr:housenumber": "501", "addr:postcode": "98092", "addr:street": "Oravetz Road Southeast", "amenity": "theatre", "name": "Auburn Riverside Theatre ART", "operator": "Auburn Riverside High School"}}, {"type": "node", "id": 11948214050, "lat": 47.245139, "lon": -122.2073033, "tags": {"amenity": "bank", "check_date": "2024-05-31", "name": "Red Canoe Credit Union", "opening_hours": "Mo-Fr 08:30-17:30; Sa 09:00-13:00"}}, {"type": "node", "id": 11948214052, "lat": 47.2449908, "lon": -122.2072441, "tags": {"amenity": "doctors", "check_date": "2024-05-31", "healthcare": "doctor", "internet_access": "wlan", "internet_access:fee": "customers", "name": "Proliance Orthopedic Associates", "opening_hours": "Mo-Fr 08:00-16:00", "payment:cash": "yes", "payment:credit_cards": "yes", "payment:debit_cards": "yes", "phone": "+1-253-246-2060", "website": "https://prolianceorthopedicassociates.com", "wheelchair": "yes"}}, {"type": "node", "id": 11948214054, "lat": 47.2451728, "lon": -122.2080798, "tags": {"addr:city": "Auburn", "addr:country": "US", "addr:housenumber": "1502", "addr:postcode": "98092", "addr:state": "WA", "addr:street": "Lake Tapps Parkway Southeast", "amenity": "pharmacy", "brand": "Walgreens", "brand:wikidata": "Q1591889", "check_date": "2024-05-31", "healthcare": "pharmacy", "name": "Walgreens"}}, {"type": "node", "id": 11948214055, "lat": 47.2439303, "lon": -122.2081419, "tags": {"amenity": "clinic", "check_date": "2024-05-31", "healthcare": "clinic", "name": "Indigo Urgent Care"}}, {"type": "node", "id": 11948214056, "lat": 47.2443268, "lon": -122.2076075, "tags": {"check_date": "2024-05-31", "name": "Pearson", "office": "company"}}, {"type": "node", "id": 11948214057, "lat": 47.2441943, "lon": -122.2076021, "tags": {"alt_name": "Edward Jones Investments", "brand": "Edward Jones", "brand:wikidata": "Q5343830", "check_date": "2024-05-31", "name": "Edward Jones", "office": "financial_advisor"}}, {"type": "node", "id": 11948214058, "lat": 47.2441295, "lon": -122.2076033, "tags": {"amenity": "dentist", "check_date": "2024-05-31", "healthcare": "dentist"}}, {"type": "node", "id": 12023213608, "lat": 47.2503176, "lon": -122.2132652, "tags": {"amenity": "bench"}}, {"type": "node", "id": 12023213609, "lat": 47.2503421, "lon": -122.2132475, "tags": {"amenity": "bench"}}, {"type": "node", "id": 12023213610, "lat": 47.2503666, "lon": -122.212936, "tags": {"amenity": "bench"}}, {"type": "node", "id": 12023213654, "lat": 47.2505695, "lon": -122.2190295}, {"type": "node", "id": 12023213655, "lat": 47.2505607, "lon": -122.2189544}, {"type": "node", "id": 12023213656, "lat": 47.2505869, "lon": -122.2189478}, {"type": "node", "id": 12023213657, "lat": 47.2505956, "lon": -122.2190229}, {"type": "node", "id": 12023213658, "lat": 47.2505957, "lon": -122.2190225}, {"type": "node", "id": 12023213659, "lat": 47.2505869, "lon": -122.2189474}, {"type": "node", "id": 12023213660, "lat": 47.2506131, "lon": -122.2189408}, {"type": "node", "id": 12023213661, "lat": 47.2506218, "lon": -122.2190159}, {"type": "node", "id": 12023213662, "lat": 47.2506223, "lon": -122.2190164}, {"type": "node", "id": 12023213663, "lat": 47.2506135, "lon": -122.2189413}, {"type": "node", "id": 12023213664, "lat": 47.2506397, "lon": -122.2189347}, {"type": "node", "id": 12023213665, "lat": 47.2506484, "lon": -122.2190098}, {"type": "node", "id": 12023213666, "lat": 47.2506488, "lon": -122.2190105}, {"type": "node", "id": 12023213667, "lat": 47.25064, "lon": -122.2189355}, {"type": "node", "id": 12023213668, "lat": 47.2506662, "lon": -122.2189288}, {"type": "node", "id": 12023213669, "lat": 47.2506749, "lon": -122.2190039}, {"type": "node", "id": 12023213670, "lat": 47.2509165, "lon": -122.2189697}, {"type": "node", "id": 12023213671, "lat": 47.2509131, "lon": -122.2188937}, {"type": "node", "id": 12023213672, "lat": 47.2509396, "lon": -122.2188911}, {"type": "node", "id": 12023213673, "lat": 47.250943, "lon": -122.2189672}, {"type": "node", "id": 12023213674, "lat": 47.2508901, "lon": -122.2189728}, {"type": "node", "id": 12023213675, "lat": 47.2508868, "lon": -122.2188968}, {"type": "node", "id": 12023213676, "lat": 47.2509133, "lon": -122.2188942}, {"type": "node", "id": 12023213677, "lat": 47.2509166, "lon": -122.2189702}, {"type": "node", "id": 12023213678, "lat": 47.2508638, "lon": -122.2189746}, {"type": "node", "id": 12023213679, "lat": 47.2508604, "lon": -122.2188986}, {"type": "node", "id": 12023213680, "lat": 47.2508869, "lon": -122.2188961}, {"type": "node", "id": 12023213681, "lat": 47.2508903, "lon": -122.2189721}, {"type": "node", "id": 12023213682, "lat": 47.2508383, "lon": -122.2189777}, {"type": "node", "id": 12023213683, "lat": 47.2508349, "lon": -122.2189017}, {"type": "node", "id": 12023213684, "lat": 47.2508614, "lon": -122.2188992}, {"type": "node", "id": 12023213685, "lat": 47.2508648, "lon": -122.2189752}, {"type": "node", "id": 12023213686, "lat": 47.2508128, "lon": -122.2189808}, {"type": "node", "id": 12023213687, "lat": 47.2508094, "lon": -122.2189048}, {"type": "node", "id": 12023213688, "lat": 47.2508359, "lon": -122.2189022}, {"type": "node", "id": 12023213689, "lat": 47.2508393, "lon": -122.2189783}, {"type": "node", "id": 12023213690, "lat": 47.2507873, "lon": -122.2189833}, {"type": "node", "id": 12023213691, "lat": 47.2507839, "lon": -122.2189073}, {"type": "node", "id": 12023213692, "lat": 47.2508104, "lon": -122.2189047}, {"type": "node", "id": 12023213693, "lat": 47.2508137, "lon": -122.2189807}, {"type": "node", "id": 12023213694, "lat": 47.2507613, "lon": -122.218987}, {"type": "node", "id": 12023213695, "lat": 47.2507579, "lon": -122.218911}, {"type": "node", "id": 12023213696, "lat": 47.2507844, "lon": -122.2189084}, {"type": "node", "id": 12023213697, "lat": 47.2507878, "lon": -122.2189844}, {"type": "node", "id": 12023213698, "lat": 47.2507354, "lon": -122.2189901}, {"type": "node", "id": 12023213699, "lat": 47.250732, "lon": -122.218914}, {"type": "node", "id": 12023213700, "lat": 47.2507585, "lon": -122.2189115}, {"type": "node", "id": 12023213701, "lat": 47.2507619, "lon": -122.2189875}, {"type": "node", "id": 12023213765, "lat": 47.250671, "lon": -122.2186633, "tags": {"amenity": "bench"}}, {"type": "node", "id": 12023213766, "lat": 47.2505951, "lon": -122.2187011, "tags": {"amenity": "bench"}}, {"type": "node", "id": 12023213767, "lat": 47.2505562, "lon": -122.2187003, "tags": {"amenity": "bench"}}, {"type": "node", "id": 12023213982, "lat": 47.2533249, "lon": -122.2105462}, {"type": "node", "id": 12023213983, "lat": 47.2533314, "lon": -122.2105131}, {"type": "node", "id": 12023213984, "lat": 47.2532861, "lon": -122.2104938}, {"type": "node", "id": 12023213985, "lat": 47.2532796, "lon": -122.210527}, {"type": "node", "id": 12023213986, "lat": 47.2533179, "lon": -122.2105797}, {"type": "node", "id": 12023213987, "lat": 47.2533243, "lon": -122.2105466}, {"type": "node", "id": 12023213988, "lat": 47.2532791, "lon": -122.2105273}, {"type": "node", "id": 12023213989, "lat": 47.2532726, "lon": -122.2105605}, {"type": "node", "id": 12023213990, "lat": 47.2533112, "lon": -122.2106135}, {"type": "node", "id": 12023213991, "lat": 47.2533177, "lon": -122.2105803}, {"type": "node", "id": 12023213992, "lat": 47.2532725, "lon": -122.2105611}, {"type": "node", "id": 12023213993, "lat": 47.253266, "lon": -122.2105942}, {"type": "node", "id": 12023213994, "lat": 47.2533046, "lon": -122.2106468}, {"type": "node", "id": 12023213995, "lat": 47.2533111, "lon": -122.2106136}, {"type": "node", "id": 12023213996, "lat": 47.2532658, "lon": -122.2105944}, {"type": "node", "id": 12023213997, "lat": 47.2532594, "lon": -122.2106276}, {"type": "node", "id": 12023213998, "lat": 47.253298, "lon": -122.2106805}, {"type": "node", "id": 12023213999, "lat": 47.2533045, "lon": -122.2106474}, {"type": "node", "id": 12023214000, "lat": 47.2532592, "lon": -122.2106281}, {"type": "node", "id": 12023214001, "lat": 47.2532527, "lon": -122.2106613}, {"type": "node", "id": 12096730084, "lat": 47.2443947, "lon": -122.210291, "tags": {"amenity": "bicycle_parking", "bicycle_parking": "wave", "capacity": "9", "covered": "no", "fee": "no"}}, {"type": "node", "id": 12096730085, "lat": 47.2435858, "lon": -122.209265, "tags": {"amenity": "bicycle_parking", "bicycle_parking": "wave", "capacity": "11", "covered": "no", "fee": "no"}}, {"type": "node", "id": 12096730086, "lat": 47.244385, "lon": -122.2082369, "tags": {"amenity": "bicycle_parking", "bicycle_parking": "wave", "capacity": "3", "covered": "no", "fee": "no"}}, {"type": "node", "id": 12177613761, "lat": 47.2692018, "lon": -122.2227852, "tags": {"amenity": "hitching_post"}}, {"type": "node", "id": 12177613762, "lat": 47.2695518, "lon": -122.2219948}, {"type": "node", "id": 12177613763, "lat": 47.2698092, "lon": -122.2216441}, {"type": "node", "id": 12177613764, "lat": 47.2698233, "lon": -122.2216047}, {"type": "node", "id": 12177613765, "lat": 47.2698296, "lon": -122.2215496}, {"type": "node", "id": 12177613766, "lat": 47.2697859, "lon": -122.2212577}, {"type": "node", "id": 12177613767, "lat": 47.2697704, "lon": -122.22124}, {"type": "node", "id": 12177613768, "lat": 47.2697419, "lon": -122.2212445}, {"type": "node", "id": 12177613769, "lat": 47.2697006, "lon": -122.2212658}, {"type": "node", "id": 12177613770, "lat": 47.269335, "lon": -122.2217578}, {"type": "node", "id": 12177613771, "lat": 47.2693171, "lon": -122.2218156}, {"type": "node", "id": 12177613772, "lat": 47.2693171, "lon": -122.2218807}, {"type": "node", "id": 12177613773, "lat": 47.2693383, "lon": -122.2219594}, {"type": "node", "id": 12177613774, "lat": 47.2693749, "lon": -122.2219997}, {"type": "node", "id": 12177613775, "lat": 47.2694166, "lon": -122.222029}, {"type": "node", "id": 12177613776, "lat": 47.2694451, "lon": -122.22204}, {"type": "node", "id": 12177613777, "lat": 47.269498, "lon": -122.2220327}, {"type": "node", "id": 12177613778, "lat": 47.2695284, "lon": -122.2220208}, {"type": "node", "id": 12177661974, "lat": 47.2660356, "lon": -122.2277319}, {"type": "node", "id": 12177661975, "lat": 47.2662309, "lon": -122.2278627}, {"type": "node", "id": 12177661976, "lat": 47.2663197, "lon": -122.2274857}, {"type": "node", "id": 12177661977, "lat": 47.2665467, "lon": -122.2269268}, {"type": "node", "id": 12177661979, "lat": 47.2658948, "lon": -122.2269561}, {"type": "node", "id": 12177661980, "lat": 47.2658963, "lon": -122.227329}, {"type": "node", "id": 12177661981, "lat": 47.266106, "lon": -122.227477}, {"type": "node", "id": 12177661982, "lat": 47.2658855, "lon": -122.2274145}, {"type": "node", "id": 12177661983, "lat": 47.2659103, "lon": -122.227338}, {"type": "node", "id": 12177661984, "lat": 47.266084, "lon": -122.2274601}, {"type": "node", "id": 12177661985, "lat": 47.2660593, "lon": -122.2275365}, {"type": "node", "id": 12177661990, "lat": 47.2662635, "lon": -122.2277207}, {"type": "node", "id": 12177661993, "lat": 47.2662892, "lon": -122.2276098}, {"type": "node", "id": 12177662069, "lat": 47.2690564, "lon": -122.2225418, "tags": {"amenity": "waste_basket", "colour": "black", "covered": "yes", "material": "plastic", "waste": "trash"}}, {"type": "node", "id": 12177662070, "lat": 47.2690649, "lon": -122.2224151, "tags": {"amenity": "waste_basket", "colour": "black", "covered": "yes", "material": "plastic", "waste": "trash"}}, {"type": "node", "id": 12177662071, "lat": 47.2691543, "lon": -122.2224251, "tags": {"amenity": "waste_basket", "colour": "black", "covered": "yes", "material": "plastic", "waste": "trash"}}, {"type": "node", "id": 12177662072, "lat": 47.2691458, "lon": -122.2225519, "tags": {"amenity": "waste_basket", "colour": "black", "covered": "yes", "material": "plastic", "waste": "trash"}}, {"type": "node", "id": 12177662073, "lat": 47.2691245, "lon": -122.2224138, "tags": {"access": "yes", "amenity": "bbq", "covered": "no"}}, {"type": "node", "id": 12177662074, "lat": 47.269105, "lon": -122.2224101, "tags": {"access": "yes", "amenity": "bbq", "covered": "no"}}, {"type": "node", "id": 12177662126, "lat": 47.2690865, "lon": -122.2224224}, {"type": "node", "id": 12270329549, "lat": 47.2457859, "lon": -122.2129253, "tags": {"access": "yes", "amenity": "bbq"}}, {"type": "node", "id": 12270329550, "lat": 47.2456593, "lon": -122.2129853, "tags": {"access": "yes", "amenity": "bbq"}}, {"type": "node", "id": 12270329551, "lat": 47.2456303, "lon": -122.212964, "tags": {"access": "yes", "amenity": "bbq"}}, {"type": "node", "id": 12270329552, "lat": 47.2453162, "lon": -122.2129844, "tags": {"amenity": "vending_machine", "bin": "yes", "check_date": "2024-10-19", "fee": "no", "vending": "excrement_bags"}}, {"type": "node", "id": 12270329553, "lat": 47.2452733, "lon": -122.2129806, "tags": {"amenity": "public_bookcase", "brand": "Little Free Library", "brand:wikidata": "Q6650101", "name": "Little Free Library"}}, {"type": "node", "id": 12270329555, "lat": 47.2455406, "lon": -122.2117542, "tags": {"access": "yes", "amenity": "bicycle_parking", "bicycle_parking": "wave", "fee": "no"}}, {"type": "node", "id": 12270329556, "lat": 47.2455559, "lon": -122.2116936, "tags": {"access": "yes", "amenity": "bicycle_parking", "bicycle_parking": "wave", "fee": "no"}}, {"type": "node", "id": 12270329571, "lat": 47.2457689, "lon": -122.2128865, "tags": {"access": "yes", "amenity": "bbq"}}, {"type": "node", "id": 12270329594, "lat": 47.2561824, "lon": -122.2157382, "tags": {"amenity": "bench"}}, {"type": "node", "id": 12270329595, "lat": 47.2561675, "lon": -122.2155919, "tags": {"amenity": "vending_machine", "bin": "yes", "check_date": "2024-10-19", "fee": "no", "vending": "excrement_bags"}}, {"type": "node", "id": 12270329597, "lat": 47.255364, "lon": -122.2138346, "tags": {"amenity": "vending_machine", "bin": "no", "check_date": "2024-10-19", "fee": "no", "vending": "excrement_bags"}}, {"type": "node", "id": 12270336703, "lat": 47.2537918, "lon": -122.2133162, "tags": {"amenity": "bench"}}, {"type": "node", "id": 12270336704, "lat": 47.2537504, "lon": -122.2132979, "tags": {"amenity": "bench"}}, {"type": "node", "id": 12270336705, "lat": 47.2537678, "lon": -122.2133125, "tags": {"amenity": "waste_basket"}}, {"type": "node", "id": 12270336706, "lat": 47.2527622, "lon": -122.2128781, "tags": {"amenity": "bench"}}, {"type": "node", "id": 12270336707, "lat": 47.2527269, "lon": -122.2128591, "tags": {"amenity": "bench"}}, {"type": "node", "id": 12270336708, "lat": 47.2527448, "lon": -122.2128932, "tags": {"amenity": "waste_basket"}}, {"type": "node", "id": 12270336709, "lat": 47.2507256, "lon": -122.2119889, "tags": {"amenity": "bench"}}, {"type": "node", "id": 12270336710, "lat": 47.2506634, "lon": -122.2119832, "tags": {"amenity": "bench"}}, {"type": "node", "id": 12270336711, "lat": 47.2506899, "lon": -122.2120002, "tags": {"amenity": "vending_machine", "check_date": "2024-10-19", "vending": "excrement_bags"}}, {"type": "node", "id": 12270336712, "lat": 47.2481173, "lon": -122.212159, "tags": {"amenity": "public_bookcase", "brand": "Little Free Library", "brand:wikidata": "Q6650101", "name": "Little Free Library"}}, {"type": "node", "id": 12270336713, "lat": 47.2474303, "lon": -122.2111984, "tags": {"amenity": "bench"}}, {"type": "node", "id": 12270336714, "lat": 47.2473862, "lon": -122.2111811, "tags": {"amenity": "bench"}}, {"type": "node", "id": 12270336715, "lat": 47.247405, "lon": -122.2111981, "tags": {"amenity": "waste_basket"}}, {"type": "node", "id": 12270336716, "lat": 47.2466165, "lon": -122.21066, "tags": {"amenity": "bench"}}, {"type": "node", "id": 12270336717, "lat": 47.256372, "lon": -122.2158552, "tags": {"amenity": "bench"}}, {"type": "node", "id": 12594198006, "lat": 47.2682909, "lon": -122.219238, "tags": {"amenity": "fountain", "drinking_water": "no", "fountain": "decorative"}}, {"type": "node", "id": 12639840539, "lat": 47.265288, "lon": -122.227379}, {"type": "node", "id": 12639840540, "lat": 47.2651314, "lon": -122.2273816}, {"type": "node", "id": 12639840541, "lat": 47.2651398, "lon": -122.2284936}, {"type": "node", "id": 12639840542, "lat": 47.2651872, "lon": -122.2284928}, {"type": "node", "id": 12639840543, "lat": 47.2652955, "lon": -122.2286831}, {"type": "node", "id": 12639840544, "lat": 47.2654481, "lon": -122.2285197}, {"type": "node", "id": 12639840545, "lat": 47.2654137, "lon": -122.2284627}, {"type": "node", "id": 12639840546, "lat": 47.26541, "lon": -122.2280002}, {"type": "node", "id": 12639840547, "lat": 47.2653073, "lon": -122.228002}, {"type": "node", "id": 12639840548, "lat": 47.2653053, "lon": -122.2277528}, {"type": "node", "id": 12639840549, "lat": 47.2654012, "lon": -122.2277511}, {"type": "node", "id": 12639840550, "lat": 47.2653995, "lon": -122.2275385}, {"type": "node", "id": 12639840551, "lat": 47.2652893, "lon": -122.2275404}, {"type": "node", "id": 12639840552, "lat": 47.2653816, "lon": -122.2286202}, {"type": "node", "id": 12639840553, "lat": 47.2653365, "lon": -122.2286631}, {"type": "node", "id": 12639840554, "lat": 47.2654217, "lon": -122.2285699}, {"type": "node", "id": 12639840559, "lat": 47.2646656, "lon": -122.229483}, {"type": "node", "id": 12639840560, "lat": 47.2646683, "lon": -122.2290972}, {"type": "node", "id": 12639840561, "lat": 47.2644992, "lon": -122.2290945}, {"type": "node", "id": 12639840562, "lat": 47.2644964, "lon": -122.2294803}, {"type": "node", "id": 12639840564, "lat": 47.2645787, "lon": -122.2288309}, {"type": "node", "id": 12639840565, "lat": 47.2645455, "lon": -122.228726}, {"type": "node", "id": 12639840566, "lat": 47.2645433, "lon": -122.2286606}, {"type": "node", "id": 12639840567, "lat": 47.2645744, "lon": -122.2285406}, {"type": "node", "id": 12639840568, "lat": 47.2646455, "lon": -122.2284612}, {"type": "node", "id": 12639840572, "lat": 47.2645269, "lon": -122.2256867}, {"type": "node", "id": 12639840573, "lat": 47.264113, "lon": -122.2256943}, {"type": "node", "id": 12639840574, "lat": 47.2640645, "lon": -122.2264937}, {"type": "node", "id": 12639840575, "lat": 47.2640719, "lon": -122.2264937}, {"type": "node", "id": 12639840576, "lat": 47.264072, "lon": -122.2267825}, {"type": "node", "id": 12639840577, "lat": 47.2642701, "lon": -122.2267804}, {"type": "node", "id": 12639840578, "lat": 47.2642707, "lon": -122.2268675}, {"type": "node", "id": 12639840579, "lat": 47.2644372, "lon": -122.2268685}, {"type": "node", "id": 12639840580, "lat": 47.2644383, "lon": -122.2264836}, {"type": "node", "id": 12639840581, "lat": 47.2644748, "lon": -122.2264845}, {"type": "node", "id": 12641959555, "lat": 47.2541848, "lon": -122.2166406}, {"type": "node", "id": 12641959556, "lat": 47.2544935, "lon": -122.2162172}, {"type": "node", "id": 12641959557, "lat": 47.2544134, "lon": -122.2160905}, {"type": "node", "id": 12641959558, "lat": 47.2541048, "lon": -122.2165139}, {"type": "node", "id": 12641959559, "lat": 47.2537395, "lon": -122.216546}, {"type": "node", "id": 12641959560, "lat": 47.2533425, "lon": -122.2159787}, {"type": "node", "id": 12641959561, "lat": 47.2532049, "lon": -122.2161877}, {"type": "node", "id": 12641959562, "lat": 47.2531832, "lon": -122.216431}, {"type": "node", "id": 12641959563, "lat": 47.2535088, "lon": -122.2168964}, {"type": "node", "id": 12641959564, "lat": 47.2561483, "lon": -122.2155586}, {"type": "node", "id": 12641959565, "lat": 47.2560496, "lon": -122.2157615}, {"type": "node", "id": 12641959566, "lat": 47.2557701, "lon": -122.2154666}, {"type": "node", "id": 12641959567, "lat": 47.2558688, "lon": -122.2152636}, {"type": "node", "id": 12641959568, "lat": 47.2557624, "lon": -122.2152206}, {"type": "node", "id": 12641959569, "lat": 47.2558463, "lon": -122.2150503}, {"type": "node", "id": 12641959570, "lat": 47.2557216, "lon": -122.214917}, {"type": "node", "id": 12641959571, "lat": 47.2556377, "lon": -122.2150873}, {"type": "node", "id": 12641959573, "lat": 47.2459048, "lon": -122.2082674}, {"type": "node", "id": 12641959574, "lat": 47.2461178, "lon": -122.2077716}, {"type": "node", "id": 12641959575, "lat": 47.2462087, "lon": -122.2078564}, {"type": "node", "id": 12641959576, "lat": 47.2461572, "lon": -122.2079761}, {"type": "node", "id": 12641959577, "lat": 47.2462012, "lon": -122.2080172}, {"type": "node", "id": 12641959578, "lat": 47.2460396, "lon": -122.2083931}, {"type": "node", "id": 12641959595, "lat": 47.2457755, "lon": -122.208648}, {"type": "node", "id": 12641959596, "lat": 47.2456041, "lon": -122.2090509}, {"type": "node", "id": 12641959597, "lat": 47.2456574, "lon": -122.2094304}, {"type": "node", "id": 12641959598, "lat": 47.2458996, "lon": -122.2096538}, {"type": "node", "id": 12641959599, "lat": 47.2461078, "lon": -122.209164}, {"type": "node", "id": 12641959600, "lat": 47.246, "lon": -122.2090646}, {"type": "node", "id": 12641987901, "lat": 47.2458804, "lon": -122.2093461}, {"type": "node", "id": 12641987902, "lat": 47.2456974, "lon": -122.2091773}, {"type": "node", "id": 12641987903, "lat": 47.245881, "lon": -122.2087454}, {"type": "node", "id": 12711034309, "lat": 47.2696109, "lon": -122.2222598, "tags": {"amenity": "vending_machine", "bin": "no", "check_date": "2025-03-28", "fee": "no", "vending": "excrement_bags"}}, {"type": "node", "id": 12711034310, "lat": 47.2703613, "lon": -122.2212341, "tags": {"access": "yes", "amenity": "bbq", "covered": "no"}}, {"type": "node", "id": 12711034311, "lat": 47.2703179, "lon": -122.2208674, "tags": {"access": "yes", "amenity": "bbq", "covered": "no"}}, {"type": "node", "id": 12711034314, "lat": 47.2712778, "lon": -122.2197311, "tags": {"amenity": "vending_machine", "bin": "yes", "check_date": "2025-03-28", "fee": "no", "vending": "excrement_bags"}}, {"type": "node", "id": 12711034315, "lat": 47.2713463, "lon": -122.2196725, "tags": {"amenity": "vending_machine", "bin": "yes", "check_date": "2025-03-28", "fee": "no", "vending": "excrement_bags"}}, {"type": "node", "id": 12734465580, "lat": 47.2749501, "lon": -122.2182468}, {"type": "node", "id": 12734465581, "lat": 47.2748993, "lon": -122.2182458}, {"type": "node", "id": 12734465582, "lat": 47.2749, "lon": -122.2181725}, {"type": "node", "id": 12734465583, "lat": 47.2741787, "lon": -122.2181578}, {"type": "node", "id": 12734465584, "lat": 47.2738051, "lon": -122.2188836}, {"type": "node", "id": 12734465585, "lat": 47.2738053, "lon": -122.2191765}, {"type": "node", "id": 12734465586, "lat": 47.2739156, "lon": -122.2191764}, {"type": "node", "id": 12734465587, "lat": 47.273925, "lon": -122.2190741}, {"type": "node", "id": 12734465588, "lat": 47.2748057, "lon": -122.2190529}, {"type": "node", "id": 12734465589, "lat": 47.2748487, "lon": -122.2189916}, {"type": "node", "id": 12734465590, "lat": 47.2749453, "lon": -122.2187537}, {"type": "node", "id": 12734465591, "lat": 47.273914, "lon": -122.2191039}, {"type": "node", "id": 12734465592, "lat": 47.2739474, "lon": -122.2190556}, {"type": "node", "id": 12734465593, "lat": 47.273918, "lon": -122.2190873}, {"type": "node", "id": 12734465594, "lat": 47.2739348, "lon": -122.2190624}, {"type": "node", "id": 12734465595, "lat": 47.2748297, "lon": -122.2190347}, {"type": "node", "id": 12734465596, "lat": 47.2748192, "lon": -122.2190449}, {"type": "node", "id": 12734465597, "lat": 47.2748385, "lon": -122.2190176}, {"type": "node", "id": 12734465598, "lat": 47.2750546, "lon": -122.2212909}, {"type": "node", "id": 12734465599, "lat": 47.2750548, "lon": -122.2212114}, {"type": "node", "id": 12734465600, "lat": 47.2750679, "lon": -122.2212115}, {"type": "node", "id": 12734475101, "lat": 47.2750683, "lon": -122.2210393}, {"type": "node", "id": 12734475102, "lat": 47.2741856, "lon": -122.2210342}, {"type": "node", "id": 12734475103, "lat": 47.2741854, "lon": -122.2211153}, {"type": "node", "id": 12734475104, "lat": 47.2741333, "lon": -122.2212501}, {"type": "node", "id": 12734475105, "lat": 47.2741762, "lon": -122.2212861}, {"type": "node", "id": 12734475106, "lat": 47.2753741, "lon": -122.2205142}, {"type": "node", "id": 12734475107, "lat": 47.2753726, "lon": -122.2200023}, {"type": "node", "id": 12734475108, "lat": 47.2752069, "lon": -122.2200034}, {"type": "node", "id": 12734475109, "lat": 47.2752084, "lon": -122.2205152}, {"type": "node", "id": 12734475110, "lat": 47.2783375, "lon": -122.2172992}, {"type": "node", "id": 12734475111, "lat": 47.2783418, "lon": -122.2166882}, {"type": "node", "id": 12734475112, "lat": 47.278292, "lon": -122.2166802}, {"type": "node", "id": 12734475113, "lat": 47.2782884, "lon": -122.2166529}, {"type": "node", "id": 12734475114, "lat": 47.2778242, "lon": -122.2166461}, {"type": "node", "id": 12734475115, "lat": 47.2778248, "lon": -122.2165627}, {"type": "node", "id": 12734475116, "lat": 47.2776991, "lon": -122.2165609}, {"type": "node", "id": 12734475117, "lat": 47.2776968, "lon": -122.216639}, {"type": "node", "id": 12734475118, "lat": 47.2776624, "lon": -122.2167003}, {"type": "node", "id": 12734475119, "lat": 47.2776204, "lon": -122.2166997}, {"type": "node", "id": 12734475120, "lat": 47.2776183, "lon": -122.216995}, {"type": "node", "id": 12734475121, "lat": 47.2776648, "lon": -122.2169957}, {"type": "node", "id": 12734475122, "lat": 47.2776627, "lon": -122.2172889}, {"type": "node", "id": 12734475123, "lat": 47.277673, "lon": -122.2166558}, {"type": "node", "id": 12734475124, "lat": 47.2776666, "lon": -122.2166856}, {"type": "node", "id": 12734475125, "lat": 47.2776655, "lon": -122.2166977}, {"type": "node", "id": 12734475126, "lat": 47.2776684, "lon": -122.2166703}, {"type": "node", "id": 12734475127, "lat": 47.2776986, "lon": -122.2166355}, {"type": "node", "id": 12734475128, "lat": 47.2776884, "lon": -122.2166436}, {"type": "node", "id": 12734475129, "lat": 47.2776799, "lon": -122.2166479}, {"type": "node", "id": 12734475130, "lat": 47.2782911, "lon": -122.2166717}, {"type": "node", "id": 12734475131, "lat": 47.278302, "lon": -122.216686}, {"type": "node", "id": 12734475132, "lat": 47.278291, "lon": -122.2166604}, {"type": "node", "id": 12734475133, "lat": 47.2782835, "lon": -122.2166484}, {"type": "node", "id": 12734475134, "lat": 47.2782965, "lon": -122.2166847}, {"type": "node", "id": 12861528501, "lat": 47.2710937, "lon": -122.2283288, "tags": {"addr:housenumber": "4220 #109", "addr:street": "A Street Southeast", "amenity": "car_rental", "name": "Enterprise", "opening_hours": "Mo-Fr 07:30-13:00, 14:00-17:00"}}, {"type": "node", "id": 13016416308, "lat": 47.2689274, "lon": -122.2194497, "tags": {"amenity": "bench", "armrest": "no", "backrest": "yes"}}, {"type": "node", "id": 13016416309, "lat": 47.268939, "lon": -122.2194221, "tags": {"amenity": "waste_basket"}}, {"type": "node", "id": 13016416311, "lat": 47.2686073, "lon": -122.2189579, "tags": {"amenity": "waste_basket"}}, {"type": "node", "id": 13016416313, "lat": 47.2681059, "lon": -122.2196171, "tags": {"amenity": "waste_basket"}}, {"type": "node", "id": 13016416317, "lat": 47.2678732, "lon": -122.2202393, "tags": {"amenity": "bench", "armrest": "no", "backrest": "no", "material": "concrete"}}, {"type": "node", "id": 13016416320, "lat": 47.2678384, "lon": -122.2208037, "tags": {"amenity": "waste_basket"}}, {"type": "node", "id": 13016416322, "lat": 47.2684814, "lon": -122.2197212, "tags": {"amenity": "bench", "armrest": "no", "backrest": "yes", "material": "wood"}}, {"type": "node", "id": 13016416327, "lat": 47.268423, "lon": -122.2231959, "tags": {"amenity": "bbq"}}, {"type": "node", "id": 13016416328, "lat": 47.2685203, "lon": -122.2237101, "tags": {"amenity": "bbq"}}, {"type": "node", "id": 13016416329, "lat": 47.2683297, "lon": -122.2235874, "tags": {"amenity": "bbq"}}, {"type": "node", "id": 13232000909, "lat": 47.259494, "lon": -122.210969}, {"type": "node", "id": 13232000910, "lat": 47.2595381, "lon": -122.210896}, {"type": "node", "id": 13232000911, "lat": 47.2595766, "lon": -122.2109466}, {"type": "node", "id": 13232018902, "lat": 47.2595325, "lon": -122.2110196}, {"type": "node", "id": 13232018903, "lat": 47.2595547, "lon": -122.2108803, "tags": {"amenity": "bbq", "covered": "no"}}, {"type": "node", "id": 13232018906, "lat": 47.2591388, "lon": -122.2113546, "tags": {"amenity": "drinking_water", "bottle": "no", "covered": "yes", "dog": "no", "fee": "no", "indoor": "no"}}, {"type": "node", "id": 13232018909, "lat": 47.2595988, "lon": -122.2118985, "tags": {"amenity": "bench"}}, {"type": "node", "id": 13232018911, "lat": 47.2597586, "lon": -122.2121317, "tags": {"amenity": "vending_machine", "bin": "no", "check_date": "2025-10-13", "fee": "no", "vending": "excrement_bags"}}, {"type": "node", "id": 13232018912, "lat": 47.2597292, "lon": -122.2121168, "tags": {"amenity": "waste_basket"}}, {"type": "node", "id": 13232018913, "lat": 47.2597009, "lon": -122.2121024, "tags": {"amenity": "bench"}}, {"type": "node", "id": 13232018914, "lat": 47.2596684, "lon": -122.2120859, "tags": {"amenity": "public_bookcase", "brand": "Little Free Library", "brand:wikidata": "Q6650101", "ref": "72037"}}, {"type": "node", "id": 13232018915, "lat": 47.2599174, "lon": -122.2121478, "tags": {"amenity": "waste_basket"}}, {"type": "node", "id": 13232018920, "lat": 47.260168, "lon": -122.2108224, "tags": {"amenity": "waste_basket"}}, {"type": "way", "id": 94176098, "nodes": [1094644291, 1094641008, 1094640002, 1094644670, 1094643388, 1094642190, 1094641078, 1094641615, 1094640468, 1094646916, 1094645657, 1094641355, 1094644291], "tags": {"amenity": "shelter", "bin": "yes", "building": "roof", "shelter_type": "picnic_shelter"}}, {"type": "way", "id": 94176115, "nodes": [1094642784, 1094639840, 1094642814, 1094641571, 1094640419, 1094646855, 1094639985, 1094646147, 1094645034, 1094643891, 1094641041, 1094640010, 1094646235, 1094645086, 1094645589, 1094644618, 1094643369, 1094642161, 1094646947, 1094645674, 12639840568, 1094644675, 12639840567, 1094643408, 12639840566, 12639840565, 1094644009, 12639840564, 1094642878, 1094642784], "tags": {"amenity": "school", "ele": "29", "gnis:feature_id": "2462366", "mascot": "Huskies", "name": "Ilalko Elementary School", "operator:type": "public", "website": "https://www.auburn.wednet.edu/ilalko"}}, {"type": "way", "id": 94176193, "nodes": [1094645668, 1094641819, 1094640701, 1094639867, 1094645904, 1094643152, 1094641917, 1094640794, 1094639903, 1094640219, 1094646535, 1094645668], "tags": {"amenity": "school", "ele": "180", "gnis:feature_id": "2494348", "name": "Lakeland Hills Elementary School"}}, {"type": "way", "id": 94176225, "nodes": [1094642507, 1094644615, 1094645028, 1094643872, 1094642808, 1094641565, 1094646215, 1094645083, 1094643978, 1094642874, 1094643362, 1094642158, 1094641036, 1094640007, 1094643087, 1094641829, 1094642507], "tags": {"access": "yes", "amenity": "parking", "capacity": "10", "fee": "no", "name": "Sunset Park Park & Ride", "park_ride": "yes", "parking": "surface", "surface": "asphalt"}}, {"type": "way", "id": 94176344, "nodes": [1094645213, 1094642121, 1094642755, 1094641522, 1094640369, 1094646776, 1094643919, 1094642831, 1094641603, 1094640449, 1094641000, 1094645213], "tags": {"access": "yes", "amenity": "parking", "fee": "no", "operator": "Auburn Riverside High School", "operator:type": "public", "parking": "surface"}}, {"type": "way", "id": 94176352, "nodes": [280005835, 280005834, 280005833, 280005832, 280005831, 280005830, 280005829, 280005828, 280005827, 280005826, 280005825, 280005824, 6311881724, 280005823, 6311881723, 1094641921, 1094642605, 1094641351, 1094640225, 1094646542, 1094643688, 1094642658, 1094641420, 1094640283, 1094640799, 1094639905, 280005835], "tags": {"amenity": "school", "ele": "30", "gnis:feature_id": "2462286", "mascot": "Ravens", "name": "Auburn Riverside High School", "wikidata": "Q4819296"}}, {"type": "way", "id": 367085855, "nodes": [3710448020, 3710448021, 6118472713, 6118472707, 3710448022, 3710448023, 3710450426, 3710450427, 3710450428, 3710450425, 3710448024, 3710448018, 8113817653, 3710448019, 3710448020], "tags": {"addr:city": "Auburn", "addr:country": "US", "addr:housenumber": "1502", "addr:postcode": "98092", "addr:state": "WA", "addr:street": "Lake Tapps Parkway Southeast", "brand": "Walgreens", "brand:wikidata": "Q1591889", "building": "yes", "dispensing": "yes", "name": "Walgreens", "post_office": "post_partner", "post_office:brand": "FedEx OnSite", "post_office:service_provider": "FedEx", "post_office:website": "https://local.fedex.com/en-us/wa/auburn/k61bj", "shop": "chemist"}}, {"type": "way", "id": 418008608, "nodes": [4184749053, 4184749054, 4184748829, 4184748825, 4184749053], "tags": {"amenity": "school", "ele": "36", "gnis:feature_id": "2462344", "mascot": "Hawks", "name": "Gildo Rey Elementary School", "operator:type": "public"}}, {"type": "way", "id": 418008610, "nodes": [4184748576, 4184748575, 4184748601, 4184748602, 4184748559, 4184748560, 4184748534, 4184748535, 4184748603, 6970257816, 4184748605, 4184748539, 4184748522, 4184748520, 4184748518, 4184748511, 356551626, 4184748501, 4184748333, 4184748327, 4184748316, 4184748315, 4184748314, 4184748456, 4184748460, 4184748576], "tags": {"amenity": "school", "ele": "32", "gnis:feature_id": "2462421", "mascot": "Bulldogs", "name": "Mount Baker Middle School", "operator:type": "public"}}, {"type": "way", "id": 446746411, "nodes": [4439863133, 4439863137, 13232018906, 4439863134, 4439863130, 4439863133], "tags": {"amenity": "toilets", "building": "yes"}}, {"type": "way", "id": 532021148, "nodes": [5163523753, 5163523754, 5163523755, 5163523756, 5163523753], "tags": {"amenity": "toilets", "building": "yes"}}, {"type": "way", "id": 538384723, "nodes": [5211327628, 5211327629, 5211327630, 5211327631, 5211327628], "tags": {"amenity": "shelter", "bin": "no", "shelter_type": "picnic_shelter"}}, {"type": "way", "id": 538393097, "nodes": [5211406493, 5211406494, 12177662126, 5211406495, 5211406496, 5211406493], "tags": {"amenity": "shelter", "building": "roof", "operator": "City of Auburn", "shelter_type": "picnic_shelter"}}, {"type": "way", "id": 550592601, "nodes": [5317980591, 1094641926, 1094640831, 5317980590, 5317980591], "tags": {"access": "yes", "amenity": "toilets", "building": "yes", "toilets:disposal": "flush"}}, {"type": "way", "id": 635802122, "nodes": [5996582325, 5996582320, 7564198121, 7564198122, 7564198123, 7564198124, 7564198125, 7564198126, 5996582323, 5996582324, 7564198127, 7564198128, 7564198129, 7564198130, 5996582325], "tags": {"addr:city": "Auburn", "addr:housenumber": "7078", "addr:postcode": "98092", "addr:state": "WA", "addr:street": "Lakeland Hills Way", "amenity": "fast_food", "brand": "Taco Time NW", "brand:wikidata": "Q7673970", "building": "yes", "cuisine": "mexican", "diet:vegetarian": "yes", "drive_through": "yes", "name": "Taco Time", "not:brand:wikidata": "Q7673969", "opening_hours": "Mo-Su 10:00-22:00", "outdoor_seating": "yes", "smoking": "no", "takeaway": "yes", "website": "https://tacotimenw.com/find-us/lakeland-hills/"}}, {"type": "way", "id": 635802125, "nodes": [5996582340, 5996582341, 6548837841, 6548837840, 5996582342, 5996582343, 6548837842, 6548837843, 5996582340], "tags": {"addr:city": "Auburn", "addr:housenumber": "7060", "addr:postcode": "98092", "addr:state": "WA", "addr:street": "Lakeland Hills Way Southeast", "amenity": "fast_food", "branch": "Lakeland Hills", "brand": "MOD Pizza", "brand:wikidata": "Q19903469", "building": "yes", "cuisine": "pizza", "name": "MOD Pizza", "opening_hours": "Su-Th 10:30-22:00; Fr-Sa 10:30-23:00", "outdoor_seating": "yes", "phone": "+1-253-387-7104", "takeaway": "yes", "website": "https://locations.modpizza.com/usa/wa/auburn/7060-lakeland-hills-way"}}, {"type": "way", "id": 652715140, "nodes": [6118455112, 6118455111, 6118455110, 6118455109, 6118455108, 6118455107, 6118455106, 6118455105, 6118455104, 5996582333, 6118455103, 6118455102, 6118455101, 6118455100, 6118455099, 6118455098, 6118455097, 6118455096, 6118455095, 6118455094, 6118455112], "tags": {"addr:city": "Auburn", "addr:housenumber": "6523", "addr:postcode": "98092", "addr:state": "WA", "addr:street": "Terrace View Drive Southeast", "building": "yes", "name": "Lakeland Hills Heated Storage", "shop": "storage_rental"}}, {"type": "way", "id": 652715479, "nodes": [6118473874, 6118473860, 6118473862, 6118473864, 6118473866, 6118473916, 6118473918, 6118473920, 6118473922, 6118473908, 6118473910, 6118473912, 6118473914, 6118473900, 6118473902, 6118473904, 6118473906, 6118473892, 6118473894, 6118473896, 6118473874], "tags": {"addr:city": "Auburn", "addr:housenumber": "1087", "addr:postcode": "98092", "addr:state": "WA", "addr:street": "Evergreen Way Southeast", "amenity": "community_centre", "building": "yes", "community_centre": "club_house", "name": "Lakeland HOA Clubhouse"}}, {"type": "way", "id": 652715894, "nodes": [6118486189, 6118486190, 6118486183, 6118486184, 6118486185, 6118486186, 6118486180, 6118486181, 5200341267, 6118486189], "tags": {"addr:city": "Auburn", "addr:housenumber": "1400", "addr:postcode": "98092", "addr:state": "WA", "addr:street": "Lake Tapps Parkway Southeast", "amenity": "fast_food", "brand": "McDonald's", "brand:wikidata": "Q38076", "building": "yes", "cuisine": "burger", "drive_through": "yes", "internet_access": "wlan", "name": "McDonald's", "opening_hours": "07:00-21:00", "phone": "+1-253-288-0108", "takeaway": "yes", "website": "https://www.mcdonalds.com/us/en-us/location/31794.html"}}, {"type": "way", "id": 652716606, "nodes": [5200341293, 6118472478, 6118472475, 6118472484, 6118472480, 6118472465, 11039705567, 6118472462, 6118472471, 11039705568, 6118472468, 6118472454, 6118472451, 6118472459, 6118472456, 6118472720, 5200341293], "tags": {"addr:city": "Auburn", "addr:housenumber": "6950", "addr:postcode": "98092", "addr:state": "WA", "addr:street": "Lakeland Hills Way Southeast", "amenity": "bank", "brand": "Chase", "brand:wikidata": "Q524629", "building": "yes", "check_date": "2024-09-17", "check_date:opening_hours": "2024-09-17", "name": "Chase", "opening_hours": "Mo-Fr 09:00-17:00; Sa 09:00-13:00; Su closed", "phone": "+1-253-833-8455", "website": "https://locator.chase.com/wa/auburn/6950-lakeland-hills-way-se"}}, {"type": "way", "id": 652717607, "nodes": [6118464567, 6118464575, 6118464573, 6118464558, 6118464567], "tags": {"amenity": "shelter", "building": "yes", "shelter_type": "public_transport"}}, {"type": "way", "id": 652718722, "nodes": [6118485715, 6118485717, 6118485711, 6118485713, 6118485715], "tags": {"addr:city": "Auburn", "addr:housenumber": "4910", "addr:postcode": "98092", "addr:state": "WA", "addr:street": "A Street Southeast", "amenity": "animal_shelter", "building": "yes", "check_date": "2023-02-26", "name": "Auburn Valley Humane Society", "opening_hours": "11:00-18:00", "website": "https://www.auburnvalleyhs.org/"}}, {"type": "way", "id": 652718773, "nodes": [5996582314, 6118484380, 6118484372, 6118484375, 6118484689, 6118484692, 6118484383, 6118484686, 5996582314], "tags": {"addr:city": "Auburn", "addr:housenumber": "116", "addr:postcode": "98092", "addr:state": "WA", "addr:street": "Lakeland Hills Way Southeast", "amenity": "place_of_worship", "building": "church", "denomination": "catholic", "name": "Family Life Center Church of God", "religion": "christian"}}, {"type": "way", "id": 652720541, "nodes": [6118467482, 6118467481, 6118467484, 6118467483, 6118467482], "tags": {"amenity": "childcare", "building": "yes", "name": "Little Jack's Corner"}}, {"type": "way", "id": 652720908, "nodes": [4514292753, 6118468561, 6118468562, 6118468563, 6118468556, 6118468557, 6118468558, 6118468559, 6118468552, 6118468553, 4514292753], "tags": {"addr:city": "Auburn", "addr:housenumber": "7101", "addr:postcode": "98092", "addr:state": "WA", "addr:street": "Lindsay Avenue Southeast", "building": "yes", "description": "Management office for Palermo at Lakeland Apartments", "name": "Palermo at Lakeland Apartments Leasing Office", "office": "yes", "opening_hours": "Mo-Fr 09:00-18:00", "phone": "+1-253-939-3722", "smoking": "outside", "website": "https://palermo.tarragon.com/"}}, {"type": "way", "id": 653092791, "nodes": [6120997475, 6120997467, 6120997468, 6120997466, 6120997465, 6120997471, 6120997470, 6120997476, 6120997475], "tags": {"addr:city": "Auburn", "addr:housenumber": "4424", "addr:postcode": "98002", "addr:state": "WA", "addr:street": "A Street Southeast", "brand": "West Coast Self-Storage", "brand:wikidata": "Q110084888", "building": "yes", "name": "West Coast Self-Storage", "phone": "+1-253-735-1111", "shop": "storage_rental", "website": "https://www.westcoastselfstorage.com/self-storage/washington/storage-units-auburn-wa/"}}, {"type": "way", "id": 653093122, "nodes": [4184748292, 6121026435, 6121026437, 6121026439, 4184748292], "tags": {"addr:city": "Auburn", "addr:housenumber": "3920", "addr:postcode": "98002", "addr:state": "WA", "addr:street": "A Street Southeast", "amenity": "fast_food", "brand": "McDonald's", "brand:wikidata": "Q38076", "building": "yes", "cuisine": "burger", "drive_through": "yes", "internet_access": "wlan", "name": "McDonald's", "opening_hours": "07:00-21:00", "phone": "+1-253-833-3305", "takeaway": "yes", "website": "https://www.mcdonalds.com/us/en-us/location/12803.html"}}, {"type": "way", "id": 653093123, "nodes": [4184748293, 6121026443, 6121026445, 6121026447, 6121026449, 6121026483, 6121026485, 6121026487, 4184748293], "tags": {"addr:city": "Auburn", "addr:housenumber": "4002", "addr:postcode": "98002", "addr:state": "WA", "addr:street": "A Street Southeast", "amenity": "restaurant", "brand": "Round Table Pizza", "brand:wikidata": "Q7371139", "building": "yes", "cuisine": "pizza", "name": "Round Table Pizza"}}, {"type": "way", "id": 653093124, "nodes": [4184748317, 6121026491, 6121026493, 6121026495, 4184748317], "tags": {"amenity": "fuel", "brand": "7-Eleven", "brand:wikidata": "Q259340", "building": "yes", "name": "7-Eleven", "opening_hours": "24/7"}}, {"type": "way", "id": 653093125, "nodes": [4184748326, 6121026467, 6121026469, 6121026471, 4184748326], "tags": {"addr:city": "Auburn", "addr:housenumber": "4026", "addr:postcode": "98002", "addr:state": "WA", "addr:street": "A Street Southeast", "brand": "7-Eleven", "brand:wikidata": "Q259340", "building": "yes", "contact:website": "https://www.7-eleven.com/locations/wa/auburn/4026-a-street-23938", "name": "7-Eleven", "opening_hours": "24/7", "shop": "convenience"}}, {"type": "way", "id": 653094115, "nodes": [6121018876, 6121018874, 6121018875, 6121018879, 6121018876], "tags": {"addr:city": "Auburn", "addr:housenumber": "4220", "addr:postcode": "98002", "addr:state": "WA", "addr:street": "A Street Southeast", "addr:unit": "101", "building": "retail", "name": "Mac's Mart & Deli", "shop": "convenience"}}, {"type": "way", "id": 653094961, "nodes": [6121028196, 6121028198, 6121028208, 6121028210, 6121028196], "tags": {"addr:city": "Auburn", "addr:housenumber": "4321", "addr:postcode": "98002", "addr:state": "WA", "addr:street": "A Street Southeast", "brand": "O'Reilly Auto Parts", "brand:wikidata": "Q7071951", "building": "yes", "name": "O'Reilly Auto Parts", "shop": "car_parts", "website": "https://locations.oreillyauto.com/wa/auburn/autoparts-4720.html"}}, {"type": "way", "id": 653094977, "nodes": [6121028254, 6121028256, 6121028264, 6121028266, 6121028254], "tags": {"addr:city": "Auburn", "addr:housenumber": "4310", "addr:postcode": "98002", "addr:state": "WA", "addr:street": "A Street Southeast", "branch": "Auto Parts", "brand": "AutoZone", "brand:wikidata": "Q4826087", "building": "yes", "name": "AutoZone", "shop": "car_parts", "website": "https://www.autozone.com/locations/wa/auburn/4310-a-st-se.html"}}, {"type": "way", "id": 653100384, "nodes": [4910238006, 6121030505, 6121030480, 6121030477, 4910238006], "tags": {"addr:city": "Auburn", "addr:housenumber": "4003", "addr:postcode": "98002", "addr:state": "WA", "addr:street": "A Street Southeast", "amenity": "fast_food", "brand": "Taco Time NW", "brand:wikidata": "Q7673970", "building": "yes", "check_date": "2019-03-02", "cuisine": "mexican", "diet:vegetarian": "yes", "name": "Taco Time", "not:brand:wikidata": "Q7673969", "takeaway": "yes"}}, {"type": "way", "id": 653100753, "nodes": [6121001732, 6121001730, 6121001728, 6121001726, 6121001724, 6121001722, 6121001720, 6121001718, 6121001716, 6121001714, 6121001732], "tags": {"addr:city": "Auburn", "addr:housenumber": "4300", "addr:postcode": "98002", "addr:state": "WA", "addr:street": "A Street Southeast", "amenity": "car_wash", "building": "yes", "name": "Elephant Car Wash", "opening_hours": "24/7", "phone": "+1-253-804-3498", "self_service": "yes", "website": "https://www.elephantcarwash.com/"}}, {"type": "way", "id": 653100756, "nodes": [6121001392, 6121001390, 6121001388, 6121001386, 6121001284, 6121001282, 6121001280, 6121001278, 6121001276, 6121001274, 6121001392], "tags": {"addr:city": "Auburn", "addr:housenumber": "4201", "addr:postcode": "98002", "addr:state": "WA", "addr:street": "A Street Southeast", "amenity": "veterinary", "building": "yes", "name": "Auburn South Veterinary Hospital"}}, {"type": "way", "id": 653100757, "nodes": [4910238158, 6121001434, 6121001432, 6121001430, 6121001428, 6121001426, 6121001424, 11011826323, 6121001422, 6121001420, 11011826324, 6121001418, 6121001416, 6121001414, 6121001412, 6121001410, 6121001408, 6121001406, 4910238158], "tags": {"addr:city": "Auburn", "addr:housenumber": "4101", "addr:postcode": "98002", "addr:state": "WA", "addr:street": "A Street Southeast", "amenity": "bank", "atm": "yes", "brand": "Columbia Bank", "brand:wikidata": "Q62084089", "building": "yes", "name": "Columbia Bank"}}, {"type": "way", "id": 673779002, "nodes": [6309819738, 6309819739, 6309819740, 6309819741, 6309819738], "tags": {"addr:city": "Auburn", "addr:housenumber": "1692", "addr:postcode": "98092", "addr:state": "WA", "addr:street": "Lake Tapps Pkwy E", "amenity": "fuel", "brand": "Chevron", "brand:wikidata": "Q319642", "building": "roof", "check_date": "2024-05-31", "name": "Chevron", "opening_hours": "24/7", "payment:cash": "yes", "payment:credit_cards": "yes", "payment:debit_cards": "yes"}}, {"type": "way", "id": 673779003, "nodes": [6309819742, 6309819743, 6309819744, 6309819745, 6309819742], "tags": {"addr:city": "Auburn", "addr:housenumber": "1692", "addr:postcode": "98092", "addr:state": "WA", "addr:street": "Lake Tapps Pkwy E", "brand": "ExtraMile", "brand:wikidata": "Q64224605", "building": "yes", "name": "ExtraMile", "shop": "convenience"}}, {"type": "way", "id": 673779004, "nodes": [6309819746, 6309819747, 6309819748, 6309819749, 6309819746], "tags": {"addr:city": "Auburn", "addr:housenumber": "1692", "addr:postcode": "98092", "addr:state": "WA", "addr:street": "Lake Tapps Pkwy E", "amenity": "car_wash", "building": "yes"}}, {"type": "way", "id": 674009495, "nodes": [6311985754, 6311985755, 6311985756, 6311985757, 6311985758, 6311985759, 6311985754], "tags": {"access": "yes", "amenity": "parking", "capacity": "27", "fee": "no", "name": "Family Life Center Church of God Park & Ride", "park_ride": "yes", "parking": "surface", "surface": "asphalt"}}, {"type": "way", "id": 766090482, "nodes": [7154936789, 7154936790, 7154936791, 7154936792, 7154936793, 7154936794, 7154936795, 7154936796, 7154936797, 7154936798, 7154936799, 7154936800, 7154936801, 7154936802, 7154936803, 7154936804, 7154936805, 7154936806, 7154936807, 7154936808, 7154936809, 7154936810, 7154936811, 7154936812, 7154936813, 7154936814, 7154936815, 7154936816, 7154936817, 7154936818, 7154936819, 7154936820, 7154936821, 7154936822, 7154936823, 7154936824, 7154936825, 7154936826, 7154936827, 7154936828, 7154936829, 7154936830, 7154936831, 7154936832, 7154936833, 7154936834, 7154936835, 7154936836, 7154936837, 7154936838, 7154936839, 7154936840, 7154936841, 7154936842, 7154936843, 7154936844, 7154936845, 7154936846, 7154936847, 7154936848, 7154936849, 7154936850, 7154936851, 7154936852, 7154936853, 7154936854, 7154936855, 7154936789], "tags": {"amenity": "parking", "operator": "Auburn Riverside High School", "operator:type": "public", "parking": "surface"}}, {"type": "way", "id": 766090483, "nodes": [7154936856, 7154936857, 7154936858, 7154936859, 7154936860, 7154936861, 7154936862, 7154936863, 7154936864, 7154936865, 7154936866, 7154936867, 7154936868, 7154936856], "tags": {"amenity": "parking", "operator": "Auburn Riverside High School", "operator:type": "public"}}, {"type": "way", "id": 766090484, "nodes": [7154936869, 7154936870, 7154936871, 7154936872, 7154936873, 7154936874, 7154936875, 7154936876, 7154936877, 7154936878, 7154936879, 7154936880, 7154936881, 7154936882, 7154936883, 7154936884, 7154938985, 7154938986, 7154938987, 7154938988, 6118467022, 6118467024, 6118467004, 6118467006, 7154938989, 6118467012, 7154938990, 7154938991, 7154938992, 7154938993, 7154938994, 7154938995, 7154938996, 7154938997, 7154938998, 7154938999, 7154939000, 7154939001, 7154939002, 7154939003, 7154939004, 7154939005, 7154939006, 7154939007, 7154939008, 7154939009, 7154939010, 7154936869], "tags": {"amenity": "parking", "operator": "Auburn Riverside High School"}}, {"type": "way", "id": 766090485, "nodes": [7154939011, 7154939012, 7154939013, 7154939014, 7154939015, 7154939016, 7154939011], "tags": {"access": "no", "amenity": "parking", "operator": "Auburn Riverside High School", "operator:type": "government"}}, {"type": "way", "id": 871050498, "nodes": [8113815407, 8113815405, 8113815406, 8113815408, 8113815409, 8113815410, 8113815411, 6433019669, 6433019670, 8113815412, 8113815413, 8113815414, 8113815415, 8113815416, 8113815407], "tags": {"amenity": "parking"}}, {"type": "way", "id": 871050500, "nodes": [8113817627, 8113817628, 8113817629, 8113817630, 8113817631, 8113817632, 8113817633, 8113817634, 8113817635, 8113817636, 8113817639, 8113817627], "tags": {"amenity": "parking"}}, {"type": "way", "id": 871050501, "nodes": [8113817637, 8113817638, 8113817639, 6324402092, 8113817640, 8113817641, 8113817637], "tags": {"amenity": "parking"}}, {"type": "way", "id": 871050502, "nodes": [8113817642, 8113817643, 8113817644, 8113817645, 8113817646, 8113817647, 8113817648, 8113817649, 8113817650, 8113817642], "tags": {"amenity": "parking"}}, {"type": "way", "id": 871050503, "nodes": [8113817651, 8113817652, 8113817653, 8113817654, 8113817655, 8113817656, 8113817657, 8113817658, 8113817659, 8113817660, 8113817661, 8113817662, 8113817663, 8113817664, 8113817665, 8113817666, 8113817667, 8113817651], "tags": {"amenity": "parking"}}, {"type": "way", "id": 871050504, "nodes": [8113817670, 8113817671, 8113817672, 8113817673, 8113817674, 8113817684, 8113817675, 8113817683, 8113817676, 5476562344, 8113817670], "tags": {"amenity": "parking"}}, {"type": "way", "id": 871050506, "nodes": [8113817681, 8113817682, 8113817683, 8113817675, 8113817684, 8113817685, 8113817686, 8113817687, 8113817688, 8113817689, 8113817690, 8113817691, 8113817692, 8113817693, 8113817694, 8113817695, 8113817696, 8113817697, 8113817698, 8113817699, 8113817700, 8113817701, 8113817702, 1094640274, 8113817703, 8113817704, 8113817705, 8113817681], "tags": {"amenity": "parking"}}, {"type": "way", "id": 921448788, "nodes": [4251884153, 8554890721, 8554890722, 8554890723, 8554890724, 8554890725, 8554890726, 8554890727, 4251884153], "tags": {"addr:city": "Auburn", "addr:housenumber": "1619", "addr:postcode": "98092", "addr:state": "WA", "addr:street": "Lake Tapps Parkway Southeast", "amenity": "cafe", "branch": "Lakeland Hills Way - Lake Tapp", "brand": "Starbucks", "brand:wikidata": "Q37158", "building": "yes", "cuisine": "coffee_shop", "name": "Starbucks", "official_name": "Starbucks Coffee", "phone": "+1-253-735-2855", "ref": "1029923", "takeaway": "yes", "website": "https://www.starbucks.com/store-locator/store/1029923/lakeland-hills-way-lake-tapp-1619-lake-tapps-pkwy-se-auburn-wa-980928226-us"}}, {"type": "way", "id": 1297725025, "nodes": [12023213654, 12023213655, 12023213656, 12023213657, 12023213654], "tags": {"amenity": "parking_space"}}, {"type": "way", "id": 1297725026, "nodes": [12023213658, 12023213659, 12023213660, 12023213661, 12023213658], "tags": {"amenity": "parking_space"}}, {"type": "way", "id": 1297725027, "nodes": [12023213662, 12023213663, 12023213664, 12023213665, 12023213662], "tags": {"amenity": "parking_space"}}, {"type": "way", "id": 1297725028, "nodes": [12023213666, 12023213667, 12023213668, 12023213669, 12023213666], "tags": {"amenity": "parking_space"}}, {"type": "way", "id": 1297725029, "nodes": [12023213670, 12023213671, 12023213672, 12023213673, 12023213670], "tags": {"amenity": "parking_space"}}, {"type": "way", "id": 1297725030, "nodes": [12023213674, 12023213675, 12023213676, 12023213677, 12023213674], "tags": {"amenity": "parking_space"}}, {"type": "way", "id": 1297725031, "nodes": [12023213678, 12023213679, 12023213680, 12023213681, 12023213678], "tags": {"amenity": "parking_space"}}, {"type": "way", "id": 1297725032, "nodes": [12023213682, 12023213683, 12023213684, 12023213685, 12023213682], "tags": {"amenity": "parking_space"}}, {"type": "way", "id": 1297725033, "nodes": [12023213686, 12023213687, 12023213688, 12023213689, 12023213686], "tags": {"amenity": "parking_space"}}, {"type": "way", "id": 1297725034, "nodes": [12023213690, 12023213691, 12023213692, 12023213693, 12023213690], "tags": {"amenity": "parking_space"}}, {"type": "way", "id": 1297725035, "nodes": [12023213694, 12023213695, 12023213696, 12023213697, 12023213694], "tags": {"amenity": "parking_space"}}, {"type": "way", "id": 1297725036, "nodes": [12023213698, 12023213699, 12023213700, 12023213701, 12023213698], "tags": {"amenity": "parking_space"}}, {"type": "way", "id": 1297725063, "nodes": [12023213982, 12023213983, 12023213984, 12023213985, 12023213982], "tags": {"amenity": "parking_space"}}, {"type": "way", "id": 1297725064, "nodes": [12023213986, 12023213987, 12023213988, 12023213989, 12023213986], "tags": {"amenity": "parking_space"}}, {"type": "way", "id": 1297725065, "nodes": [12023213990, 12023213991, 12023213992, 12023213993, 12023213990], "tags": {"amenity": "parking_space"}}, {"type": "way", "id": 1297725066, "nodes": [12023213994, 12023213995, 12023213996, 12023213997, 12023213994], "tags": {"amenity": "parking_space"}}, {"type": "way", "id": 1297725067, "nodes": [12023213998, 12023213999, 12023214000, 12023214001, 12023213998], "tags": {"amenity": "parking_space"}}, {"type": "way", "id": 1315622841, "nodes": [12177613762, 12177613763, 12177613764, 12177613765, 12177613766, 12177613767, 12177613768, 12177613769, 12177613770, 12177613771, 12177613772, 12177613773, 12177613774, 12177613775, 12177613776, 12177613777, 12177613778, 12177613762], "tags": {"access": "yes", "amenity": "parking", "fee": "no", "parking": "surface"}}, {"type": "way", "id": 1315622847, "nodes": [12177661974, 12177661975, 12177661990, 12177661993, 12177661976, 12177661977, 280005823, 12177661979, 12177661980, 12177661983, 12177661984, 12177661981, 12177661974], "tags": {"amenity": "kindergarten"}}, {"type": "way", "id": 1315622848, "nodes": [12177661982, 12177661983, 12177661984, 12177661985, 12177661982], "tags": {"access": "customers", "amenity": "parking", "capacity": "7", "parking": "surface"}}, {"type": "way", "id": 1364900362, "nodes": [12639840539, 12639840540, 12639840541, 12639840542, 12639840543, 12639840553, 12639840552, 12639840554, 12639840544, 12639840545, 12639840546, 12639840547, 12639840548, 12639840549, 12639840550, 12639840551, 12639840539], "tags": {"access": "private", "amenity": "parking"}}, {"type": "way", "id": 1364900364, "nodes": [12639840559, 12639840560, 12639840561, 12639840562, 12639840559], "tags": {"amenity": "parking", "parking": "surface"}}, {"type": "way", "id": 1364900366, "nodes": [12639840572, 12639840573, 12639840574, 12639840575, 12639840576, 12639840577, 12639840578, 12639840579, 12639840580, 12639840581, 12639840572], "tags": {"amenity": "parking", "parking": "surface"}}, {"type": "way", "id": 1365113718, "nodes": [12641959555, 12641959556, 12641959557, 12641959558, 12641959555], "tags": {"amenity": "parking"}}, {"type": "way", "id": 1365113719, "nodes": [12641959559, 12641959560, 12641959561, 12641959562, 12641959563, 12641959559], "tags": {"amenity": "parking", "parking": "surface"}}, {"type": "way", "id": 1365113720, "nodes": [12641959564, 12641959565, 12641959566, 12641959567, 12641959564], "tags": {"amenity": "parking"}}, {"type": "way", "id": 1365113721, "nodes": [12641959568, 12641959569, 12641959570, 12641959571, 12641959568], "tags": {"amenity": "parking", "parking": "surface"}}, {"type": "way", "id": 1365113723, "nodes": [12641959573, 12641959574, 12641959575, 12641959576, 12641959577, 12641959578, 12641959573], "tags": {"amenity": "parking"}}, {"type": "way", "id": 1365113726, "nodes": [12641959595, 12641959596, 12641959597, 12641959598, 12641959599, 12641959600, 12641987901, 12641987902, 12641987903, 12641959595], "tags": {"amenity": "parking", "parking": "surface"}}, {"type": "way", "id": 1375349868, "nodes": [12734465580, 12734465581, 12734465582, 12734465583, 12734465584, 12734465585, 12734465586, 12734465591, 12734465593, 12734465587, 12734465594, 12734465592, 12734465588, 12734465596, 12734465595, 12734465597, 12734465589, 12734465590, 12734465580], "tags": {"amenity": "parking", "parking": "surface"}}, {"type": "way", "id": 1375349869, "nodes": [12734465598, 12734465599, 12734465600, 12734475101, 12734475102, 12734475103, 12734475104, 12734475105, 12734465598], "tags": {"amenity": "parking", "parking": "surface"}}, {"type": "way", "id": 1375349870, "nodes": [12734475106, 12734475107, 12734475108, 12734475109, 12734475106], "tags": {"amenity": "parking", "parking": "surface"}}, {"type": "way", "id": 1375349871, "nodes": [12734475110, 12734475111, 12734475131, 12734475134, 12734475112, 12734475130, 12734475132, 12734475113, 12734475133, 12734475114, 12734475115, 12734475116, 12734475127, 12734475117, 12734475128, 12734475129, 12734475123, 12734475126, 12734475124, 12734475125, 12734475118, 12734475119, 12734475120, 12734475121, 12734475122, 12734475110], "tags": {"amenity": "parking", "parking": "surface"}}, {"type": "way", "id": 1442050064, "nodes": [13232018902, 13232000909, 13232000910, 13232000911, 13232018902], "tags": {"amenity": "shelter", "bin": "yes", "building": "roof", "shelter_type": "picnic_shelter", "wheelchair": "yes"}}]}