{"version": 0.6, "generator": "Overpass API 0.7.62.8 e802775f", "osm3s": {"timestamp_osm_base": "2025-12-06T19:15:22Z", "copyright": "The data included in this document is from www.openstreetmap.org. The data is made available under ODbL."}, "elements": [{"type": "node", "id": 356543349, "lat": 47.0754195, "lon": -119.857648}, {"type": "node", "id": 2663997314, "lat": 47.0826947, "lon": -119.8601009}, {"type": "node", "id": 2663997320, "lat": 47.0825522, "lon": -119.8599347}, {"type": "node", "id": 2663997322, "lat": 47.077394, "lon": -119.8564758}, {"type": "node", "id": 2663997324, "lat": 47.0827166, "lon": -119.8600152}, {"type": "node", "id": 2663997328, "lat": 47.0775292, "lon": -119.8605659}, {"type": "node", "id": 2663997338, "lat": 47.0773072, "lon": -119.8564775}, {"type": "node", "id": 2663997341, "lat": 47.0826308, "lon": -119.8596799}, {"type": "node", "id": 2663997343, "lat": 47.0796572, "lon": -119.8593057}, {"type": "node", "id": 2663997344, "lat": 47.0827093, "lon": -119.8598596}, {"type": "node", "id": 2663997353, "lat": 47.0773915, "lon": -119.856201}, {"type": "node", "id": 2663997355, "lat": 47.0792993, "lon": -119.8590429}, {"type": "node", "id": 2663997356, "lat": 47.0763958, "lon": -119.8575306}, {"type": "node", "id": 2663997360, "lat": 47.0774495, "lon": -119.8579773}, {"type": "node", "id": 2663997366, "lat": 47.0775296, "lon": -119.8604863}, {"type": "node", "id": 2663997370, "lat": 47.0767167, "lon": -119.8567347}, {"type": "node", "id": 2663997371, "lat": 47.0762062, "lon": -119.8575125}, {"type": "node", "id": 2663997373, "lat": 47.0766087, "lon": -119.8575516}, {"type": "node", "id": 2663997384, "lat": 47.0776307, "lon": -119.8604873}, {"type": "node", "id": 2663997390, "lat": 47.0825668, "lon": -119.8601305}, {"type": "node", "id": 2663997395, "lat": 47.077442, "lon": -119.8583918}, {"type": "node", "id": 2663997411, "lat": 47.0832883, "lon": -119.859469, "tags": {"amenity": "fuel", "brand": "Cenex", "brand:wikidata": "Q62127191", "name": "Cenex"}}, {"type": "node", "id": 2663997412, "lat": 47.0829974, "lon": -119.860105}, {"type": "node", "id": 2663997414, "lat": 47.0773047, "lon": -119.8562027}, {"type": "node", "id": 2663997421, "lat": 47.0827499, "lon": -119.8597374}, {"type": "node", "id": 2663997422, "lat": 47.0773398, "lon": -119.8583877}, {"type": "node", "id": 2663997423, "lat": 47.0770198, "lon": -119.8560335}, {"type": "node", "id": 2663997424, "lat": 47.0826182, "lon": -119.8600566, "tags": {"addr:city": "George", "addr:housenumber": "400", "addr:postcode": "98824", "addr:state": "WA", "addr:street": "South Frontage Road", "amenity": "fast_food", "brand": "Subway", "brand:wikidata": "Q244457", "cuisine": "sandwich", "name": "Subway", "opening_hours": "07:00-22:00", "phone": "+1-509-785-8020", "takeaway": "yes", "website": "https://restaurants.subway.com/united-states/wa/george/400-south-frontage-road"}}, {"type": "node", "id": 2663997428, "lat": 47.0825614, "lon": -119.8598328}, {"type": "node", "id": 2663997429, "lat": 47.0773542, "lon": -119.8607696}, {"type": "node", "id": 2663997442, "lat": 47.0757815, "lon": -119.8561249, "tags": {"amenity": "parking"}}, {"type": "node", "id": 2663997444, "lat": 47.0796539, "lon": -119.8590373}, {"type": "node", "id": 2663997445, "lat": 47.0827351, "lon": -119.8598727}, {"type": "node", "id": 2663997448, "lat": 47.0768912, "lon": -119.8568972}, {"type": "node", "id": 2663997449, "lat": 47.0773473, "lon": -119.8579733}, {"type": "node", "id": 2663997452, "lat": 47.0754112, "lon": -119.8559939}, {"type": "node", "id": 2663997462, "lat": 47.0773551, "lon": -119.8605642}, {"type": "node", "id": 2663997464, "lat": 47.082691, "lon": -119.8600071}, {"type": "node", "id": 2663997467, "lat": 47.0776477, "lon": -119.8607117}, {"type": "node", "id": 2663997468, "lat": 47.0793007, "lon": -119.8593189}, {"type": "node", "id": 3823628926, "lat": 47.0801332, "lon": -119.8574994}, {"type": "node", "id": 3823629258, "lat": 47.0796983, "lon": -119.856689}, {"type": "node", "id": 3823629259, "lat": 47.079554, "lon": -119.8562586}, {"type": "node", "id": 3823629261, "lat": 47.0794238, "lon": -119.856254}, {"type": "node", "id": 3823629338, "lat": 47.0795521, "lon": -119.856378}, {"type": "node", "id": 3823629347, "lat": 47.0801402, "lon": -119.8566974}, {"type": "node", "id": 3823629355, "lat": 47.0794219, "lon": -119.8563734}, {"type": "node", "id": 3823629431, "lat": 47.0796912, "lon": -119.857491}, {"type": "node", "id": 4513136905, "lat": 47.0827415, "lon": -119.8601291}, {"type": "node", "id": 4513136906, "lat": 47.0827911, "lon": -119.8597509}, {"type": "node", "id": 4513136908, "lat": 47.0830225, "lon": -119.8599143}, {"type": "node", "id": 4687812614, "lat": 47.083096, "lon": -119.8588072}, {"type": "node", "id": 4687812615, "lat": 47.0829549, "lon": -119.8585756}, {"type": "node", "id": 4687812616, "lat": 47.082835, "lon": -119.8587331}, {"type": "node", "id": 4687812617, "lat": 47.0829761, "lon": -119.8589647}, {"type": "node", "id": 5444067621, "lat": 47.079824, "lon": -119.856707, "tags": {"amenity": "pub", "internet_access": "wlan", "name": "The Cherry Pit", "phone": "+1-509-785-5000"}}, {"type": "node", "id": 8165462967, "lat": 47.0806399, "lon": -119.8549576}, {"type": "node", "id": 8644631081, "lat": 47.0831731, "lon": -119.8599131}, {"type": "node", "id": 8644631082, "lat": 47.0827805, "lon": -119.8604617}, {"type": "node", "id": 8644631083, "lat": 47.0829047, "lon": -119.8606507}, {"type": "node", "id": 8644631084, "lat": 47.0832338, "lon": -119.8602005}, {"type": "node", "id": 8644631085, "lat": 47.083268, "lon": -119.8600575}, {"type": "node", "id": 8644631086, "lat": 47.082944, "lon": -119.8598921}, {"type": "node", "id": 8644631087, "lat": 47.0829564, "lon": -119.8597977}, {"type": "node", "id": 8644631088, "lat": 47.0829109, "lon": -119.8601771}, {"type": "node", "id": 8644631089, "lat": 47.0829231, "lon": -119.8600842}, {"type": "node", "id": 10069563118, "lat": 47.0821843, "lon": -119.86069}, {"type": "node", "id": 10069685030, "lat": 47.0825782, "lon": -119.8610337, "tags": {"amenity": "vending_machine", "vending": "ice_cubes"}}, {"type": "node", "id": 10069685031, "lat": 47.0823667, "lon": -119.8611586}, {"type": "node", "id": 10069685049, "lat": 47.0806946, "lon": -119.8633004}, {"type": "node", "id": 10069685054, "lat": 47.076144, "lon": -119.8576843}, {"type": "node", "id": 10069685068, "lat": 47.0806278, "lon": -119.8635364}, {"type": "node", "id": 10069685070, "lat": 47.0825716, "lon": -119.8583155, "tags": {"name": "The Bake Shop", "shop": "cannabis"}}, {"type": "node", "id": 10069685076, "lat": 47.0793303, "lon": -119.8669093, "tags": {"name": "T&J Services", "shop": "car_repair"}}, {"type": "node", "id": 10069685077, "lat": 47.098383, "lon": -119.8543333, "tags": {"name": "Blueline Equipment", "shop": "trade"}}, {"type": "node", "id": 11091706906, "lat": 47.0843031, "lon": -119.8556697, "tags": {"amenity": "restaurant", "cuisine": "breakfast", "name": "Scale Cafe"}}, {"type": "node", "id": 12075995314, "lat": 47.0810704, "lon": -119.8619802, "tags": {"access": "yes", "addr:city": "George", "addr:country": "US", "addr:housenumber": "224", "addr:postcode": "98848", "addr:state": "WA", "addr:street": "Bing Avenue", "amenity": "charging_station", "authentication:app": "yes", "bicycle": "no", "brand": "Tesla Supercharger", "brand:website": "https://www.tesla.com/supercharger", "brand:wikidata": "Q17089620", "bus": "no", "capacity": "12", "capacity:disabled": "1", "covered": "no", "description": "Non-Teslas can charge here. NACS (Tesla) receptacle or adapter required.", "ele": "376", "fee": "yes", "frequency": "0", "hgv": "no", "maxstay": "no", "motorcar": "designated", "name": "Tesla Supercharger", "network": "Supercharger", "network:website": "https://www.tesla.com/supercharger", "network:wikidata": "Q17089620", "not:brand:wikidata": "Q478214", "note": "Despite iD prompting to \"upgrade\" operator from \"Tesla, Inc.\" to \"Tesla\", the correct value is in fact \"Tesla, Inc.\" Work is in progress to stop iD from flagging this.", "opening_hours": "24/7", "operator": "Tesla, Inc.", "operator:wikidata": "Q478214", "parking:fee": "no", "payment:app:tesla": "yes", "ref:plugshare": "552215", "ref:supercharge_info": "6321", "reservation": "no", "scooter": "no", "socket:nacs": "12", "socket:nacs:output": "250", "start_date": "2023-11-07", "website": "https://www.tesla.com/findus/location/supercharger/31043", "wheelchair": "yes"}}, {"type": "node", "id": 12637074523, "lat": 47.0804558, "lon": -119.8634873}, {"type": "node", "id": 12637074524, "lat": 47.0805596, "lon": -119.8636379}, {"type": "node", "id": 12637074526, "lat": 47.080524, "lon": -119.8633858}, {"type": "node", "id": 12637074527, "lat": 47.0806439, "lon": -119.8632276}, {"type": "node", "id": 12637074529, "lat": 47.0807271, "lon": -119.8632516}, {"type": "node", "id": 12637074530, "lat": 47.0806764, "lon": -119.8631788}, {"type": "node", "id": 12637074531, "lat": 47.0821223, "lon": -119.8607738}, {"type": "node", "id": 12637074532, "lat": 47.0822052, "lon": -119.8609062}, {"type": "node", "id": 12637074533, "lat": 47.0823331, "lon": -119.8607335}, {"type": "node", "id": 12637074534, "lat": 47.0822502, "lon": -119.8606011}, {"type": "node", "id": 12671004574, "lat": 47.0821741, "lon": -119.8591688, "tags": {"amenity": "parking", "hgv": "yes"}}, {"type": "node", "id": 12671004575, "lat": 47.0824534, "lon": -119.8602212}, {"type": "node", "id": 12671004576, "lat": 47.0822808, "lon": -119.8604626}, {"type": "node", "id": 12671004577, "lat": 47.0823202, "lon": -119.8605233}, {"type": "node", "id": 12671004579, "lat": 47.0824928, "lon": -119.8602819}, {"type": "node", "id": 12671004580, "lat": 47.0824207, "lon": -119.8595309, "tags": {"amenity": "weighbridge", "brand": "CAT Scale", "brand:wikidata": "Q111631907", "name": "CAT Scale", "operator": "Shree's Truck Stop", "operator:phone": "+1 509-785-2200", "ref": "1644", "website": "https://catscale.com/cat-scale-locator/?single=1644"}}, {"type": "node", "id": 12953135769, "lat": 47.0826802, "lon": -119.8596788}, {"type": "node", "id": 12953135770, "lat": 47.0826691, "lon": -119.8597122}, {"type": "node", "id": 12953135771, "lat": 47.0823335, "lon": -119.8610993}, {"type": "node", "id": 12953135772, "lat": 47.0823059, "lon": -119.8611326}, {"type": "node", "id": 12953135773, "lat": 47.0823391, "lon": -119.8611919}, {"type": "node", "id": 12953135774, "lat": 47.0821661, "lon": -119.8606608}, {"type": "node", "id": 12953135775, "lat": 47.0821995, "lon": -119.8606157}, {"type": "node", "id": 12953135776, "lat": 47.0822177, "lon": -119.8606449}, {"type": "node", "id": 12953135787, "lat": 47.0776482, "lon": -119.8605986}, {"type": "node", "id": 12953135788, "lat": 47.0776302, "lon": -119.8605984}, {"type": "node", "id": 12953135789, "lat": 47.0774377, "lon": -119.8607704}, {"type": "node", "id": 12953135790, "lat": 47.077438, "lon": -119.8607097}, {"type": "node", "id": 12953135816, "lat": 47.0754138, "lon": -119.8568728}, {"type": "node", "id": 12953136618, "lat": 47.0808212, "lon": -119.854672}, {"type": "node", "id": 12953136619, "lat": 47.0806877, "lon": -119.85463}, {"type": "node", "id": 12953136620, "lat": 47.0806084, "lon": -119.8549477}, {"type": "node", "id": 12953136621, "lat": 47.0805853, "lon": -119.8551057}, {"type": "node", "id": 12953136622, "lat": 47.0805558, "lon": -119.8551065}, {"type": "node", "id": 12953136623, "lat": 47.0805572, "lon": -119.8552241}, {"type": "node", "id": 12953136624, "lat": 47.0805946, "lon": -119.8552231}, {"type": "node", "id": 12953136625, "lat": 47.0805951, "lon": -119.8552619}, {"type": "node", "id": 12953136626, "lat": 47.0805751, "lon": -119.8552624}, {"type": "node", "id": 12953136627, "lat": 47.0805758, "lon": -119.8553151}, {"type": "node", "id": 12953136628, "lat": 47.0805971, "lon": -119.8553145}, {"type": "node", "id": 12953136629, "lat": 47.0805977, "lon": -119.8553664}, {"type": "node", "id": 12953136630, "lat": 47.0807138, "lon": -119.8553632}, {"type": "node", "id": 12953136631, "lat": 47.080712, "lon": -119.8552124}, {"type": "node", "id": 12953136632, "lat": 47.0806496, "lon": -119.8552141}, {"type": "node", "id": 12953136633, "lat": 47.0806481, "lon": -119.855089}, {"type": "node", "id": 12953136634, "lat": 47.0807554, "lon": -119.8551227}, {"type": "way", "id": 260830740, "nodes": [2663997360, 2663997449, 2663997422, 2663997395, 2663997360], "tags": {"amenity": "place_of_worship", "building": "church", "denomination": "lutheran", "name": "Christ the Saviour Lutheran Church", "religion": "christian"}}, {"type": "way", "id": 260830755, "nodes": [2663997322, 2663997353, 2663997414, 2663997338, 2663997322], "tags": {"amenity": "place_of_worship", "building": "church", "name": "Centro Cristiano Nuevo Pacto", "religion": "christian"}}, {"type": "way", "id": 260830760, "nodes": [2663997429, 2663997462, 2663997328, 2663997366, 2663997384, 12953135788, 12953135787, 2663997467, 12953135790, 12953135789, 2663997429], "tags": {"amenity": "place_of_worship", "building": "church", "name": "Church of God of Prophecy", "religion": "christian"}}, {"type": "way", "id": 260830762, "nodes": [2663997314, 2663997464, 2663997324, 2663997445, 2663997344, 2663997421, 12953135769, 12953135770, 2663997341, 2663997428, 2663997320, 2663997390, 2663997314], "tags": {"addr:city": "George", "addr:housenumber": "404", "addr:postcode": "98824", "addr:state": "WA", "addr:street": "South Frontage Road West", "building": "yes", "name": "Shree's Truck Stop", "opening_hours": "24/7", "phone": "+1-509-785-2200", "shop": "convenience"}}, {"type": "way", "id": 260830763, "nodes": [2663997343, 2663997444, 2663997355, 2663997468, 2663997343], "tags": {"amenity": "parking"}}, {"type": "way", "id": 260830765, "nodes": [2663997423, 2663997370, 2663997448, 2663997373, 2663997356, 2663997371, 10069685054, 356543349, 12953135816, 2663997452, 2663997423], "tags": {"amenity": "school", "ele": "374", "gnis:feature_id": "1515000", "name": "George Elementary School"}}, {"type": "way", "id": 379010897, "nodes": [3823629338, 3823629259, 3823629261, 3823629355, 3823629338], "tags": {"amenity": "post_office", "brand": "United States Post Office", "brand:wikidata": "Q668687", "building": "public", "name": "United States Post Office", "operator": "United States Postal Service", "operator:short": "USPS", "operator:type": "public", "operator:website": "https://www.usps.com", "operator:wikidata": "Q668687", "operator:wikipedia": "en:United States Postal Service"}}, {"type": "way", "id": 379010900, "nodes": [3823628926, 3823629347, 3823629258, 3823629431, 3823628926], "tags": {"building": "yes", "name": "Colonial Market", "shop": "supermarket"}}, {"type": "way", "id": 454803600, "nodes": [2663997412, 4513136908, 8644631086, 8644631087, 4513136906, 4513136905, 8644631088, 8644631089, 2663997412], "tags": {"amenity": "fuel", "building": "roof", "hgv": "no", "layer": "1", "name": "Shree's Truck Stop"}}, {"type": "way", "id": 474928064, "nodes": [4687812614, 4687812615, 4687812616, 4687812617, 4687812614], "tags": {"building": "yes", "building:levels": "1", "name": "Chester's", "roof:levels": "0", "shop": "convenience"}}, {"type": "way", "id": 932560073, "nodes": [8644631081, 8644631082, 8644631083, 8644631084, 8644631085, 8644631081], "tags": {"amenity": "parking", "name": "George Park & Ride", "park_ride": "yes"}}, {"type": "way", "id": 1364594355, "nodes": [12637074523, 12637074524, 10069685068, 12637074526, 12637074523], "tags": {"addr:city": "George", "addr:housenumber": "504", "addr:postcode": "98848", "addr:state": "WA", "addr:street": "South Frontage Road West", "amenity": "fast_food", "brand": "Fatburger", "brand:wikidata": "Q1397976", "building": "restaurant", "cuisine": "burger", "drive_through": "yes", "name": "Fatburger", "opening_hours": "Mo-Su 11:00-19:00", "phone": "+1-509-797-2272", "takeaway": "yes", "website": "https://locations.fatburger.com/ll/US/WA/George/504-S-Frontage-Rd-NW"}}, {"type": "way", "id": 1364594356, "nodes": [12637074527, 10069685049, 12637074529, 12637074530, 12637074527], "tags": {"addr:city": "George", "addr:housenumber": "502", "addr:postcode": "98848", "addr:state": "WA", "addr:street": "South Frontage Road West", "amenity": "cafe", "building": "yes", "contact:facebook": "https://www.facebook.com/people/Wicked-GOAT-Brew/100057554155970/", "cuisine": "coffee_shop", "description": "The \"G.O.A.T.\" in the name stands for \"Greatest of All Time\".", "email": "Wickedgoatbrew@gmail.com", "name": "Wicked G.O.A.T. Brew", "old_name:-2021": "Iron Horse Coffee", "opening_hours": "Mo-Su 07:00-17:00"}}, {"type": "way", "id": 1364594357, "nodes": [12637074531, 12637074532, 12637074533, 12637074534, 12953135776, 12953135775, 12953135774, 10069563118, 12637074531], "tags": {"building": "yes", "name": "Sandoval Market", "shop": "butcher"}}, {"type": "way", "id": 1368195269, "nodes": [12671004579, 12671004575, 12671004576, 12671004577, 12671004579], "tags": {"amenity": "fuel", "building": "roof", "hgv": "yes"}}, {"type": "way", "id": 1409648151, "nodes": [12953135773, 10069685031, 12953135771, 12953135772, 12953135773], "tags": {"amenity": "cafe", "building": "yes", "cuisine": "coffee_shop", "name": "Espresso"}}, {"type": "way", "id": 1409648288, "nodes": [12953136621, 12953136620, 8165462967, 12953136619, 12953136618, 12953136634, 12953136633, 12953136632, 12953136631, 12953136630, 12953136629, 12953136628, 12953136627, 12953136626, 12953136625, 12953136624, 12953136623, 12953136622, 12953136621], "tags": {"addr:city": "George", "addr:housenumber": "101", "addr:postcode": "98848", "addr:state": "WA", "addr:street": "Richmond Avenue", "amenity": "fire_station", "building": "yes", "name": "Grant County Fire District 3 Station 35", "source": "microsoft/BuildingFootprints"}}]}