{"version": 0.6, "generator": "Overpass API 0.7.62.8 e802775f", "osm3s": {"timestamp_osm_base": "2025-12-08T22:05:44Z", "copyright": "The data included in this document is from www.openstreetmap.org. The data is made available under ODbL."}, "elements": [{"type": "node", "id": 357979690, "lat": 47.1879812, "lon": -114.8850444, "tags": {"addr:city": "Superior", "addr:housenumber": "29", "addr:postcode": "59872", "addr:street": "Choo Choo Lane", "amenity": "place_of_worship", "denomination": "seventh_day_adventist", "gnis:feature_id": "1781576", "name": "Superior Seventh Day Adventist Church", "religion": "christian", "website": "https://superiormt.adventistchurch.org/"}}, {"type": "node", "id": 357979705, "lat": 47.1883258, "lon": -114.8857236, "tags": {"amenity": "place_of_worship", "ele": "849", "gnis:feature_id": "1781578", "name": "Superior Church of Christ", "religion": "christian"}}, {"type": "node", "id": 357979715, "lat": 47.1904721, "lon": -114.8836344}, {"type": "node", "id": 357979720, "lat": 47.1953693, "lon": -114.9003403}, {"type": "node", "id": 357979726, "lat": 47.1943715, "lon": -114.8851311, "tags": {"amenity": "place_of_worship", "ele": "822", "gnis:feature_id": "1781582", "name": "Superior Assembly of God Church", "religion": "christian"}}, {"type": "node", "id": 357979732, "lat": 47.189275, "lon": -114.8823363}, {"type": "node", "id": 357979737, "lat": 47.195205, "lon": -114.8912424, "tags": {"amenity": "place_of_worship", "denomination": "methodist", "ele": "821", "gnis:feature_id": "1781584", "name": "Mineral County Parish of United Methodist Church", "religion": "christian"}}, {"type": "node", "id": 357979740, "lat": 47.1901103, "lon": -114.8836893}, {"type": "node", "id": 357979865, "lat": 47.1862665, "lon": -114.8766918}, {"type": "node", "id": 357979868, "lat": 47.1856313, "lon": -114.8776294}, {"type": "node", "id": 357979873, "lat": 47.1851236, "lon": -114.876388, "tags": {"amenity": "nursing_home", "gnis:feature_id": "1781678", "name": "Mineral Community Nursing Home"}}, {"type": "node", "id": 366093048, "lat": 47.1927952, "lon": -114.8904504, "tags": {"addr:state": "MT", "amenity": "courthouse", "ele": "834", "gnis:feature_id": "1781702", "name": "Mineral County Courthouse", "source": "USGS Geonames"}}, {"type": "node", "id": 366093205, "lat": 47.1928566, "lon": -114.8901265, "tags": {"addr:state": "MT", "amenity": "fire_station", "ele": "834", "gnis:feature_id": "1781704", "name": "Superior Fire Department", "source": "USGS Geonames"}}, {"type": "node", "id": 366093394, "lat": 47.1940624, "lon": -114.8877974, "tags": {"addr:city": "Superior", "addr:housenumber": "301", "addr:postcode": "59872", "addr:state": "MT", "addr:street": "2nd Avenue East", "amenity": "library", "ele": "825", "gnis:feature_id": "1781735", "name": "Mineral County Public Library", "opening_hours:covid19": "Mo-Th 10:00-16:00", "source": "USGS Geonames", "website": "https://mineralcountylibrary.org"}}, {"type": "node", "id": 2657235877, "lat": 47.1939059, "lon": -114.891432, "tags": {"addr:city": "Superior", "addr:housenumber": "207", "addr:street": "River Street", "amenity": "pharmacy", "check_date": "2023-07-23", "currency:XBT": "yes", "healthcare": "pharmacy", "name": "Mineral Pharmacy", "opening_hours": "Mo-Fr 09:00-18:00", "payment:dogecoin": "yes", "payment:onchain": "yes", "website": "https://www.mineraldrug.com/"}}, {"type": "node", "id": 4462845034, "lat": 47.1892185, "lon": -114.8855675}, {"type": "node", "id": 4462845035, "lat": 47.1892559, "lon": -114.8856359}, {"type": "node", "id": 4462845036, "lat": 47.1893562, "lon": -114.8852818}, {"type": "node", "id": 4462845037, "lat": 47.1893944, "lon": -114.8853489}, {"type": "node", "id": 4462845038, "lat": 47.189388, "lon": -114.8858343}, {"type": "node", "id": 4462845039, "lat": 47.189491, "lon": -114.8860252}, {"type": "node", "id": 4462845040, "lat": 47.1895018, "lon": -114.8860248}, {"type": "node", "id": 4462845041, "lat": 47.1895037, "lon": -114.8861273}, {"type": "node", "id": 4462845042, "lat": 47.189532, "lon": -114.8856747}, {"type": "node", "id": 4462845043, "lat": 47.1895995, "lon": -114.8863023}, {"type": "node", "id": 4462845044, "lat": 47.1896477, "lon": -114.885896}, {"type": "node", "id": 4462845045, "lat": 47.1896833, "lon": -114.8864686}, {"type": "node", "id": 4462845046, "lat": 47.1897133, "lon": -114.8859738}, {"type": "node", "id": 4462845047, "lat": 47.1897161, "lon": -114.8861186}, {"type": "node", "id": 4462845048, "lat": 47.1897909, "lon": -114.8862996}, {"type": "node", "id": 4462845049, "lat": 47.1898765, "lon": -114.8864659}, {"type": "node", "id": 4462845050, "lat": 47.1898855, "lon": -114.886845}, {"type": "node", "id": 4462845051, "lat": 47.1899275, "lon": -114.8869165}, {"type": "node", "id": 4462845052, "lat": 47.1900058, "lon": -114.8866921}, {"type": "node", "id": 4462845053, "lat": 47.1900478, "lon": -114.8867636}, {"type": "node", "id": 4919351545, "lat": 47.1855482, "lon": -114.87762}, {"type": "node", "id": 4919351546, "lat": 47.1855951, "lon": -114.8776357}, {"type": "node", "id": 4919351547, "lat": 47.1849045, "lon": -114.8748133}, {"type": "node", "id": 4919351548, "lat": 47.1842374, "lon": -114.8757823}, {"type": "node", "id": 6635828210, "lat": 47.19215, "lon": -114.8889, "tags": {"access": "customers", "addr:city": "Superior", "addr:country": "US", "addr:housenumber": "205", "addr:postcode": "59872", "addr:state": "MT", "addr:street": "East 4th Avenue", "amenity": "charging_station", "authentication:app": "yes", "bicycle": "no", "brand": "Tesla Supercharger", "brand:en": "Tesla Supercharger", "brand:website": "https://www.tesla.com/supercharger", "brand:wikidata": "Q17089620", "bus": "no", "capacity": "4", "ele": "829", "fee": "yes", "frequency": "0", "hgv": "no", "maxstay": "no", "motorcar": "designated", "name": "Tesla Supercharger", "network": "Supercharger", "network:website": "https://www.tesla.com/supercharger", "network:wikidata": "Q17089620", "note": "This Tesla Supercharger was edited or added by the June 2025 import from supercharge.info... if you have any questions, comments, or concerns, please reach out to the US Slack / Forum", "opening_hours": "24/7", "operator": "Tesla, Inc.", "operator:wikidata": "Q478214", "operator:wikipedia": "en:Tesla, Inc.", "payment:app:tesla": "yes", "ref:plugshare": "58621", "ref:supercharge_info": "414", "reservation": "no", "scooter": "no", "socket:nacs": "4", "socket:nacs:output": "150", "source": "https://supercharge.info", "start_date": "2014-12-05", "website": "https://www.tesla.com/findus/location/supercharger/superiormtsupercharger"}}, {"type": "node", "id": 6635828214, "lat": 47.1923123, "lon": -114.888752}, {"type": "node", "id": 6635828215, "lat": 47.1922414, "lon": -114.8887593}, {"type": "node", "id": 6635828216, "lat": 47.1922264, "lon": -114.8884446}, {"type": "node", "id": 6635828217, "lat": 47.1922973, "lon": -114.8884373}, {"type": "node", "id": 6635828218, "lat": 47.1923781, "lon": -114.8889819}, {"type": "node", "id": 6635828219, "lat": 47.1922493, "lon": -114.888997}, {"type": "node", "id": 6635828220, "lat": 47.1922436, "lon": -114.8888932}, {"type": "node", "id": 6635828221, "lat": 47.1923725, "lon": -114.888878}, {"type": "node", "id": 8341105443, "lat": 47.1866655, "lon": -114.877687}, {"type": "node", "id": 8341105444, "lat": 47.1867656, "lon": -114.8775337}, {"type": "node", "id": 8341105445, "lat": 47.1870311, "lon": -114.877909}, {"type": "node", "id": 8341105446, "lat": 47.1869625, "lon": -114.8780141}, {"type": "node", "id": 8341105447, "lat": 47.1869099, "lon": -114.8779398}, {"type": "node", "id": 8341105448, "lat": 47.1868784, "lon": -114.877988}, {"type": "node", "id": 8341105564, "lat": 47.1927234, "lon": -114.8902124}, {"type": "node", "id": 8341105565, "lat": 47.1927544, "lon": -114.89021}, {"type": "node", "id": 8341105566, "lat": 47.1927436, "lon": -114.8899074}, {"type": "node", "id": 8341105567, "lat": 47.1929549, "lon": -114.8898911}, {"type": "node", "id": 8341105568, "lat": 47.1929699, "lon": -114.8903115}, {"type": "node", "id": 8341105569, "lat": 47.1927276, "lon": -114.8903303}, {"type": "node", "id": 8341105570, "lat": 47.192842, "lon": -114.8892635, "tags": {"addr:city": "Superior", "addr:housenumber": "202", "addr:postcode": "59872", "addr:street": "4th Avenue East", "amenity": "restaurant", "cuisine": "american", "name": "Durango's Restaurant", "website": "http://www.durangosmontana.com/"}}, {"type": "node", "id": 8341105637, "lat": 47.1935753, "lon": -114.890024}, {"type": "node", "id": 8341105638, "lat": 47.1938894, "lon": -114.8899987}, {"type": "node", "id": 8341105639, "lat": 47.1938993, "lon": -114.8902298}, {"type": "node", "id": 8341105640, "lat": 47.1935852, "lon": -114.8902587}, {"type": "node", "id": 8341105649, "lat": 47.1948287, "lon": -114.8903498, "tags": {"addr:city": "Superior", "addr:housenumber": "100", "addr:postcode": "59872", "addr:street": "River Street", "amenity": "cafe", "name": "Whipped Up"}}, {"type": "node", "id": 8341105682, "lat": 47.1905759, "lon": -114.8834792}, {"type": "node", "id": 8341105683, "lat": 47.1907481, "lon": -114.8837286}, {"type": "node", "id": 8341105684, "lat": 47.1906443, "lon": -114.8838839}, {"type": "node", "id": 8341105686, "lat": 47.1907308, "lon": -114.8833516}, {"type": "node", "id": 8341105687, "lat": 47.1908802, "lon": -114.8835702}, {"type": "node", "id": 8341105688, "lat": 47.1908038, "lon": -114.8836833}, {"type": "node", "id": 8341105689, "lat": 47.1906544, "lon": -114.8834647}, {"type": "node", "id": 8341105730, "lat": 47.1892176, "lon": -114.8822527}, {"type": "node", "id": 8341105731, "lat": 47.1893114, "lon": -114.8821131}, {"type": "node", "id": 8341105732, "lat": 47.1893689, "lon": -114.8821967}, {"type": "node", "id": 8341105784, "lat": 47.195357, "lon": -114.9000985}, {"type": "node", "id": 8341105785, "lat": 47.1955106, "lon": -114.9000815}, {"type": "node", "id": 8341105786, "lat": 47.1955229, "lon": -114.9003233}, {"type": "node", "id": 8870877162, "lat": 47.1945525, "lon": -114.8885003}, {"type": "node", "id": 8870877163, "lat": 47.1945518, "lon": -114.8884589}, {"type": "node", "id": 8870877164, "lat": 47.1945525, "lon": -114.8887035}, {"type": "node", "id": 8870877165, "lat": 47.1945536, "lon": -114.8887648}, {"type": "node", "id": 8870877166, "lat": 47.1944098, "lon": -114.8885058}, {"type": "node", "id": 8870877167, "lat": 47.1944134, "lon": -114.8887088}, {"type": "node", "id": 8870877168, "lat": 47.1946282, "lon": -114.8887619}, {"type": "node", "id": 8870877169, "lat": 47.1946227, "lon": -114.8884562}, {"type": "node", "id": 9573442244, "lat": 47.1883584, "lon": -114.8847919, "tags": {"name": "MRL Superior Office", "office": "yes"}}, {"type": "node", "id": 11198635480, "lat": 47.1952062, "lon": -114.8903567, "tags": {"amenity": "fast_food", "name": "River Side Soups & Sandz"}}, {"type": "node", "id": 11950007478, "lat": 47.19369, "lon": -114.8900134}, {"type": "node", "id": 11950007479, "lat": 47.1936887, "lon": -114.8899831}, {"type": "node", "id": 11950007480, "lat": 47.19373, "lon": -114.8899792}, {"type": "node", "id": 11950007481, "lat": 47.1937314, "lon": -114.8900132}, {"type": "node", "id": 12089524333, "lat": 47.1988936, "lon": -114.8907434}, {"type": "node", "id": 12089524334, "lat": 47.1988505, "lon": -114.8906513}, {"type": "node", "id": 12089524335, "lat": 47.1988948, "lon": -114.8905977}, {"type": "node", "id": 12089524336, "lat": 47.1989708, "lon": -114.8905601}, {"type": "node", "id": 12089524337, "lat": 47.199023, "lon": -114.8906602}, {"type": "node", "id": 12089527511, "lat": 47.1926454, "lon": -114.8799468, "tags": {"amenity": "toilets", "toilets:disposal": "pitlatrine"}}, {"type": "node", "id": 12089527517, "lat": 47.1928046, "lon": -114.8802016}, {"type": "node", "id": 12089527518, "lat": 47.1927566, "lon": -114.8799888}, {"type": "node", "id": 12089527519, "lat": 47.192976, "lon": -114.8798395}, {"type": "node", "id": 12089527520, "lat": 47.1931412, "lon": -114.8799092}, {"type": "node", "id": 12089527521, "lat": 47.1931175, "lon": -114.880071}, {"type": "node", "id": 12089527522, "lat": 47.1929602, "lon": -114.8800487}, {"type": "node", "id": 12089527523, "lat": 47.193284, "lon": -114.8807684}, {"type": "node", "id": 12089527524, "lat": 47.1932014, "lon": -114.8808328}, {"type": "node", "id": 12089527525, "lat": 47.1931011, "lon": -114.8806987}, {"type": "node", "id": 12089527526, "lat": 47.1932427, "lon": -114.8806281}, {"type": "node", "id": 12089527527, "lat": 47.1938356, "lon": -114.8812459}, {"type": "node", "id": 12089527528, "lat": 47.1937603, "lon": -114.8813102}, {"type": "node", "id": 12089527529, "lat": 47.1936279, "lon": -114.8811091}, {"type": "node", "id": 12089527530, "lat": 47.1936892, "lon": -114.8810304}, {"type": "node", "id": 12089527531, "lat": 47.1943277, "lon": -114.8818869}, {"type": "node", "id": 12089527532, "lat": 47.1942895, "lon": -114.8817725}, {"type": "node", "id": 12089527533, "lat": 47.1944243, "lon": -114.881776}, {"type": "node", "id": 12089527534, "lat": 47.1944997, "lon": -114.8817018}, {"type": "node", "id": 12089527535, "lat": 47.1945355, "lon": -114.8815588}, {"type": "node", "id": 12089527536, "lat": 47.1945969, "lon": -114.8816661}, {"type": "node", "id": 12089527537, "lat": 47.1945282, "lon": -114.8818288}, {"type": "node", "id": 12089527538, "lat": 47.1944019, "lon": -114.8819119}, {"type": "node", "id": 12089527539, "lat": 47.1946708, "lon": -114.881736, "tags": {"amenity": "toilets", "toilets:disposal": "pitlatrine"}}, {"type": "node", "id": 12394511493, "lat": 47.186865, "lon": -114.8796873}, {"type": "node", "id": 12394511494, "lat": 47.1863676, "lon": -114.8768039}, {"type": "node", "id": 12394511496, "lat": 47.1892194, "lon": -114.8797822}, {"type": "node", "id": 12394511497, "lat": 47.1880086, "lon": -114.8780626}, {"type": "node", "id": 12394511499, "lat": 47.1876981, "lon": -114.8785157}, {"type": "node", "id": 12394511500, "lat": 47.1875572, "lon": -114.8785099}, {"type": "node", "id": 12394552806, "lat": 47.1901764, "lon": -114.8837906}, {"type": "node", "id": 12394552807, "lat": 47.1900229, "lon": -114.8840077}, {"type": "node", "id": 12394552808, "lat": 47.1899567, "lon": -114.8839063}, {"type": "node", "id": 12394552815, "lat": 47.1881258, "lon": -114.8814437}, {"type": "node", "id": 12394552825, "lat": 47.1886887, "lon": -114.8805886}, {"type": "node", "id": 12394608331, "lat": 47.185595, "lon": -114.877958}, {"type": "way", "id": 449311903, "nodes": [4462845037, 4462845035, 4462845034, 4462845036, 4462845037], "tags": {"amenity": "fuel", "building": "roof", "hgv": "yes"}}, {"type": "way", "id": 449311904, "nodes": [4462845049, 4462845045, 4462845043, 4462845048, 4462845049], "tags": {"amenity": "fuel", "brand": "Exxon", "brand:wikidata": "Q109675651", "building": "roof", "fuel:diesel": "yes", "fuel:octane_87": "yes", "fuel:taxfree_diesel": "yes", "layer": "1", "name": "Exxon"}}, {"type": "way", "id": 449311908, "nodes": [4462845053, 4462845052, 4462845050, 4462845051, 4462845053], "tags": {"amenity": "fuel", "brand": "Pilot", "building": "roof", "layer": "1", "name": "Exxon", "name:en": "Exxon"}}, {"type": "way", "id": 449311909, "nodes": [4462845042, 4462845044, 4462845046, 4462845047, 4462845041, 4462845040, 4462845039, 4462845038, 4462845042], "tags": {"brand": "Town Pump", "brand:wikidata": "Q7830004", "building": "retail", "name": "Town Pump", "shop": "convenience"}}, {"type": "way", "id": 501029557, "nodes": [4919351548, 4919351547, 357979865, 357979868, 4919351546, 4919351545, 4919351548], "tags": {"addr:city": "Superior", "addr:housenumber": "1208", "addr:postcode": "59872", "addr:state": "MT", "addr:street": "6th Avenue East", "amenity": "hospital", "emergency": "yes", "gnis:feature_id": "1781676", "healthcare": "hospital", "name": "Mineral Community Hospital", "opening_hours": "24/7", "phone": "+1 406 822 4841", "website": "https://mineralcommunityhospital.com/"}}, {"type": "way", "id": 706227753, "nodes": [6635828214, 6635828215, 6635828216, 6635828217, 6635828214], "tags": {"building": "yes", "name": "S&S", "shop": "convenience"}}, {"type": "way", "id": 706227754, "nodes": [6635828218, 6635828219, 6635828220, 6635828221, 6635828218], "tags": {"amenity": "fuel", "building": "roof", "layer": "1"}}, {"type": "way", "id": 897441425, "nodes": [8341105448, 8341105447, 8341105446, 8341105445, 8341105444, 8341105443, 8341105448], "tags": {"amenity": "parking", "parking": "surface"}}, {"type": "way", "id": 897441450, "nodes": [8341105569, 8341105568, 8341105567, 8341105566, 8341105565, 8341105564, 8341105569], "tags": {"addr:city": "Superior", "addr:housenumber": "310", "addr:postcode": "59872", "addr:state": "MT", "addr:street": "River Street", "amenity": "police", "building": "yes", "ele": "834", "emergency": "psap", "gnis:feature_id": "1781706", "name": "Mineral County Sheriff Department", "source": "USGS Geonames"}}, {"type": "way", "id": 897441467, "nodes": [8341105640, 8341105639, 8341105638, 11950007481, 11950007480, 11950007479, 11950007478, 8341105637, 8341105640], "tags": {"addr:city": "Superior", "addr:housenumber": "104", "addr:postcode": "59872", "addr:street": "3rd Avenue East", "amenity": "post_office", "building": "yes", "ele": "833", "gnis:feature_id": "1781600", "name": "Superior Post Office", "operator": "United States Postal Service", "operator:short": "USPS", "operator:type": "public", "operator:website": "https://www.usps.com", "operator:wikidata": "Q668687", "operator:wikipedia": "en:United States Postal Service"}}, {"type": "way", "id": 897441478, "nodes": [357979715, 8341105684, 8341105683, 8341105682, 357979715], "tags": {"addr:city": "Superior", "addr:housenumber": "502", "addr:postcode": "59872", "addr:state": "MT", "addr:street": "Pike Street", "amenity": "place_of_worship", "building": "yes", "denomination": "baptist", "ele": "837", "gnis:feature_id": "1781580", "name": "Parkside Baptist Church", "religion": "christian"}}, {"type": "way", "id": 897441479, "nodes": [8341105689, 8341105688, 8341105687, 8341105686, 8341105689], "tags": {"amenity": "community_centre", "building": "yes", "name": "Superior Senior Center"}}, {"type": "way", "id": 897441485, "nodes": [357979732, 8341105732, 8341105731, 8341105730, 357979732], "tags": {"addr:city": "Superior", "addr:housenumber": "626", "addr:state": "MT", "addr:street": "6th Avenue East", "amenity": "place_of_worship", "building": "yes", "denomination": "jehovahs_witness", "ele": "839", "gnis:feature_id": "1781583", "name": "Kingdom Hall of Jehovah's Witnesses", "religion": "christian"}}, {"type": "way", "id": 897441494, "nodes": [357979720, 8341105786, 8341105785, 8341105784, 357979720], "tags": {"amenity": "place_of_worship", "building": "yes", "ele": "827", "gnis:feature_id": "1781581", "name": "Superior Community Church", "religion": "christian"}}, {"type": "way", "id": 958728380, "nodes": [8870877169, 8870877163, 8870877162, 8870877166, 8870877167, 8870877164, 8870877165, 8870877168, 8870877169], "tags": {"addr:city": "Superior", "addr:housenumber": "204", "addr:postcode": "59872", "addr:state": "MT", "addr:street": "2nd Avenue East", "amenity": "place_of_worship", "building": "church", "denomination": "roman_catholic", "diocese": "Helena", "ele": "824", "fax": "+1 406-626-1970", "gnis:feature_id": "1781579", "name": "Saint Mary Queen of Heaven Catholic Church", "phone": "+1 406-626-4492", "religion": "christian", "website": "https://www.clarkforkcatholic.com/"}}, {"type": "way", "id": 1305307263, "nodes": [12089527517, 12089527518, 12089527519, 12089527520, 12089527521, 12089527522, 12089527517], "tags": {"amenity": "parking"}}, {"type": "way", "id": 1305307264, "nodes": [12089527523, 12089527524, 12089527525, 12089527526, 12089527523], "tags": {"amenity": "parking"}}, {"type": "way", "id": 1305307265, "nodes": [12089527527, 12089527528, 12089527529, 12089527530, 12089527527], "tags": {"amenity": "parking"}}, {"type": "way", "id": 1305307266, "nodes": [12089527531, 12089527532, 12089527533, 12089527534, 12089527535, 12089527536, 12089527537, 12089527538, 12089527531], "tags": {"amenity": "parking"}}, {"type": "way", "id": 1305307976, "nodes": [12089524333, 12089524334, 12089524335, 12089524336, 12089524337, 12089524333], "tags": {"amenity": "parking"}}, {"type": "way", "id": 1339917748, "nodes": [12394608331, 12394511494, 12394511500, 12394511499, 12394511497, 12394511496, 12394552825, 12394552815, 12394511493, 12394608331], "tags": {"amenity": "school", "name": "Superior Public Schools"}}, {"type": "way", "id": 1339917750, "nodes": [357979740, 12394552806, 12394552807, 12394552808, 357979740], "tags": {"amenity": "place_of_worship", "building": "yes", "denomination": "lutheran", "ele": "838", "gnis:feature_id": "1781585", "name": "Trinity Lutheran Church", "religion": "christian", "source": "microsoft/BuildingFootprints"}}]}