{"version": 0.6, "generator": "Overpass API 0.7.62.8 e802775f", "osm3s": {"timestamp_osm_base": "2025-12-12T16:56:33Z", "copyright": "The data included in this document is from www.openstreetmap.org. The data is made available under ODbL."}, "elements": [{"type": "node", "id": 1213565396, "lat": 39.7154472, "lon": -104.9945287}, {"type": "node", "id": 1213565397, "lat": 39.7159505, "lon": -104.9945318}, {"type": "node", "id": 1213565398, "lat": 39.7154489, "lon": -104.9941743}, {"type": "node", "id": 1213565399, "lat": 39.7155398, "lon": -104.9942129}, {"type": "node", "id": 1213565400, "lat": 39.7156088, "lon": -104.9942133}, {"type": "node", "id": 1213565404, "lat": 39.7158349, "lon": -104.9942396}, {"type": "node", "id": 1213565405, "lat": 39.7155399, "lon": -104.9941748}, {"type": "node", "id": 1213565406, "lat": 39.7158352, "lon": -104.9941747}, {"type": "node", "id": 1213565408, "lat": 39.7159516, "lon": -104.9942403}, {"type": "node", "id": 1213565409, "lat": 39.715609, "lon": -104.9941732}, {"type": "node", "id": 3499487658, "lat": 39.7306373, "lon": -104.999205, "tags": {"addr:city": "Denver", "addr:housenumber": "923", "addr:postcode": "80204", "addr:state": "CO", "addr:street": "West 9th Avenue", "leisure": "fitness_centre", "name": "Muscle + Mindset", "phone": "+1-720-445-5792", "sport": "weightlifting", "website": "https://www.muscleandmindset.com"}}, {"type": "node", "id": 6292251804, "lat": 39.7000894, "lon": -104.980023, "tags": {"addr:city": "Denver", "addr:housenumber": "614", "addr:postcode": "80209", "addr:state": "CO", "addr:street": "East Kentucky Avenue", "alt_name": "The Pilates Studio", "leisure": "fitness_centre", "name": "PS: The Pilates Studio", "phone": "+1-303-733-3833", "sport": "pilates", "website": "https://www.psdenver.com/"}}, {"type": "node", "id": 7251669274, "lat": 39.7308311, "lon": -104.9859473, "tags": {"leisure": "fitness_centre", "name": "Block 21 Fitness"}}, {"type": "node", "id": 9359397516, "lat": 39.7005521, "lon": -104.9990239, "tags": {"addr:city": "Denver", "addr:housenumber": "888", "addr:postcode": "80223", "addr:state": "CO", "addr:street": "South Jason Street", "addr:unit": "Unit 1", "leisure": "fitness_centre", "name": "Kb Wellness Center", "phone": "+1-720-257-7753", "sport": "fitness;exercise", "website": "https://kbwellnesscenter.com/"}}, {"type": "node", "id": 9784527418, "lat": 39.7206048, "lon": -105.016769, "tags": {"addr:city": "Denver", "addr:housenumber": "2485", "addr:postcode": "80223", "addr:state": "CO", "addr:street": "West 2nd Avenue", "contact:facebook": "DenverBoulderingClub", "contact:instagram": "denverboulderingclub", "contact:twitter": "dnvrbldringclub", "email": "climb@denverboulderingclub.com", "leisure": "fitness_centre", "name": "Denver Bouldering Club", "opening_hours": "Mo-Fr 12:00-22:00; Sa-Su 09:00-19:00", "phone": "+1-303-351-5588", "website": "https://www.denverboulderingclub.com/"}}, {"type": "node", "id": 12533655781, "lat": 39.7158691, "lon": -104.9871476, "tags": {"addr:city": "Denver", "addr:housenumber": "40", "addr:postcode": "80209", "addr:state": "CO", "addr:street": "South Broadway", "addr:unit": "201", "leisure": "fitness_centre", "name": "MOVE Studios", "opening_hours": "Mo-Th 07:00-19:30; Fr 07:00-14:00; Sa 08:00-14:00", "phone": "+1-303-999-0405", "website": "https://www.movestudiosdenver.com/"}}, {"type": "node", "id": 12535063654, "lat": 39.7148557, "lon": -104.9819694, "tags": {"addr:city": "Denver", "addr:housenumber": "421", "addr:postcode": "80209", "addr:state": "CO", "addr:street": "East Bayaud Avenue", "leisure": "fitness_centre", "name": "Fitwall Washington Park", "opening_hours": "Mo-th 05:30-19:30; Fr 05:30-18:30; Sa 08:00-12:00; Su 08:00-12:30", "phone": "+1-720-688-1398", "website": "https://www.fitwalldenver.com/"}}, {"type": "node", "id": 12704865603, "lat": 39.7154484, "lon": -104.9943396}, {"type": "node", "id": 12978101592, "lat": 39.6973308, "lon": -105.0103873, "tags": {"brand": "Planet Fitness", "brand:wikidata": "Q7201095", "check_date": "2025-07-04", "leisure": "fitness_centre", "name": "Planet Fitness"}}, {"type": "way", "id": 105307124, "nodes": [1213565397, 1213565396, 12704865603, 1213565398, 1213565405, 1213565399, 1213565400, 1213565409, 1213565406, 1213565404, 1213565408, 1213565397], "tags": {"access": "yes", "addr:city": "Denver", "addr:housenumber": "65", "addr:postcode": "80223", "addr:state": "CO", "addr:street": "South Elati Street", "building": "yes", "leisure": "fitness_centre", "name": "La Familia Recreation Center", "opening_hours": "Mo-Fr 08:00-20:00; Sa 10:00-16:00", "phone": "+1-720-865-2170", "website": "https://www.denvergov.org/Government/Agencies-Departments-Offices/Parks-Recreation/Recreation-Centers-Pools/Recreation-Centers/La-Familia-Recreation-Center"}}]}