{"version": 0.6, "generator": "Overpass API 0.7.62.8 e802775f", "osm3s": {"timestamp_osm_base": "2025-12-06T04:25:34Z", "copyright": "The data included in this document is from www.openstreetmap.org. The data is made available under ODbL."}, "elements": [{"type": "node", "id": 4172268291, "lat": 48.892414, "lon": -115.0563935, "tags": {"internet_access": "wlan", "shop": "laundry"}}, {"type": "node", "id": 5391399400, "lat": 48.888284, "lon": -115.056657}, {"type": "node", "id": 8413640892, "lat": 48.88851, "lon": -115.056835}, {"type": "node", "id": 8413640893, "lat": 48.888461, "lon": -115.056981}, {"type": "node", "id": 8413640894, "lat": 48.888441, "lon": -115.056966}, {"type": "node", "id": 8413640895, "lat": 48.888408, "lon": -115.057063}, {"type": "node", "id": 8413640896, "lat": 48.888341, "lon": -115.05701}, {"type": "node", "id": 8413640897, "lat": 48.888281, "lon": -115.057186}, {"type": "node", "id": 8413640898, "lat": 48.888141, "lon": -115.057075}, {"type": "node", "id": 9042002933, "lat": 48.8907656, "lon": -115.057482, "tags": {"addr:city": "Eureka", "addr:housenumber": "513", "addr:postcode": "59917", "addr:state": "MT", "addr:street": "US Highway 93 N", "branch": "Coldwell Banker Mason & Co", "brand": "Coldwell Banker", "brand:wikidata": "Q738853", "name": "Coldwell Banker", "office": "estate_agent", "opening_hours": "Mo-Fr 09:00-17:00", "phone": "+1 406-297-7002", "website": "https://www.BeInMontana.com"}}, {"type": "node", "id": 12787297776, "lat": 48.8755673, "lon": -115.0454788, "tags": {"addr:city": "Eureka", "addr:housenumber": "100", "addr:postcode": "59917", "addr:state": "MT", "addr:street": "Riverside Drive", "amenity": "cafe", "cuisine": "coffee_shop", "name": "Latte Da", "phone": "+ 1-406-297-7668"}}, {"type": "node", "id": 12787328488, "lat": 48.8759638, "lon": -115.0450227, "tags": {"addr:city": "Eureka", "addr:housenumber": "101", "addr:postcode": "59917", "addr:state": "MT", "addr:street": "Riverside Drive", "name": "Lancaster & Company", "office": "estate_agent", "phone": "+ 1-406-297-0144"}}, {"type": "node", "id": 12787331283, "lat": 48.8733013, "lon": -115.0413227, "tags": {"addr:city": "Eureka", "addr:housenumber": "133", "addr:postcode": "59917", "addr:state": "MT", "addr:street": "Riverside Drive", "name": "Apex Auto Body", "phone": "+ 1-406-297-2617", "shop": "car_repair"}}, {"type": "node", "id": 12793429852, "lat": 48.8753997, "lon": -115.0536663, "tags": {"addr:city": "Eureka", "addr:housenumber": "1", "addr:postcode": "59917", "addr:state": "MT", "addr:street": "Railroad Street", "name": "Mission Mountain Railroad", "office": "company", "phone": "+ 1-406-270-4159", "website": "https://www.watco.com/service/rail/mission-mountain-railroad-mmt/"}}, {"type": "way", "id": 906018766, "nodes": [5391399400, 8413640892, 8413640893, 8413640894, 8413640895, 8413640896, 8413640897, 8413640898, 5391399400], "tags": {"addr:city": "Eureka", "addr:housenumber": "355", "addr:state": "MT", "addr:street": "US-93 N", "building": "yes", "name": "Heavens Peak Organics Market", "shop": "supermarket", "source": "microsoft/BuildingFootprints", "website": "https://www.heavenspeakorganics.com/"}}]}