{"version": 0.6, "generator": "Overpass API 0.7.62.8 e802775f", "osm3s": {"timestamp_osm_base": "2025-12-06T04:25:34Z", "copyright": "The data included in this document is from www.openstreetmap.org. The data is made available under ODbL."}, "elements": [{"type": "node", "id": 366093939, "lat": 45.1897495, "lon": -109.2469002, "tags": {"addr:state": "MT", "ele": "1716", "fee": "yes", "fee:conditional": "no @ (age < 6)", "gnis:feature_id": "1726546", "name": "Carbon County Museum", "opening_hours": "Tu-Sa 10:00-16:00, Su-Mo off", "shop": "gift", "source": "USGS Geonames", "tourism": "museum", "website": "https://www.carboncountyhistory.com/"}}, {"type": "node", "id": 2972444436, "lat": 45.188969, "lon": -109.2481589}, {"type": "node", "id": 2972444437, "lat": 45.1889936, "lon": -109.2478665}, {"type": "node", "id": 2972444438, "lat": 45.1890154, "lon": -109.2481835}, {"type": "node", "id": 2972444439, "lat": 45.189051, "lon": -109.2484947}, {"type": "node", "id": 2972444440, "lat": 45.1892941, "lon": -109.2477955}, {"type": "node", "id": 2972444442, "lat": 45.1893706, "lon": -109.2484211}, {"type": "node", "id": 2972445062, "lat": 45.1870657, "lon": -109.2489001}, {"type": "node", "id": 2972445063, "lat": 45.1870784, "lon": -109.2490048}, {"type": "node", "id": 2972445064, "lat": 45.1870744, "lon": -109.2486074}, {"type": "node", "id": 2972445065, "lat": 45.1871097, "lon": -109.2488888}, {"type": "node", "id": 2972445066, "lat": 45.1875452, "lon": -109.2485002}, {"type": "node", "id": 2972445067, "lat": 45.1875889, "lon": -109.2488793}, {"type": "node", "id": 3040194902, "lat": 45.1930432, "lon": -109.2470123, "tags": {"amenity": "cafe", "cuisine": "coffee_shop", "drive_through": "only", "name": "City Brew Coffee", "takeaway": "only"}}, {"type": "node", "id": 3040194905, "lat": 45.1970423, "lon": -109.2467315, "tags": {"fixme": "survey", "name": "Esteem Salon", "shop": "hairdresser"}}, {"type": "node", "id": 3040194907, "lat": 45.1827258, "lon": -109.2472592, "tags": {"addr:housenumber": "105", "addr:street": "North Platt Avenue", "fax": "+1 406 4464031", "name": "Geo Link", "office": "company", "phone": "+1 406 4463654", "website": "https://www.geo-link.net/"}}, {"type": "node", "id": 3163921955, "lat": 45.1852685, "lon": -109.2471353, "tags": {"addr:city": "Red Lodge", "addr:housenumber": "115", "addr:postcode": "59068", "addr:state": "MT", "addr:street": "South Broadway Avenue", "amenity": "restaurant", "cuisine": "pizza", "name": "Red Lodge Pizza Co", "smoking": "no"}}, {"type": "node", "id": 3163921956, "lat": 45.1852104, "lon": -109.2471347, "tags": {"amenity": "bar", "name": "Natali's Front Bar", "smoking": "no"}}, {"type": "node", "id": 3163921957, "lat": 45.1851629, "lon": -109.2471343, "tags": {"amenity": "restaurant", "cuisine": "steak_house", "name": "Carbon County Steakhouse"}}, {"type": "node", "id": 4511752550, "lat": 45.1969481, "lon": -109.2461379}, {"type": "node", "id": 4511752551, "lat": 45.1966948, "lon": -109.2461996}, {"type": "node", "id": 4511752552, "lat": 45.1966758, "lon": -109.2460422}, {"type": "node", "id": 4511752553, "lat": 45.196929, "lon": -109.2459805}, {"type": "node", "id": 4511752587, "lat": 45.1894356, "lon": -109.2469375}, {"type": "node", "id": 4511752588, "lat": 45.1894365, "lon": -109.2468281}, {"type": "node", "id": 4511752889, "lat": 45.1896152, "lon": -109.2468311}, {"type": "node", "id": 4511752890, "lat": 45.189618, "lon": -109.2464926}, {"type": "node", "id": 4511752891, "lat": 45.1893401, "lon": -109.2464879}, {"type": "node", "id": 4511752892, "lat": 45.1893363, "lon": -109.2469358}, {"type": "node", "id": 4511752903, "lat": 45.1870406, "lon": -109.2468558}, {"type": "node", "id": 4511752904, "lat": 45.187354, "lon": -109.2468592}, {"type": "node", "id": 4511752905, "lat": 45.1873563, "lon": -109.2464319}, {"type": "node", "id": 4511752906, "lat": 45.1872175, "lon": -109.2464303}, {"type": "node", "id": 4511752907, "lat": 45.1872166, "lon": -109.2465875}, {"type": "node", "id": 4511752908, "lat": 45.1871416, "lon": -109.2465867}, {"type": "node", "id": 4511752909, "lat": 45.1871422, "lon": -109.2464895}, {"type": "node", "id": 4511752910, "lat": 45.1870426, "lon": -109.2464884}, {"type": "node", "id": 4511752946, "lat": 45.1858612, "lon": -109.2468451}, {"type": "node", "id": 4511752947, "lat": 45.1858677, "lon": -109.2465516}, {"type": "node", "id": 4511752948, "lat": 45.1857976, "lon": -109.2466237}, {"type": "node", "id": 4511752973, "lat": 45.1847053, "lon": -109.2468, "tags": {"name": "Bob's Barber Shop", "shop": "hairdresser"}}, {"type": "node", "id": 4511752974, "lat": 45.1848443, "lon": -109.2465724, "tags": {"amenity": "restaurant", "cuisine": "chinese", "name": "China Garden"}}, {"type": "node", "id": 4511752994, "lat": 45.1729287, "lon": -109.2518472}, {"type": "node", "id": 4511752995, "lat": 45.1729285, "lon": -109.251896}, {"type": "node", "id": 4511752996, "lat": 45.1729042, "lon": -109.2518958}, {"type": "node", "id": 4511752997, "lat": 45.1729044, "lon": -109.2518383}, {"type": "node", "id": 4511752998, "lat": 45.1728886, "lon": -109.2518381}, {"type": "node", "id": 4511752999, "lat": 45.1728888, "lon": -109.2517951}, {"type": "node", "id": 4511753000, "lat": 45.1728262, "lon": -109.2517945}, {"type": "node", "id": 4511753001, "lat": 45.1728264, "lon": -109.251737}, {"type": "node", "id": 4511753002, "lat": 45.172964, "lon": -109.2517382}, {"type": "node", "id": 4511753003, "lat": 45.1729635, "lon": -109.2518475}, {"type": "node", "id": 4511753004, "lat": 45.1719306, "lon": -109.2539581}, {"type": "node", "id": 4511753005, "lat": 45.1718824, "lon": -109.254111}, {"type": "node", "id": 4511753006, "lat": 45.1719607, "lon": -109.2541607}, {"type": "node", "id": 4511753007, "lat": 45.1720089, "lon": -109.2540078}, {"type": "node", "id": 4511753008, "lat": 45.196391, "lon": -109.2460724}, {"type": "node", "id": 4511753009, "lat": 45.1960677, "lon": -109.2461502}, {"type": "node", "id": 4511753010, "lat": 45.196088, "lon": -109.2463197}, {"type": "node", "id": 4511753011, "lat": 45.1964112, "lon": -109.2462419}, {"type": "node", "id": 4511753028, "lat": 45.1748084, "lon": -109.2501626}, {"type": "node", "id": 4511753029, "lat": 45.1747999, "lon": -109.2499923}, {"type": "node", "id": 4511753030, "lat": 45.1747122, "lon": -109.2500011}, {"type": "node", "id": 4511753031, "lat": 45.1747207, "lon": -109.2501714}, {"type": "node", "id": 5999477743, "lat": 45.1846376, "lon": -109.246799, "tags": {"name": "Hometown Sisters", "shop": "gift"}}, {"type": "node", "id": 5999477744, "lat": 45.1900395, "lon": -109.2468478, "tags": {"amenity": "restaurant", "bar": "yes", "check_date": "2023-07-17", "name": "La Palmita", "outdoor_seating": "yes", "wheelchair": "yes"}}, {"type": "node", "id": 5999477748, "lat": 45.1845548, "lon": -109.2471276, "tags": {"addr:city": "Red Lodge", "addr:housenumber": "209", "addr:postcode": "59068", "addr:state": "MT", "addr:street": "South Broadway Avenue", "name": "Cattail Bakery", "opening_hours": "Th-Mo 07:00-16:00", "phone": "+1-406-446-1600", "shop": "bakery"}}, {"type": "node", "id": 5999477749, "lat": 45.1844162, "lon": -109.2471744, "tags": {"name": "Greater Montana Realty", "office": "estate_agent"}}, {"type": "node", "id": 5999477751, "lat": 45.1862554, "lon": -109.2471688, "tags": {"amenity": "restaurant", "cuisine": "regional", "name": "Foster & Logan\u2019s", "outdoor_seating": "no", "smoking": "no", "wheelchair": "yes"}}, {"type": "node", "id": 5999477752, "lat": 45.1847629, "lon": -109.246801, "tags": {"amenity": "bar", "name": "Blue Ribbon Bar"}}, {"type": "node", "id": 5999477754, "lat": 45.1860289, "lon": -109.2477974, "tags": {"addr:housenumber": "105", "addr:street": "12th Street", "check_date": "2024-03-06", "name": "Babcock & Miles Market", "shop": "deli"}}, {"type": "node", "id": 5999477755, "lat": 45.1861212, "lon": -109.2471628, "tags": {"addr:housenumber": "22", "addr:street": "South Broadway Avenue", "check_date": "2023-01-17", "name": "Grizzly Peak Outdoors", "shop": "outdoor"}}, {"type": "node", "id": 5999477758, "lat": 45.1841203, "lon": -109.2471775, "tags": {"name": "Coleman Gallery & Studio", "shop": "photo"}}, {"type": "node", "id": 5999477761, "lat": 45.1848327, "lon": -109.2471438, "tags": {"name": "Red Lodge Commercial", "office": "estate_agent"}}, {"type": "node", "id": 5999477762, "lat": 45.184496, "lon": -109.247124, "tags": {"addr:city": "Red Lodge", "addr:housenumber": "211", "addr:postcode": "59068", "addr:state": "MT", "addr:street": "South Broadway Avenue", "name": "Covering Broadway", "opening_hours": "Mo-Fr 09:00-17:00", "shop": "flooring"}}, {"type": "node", "id": 5999477764, "lat": 45.1861881, "lon": -109.247165, "tags": {"name": "Paris Montana", "shop": "gift"}}, {"type": "node", "id": 5999503601, "lat": 45.185414, "lon": -109.247136, "tags": {"brand": "Berkshire Hathaway HomeServices", "brand:wikidata": "Q5887960", "name": "Berkshire Hathaway HomeServices", "office": "estate_agent", "short_name": "Berkshire Hathaway"}}, {"type": "node", "id": 5999503602, "lat": 45.1853412, "lon": -109.2467385, "tags": {"amenity": "restaurant", "name": "Carbon Fork"}}, {"type": "node", "id": 5999503603, "lat": 45.1857508, "lon": -109.2471472, "tags": {"name": "CMor Real Estate", "office": "estate_agent"}}, {"type": "node", "id": 5999503605, "lat": 45.1853416, "lon": -109.2471361, "tags": {"name": "C.C. Legends", "shop": "gift"}}, {"type": "node", "id": 5999503607, "lat": 45.1854216, "lon": -109.2468068, "tags": {"name": "The Kitchen Shop", "shop": "kitchen"}}, {"type": "node", "id": 5999503608, "lat": 45.185626, "lon": -109.2468246, "tags": {"name": "Moo Country", "shop": "clothes"}}, {"type": "node", "id": 6001653068, "lat": 45.1825767, "lon": -109.247119}, {"type": "node", "id": 6001653071, "lat": 45.1856808, "lon": -109.2471431, "tags": {"name": "Sisters on Broadway", "shop": "clothes"}}, {"type": "node", "id": 6011229552, "lat": 45.1865922, "lon": -109.2468512, "tags": {"name": "Lotions & Potions", "shop": "cosmetics"}}, {"type": "node", "id": 6011229553, "lat": 45.1863196, "lon": -109.2471717, "tags": {"name": "Mystic Mountain", "shop": "outdoor"}}, {"type": "node", "id": 6011229554, "lat": 45.1864123, "lon": -109.2471758, "tags": {"name": "Bunny's Brush", "shop": "craft"}}, {"type": "node", "id": 6011249761, "lat": 45.1857937, "lon": -109.2468421}, {"type": "node", "id": 6011249762, "lat": 45.1858339, "lon": -109.2466253}, {"type": "node", "id": 6011249763, "lat": 45.1858355, "lon": -109.2465502}, {"type": "node", "id": 6011379054, "lat": 45.1857464, "lon": -109.246834, "tags": {"addr:city": "Red Lodge", "addr:housenumber": "104", "addr:postcode": "59068", "addr:state": "MT", "addr:street": "South Broadway Avenue", "amenity": "restaurant", "cuisine": "american", "name": "PREROGATIvE Kitchen", "opening_hours": "Fr-Tu 11:30-20:30", "outdoor_seating": "no", "phone": "+1-406-445-3232", "smoking": "no", "website": "https://prerogativekitchen.com"}}, {"type": "node", "id": 6020504312, "lat": 45.194051, "lon": -109.246102, "tags": {"name": "Town Pump", "operator": "Town Pump", "shop": "convenience"}}, {"type": "node", "id": 6146625658, "lat": 45.187356, "lon": -109.2464885}, {"type": "node", "id": 6146625665, "lat": 45.1877255, "lon": -109.2471975, "tags": {"name": "Bull N bear", "shop": "clothes"}}, {"type": "node", "id": 6146625666, "lat": 45.1875166, "lon": -109.2471944, "tags": {"name": "Phoenix Pearl", "shop": "tea"}}, {"type": "node", "id": 6146625667, "lat": 45.18745, "lon": -109.247192, "tags": {"name": "Carbon County News", "office": "newspaper"}}, {"type": "node", "id": 6146625668, "lat": 45.187404, "lon": -109.2471904, "tags": {"name": "State of Montana Liquor", "shop": "alcohol"}}, {"type": "node", "id": 6146625669, "lat": 45.1872386, "lon": -109.247184, "tags": {"brand": "Coldwell Banker", "brand:wikidata": "Q738853", "name": "Coldwell Banker", "office": "estate_agent"}}, {"type": "node", "id": 6146625671, "lat": 45.1870404, "lon": -109.2471731, "tags": {"addr:city": "Red Lodge", "addr:housenumber": "1", "addr:postcode": "59068", "addr:state": "MT", "addr:street": "North Broadway Avenue", "contact:email": "heistmontana@gmail.com", "contact:phone": "+1-406-426-8654", "name": "Heist", "shop": "gift"}}, {"type": "node", "id": 6146625672, "lat": 45.1873196, "lon": -109.2468168, "tags": {"amenity": "bar", "name": "The Pub at The Pollard"}}, {"type": "node", "id": 6146625674, "lat": 45.1874249, "lon": -109.2468483, "tags": {"brand": "Harley-Davidson", "brand:wikidata": "Q192814", "name": "Beartooth Harley Davidson", "shop": "motorcycle"}}, {"type": "node", "id": 6146625675, "lat": 45.1875406, "lon": -109.2468448, "tags": {"name": "H BAR S Real Estate", "office": "estate_agent"}}, {"type": "node", "id": 6146625676, "lat": 45.1876011, "lon": -109.2468469, "tags": {"name": "Kids Corner", "shop": "toys"}}, {"type": "node", "id": 6146625677, "lat": 45.1878195, "lon": -109.2468705, "tags": {"shop": "beauty"}}, {"type": "node", "id": 6146625686, "lat": 45.1880065, "lon": -109.2472069, "tags": {"name": "Market 5555", "shop": "interior_decoration"}}, {"type": "node", "id": 6146625815, "lat": 45.1893217, "lon": -109.2480214, "tags": {"entrance": "yes"}}, {"type": "node", "id": 6146625947, "lat": 45.1925298, "lon": -109.246594, "tags": {"clothes": "ski", "name": "Ski Station", "parts": "ski", "rental": "ski", "repair": "ski", "sales": "ski", "shop": "outdoor"}}, {"type": "node", "id": 6324527897, "lat": 45.1885023, "lon": -109.2472332, "tags": {"name": "Red Lodge Rocks", "shop": "gift"}}, {"type": "node", "id": 6324527903, "lat": 45.1884279, "lon": -109.2472292, "tags": {"amenity": "restaurant", "cuisine": "regional", "name": "Wild Table", "outdoor_seating": "no"}}, {"type": "node", "id": 6324527904, "lat": 45.1887737, "lon": -109.247271, "tags": {"addr:city": "Red Lodge", "addr:housenumber": "119", "addr:postcode": "59068", "addr:state": "MT", "addr:street": "North Broadway Avenue", "amenity": "restaurant", "cuisine": "burger;barbecue", "name": "Hardwood", "phone": "+1-406-445-3500"}}, {"type": "node", "id": 6324527905, "lat": 45.1893297, "lon": -109.2472504, "tags": {"name": "Red Lodge Drug", "shop": "chemist"}}, {"type": "node", "id": 6424207729, "lat": 45.1824945, "lon": -109.2471141}, {"type": "node", "id": 6424207730, "lat": 45.1824827, "lon": -109.2474633}, {"type": "node", "id": 6424207731, "lat": 45.182565, "lon": -109.2474688}, {"type": "node", "id": 6427531173, "lat": 45.1982897, "lon": -109.2472446, "tags": {"name": "High Country Equipment, Inc", "shop": "yes"}}, {"type": "node", "id": 6427531776, "lat": 45.2001735, "lon": -109.2462301, "tags": {"brand": "Family Dollar", "brand:wikidata": "Q5433101", "name": "Family Dollar", "shop": "variety_store"}}, {"type": "node", "id": 6427531783, "lat": 45.1993175, "lon": -109.2462898, "tags": {"name": "Napa Auto Care Center", "shop": "car_repair"}}, {"type": "node", "id": 6427531993, "lat": 45.2020435, "lon": -109.2459034, "tags": {"addr:city": "Red Lodge", "addr:housenumber": "1445", "addr:postcode": "59068", "addr:state": "MT", "addr:street": "North Broadway Avenue", "amenity": "restaurant", "contact:phone": "+1 406-446-0243", "cuisine": "regional", "internet_access": "wlan", "name": "Sam's Tap Room & Kitchen", "opening_hours": "Mo-Su 11:00-22:00", "outdoor_seating": "yes", "website": "https://www.redlodgeales.com/"}}, {"type": "node", "id": 7073913695, "lat": 45.1853922, "lon": -109.2481182, "tags": {"shop": "hairdresser"}}, {"type": "node", "id": 7073913696, "lat": 45.1857983, "lon": -109.2478638, "tags": {"brand": "State Farm", "brand:wikidata": "Q2007336", "name": "State Farm", "office": "insurance"}}, {"type": "node", "id": 7073913697, "lat": 45.1855842, "lon": -109.246819, "tags": {"name": "Smelly Kokopelli", "shop": "gift"}}, {"type": "node", "id": 7073913698, "lat": 45.1854804, "lon": -109.2468065, "tags": {"addr:city": "Red Lodge", "addr:housenumber": "112", "addr:state": "MT", "addr:street": "South Broadway Avenue", "name": "Katie Cakes", "shop": "pastry"}}, {"type": "node", "id": 7073913699, "lat": 45.1860495, "lon": -109.2464138, "tags": {"name": "Chic & Sassy Salon", "shop": "hairdresser"}}, {"type": "node", "id": 7073913700, "lat": 45.1865247, "lon": -109.2468469, "tags": {"name": "Whispering Pines", "shop": "interior_decoration"}}, {"type": "node", "id": 7266065423, "lat": 45.1881557, "lon": -109.2472148, "tags": {"name": "Carbon County Abstract and Title", "office": "title"}}, {"type": "node", "id": 7266065424, "lat": 45.1883656, "lon": -109.2472259, "tags": {"office": "lawyer"}}, {"type": "node", "id": 7266065426, "lat": 45.1882585, "lon": -109.2476921, "tags": {"addr:city": "Red Lodge", "addr:housenumber": "108", "addr:state": "MT", "addr:street": "North Oakes Avenue", "name": "Red Lodge Collision Center", "phone": "+1 406-446-3513", "service:vehicle:body_repair": "yes", "service:vehicle:car_repair": "yes", "service:vehicle:repairs": "yes", "shop": "car_repair"}}, {"type": "node", "id": 8194471523, "lat": 45.1871362, "lon": -109.2471811, "tags": {"addr:city": "Red Lodge", "addr:housenumber": "3", "addr:postcode": "59068", "addr:state": "MT", "addr:street": "North Broadway Avenue", "dog": "yes", "name": "Lewis and Bark's Outpost", "payment:cash": "yes", "payment:credit_cards": "yes", "payment:debit_cards": "yes", "phone": "+1-406-445-3132", "shop": "pet", "website": "https://lewisandbarksoutpost.com"}}, {"type": "node", "id": 8194471526, "lat": 45.1872536, "lon": -109.2468577, "tags": {"entrance": "yes"}}, {"type": "node", "id": 8194471527, "lat": 45.1871287, "lon": -109.2468561, "tags": {"entrance": "yes"}}, {"type": "node", "id": 8225022394, "lat": 45.1870269, "lon": -109.247201, "tags": {"name": "Market in the Mountains", "shop": "gift"}}, {"type": "node", "id": 8225022405, "lat": 45.1848464, "lon": -109.247228, "tags": {"addr:city": "Red Lodge", "addr:housenumber": "201", "addr:postcode": "59068", "addr:state": "MT", "addr:street": "South Broadway Avenue", "addr:unit": "Suite B", "name": "Hayden Salon", "phone": "+1-406-698-1046", "shop": "hairdresser"}}, {"type": "node", "id": 8225022407, "lat": 45.1842856, "lon": -109.2466527, "tags": {"addr:city": "Red Lodge", "addr:housenumber": "13", "addr:postcode": "59068", "addr:state": "MT", "addr:street": "South Broadway Avenue", "check_date": "2023-07-17", "name": "Tiger Motorcycle Lawyers", "office": "lawyer"}}, {"type": "node", "id": 8225022408, "lat": 45.1845602, "lon": -109.246797, "tags": {"name": "Twice Touched", "shop": "antiques"}}, {"type": "node", "id": 8225155257, "lat": 45.1860622, "lon": -109.2468443, "tags": {"addr:city": "Red Lodge", "addr:housenumber": "24", "addr:postcode": "59068", "addr:state": "MT", "addr:street": "South Broadway Avenue", "check_date": "2023-01-17", "name": "Beartooth Books", "payment:mastercard": "yes", "payment:visa": "yes", "shop": "books", "wheelchair": "yes"}}, {"type": "node", "id": 8225155258, "lat": 45.1861325, "lon": -109.2468443, "tags": {"addr:city": "Red Lodge", "addr:housenumber": "22", "addr:postcode": "59068", "addr:state": "MT", "addr:street": "South Broadway Avenue", "amenity": "cafe", "cuisine": "coffee_shop", "name": "Coffee Factory Roasters", "shop": "coffee"}}, {"type": "node", "id": 8225155263, "lat": 45.1863313, "lon": -109.2468488, "tags": {"amenity": "cafe", "cuisine": "coffee_shop", "name": "Red Lodge Cafe"}}, {"type": "node", "id": 8225155264, "lat": 45.1863988, "lon": -109.2468544, "tags": {"name": "Moosely Tees", "shop": "clothes"}}, {"type": "node", "id": 8225155266, "lat": 45.1866649, "lon": -109.2468557, "tags": {"name": "Rocky Mountain Market", "shop": "convenience"}}, {"type": "node", "id": 8225155267, "lat": 45.1865913, "lon": -109.2471529, "tags": {"name": "Montana Candy Emporium", "shop": "confectionery"}}, {"type": "node", "id": 8225209050, "lat": 45.186526, "lon": -109.2471536, "tags": {"name": "Sylvan Peak Mountain Shoppe", "shop": "outdoor"}}, {"type": "node", "id": 8225209051, "lat": 45.1864617, "lon": -109.2471529, "tags": {"addr:housenumber": "11", "addr:postcode": "59068", "addr:street": "South Broadway Avenue", "amenity": "restaurant", "contact:facebook": "bogartsredlodge", "contact:instagram": "bogarts.fun", "cuisine": "american;mexican;pizza", "delivery": "no", "email": "rubin@bogarts.fun", "internet_access": "yes", "internet_access:fee": "no", "name": "Bogart's", "opening_hours": "11:00-21:00", "phone": "+1 406-446-1784", "smoking": "no", "takeaway": "yes", "website": "https://www.bogarts.fun/", "website:menu": "https://www.bogarts.fun/_files/ugd/a1233a_a6c65080c705416fbabb81556a0233ac.pdf", "wheelchair": "yes"}}, {"type": "node", "id": 8225209053, "lat": 45.1856881, "lon": -109.2468299, "tags": {"addr:city": "Red Lodge", "addr:housenumber": "106", "addr:state": "MT", "addr:street": "South Broadway Avenue", "name": "Hub Internatonal", "office": "insurance", "opening_hours": "Mo-Th 08:30-16:30; Fr 08:30-15:00"}}, {"type": "node", "id": 8225209056, "lat": 45.1852546, "lon": -109.2468094, "tags": {"addr:city": "Red Lodge", "addr:housenumber": "118", "addr:state": "WY", "addr:street": "South Broadway Avenue", "name": "The Village Shoppe", "shop": "gift"}}, {"type": "node", "id": 8225209061, "lat": 45.1850742, "lon": -109.2468028, "tags": {"amenity": "bar", "name": "Snow Creek Saloon", "opening_hours": "Mo-Sa 12:00-02:00", "smoking": "no"}}, {"type": "node", "id": 8225209066, "lat": 45.1856234, "lon": -109.2471398, "tags": {"amenity": "bar", "brewery": "yes", "name": "Snag Bar", "smoking": "no"}}, {"type": "node", "id": 8225209067, "lat": 45.1858339, "lon": -109.2471521, "tags": {"name": "Red Lodge Antique Mall & Gun Room", "shop": "antiques"}}, {"type": "node", "id": 8225209091, "lat": 45.1872359, "lon": -109.2485623, "tags": {"entrance": "yes"}}, {"type": "node", "id": 8225209096, "lat": 45.1870202, "lon": -109.2478819, "tags": {"name": "Carbon County Administration", "office": "government"}}, {"type": "node", "id": 8225209097, "lat": 45.1870216, "lon": -109.2475027, "tags": {"name": "Junction 7", "shop": "copyshop"}}, {"type": "node", "id": 8225209102, "lat": 45.1887848, "lon": -109.2469029, "tags": {"name": "Buses of Yellowstone", "office": "guide"}}, {"type": "node", "id": 8225209114, "lat": 45.1894942, "lon": -109.2473769, "tags": {"name": "Red Lodge Tattoo", "shop": "tattoo"}}, {"type": "node", "id": 8225241421, "lat": 45.1912007, "lon": -109.2465451, "tags": {"name": "West Fork Water Kefir", "shop": "beverages"}}, {"type": "node", "id": 8225241423, "lat": 45.1912909, "lon": -109.2465476, "tags": {"name": "Spoke Wrench", "shop": "bicycle"}}, {"type": "node", "id": 8225241424, "lat": 45.1910196, "lon": -109.2468836, "tags": {"brand": "Farmers Insurance", "brand:wikidata": "Q1396863", "name": "Farmers Insurance", "office": "insurance"}}, {"type": "node", "id": 8225241425, "lat": 45.1914464, "lon": -109.246904, "tags": {"brand": "State Farm", "brand:wikidata": "Q2007336", "name": "State Farm", "office": "insurance"}}, {"type": "node", "id": 8225241428, "lat": 45.1917472, "lon": -109.2468116, "tags": {"name": "Samurai Sue's", "shop": "deli"}}, {"type": "node", "id": 8225241430, "lat": 45.1930267, "lon": -109.2470348}, {"type": "node", "id": 8225241431, "lat": 45.193084, "lon": -109.2470313}, {"type": "node", "id": 8225241432, "lat": 45.1930826, "lon": -109.2469857}, {"type": "node", "id": 8225241433, "lat": 45.1930253, "lon": -109.2469893}, {"type": "node", "id": 8633229185, "lat": 45.2008818, "lon": -109.2460747, "tags": {"addr:city": "Red Lodge", "addr:postcode": "59068", "addr:state": "MT", "name": "Flower Garage", "opening_hours": "Mo-Sa 09:00-17:00", "payment:cash": "yes", "payment:credit_cards": "yes", "payment:debit_cards": "yes", "phone": "+1-406-446-4007", "shop": "florist", "website": "https://redlodgeflowergarage.com/"}}, {"type": "node", "id": 8633229186, "lat": 45.176467, "lon": -109.254186, "tags": {"addr:city": "Red Lodge", "addr:housenumber": "1220", "addr:postcode": "59068", "addr:state": "MT", "addr:street": "Haggin Ave", "name": "Beartooth Industries", "shop": "medical_supply"}}, {"type": "node", "id": 8914765845, "lat": 45.2025698, "lon": -109.2577332, "tags": {"amenity": "restaurant", "cuisine": "burger", "name": "28 Peaks Kitchen", "opening_hours": "Mo-Su 11:00-19:00", "shop": "street_vendor"}}, {"type": "node", "id": 10563672327, "lat": 45.1861986, "lon": -109.2468474, "tags": {"check_date": "2023-01-17", "name": "East Rosebud Fly & Tackle", "shop": "fishing"}}, {"type": "node", "id": 11051556494, "lat": 45.1841976, "lon": -109.246668, "tags": {"amenity": "restaurant", "check_date": "2023-07-17", "cuisine": "barbecue", "name": "Beartooth BBQ"}}, {"type": "node", "id": 11698740514, "lat": 45.186042, "lon": -109.2480809, "tags": {"addr:housenumber": "107A", "addr:street": "12th Street", "air_conditioning": "yes", "amenity": "cafe", "bar": "yes", "check_date": "2024-03-06", "cuisine": "regional;sandwich;coffee_shop;american", "name": "Babcock & Miles Wine Bar & Cafe", "outdoor_seating": "yes", "payment:cash": "yes", "payment:credit_cards": "yes", "payment:debit_cards": "yes", "wheelchair": "yes"}}, {"type": "way", "id": 293637456, "nodes": [2972444442, 2972444439, 2972444438, 2972444436, 2972444437, 2972444440, 6146625815, 2972444442], "tags": {"addr:city": "Red Lodge", "addr:housenumber": "201", "addr:postcode": "59068", "addr:state": "MT", "addr:street": "North Oakes Avenue", "brand:wikidata": "Q3146662", "building": "yes", "name": "Beartooth IGA", "phone": "+1 406-323-2410", "shop": "supermarket"}}, {"type": "way", "id": 293637700, "nodes": [2972445063, 2972445062, 2972445065, 2972445064, 8225209091, 2972445066, 2972445067, 2972445063], "tags": {"addr:city": "Red Lodge", "addr:housenumber": "1", "addr:postcode": "59068-9007", "addr:state": "MT", "addr:street": "North Oakes Avenue", "brand": "Ace Hardware", "brand:wikidata": "Q4672981", "building": "yes", "name": "Red Lodge True Value", "opening_hours": "Mo-Sa 08:00-18:00; Su 09:00-17:00", "phone": "+1 406-446-1847", "ref": "17864", "shop": "hardware"}}, {"type": "way", "id": 454632409, "nodes": [4511752553, 4511752552, 4511752551, 4511752550, 4511752553], "tags": {"building": "yes", "name": "Napa Auto Care Center", "shop": "car_repair"}}, {"type": "way", "id": 454632415, "nodes": [4511752892, 4511752891, 4511752890, 4511752889, 4511752588, 4511752587, 4511752892], "tags": {"building": "yes", "name": "Bone Daddy's Custom Cycle", "shop": "motorcycle"}}, {"type": "way", "id": 454632418, "nodes": [4511752903, 4511752910, 4511752909, 4511752908, 4511752907, 4511752906, 4511752905, 6146625658, 4511752904, 8194471526, 8194471527, 4511752903], "tags": {"amenity": "restaurant", "building": "yes", "internet_access": "yes", "name": "The Pollard", "tourism": "hotel"}}, {"type": "way", "id": 454632430, "nodes": [6011249761, 4511752946, 4511752947, 6011249763, 6011249762, 4511752948, 6011249761], "tags": {"addr:city": "Red Lodge", "addr:housenumber": "102", "addr:state": "MT", "addr:street": "South Broadway Avenue", "building": "retail", "name": "4th Avenue Meats", "shop": "butcher"}}, {"type": "way", "id": 454632440, "nodes": [4511753003, 4511753002, 4511753001, 4511753000, 4511752999, 4511752998, 4511752997, 4511752996, 4511752995, 4511752994, 4511753003], "tags": {"amenity": "restaurant", "building": "retail", "name": "Red Box Car"}}, {"type": "way", "id": 454632441, "nodes": [4511753007, 4511753004, 4511753005, 4511753006, 4511753007], "tags": {"building": "retail", "name": "Dewi Shinta Asian Imports", "shop": "yes"}}, {"type": "way", "id": 454632442, "nodes": [4511753011, 4511753008, 4511753009, 4511753010, 4511753011], "tags": {"building": "retail", "name": "Zip Trip", "shop": "convenience"}}, {"type": "way", "id": 454632446, "nodes": [4511753031, 4511753028, 4511753029, 4511753030, 4511753031], "tags": {"building": "yes", "name": "Circle 17", "shop": "convenience"}}, {"type": "way", "id": 685510003, "nodes": [6001653068, 6424207729, 6424207730, 6424207731, 6001653068], "tags": {"addr:city": "Red Lodge", "addr:housenumber": "407", "addr:state": "MT", "addr:street": "South Broadway Avenue", "amenity": "cafe", "building": "yes", "cuisine": "breakfast", "internet_access": "no", "name": "Prindy\u2019s Place", "opening_hours": "06:00-14:00", "outdoor_seating": "no", "smoking": "no", "wheelchair": "yes"}}, {"type": "way", "id": 884462028, "nodes": [8225241430, 8225241431, 8225241432, 8225241433, 8225241430], "tags": {"building": "yes", "shop": "kiosk"}}]}