{"version": 0.6, "generator": "Overpass API 0.7.62.8 e802775f", "osm3s": {"timestamp_osm_base": "2025-12-06T04:24:23Z", "copyright": "The data included in this document is from www.openstreetmap.org. The data is made available under ODbL."}, "elements": [{"type": "node", "id": 3468371826, "lat": 47.8190557, "lon": -112.1890541}, {"type": "node", "id": 3468371828, "lat": 47.8190599, "lon": -112.1889807}, {"type": "node", "id": 3468371845, "lat": 47.8189709, "lon": -112.1889695}, {"type": "node", "id": 3468371847, "lat": 47.813574, "lon": -112.1852893}, {"type": "node", "id": 3468371856, "lat": 47.8135056, "lon": -112.1854718}, {"type": "node", "id": 3468371875, "lat": 47.8189594, "lon": -112.1891711}, {"type": "node", "id": 3468371878, "lat": 47.8129051, "lon": -112.1843715, "tags": {"amenity": "cafe", "name": "Meeting Grounds Cafe"}}, {"type": "node", "id": 3468371892, "lat": 47.819194, "lon": -112.1892006}, {"type": "node", "id": 3468373302, "lat": 47.8132698, "lon": -112.1852759}, {"type": "node", "id": 3468373310, "lat": 47.8192012, "lon": -112.189072}, {"type": "node", "id": 3468373312, "lat": 47.8162193, "lon": -112.1864984, "tags": {"name": "Mountain Front Market", "shop": "convenience"}}, {"type": "node", "id": 3468373332, "lat": 47.8133382, "lon": -112.1850934}, {"type": "node", "id": 3468373341, "lat": 47.8204319, "lon": -112.1892586, "tags": {"amenity": "restaurant", "name": "Elk Country Grill"}}, {"type": "node", "id": 3469839731, "lat": 47.8069723, "lon": -112.1799165}, {"type": "node", "id": 3469839733, "lat": 47.8069281, "lon": -112.1780355}, {"type": "node", "id": 3469839734, "lat": 47.8071331, "lon": -112.1794976}, {"type": "node", "id": 3469839735, "lat": 47.8067508, "lon": -112.1784819}, {"type": "node", "id": 3469839739, "lat": 47.8080082, "lon": -112.1794777}, {"type": "node", "id": 3469839743, "lat": 47.807945, "lon": -112.1793281}, {"type": "node", "id": 3469839745, "lat": 47.8081492, "lon": -112.1795981}, {"type": "node", "id": 3469839747, "lat": 47.8071179, "lon": -112.1800404}, {"type": "node", "id": 3469839748, "lat": 47.8066006, "lon": -112.1783496}, {"type": "node", "id": 3469839759, "lat": 47.8068129, "lon": -112.177934}, {"type": "node", "id": 3469839762, "lat": 47.8066695, "lon": -112.178295}, {"type": "node", "id": 3469839765, "lat": 47.8066345, "lon": -112.1782642}, {"type": "node", "id": 3469839767, "lat": 47.8072787, "lon": -112.1796215}, {"type": "node", "id": 3469839768, "lat": 47.807859, "lon": -112.1795513}, {"type": "node", "id": 3469839774, "lat": 47.8080909, "lon": -112.1797494}, {"type": "node", "id": 3469839777, "lat": 47.8080359, "lon": -112.1794058}, {"type": "node", "id": 5240262901, "lat": 47.813174, "lon": -112.1833711}, {"type": "node", "id": 5240262902, "lat": 47.8133224, "lon": -112.1829629}, {"type": "node", "id": 5240262903, "lat": 47.8130936, "lon": -112.1827785}, {"type": "node", "id": 5240262904, "lat": 47.8129452, "lon": -112.1831866}, {"type": "node", "id": 5240267974, "lat": 47.8134611, "lon": -112.1841488, "tags": {"amenity": "restaurant"}}, {"type": "node", "id": 5240270015, "lat": 47.8139034, "lon": -112.1854416, "tags": {"name": "Tire Shop", "shop": "tyres"}}, {"type": "node", "id": 5240295220, "lat": 47.8136661, "lon": -112.1842835, "tags": {"name": "Grizzly Sporting Goods", "shop": "sports"}}, {"type": "node", "id": 5240300090, "lat": 47.8121513, "lon": -112.184248, "tags": {"office": "insurance"}}, {"type": "node", "id": 5240300587, "lat": 47.8122953, "lon": -112.183867, "tags": {"shop": "alcohol"}}, {"type": "node", "id": 5240300854, "lat": 47.8122233, "lon": -112.184055, "tags": {"name": "Real Estate", "office": "estate_agent"}}, {"type": "node", "id": 5240302146, "lat": 47.8126556, "lon": -112.1850265, "tags": {"amenity": "bar"}}, {"type": "node", "id": 5240303047, "lat": 47.812425, "lon": -112.184693, "tags": {"name": "Laundromat", "self_service": "yes", "shop": "laundry"}}, {"type": "node", "id": 5240305097, "lat": 47.8138354, "lon": -112.1844927, "tags": {"name": "Car Sales", "shop": "car"}}, {"type": "node", "id": 5240305966, "lat": 47.8137291, "lon": -112.1843532, "tags": {"amenity": "cafe", "name": "Drive-up Espresso"}}, {"type": "node", "id": 5240310438, "lat": 47.8142187, "lon": -112.1859321}, {"type": "node", "id": 5240310439, "lat": 47.8133851, "lon": -112.1847502, "tags": {"name": "Thrift Store", "shop": "second_hand"}}, {"type": "node", "id": 5240313753, "lat": 47.8135526, "lon": -112.1842593, "tags": {"name": "Title/Escrow", "office": "company"}}, {"type": "node", "id": 5240314397, "lat": 47.8132986, "lon": -112.1840984, "tags": {"name": "Real Estate", "office": "estate_agent"}}, {"type": "node", "id": 5240314959, "lat": 47.8134337, "lon": -112.181027, "tags": {"name": "Hair & Nails", "shop": "beauty"}}, {"type": "node", "id": 5240315234, "lat": 47.813522, "lon": -112.1808073, "tags": {"name": "Farm & Feed Store", "shop": "trade"}}, {"type": "node", "id": 5240315235, "lat": 47.8119287, "lon": -112.1840378, "tags": {"addr:housenumber": "20", "addr:street": "1st Street Northwest", "description": "Food stamp office", "government": "social_welfare", "name": "Teton County Office of Public Assistance", "office": "government"}}, {"type": "node", "id": 5240315800, "lat": 47.8117459, "lon": -112.184468, "tags": {"name": "Barber Shop", "shop": "hairdresser"}}, {"type": "node", "id": 5240326181, "lat": 47.8039656, "lon": -112.178073, "tags": {"shop": "storage_rental"}}, {"type": "node", "id": 9916157964, "lat": 47.8162644, "lon": -112.1865441, "tags": {"name": "Copper Creek Coffee", "shop": "coffee"}}, {"type": "node", "id": 9954057776, "lat": 47.81437, "lon": -112.1855272}, {"type": "node", "id": 9954057777, "lat": 47.8142784, "lon": -112.1854513}, {"type": "node", "id": 9954057778, "lat": 47.8141272, "lon": -112.1858563}, {"type": "node", "id": 11350005878, "lat": 47.8040107, "lon": -112.1764071}, {"type": "node", "id": 11350005879, "lat": 47.8039415, "lon": -112.1765902}, {"type": "node", "id": 11350005880, "lat": 47.8037493, "lon": -112.1764292}, {"type": "node", "id": 11350005881, "lat": 47.8038185, "lon": -112.1762461}, {"type": "node", "id": 11350116104, "lat": 47.8047768, "lon": -112.1771202}, {"type": "node", "id": 11350116105, "lat": 47.8046214, "lon": -112.1774237}, {"type": "node", "id": 11350116106, "lat": 47.8043725, "lon": -112.1771411}, {"type": "node", "id": 11350116107, "lat": 47.8045279, "lon": -112.1768376}, {"type": "node", "id": 11350116129, "lat": 47.8064715, "lon": -112.1774124}, {"type": "node", "id": 11350116130, "lat": 47.8063813, "lon": -112.1776538}, {"type": "node", "id": 11350116131, "lat": 47.8061395, "lon": -112.1774536}, {"type": "node", "id": 11350116132, "lat": 47.8062297, "lon": -112.1772122}, {"type": "node", "id": 11357343296, "lat": 47.807115, "lon": -112.1785284}, {"type": "node", "id": 11357343297, "lat": 47.807048, "lon": -112.1787066}, {"type": "node", "id": 11357343298, "lat": 47.8069445, "lon": -112.1786203}, {"type": "node", "id": 11357343299, "lat": 47.8070362, "lon": -112.1783764}, {"type": "node", "id": 11357343300, "lat": 47.8071048, "lon": -112.1784335}, {"type": "node", "id": 11357343301, "lat": 47.8070801, "lon": -112.1784992}, {"type": "node", "id": 11357343310, "lat": 47.807578, "lon": -112.1788061}, {"type": "node", "id": 11357343311, "lat": 47.8074835, "lon": -112.1790597}, {"type": "node", "id": 11357343312, "lat": 47.8072876, "lon": -112.1788979}, {"type": "node", "id": 11357343313, "lat": 47.8073292, "lon": -112.1787861}, {"type": "node", "id": 11357343314, "lat": 47.8074283, "lon": -112.1788679}, {"type": "node", "id": 11357343315, "lat": 47.8074811, "lon": -112.1787261}, {"type": "node", "id": 11357343322, "lat": 47.8073254, "lon": -112.1787964}, {"type": "node", "id": 11357343329, "lat": 47.807936, "lon": -112.1802112, "tags": {"name": "Hair of the Dog", "shop": "pet_grooming"}}, {"type": "node", "id": 11357418077, "lat": 47.8086197, "lon": -112.1798876}, {"type": "node", "id": 11357418078, "lat": 47.8085851, "lon": -112.1799821}, {"type": "node", "id": 11357418079, "lat": 47.8084818, "lon": -112.1798985}, {"type": "node", "id": 11357418080, "lat": 47.8085325, "lon": -112.1797595}, {"type": "node", "id": 11357418081, "lat": 47.8085956, "lon": -112.1798106}, {"type": "node", "id": 11357418082, "lat": 47.8085794, "lon": -112.179855}, {"type": "node", "id": 11357418103, "lat": 47.8087745, "lon": -112.1808331}, {"type": "node", "id": 11357418104, "lat": 47.8086689, "lon": -112.1811269}, {"type": "node", "id": 11357418105, "lat": 47.8085454, "lon": -112.1810252}, {"type": "node", "id": 11357418106, "lat": 47.8085795, "lon": -112.1809332}, {"type": "node", "id": 11357418107, "lat": 47.8085493, "lon": -112.1809083}, {"type": "node", "id": 11357418108, "lat": 47.8086221, "lon": -112.1807126}, {"type": "node", "id": 11357418118, "lat": 47.8087348, "lon": -112.1809444}, {"type": "node", "id": 11357434051, "lat": 47.8103411, "lon": -112.1811602}, {"type": "node", "id": 11357434052, "lat": 47.8102898, "lon": -112.1812899}, {"type": "node", "id": 11357434053, "lat": 47.8101577, "lon": -112.181174}, {"type": "node", "id": 11357434054, "lat": 47.810209, "lon": -112.1810443}, {"type": "node", "id": 11357434055, "lat": 47.8100017, "lon": -112.1818372}, {"type": "node", "id": 11357434056, "lat": 47.810027, "lon": -112.1819849}, {"type": "node", "id": 11357434057, "lat": 47.8099965, "lon": -112.1819972}, {"type": "node", "id": 11357434058, "lat": 47.8100069, "lon": -112.1820061}, {"type": "node", "id": 11357434059, "lat": 47.8098741, "lon": -112.1823548}, {"type": "node", "id": 11357434060, "lat": 47.8097951, "lon": -112.1822937}, {"type": "node", "id": 11357434061, "lat": 47.8098756, "lon": -112.1820794}, {"type": "node", "id": 11357434062, "lat": 47.8098734, "lon": -112.1820705}, {"type": "node", "id": 11357434063, "lat": 47.8098219, "lon": -112.1820894}, {"type": "node", "id": 11357434064, "lat": 47.8097936, "lon": -112.1819128}, {"type": "node", "id": 11357434065, "lat": 47.8110438, "lon": -112.1811609}, {"type": "node", "id": 11357434066, "lat": 47.811008, "lon": -112.1812559}, {"type": "node", "id": 11357434067, "lat": 47.8106727, "lon": -112.1809758}, {"type": "node", "id": 11357434068, "lat": 47.8107085, "lon": -112.1808807}, {"type": "node", "id": 11357488995, "lat": 47.8117127, "lon": -112.1822637}, {"type": "node", "id": 11357488996, "lat": 47.8116829, "lon": -112.1823423}, {"type": "node", "id": 11357488997, "lat": 47.8116531, "lon": -112.1823172}, {"type": "node", "id": 11357488998, "lat": 47.8115288, "lon": -112.1826451}, {"type": "node", "id": 11357488999, "lat": 47.8114134, "lon": -112.1825481}, {"type": "node", "id": 11357489000, "lat": 47.8115675, "lon": -112.1821416}, {"type": "node", "id": 11357489010, "lat": 47.812115, "lon": -112.1831598}, {"type": "node", "id": 11357489011, "lat": 47.8121872, "lon": -112.1829829}, {"type": "node", "id": 11357489012, "lat": 47.8120852, "lon": -112.1828907}, {"type": "node", "id": 11357489013, "lat": 47.812063, "lon": -112.1829452}, {"type": "node", "id": 11357489014, "lat": 47.8121092, "lon": -112.182987}, {"type": "node", "id": 11357489015, "lat": 47.8120593, "lon": -112.1831094}, {"type": "node", "id": 11359438571, "lat": 47.8124718, "lon": -112.1825212}, {"type": "node", "id": 11359438572, "lat": 47.8123888, "lon": -112.1827309}, {"type": "node", "id": 11359438573, "lat": 47.8122485, "lon": -112.1826078}, {"type": "node", "id": 11359438574, "lat": 47.8123316, "lon": -112.182398}, {"type": "node", "id": 11359447990, "lat": 47.81296, "lon": -112.1833914}, {"type": "node", "id": 11359447991, "lat": 47.8128237, "lon": -112.1837443}, {"type": "node", "id": 11359447992, "lat": 47.8127223, "lon": -112.1836574}, {"type": "node", "id": 11359447993, "lat": 47.8128587, "lon": -112.1833046}, {"type": "node", "id": 11359447994, "lat": 47.8126596, "lon": -112.1836047}, {"type": "node", "id": 11359447995, "lat": 47.8127567, "lon": -112.1833431}, {"type": "node", "id": 11359447996, "lat": 47.8128232, "lon": -112.1833964}, {"type": "node", "id": 11359447997, "lat": 47.8125438, "lon": -112.1835099}, {"type": "node", "id": 11359447998, "lat": 47.8126433, "lon": -112.1832503}, {"type": "node", "id": 11359448002, "lat": 47.8127157, "lon": -112.1836193, "tags": {"addr:housenumber": "107", "addr:street": "Main Avenue North", "name": "Pioneer Insurance Unlimited", "office": "insurance", "phone": "+1 406-466-2588"}}, {"type": "node", "id": 11359448003, "lat": 47.8126833, "lon": -112.183595, "tags": {"addr:housenumber": "107", "addr:street": "Main Avenue North", "name": "Clearwater Properties", "office": "estate_agent", "phone": "+1 406-466-2300", "website": "https://www.clearwaterproperties.com/"}}, {"type": "node", "id": 11359486674, "lat": 47.8118672, "lon": -112.1834561}, {"type": "node", "id": 11359486675, "lat": 47.8119253, "lon": -112.1835029}, {"type": "node", "id": 11359486676, "lat": 47.8118761, "lon": -112.1836382}, {"type": "node", "id": 11359486677, "lat": 47.811818, "lon": -112.1835914}, {"type": "node", "id": 11359486683, "lat": 47.812042, "lon": -112.1836639, "tags": {"name": "Full Circle Thrift Shop", "operator": "Choteau Activities Inc", "shop": "second_hand"}}, {"type": "node", "id": 11359486684, "lat": 47.8118715, "lon": -112.1839063, "tags": {"addr:housenumber": "20", "addr:street": "1st Street Northwest", "description": "Matt Luedtke Agency", "name": "Farmers Union Insurance", "not:brand:wikidata": "Q1396863", "office": "insurance"}}, {"type": "way", "id": 339621087, "nodes": [3468373310, 3468371826, 3468371828, 3468371845, 3468371875, 3468371892, 3468373310], "tags": {"amenity": "restaurant", "building": "yes", "name": "Outpost Deli"}}, {"type": "way", "id": 339621096, "nodes": [3468371847, 3468373332, 3468373302, 3468371856, 3468371847], "tags": {"building": "yes", "name": "Main Street Express", "shop": "convenience"}}, {"type": "way", "id": 339770891, "nodes": [3469839767, 3469839734, 3469839731, 3469839747, 3469839767], "tags": {"addr:city": "Choteau", "addr:housenumber": "402", "addr:postcode": "59422", "addr:state": "MT", "addr:street": "Main Avenue South", "brand": "Ace Hardware", "brand:wikidata": "Q4672981", "building": "yes", "name": "Ace Hardware", "opening_hours": "Mo-Sa 08:00-18:00", "phone": "+1 406-466-2191", "ref": "18453", "shop": "doityourself"}}, {"type": "way", "id": 339770897, "nodes": [3469839745, 3469839739, 3469839777, 3469839743, 3469839768, 3469839774, 3469839745], "tags": {"addr:housenumber": "301", "addr:state": "MT", "addr:street": "Main Avenue South", "brand": "NAPA Auto Parts", "brand:wikidata": "Q6970842", "building": "yes", "name": "NAPA Auto Parts", "shop": "car_parts"}}, {"type": "way", "id": 339770898, "nodes": [3469839733, 3469839759, 3469839762, 3469839765, 3469839748, 3469839735, 3469839733], "tags": {"addr:housenumber": "427", "addr:state": "MT", "addr:street": "Main Avenue South", "amenity": "bar", "building": "yes", "name": "Alley Cat"}}, {"type": "way", "id": 541982395, "nodes": [5240262901, 5240262902, 5240262903, 5240262904, 5240262901], "tags": {"addr:housenumber": "29", "addr:state": "MT", "addr:street": "1st Street Northeast", "building": "commercial", "name": "Rex's Market", "shop": "supermarket"}}, {"type": "way", "id": 1086356560, "nodes": [5240310438, 9954057776, 9954057777, 9954057778, 5240310438], "tags": {"brand": "Hallmark", "brand:wikidata": "Q1521910", "name": "Hallmark", "shop": "gift"}}, {"type": "way", "id": 1223643755, "nodes": [11350005878, 11350005879, 11350005880, 11350005881, 11350005878], "tags": {"addr:housenumber": "4056", "addr:state": "MT", "addr:street": "US HWY 89 S", "building": "commercial", "name": "RPH Irrigation Services Ltd", "shop": "agrarian"}}, {"type": "way", "id": 1223661193, "nodes": [11350116104, 11350116105, 11350116106, 11350116107, 11350116104], "tags": {"addr:housenumber": "4070", "addr:state": "MT", "addr:street": "US HWY 89 S", "brand": "Family Dollar", "brand:wikidata": "Q5433101", "building": "commercial", "name": "Family Dollar", "shop": "variety_store"}}, {"type": "way", "id": 1223661197, "nodes": [11350116129, 11350116130, 11350116131, 11350116132, 11350116129], "tags": {"addr:housenumber": "505", "addr:state": "MT", "addr:street": "Main Avenue South", "building": "commercial", "name": "Breen Oil Company", "phone": "+14064662575", "shop": "gas"}}, {"type": "way", "id": 1224665074, "nodes": [11357343296, 11357343297, 11357343298, 11357343299, 11357343300, 11357343301, 11357343296], "tags": {"addr:housenumber": "425", "addr:state": "MT", "addr:street": "Main Avenue South", "building": "yes", "name": "Bylers Bakery", "shop": "bakery"}}, {"type": "way", "id": 1224665077, "nodes": [11357343310, 11357343311, 11357343312, 11357343322, 11357343313, 11357343314, 11357343315, 11357343310], "tags": {"addr:housenumber": "401", "addr:state": "MT", "addr:street": "Main Avenue South", "building": "yes", "name": "Desh's Tire & Automotive", "shop": "car_repair"}}, {"type": "way", "id": 1224673487, "nodes": [11357418077, 11357418078, 11357418079, 11357418080, 11357418081, 11357418082, 11357418077], "tags": {"addr:housenumber": "215", "addr:state": "MT", "addr:street": "Main Avenue South", "building": "commercial", "name": "Mountain View Co-Op", "shop": "tyres"}}, {"type": "way", "id": 1224673493, "nodes": [11357418103, 11357418118, 11357418104, 11357418105, 11357418106, 11357418107, 11357418108, 11357418103], "tags": {"addr:housenumber": "214", "addr:state": "MT", "addr:street": "Main Avenue South", "building": "commercial", "name": "Knutzion Storage", "shop": "storage_rental"}}, {"type": "way", "id": 1224676438, "nodes": [11357434051, 11357434052, 11357434053, 11357434054, 11357434051], "tags": {"building": "yes", "name": "Teton County Weed Control", "office": "government"}}, {"type": "way", "id": 1224676439, "nodes": [11357434055, 11357434056, 11357434057, 11357434058, 11357434059, 11357434060, 11357434061, 11357434062, 11357434063, 11357434064, 11357434055], "tags": {"addr:housenumber": "102", "addr:state": "MT", "addr:street": "Main Avenue South", "amenity": "restaurant", "building": "yes", "cuisine": "american", "name": "Log Cabin Cafe"}}, {"type": "way", "id": 1224676440, "nodes": [11357434065, 11357434066, 11357434067, 11357434068, 11357434065], "tags": {"addr:housenumber": "25", "addr:state": "MT", "addr:street": "1st Street Southeast", "building": "yes", "shop": "storage_rental"}}, {"type": "way", "id": 1224684081, "nodes": [11357488995, 11357488996, 11357488997, 11357488998, 11357488999, 11357489000, 11357488995], "tags": {"addr:housenumber": "13", "addr:state": "MT", "addr:street": "Main Avenue North", "building": "commercial", "name": "At Home Flooring", "shop": "flooring"}}, {"type": "way", "id": 1224684085, "nodes": [11357489010, 11357489011, 11357489012, 11357489013, 11357489014, 11357489015, 11357489010], "tags": {"addr:housenumber": "33", "addr:state": "MT", "addr:street": "Main Avenue North", "building": "yes", "name": "Swenson & Company", "office": "accountant"}}, {"type": "way", "id": 1224919347, "nodes": [11359438571, 11359438572, 11359438573, 11359438574, 11359438571], "tags": {"addr:housenumber": "26", "addr:state": "MT", "addr:street": "1st Street Northeast", "building": "yes", "name": "Buck's Sporting Goods", "shop": "hunting"}}, {"type": "way", "id": 1224919357, "nodes": [11359447990, 11359447991, 11359447992, 11359447996, 11359447993, 11359447990], "tags": {"addr:housenumber": "109", "addr:state": "MT", "addr:street": "Main Avenue North", "building": "yes", "description": "Promoting growth and independence to adults with disabilities on the Rocky Mountain Front", "name": "Choteau Activities Inc", "office": "ngo"}}, {"type": "way", "id": 1224919359, "nodes": [11359447995, 11359447994, 11359447997, 11359447998, 11359447995], "tags": {"amenity": "bar", "building": "yes", "name": "Antler Bar"}}, {"type": "way", "id": 1224924152, "nodes": [11359486674, 11359486675, 11359486676, 11359486677, 11359486674], "tags": {"addr:housenumber": "32", "addr:state": "MT", "addr:street": "Main Avenue North", "beauty": "nails;tanning", "building": "yes", "name": "Studio 89", "shop": "beauty;hairdresser"}}]}