{"version": 0.6, "generator": "Overpass API 0.7.62.8 e802775f", "osm3s": {"timestamp_osm_base": "2025-11-09T03:21:12Z", "copyright": "The data included in this document is from www.openstreetmap.org. The data is made available under ODbL."}, "elements": [{"type": "node", "id": 356728442, "lat": 30.551301, "lon": -98.3355797, "tags": {"ele": "257", "gnis:feature_id": "1351062", "leisure": "park", "name": "Alvin Wirtz Park", "wikidata": "Q34811496"}}, {"type": "node", "id": 378253699, "lat": 30.557548, "lon": -98.333911}, {"type": "node", "id": 4396921796, "lat": 30.5504138, "lon": -98.3261331}, {"type": "node", "id": 4396921797, "lat": 30.5504165, "lon": -98.3258065}, {"type": "node", "id": 4396921798, "lat": 30.550114, "lon": -98.3257942}, {"type": "node", "id": 4396921799, "lat": 30.5501153, "lon": -98.325483}, {"type": "node", "id": 4396921800, "lat": 30.5498488, "lon": -98.3254723}, {"type": "node", "id": 4396921801, "lat": 30.5498401, "lon": -98.3261167}, {"type": "node", "id": 4396922951, "lat": 30.5504213, "lon": -98.3254927}, {"type": "node", "id": 4398246836, "lat": 30.5582958, "lon": -98.3264548}, {"type": "node", "id": 4398246837, "lat": 30.5589845, "lon": -98.3264689}, {"type": "node", "id": 4398246838, "lat": 30.5589723, "lon": -98.3271662}, {"type": "node", "id": 4398246839, "lat": 30.5582927, "lon": -98.3271449}, {"type": "node", "id": 4398249182, "lat": 30.560367, "lon": -98.3277724}, {"type": "node", "id": 4398249183, "lat": 30.5617197, "lon": -98.3286542}, {"type": "node", "id": 4398249184, "lat": 30.5617778, "lon": -98.3285764}, {"type": "node", "id": 4398249185, "lat": 30.5611457, "lon": -98.327338}, {"type": "node", "id": 4398249186, "lat": 30.5609679, "lon": -98.3275814}, {"type": "node", "id": 4398249187, "lat": 30.5603989, "lon": -98.3276461}, {"type": "node", "id": 4398254951, "lat": 30.5624545, "lon": -98.3253808}, {"type": "node", "id": 4398254952, "lat": 30.5627161, "lon": -98.3248553}, {"type": "node", "id": 4398254953, "lat": 30.5637598, "lon": -98.3256038}, {"type": "node", "id": 4398254954, "lat": 30.5634901, "lon": -98.3260515}, {"type": "node", "id": 4398265575, "lat": 30.5629232, "lon": -98.3194847}, {"type": "node", "id": 4398265576, "lat": 30.5643704, "lon": -98.3181475}, {"type": "node", "id": 4398265577, "lat": 30.5644983, "lon": -98.3184125}, {"type": "node", "id": 4398265578, "lat": 30.5630797, "lon": -98.3197204}, {"type": "node", "id": 4398267270, "lat": 30.5564989, "lon": -98.3328977}, {"type": "node", "id": 4398267271, "lat": 30.5559172, "lon": -98.3337207}, {"type": "node", "id": 4398267272, "lat": 30.5557567, "lon": -98.333612}, {"type": "node", "id": 4398267273, "lat": 30.5550493, "lon": -98.3332702}, {"type": "node", "id": 4398267274, "lat": 30.555839, "lon": -98.3306217}, {"type": "node", "id": 4398267275, "lat": 30.5573124, "lon": -98.3312006}, {"type": "node", "id": 4398267276, "lat": 30.5571051, "lon": -98.3317231}, {"type": "node", "id": 4398267277, "lat": 30.5570389, "lon": -98.3318307}, {"type": "node", "id": 4398267278, "lat": 30.5580565, "lon": -98.3328146}, {"type": "way", "id": 441997165, "nodes": [4396921796, 4396921797, 4396921798, 4396921799, 4396921800, 4396921801, 4396921796], "tags": {"addr:city": "Cottonwood Shores", "addr:housenumber": "4111", "addr:postcode": "78657", "addr:state": "TX", "addr:street": "Cottonwood Drive", "leisure": "park", "name": "Cottonwood Shores Community Park"}}, {"type": "way", "id": 441997345, "nodes": [4396921797, 4396922951, 4396921799, 4396921798, 4396921797], "tags": {"addr:city": "Cottonwood Shores", "addr:housenumber": "4111", "addr:postcode": "78657", "addr:state": "TX", "addr:street": "Cottonwood Drive", "leisure": "park", "name": "Cottonwood Shores Splash Pad"}}, {"type": "way", "id": 442133768, "nodes": [4398246836, 4398246837, 4398246838, 4398246839, 4398246836], "tags": {"leisure": "park", "name": "P Squared Skate Park"}}, {"type": "way", "id": 442133940, "nodes": [4398249182, 4398249183, 4398249184, 4398249185, 4398249186, 4398249187, 4398249182], "tags": {"addr:city": "Cottonwood Shores", "addr:housenumber": "4131", "addr:street": "Lakeview Drive", "leisure": "park", "name": "Noah Thompson Park"}}, {"type": "way", "id": 442134137, "nodes": [4398254951, 4398254952, 4398254953, 4398254954, 4398254951], "tags": {"addr:city": "Cottonwood Shores", "addr:housenumber": "4101", "addr:street": "Lakeview Drive", "leisure": "park", "name": "Aspen Park"}}, {"type": "way", "id": 442134823, "nodes": [4398265575, 4398265576, 4398265577, 4398265578, 4398265575], "tags": {"addr:city": "Cottonwood Shores", "addr:housenumber": "3729", "addr:postcode": "78657", "addr:state": "TX", "addr:street": "Lakeview Drive", "leisure": "park", "name": "Cottonwood Shores Boat Ramp"}}, {"type": "way", "id": 442135010, "nodes": [378253699, 4398267270, 4398267271, 4398267272, 4398267273, 4398267274, 4398267275, 4398267276, 4398267277, 4398267278, 378253699], "tags": {"leisure": "park", "name": "Cottonwood Shores Nature Preserve"}}]}