{"version": 0.6, "generator": "Overpass API 0.7.62.8 e802775f", "osm3s": {"timestamp_osm_base": "2025-12-06T16:44:30Z", "copyright": "The data included in this document is from www.openstreetmap.org. The data is made available under ODbL."}, "elements": [{"type": "node", "id": 356543951, "lat": 47.0133128, "lon": -117.1395298}, {"type": "node", "id": 2677275493, "lat": 47.0156754, "lon": -117.1408172}, {"type": "node", "id": 2677275501, "lat": 47.0156273, "lon": -117.1410562}, {"type": "node", "id": 2677275536, "lat": 47.0124269, "lon": -117.1402945}, {"type": "node", "id": 2677275566, "lat": 47.0143899, "lon": -117.1407096}, {"type": "node", "id": 2677275620, "lat": 47.0135255, "lon": -117.1409751}, {"type": "node", "id": 2677275624, "lat": 47.0154742, "lon": -117.1396317}, {"type": "node", "id": 2677275640, "lat": 47.0157595, "lon": -117.1400126}, {"type": "node", "id": 2677275646, "lat": 47.0134652, "lon": -117.1409724}, {"type": "node", "id": 2677275648, "lat": 47.0134628, "lon": -117.1411977}, {"type": "node", "id": 2677275654, "lat": 47.0143972, "lon": -117.1395854}, {"type": "node", "id": 2677275675, "lat": 47.0125854, "lon": -117.1413976}, {"type": "node", "id": 2677275681, "lat": 47.0146588, "lon": -117.1395995}, {"type": "node", "id": 2677275683, "lat": 47.0157187, "lon": -117.140493}, {"type": "node", "id": 2677275689, "lat": 47.0135304, "lon": -117.1407087}, {"type": "node", "id": 2677275699, "lat": 47.0140888, "lon": -117.1395694}, {"type": "node", "id": 2677275710, "lat": 47.0125049, "lon": -117.1413828}, {"type": "node", "id": 2677275713, "lat": 47.0139954, "lon": -117.1409418}, {"type": "node", "id": 2677275737, "lat": 47.0155876, "lon": -117.1412303}, {"type": "node", "id": 2677275740, "lat": 47.0157449, "lon": -117.1398248}, {"type": "node", "id": 2677275746, "lat": 47.0140571, "lon": -117.1404872}, {"type": "node", "id": 2677275748, "lat": 47.0157193, "lon": -117.1397175}, {"type": "node", "id": 2677275750, "lat": 47.0142045, "lon": -117.141024}, {"type": "node", "id": 2677275758, "lat": 47.0153639, "lon": -117.1415068}, {"type": "node", "id": 2677275760, "lat": 47.0139217, "lon": -117.1409651}, {"type": "node", "id": 2677275765, "lat": 47.0146617, "lon": -117.141083}, {"type": "node", "id": 2677275779, "lat": 47.0133401, "lon": -117.1414632}, {"type": "node", "id": 2677275784, "lat": 47.0124496, "lon": -117.1394279}, {"type": "node", "id": 2677275786, "lat": 47.0156352, "lon": -117.1396424}, {"type": "node", "id": 2677275788, "lat": 47.0154925, "lon": -117.1414073}, {"type": "node", "id": 2677275803, "lat": 47.0152579, "lon": -117.1414961}, {"type": "node", "id": 2677275811, "lat": 47.012522, "lon": -117.1402998}, {"type": "node", "id": 2677275815, "lat": 47.0139419, "lon": -117.1407474}, {"type": "node", "id": 2677325705, "lat": 47.0088289, "lon": -117.1415786}, {"type": "node", "id": 2677325714, "lat": 47.0089173, "lon": -117.1415348}, {"type": "node", "id": 2677325718, "lat": 47.0091076, "lon": -117.1441838, "tags": {"amenity": "shelter", "shelter_type": "gazebo"}}, {"type": "node", "id": 2677325720, "lat": 47.008102, "lon": -117.1412222}, {"type": "node", "id": 2677325723, "lat": 47.0093106, "lon": -117.1443318}, {"type": "node", "id": 2677325731, "lat": 47.0079687, "lon": -117.141213}, {"type": "node", "id": 2677325736, "lat": 47.0084585, "lon": -117.1402018}, {"type": "node", "id": 2677325738, "lat": 47.0080984, "lon": -117.1413358}, {"type": "node", "id": 2677325744, "lat": 47.0079651, "lon": -117.1413266}, {"type": "node", "id": 2677325745, "lat": 47.0080822, "lon": -117.1435717}, {"type": "node", "id": 2677325747, "lat": 47.0078865, "lon": -117.1435181}, {"type": "node", "id": 2677325749, "lat": 47.0073494, "lon": -117.1425563}, {"type": "node", "id": 2677325757, "lat": 47.007146, "lon": -117.142427}, {"type": "node", "id": 2677325759, "lat": 47.0071418, "lon": -117.1425396}, {"type": "node", "id": 2677325760, "lat": 47.0068829, "lon": -117.1411574, "tags": {"amenity": "cafe"}}, {"type": "node", "id": 2677325762, "lat": 47.009133, "lon": -117.1444123}, {"type": "node", "id": 2677325767, "lat": 47.0080876, "lon": -117.1433974}, {"type": "node", "id": 2677325768, "lat": 47.0085616, "lon": -117.1403788}, {"type": "node", "id": 2677325773, "lat": 47.009164, "lon": -117.1443373}, {"type": "node", "id": 2677325776, "lat": 47.0079186, "lon": -117.1435239}, {"type": "node", "id": 2677325779, "lat": 47.0085667, "lon": -117.1402088}, {"type": "node", "id": 2677325789, "lat": 47.0091734, "lon": -117.1443172}, {"type": "node", "id": 2677325790, "lat": 47.0078645, "lon": -117.1434752}, {"type": "node", "id": 2677325793, "lat": 47.0078865, "lon": -117.1434779}, {"type": "node", "id": 2677325795, "lat": 47.0090012, "lon": -117.1417909}, {"type": "node", "id": 2677325797, "lat": 47.0073536, "lon": -117.1424436}, {"type": "node", "id": 2677325799, "lat": 47.0080748, "lon": -117.1433464}, {"type": "node", "id": 2677325800, "lat": 47.0093057, "lon": -117.1448616}, {"type": "node", "id": 2677325802, "lat": 47.0091604, "lon": -117.1444153}, {"type": "node", "id": 2677325818, "lat": 47.0091601, "lon": -117.1448649}, {"type": "node", "id": 2677325820, "lat": 47.0084593, "lon": -117.1401738}, {"type": "node", "id": 2677325833, "lat": 47.0083899, "lon": -117.1401698}, {"type": "node", "id": 2677325835, "lat": 47.0088168, "lon": -117.1418764}, {"type": "node", "id": 2677325840, "lat": 47.00787, "lon": -117.1433303}, {"type": "node", "id": 2677325848, "lat": 47.0091366, "lon": -117.1443343}, {"type": "node", "id": 2677325852, "lat": 47.0079175, "lon": -117.1435556}, {"type": "node", "id": 2677325855, "lat": 47.0089268, "lon": -117.141302}, {"type": "node", "id": 2677325859, "lat": 47.0068817, "lon": -117.1407613, "tags": {"amenity": "pub", "name": "Grumpy's Tavern"}}, {"type": "node", "id": 2677325864, "lat": 47.0083839, "lon": -117.1403678}, {"type": "node", "id": 2677325872, "lat": 47.0080712, "lon": -117.143392}, {"type": "node", "id": 2677325874, "lat": 47.0091478, "lon": -117.1443743, "tags": {"amenity": "toilets", "name": "Garfield City Park Restroom"}}, {"type": "node", "id": 2677325878, "lat": 47.0090209, "lon": -117.1413104}, {"type": "node", "id": 7786212023, "lat": 47.0088702, "lon": -117.1415827}, {"type": "node", "id": 7786212024, "lat": 47.0088723, "lon": -117.1415307}, {"type": "node", "id": 7786212025, "lat": 47.0089237, "lon": -117.141886}, {"type": "node", "id": 7786212026, "lat": 47.0089278, "lon": -117.1417841}, {"type": "node", "id": 8043625695, "lat": 47.0076714, "lon": -117.1429427}, {"type": "node", "id": 8043625696, "lat": 47.0076848, "lon": -117.1426258}, {"type": "node", "id": 8043625697, "lat": 47.0075032, "lon": -117.1426095}, {"type": "node", "id": 8043625698, "lat": 47.0074939, "lon": -117.1428304}, {"type": "node", "id": 8043625699, "lat": 47.0074688, "lon": -117.1428282}, {"type": "node", "id": 8043625700, "lat": 47.0074659, "lon": -117.1428962}, {"type": "node", "id": 8043625701, "lat": 47.0075523, "lon": -117.1429038}, {"type": "node", "id": 8043625702, "lat": 47.0075511, "lon": -117.1429318}, {"type": "node", "id": 8043625704, "lat": 47.0075974, "lon": -117.1414891}, {"type": "node", "id": 8043625707, "lat": 47.0084337, "lon": -117.1420148}, {"type": "node", "id": 8043625708, "lat": 47.0084395, "lon": -117.141811}, {"type": "node", "id": 8043625709, "lat": 47.0082178, "lon": -117.1417975}, {"type": "node", "id": 8043625710, "lat": 47.0082277, "lon": -117.1414484}, {"type": "node", "id": 8043625711, "lat": 47.0080772, "lon": -117.1414392}, {"type": "node", "id": 8043625712, "lat": 47.0080615, "lon": -117.141992}, {"type": "node", "id": 8512121758, "lat": 47.0076121, "lon": -117.1411825}, {"type": "node", "id": 8512121759, "lat": 47.0077391, "lon": -117.1415038}, {"type": "node", "id": 8512121761, "lat": 47.0077331, "lon": -117.141195}, {"type": "node", "id": 8512121762, "lat": 47.0077516, "lon": -117.1412324}, {"type": "node", "id": 8512121776, "lat": 47.0134514, "lon": -117.1412848}, {"type": "node", "id": 8512121777, "lat": 47.0134323, "lon": -117.141366}, {"type": "node", "id": 8512121778, "lat": 47.0134009, "lon": -117.1414289}, {"type": "node", "id": 8512121779, "lat": 47.0140372, "lon": -117.1409151}, {"type": "node", "id": 8512121780, "lat": 47.0135862, "lon": -117.140975}, {"type": "node", "id": 8512121781, "lat": 47.0134667, "lon": -117.1409192}, {"type": "node", "id": 8512121782, "lat": 47.0135223, "lon": -117.140839}, {"type": "node", "id": 8512121783, "lat": 47.0135006, "lon": -117.1408541}, {"type": "node", "id": 12109681581, "lat": 47.0079302, "lon": -117.1376088}, {"type": "node", "id": 12109681582, "lat": 47.0079335, "lon": -117.1375322}, {"type": "node", "id": 12109681583, "lat": 47.0078525, "lon": -117.1375247}, {"type": "node", "id": 12109681584, "lat": 47.0078492, "lon": -117.1376014}, {"type": "node", "id": 12116092655, "lat": 47.0087851, "lon": -117.1413453}, {"type": "node", "id": 12116092656, "lat": 47.0086545, "lon": -117.1413313}, {"type": "node", "id": 12116092657, "lat": 47.0086195, "lon": -117.1420438}, {"type": "node", "id": 12116092658, "lat": 47.0086846, "lon": -117.1420462}, {"type": "node", "id": 12116092659, "lat": 47.008734, "lon": -117.1420052}, {"type": "node", "id": 12116092660, "lat": 47.0087568, "lon": -117.1419128}, {"type": "node", "id": 12116092661, "lat": 47.008512, "lon": -117.1412574}, {"type": "node", "id": 12116092662, "lat": 47.0084929, "lon": -117.1416387}, {"type": "node", "id": 12116092663, "lat": 47.0086314, "lon": -117.1416532}, {"type": "node", "id": 12116092664, "lat": 47.0086497, "lon": -117.1412743}, {"type": "node", "id": 12116092665, "lat": 47.0084929, "lon": -117.1416451}, {"type": "node", "id": 12116092666, "lat": 47.0086314, "lon": -117.1416608}, {"type": "node", "id": 12116092667, "lat": 47.0086108, "lon": -117.1420537}, {"type": "node", "id": 12116092668, "lat": 47.0085191, "lon": -117.1420433}, {"type": "node", "id": 12116092669, "lat": 47.0084782, "lon": -117.1420176}, {"type": "node", "id": 12229178306, "lat": 47.0080337, "lon": -117.1405656, "tags": {"addr:city": "Garfield", "addr:housenumber": "210", "addr:postcode": "99130", "addr:state": "WA", "addr:street": "West California Street", "name": "Schaut's Marketplace", "opening_hours": "Mo-Fr 08:00-19:00", "payment:cash": "yes", "payment:credit_cards": "yes", "payment:debit_cards": "yes", "payment:mastercard": "yes", "payment:visa": "yes", "phone": "+1-509-592-8025", "shop": "supermarket"}}, {"type": "node", "id": 12577171555, "lat": 47.0109271, "lon": -117.1480898}, {"type": "node", "id": 12577171556, "lat": 47.0110171, "lon": -117.1480873}, {"type": "node", "id": 12577171557, "lat": 47.0110197, "lon": -117.1486879}, {"type": "node", "id": 12577171558, "lat": 47.0109795, "lon": -117.1487455}, {"type": "node", "id": 12577171559, "lat": 47.0109516, "lon": -117.1487839}, {"type": "node", "id": 12577171560, "lat": 47.0109271, "lon": -117.1487877}, {"type": "node", "id": 12577171585, "lat": 47.0091662, "lon": -117.1444497, "tags": {"access": "yes", "amenity": "charging_station", "capacity": "2`"}}, {"type": "way", "id": 262082665, "nodes": [2677275640, 2677275740, 2677275748, 2677275786, 2677275624, 2677275681, 2677275654, 2677275699, 356543951, 2677275784, 2677275536, 2677275811, 2677275710, 2677275675, 2677275779, 8512121778, 8512121777, 8512121776, 2677275648, 2677275646, 2677275620, 8512121780, 2677275750, 2677275765, 2677275803, 2677275758, 2677275788, 2677275737, 2677275501, 2677275493, 2677275683, 2677275640], "tags": {"amenity": "school", "ele": "782", "gnis:feature_id": "1515584", "mascot": "Vikings", "name": "Garfield Elementary/Middle School", "website": "https://gelm.garpal.net/"}}, {"type": "way", "id": 262082671, "nodes": [2677275654, 2677275699, 2677275746, 2677275815, 2677275689, 8512121782, 8512121783, 8512121781, 2677275646, 2677275620, 8512121780, 2677275760, 2677275713, 8512121779, 2677275566, 2677275654], "tags": {"amenity": "parking"}}, {"type": "way", "id": 262086762, "nodes": [2677325749, 2677325797, 2677325757, 2677325759, 2677325749], "tags": {"addr:housenumber": "402", "addr:state": "WA", "addr:street": "West Main Street", "building": "yes", "name": "S & M Storage", "shop": "storage_rental"}}, {"type": "way", "id": 262086763, "nodes": [2677325745, 2677325767, 2677325872, 2677325799, 2677325840, 2677325790, 2677325793, 2677325747, 2677325776, 2677325852, 2677325745], "tags": {"amenity": "place_of_worship", "name": "Garfield Community Church", "religion": "christian"}}, {"type": "way", "id": 262086765, "nodes": [2677325795, 2677325878, 2677325855, 2677325714, 7786212024, 7786212023, 2677325705, 2677325835, 7786212025, 7786212026, 2677325795], "tags": {"addr:housenumber": "303", "addr:state": "WA", "addr:street": "North 3rd Street", "amenity": "place_of_worship", "building": "church", "name": "Garfield Christian Fellowship", "religion": "christian"}}, {"type": "way", "id": 262086767, "nodes": [2677325768, 2677325779, 2677325736, 2677325820, 2677325833, 2677325864, 2677325768], "tags": {"addr:housenumber": "201", "addr:state": "WA", "addr:street": "West Union Street", "amenity": "place_of_worship", "building": "church", "denomination": "methodist", "name": "Garfield United Methodist Church", "religion": "christian"}}, {"type": "way", "id": 262086769, "nodes": [2677325802, 2677325762, 2677325848, 2677325773, 2677325802], "tags": {"amenity": "toilets", "building": "yes"}}, {"type": "way", "id": 262086771, "nodes": [2677325800, 2677325818, 2677325789, 2677325723, 2677325800], "tags": {"access": "yes", "amenity": "parking", "operator": "City of Garfield", "orientation": "perpendicular", "park_ride": "no", "parking": "surface", "smoothness": "intermediate", "surface": "gravel"}}, {"type": "way", "id": 262086773, "nodes": [2677325738, 2677325720, 2677325731, 2677325744, 2677325738], "tags": {"addr:city": "Garfield", "addr:housenumber": "302", "addr:postcode": "99130", "addr:state": "WA", "addr:street": "W California St", "amenity": "post_office", "branch": "Garfield", "building": "yes", "name": "United States Postal Service", "opening_hours": "Mo-Fr 08:00-17:00", "operator": "United States Postal Service", "operator:short": "USPS", "operator:type": "public", "operator:wikidata": "Q668687"}}, {"type": "way", "id": 863463350, "nodes": [8043625695, 8043625696, 8043625697, 8043625698, 8043625699, 8043625700, 8043625701, 8043625702, 8043625695], "tags": {"addr:city": "Garfield", "addr:housenumber": "405", "addr:postcode": "99130", "addr:state": "WA", "addr:street": "West California Street", "addr:unit": "218", "amenity": "townhall", "building": "yes", "name": "Garfield Town Hall", "operator": "Town of Garfield", "phone": "+1-509-635-1604", "townhall:type": "city"}}, {"type": "way", "id": 863463352, "nodes": [8043625707, 8043625708, 8043625709, 8043625710, 8043625711, 8043625712, 8043625707], "tags": {"addr:city": "Garfield", "addr:housenumber": "308", "addr:postcode": "99130", "addr:state": "WA", "addr:street": "West California Street", "addr:unit": "391", "amenity": "social_facility", "building": "yes", "building:levels": "1", "email": "LaDowCourt@ladowcourt.org", "name": "LaDow Court Assisted Living", "operator": "Whitman County Public Hospital District #2", "operator:type": "public", "phone": "+1-509-635-1411", "social_facility": "assisted_living", "social_facility:for": "senior", "website": "https://ladowcourt.org/", "wheelchair": "yes"}}, {"type": "way", "id": 916486534, "nodes": [8512121758, 8512121761, 8512121762, 8512121759, 8043625704, 8512121758], "tags": {"addr:city": "Garfield", "addr:housenumber": "301", "addr:postcode": "99130", "addr:state": "WA", "addr:street": "West California Street", "amenity": "bank", "atm": "yes", "building": "yes", "name": "State Bank Northwest", "phone": "+1-877-789-4335", "website": "https://www.statebanknorthwest.com/"}}, {"type": "way", "id": 1307646633, "nodes": [12109681581, 12109681582, 12109681583, 12109681584, 12109681581], "tags": {"addr:city": "Garfield", "addr:housenumber": "203", "addr:postcode": "99130", "addr:state": "WA", "addr:street": "E CALIFORNIA STREET", "amenity": "fuel", "brand": "CFN", "fuel:diesel": "yes", "fuel:octane_87": "yes", "name": "CFN Garfield fuel station", "operator": "Coleman Oil Company", "self_service": "yes"}}, {"type": "way", "id": 1308376542, "nodes": [12116092655, 12116092656, 12116092657, 12116092658, 12116092659, 12116092660, 12116092655], "tags": {"access": "yes", "amenity": "parking", "operator": "Garfield Christian Fellowship", "operator:type": "religious", "parking": "surface", "surface": "gravel"}}, {"type": "way", "id": 1308376543, "nodes": [12116092661, 12116092662, 12116092663, 12116092664, 12116092661], "tags": {"access": "yes", "amenity": "parking", "operator": "Clinic Parking", "operator:type": "private", "parking": "surface", "surface": "gravel"}}, {"type": "way", "id": 1308376544, "nodes": [12116092665, 12116092666, 12116092667, 12116092668, 12116092669, 12116092665], "tags": {"access": "yes", "amenity": "parking", "operator": "La Dow Court Assisted Living", "operator:type": "business", "parking": "surface", "surface": "gravel"}}, {"type": "way", "id": 1358908620, "nodes": [12577171555, 12577171556, 12577171557, 12577171558, 12577171559, 12577171560, 12577171555], "tags": {"access": "private", "amenity": "parking", "operator": "Bishops' Orchard", "operator:type": "private", "parking": "surface", "surface": "grass"}}]}