{"version": 0.6, "generator": "Overpass API 0.7.62.8 e802775f", "osm3s": {"timestamp_osm_base": "2025-12-06T04:44:06Z", "copyright": "The data included in this document is from www.openstreetmap.org. The data is made available under ODbL."}, "elements": [{"type": "node", "id": 2672146464, "lat": 48.4967737, "lon": -113.9764608, "tags": {"addr:city": "West Glacier", "addr:housenumber": "12575", "addr:postcode": "59936", "addr:street": "Highway 2E", "amenity": "restaurant", "name": "Belton Grill", "phone": "+1 406-888-5000", "website": "https://www.beltonchalet.com/"}}, {"type": "node", "id": 3066060897, "lat": 48.4892609, "lon": -113.9920113, "tags": {"addr:housenumber": "12400", "addr:street": "U.S. Highway 2 East", "name": "Glacier Outdoor Center", "shop": "outdoor", "website": "http://www.glacierraftco.com/outdoor-store/"}}, {"type": "node", "id": 5361609616, "lat": 48.482017, "lon": -114.0004615}, {"type": "node", "id": 5361609617, "lat": 48.4819203, "lon": -114.0005615}, {"type": "node", "id": 5361609618, "lat": 48.4818322, "lon": -114.0003676}, {"type": "node", "id": 5361609619, "lat": 48.4818745, "lon": -114.0003239}, {"type": "node", "id": 5361609620, "lat": 48.4818825, "lon": -114.0003416}, {"type": "node", "id": 5361609621, "lat": 48.4819169, "lon": -114.000306}, {"type": "node", "id": 5361609622, "lat": 48.4819389, "lon": -114.0003544}, {"type": "node", "id": 5361609623, "lat": 48.481959, "lon": -114.0003336}, {"type": "node", "id": 5809579048, "lat": 48.4807766, "lon": -113.9965604}, {"type": "node", "id": 5809579049, "lat": 48.4808406, "lon": -113.9965547}, {"type": "node", "id": 5809579050, "lat": 48.48078, "lon": -113.9966479}, {"type": "node", "id": 5809579051, "lat": 48.480844, "lon": -113.9966422}, {"type": "node", "id": 5809579052, "lat": 48.4806642, "lon": -113.9966582}, {"type": "node", "id": 5809580053, "lat": 48.4808516, "lon": -113.9966415}, {"type": "node", "id": 5809580054, "lat": 48.4808594, "lon": -113.9968411}, {"type": "node", "id": 5809580055, "lat": 48.480672, "lon": -113.9968577}, {"type": "node", "id": 8394999117, "lat": 48.4957094, "lon": -113.9789743, "tags": {"amenity": "restaurant", "name": "Glacier Highland"}}, {"type": "node", "id": 8626785400, "lat": 48.4824331, "lon": -114.0000465, "tags": {"addr:city": "West Glacier", "addr:housenumber": "12000", "addr:postcode": "59936", "addr:state": "MT", "addr:street": "Old Highway 2 East", "name": "Swan Mountain Outfitters", "shop": "yes"}}, {"type": "node", "id": 9494334770, "lat": 48.4801805, "lon": -114.0033078}, {"type": "node", "id": 9494334771, "lat": 48.4801872, "lon": -114.0030924}, {"type": "node", "id": 9494334772, "lat": 48.4800108, "lon": -114.0030798}, {"type": "node", "id": 9494334773, "lat": 48.480004, "lon": -114.0032952}, {"type": "node", "id": 9969137766, "lat": 48.4826719, "lon": -113.9942535, "tags": {"shop": "laundry"}}, {"type": "node", "id": 9970531197, "lat": 48.4958725, "lon": -113.9831041}, {"type": "node", "id": 9970531198, "lat": 48.4961274, "lon": -113.983074}, {"type": "node", "id": 9970531202, "lat": 48.4960017, "lon": -113.9832819}, {"type": "node", "id": 9970531203, "lat": 48.4959982, "lon": -113.9828961}, {"type": "way", "id": 555768350, "nodes": [5361609616, 5361609617, 5361609618, 5361609619, 5361609620, 5361609621, 5361609622, 5361609623, 5361609616], "tags": {"addr:city": "West Glacier", "addr:housenumber": "11900", "addr:state": "MT", "addr:street": "Hwy 2 E", "building": "yes", "name": "Flathead Anglers & Wild River Adventures", "office": "company"}}, {"type": "way", "id": 614133174, "nodes": [5809580055, 5809580054, 5809580053, 5809579051, 5809579049, 5809579048, 5809579050, 5809579052, 5809580055], "tags": {"amenity": "restaurant", "building": "commercial", "name": "Sunflower Cafe"}}, {"type": "way", "id": 1029925298, "nodes": [9494334770, 9494334771, 9494334772, 9494334773, 9494334770], "tags": {"addr:city": "West Glacier", "addr:housenumber": "11970", "addr:postcode": "59936", "addr:state": "MT", "addr:street": "US 2", "building": "yes", "name": "Glacier Guides", "office": "guide"}}, {"type": "way", "id": 1088233528, "nodes": [9970531198, 9970531203, 9970531197, 9970531202, 9970531198], "tags": {"building": "commercial", "name": "West Glacier Gifts", "shop": "gift"}}]}