{"version": 0.6, "generator": "Overpass API 0.7.62.8 e802775f", "osm3s": {"timestamp_osm_base": "2025-12-06T05:35:29Z", "copyright": "The data included in this document is from www.openstreetmap.org. The data is made available under ODbL."}, "elements": [{"type": "node", "id": 4258612846, "lat": 42.6553039, "lon": -111.609261}, {"type": "node", "id": 4258612847, "lat": 42.6553087, "lon": -111.6089949}, {"type": "node", "id": 4258612848, "lat": 42.6553458, "lon": -111.6089961}, {"type": "node", "id": 4258612849, "lat": 42.6553481, "lon": -111.6088708}, {"type": "node", "id": 4258612850, "lat": 42.6552803, "lon": -111.6088686}, {"type": "node", "id": 4258612851, "lat": 42.6552296, "lon": -111.6088669}, {"type": "node", "id": 4258612852, "lat": 42.6552313, "lon": -111.6087709}, {"type": "node", "id": 4258612853, "lat": 42.6551774, "lon": -111.6087691}, {"type": "node", "id": 4258612854, "lat": 42.6551764, "lon": -111.6088205}, {"type": "node", "id": 4258612855, "lat": 42.6549937, "lon": -111.6088145}, {"type": "node", "id": 4258612856, "lat": 42.6549903, "lon": -111.6090002}, {"type": "node", "id": 4258612857, "lat": 42.6549317, "lon": -111.6089983}, {"type": "node", "id": 4258612858, "lat": 42.6549272, "lon": -111.6092485}, {"type": "node", "id": 4258612859, "lat": 42.6550127, "lon": -111.6092514}, {"type": "node", "id": 9894207327, "lat": 42.6550558, "lon": -111.5956045, "tags": {"name": "Fast Stop", "shop": "convenience"}}, {"type": "node", "id": 9894350689, "lat": 42.6541651, "lon": -111.6032987, "tags": {"brand": "Maverik", "brand:wikidata": "Q64149010", "name": "Maverik", "shop": "convenience"}}, {"type": "node", "id": 9925479036, "lat": 42.6542444, "lon": -111.6050993}, {"type": "node", "id": 9925479037, "lat": 42.6539033, "lon": -111.6050983}, {"type": "node", "id": 9925479038, "lat": 42.6539038, "lon": -111.6047954}, {"type": "node", "id": 9925479039, "lat": 42.6538647, "lon": -111.6047953}, {"type": "node", "id": 9925479040, "lat": 42.6538651, "lon": -111.6045659}, {"type": "node", "id": 9925479041, "lat": 42.6538994, "lon": -111.604566}, {"type": "node", "id": 9925479042, "lat": 42.6538995, "lon": -111.6045279}, {"type": "node", "id": 9925479043, "lat": 42.6542454, "lon": -111.6045289}, {"type": "node", "id": 9925479060, "lat": 42.6538856, "lon": -111.6054888, "tags": {"addr:city": "Soda Springs", "addr:housenumber": "89", "addr:postcode": "83276", "addr:state": "ID", "addr:street": "West 2nd South Street", "brand": "Ace Hardware", "brand:wikidata": "Q4672981", "name": "Broulim's Ace Hardware", "opening_hours": "Mo-Sa 07:00-20:00", "phone": "+1 208-547-3385", "ref": "14381", "shop": "doityourself"}}, {"type": "node", "id": 9925479061, "lat": 42.6538823, "lon": -111.6061952, "tags": {"addr:city": "Soda Springs", "addr:housenumber": "89", "addr:postcode": "83276", "addr:state": "ID", "addr:street": "West 2nd South Street", "name": "Broulim's Fresh Foods", "shop": "supermarket"}}, {"type": "node", "id": 9925551775, "lat": 42.6571258, "lon": -111.6038857}, {"type": "node", "id": 9925551778, "lat": 42.6571312, "lon": -111.6042228}, {"type": "node", "id": 9925551780, "lat": 42.6569897, "lon": -111.6042271}, {"type": "node", "id": 9925551781, "lat": 42.6569842, "lon": -111.60389}, {"type": "node", "id": 9925551816, "lat": 42.6564487, "lon": -111.6043367}, {"type": "node", "id": 9925551817, "lat": 42.6564466, "lon": -111.6038874}, {"type": "node", "id": 9925551818, "lat": 42.6562196, "lon": -111.6038893}, {"type": "node", "id": 9925551819, "lat": 42.6562216, "lon": -111.6043386}, {"type": "node", "id": 10691379552, "lat": 42.6544577, "lon": -111.6136373, "tags": {"addr:city": "Soda Springs", "addr:housenumber": "210", "addr:postcode": "83276", "addr:state": "ID", "addr:street": "South 3rd West Street", "amenity": "cafe", "cuisine": "coffee_shop", "name": "Soda Sip", "opening_hours": "Mo-Sa 07:00-19:00; Su off", "outdoor_seating": "no", "phone": "+1 208-909-5114", "website": "https://www.sodasip1.com/"}}, {"type": "node", "id": 11413735218, "lat": 42.654173, "lon": -111.5992004}, {"type": "node", "id": 11413735219, "lat": 42.65417, "lon": -111.5988624}, {"type": "node", "id": 11413735220, "lat": 42.6538869, "lon": -111.5988638}, {"type": "node", "id": 11413735221, "lat": 42.6538929, "lon": -111.5992084}, {"type": "way", "id": 426575655, "nodes": [4258612846, 4258612847, 4258612848, 4258612849, 4258612850, 4258612851, 4258612852, 4258612853, 4258612854, 4258612855, 4258612856, 4258612857, 4258612858, 4258612859, 4258612846], "tags": {"addr:city": "Soda Springs", "addr:housenumber": "166", "addr:postcode": "83263", "addr:state": "ID", "addr:street": "South 2nd Street West", "building": "yes", "name": "Todd Hunzeker Ford", "phone": "+1-888-311-2331", "shop": "car", "website": "http://www.hunzekerford.com/"}}, {"type": "way", "id": 1083027870, "nodes": [9925479036, 9925479037, 9925479038, 9925479039, 9925479040, 9925479041, 9925479042, 9925479043, 9925479036], "tags": {"addr:city": "Soda Springs", "addr:housenumber": "39", "addr:postcode": "83276", "addr:state": "ID", "addr:street": "West 2nd South Street", "building": "yes", "name": "Lallatin Food Town", "shop": "supermarket"}}, {"type": "way", "id": 1083035211, "nodes": [9925551778, 9925551780, 9925551781, 9925551775, 9925551778], "tags": {"amenity": "bar", "building": "yes", "name": "Stockman's Bar"}}, {"type": "way", "id": 1083035219, "nodes": [9925551816, 9925551817, 9925551818, 9925551819, 9925551816], "tags": {"building": "yes", "name": "Eastman Drug Store", "shop": "chemist"}}, {"type": "way", "id": 1230735706, "nodes": [11413735218, 11413735219, 11413735220, 11413735221, 11413735218], "tags": {"brand": "Family Dollar", "brand:wikidata": "Q5433101", "building": "yes", "name": "Family Dollar", "shop": "variety_store"}}]}