{"version": 0.6, "generator": "Overpass API 0.7.62.8 e802775f", "osm3s": {"timestamp_osm_base": "2025-12-07T02:22:58Z", "copyright": "The data included in this document is from www.openstreetmap.org. The data is made available under ODbL."}, "elements": [{"type": "node", "id": 356543404, "lat": 47.8713706, "lon": -122.2974222}, {"type": "node", "id": 1506927201, "lat": 47.8638466, "lon": -122.2847151}, {"type": "node", "id": 1506927202, "lat": 47.8631688, "lon": -122.2843017}, {"type": "node", "id": 1506927203, "lat": 47.8639066, "lon": -122.2827109}, {"type": "node", "id": 1506927204, "lat": 47.8639294, "lon": -122.2847158}, {"type": "node", "id": 1506927205, "lat": 47.8631773, "lon": -122.284915}, {"type": "node", "id": 1506927206, "lat": 47.8639263, "lon": -122.2830114}, {"type": "node", "id": 1506927207, "lat": 47.8639262, "lon": -122.2830566}, {"type": "node", "id": 1506927208, "lat": 47.8639287, "lon": -122.2849207}, {"type": "node", "id": 1506927209, "lat": 47.8639533, "lon": -122.2825828}, {"type": "node", "id": 1506927211, "lat": 47.863862, "lon": -122.2844725}, {"type": "node", "id": 1506927212, "lat": 47.8638475, "lon": -122.2844724}, {"type": "node", "id": 1506927213, "lat": 47.8638637, "lon": -122.2840387}, {"type": "node", "id": 1506927214, "lat": 47.8631699, "lon": -122.2840327}, {"type": "node", "id": 1506927215, "lat": 47.8638379, "lon": -122.2827106}, {"type": "node", "id": 1506927216, "lat": 47.8638175, "lon": -122.2829913}, {"type": "node", "id": 1506927217, "lat": 47.8631793, "lon": -122.2843018}, {"type": "node", "id": 1506927218, "lat": 47.8639069, "lon": -122.2825826}, {"type": "node", "id": 1506927220, "lat": 47.8638174, "lon": -122.2830561}, {"type": "node", "id": 1506927221, "lat": 47.8639524, "lon": -122.2830115}, {"type": "node", "id": 1506927223, "lat": 47.8638374, "lon": -122.2829913}, {"type": "node", "id": 4158833673, "lat": 47.8717572, "lon": -122.2923517, "tags": {"addr:city": "Lynnwood", "addr:housenumber": "4323", "addr:postcode": "98087", "addr:state": "WA", "addr:street": "Serene Way", "amenity": "fire_station", "name": "Lake Serene Fire Station 23", "operator": "Snohomish County Fire District 1"}}, {"type": "node", "id": 4251671309, "lat": 47.864956, "lon": -122.2827973, "tags": {"amenity": "pharmacy", "brand": "Bartell Drugs", "brand:wikidata": "Q4865152", "dispensing": "yes", "healthcare": "pharmacy", "name": "Bartell Drugs"}}, {"type": "node", "id": 4890716140, "lat": 47.8827929, "lon": -122.2804995}, {"type": "node", "id": 4890716175, "lat": 47.881038, "lon": -122.280755, "tags": {"addr:city": "Lynnwood", "addr:housenumber": "12811", "addr:postcode": "98087", "addr:state": "WA", "addr:street": "Beverly Park Road", "brand": "Safeway", "brand:wikidata": "Q1508234", "name": "Safeway", "phone": "+1-425-347-3060", "shop": "supermarket", "website": "https://local.safeway.com/safeway/wa/lynnwood/12811-beverly-park-rd.html"}}, {"type": "node", "id": 4890716176, "lat": 47.8805961, "lon": -122.2792345, "tags": {"amenity": "restaurant", "check_date": "2024-02-02", "cuisine": "thai", "name": "Toudai"}}, {"type": "node", "id": 4893992312, "lat": 47.882697, "lon": -122.2806993, "tags": {"brand": "7-Eleven", "brand:wikidata": "Q259340", "contact:website": "https://www.7-eleven.com/locations/wa/mukilteo/12704-mukilteo-speedway-23176", "name": "7-Eleven", "opening_hours": "24/7", "shop": "convenience"}}, {"type": "node", "id": 4893992326, "lat": 47.8824424, "lon": -122.2794373, "tags": {"name": "Lam Auto Repairs", "shop": "car_repair"}}, {"type": "node", "id": 4893992327, "lat": 47.8826682, "lon": -122.279373, "tags": {"amenity": "fast_food", "brand": "Papa Murphy's", "brand:wikidata": "Q7132349", "check_date": "2024-07-13", "cuisine": "pizza", "name": "Papa Murphy's", "official_name": "Papa Murphy's Take 'N' Bake Pizza", "takeaway": "only"}}, {"type": "node", "id": 4893992334, "lat": 47.8820296, "lon": -122.2802326, "tags": {"amenity": "cafe", "check_date": "2024-02-02", "cuisine": "italian", "name": "Readi Spaghetti"}}, {"type": "node", "id": 4893992335, "lat": 47.881945, "lon": -122.2803453, "tags": {"name": "Unique Reflections", "shop": "yes"}}, {"type": "node", "id": 4893992336, "lat": 47.8818857, "lon": -122.280234, "tags": {"amenity": "fast_food", "brand": "Taco Time NW", "brand:wikidata": "Q7673970", "check_date": "2024-07-13", "cuisine": "mexican", "diet:vegetarian": "yes", "name": "Taco Time", "not:brand:wikidata": "Q7673969", "takeaway": "yes", "website": "https://tacotimenw.com/find-us//"}}, {"type": "node", "id": 4893992337, "lat": 47.8805644, "lon": -122.279322, "tags": {"brand": "Sport Clips", "brand:wikidata": "Q7579310", "check_date": "2021-03-27", "name": "Sport Clips", "shop": "hairdresser"}}, {"type": "node", "id": 4893992338, "lat": 47.8806229, "lon": -122.2791101, "tags": {"amenity": "bank", "atm": "yes", "brand": "Wells Fargo", "brand:wikidata": "Q744149", "check_date": "2021-03-27", "name": "Wells Fargo"}}, {"type": "node", "id": 4893992340, "lat": 47.880474, "lon": -122.279585, "tags": {"brand": "AT&T", "brand:wikidata": "Q298594", "name": "AT&T", "shop": "mobile_phone"}}, {"type": "node", "id": 4893992341, "lat": 47.8804556, "lon": -122.2796707, "tags": {"amenity": "restaurant", "cuisine": "japanese", "name": "Niko Teriyaki"}}, {"type": "node", "id": 4893992342, "lat": 47.8804367, "lon": -122.2797458, "tags": {"name": "Express Dry Cleaners", "shop": "dry_cleaning"}}, {"type": "node", "id": 4893992343, "lat": 47.8804178, "lon": -122.2798303, "tags": {"name": "Muddy Paws", "shop": "pet"}}, {"type": "node", "id": 4893992344, "lat": 47.8804007, "lon": -122.2798933, "tags": {"amenity": "veterinary", "name": "Animal Surgery Center"}}, {"type": "node", "id": 4893992345, "lat": 47.8803854, "lon": -122.2799684, "tags": {"amenity": "restaurant", "cuisine": "international;hungarian", "name": "Budapest Bistro"}}, {"type": "node", "id": 4893992346, "lat": 47.8803422, "lon": -122.2802527, "tags": {"amenity": "kindergarten", "brand": "La Petite Academy", "brand:wikidata": "Q64877784", "fee": "yes", "isced:level": "0", "name": "La Petite Academy", "nursery": "yes", "preschool": "yes"}}, {"type": "node", "id": 4893992347, "lat": 47.8806822, "lon": -122.28047, "tags": {"name": "HairMasters", "shop": "hairdresser"}}, {"type": "node", "id": 4893992348, "lat": 47.8806391, "lon": -122.2804432, "tags": {"amenity": "post_office", "brand": "The UPS Store", "brand:wikidata": "Q7771029", "name": "The UPS Store", "short_name": "UPS"}}, {"type": "node", "id": 4893992349, "lat": 47.8805518, "lon": -122.2803855, "tags": {"brand": "H&R Block", "brand:wikidata": "Q5627799", "name": "H&R Block", "office": "tax_advisor"}}, {"type": "node", "id": 4893992350, "lat": 47.8805059, "lon": -122.2803533, "tags": {"amenity": "restaurant", "cuisine": "chinese", "name": "The Han River Restaurant"}}, {"type": "node", "id": 4893992351, "lat": 47.8814531, "lon": -122.2809917, "tags": {"name": "Barbara's Floral", "shop": "florist"}}, {"type": "node", "id": 5249512924, "lat": 47.8798972, "lon": -122.2786884, "tags": {"check_date": "2024-07-13", "name": "Natural Stone Interiors", "shop": "hardware"}}, {"type": "node", "id": 5249512926, "lat": 47.8736496, "lon": -122.2759322, "tags": {"name": "Via RV", "shop": "caravan"}}, {"type": "node", "id": 5249513028, "lat": 47.8760779, "lon": -122.276828, "tags": {"name": "Olympic Automotive", "shop": "car_repair"}}, {"type": "node", "id": 5249513224, "lat": 47.8756911, "lon": -122.2756677, "tags": {"brand": "Public Storage", "brand:wikidata": "Q1156045", "check_date": "2024-07-13", "name": "Public Storage", "shop": "storage_rental"}}, {"type": "node", "id": 5480724740, "lat": 47.8636961, "lon": -122.2813518}, {"type": "node", "id": 5771389851, "lat": 47.8659482, "lon": -122.2809873, "tags": {"addr:city": "Lynnwood", "addr:housenumber": "14608", "addr:postcode": "98087", "addr:state": "WA", "addr:street": "Highway 99", "amenity": "pub", "description": "Bottle Shop and Pub", "name": "Special Brews", "opening_hours": "Mo-Th 11:00-22:00; Fr-Sa 11:00-23:00; Su 12:00-20:00", "outdoor_seating": "yes", "website": "http://special-brews.com/"}}, {"type": "node", "id": 5771389852, "lat": 47.8667261, "lon": -122.2805925}, {"type": "node", "id": 5771391353, "lat": 47.8667056, "lon": -122.280601}, {"type": "node", "id": 5771391354, "lat": 47.8667115, "lon": -122.2806325}, {"type": "node", "id": 5771391355, "lat": 47.8665967, "lon": -122.2806802}, {"type": "node", "id": 5771391356, "lat": 47.8665897, "lon": -122.2806423}, {"type": "node", "id": 5771391357, "lat": 47.8665577, "lon": -122.2806556}, {"type": "node", "id": 5771391358, "lat": 47.8664784, "lon": -122.2802312}, {"type": "node", "id": 5771391359, "lat": 47.8666456, "lon": -122.2801617}, {"type": "node", "id": 5771391360, "lat": 47.8665399, "lon": -122.2793226}, {"type": "node", "id": 5771391361, "lat": 47.8665465, "lon": -122.279259}, {"type": "node", "id": 5771391362, "lat": 47.8665177, "lon": -122.2792523}, {"type": "node", "id": 5771391363, "lat": 47.8665111, "lon": -122.279316}, {"type": "node", "id": 5771391364, "lat": 47.8675555, "lon": -122.2774876}, {"type": "node", "id": 5771391365, "lat": 47.867075, "lon": -122.2774701}, {"type": "node", "id": 5771391366, "lat": 47.8670676, "lon": -122.2783004}, {"type": "node", "id": 5771391367, "lat": 47.867303, "lon": -122.2783057}, {"type": "node", "id": 5771391368, "lat": 47.8673055, "lon": -122.2779399}, {"type": "node", "id": 5771391369, "lat": 47.8673853, "lon": -122.2779433}, {"type": "node", "id": 5771391370, "lat": 47.867387, "lon": -122.2778157}, {"type": "node", "id": 5771391371, "lat": 47.867554, "lon": -122.2778165}, {"type": "node", "id": 6104217336, "lat": 47.8645322, "lon": -122.2834159, "tags": {"addr:city": "Lynnwood", "addr:housenumber": "3625", "addr:postcode": "98087", "addr:state": "WA", "addr:street": "148th Street Southwest", "atm": "yes", "brand": "7-Eleven", "brand:wikidata": "Q259340", "fast_food": "yes", "fuel:propane": "yes", "name": "7-Eleven", "phone": "+1-425-741-8683", "ref": "34746", "shop": "convenience", "website": "https://www.7-eleven.com/locations/wa/lynnwood/3625-148th-st-sw-34746", "wheelchair": "yes"}}, {"type": "node", "id": 6104217348, "lat": 47.8644161, "lon": -122.2834118, "tags": {"addr:city": "Lynnwood", "addr:housenumber": "3625", "addr:postcode": "98087", "addr:state": "WA", "addr:street": "148th Street Southwest", "addr:unit": "A101", "amenity": "cafe", "branch": "148th St. Southwest & Highway 99", "brand": "Starbucks", "brand:wikidata": "Q37158", "cuisine": "coffee_shop", "name": "Starbucks", "official_name": "Starbucks Coffee", "phone": "+1-425-787-2347", "ref": "65918", "takeaway": "yes", "website": "https://www.starbucks.com/store-locator/store/65918/148th-st-sw-highway-99-3625-148th-st-sw-a-101-lynnwood-wa-980875577-us"}}, {"type": "node", "id": 6104217349, "lat": 47.8648501, "lon": -122.2820146, "tags": {"amenity": "fast_food", "brand": "Little Caesars", "brand:wikidata": "Q1393809", "cuisine": "pizza", "name": "Little Caesars", "takeaway": "yes", "website": "https://littlecaesars.com/en-us/store/8960/", "wheelchair": "yes"}}, {"type": "node", "id": 6104235308, "lat": 47.8645256, "lon": -122.281335}, {"type": "node", "id": 6104235309, "lat": 47.8645282, "lon": -122.280886}, {"type": "node", "id": 6104235310, "lat": 47.864351, "lon": -122.2808837}, {"type": "node", "id": 6104235311, "lat": 47.8643484, "lon": -122.2813327}, {"type": "node", "id": 6104242612, "lat": 47.8728343, "lon": -122.2745941, "tags": {"name": "Carson's Cars", "shop": "car"}}, {"type": "node", "id": 6725108173, "lat": 47.8647136, "lon": -122.2809524, "tags": {"amenity": "car_wash"}}, {"type": "node", "id": 6848669726, "lat": 47.8639026, "lon": -122.2815397}, {"type": "node", "id": 6848669727, "lat": 47.8637421, "lon": -122.2815396}, {"type": "node", "id": 6848669728, "lat": 47.8637421, "lon": -122.2813518}, {"type": "node", "id": 6848669729, "lat": 47.8636406, "lon": -122.2813517}, {"type": "node", "id": 6848669730, "lat": 47.8636407, "lon": -122.2812389}, {"type": "node", "id": 6848669731, "lat": 47.8637381, "lon": -122.281239}, {"type": "node", "id": 6848669732, "lat": 47.8637383, "lon": -122.2809024}, {"type": "node", "id": 6848669733, "lat": 47.8639028, "lon": -122.2809026}, {"type": "node", "id": 6944367001, "lat": 47.8711435, "lon": -122.2917287}, {"type": "node", "id": 6944367070, "lat": 47.8736294, "lon": -122.2749079, "tags": {"amenity": "clinic", "brand": "DaVita Dialysis", "brand:wikidata": "Q5207184", "healthcare": "dialysis", "healthcare:speciality": "dialysis", "name": "DaVita Dialysis"}}, {"type": "node", "id": 6944367073, "lat": 47.8734835, "lon": -122.2746576, "tags": {"alt_name": "Edward Jones Investments", "brand": "Edward Jones", "brand:wikidata": "Q5343830", "name": "Edward Jones", "office": "financial_advisor"}}, {"type": "node", "id": 6944367081, "lat": 47.873676, "lon": -122.2747443, "tags": {"name": "Julie Hair", "shop": "hairdresser"}}, {"type": "node", "id": 6944367083, "lat": 47.873489, "lon": -122.2747954, "tags": {"amenity": "dentist", "healthcare": "dentist", "name": "Harbour Detnal"}}, {"type": "node", "id": 6944367127, "lat": 47.871136, "lon": -122.2749936, "tags": {"amenity": "fuel", "check_date": "2025-07-12", "name": "Lynnwood Food Mart"}}, {"type": "node", "id": 7455817583, "lat": 47.879991, "lon": -122.2847141}, {"type": "node", "id": 7455817584, "lat": 47.8796316, "lon": -122.2838337}, {"type": "node", "id": 7455836785, "lat": 47.8801458, "lon": -122.2830744}, {"type": "node", "id": 7455836786, "lat": 47.8797198, "lon": -122.282521}, {"type": "node", "id": 7455836787, "lat": 47.8793099, "lon": -122.2835702}, {"type": "node", "id": 7455836788, "lat": 47.8796306, "lon": -122.2853362}, {"type": "node", "id": 7455836790, "lat": 47.8797878, "lon": -122.2850953}, {"type": "node", "id": 7622657853, "lat": 47.8672994, "lon": -122.2784763}, {"type": "node", "id": 7622657854, "lat": 47.86707, "lon": -122.2784709}, {"type": "node", "id": 8281793121, "lat": 47.8638386, "lon": -122.283871, "tags": {"amenity": "charging_station", "operator": "Volta", "operator:wikidata": "Q109307156", "operator:wikipedia": "en:Volta Charging"}}, {"type": "node", "id": 8281913335, "lat": 47.8648434, "lon": -122.282355, "tags": {"amenity": "restaurant", "cuisine": "asian", "name": "Big Teriyaki"}}, {"type": "node", "id": 8281913336, "lat": 47.8648524, "lon": -122.282237, "tags": {"amenity": "restaurant", "cuisine": "mexican", "name": "Aca Las Tortas"}}, {"type": "node", "id": 8281913337, "lat": 47.8648524, "lon": -122.2821136, "tags": {"amenity": "bank", "atm": "yes", "brand": "Bank of America", "brand:wikidata": "Q487907", "drive_through": "no", "name": "Bank of America"}}, {"type": "node", "id": 9215228305, "lat": 47.8715241, "lon": -122.2982908}, {"type": "node", "id": 9215228307, "lat": 47.8712891, "lon": -122.2971467}, {"type": "node", "id": 9215228308, "lat": 47.8726628, "lon": -122.2956009}, {"type": "node", "id": 9215228309, "lat": 47.8728993, "lon": -122.2961029}, {"type": "node", "id": 9215228310, "lat": 47.8733253, "lon": -122.2962057}, {"type": "node", "id": 9215228311, "lat": 47.8733175, "lon": -122.2972144}, {"type": "node", "id": 9215228312, "lat": 47.8734475, "lon": -122.2982768}, {"type": "node", "id": 9215228313, "lat": 47.8733997, "lon": -122.2982771}, {"type": "node", "id": 9215260517, "lat": 47.8728681, "lon": -122.298281}, {"type": "node", "id": 9215260520, "lat": 47.8726306, "lon": -122.2982827}, {"type": "node", "id": 9215260522, "lat": 47.8726045, "lon": -122.2982829}, {"type": "node", "id": 9215260523, "lat": 47.87226, "lon": -122.2982854}, {"type": "node", "id": 9215260529, "lat": 47.8719289, "lon": -122.2982879}, {"type": "node", "id": 9215260531, "lat": 47.8726137, "lon": -122.2982829}, {"type": "node", "id": 9518332330, "lat": 47.879914, "lon": -122.2835172}, {"type": "node", "id": 9978892940, "lat": 47.8827167, "lon": -122.2804488}, {"type": "node", "id": 9978892941, "lat": 47.8827438, "lon": -122.2803584}, {"type": "node", "id": 9978892942, "lat": 47.88282, "lon": -122.2804091}, {"type": "node", "id": 10174641595, "lat": 47.8657129, "lon": -122.2811923, "tags": {"addr:city": "Lynnwood", "addr:housenumber": "14608", "addr:postcode": "98087", "addr:state": "WA", "addr:street": "SR-99", "addr:unit": "130", "amenity": "restaurant", "cuisine": "vietnamese", "name": "Pho Hue", "opening_hours": "Mo-Sa 10:00-8:00", "phone": "+1-425-743-9370"}}, {"type": "node", "id": 10692213276, "lat": 47.8711927, "lon": -122.274663, "tags": {"operator": "Lynnwood Food Mart", "shop": "supermarket"}}, {"type": "node", "id": 10700721964, "lat": 47.8660124, "lon": -122.2812141, "tags": {"name": "A greener today", "shop": "cannabis"}}, {"type": "node", "id": 11011814008, "lat": 47.8636979, "lon": -122.281239}, {"type": "node", "id": 11196438329, "lat": 47.8730979, "lon": -122.2760342}, {"type": "node", "id": 11196475033, "lat": 47.8725427, "lon": -122.2758173}, {"type": "node", "id": 11196475034, "lat": 47.8723696, "lon": -122.2760606}, {"type": "node", "id": 11196475035, "lat": 47.8723115, "lon": -122.2760264}, {"type": "node", "id": 11196475036, "lat": 47.8725158, "lon": -122.2752346}, {"type": "node", "id": 11196478337, "lat": 47.8725672, "lon": -122.2756934}, {"type": "node", "id": 11196478338, "lat": 47.8725378, "lon": -122.2760408}, {"type": "node", "id": 11196478339, "lat": 47.8725758, "lon": -122.275305}, {"type": "node", "id": 11196478340, "lat": 47.8726682, "lon": -122.2753096}, {"type": "node", "id": 11196478341, "lat": 47.8730107, "lon": -122.2754664}, {"type": "node", "id": 11196478342, "lat": 47.872597, "lon": -122.27582}, {"type": "node", "id": 11196478343, "lat": 47.8725744, "lon": -122.2752665}, {"type": "node", "id": 11196478344, "lat": 47.8725315, "lon": -122.2760073}, {"type": "node", "id": 11196478345, "lat": 47.8725997, "lon": -122.275695}, {"type": "node", "id": 11196478346, "lat": 47.8725572, "lon": -122.2753367}, {"type": "node", "id": 11196478347, "lat": 47.8724978, "lon": -122.2760748}, {"type": "node", "id": 11196478348, "lat": 47.8725014, "lon": -122.2760039}, {"type": "node", "id": 11252447098, "lat": 47.86546, "lon": -122.28286, "tags": {"access": "customers", "addr:city": "Lynnwood", "addr:country": "US", "addr:housenumber": "3625", "addr:postcode": "98087", "addr:state": "WA", "addr:street": "148th Street Southwest", "amenity": "charging_station", "authentication:app": "yes", "bicycle": "no", "brand": "Tesla Supercharger", "brand:en": "Tesla Supercharger", "brand:website": "https://www.tesla.com/supercharger", "brand:wikidata": "Q17089620", "bus": "no", "capacity": "12", "ele": "188", "fee": "yes", "frequency": "0", "hgv": "no", "maxstay": "no", "motorcar": "designated", "name": "Tesla Supercharger Lynnwood, WA - 148th Street Southwest", "network": "Supercharger", "network:website": "https://www.tesla.com/supercharger", "network:wikidata": "Q17089620", "note": "This Tesla Supercharger was edited or added by the June 2025 import from supercharge.info... if you have any questions, comments, or concerns, please reach out to the US Slack / Forum", "opening_hours": "24/7", "operator": "Tesla, Inc.", "operator:wikidata": "Q478214", "operator:wikipedia": "en:Tesla, Inc.", "payment:app:tesla": "yes", "ref:plugshare": "556034", "ref:supercharge_info": "5466", "reservation": "no", "scooter": "no", "socket:nacs": "12", "socket:nacs:output": "250", "source": "https://supercharge.info", "start_date": "2023-09-01", "website": "https://www.tesla.com/findus/location/supercharger/26597"}}, {"type": "node", "id": 11869822943, "lat": 47.8714131, "lon": -122.2918183}, {"type": "node", "id": 11869822944, "lat": 47.8710482, "lon": -122.292477}, {"type": "node", "id": 11869822945, "lat": 47.8714584, "lon": -122.2925253}, {"type": "node", "id": 11869822946, "lat": 47.871462, "lon": -122.29219}, {"type": "node", "id": 11869822947, "lat": 47.8714656, "lon": -122.2919057}, {"type": "node", "id": 11869822949, "lat": 47.8711345, "lon": -122.2917991}, {"type": "node", "id": 11869822956, "lat": 47.8711118, "lon": -122.2922991, "tags": {"access": "yes", "amenity": "toilets", "portable": "yes"}}, {"type": "node", "id": 12070053922, "lat": 47.8646366, "lon": -122.2834329, "tags": {"amenity": "restaurant", "cuisine": "asian", "name": "T Dumpling House"}}, {"type": "node", "id": 12070260505, "lat": 47.8650973, "lon": -122.2818422, "tags": {"amenity": "parking_space", "parking_space": "disabled"}}, {"type": "node", "id": 12952547201, "lat": 47.874692, "lon": -122.3070424, "tags": {"amenity": "public_bookcase"}}, {"type": "node", "id": 13270520150, "lat": 47.8803749, "lon": -122.2836369, "tags": {"addr:city": "Lynnwood", "addr:housenumber": "12925", "addr:postcode": "98087", "addr:state": "WA", "addr:street": "Beverly Park Road", "amenity": "cafe", "cuisine": "coffee_shop", "name": "One Shot Espresso", "opening_hours": "Mo-Fr 05:00-15:00, Sa 06:00-15:30, Su 07:00-15:00", "outdoor_seating": "no"}}, {"type": "way", "id": 137364898, "nodes": [1506927206, 1506927221, 1506927209, 1506927218, 1506927203, 1506927215, 1506927223, 1506927216, 1506927220, 1506927207, 1506927206], "tags": {"addr:housenumber": "14826", "addr:postcode": "98036", "addr:state": "WA", "addr:street": "State Highway 99", "amenity": "fuel", "brand": "Safeway", "brand:wikidata": "Q1508234", "building": "yes", "designation": "Safeway 3523", "name": "Safeway Fuel Station", "operator": "Safeway", "website": "https://local.fuel.safeway.com/safeway/wa/lynnwood/14826-hwy-99-n.html", "wheelchair": "yes"}}, {"type": "way", "id": 137364899, "nodes": [1506927208, 1506927204, 1506927201, 1506927212, 1506927211, 1506927213, 1506927214, 1506927202, 1506927217, 1506927205, 1506927208], "tags": {"addr:city": "Lynnwood", "addr:housenumber": "14826", "addr:postcode": "98036", "addr:state": "WA", "addr:street": "State Highway 99", "brand": "Safeway", "brand:wikidata": "Q1508234", "building": "yes", "designation": "Safeway 3523", "name": "Safeway", "opening_hours": "Mo-Fr 05:00-24:00; Sa 05:00-24:00; Su 05:00-24:00", "phone": "+1-425-743-7771", "shop": "supermarket", "website": "https://local.safeway.com/safeway/wa/lynnwood/14826-hwy-99-n.html", "wheelchair": "yes"}}, {"type": "way", "id": 609298667, "nodes": [5771389852, 5771391353, 5771391354, 5771391355, 5771391356, 5771391357, 5771391358, 5771391359, 5771389852], "tags": {"amenity": "doctors", "building": "yes", "healthcare": "doctor"}}, {"type": "way", "id": 609298669, "nodes": [5771391360, 5771391361, 5771391362, 5771391363, 5771391360], "tags": {"amenity": "cafe", "building": "yes"}}, {"type": "way", "id": 609298670, "nodes": [5771391364, 5771391365, 5771391366, 5771391367, 5771391368, 5771391369, 5771391370, 5771391371, 5771391364], "tags": {"addr:city": "Lynnwood", "addr:housenumber": "14429", "addr:postcode": "98087", "addr:state": "WA", "addr:street": "Highway 99", "brand": "U-Haul", "brand:wikidata": "Q7862902", "building": "yes", "name": "U-Haul", "shop": "storage_rental", "website": "https://www.uhaul.com/Locations/Truck-Rentals-near-Lynnwood-WA-98087/801025/"}}, {"type": "way", "id": 650777707, "nodes": [6104235308, 6104235309, 6104235310, 6104235311, 6104235308], "tags": {"amenity": "fuel", "brand": "Chevron", "brand:wikidata": "Q319642", "building": "roof", "name": "Chevron"}}, {"type": "way", "id": 731186794, "nodes": [6848669726, 6848669727, 6848669728, 5480724740, 6848669729, 6848669730, 11011814008, 6848669731, 6848669732, 6848669733, 6848669726], "tags": {"amenity": "bank", "brand": "Heritage Bank", "brand:wikidata": "Q107803181", "building": "yes", "name": "Heritage Bank"}}, {"type": "way", "id": 797216637, "nodes": [7455817583, 7455817584, 9518332330, 7455836785, 7455836786, 7455836787, 7455836788, 7455836790, 7455817583], "tags": {"addr:city": "Lynnwood", "addr:housenumber": "1301", "addr:postcode": "98087", "addr:state": "WA", "addr:street": "Beverly Park Road", "landuse": "garages", "name": "Flight Line Storage", "phone": "+1-425-382-8405", "shop": "storage_rental", "website": "flightlinestoragewa.com"}}, {"type": "way", "id": 816178549, "nodes": [5771391367, 7622657853, 7622657854, 5771391366, 5771391367], "tags": {"brand": "U-Haul", "brand:wikidata": "Q7862902", "building": "yes", "name": "U-Haul", "shop": "rental"}}, {"type": "way", "id": 998042358, "nodes": [9215228305, 356543404, 9215228307, 9215228308, 9215228309, 9215228310, 9215228311, 9215228312, 9215228313, 9215260517, 9215260520, 9215260531, 9215260522, 9215260523, 9215260529, 9215228305], "tags": {"amenity": "school", "education": "school", "ele": "155", "gnis:feature_id": "1515055", "name": "Serene Lake Elementary School"}}, {"type": "way", "id": 1089351524, "nodes": [4890716140, 9978892940, 9978892941, 9978892942, 4890716140], "tags": {"amenity": "fuel", "brand": "7-Eleven", "brand:wikidata": "Q259340", "building": "roof", "compressed_air": "yes", "layer": "1", "name": "7-Eleven"}}, {"type": "way", "id": 1208357003, "nodes": [11196478338, 11196438329, 11196478341, 11196478340, 11196478339, 11196478337, 11196478345, 11196478342, 11196475033, 11196478338], "tags": {"brand": "Extra Space Storage", "brand:wikidata": "Q5422162", "building": "yes", "check_date": "2023-09-16", "name": "Extra Space Storage", "shop": "storage_rental"}}, {"type": "way", "id": 1208357004, "nodes": [11196475035, 11196475034, 11196478347, 11196478348, 11196478344, 11196478346, 11196478343, 11196475036, 11196475035], "tags": {"amenity": "parking"}}, {"type": "way", "id": 1278599271, "nodes": [11869822945, 11869822946, 11869822947, 11869822943, 6944367001, 11869822949, 11869822944, 11869822945], "tags": {"access": "yes", "amenity": "parking", "fee": "yes", "operator": "Washington Department of Fish and Wildlife", "operator:type": "government", "parking": "surface", "surface": "gravel"}}]}