{"version": 0.6, "generator": "Overpass API 0.7.62.8 e802775f", "osm3s": {"timestamp_osm_base": "2025-12-06T05:28:07Z", "copyright": "The data included in this document is from www.openstreetmap.org. The data is made available under ODbL."}, "elements": [{"type": "node", "id": 3760965097, "lat": 42.7852168, "lon": -112.8524869, "tags": {"brand": "Family Dollar", "brand:wikidata": "Q5433101", "name": "Family Dollar", "shop": "variety_store"}}, {"type": "node", "id": 3760965153, "lat": 42.7852326, "lon": -112.8531574, "tags": {"name": "Laundry/Dry Cleaning", "shop": "laundry"}}, {"type": "node", "id": 3760965173, "lat": 42.7849608, "lon": -112.8535437, "tags": {"amenity": "restaurant", "cuisine": "chinese", "name": "China City"}}, {"type": "node", "id": 3761619181, "lat": 42.7863959, "lon": -112.8441856}, {"type": "node", "id": 3761619183, "lat": 42.7891513, "lon": -112.8407906}, {"type": "node", "id": 3761619186, "lat": 42.789323, "lon": -112.8402887}, {"type": "node", "id": 3761619190, "lat": 42.7875328, "lon": -112.8417583, "tags": {"amenity": "restaurant", "cuisine": "pizza", "name": "Pizza Hut"}}, {"type": "node", "id": 3761619191, "lat": 42.7862903, "lon": -112.8440894}, {"type": "node", "id": 3761619196, "lat": 42.7870506, "lon": -112.8426434, "tags": {"brand": "Les Schwab Tire Center", "brand:wikidata": "Q6529977", "name": "Les Schwab Tire Center", "shop": "tyres"}}, {"type": "node", "id": 3761619198, "lat": 42.7889902, "lon": -112.8410957}, {"type": "node", "id": 3761619203, "lat": 42.7895328, "lon": -112.8398922}, {"type": "node", "id": 3761619211, "lat": 42.7896545, "lon": -112.8406045}, {"type": "node", "id": 3761619212, "lat": 42.7887597, "lon": -112.8408696}, {"type": "node", "id": 3761619218, "lat": 42.7863588, "lon": -112.8439496}, {"type": "node", "id": 3761619219, "lat": 42.7864644, "lon": -112.8440458}, {"type": "node", "id": 3761619220, "lat": 42.7896018, "lon": -112.8397577}, {"type": "node", "id": 3761619222, "lat": 42.7899291, "lon": -112.8400694}, {"type": "node", "id": 3761619225, "lat": 42.7882179, "lon": -112.84057, "tags": {"name": "Jiffy Lube", "shop": "car_repair"}}, {"type": "node", "id": 3761619226, "lat": 42.7889208, "lon": -112.8405646}, {"type": "node", "id": 3761631545, "lat": 42.7832061, "lon": -112.8555636, "tags": {"name": "La Esperanza Bakery", "shop": "bakery"}}, {"type": "node", "id": 4180708984, "lat": 42.7860683, "lon": -112.856408, "tags": {"addr:city": "American Falls", "addr:housenumber": "105", "addr:postcode": "83211", "addr:state": "ID", "addr:street": "Harrison Street", "contact:email": "ams@ams-samplers.com", "contact:facebook": "https://www.facebook.com/amssampling/", "contact:fax": "+1-208-226-7280", "contact:linkedin": "https://www.linkedin.com/company/ams-inc", "contact:person": "Chanelle Minor", "contact:twitter": "https://twitter.com/amssampling", "contact:youtube": "https://www.youtube.com/user/AMSsampling", "name": "AMS, Inc.", "office": "company", "opening_hours": "Mo-Th 07:00-17:00; Fr 08:00-15:00", "phone": "+1-208-226-2017", "website": "https://www.ams-samplers.com/"}}, {"type": "node", "id": 5489774925, "lat": 42.7827576, "lon": -112.8498212}, {"type": "node", "id": 5489774926, "lat": 42.783043, "lon": -112.8496614}, {"type": "node", "id": 5489774927, "lat": 42.7829846, "lon": -112.8494681}, {"type": "node", "id": 5489774928, "lat": 42.7829176, "lon": -112.8495056}, {"type": "node", "id": 5489774929, "lat": 42.7828926, "lon": -112.8494228}, {"type": "node", "id": 5489774930, "lat": 42.7826824, "lon": -112.8495405}, {"type": "node", "id": 5489774931, "lat": 42.7826902, "lon": -112.8495664}, {"type": "node", "id": 5489774932, "lat": 42.7826657, "lon": -112.8495801}, {"type": "node", "id": 5489774933, "lat": 42.7826979, "lon": -112.849687}, {"type": "node", "id": 5489774934, "lat": 42.7827143, "lon": -112.8496778}, {"type": "node", "id": 10300591189, "lat": 42.787142, "lon": -112.8444321}, {"type": "node", "id": 10300591191, "lat": 42.7868498, "lon": -112.8444361}, {"type": "node", "id": 10300591192, "lat": 42.7868489, "lon": -112.8443158}, {"type": "node", "id": 10300591193, "lat": 42.7871411, "lon": -112.8443117}, {"type": "node", "id": 11956292522, "lat": 42.7843441, "lon": -112.8552596, "tags": {"shop": "funeral_directors"}}, {"type": "node", "id": 11956292523, "lat": 42.7843234, "lon": -112.8551603, "tags": {"office": "newspaper"}}, {"type": "node", "id": 11956292524, "lat": 42.7843087, "lon": -112.8550651, "tags": {"shop": "hairdresser"}}, {"type": "node", "id": 11956297781, "lat": 42.7845734, "lon": -112.8558832, "tags": {"shop": "hairdresser"}}, {"type": "node", "id": 11956302948, "lat": 42.7845557, "lon": -112.8543538, "tags": {"self_service": "yes", "shop": "laundry"}}, {"type": "node", "id": 11956302949, "lat": 42.7845438, "lon": -112.8542873, "tags": {"shop": "hairdresser"}}, {"type": "node", "id": 11956302950, "lat": 42.7840751, "lon": -112.8543924, "tags": {"brand": "State Farm", "brand:wikidata": "Q2007336", "name": "State Farm", "office": "insurance"}}, {"type": "node", "id": 11956302951, "lat": 42.7841239, "lon": -112.8545558, "tags": {"office": "lawyer"}}, {"type": "node", "id": 11956302952, "lat": 42.7840545, "lon": -112.8542581, "tags": {"shop": "second_hand"}}, {"type": "node", "id": 11956302957, "lat": 42.7838161, "lon": -112.8535445, "tags": {"shop": "storage_rental"}}, {"type": "node", "id": 11956302958, "lat": 42.7842551, "lon": -112.8529852, "tags": {"name": "Ken's Food Market", "shop": "supermarket"}}, {"type": "node", "id": 11956302959, "lat": 42.7837058, "lon": -112.8532825, "tags": {"amenity": "bar"}}, {"type": "node", "id": 11956304385, "lat": 42.7836665, "lon": -112.8562236, "tags": {"shop": "car_repair"}}, {"type": "node", "id": 11956304386, "lat": 42.783273, "lon": -112.8550713, "tags": {"shop": "florist"}}, {"type": "node", "id": 11956309039, "lat": 42.7852732, "lon": -112.856589, "tags": {"amenity": "restaurant"}}, {"type": "node", "id": 12882732019, "lat": 42.7894513, "lon": -112.8400385}, {"type": "node", "id": 12882732020, "lat": 42.7894138, "lon": -112.8400027}, {"type": "node", "id": 12882732021, "lat": 42.7894909, "lon": -112.8398523}, {"type": "way", "id": 372607628, "nodes": [3761619219, 3761619218, 3761619191, 3761619181, 3761619219], "tags": {"addr:city": "American Falls", "addr:housenumber": "2854", "addr:postcode": "83211", "addr:state": "ID", "addr:street": "Pocatello Avenue", "amenity": "restaurant", "building": "restaurant", "cuisine": "mexican", "name": "Tres Hermanos 2", "phone": "+1-208-226-2223", "tiger:cfcc": "A41", "tiger:county": "Power, ID", "tiger:reviewed": "no", "website": "https://hermanos.top"}}, {"type": "way", "id": 372607630, "nodes": [3761619198, 3761619183, 3761619226, 3761619212, 3761619198], "tags": {"addr:city": "American Falls", "addr:housenumber": "2829", "addr:postcode": "83211", "addr:state": "ID", "addr:street": "Pocatello Avenue", "brand": "NAPA Auto Parts", "brand:wikidata": "Q6970842", "building": "retail", "name": "NAPA Auto Parts", "opening_hours": "Mo-Fr 07:30-18:00; Sa 08:30-16:00", "phone": "+1-208-226-2740", "shop": "car_parts", "website": "https://www.napaonline.com/en/ID/American-Falls/store/22867"}}, {"type": "way", "id": 372607632, "nodes": [3761619222, 3761619220, 3761619203, 12882732021, 12882732020, 12882732019, 3761619186, 3761619211, 3761619222], "tags": {"addr:city": "American Falls", "addr:housenumber": "2827", "addr:postcode": "83211", "addr:state": "ID", "addr:street": "Pocatello Avenue", "building": "retail", "name": "Ridley's Family Markets", "operator": "Ridley's Family Markets", "phone": "+1-208-252-5662", "shop": "supermarket"}}, {"type": "way", "id": 571121650, "nodes": [5489774925, 5489774926, 5489774927, 5489774928, 5489774929, 5489774930, 5489774931, 5489774932, 5489774933, 5489774934, 5489774925], "tags": {"building": "yes", "name": "Power County Courthouse", "office": "government", "wikidata": "Q14687286"}}, {"type": "way", "id": 1126492262, "nodes": [10300591189, 10300591191, 10300591192, 10300591193, 10300591189], "tags": {"addr:city": "American Falls", "addr:housenumber": "855", "addr:postcode": "83211", "addr:state": "ID", "addr:street": "Pocatello Avenue", "amenity": "restaurant", "building": "commercial", "cuisine": "burger;sandwich;cake;pastry", "description": "Bakery, Catering, Restaurant, Convenience Store, Gas", "name": "The Ranch", "opening_hours": "Mo-Fr 06:00-20:00; Sa 06:00-18:00", "phone": "+1-208-226-7812", "website": "https://www.theranchaf.com/"}}]}