{"version": 0.6, "generator": "Overpass API 0.7.62.8 e802775f", "osm3s": {"timestamp_osm_base": "2025-11-05T19:33:15Z", "copyright": "The data included in this document is from www.openstreetmap.org. The data is made available under ODbL."}, "elements": [{"type": "node", "id": 441347901, "lat": 48.7313165, "lon": -122.4898923}, {"type": "node", "id": 441347902, "lat": 48.7311921, "lon": -122.4894918}, {"type": "node", "id": 441347903, "lat": 48.7313513, "lon": -122.4893781}, {"type": "node", "id": 441347904, "lat": 48.7311472, "lon": -122.4887213}, {"type": "node", "id": 441347905, "lat": 48.7313503, "lon": -122.4885762}, {"type": "node", "id": 441347906, "lat": 48.731329, "lon": -122.4885077}, {"type": "node", "id": 441347909, "lat": 48.7316883, "lon": -122.4882511}, {"type": "node", "id": 441347910, "lat": 48.7319376, "lon": -122.4890538}, {"type": "node", "id": 441347911, "lat": 48.7319937, "lon": -122.4890137}, {"type": "node", "id": 441347912, "lat": 48.7321033, "lon": -122.489331}, {"type": "node", "id": 441347913, "lat": 48.7318169, "lon": -122.4895354}, {"type": "node", "id": 441347914, "lat": 48.7318092, "lon": -122.4895106}, {"type": "node", "id": 441347915, "lat": 48.7316039, "lon": -122.4896572}, {"type": "node", "id": 441347916, "lat": 48.7316115, "lon": -122.4896816}, {"type": "node", "id": 2075567560, "lat": 48.7524535, "lon": -122.4557927}, {"type": "node", "id": 2075567562, "lat": 48.7524576, "lon": -122.4564007}, {"type": "node", "id": 2075567580, "lat": 48.7526795, "lon": -122.4557892}, {"type": "node", "id": 2075567582, "lat": 48.7526836, "lon": -122.4563972}, {"type": "node", "id": 4049620993, "lat": 48.7502379, "lon": -122.4746526}, {"type": "node", "id": 4400183237, "lat": 48.7502898, "lon": -122.4745756}, {"type": "node", "id": 4422451581, "lat": 48.7554545, "lon": -122.4553582}, {"type": "node", "id": 4422451582, "lat": 48.7554572, "lon": -122.4546367}, {"type": "node", "id": 4422451583, "lat": 48.7551008, "lon": -122.4546336}, {"type": "node", "id": 4422451584, "lat": 48.755098, "lon": -122.4553551}, {"type": "node", "id": 5452407653, "lat": 48.7503672, "lon": -122.4746964}, {"type": "node", "id": 5452407654, "lat": 48.7503152, "lon": -122.4747732}, {"type": "node", "id": 5469673541, "lat": 48.7949099, "lon": -122.4868878, "tags": {"addr:city": "Bellingham", "addr:housenumber": "115", "addr:postcode": "98226", "addr:state": "WA", "addr:street": "West Kellogg Road", "branch": "Bellingham (Cordata)", "brand": "Anytime Fitness", "brand:wikidata": "Q4778364", "leisure": "fitness_centre", "name": "Anytime Fitness", "opening_hours": "24/7", "phone": "+1-360-306-5858", "ref": "2128", "website": "https://www.anytimefitness.com/gyms/2128/bellingham-wa-98226/"}}, {"type": "node", "id": 5517414789, "lat": 48.7450526, "lon": -122.4321992}, {"type": "node", "id": 5517414790, "lat": 48.7450538, "lon": -122.4318706}, {"type": "node", "id": 5517414791, "lat": 48.7445704, "lon": -122.4318665}, {"type": "node", "id": 5517414792, "lat": 48.7445692, "lon": -122.4321952}, {"type": "node", "id": 5862322330, "lat": 48.7497669, "lon": -122.4775756, "tags": {"addr:city": "Bellingham", "addr:housenumber": "1321", "addr:postcode": "98225", "addr:state": "WA", "addr:street": "Railroad Avenue", "leisure": "fitness_centre", "name": "Bikram Yoga", "sport": "yoga", "website": "http://www.bellinghambikram.com/"}}, {"type": "node", "id": 6199973621, "lat": 48.7583834, "lon": -122.4690582, "tags": {"leisure": "fitness_centre", "name": "Joy of Pilates", "sport": "pilates"}}, {"type": "node", "id": 9281635004, "lat": 48.7910637, "lon": -122.4964671, "tags": {"addr:unit": "103", "leisure": "fitness_centre", "name": "1-For-1 Training"}}, {"type": "node", "id": 9628247350, "lat": 48.7210851, "lon": -122.5049942, "tags": {"addr:housenumber": "1140", "addr:postcode": "98225", "addr:street": "10th Street", "fixme": "Info to be confirmed on site.", "leisure": "fitness_centre", "name": "Flux Power Yoga", "opening_hours": "Mo-Fr 06:00-19:15, Su 07:45-18:30, Sa 07:45-17:30", "phone": "+1-360-671-1098", "sport": "yoga", "website": "https://www.fluxpoweryoga.com/"}}, {"type": "node", "id": 10187516417, "lat": 48.7529457, "lon": -122.4575429, "tags": {"check_date:opening_hours": "2024-04-13", "leisure": "fitness_centre", "name": "Elements Hot Yoga", "opening_hours:signed": "no", "sport": "yoga", "survey:date": "2022-11-15"}}, {"type": "node", "id": 10237572786, "lat": 48.7733438, "lon": -122.4423878, "tags": {"leisure": "fitness_centre", "level": "0", "name": "Ageless Fitness", "opening_hours": "24/7", "phone": "+1-360-986-5600", "website": "https://agelesswa.com/"}}, {"type": "node", "id": 10239698811, "lat": 48.7716124, "lon": -122.4587891, "tags": {"addr:housenumber": "1255", "addr:street": "Barkley Boulevard", "addr:unit": "104", "check_date": "2023-01-14", "leisure": "fitness_centre", "name": "30 Minute Hit", "opening_hours": "Mo,We,Fr 07:30-12:00, Mo-Th 16:00-20:00, Sa 08:00-12:00", "survey:date": "2022-12-04"}}, {"type": "node", "id": 10239855011, "lat": 48.7690316, "lon": -122.4460129, "tags": {"addr:housenumber": "2130", "addr:street": "Premier Way", "addr:unit": "102", "check_date": "2023-02-17", "leisure": "fitness_centre", "name": "Ride Culture", "phone": "+1-360-746-8941", "sport": "cycling", "website": "https://www.rideculture.com/"}}, {"type": "node", "id": 10243966211, "lat": 48.7525395, "lon": -122.4698356, "tags": {"check_date": "2025-08-18", "leisure": "fitness_centre", "name": "Bellingham Fitness", "opening_hours": "Mo-Fr 05:00-23:00; Sa,Su 07:00-19:00"}}, {"type": "node", "id": 10297810411, "lat": 48.7575033, "lon": -122.4501992, "tags": {"leisure": "fitness_centre", "name": "Apex Fitness NW", "survey:date": "2022-12-29", "website": "https://www.apexfitnessnw.com/"}}, {"type": "node", "id": 10313853012, "lat": 48.7540508, "lon": -122.4696794, "tags": {"check_date": "2025-03-17", "fax": "+1-360-707-7932", "leisure": "fitness_centre", "name": "Core Physio", "phone": "+1-360-752-2673", "website": "https://corephysiopt.com/"}}, {"type": "node", "id": 10313993556, "lat": 48.7533766, "lon": -122.4705562, "tags": {"leisure": "sports_hall", "name": "Kulshan Athletics"}}, {"type": "node", "id": 10727344106, "lat": 48.7722394, "lon": -122.4475972, "tags": {"addr:housenumber": "3130", "addr:street": "Howe Place", "addr:unit": "102", "check_date": "2023-03-11", "leisure": "fitness_centre", "name": "Barkley Yoga", "sport": "yoga"}}, {"type": "node", "id": 10745050095, "lat": 48.7516234, "lon": -122.4839965, "tags": {"addr:city": "Bellingham", "addr:housenumber": "1121", "addr:postcode": "98225-3089", "addr:state": "WA", "addr:street": "Granary Avenue", "email": "bellinghamyogacollective@gmail.com", "leisure": "fitness_centre", "level": "2", "name": "Bellingham Yoga Collective", "phone": "+1-360-393-4806", "sport": "yoga", "website": "https://www.bellinghamyogacollective.com/"}}, {"type": "node", "id": 11099029719, "lat": 48.7320566, "lon": -122.4892162}, {"type": "node", "id": 11099029720, "lat": 48.7320656, "lon": -122.4892097}, {"type": "node", "id": 11100956929, "lat": 48.750442, "lon": -122.4784807, "tags": {"addr:city": "Bellingham", "addr:postcode": "98225", "addr:state": "WA", "check_date:opening_hours": "2024-01-09", "leisure": "fitness_centre", "name": "3 Oms Yoga", "opening_hours:signed": "no", "sport": "yoga"}}, {"type": "node", "id": 11149247074, "lat": 48.7498594, "lon": -122.4774463, "tags": {"leisure": "fitness_centre", "name": "Hatha Yoga Bellingham", "sport": "yoga"}}, {"type": "node", "id": 11251570775, "lat": 48.7758209, "lon": -122.4934494, "tags": {"leisure": "fitness_centre", "name": "Training Grounds"}}, {"type": "node", "id": 11251632538, "lat": 48.7920673, "lon": -122.4850246, "tags": {"leisure": "fitness_centre", "name": "City Gym"}}, {"type": "node", "id": 11251632543, "lat": 48.7930836, "lon": -122.486613, "tags": {"leisure": "sports_hall"}}, {"type": "node", "id": 11265405782, "lat": 48.7152217, "lon": -122.4764429, "tags": {"addr:city": "Bellingham", "addr:housenumber": "3125", "addr:postcode": "98225", "addr:state": "WA", "addr:street": "Old Fairhaven Parkway", "addr:unit": "101", "branch": "Bellingham (Fairhaven)", "brand": "Anytime Fitness", "brand:wikidata": "Q4778364", "leisure": "fitness_centre", "name": "Anytime Fitness", "phone": "+1-360-788-5900", "ref": "4949", "website": "https://www.anytimefitness.com/gyms/4949/bellingham-wa-98225/"}}, {"type": "node", "id": 11290265859, "lat": 48.7869787, "lon": -122.4511529, "tags": {"leisure": "fitness_centre", "name": "Iron Mountain Strength & Conditioning", "personal_trainer": "yes"}}, {"type": "node", "id": 11323164900, "lat": 48.7532875, "lon": -122.4550142, "tags": {"leisure": "fitness_centre", "name": "JD Elite", "sport": "fitness"}}, {"type": "node", "id": 11323164904, "lat": 48.7531642, "lon": -122.4555743, "tags": {"leisure": "sports_hall", "name": "Bellingham Bay Gymnastics & Preschool", "sport": "gymnastics"}}, {"type": "node", "id": 11327554548, "lat": 48.7524549, "lon": -122.4570419, "tags": {"leisure": "fitness_centre", "name": "ProFitness Northwest", "sport": "fitness;yoga;crossfit"}}, {"type": "node", "id": 11572062478, "lat": 48.7189585, "lon": -122.5064325, "tags": {"addr:city": "Bellingham", "addr:housenumber": "800", "addr:postcode": "98225", "addr:state": "WA", "addr:street": "McKenzie Avenue", "leisure": "fitness_centre", "name": "Bellingham Training & Tennis Club", "phone": "+1-360-733-5050", "sport": "fitness;tennis;cycling", "website": "https://betrainingtennis.com/"}}, {"type": "node", "id": 12313746809, "lat": 48.7554552, "lon": -122.4551685}, {"type": "node", "id": 12313746810, "lat": 48.7554559, "lon": -122.4550031}, {"type": "node", "id": 12313746811, "lat": 48.75551, "lon": -122.4550817}, {"type": "node", "id": 12339803125, "lat": 48.77334, "lon": -122.4425101, "tags": {"addr:city": "Bellingham", "addr:housenumber": "2219", "addr:postcode": "98226", "addr:state": "WA", "addr:street": "Rimland Drive", "addr:unit": "103", "branch": "Bellingham (Barkley)", "brand": "Anytime Fitness", "brand:wikidata": "Q4778364", "leisure": "fitness_centre", "name": "Anytime Fitness", "phone": "+1-360-986-5600", "ref": "4465", "website": "https://www.anytimefitness.com/gyms/4465/bellingham-wa-98226/"}}, {"type": "node", "id": 12339841585, "lat": 48.7306407, "lon": -122.4726577, "tags": {"addr:city": "Bellingham", "addr:housenumber": "340-342", "addr:postcode": "98225", "addr:state": "WA", "addr:street": "36th Street", "brand": "Orangetheory Fitness", "brand:wikidata": "Q25005163", "leisure": "fitness_centre", "name": "Orangetheory Fitness", "phone": "+1-564-888-2420", "ref": "37257"}}, {"type": "node", "id": 12339841586, "lat": 48.7733519, "lon": -122.4424524, "tags": {"addr:city": "Bellingham", "addr:housenumber": "2219", "addr:postcode": "98226", "addr:state": "WA", "addr:street": "Rimland Drive", "addr:unit": "103", "branch": "Bellingham (Barkley)", "brand": "Anytime Fitness", "brand:wikidata": "Q4778364", "leisure": "fitness_centre", "name": "Anytime Fitness", "phone": "+1-360-986-5600", "ref": "4465", "website": "https://www.anytimefitness.com/gyms/4465/bellingham-wa-98226/"}}, {"type": "node", "id": 12737034404, "lat": 48.7568642, "lon": -122.4624561, "tags": {"leisure": "fitness_centre", "name": "Fight Lab"}}, {"type": "node", "id": 12737951890, "lat": 48.751973, "lon": -122.4713547, "tags": {"addr:city": "Bellingham", "addr:housenumber": "1616", "addr:postcode": "98225", "addr:state": "WA", "addr:street": "North State Street", "addr:unit": "102", "email": "bellingham.wa@basecampfitness.com", "leisure": "fitness_centre", "name": "Basecamp Fitness", "phone": "+1-360-255-5532", "website": "https://www.basecampfitness.com/studio/bellingham"}}, {"type": "way", "id": 37651099, "nodes": [441347901, 441347902, 441347903, 441347904, 441347905, 441347906, 441347909, 441347910, 441347911, 11099029719, 11099029720, 441347912, 441347913, 441347914, 441347915, 441347916, 441347901], "tags": {"addr:city": "Bellingham", "addr:postcode": "98225", "addr:state": "WA", "building": "yes", "leisure": "fitness_centre", "name": "Wade King Recreation Center", "ref": "SV", "sport": "swimming;athletics;weightlifting;basketball;volleyball;climbing", "website": "https://www.wwu.edu/building/sv"}}, {"type": "way", "id": 197291304, "nodes": [2075567582, 2075567580, 2075567560, 2075567562, 2075567582], "tags": {"building": "industrial", "leisure": "sports_hall", "name": "North Coast Gymnastics", "ref": "G", "sport": "gymnastics"}}, {"type": "way", "id": 444790922, "nodes": [4422451581, 12313746809, 12313746811, 12313746810, 4422451582, 4422451583, 4422451584, 4422451581], "tags": {"addr:housenumber": "1504", "addr:street": "Iowa Street", "building": "commercial", "building:levels": "2", "leisure": "fitness_centre", "name": "Fitness Evolution", "sport": "fitness"}}, {"type": "way", "id": 566232087, "nodes": [5452407653, 5452407654, 4049620993, 4400183237, 5452407653], "tags": {"building": "commercial", "check_date:opening_hours": "2023-07-26", "leisure": "fitness_centre", "name": "Vital Yoga", "opening_hours:signed": "no", "sport": "yoga"}}, {"type": "way", "id": 574886067, "nodes": [5517414789, 5517414790, 5517414791, 5517414792, 5517414789], "tags": {"building": "yes", "leisure": "sports_hall", "name": "KMS Gym"}}]}