{"version": 0.6, "generator": "Overpass API 0.7.62.8 e802775f", "osm3s": {"timestamp_osm_base": "2025-12-07T01:06:10Z", "copyright": "The data included in this document is from www.openstreetmap.org. The data is made available under ODbL."}, "elements": [{"type": "node", "id": 356544021, "lat": 47.3454866, "lon": -122.0859869}, {"type": "node", "id": 3073782954, "lat": 47.3616444, "lon": -122.0806986}, {"type": "node", "id": 3073782968, "lat": 47.3616545, "lon": -122.0773223}, {"type": "node", "id": 3073782974, "lat": 47.3582297, "lon": -122.0807354}, {"type": "node", "id": 3073783000, "lat": 47.3584961, "lon": -122.0787968}, {"type": "node", "id": 3073783002, "lat": 47.3583177, "lon": -122.0787972}, {"type": "node", "id": 3073783234, "lat": 47.3584979, "lon": -122.0804311}, {"type": "node", "id": 3073783243, "lat": 47.3583195, "lon": -122.0804315}, {"type": "node", "id": 3202479736, "lat": 47.3409515, "lon": -122.0536526}, {"type": "node", "id": 3202479737, "lat": 47.3409514, "lon": -122.0536803}, {"type": "node", "id": 3202479738, "lat": 47.3407804, "lon": -122.0536791}, {"type": "node", "id": 3202479739, "lat": 47.3407805, "lon": -122.0536569}, {"type": "node", "id": 3202479740, "lat": 47.3407086, "lon": -122.0536564}, {"type": "node", "id": 3202479741, "lat": 47.340709, "lon": -122.0535162}, {"type": "node", "id": 3202479742, "lat": 47.3407803, "lon": -122.0535167}, {"type": "node", "id": 3202479743, "lat": 47.3407804, "lon": -122.0534846}, {"type": "node", "id": 3202479744, "lat": 47.3409659, "lon": -122.0534859}, {"type": "node", "id": 3202479745, "lat": 47.3409658, "lon": -122.0535133}, {"type": "node", "id": 3559920789, "lat": 47.358946, "lon": -122.064484}, {"type": "node", "id": 3559924029, "lat": 47.3582841, "lon": -122.1000073}, {"type": "node", "id": 4161675293, "lat": 47.3583738, "lon": -122.099052, "tags": {"addr:city": "Covington", "addr:door": "111", "addr:housenumber": "27177", "addr:postcode": "98042", "addr:state": "WA", "addr:street": "185th Avenue Southeast", "amenity": "post_office", "brand": "The UPS Store", "brand:wikidata": "Q7771029", "check_date": "2023-06-13", "name": "The UPS Store", "opening_hours": "Mo-Fr 08:30-18:30; Sa 09:00-17:00; Su 10:00-15:00", "payment:credit_cards": "yes", "payment:debit_cards": "yes", "payment:mastercard": "yes", "payment:visa": "yes", "shop": "copyshop", "short_name": "UPS"}}, {"type": "node", "id": 4161675798, "lat": 47.3583691, "lon": -122.0989535, "tags": {"addr:city": "Covington", "addr:door": "109", "addr:housenumber": "27177", "addr:postcode": "98042", "addr:state": "WA", "addr:street": "185th Avenue Southeast", "brand": "Wild Birds Unlimited", "brand:wikidata": "Q8000542", "check_date": "2023-06-13", "name": "Wild Birds Unlimited", "opening_hours": "Mo-Sa 10:00-17:00; Su 11:00-17:00", "shop": "pet", "website": "https://wbu.com/covington"}}, {"type": "node", "id": 4161694490, "lat": 47.3583499, "lon": -122.0972418, "tags": {"addr:city": "Covington", "addr:housenumber": "27149", "addr:postcode": "98042", "addr:state": "WA", "addr:street": "185th Avenue Southeast", "amenity": "restaurant", "check_date": "2024-01-28", "cuisine": "japanese;steak_house;asian", "name": "Mizu Japanese Steakhouse", "opening_hours": "12:00-21:00", "payment:mastercard": "yes", "payment:visa": "yes"}}, {"type": "node", "id": 4161694491, "lat": 47.3583694, "lon": -122.0986317, "tags": {"addr:city": "Covington", "addr:door": "101", "addr:housenumber": "27177", "addr:postcode": "98042", "addr:state": "WA", "addr:street": "185th Avenue Southeast", "addr:unit": "101", "amenity": "cafe", "branch": "Covington Esplanade", "brand": "Starbucks", "brand:wikidata": "Q37158", "check_date": "2023-06-13", "cuisine": "coffee_shop", "internet_access": "wlan", "name": "Starbucks", "official_name": "Starbucks Coffee", "opening_hours": "Mo-Fr 05:00-18:00; Sa-Su 06:00-18:00", "payment:credit_cards": "yes", "payment:debit_cards": "yes", "payment:mastercard": "yes", "payment:visa": "yes", "phone": "+1-253-258-1089", "ref": "1012582", "takeaway": "yes", "website": "https://www.starbucks.com/store-locator/store/1012582/covington-esplanade-27177-185th-ave-s-e-101-covington-wa-980428455-us", "wheelchair": "yes"}}, {"type": "node", "id": 4161717989, "lat": 47.3583416, "lon": -122.0980046, "tags": {"addr:city": "Covington", "addr:country": "US", "addr:door": "117", "addr:housenumber": "27149", "addr:postcode": "98042", "addr:state": "WA", "addr:street": "185th Avenue Southeast", "amenity": "restaurant", "brand": "IHOP", "brand:wikidata": "Q1185675", "check_date": "2024-09-24", "cuisine": "breakfast;pancake", "name": "IHOP", "opening_hours": "07:00-22:00", "phone": "+1-866-884-3470", "website": "https://restaurants.ihop.com/en-us/wa/covington/breakfast-27149-185th-ave-se-3276", "wheelchair": "yes"}}, {"type": "node", "id": 4461362486, "lat": 47.3583422, "lon": -122.0968004, "tags": {"addr:city": "Covington", "addr:housenumber": "27115", "addr:postcode": "98042", "addr:state": "WA", "addr:street": "185th Avenue Southeast", "amenity": "restaurant", "check_date": "2023-06-13", "cuisine": "mexican", "internet_access": "wlan", "internet_access:fee": "customers", "name": "La Chata Cocina Mexicana", "opening_hours": "Mo-Sa 12:00-21:00; Su 12:00-20:00", "payment:mastercard": "yes", "payment:visa": "yes"}}, {"type": "node", "id": 4461363901, "lat": 47.3579682, "lon": -122.0876483}, {"type": "node", "id": 4461363913, "lat": 47.3579593, "lon": -122.0922999}, {"type": "node", "id": 4461363914, "lat": 47.3572516, "lon": -122.093282, "tags": {"amenity": "school", "check_date": "2025-06-15", "name": "Peace Lutheran School"}}, {"type": "node", "id": 4461363918, "lat": 47.3583708, "lon": -122.0988583, "tags": {"addr:city": "Covington", "addr:housenumber": "27177", "addr:postcode": "98042", "addr:state": "WA", "addr:street": "185th Avenue Southeast", "brand": "RE/MAX", "brand:wikidata": "Q965845", "check_date": "2023-06-13", "name": "RE/MAX", "office": "estate_agent", "phone": "+1-253-220-0858"}}, {"type": "node", "id": 4461363954, "lat": 47.3583508, "lon": -122.098189, "tags": {"addr:city": "Covington", "addr:door": "E123", "addr:housenumber": "27149", "addr:postcode": "98042", "addr:state": "WA", "addr:street": "185th Avenue Southeast", "alt_name": "Verizon Wireless", "brand": "Verizon", "brand:wikidata": "Q919641", "check_date": "2023-06-13", "name": "Verizon", "shop": "mobile_phone"}}, {"type": "node", "id": 4461363961, "lat": 47.3583522, "lon": -122.097525, "tags": {"addr:city": "Covington", "addr:door": "109", "addr:housenumber": "27149", "addr:postcode": "98042", "addr:state": "WA", "addr:street": "185th Avenue Southeast", "brand": "EarthWise Pet", "brand:wikidata": "Q108193626", "check_date": "2023-06-13", "name": "EarthWise Pet", "opening_hours": "Mo-Fr 10:00-20:00; Sa 10:00-19:00; Su 10:00-18:00", "payment:credit_cards": "yes", "payment:debit_cards": "yes", "payment:mastercard": "yes", "payment:visa": "yes", "shop": "pet"}}, {"type": "node", "id": 4461365208, "lat": 47.358351, "lon": -122.097397, "tags": {"addr:city": "Covington", "addr:housenumber": "27149", "addr:postcode": "98042", "addr:state": "WA", "addr:street": "185th Avenue Southeast", "beauty": "nails;skin_care;waxing", "check_date": "2023-06-13", "name": "VD Nails & Spa", "opening_hours": "Mo-Fr 10:00-19:30; Sa 09:00-18:30; Su 10:30-18:00", "operator": "Lily", "payment:cash": "yes", "payment:credit_cards": "yes", "payment:debit_cards": "yes", "phone": "+1-253-638-2008", "shop": "beauty", "website": "https://vbnailsspa.com/"}}, {"type": "node", "id": 4478228977, "lat": 47.3417885, "lon": -122.0546706, "tags": {"amenity": "bench"}}, {"type": "node", "id": 4670657319, "lat": 47.3406311, "lon": -122.0529947}, {"type": "node", "id": 4670657347, "lat": 47.3429829, "lon": -122.0549837}, {"type": "node", "id": 4670657349, "lat": 47.3430118, "lon": -122.0546637}, {"type": "node", "id": 4670657353, "lat": 47.3431375, "lon": -122.0550142}, {"type": "node", "id": 4670657354, "lat": 47.3431445, "lon": -122.0549369}, {"type": "node", "id": 4670657355, "lat": 47.3431529, "lon": -122.0548443}, {"type": "node", "id": 4670657358, "lat": 47.3431665, "lon": -122.0546942}, {"type": "node", "id": 4670658189, "lat": 47.3561205, "lon": -122.0902994}, {"type": "node", "id": 4670658190, "lat": 47.3561252, "lon": -122.0876411}, {"type": "node", "id": 4670658191, "lat": 47.3561624, "lon": -122.0940422}, {"type": "node", "id": 4670658192, "lat": 47.3561706, "lon": -122.0922817}, {"type": "node", "id": 4670658206, "lat": 47.3579511, "lon": -122.0940604}, {"type": "node", "id": 4670658207, "lat": 47.3579634, "lon": -122.0903066}, {"type": "node", "id": 4670658214, "lat": 47.3581533, "lon": -122.0631658}, {"type": "node", "id": 4670658215, "lat": 47.3581566, "lon": -122.065655}, {"type": "node", "id": 4670658225, "lat": 47.3582166, "lon": -122.0773307}, {"type": "node", "id": 4670658232, "lat": 47.3582542, "lon": -122.0807254}, {"type": "node", "id": 4670658271, "lat": 47.3587052, "lon": -122.0807224}, {"type": "node", "id": 4670658280, "lat": 47.3589413, "lon": -122.0631597}, {"type": "node", "id": 4670658389, "lat": 47.3590665, "lon": -122.064483}, {"type": "node", "id": 4670658455, "lat": 47.3594784, "lon": -122.0644798}, {"type": "node", "id": 4670658456, "lat": 47.3594827, "lon": -122.0656675}, {"type": "node", "id": 4714590473, "lat": 47.3576264, "lon": -122.0993766, "tags": {"name": "All City Door", "opening_hours": "Mo-Fr 08:00-16:30", "shop": "hardware"}}, {"type": "node", "id": 4714590485, "lat": 47.3570274, "lon": -122.094051}, {"type": "node", "id": 4718691331, "lat": 47.3583346, "lon": -122.0999725, "tags": {"entrance": "yes"}}, {"type": "node", "id": 4719629449, "lat": 47.3566241, "lon": -122.0832648}, {"type": "node", "id": 4760078623, "lat": 47.3583162, "lon": -122.0965162, "tags": {"addr:city": "Covington", "addr:door": "107", "addr:housenumber": "27115", "addr:postcode": "98042", "addr:state": "WA", "addr:street": "185th Avenue Southeast", "brand": "Massage Envy", "brand:wikidata": "Q22922899", "check_date": "2023-06-13", "name": "Massage Envy", "name:en": "Massage Envy", "opening_hours": "Mo-Fr 08:00-20:00; Sa 08:00-18:00; Su 08:00-17:00", "shop": "massage"}}, {"type": "node", "id": 4760088821, "lat": 47.3583171, "lon": -122.09668, "tags": {"addr:city": "Covington", "addr:door": "111", "addr:housenumber": "27115", "addr:postcode": "98042", "addr:state": "WA", "addr:street": "185th Avenue Southeast", "amenity": "prep_school", "check_date": "2023-06-13", "name": "The Tutoring Center", "opening_hours": "Mo-Th 14:30-19:30", "payment:mastercard": "yes", "payment:visa": "yes", "phone": "+1-253-246-2977"}}, {"type": "node", "id": 4834804321, "lat": 47.3582322, "lon": -122.0999546, "tags": {"amenity": "bicycle_parking"}}, {"type": "node", "id": 4906920421, "lat": 47.3582655, "lon": -122.0969437, "tags": {"amenity": "bicycle_parking"}}, {"type": "node", "id": 4906920521, "lat": 47.3582663, "lon": -122.0971189, "tags": {"amenity": "bicycle_parking"}}, {"type": "node", "id": 5033894180, "lat": 47.3464834, "lon": -122.0845695}, {"type": "node", "id": 5033894181, "lat": 47.3464816, "lon": -122.0845279}, {"type": "node", "id": 5033894182, "lat": 47.3460673, "lon": -122.0844595}, {"type": "node", "id": 5033894183, "lat": 47.3460536, "lon": -122.0844018}, {"type": "node", "id": 5033894184, "lat": 47.3463908, "lon": -122.0842919}, {"type": "node", "id": 5033894185, "lat": 47.3464507, "lon": -122.0842637}, {"type": "node", "id": 5033894186, "lat": 47.3465716, "lon": -122.0841618}, {"type": "node", "id": 5033894187, "lat": 47.346568, "lon": -122.0845655}, {"type": "node", "id": 5033894219, "lat": 47.3437117, "lon": -122.0859872}, {"type": "node", "id": 5033894220, "lat": 47.3437119, "lon": -122.08866}, {"type": "node", "id": 5033894321, "lat": 47.3454868, "lon": -122.0886596}, {"type": "node", "id": 5062348279, "lat": 47.3455752, "lon": -122.0554789, "tags": {"amenity": "kindergarten", "name": "Light of Life Preschool"}}, {"type": "node", "id": 5062348295, "lat": 47.3453767, "lon": -122.0556191}, {"type": "node", "id": 5062348296, "lat": 47.3452076, "lon": -122.0555225}, {"type": "node", "id": 5062348297, "lat": 47.3452076, "lon": -122.0537818}, {"type": "node", "id": 5062348298, "lat": 47.3460709, "lon": -122.0537818}, {"type": "node", "id": 5062348299, "lat": 47.3460709, "lon": -122.0556191}, {"type": "node", "id": 5134195624, "lat": 47.3412824, "lon": -122.0536838}, {"type": "node", "id": 5134196924, "lat": 47.3416624, "lon": -122.05378, "tags": {"amenity": "post_box", "operator": "United States Postal Service", "operator:short": "USPS", "operator:type": "public", "operator:website": "https://www.usps.com", "operator:wikidata": "Q668687", "operator:wikipedia": "en:United States Postal Service", "short_name": "USPS"}}, {"type": "node", "id": 5134201321, "lat": 47.3416964, "lon": -122.0534504, "tags": {"amenity": "community_centre", "check_date": "2025-03-16", "name": "Lake Sawyer Community Club"}}, {"type": "node", "id": 5134204221, "lat": 47.3407541, "lon": -122.0535965, "tags": {"amenity": "atm", "operator": "Premier"}}, {"type": "node", "id": 5136931836, "lat": 47.3410293, "lon": -122.0536222, "tags": {"check_date": "2025-03-16", "name": "Sawyer Spa & Clinical Massage", "shop": "massage"}}, {"type": "node", "id": 5136931837, "lat": 47.341062, "lon": -122.0536222, "tags": {"amenity": "doctors", "check_date": "2025-03-16", "healthcare": "doctor", "name": "Chiropractic First"}}, {"type": "node", "id": 5136931838, "lat": 47.3410402, "lon": -122.05337, "tags": {"brand": "Farmers Insurance", "brand:wikidata": "Q1396863", "name": "Farmers Insurance - Marilyn Pederson Agency", "office": "insurance"}}, {"type": "node", "id": 5136931839, "lat": 47.3410647, "lon": -122.053535, "tags": {"name": "Lake Sawyer Hair Design", "shop": "hairdresser"}}, {"type": "node", "id": 5136931840, "lat": 47.3437937, "lon": -122.054577, "tags": {"amenity": "veterinary", "check_date": "2025-03-16", "name": "South Sound Critter Care"}}, {"type": "node", "id": 5136931841, "lat": 47.34381, "lon": -122.0544724, "tags": {"amenity": "veterinary", "check_date": "2025-03-16", "name": "Sawyer Lake Veterinary Hospital"}}, {"type": "node", "id": 5275666897, "lat": 47.3409438, "lon": -122.0529871}, {"type": "node", "id": 5275666898, "lat": 47.341002, "lon": -122.0534746}, {"type": "node", "id": 5275666899, "lat": 47.3406421, "lon": -122.053472}, {"type": "node", "id": 5479213094, "lat": 47.3442499, "lon": -122.0739707, "tags": {"amenity": "events_venue", "name": "Villa Rose Gardens Weddings & Events"}}, {"type": "node", "id": 5479223770, "lat": 47.3414275, "lon": -122.0536106}, {"type": "node", "id": 5482984821, "lat": 47.3408604, "lon": -122.0536583, "tags": {"amenity": "bicycle_parking"}}, {"type": "node", "id": 5727084425, "lat": 47.3590495, "lon": -122.0656634}, {"type": "node", "id": 5808188953, "lat": 47.3585065, "lon": -122.0961539, "tags": {"amenity": "bicycle_parking"}}, {"type": "node", "id": 6075589425, "lat": 47.358228, "lon": -122.100335}, {"type": "node", "id": 6075589426, "lat": 47.358438, "lon": -122.100334}, {"type": "node", "id": 6075589427, "lat": 47.358437, "lon": -122.100025}, {"type": "node", "id": 6075589428, "lat": 47.3583811, "lon": -122.100007}, {"type": "node", "id": 6075589429, "lat": 47.3583706, "lon": -122.0999864}, {"type": "node", "id": 6075589430, "lat": 47.3582932, "lon": -122.0999908}, {"type": "node", "id": 6075589432, "lat": 47.358228, "lon": -122.100028}, {"type": "node", "id": 6075592830, "lat": 47.3583006, "lon": -122.0961547}, {"type": "node", "id": 6075592831, "lat": 47.3584904, "lon": -122.0961536}, {"type": "node", "id": 6075592832, "lat": 47.3584896, "lon": -122.0958412}, {"type": "node", "id": 6075592833, "lat": 47.3583001, "lon": -122.0958418}, {"type": "node", "id": 6134486361, "lat": 47.3412799, "lon": -122.0533861}, {"type": "node", "id": 6134486363, "lat": 47.3411676, "lon": -122.0533881}, {"type": "node", "id": 6134486365, "lat": 47.3411676, "lon": -122.0536858}, {"type": "node", "id": 6134487854, "lat": 47.341371, "lon": -122.0536114}, {"type": "node", "id": 6134487856, "lat": 47.341499, "lon": -122.0537375}, {"type": "node", "id": 6134487858, "lat": 47.3414282, "lon": -122.0537384}, {"type": "node", "id": 6134487860, "lat": 47.3415375, "lon": -122.0536072}, {"type": "node", "id": 6134487862, "lat": 47.3414982, "lon": -122.0536077}, {"type": "node", "id": 6134487864, "lat": 47.3413701, "lon": -122.0534703}, {"type": "node", "id": 6134487866, "lat": 47.3415367, "lon": -122.053464}, {"type": "node", "id": 6134487896, "lat": 47.341007, "lon": -122.0536529}, {"type": "node", "id": 6134487900, "lat": 47.3410074, "lon": -122.0535136}, {"type": "node", "id": 6134624827, "lat": 47.3418661, "lon": -122.0937474}, {"type": "node", "id": 6134624829, "lat": 47.341885, "lon": -122.0937472}, {"type": "node", "id": 6134624831, "lat": 47.3418844, "lon": -122.093833}, {"type": "node", "id": 6134624833, "lat": 47.342079, "lon": -122.0938358}, {"type": "node", "id": 6134624841, "lat": 47.3418667, "lon": -122.0936552}, {"type": "node", "id": 6134630088, "lat": 47.3565064, "lon": -122.0833763}, {"type": "node", "id": 6134630090, "lat": 47.356506, "lon": -122.0833478}, {"type": "node", "id": 6134630092, "lat": 47.3565401, "lon": -122.0834332}, {"type": "node", "id": 6134630094, "lat": 47.3565394, "lon": -122.0833754}, {"type": "node", "id": 6134630097, "lat": 47.3566235, "lon": -122.0832217}, {"type": "node", "id": 6134630099, "lat": 47.3564682, "lon": -122.0833488}, {"type": "node", "id": 6134630101, "lat": 47.3564673, "lon": -122.083269}, {"type": "node", "id": 6134630103, "lat": 47.3566727, "lon": -122.0833756}, {"type": "node", "id": 6134630105, "lat": 47.3566734, "lon": -122.0834297}, {"type": "node", "id": 6134630107, "lat": 47.3567061, "lon": -122.0832195}, {"type": "node", "id": 6134630109, "lat": 47.356708, "lon": -122.0833747}, {"type": "node", "id": 6134634905, "lat": 47.3319395, "lon": -122.0936197}, {"type": "node", "id": 6134634907, "lat": 47.3319393, "lon": -122.0933756}, {"type": "node", "id": 6134634909, "lat": 47.3318248, "lon": -122.0933764}, {"type": "node", "id": 6134634919, "lat": 47.3319344, "lon": -122.0929667}, {"type": "node", "id": 6134634921, "lat": 47.3319821, "lon": -122.0929667}, {"type": "node", "id": 6134634923, "lat": 47.3319828, "lon": -122.09301}, {"type": "node", "id": 6134634925, "lat": 47.3320676, "lon": -122.093007}, {"type": "node", "id": 6134634927, "lat": 47.3318252, "lon": -122.0932688}, {"type": "node", "id": 6134634929, "lat": 47.3319201, "lon": -122.0932687}, {"type": "node", "id": 6134634931, "lat": 47.3319201, "lon": -122.0931683}, {"type": "node", "id": 6134634933, "lat": 47.3319387, "lon": -122.0931675}, {"type": "node", "id": 6134634935, "lat": 47.3320729, "lon": -122.0933259}, {"type": "node", "id": 6134634937, "lat": 47.332112, "lon": -122.0933251}, {"type": "node", "id": 6134634939, "lat": 47.3321129, "lon": -122.0934279}, {"type": "node", "id": 6134634941, "lat": 47.332083, "lon": -122.0934274}, {"type": "node", "id": 6134634943, "lat": 47.3320713, "lon": -122.0930752}, {"type": "node", "id": 6134634945, "lat": 47.3321013, "lon": -122.0930798}, {"type": "node", "id": 6134634947, "lat": 47.3320883, "lon": -122.0932991}, {"type": "node", "id": 6134634949, "lat": 47.332071, "lon": -122.0932938}, {"type": "node", "id": 6134634959, "lat": 47.332085, "lon": -122.0936173}, {"type": "node", "id": 6262360588, "lat": 47.3420803, "lon": -122.093658}, {"type": "node", "id": 6262365085, "lat": 47.3418187, "lon": -122.093991, "tags": {"amenity": "post_box", "operator": "United States Postal Service", "operator:short": "USPS", "operator:type": "public", "operator:website": "https://www.usps.com", "operator:wikidata": "Q668687", "operator:wikipedia": "en:United States Postal Service", "short_name": "USPS", "source": "Bing Streetside 2014"}}, {"type": "node", "id": 8186279575, "lat": 47.3601659, "lon": -122.0773231}, {"type": "node", "id": 8252482154, "lat": 47.3582999, "lon": -122.0960304}, {"type": "node", "id": 8373877002, "lat": 47.3415166, "lon": -122.0534643}, {"type": "node", "id": 8373877003, "lat": 47.3414161, "lon": -122.0534697}, {"type": "node", "id": 8373877004, "lat": 47.3414157, "lon": -122.0533988}, {"type": "node", "id": 8373877005, "lat": 47.3415162, "lon": -122.0533974}, {"type": "node", "id": 8551051728, "lat": 47.3583563, "lon": -122.099972}, {"type": "node", "id": 8551051729, "lat": 47.3583108, "lon": -122.0999725}, {"type": "node", "id": 8551051730, "lat": 47.3582806, "lon": -122.100028}, {"type": "node", "id": 8551051731, "lat": 47.3583865, "lon": -122.1000259}, {"type": "node", "id": 9556807717, "lat": 47.3583471, "lon": -122.0978091, "tags": {"brand": "Nothing Bundt Cakes", "brand:wikidata": "Q62082526", "check_date": "2024-10-05", "name": "Nothing Bundt Cakes", "payment:credit_cards": "yes", "payment:debit_cards": "yes", "payment:mastercard": "yes", "payment:visa": "yes", "shop": "pastry"}}, {"type": "node", "id": 10961719408, "lat": 47.3583272, "lon": -122.0963106, "tags": {"addr:door": "103", "amenity": "dojo", "check_date": "2023-06-13", "name": "Peak Taekwondo"}}, {"type": "node", "id": 10975641774, "lat": 47.3583605, "lon": -122.0987417, "tags": {"addr:door": "103", "check_date": "2023-06-13", "name": "2NIQUE", "shop": "hairdresser"}}, {"type": "node", "id": 12918445845, "lat": 47.3576515, "lon": -122.0682429, "tags": {"check_date": "2025-06-15", "name": "4 Seasons", "office": "company"}}, {"type": "node", "id": 12918521572, "lat": 47.3576596, "lon": -122.0883931, "tags": {"addr:housenumber": "19001", "addr:street": "Southeast 272nd Street", "check_date": "2025-06-15", "name": "Mountain Vineyard Christian Fellowship Office", "office": "company"}}, {"type": "way", "id": 303078240, "nodes": [3073782954, 3073782968, 8186279575, 4670658225, 3073782974, 4670658232, 4670658271, 3073782954], "tags": {"amenity": "school", "ele": "131", "gnis:feature_id": "2462301", "mascot": "Timberwolves", "name": "Cedar Heights Middle School", "operator:type": "public", "website": "https://www.kent.k12.wa.us/o/chms"}}, {"type": "way", "id": 303078248, "nodes": [3073783234, 3073783000, 3073783002, 3073783243, 3073783234], "tags": {"access": "yes", "amenity": "parking", "fee": "no", "parking": "surface"}}, {"type": "way", "id": 314201432, "nodes": [3202479740, 3202479739, 3202479738, 3202479737, 3202479736, 6134487896, 6134487900, 3202479745, 3202479744, 3202479743, 3202479742, 3202479741, 3202479740], "tags": {"addr:city": "Black Diamond", "addr:housenumber": "29036", "addr:postcode": "98010", "addr:state": "WA", "addr:street": "216th Avenue Southeast", "building": "yes", "check_date": "2025-03-16", "name": "Lake Sawyer Grocery", "opening_hours": "Mo-Fr 05:00-22:00; Sa-Su 06:00-22:00", "shop": "supermarket"}}, {"type": "way", "id": 472880270, "nodes": [4670657353, 4670657354, 4670657355, 4670657358, 4670657349, 4670657347, 4670657353], "tags": {"amenity": "parking"}}, {"type": "way", "id": 472880301, "nodes": [4670658455, 4670658456, 5727084425, 4670658215, 4670658214, 4670658280, 3559920789, 4670658389, 4670658455], "tags": {"amenity": "place_of_worship", "check_date": "2024-01-20", "name": "Cornerstone Church", "religion": "christian"}}, {"type": "way", "id": 472880304, "nodes": [4670658207, 4461363901, 4670658190, 4670658189, 4670658207], "tags": {"addr:housenumber": "19001", "addr:street": "Southeast 272nd Street", "amenity": "place_of_worship", "check_date": "2025-07-27", "name": "Mountain Vineyard Christian Fellowship", "religion": "christian", "service_times": "Su 10:00"}}, {"type": "way", "id": 472880307, "nodes": [4670658206, 4461363913, 4670658192, 4670658191, 4714590485, 4670658206], "tags": {"addr:housenumber": "18611", "addr:street": "Southeast 272nd Street", "amenity": "place_of_worship", "check_date": "2025-06-15", "denomination": "lutheran", "name": "Peace Lutheran Church", "religion": "christian"}}, {"type": "way", "id": 515449052, "nodes": [5033894187, 5033894186, 5033894185, 5033894184, 5033894183, 5033894182, 5033894181, 5033894180, 5033894187], "tags": {"amenity": "parking"}}, {"type": "way", "id": 515449066, "nodes": [5033894321, 5033894220, 5033894219, 356544021, 5033894321], "tags": {"amenity": "school", "ele": "142", "gnis:feature_id": "1515656", "mascot": "Gators", "name": "Grass Lake Elementary School", "operator:type": "public", "website": "https://www.kent.k12.wa.us/o/GLES"}}, {"type": "way", "id": 519102679, "nodes": [5062348296, 5062348295, 5062348299, 5062348298, 5062348297, 5062348296], "tags": {"amenity": "place_of_worship", "check_date": "2025-03-16", "name": "Light of Life Church", "religion": "christian"}}, {"type": "way", "id": 545884038, "nodes": [5275666899, 4670657319, 5275666897, 5275666898, 5275666899], "tags": {"landuse": "garages", "name": "Sawyer Lake Storage", "shop": "storage_rental"}}, {"type": "way", "id": 646744514, "nodes": [6075592833, 6075592832, 6075592831, 6075592830, 8252482154, 6075592833], "tags": {"addr:city": "Covington", "addr:housenumber": "27103", "addr:postcode": "98042", "addr:state": "WA", "addr:street": "185th Avenue Southeast", "amenity": "bank", "atm": "yes", "brand": "Bank of America", "brand:wikidata": "Q487907", "building": "yes", "check_date": "2023-06-13", "drive_through": "yes", "name": "Bank of America", "opening_hours": "Mo-Fr 10:00-16:00", "payment:mastercard": "yes", "payment:visa": "yes", "wheelchair": "yes"}}, {"type": "way", "id": 646748388, "nodes": [6075589432, 8551051730, 3559924029, 6075589430, 8551051729, 4718691331, 8551051728, 6075589429, 6075589428, 8551051731, 6075589427, 6075589426, 6075589425, 6075589432], "tags": {"addr:city": "Covington", "addr:housenumber": "27193", "addr:postcode": "98042", "addr:state": "WA", "addr:street": "185th Avenue Southeast", "amenity": "restaurant", "brand": "Red Robin", "brand:wikidata": "Q7304886", "building": "yes", "check_date": "2023-06-13", "cuisine": "burger", "name": "Red Robin", "official_name": "Red Robin Gourmet Burgers and Brews", "opening_hours": "Mo-Th,Su 11:00-22:00; Fr-Sa 11:00-23:00", "payment:mastercard": "yes", "payment:visa": "yes", "wheelchair": "yes"}}, {"type": "way", "id": 654653890, "nodes": [6134487862, 6134487860, 6134487866, 8373877002, 8373877005, 8373877004, 8373877003, 6134487864, 6134487854, 5479223770, 6134487858, 6134487856, 6134487862], "tags": {"addr:city": "Black Diamond", "addr:housenumber": "29020", "addr:postcode": "98010", "addr:state": "WA", "addr:street": "216th Avenue Southeast", "amenity": "doctors", "building": "yes", "check_date": "2025-03-16", "healthcare": "doctor", "name": "Children's Therapy Center"}}, {"type": "way", "id": 654655343, "nodes": [6134486361, 6134486363, 6134486365, 5134195624, 6134486361], "tags": {"addr:city": "Black Diamond", "addr:housenumber": "29030", "addr:postcode": "98010", "addr:state": "WA", "addr:street": "216th Avenue Southeast", "amenity": "restaurant", "building": "yes", "check_date": "2025-03-16", "cuisine": "polish;german", "name": "Europa", "opening_hours": "Tu-Th 23:00-20:00; Mo 12:00-20:00; Fr-Sa 11:00-21:00", "phone": "+1-360-825-0444"}}, {"type": "way", "id": 654672973, "nodes": [6262360588, 6134624841, 6134624827, 6134624829, 6134624831, 6134624833, 6262360588], "tags": {"addr:city": "Kent", "addr:housenumber": "18610", "addr:postcode": "98042", "addr:state": "WA", "addr:street": "Southeast Covington Sawyer Road", "amenity": "fire_station", "building": "yes", "name": "Station 93", "operator": "King County Fire District 44", "source": "Esri beta;Bing Streetside 2014"}}, {"type": "way", "id": 654675059, "nodes": [6134630105, 6134630103, 6134630109, 6134630107, 6134630097, 4719629449, 6134630101, 6134630099, 6134630090, 6134630088, 6134630094, 6134630092, 6134630105], "tags": {"addr:city": "Kent", "addr:housenumber": "19407", "addr:postcode": "98042", "addr:state": "WA", "addr:street": "Southeast 272nd Street", "amenity": "social_facility", "building": "yes", "name": "Becky's Guest Adult Home", "social_facility": "group_home"}}, {"type": "way", "id": 654675540, "nodes": [6134634959, 6134634941, 6134634939, 6134634937, 6134634935, 6134634949, 6134634947, 6134634945, 6134634943, 6134634925, 6134634923, 6134634921, 6134634919, 6134634933, 6134634931, 6134634929, 6134634927, 6134634909, 6134634907, 6134634905, 6134634959], "tags": {"addr:city": "Covington", "addr:housenumber": "18631", "addr:postcode": "98042", "addr:state": "WA", "addr:street": "Southeast 300th Place", "air_conditioning": "yes", "building": "yes", "building:levels": "3", "internet_access": "wlan", "name": "Covington Water District", "office": "water_utility", "opening_hours:covid19": "closed", "phone": "+1-253-631-0565", "website": "https://www.covingtonwater.com/", "wheelchair": "yes"}}]}