{"version": 0.6, "generator": "Overpass API 0.7.62.8 e802775f", "osm3s": {"timestamp_osm_base": "2025-12-06T05:39:33Z", "copyright": "The data included in this document is from www.openstreetmap.org. The data is made available under ODbL."}, "elements": [{"type": "node", "id": 364241035, "lat": 43.496352, "lon": -112.0639102}, {"type": "node", "id": 364241036, "lat": 43.4963541, "lon": -112.0635753}, {"type": "node", "id": 364241037, "lat": 43.4962328, "lon": -112.0635738}, {"type": "node", "id": 364241038, "lat": 43.4962307, "lon": -112.0639088}, {"type": "node", "id": 364242859, "lat": 43.4971588, "lon": -112.0842604}, {"type": "node", "id": 364242860, "lat": 43.496912, "lon": -112.0841204}, {"type": "node", "id": 364242861, "lat": 43.4969144, "lon": -112.0838524}, {"type": "node", "id": 364242862, "lat": 43.49719, "lon": -112.0839704}, {"type": "node", "id": 364242863, "lat": 43.4972397, "lon": -112.0841094}, {"type": "node", "id": 364242864, "lat": 43.4971601, "lon": -112.0841074}, {"type": "node", "id": 364243656, "lat": 43.496237, "lon": -112.0834245}, {"type": "node", "id": 364243657, "lat": 43.49611, "lon": -112.0834246}, {"type": "node", "id": 364243658, "lat": 43.4961099, "lon": -112.0831881}, {"type": "node", "id": 364243659, "lat": 43.496237, "lon": -112.083188}, {"type": "node", "id": 364244384, "lat": 43.4963625, "lon": -112.0840978}, {"type": "node", "id": 364244385, "lat": 43.4961411, "lon": -112.0840279}, {"type": "node", "id": 364244386, "lat": 43.4961432, "lon": -112.0836302}, {"type": "node", "id": 364244387, "lat": 43.4963646, "lon": -112.0836319}, {"type": "node", "id": 477002827, "lat": 43.496235, "lon": -112.0590025}, {"type": "node", "id": 477002829, "lat": 43.4962096, "lon": -112.0588318}, {"type": "node", "id": 477002833, "lat": 43.4963598, "lon": -112.0588332}, {"type": "node", "id": 477002836, "lat": 43.496359, "lon": -112.0590003}, {"type": "node", "id": 477002848, "lat": 43.4959907, "lon": -112.0589634}, {"type": "node", "id": 477002852, "lat": 43.4957812, "lon": -112.058959}, {"type": "node", "id": 477002863, "lat": 43.4957837, "lon": -112.0587293}, {"type": "node", "id": 477002866, "lat": 43.4958798, "lon": -112.0587313}, {"type": "node", "id": 2471521452, "lat": 43.4971122, "lon": -112.0608387}, {"type": "node", "id": 2471521453, "lat": 43.4969917, "lon": -112.0608414}, {"type": "node", "id": 2471521454, "lat": 43.4969881, "lon": -112.060544}, {"type": "node", "id": 2471521455, "lat": 43.4971086, "lon": -112.0605412}, {"type": "node", "id": 2471524511, "lat": 43.4972165, "lon": -112.0619197}, {"type": "node", "id": 2471524513, "lat": 43.496974, "lon": -112.0619212}, {"type": "node", "id": 2471524515, "lat": 43.4969733, "lon": -112.0616937}, {"type": "node", "id": 2471524517, "lat": 43.4972158, "lon": -112.0616922}, {"type": "node", "id": 2471529719, "lat": 43.4970993, "lon": -112.0622915}, {"type": "node", "id": 2471529721, "lat": 43.497099, "lon": -112.0620716}, {"type": "node", "id": 2471529723, "lat": 43.4969755, "lon": -112.0620718}, {"type": "node", "id": 2471529725, "lat": 43.4969756, "lon": -112.0622918}, {"type": "node", "id": 2471568141, "lat": 43.4975498, "lon": -112.0764457}, {"type": "node", "id": 2471568143, "lat": 43.4970648, "lon": -112.0764471}, {"type": "node", "id": 2471568145, "lat": 43.4970642, "lon": -112.0760508}, {"type": "node", "id": 2471568146, "lat": 43.4975491, "lon": -112.0760018}, {"type": "node", "id": 2471575723, "lat": 43.497168, "lon": -112.0780097}, {"type": "node", "id": 2471575724, "lat": 43.4970189, "lon": -112.0780106}, {"type": "node", "id": 2471575725, "lat": 43.4970175, "lon": -112.0775502}, {"type": "node", "id": 2471575726, "lat": 43.4970598, "lon": -112.0774982}, {"type": "node", "id": 2471575727, "lat": 43.4972832, "lon": -112.0774814}, {"type": "node", "id": 2471575728, "lat": 43.4972792, "lon": -112.077718}, {"type": "node", "id": 2471575729, "lat": 43.497187, "lon": -112.0777154}, {"type": "node", "id": 2471575730, "lat": 43.4971672, "lon": -112.0777426}, {"type": "node", "id": 2471577145, "lat": 43.4972446, "lon": -112.0789935}, {"type": "node", "id": 2471577146, "lat": 43.4970767, "lon": -112.0790097}, {"type": "node", "id": 2471577147, "lat": 43.4970772, "lon": -112.078741}, {"type": "node", "id": 2471577148, "lat": 43.4971044, "lon": -112.078741}, {"type": "node", "id": 2471597074, "lat": 43.4972525, "lon": -112.0815687}, {"type": "node", "id": 2471597075, "lat": 43.4970121, "lon": -112.0815637}, {"type": "node", "id": 2471597076, "lat": 43.4970153, "lon": -112.0812608}, {"type": "node", "id": 2471597077, "lat": 43.4972558, "lon": -112.0812657}, {"type": "node", "id": 2471600751, "lat": 43.4962422, "lon": -112.0736335}, {"type": "node", "id": 2471600752, "lat": 43.4959106, "lon": -112.0736295}, {"type": "node", "id": 2471600753, "lat": 43.4959133, "lon": -112.0732119}, {"type": "node", "id": 2471600754, "lat": 43.4962448, "lon": -112.073216}, {"type": "node", "id": 2471605407, "lat": 43.4963832, "lon": -112.0695117}, {"type": "node", "id": 2471605408, "lat": 43.4961846, "lon": -112.0695101}, {"type": "node", "id": 2471605409, "lat": 43.4961863, "lon": -112.0691195}, {"type": "node", "id": 2471605410, "lat": 43.4963849, "lon": -112.0691213}, {"type": "node", "id": 2488661863, "lat": 43.4959614, "lon": -112.065507, "tags": {"addr:city": "Idaho Falls", "addr:postcode": "83402", "addr:street": "West Broadway Street", "name": "Idaho State Liquor Store", "shop": "alcohol"}}, {"type": "node", "id": 3033688050, "lat": 43.4975401, "lon": -112.0640821}, {"type": "node", "id": 3033688051, "lat": 43.4971722, "lon": -112.0640907}, {"type": "node", "id": 3033688052, "lat": 43.497167, "lon": -112.0636684}, {"type": "node", "id": 3033688053, "lat": 43.4975652, "lon": -112.0640591}, {"type": "node", "id": 4411905231, "lat": 43.4975979, "lon": -112.0630631}, {"type": "node", "id": 4411905232, "lat": 43.4974049, "lon": -112.0630609}, {"type": "node", "id": 4411905233, "lat": 43.4974054, "lon": -112.0627631}, {"type": "node", "id": 4411905234, "lat": 43.4975999, "lon": -112.0627638}, {"type": "node", "id": 5148627667, "lat": 43.4975604, "lon": -112.0636593}, {"type": "node", "id": 5148633357, "lat": 43.4971207, "lon": -112.063087}, {"type": "node", "id": 5148633358, "lat": 43.4971179, "lon": -112.06272}, {"type": "node", "id": 5148633359, "lat": 43.4970254, "lon": -112.0627213}, {"type": "node", "id": 5148633360, "lat": 43.4970282, "lon": -112.0630883}, {"type": "node", "id": 5148633361, "lat": 43.4971773, "lon": -112.0622909}, {"type": "node", "id": 5148633362, "lat": 43.4971761, "lon": -112.0620705}, {"type": "node", "id": 5148633363, "lat": 43.497313, "lon": -112.0620688}, {"type": "node", "id": 5148633364, "lat": 43.4973144, "lon": -112.0622895}, {"type": "node", "id": 5148633365, "lat": 43.4975984, "lon": -112.0624082}, {"type": "node", "id": 5148633366, "lat": 43.4974061, "lon": -112.0624105}, {"type": "node", "id": 5148633367, "lat": 43.4975963, "lon": -112.0620654}, {"type": "node", "id": 5172334499, "lat": 43.4971357, "lon": -112.0654467}, {"type": "node", "id": 5172334500, "lat": 43.4971364, "lon": -112.0651797}, {"type": "node", "id": 5172334501, "lat": 43.4970474, "lon": -112.0651793}, {"type": "node", "id": 5172334502, "lat": 43.4970468, "lon": -112.0654463}, {"type": "node", "id": 5172341571, "lat": 43.4972401, "lon": -112.0840634}, {"type": "node", "id": 5172341572, "lat": 43.4973119, "lon": -112.0840654}, {"type": "node", "id": 5172341573, "lat": 43.4973128, "lon": -112.0839724}, {"type": "node", "id": 5172341574, "lat": 43.497191, "lon": -112.0838574}, {"type": "node", "id": 5172341575, "lat": 43.4969349, "lon": -112.0841204}, {"type": "node", "id": 5172341576, "lat": 43.4969335, "lon": -112.0842714}, {"type": "node", "id": 5172341577, "lat": 43.497011, "lon": -112.0842724}, {"type": "node", "id": 5172341578, "lat": 43.4970115, "lon": -112.0842154}, {"type": "node", "id": 5172341579, "lat": 43.4970811, "lon": -112.0842164}, {"type": "node", "id": 5172341580, "lat": 43.4970807, "lon": -112.0842594}, {"type": "node", "id": 5172360169, "lat": 43.4958787, "lon": -112.0588291}, {"type": "node", "id": 5172360170, "lat": 43.4959921, "lon": -112.0588315}, {"type": "node", "id": 5175843705, "lat": 43.4965346, "lon": -112.0629995}, {"type": "node", "id": 5175843706, "lat": 43.4965355, "lon": -112.06282}, {"type": "node", "id": 5175843707, "lat": 43.496402, "lon": -112.0628186}, {"type": "node", "id": 5175843708, "lat": 43.4964011, "lon": -112.0629981}, {"type": "node", "id": 8744851841, "lat": 43.4963371, "lon": -112.0590001}, {"type": "node", "id": 8744851842, "lat": 43.4963369, "lon": -112.0590572}, {"type": "node", "id": 8744851843, "lat": 43.4962789, "lon": -112.0590567}, {"type": "node", "id": 8744851844, "lat": 43.4962791, "lon": -112.0590029}, {"type": "node", "id": 8744851845, "lat": 43.4962352, "lon": -112.0589641}, {"type": "node", "id": 8744851846, "lat": 43.4961984, "lon": -112.0589638}, {"type": "node", "id": 8744851847, "lat": 43.4961986, "lon": -112.0589188}, {"type": "node", "id": 8744851848, "lat": 43.4962353, "lon": -112.0589191}, {"type": "node", "id": 8744851849, "lat": 43.4962355, "lon": -112.0588879}, {"type": "node", "id": 8744851850, "lat": 43.4962093, "lon": -112.0588877}, {"type": "node", "id": 8744851851, "lat": 43.4954688, "lon": -112.060514}, {"type": "node", "id": 8744851852, "lat": 43.494886, "lon": -112.0605174}, {"type": "node", "id": 8744851853, "lat": 43.4948846, "lon": -112.0600646}, {"type": "node", "id": 8744851854, "lat": 43.4948123, "lon": -112.060065}, {"type": "node", "id": 8744851855, "lat": 43.494812, "lon": -112.0599661}, {"type": "node", "id": 8744851856, "lat": 43.4948812, "lon": -112.0599657}, {"type": "node", "id": 8744851857, "lat": 43.4948777, "lon": -112.0587413}, {"type": "node", "id": 8744851858, "lat": 43.4952847, "lon": -112.0587391}, {"type": "node", "id": 8744851859, "lat": 43.4952854, "lon": -112.0590051}, {"type": "node", "id": 8744851860, "lat": 43.4954642, "lon": -112.0590041}, {"type": "node", "id": 8766299063, "lat": 43.4960393, "lon": -112.0653069}, {"type": "node", "id": 8766299064, "lat": 43.4956198, "lon": -112.0653074}, {"type": "node", "id": 8766299065, "lat": 43.4956192, "lon": -112.0644072}, {"type": "node", "id": 8766299066, "lat": 43.4956626, "lon": -112.0643496}, {"type": "node", "id": 8766299067, "lat": 43.4956953, "lon": -112.0643496}, {"type": "node", "id": 8766299068, "lat": 43.4956953, "lon": -112.0644596}, {"type": "node", "id": 8766299069, "lat": 43.4960382, "lon": -112.0644594}, {"type": "node", "id": 8766299070, "lat": 43.4960382, "lon": -112.0644898}, {"type": "node", "id": 8766299071, "lat": 43.496061, "lon": -112.0644897}, {"type": "node", "id": 8766299072, "lat": 43.4960613, "lon": -112.0652114}, {"type": "node", "id": 8766299073, "lat": 43.4960393, "lon": -112.0652115}, {"type": "node", "id": 8766299074, "lat": 43.4960184, "lon": -112.0653066}, {"type": "node", "id": 8766299077, "lat": 43.4957994, "lon": -112.0653082}, {"type": "node", "id": 8766299233, "lat": 43.4970445, "lon": -112.0596551, "tags": {"amenity": "restaurant", "name": "Grandpa's Southern BBQ"}}, {"type": "node", "id": 8766299675, "lat": 43.4971371, "lon": -112.0611719, "tags": {"name": "The Dance Shop", "shop": "art"}}, {"type": "node", "id": 8766397779, "lat": 43.4959621, "lon": -112.0653876, "tags": {"name": "Broadway Wash N Dry", "shop": "laundry"}}, {"type": "node", "id": 8766397780, "lat": 43.4959638, "lon": -112.0657023, "tags": {"name": "The Vapor Door", "shop": "tobacco"}}, {"type": "node", "id": 8766397791, "lat": 43.4960217, "lon": -112.0663804, "tags": {"addr:city": "Idaho Falls", "addr:housenumber": "1747", "addr:postcode": "83402-3045", "addr:state": "ID", "addr:street": "West Broadway Street", "brand": "Ace Hardware", "brand:wikidata": "Q4672981", "name": "Ace Hardware", "opening_hours": "Mo-Sa 07:30-20:00; Su 10:00-16:00", "phone": "+1 208-497-0788", "ref": "16429", "shop": "doityourself"}}, {"type": "node", "id": 8766397985, "lat": 43.4960289, "lon": -112.0660678, "tags": {"name": "Marketplace Home Furnishing", "shop": "furniture"}}, {"type": "node", "id": 8766398120, "lat": 43.4970604, "lon": -112.0693204, "tags": {"name": "Boise Rigging Supply", "office": "yes"}}, {"type": "node", "id": 8766398121, "lat": 43.4971233, "lon": -112.0703014, "tags": {"addr:city": "Idaho Falls", "addr:housenumber": "1972", "addr:postcode": "83402", "addr:state": "ID", "addr:street": "West Broadway Street", "amenity": "restaurant", "brand": "Pizza Hut", "brand:wikidata": "Q191615", "cuisine": "pizza", "name": "Pizza Hut", "phone": "+1 208-523-7411", "website": "https://locations.pizzahut.com/id/idaho-falls/1972-w-broadway-st"}}, {"type": "node", "id": 8766398122, "lat": 43.4971233, "lon": -112.070414, "tags": {"brand": "CosmoProf", "brand:wikidata": "Q109570386", "name": "CosmoProf", "shop": "hairdresser_supply"}}, {"type": "node", "id": 8766398123, "lat": 43.4971206, "lon": -112.070525, "tags": {"cuisine": "juice;soda;cookie", "name": "The Fizz Bizz", "operator": "The Fizz Bizz", "shop": "beverages"}}, {"type": "node", "id": 8766541031, "lat": 43.4964861, "lon": -112.0768272, "tags": {"name": "Cortex Secure", "office": "it"}}, {"type": "node", "id": 8766541087, "lat": 43.4972646, "lon": -112.0760026}, {"type": "node", "id": 8766541088, "lat": 43.4972647, "lon": -112.0760501}, {"type": "node", "id": 8766541089, "lat": 43.4971884, "lon": -112.0774784}, {"type": "node", "id": 8766541090, "lat": 43.497188, "lon": -112.0775024}, {"type": "node", "id": 8766541091, "lat": 43.4971795, "lon": -112.0789953}, {"type": "node", "id": 8766541092, "lat": 43.4971744, "lon": -112.0789574}, {"type": "node", "id": 8766541093, "lat": 43.4971085, "lon": -112.0789891}, {"type": "node", "id": 8766541094, "lat": 43.4971085, "lon": -112.0790111}, {"type": "node", "id": 8766541095, "lat": 43.4971062, "lon": -112.078753}, {"type": "node", "id": 8766541096, "lat": 43.4972143, "lon": -112.0788035}, {"type": "node", "id": 8766541097, "lat": 43.4972455, "lon": -112.0788053}, {"type": "node", "id": 8766541437, "lat": 43.4970849, "lon": -112.0766171, "tags": {"name": "Bear & Blue Creative Studio", "shop": "printer_ink"}}, {"type": "node", "id": 8766590428, "lat": 43.5046337, "lon": -112.0626393, "tags": {"name": "Inel Oversight Program", "office": "government"}}, {"type": "node", "id": 8766590429, "lat": 43.504824, "lon": -112.0626423, "tags": {"name": "Dept of Environmental Quality", "office": "government"}}, {"type": "node", "id": 8766590430, "lat": 43.5050985, "lon": -112.0625737, "tags": {"name": "Idaho Department of Water Resources", "office": "government"}}, {"type": "node", "id": 8766590431, "lat": 43.5061966, "lon": -112.0626661, "tags": {"name": "Ormond Builders Inc.", "office": "yes"}}, {"type": "node", "id": 8766590439, "lat": 43.5072061, "lon": -112.0607239, "tags": {"name": "Fluor Idaho", "office": "yes"}}, {"type": "node", "id": 8766590440, "lat": 43.5073791, "lon": -112.0624154, "tags": {"name": "Atlas Technical Consultants", "office": "yes"}}, {"type": "node", "id": 8766590441, "lat": 43.5049979, "lon": -112.0612907, "tags": {"name": "Grandview Storage", "shop": "storage_rental"}}, {"type": "node", "id": 8766590447, "lat": 43.5044527, "lon": -112.0593528, "tags": {"name": "Shaka's", "shop": "convenience"}}, {"type": "node", "id": 8766625061, "lat": 43.5105872, "lon": -112.0698385, "tags": {"name": "Progrexion Idaho Falls Office", "office": "yes"}}, {"type": "node", "id": 8766625078, "lat": 43.5092332, "lon": -112.0637104, "tags": {"name": "Bonneville Collections", "office": "financial"}}, {"type": "node", "id": 8766625303, "lat": 43.5094165, "lon": -112.0624599, "tags": {"name": "Skyline Storage", "shop": "storage_rental"}}, {"type": "node", "id": 8766625305, "lat": 43.5108577, "lon": -112.0638214, "tags": {"name": "Tetri Dyn Solutions Inc", "office": "it"}}, {"type": "node", "id": 8766625332, "lat": 43.5095195, "lon": -112.0601718, "tags": {"name": "Honnen Equipment Co", "shop": "rental"}}, {"type": "node", "id": 8766625335, "lat": 43.5115944, "lon": -112.0648838, "tags": {"name": "USRA CSNR", "office": "yes"}}, {"type": "node", "id": 8766681114, "lat": 43.4961902, "lon": -112.084096}, {"type": "node", "id": 8766681115, "lat": 43.4961905, "lon": -112.0840284}, {"type": "node", "id": 8933442749, "lat": 43.4970006, "lon": -112.0643167, "tags": {"amenity": "cafe", "name": "SnOgo Snow Cones"}}, {"type": "node", "id": 9106197483, "lat": 43.4912244, "lon": -112.0926682, "tags": {"brand": "Farmers Insurance", "brand:wikidata": "Q1396863", "name": "Farmers Insurance", "office": "insurance"}}, {"type": "node", "id": 9464613653, "lat": 43.4960414, "lon": -112.0602097, "tags": {"addr:housenumber": "1545", "addr:postcode": "83402", "addr:street": "West Broadway Street", "alt_name": "Uhaul", "brand": "U-Haul", "brand:wikidata": "Q7862902", "name": "U-Haul", "outdoor_seating": "no", "phone": "+1 208-419-0513", "shop": "storage_rental", "website": "https://www.uhaul.com/"}}, {"type": "node", "id": 9466281675, "lat": 43.4961698, "lon": -112.057898, "tags": {"brand": "Stinker", "brand:wikidata": "Q95990164", "name": "Stinker", "operator": "Stinker Store", "self_service": "yes", "shop": "convenience"}}, {"type": "node", "id": 13012913501, "lat": 43.4959778, "lon": -112.0667942, "tags": {"addr:housenumber": "1755", "addr:postcode": "83402", "addr:street": "West Broadway Street", "name": "Vern\u2019s Radio Shack", "opening_hours": "Mo-Sa 09:00-18:00", "phone": "+1 208-529-8877", "shop": "electronics", "website": "https://radioshack.com/"}}, {"type": "way", "id": 32356846, "nodes": [364241035, 364241036, 364241037, 364241038, 364241035], "tags": {"addr:city": "Idaho Falls", "addr:postcode": "83402", "addr:street": "West Broadway Street", "building": "yes", "name": "KJ's", "shop": "convenience"}}, {"type": "way", "id": 32356874, "nodes": [364242859, 5172341580, 5172341579, 5172341578, 5172341577, 5172341576, 5172341575, 364242860, 364242861, 5172341574, 364242862, 5172341573, 5172341572, 5172341571, 364242863, 364242864, 364242859], "tags": {"building": "yes", "name": "Reed's Dairy", "shop": "dairy"}}, {"type": "way", "id": 32356881, "nodes": [364243656, 364243657, 364243658, 364243659, 364243656], "tags": {"addr:city": "Idaho Falls", "addr:housenumber": "2625", "addr:postcode": "83402", "addr:state": "ID", "addr:street": "West Broadway Street", "brand": "Maverik", "brand:wikidata": "Q64149010", "building": "yes", "name": "Maverik", "note": "ATM, Krispy Cream's", "phone": "+1 208-525-8755", "shop": "convenience"}}, {"type": "way", "id": 32356885, "nodes": [364244384, 8766681114, 8766681115, 364244385, 364244386, 364244387, 364244384], "tags": {"addr:city": "Idaho Falls", "addr:housenumber": "2627", "addr:postcode": "83402", "addr:state": "ID", "addr:street": "West Broadway Street", "building": "yes", "name": "Ski's House of Guns", "opening_hours": "\"by appointment only\"", "phone": "+1 208-524-6446", "shop": "weapons"}}, {"type": "way", "id": 39791069, "nodes": [477002827, 8744851845, 8744851846, 8744851847, 8744851848, 8744851849, 8744851850, 477002829, 477002833, 477002836, 8744851841, 8744851842, 8744851843, 8744851844, 477002827], "tags": {"amenity": "restaurant", "building": "yes", "cuisine": "mexican", "name": "Los Adelbertos", "phone": "+1 208-524-9011"}}, {"type": "way", "id": 39791070, "nodes": [477002848, 477002852, 477002863, 477002866, 5172360169, 5172360170, 477002848], "tags": {"addr:city": "Idaho Falls", "addr:housenumber": "1505", "addr:postcode": "83402", "addr:state": "ID", "addr:street": "West Broadway Street", "amenity": "bar", "building": "yes", "name": "The Zone Bar & Grill", "phone": "+1 208-524-6106"}}, {"type": "way", "id": 239356919, "nodes": [2471521452, 2471521453, 2471521454, 2471521455, 2471521452], "tags": {"addr:city": "Idaho Falls", "addr:housenumber": "1546", "addr:postcode": "83402", "addr:state": "ID", "addr:street": "West Broadway Street", "brand": "Jiffy Lube", "brand:wikidata": "Q6192247", "building": "yes", "name": "Jiffy Lube", "phone": "+1 208-524-0083", "shop": "car_repair"}}, {"type": "way", "id": 239357345, "nodes": [2471524511, 2471524513, 2471524515, 2471524517, 2471524511], "tags": {"addr:city": "Idaho Falls", "addr:housenumber": "1562", "addr:postcode": "83402", "addr:state": "ID", "addr:street": "West Broadway Street", "brand": "AutoZone", "brand:wikidata": "Q4826087", "building": "yes", "name": "AutoZone", "phone": "+1 208-524-8181", "shop": "car_parts", "website": "https://www.autozone.com/locations/id/idaho-falls/1562-w-broadway.html"}}, {"type": "way", "id": 239358019, "nodes": [2471529719, 2471529721, 2471529723, 2471529725, 2471529719], "tags": {"addr:city": "Idaho Falls", "addr:housenumber": "1570", "addr:postcode": "83402", "addr:state": "ID", "addr:street": "West Broadway Street", "amenity": "restaurant", "building": "yes", "cuisine": "chinese", "name": "Hong Kong", "phone": "+1 208-522-9914"}}, {"type": "way", "id": 239362516, "nodes": [2471568141, 2471568143, 2471568145, 8766541088, 8766541087, 2471568146, 2471568141], "tags": {"addr:city": "Idaho Falls", "addr:housenumber": "2250", "addr:postcode": "83402", "addr:state": "ID", "addr:street": "West Broadway Street", "building": "yes", "name": "Rocknack's Hardware Plus", "phone": "+1 208-524-4405", "shop": "hardware"}}, {"type": "way", "id": 239363480, "nodes": [2471575723, 2471575724, 2471575725, 2471575726, 8766541090, 8766541089, 2471575727, 2471575728, 2471575729, 2471575730, 2471575723], "tags": {"addr:city": "Idaho", "addr:housenumber": "2330", "addr:postcode": "83402", "addr:state": "ID", "addr:street": "West Broadway Street", "building": "yes", "name": "Western Transmission", "phone": "+1 208-522-8383", "shop": "car_repair"}}, {"type": "way", "id": 239363630, "nodes": [2471577145, 8766541091, 8766541092, 8766541093, 8766541094, 2471577146, 2471577147, 2471577148, 8766541095, 8766541096, 8766541097, 2471577145], "tags": {"addr:city": "Idaho Falls", "addr:housenumber": "2401", "addr:postcode": "83402", "addr:state": "ID", "addr:street": "West Broadway Street", "brand": "Jacksons", "brand:wikidata": "Q64617393", "building": "yes", "name": "Jacksons", "shop": "convenience"}}, {"type": "way", "id": 239365746, "nodes": [2471597074, 2471597075, 2471597076, 2471597077, 2471597074], "tags": {"addr:city": "Idaho Falls", "addr:housenumber": "2504", "addr:postcode": "83402", "addr:state": "ID", "addr:street": "West Broadway Street", "building": "yes", "name": "Broadway Storage & Rentals", "note": "Storage rentals and truck rentals. And a batting cage.", "shop": "storage_rental"}}, {"type": "way", "id": 239366247, "nodes": [2471600751, 2471600752, 2471600753, 2471600754, 2471600751], "tags": {"addr:city": "Idaho Falls", "addr:housenumber": "2126", "addr:postcode": "83402", "addr:state": "ID", "addr:street": "West Broadway Street", "brand": "Dollar Tree", "brand:wikidata": "Q5289230", "building": "yes", "check_date": "2024-07-11", "check_date:opening_hours": "2024-07-11", "name": "Dollar Tree", "opening_hours": "Mo-Sa 08:00-22:00; Su 09:00-21:00", "shop": "variety_store", "website": "https://www.dollartree.com/locations/id/idaho-falls/7631/"}}, {"type": "way", "id": 239366877, "nodes": [2471605407, 2471605408, 2471605409, 2471605410, 2471605407], "tags": {"addr:city": "Idaho Falls", "addr:housenumber": "1955", "addr:postcode": "83402", "addr:state": "ID", "addr:street": "West Broadway Street", "brand": "O'Reilly Auto Parts", "brand:wikidata": "Q7071951", "building": "yes", "name": "O'Reilly Auto Parts", "phone": "+1 208-524-1475", "shop": "car_parts", "website": "https://locations.oreillyauto.com/id/idahofalls/autoparts-3083.html"}}, {"type": "way", "id": 299384417, "nodes": [3033688050, 3033688051, 3033688052, 5148627667, 3033688053, 3033688050], "tags": {"addr:city": "Idaho Falls", "addr:housenumber": "1604", "addr:postcode": "83402", "addr:state": "ID", "addr:street": "West Broadway Street", "brand": "Walgreens", "brand:wikidata": "Q1591889", "building": "yes", "drive_through": "yes", "name": "Walgreens", "shop": "chemist", "source": "Local Resident", "website": "https://www.walgreens.com/locator/walgreens-1604+w+broadway+st-idaho+falls-id-83402/id=15973"}}, {"type": "way", "id": 443635711, "nodes": [4411905231, 4411905232, 4411905233, 4411905234, 4411905231], "tags": {"addr:city": "Idaho Falls", "addr:housenumber": "1598", "addr:postcode": "83402", "addr:state": "ID", "addr:street": "West Broadway Street", "building": "yes", "description": "Rental shop great for renting decorations for weddings, parties, etc. They rent projectors, screens, popcorn machines, cotton candy machines, etc.", "name": "Signature Party Rentals", "shop": "party"}}, {"type": "way", "id": 530128185, "nodes": [5148633357, 5148633358, 5148633359, 5148633360, 5148633357], "tags": {"building": "yes", "name": "Floral Art", "shop": "florist"}}, {"type": "way", "id": 530128186, "nodes": [5148633361, 5148633362, 2471529721, 2471529719, 5148633361], "tags": {"building": "yes", "name": "Skyline Barber Shop", "shop": "hairdresser"}}, {"type": "way", "id": 530128188, "nodes": [4411905234, 5148633365, 5148633366, 4411905233, 4411905234], "tags": {"building": "yes", "name": "Coin-Op Laundrymat", "shop": "laundry"}}, {"type": "way", "id": 530128189, "nodes": [5148633365, 5148633367, 5148633363, 5148633364, 5148633366, 5148633365], "tags": {"building": "yes", "name": "D&L Cleaners & Laundry", "shop": "laundry"}}, {"type": "way", "id": 533087716, "nodes": [5172334499, 5172334500, 5172334501, 5172334502, 5172334499], "tags": {"building": "yes", "name": "Idaho Falls Copy Fax and Print", "shop": "printer_ink"}}, {"type": "way", "id": 533517118, "nodes": [5175843705, 5175843706, 5175843707, 5175843708, 5175843705], "tags": {"building": "yes", "name": "Tobacco Connection", "shop": "tobacco"}}, {"type": "way", "id": 944540491, "nodes": [8744851851, 8744851852, 8744851853, 8744851854, 8744851855, 8744851856, 8744851857, 8744851858, 8744851859, 8744851860, 8744851851], "tags": {"addr:housenumber": "1545", "addr:street": "West Broadway Street", "alt_name": "Uhaul", "brand": "U-Haul", "brand:wikidata": "Q7862902", "building": "yes", "name": "U-Haul", "outdoor_seating": "no", "phone": "+1 208-419-0513", "shop": "storage_rental", "website": "https://www.uhaul.com/"}}, {"type": "way", "id": 947046463, "nodes": [8766299063, 8766299074, 8766299077, 8766299064, 8766299065, 8766299066, 8766299067, 8766299068, 8766299069, 8766299070, 8766299071, 8766299072, 8766299073, 8766299063], "tags": {"addr:city": "Idaho Falls", "addr:housenumber": "1705", "addr:postcode": "83402", "addr:state": "ID", "addr:street": "West Broadway Street", "brand": "Albertsons", "brand:wikidata": "Q2831861", "building": "yes", "name": "Albertsons", "opening_hours": "Mo-Su 06:00-23:00", "phone": "+1 208-522-3392", "shop": "supermarket", "website": "https://local.albertsons.com/id/idaho-falls/1705-w-broadway-st.html"}}]}