{"version": 0.6, "generator": "Overpass API 0.7.62.8 e802775f", "osm3s": {"timestamp_osm_base": "2025-12-08T22:03:45Z", "copyright": "The data included in this document is from www.openstreetmap.org. The data is made available under ODbL."}, "elements": [{"type": "node", "id": 357959111, "lat": 48.7905947, "lon": -105.4203472, "tags": {"amenity": "post_office", "ele": "756", "gnis:feature_id": "1637401", "name": "Scobey Post Office"}}, {"type": "node", "id": 357959162, "lat": 48.7923806, "lon": -105.4145776}, {"type": "node", "id": 357959197, "lat": 48.7920733, "lon": -105.4231718, "tags": {"amenity": "doctors", "ele": "750", "gnis:feature_id": "1637536", "name": "Daniels County Vision Clinic"}}, {"type": "node", "id": 357959202, "lat": 48.7879881, "lon": -105.4179629}, {"type": "node", "id": 357959210, "lat": 48.7883071, "lon": -105.4182555, "tags": {"amenity": "doctors", "gnis:feature_id": "1637543", "name": "Daniels Memorial Medical Clinic"}}, {"type": "node", "id": 357959244, "lat": 48.7883575, "lon": -105.4297161, "tags": {"amenity": "place_of_worship", "ele": "748", "gnis:feature_id": "1637554", "name": "Scobey Alliance Church", "religion": "christian"}}, {"type": "node", "id": 357959246, "lat": 48.7882464, "lon": -105.4195565, "tags": {"amenity": "place_of_worship", "ele": "761", "gnis:feature_id": "1637555", "name": "Assembly of God Church", "religion": "christian"}}, {"type": "node", "id": 357959252, "lat": 48.7910572, "lon": -105.4214591, "tags": {"amenity": "place_of_worship", "denomination": "methodist", "ele": "754", "gnis:feature_id": "1637557", "name": "United Methodist Church", "religion": "christian"}}, {"type": "node", "id": 357959254, "lat": 48.7915522, "lon": -105.4183928, "tags": {"amenity": "place_of_worship", "denomination": "lutheran", "ele": "756", "gnis:feature_id": "1637558", "name": "Scobey Lutheran Church", "phone": "+1 406 4872652", "religion": "christian", "website": "http://scobeylutheran.com"}}, {"type": "node", "id": 366092994, "lat": 48.7908859, "lon": -105.4204035, "tags": {"addr:state": "MT", "amenity": "courthouse", "ele": "755", "gnis:feature_id": "1637537", "name": "Daniels County Courthouse", "source": "USGS Geonames"}}, {"type": "node", "id": 366093130, "lat": 48.7914842, "lon": -105.4191769, "tags": {"addr:state": "MT", "amenity": "fire_station", "ele": "755", "gnis:feature_id": "1637505", "name": "Scobey Fire Department", "source": "USGS Geonames"}}, {"type": "node", "id": 366093264, "lat": 48.7913406, "lon": -105.4189742, "tags": {"addr:state": "MT", "amenity": "library", "ele": "756", "gnis:feature_id": "1637540", "name": "Daniels County Library", "source": "USGS Geonames"}}, {"type": "node", "id": 366093399, "lat": 48.7935887, "lon": -105.4204006, "tags": {"addr:state": "MT", "amenity": "police", "ele": "755", "gnis:feature_id": "1637504", "name": "Daniels County Sheriffs Department", "source": "USGS Geonames"}}, {"type": "node", "id": 366093402, "lat": 48.7935742, "lon": -105.4204493, "tags": {"addr:state": "MT", "amenity": "police", "ele": "755", "gnis:feature_id": "1637503", "name": "Scobey Police Department", "source": "USGS Geonames"}}, {"type": "node", "id": 2611204861, "lat": 48.7915476, "lon": -105.4142409}, {"type": "node", "id": 2611204862, "lat": 48.7909189, "lon": -105.4177283}, {"type": "node", "id": 2611204863, "lat": 48.7917347, "lon": -105.4180378}, {"type": "node", "id": 4909905905, "lat": 48.7879581, "lon": -105.4188444}, {"type": "node", "id": 4909905906, "lat": 48.7880323, "lon": -105.4188564}, {"type": "node", "id": 4909905907, "lat": 48.7884379, "lon": -105.4190121}, {"type": "node", "id": 4909905908, "lat": 48.788651, "lon": -105.4178263}, {"type": "node", "id": 4909905909, "lat": 48.7879881, "lon": -105.4175485}, {"type": "node", "id": 4909905910, "lat": 48.7874231, "lon": -105.4179748}, {"type": "node", "id": 4909905911, "lat": 48.7874168, "lon": -105.418109}, {"type": "node", "id": 4909905912, "lat": 48.7872574, "lon": -105.4181138}, {"type": "node", "id": 4909905913, "lat": 48.787259, "lon": -105.4188516}, {"type": "node", "id": 6974932015, "lat": 48.7923421, "lon": -105.4199244}, {"type": "node", "id": 6974932016, "lat": 48.7920952, "lon": -105.4198314}, {"type": "node", "id": 6974932017, "lat": 48.792128, "lon": -105.4196533}, {"type": "node", "id": 6974932018, "lat": 48.7923707, "lon": -105.4197551}, {"type": "node", "id": 8855644017, "lat": 48.7895898, "lon": -105.4174568}, {"type": "node", "id": 8855644018, "lat": 48.7896755, "lon": -105.4177865}, {"type": "node", "id": 8855644019, "lat": 48.7895732, "lon": -105.4178181}, {"type": "node", "id": 8855644020, "lat": 48.7895068, "lon": -105.417753}, {"type": "node", "id": 8855644021, "lat": 48.7895006, "lon": -105.4177881}, {"type": "node", "id": 8855644022, "lat": 48.7894827, "lon": -105.417743}, {"type": "node", "id": 8855644023, "lat": 48.7894688, "lon": -105.4178091}, {"type": "node", "id": 8855644024, "lat": 48.7895096, "lon": -105.4175379}, {"type": "node", "id": 8855644025, "lat": 48.7895152, "lon": -105.4175064}, {"type": "node", "id": 8855644026, "lat": 48.7895438, "lon": -105.4175182}, {"type": "node", "id": 8855644027, "lat": 48.7893269, "lon": -105.4174625}, {"type": "node", "id": 8855644028, "lat": 48.7893741, "lon": -105.4171988}, {"type": "node", "id": 8855644029, "lat": 48.7897246, "lon": -105.4175125}, {"type": "node", "id": 8855644030, "lat": 48.7892095, "lon": -105.4171309}, {"type": "node", "id": 8855644031, "lat": 48.7891105, "lon": -105.4176834}, {"type": "node", "id": 9956427976, "lat": 48.7916581, "lon": -105.4211213}, {"type": "node", "id": 9956427977, "lat": 48.7917299, "lon": -105.4207245}, {"type": "node", "id": 9956427978, "lat": 48.7916058, "lon": -105.4206727}, {"type": "node", "id": 9956427979, "lat": 48.7915339, "lon": -105.4210695}, {"type": "way", "id": 255434015, "nodes": [357959162, 2611204861, 2611204862, 2611204863, 357959162], "tags": {"addr:city": "Scobey", "addr:housenumber": "205", "addr:postcode": "59263", "addr:street": "2nd Avenue East", "amenity": "school", "ele": "757", "gnis:feature_id": "1637498", "name": "Scobey School", "phone": "+1 406 4872202", "website": "http://scobeyschools.com/"}}, {"type": "way", "id": 499759519, "nodes": [4909905913, 4909905912, 4909905911, 4909905910, 357959202, 4909905909, 4909905908, 4909905907, 4909905906, 4909905905, 4909905913], "tags": {"addr:city": "Scobey", "addr:housenumber": "105", "addr:postcode": "59263", "addr:state": "MT", "addr:street": "5th Avenue East", "amenity": "hospital", "beds": "24", "emergency": "yes", "gnis:feature_id": "1637541", "healthcare": "hospital", "name": "Daniels Memorial Healthcare Center", "opening_hours": "24/7", "phone": "+1 406 487 2296", "website": "https://www.danielsmemorialhealthcare.org/"}}, {"type": "way", "id": 745102049, "nodes": [6974932015, 6974932016, 6974932017, 6974932018, 6974932015], "tags": {"addr:city": "Scobey", "addr:housenumber": "105", "addr:postcode": "59263", "addr:state": "MT", "addr:street": "1st Avenue", "amenity": "cinema", "building": "yes", "name": "Richardson Theatre", "payment:cash": "yes", "payment:cheque": "yes", "screen": "1", "website": "https://richardsontheatre.com/", "wikidata": "Q42903222"}}, {"type": "way", "id": 957003328, "nodes": [8855644031, 8855644023, 8855644022, 8855644020, 8855644021, 8855644019, 8855644018, 8855644029, 8855644017, 8855644026, 8855644025, 8855644024, 8855644027, 8855644028, 8855644030, 8855644031], "tags": {"addr:city": "Scobey", "addr:housenumber": "404", "addr:postcode": "59263", "addr:state": "MT", "addr:street": "Timmons Street", "amenity": "place_of_worship", "building": "church", "denomination": "roman_catholic", "description": "Mailing Address: PO Box 827 Scobey, MT 59263", "diocese": "Great Falls-Billings", "ele": "762", "fax": "+1-406-487-5566", "gnis:feature_id": "1637556", "name": "Saint Philip Bonitus Catholic Church", "phone": "+1-406-487-5566;+1-406-487-5525", "religion": "christian"}}, {"type": "way", "id": 1086618070, "nodes": [9956427976, 9956427977, 9956427978, 9956427979, 9956427976], "tags": {"building": "yes", "name": "Service Drug Store", "shop": "gift"}}]}