{"version": 0.6, "generator": "Overpass API 0.7.62.8 e802775f", "osm3s": {"timestamp_osm_base": "2025-12-06T16:55:41Z", "copyright": "The data included in this document is from www.openstreetmap.org. The data is made available under ODbL."}, "elements": [{"type": "node", "id": 356543325, "lat": 47.141523, "lon": -119.2750204, "tags": {"entrance": "main"}}, {"type": "node", "id": 490694186, "lat": 47.1523031, "lon": -119.2808771}, {"type": "node", "id": 815094289, "lat": 47.1413002, "lon": -119.277031, "tags": {"addr:city": "Moses Lake", "addr:housenumber": "933", "addr:postcode": "98837", "addr:state": "WA", "addr:street": "North Stratford Road", "brand": "AT&T", "brand:wikidata": "Q298594", "name": "AT&T", "opening_hours": "Mo-Sa 10:00-19:00; Su 11:00-18:00", "phone": "+1-509-764-2386", "shop": "mobile_phone"}}, {"type": "node", "id": 1396603003, "lat": 47.1397708, "lon": -119.2767117, "tags": {"brand": "Big 5 Sporting Goods", "brand:wikidata": "Q4904902", "name": "Big 5 Sporting Goods", "shop": "sports"}}, {"type": "node", "id": 1396603005, "lat": 47.1399747, "lon": -119.2779555, "tags": {"addr:city": "Moses Lake", "addr:housenumber": "825", "addr:postcode": "98837-1511", "addr:state": "WA", "addr:street": "North Stratford Road", "amenity": "fast_food", "brand": "McDonald's", "brand:wikidata": "Q38076", "cuisine": "burger", "drive_through": "yes", "internet_access": "wlan", "name": "McDonald's", "opening_hours": "06:00-24:00", "phone": "+1-509-766-6390", "takeaway": "yes", "website": "https://www.mcdonalds.com/us/en-us/location/4100.html"}}, {"type": "node", "id": 2690030112, "lat": 47.1404906, "lon": -119.2743004}, {"type": "node", "id": 2690030114, "lat": 47.1404924, "lon": -119.2738613}, {"type": "node", "id": 2690030116, "lat": 47.1405357, "lon": -119.274769}, {"type": "node", "id": 2690030118, "lat": 47.1405376, "lon": -119.2743008}, {"type": "node", "id": 2690030120, "lat": 47.140539, "lon": -119.2738617}, {"type": "node", "id": 2690030122, "lat": 47.1405405, "lon": -119.2734959}, {"type": "node", "id": 2690030124, "lat": 47.1406645, "lon": -119.273497}, {"type": "node", "id": 2690030126, "lat": 47.1406653, "lon": -119.273306}, {"type": "node", "id": 2690030127, "lat": 47.1407261, "lon": -119.2749593}, {"type": "node", "id": 2690030129, "lat": 47.1407269, "lon": -119.2747707}, {"type": "node", "id": 2690030131, "lat": 47.1407436, "lon": -119.2734976}, {"type": "node", "id": 2690030133, "lat": 47.1407443, "lon": -119.2733067}, {"type": "node", "id": 2690030146, "lat": 47.1408731, "lon": -119.2750213}, {"type": "node", "id": 2690030147, "lat": 47.1408734, "lon": -119.2749606}, {"type": "node", "id": 2690030149, "lat": 47.1409891, "lon": -119.2750223}, {"type": "node", "id": 2690030151, "lat": 47.1409894, "lon": -119.2749503}, {"type": "node", "id": 2690030153, "lat": 47.1414601, "lon": -119.2750198}, {"type": "node", "id": 2690030155, "lat": 47.1414604, "lon": -119.2749544}, {"type": "node", "id": 2690030157, "lat": 47.1415061, "lon": -119.2735043}, {"type": "node", "id": 2690030159, "lat": 47.1415067, "lon": -119.2733651}, {"type": "node", "id": 2690030161, "lat": 47.1415689, "lon": -119.2750208}, {"type": "node", "id": 2690030162, "lat": 47.1415692, "lon": -119.2749504}, {"type": "node", "id": 2690030164, "lat": 47.1416744, "lon": -119.2749513}, {"type": "node", "id": 2690030166, "lat": 47.1416751, "lon": -119.2747655}, {"type": "node", "id": 2690030168, "lat": 47.1418561, "lon": -119.2734974}, {"type": "node", "id": 2690030170, "lat": 47.1418567, "lon": -119.2733682}, {"type": "node", "id": 2690030172, "lat": 47.1419617, "lon": -119.2749559}, {"type": "node", "id": 2690030173, "lat": 47.1419625, "lon": -119.2747681}, {"type": "node", "id": 2690030174, "lat": 47.1419738, "lon": -119.2738159}, {"type": "node", "id": 2690030175, "lat": 47.1419748, "lon": -119.2744158}, {"type": "node", "id": 2690030176, "lat": 47.1419751, "lon": -119.2734985}, {"type": "node", "id": 2690030177, "lat": 47.1419761, "lon": -119.274082}, {"type": "node", "id": 2690030180, "lat": 47.1420708, "lon": -119.2738651}, {"type": "node", "id": 2690030182, "lat": 47.142071, "lon": -119.2738167}, {"type": "node", "id": 2690030194, "lat": 47.1421827, "lon": -119.2749579}, {"type": "node", "id": 2690030196, "lat": 47.1421849, "lon": -119.2744177}, {"type": "node", "id": 2690030198, "lat": 47.1422849, "lon": -119.2740847}, {"type": "node", "id": 2690030200, "lat": 47.1422858, "lon": -119.273867}, {"type": "node", "id": 4714257383, "lat": 47.1421051, "lon": -119.2738654}, {"type": "node", "id": 4714297741, "lat": 47.1401897, "lon": -119.2751623}, {"type": "node", "id": 4714752666, "lat": 47.1441664, "lon": -119.2766444}, {"type": "node", "id": 4726099782, "lat": 47.1523163, "lon": -119.2835566}, {"type": "node", "id": 4726099783, "lat": 47.151581, "lon": -119.2835554}, {"type": "node", "id": 4726099784, "lat": 47.1497427, "lon": -119.2811054}, {"type": "node", "id": 4726099785, "lat": 47.149747, "lon": -119.2809297}, {"type": "node", "id": 5591596092, "lat": 47.1412725, "lon": -119.2788783, "tags": {"amenity": "restaurant"}}, {"type": "node", "id": 5591596093, "lat": 47.1416282, "lon": -119.2787039, "tags": {"addr:city": "Moses Lake", "addr:housenumber": "934", "addr:postcode": "98837", "addr:state": "WA", "addr:street": "North Stratford Road", "amenity": "fast_food", "brand": "Taco Bell", "brand:wikidata": "Q752941", "cuisine": "tex-mex", "name": "Taco Bell", "opening_hours": "Mo-Fr 06:30-22:00; Sa,Su 07:00-22:00", "phone": "+1-509-766-6883", "takeaway": "yes", "website": "https://locations.tacobell.com/wa/moses-lake/934-n-stratford-rd.html"}}, {"type": "node", "id": 5591596095, "lat": 47.1386854, "lon": -119.277828, "tags": {"addr:city": "Moses Lake", "addr:housenumber": "713", "addr:postcode": "98837-1597", "addr:state": "WA", "addr:street": "Stratford Road", "amenity": "fast_food", "brand": "Burger King", "brand:wikidata": "Q177054", "cuisine": "burger", "drive_through": "yes", "internet_access": "wlan", "name": "Burger King", "opening_hours": "Mo-Sa 06:00-21:00; Su 07:00-23:00", "phone": "+1-509-765-0212", "ref": "2848", "takeaway": "yes", "website": "https://www.bk.com/store-locator/store/restaurant_1558"}}, {"type": "node", "id": 5605440829, "lat": 47.1451276, "lon": -119.2777387, "tags": {"amenity": "casino", "name": "Papa's Casino", "smoking": "outside"}}, {"type": "node", "id": 5605440832, "lat": 47.1448652, "lon": -119.2777104, "tags": {"amenity": "restaurant"}}, {"type": "node", "id": 5605440833, "lat": 47.14568, "lon": -119.2771894}, {"type": "node", "id": 5605440835, "lat": 47.1452877, "lon": -119.276658}, {"type": "node", "id": 5605440836, "lat": 47.1456787, "lon": -119.2766559}, {"type": "node", "id": 5605626303, "lat": 47.1452888, "lon": -119.2771192}, {"type": "node", "id": 5605626304, "lat": 47.1453239, "lon": -119.2771914}, {"type": "node", "id": 5605626305, "lat": 47.1453237, "lon": -119.2771191}, {"type": "node", "id": 5618088440, "lat": 47.1424313, "lon": -119.2777748, "tags": {"addr:city": "Penn", "addr:housenumber": "1025", "addr:postcode": "98837", "addr:state": "WA", "amenity": "cafe", "branch": "Penn Plaza- Moses Lake", "brand": "Starbucks", "brand:wikidata": "Q37158", "cuisine": "coffee_shop", "name": "Starbucks", "official_name": "Starbucks Coffee", "opening_hours": "Sa,Su 05:30-20:30; Mo-Fr 04:00-20:30", "phone": "+1-509-765-1467", "ref": "8156", "takeaway": "yes", "website": "https://www.starbucks.com/store-locator/store/8156/penn-plaza-moses-lake-1025-n-stratford-rd-1-moses-lake-wa-988371574-us"}}, {"type": "node", "id": 5618088441, "lat": 47.1424018, "lon": -119.2776769, "tags": {"brand": "GameStop", "brand:wikidata": "Q202210", "name": "GameStop", "opening_hours": "Mo-Sa 00:00-19:00; Su 00:00-18:00", "shop": "video_games", "website": "https://www.gamestop.com/store/us/wa/moses-lake/3029/penn-plaza-shopping-center-gamestop"}}, {"type": "node", "id": 5618088442, "lat": 47.1424524, "lon": -119.2775726, "tags": {"addr:city": "Moses Lake", "addr:housenumber": "1035", "addr:postcode": "98837", "addr:state": "WA", "addr:street": "North Stratford Road", "addr:unit": "C", "amenity": "fast_food", "brand": "Subway", "brand:wikidata": "Q244457", "cuisine": "sandwich", "name": "Subway", "opening_hours": "Mo-Fr 07:00-22:00; Sa,Su 08:00-22:00", "phone": "+1-509-764-8146", "takeaway": "yes", "website": "https://restaurants.subway.com/united-states/wa/moses-lake/1035-north-stratford-rd"}}, {"type": "node", "id": 5618088443, "lat": 47.1424047, "lon": -119.277478, "tags": {"amenity": "ice_cream", "name": "Blue Palm Frozen Yogurt"}}, {"type": "node", "id": 5618088444, "lat": 47.1424679, "lon": -119.277434, "tags": {"brand": "Great Clips", "brand:wikidata": "Q5598967", "name": "Great Clips", "opening_hours": "Mo-Fr 09:00-19:00; Sa 09:00-18:00; Su 10:00-19:00", "shop": "hairdresser"}}, {"type": "node", "id": 5618088445, "lat": 47.1424934, "lon": -119.2772269, "tags": {"addr:city": "Moses Lake", "addr:housenumber": "1035", "addr:postcode": "98837", "addr:state": "WA", "addr:street": "North Stratford Road", "amenity": "restaurant", "brand": "Pizza Hut", "brand:wikidata": "Q191615", "cuisine": "pizza", "name": "Pizza Hut", "opening_hours": "Mo-Sa 10:30-12:00; Su 10:30-23:00", "phone": "+1-509-765-0404", "website": "https://locations.pizzahut.com/wa/moses-lake/1035-n-stratford-rd"}}, {"type": "node", "id": 5618088446, "lat": 47.1424402, "lon": -119.2772954, "tags": {"brand": "H&R Block", "brand:wikidata": "Q5627799", "name": "H&R Block", "office": "tax_advisor", "opening_hours": "We 14:00-19:00"}}, {"type": "node", "id": 5993920985, "lat": 47.1406872, "lon": -119.2778546, "tags": {"addr:city": "Moses Lake", "addr:housenumber": "911", "addr:postcode": "98837-1500", "addr:state": "WA", "addr:street": "North Stratford Road", "brand": "Ross", "brand:wikidata": "Q3442791", "name": "Ross", "official_name": "Ross Dress for Less", "opening_hours": "Mo-Th 10:00-22:00; Fr-Sa 09:00-22:00; Su 09:00-21:30", "phone": "+1-509-766-3286", "ref": "1636", "shop": "department_store"}}, {"type": "node", "id": 5993921089, "lat": 47.1407379, "lon": -119.2775001, "tags": {"brand": "Famous Footwear", "brand:wikidata": "Q5433457", "name": "Famous Footwear", "opening_hours": "Mo-Sa 10:00-21:00; Su 11:00-18:00", "shop": "shoes"}}, {"type": "node", "id": 6407203742, "lat": 47.140744, "lon": -119.2733924, "tags": {"access": "private", "amenity": "loading_dock", "entrance": "service"}}, {"type": "node", "id": 6407203743, "lat": 47.1419252, "lon": -119.273498, "tags": {"access": "private", "amenity": "loading_dock", "entrance": "service"}}, {"type": "node", "id": 6407203744, "lat": 47.1409369, "lon": -119.2750218, "tags": {"entrance": "main"}}, {"type": "node", "id": 7152381198, "lat": 47.1454725, "lon": -119.2389671}, {"type": "node", "id": 7212381454, "lat": 47.1456257, "lon": -119.2797835, "tags": {"shop": "storage_rental"}}, {"type": "node", "id": 7212381468, "lat": 47.1424105, "lon": -119.2794274, "tags": {"addr:city": "Moses Lake", "addr:housenumber": "1030", "addr:postcode": "98837", "addr:state": "WA", "addr:street": "North Stratford Road", "alt_name": "Ulta Skin Bar", "beauty": "skin_care", "brand": "Ulta Beauty", "brand:wikidata": "Q7880076", "name": "Ulta Beauty", "opening_hours": "Mo-We 10:00-20:00; Th-Sa 10:00-21:00; Su 11:00-18:00", "payment:american_express": "yes", "payment:cash": "yes", "payment:contactless": "yes", "payment:debit_cards": "yes", "payment:discover_card": "yes", "payment:mastercard": "yes", "payment:visa": "yes", "phone": "+1-509-361-5245", "ref": "1513", "shop": "beauty", "website": "https://www.ulta.com/stores/moses-lake-wa-1513"}}, {"type": "node", "id": 7487233225, "lat": 47.1372256, "lon": -119.27799}, {"type": "node", "id": 7487233226, "lat": 47.1370997, "lon": -119.27799}, {"type": "node", "id": 7487233227, "lat": 47.1370985, "lon": -119.2777885}, {"type": "node", "id": 7487233228, "lat": 47.1372244, "lon": -119.277783}, {"type": "node", "id": 7601967504, "lat": 47.1454907, "lon": -119.2389674}, {"type": "node", "id": 7601967505, "lat": 47.1454911, "lon": -119.2388879}, {"type": "node", "id": 7601967506, "lat": 47.1454633, "lon": -119.238967}, {"type": "node", "id": 7601967507, "lat": 47.1454637, "lon": -119.2388876}, {"type": "node", "id": 9347737363, "lat": 47.1409437, "lon": -119.2796322}, {"type": "node", "id": 9347737364, "lat": 47.1407939, "lon": -119.2796349}, {"type": "node", "id": 9347737365, "lat": 47.1407912, "lon": -119.2793197}, {"type": "node", "id": 9347737366, "lat": 47.140941, "lon": -119.2793128}, {"type": "node", "id": 9456510464, "lat": 47.1407274, "lon": -119.2771492, "tags": {"addr:city": "Moses Lake", "addr:housenumber": "911", "addr:postcode": "98837", "addr:state": "WA", "addr:street": "North Stratford Road", "addr:unit": "C", "branch": "Moses Lake", "brand": "Petco", "brand:wikidata": "Q7171798", "name": "Petco", "opening_hours": "Mo-Sa 09:00-20:00; Su 10:00-19:00", "phone": "+1-509-765-9180", "ref": "1266", "shop": "pet", "website": "https://stores.petco.com/wa/moseslake/pet-supplies-moseslake-wa-1266.html"}}, {"type": "node", "id": 9456510489, "lat": 47.1408903, "lon": -119.2793137}, {"type": "node", "id": 9456510490, "lat": 47.1408877, "lon": -119.2790181}, {"type": "node", "id": 9456510491, "lat": 47.1408261, "lon": -119.2790192}, {"type": "node", "id": 9456510492, "lat": 47.1408287, "lon": -119.279319}, {"type": "node", "id": 9472454260, "lat": 47.1455742, "lon": -119.2780166}, {"type": "node", "id": 9472454261, "lat": 47.1454317, "lon": -119.2780173}, {"type": "node", "id": 9472454262, "lat": 47.14543, "lon": -119.2773149}, {"type": "node", "id": 9472454263, "lat": 47.1455726, "lon": -119.2773142}, {"type": "node", "id": 9472454264, "lat": 47.1446367, "lon": -119.2780924}, {"type": "node", "id": 9472454265, "lat": 47.1443894, "lon": -119.2780924}, {"type": "node", "id": 9472454266, "lat": 47.1443705, "lon": -119.2777104}, {"type": "node", "id": 9472454267, "lat": 47.1442342, "lon": -119.2777228}, {"type": "node", "id": 9472454268, "lat": 47.1441764, "lon": -119.2775115}, {"type": "node", "id": 9472454269, "lat": 47.144622, "lon": -119.2766443}, {"type": "node", "id": 9472454270, "lat": 47.1446681, "lon": -119.2765981}, {"type": "node", "id": 9472454271, "lat": 47.1451941, "lon": -119.2766228}, {"type": "node", "id": 9472454272, "lat": 47.1451983, "lon": -119.2770387}, {"type": "node", "id": 9472454273, "lat": 47.144733, "lon": -119.2770449}, {"type": "node", "id": 9472454274, "lat": 47.1446576, "lon": -119.277051}, {"type": "node", "id": 9777796860, "lat": 47.1415688, "lon": -119.2770666, "tags": {"addr:city": "Moses Lake", "addr:housenumber": "933", "addr:postcode": "98837", "addr:state": "WA", "addr:street": "North Stratford Road", "branch": "Moses Lake", "brand": "Mattress Firm", "brand:wikidata": "Q6791878", "contact:sms": "+1 509-266-0318", "delivery": "yes", "name": "Mattress Firm", "opening_hours": "Mo-Sa 10:00-20:00; Su 10:00-18:00", "phone": "+1-509-765-2290", "ref": "18438", "shop": "bed", "website": "https://www.mattressfirm.com/en-us/stores/wa/moses-lake/132010/"}}, {"type": "node", "id": 9777796861, "lat": 47.1411014, "lon": -119.27703, "tags": {"amenity": "restaurant", "cuisine": "sushi", "name": "Sumo's", "opening_hours": "Mo-Th 11:30-21:25; Fr 11:30-22:25; Sa 00:30-22:25; Su 00:30-12:30"}}, {"type": "node", "id": 9777796862, "lat": 47.1401944, "lon": -119.27666}, {"type": "node", "id": 9777796863, "lat": 47.1418674, "lon": -119.2766885}, {"type": "node", "id": 9777796864, "lat": 47.1418868, "lon": -119.2751843}, {"type": "node", "id": 10294281505, "lat": 47.1426591, "lon": -119.275866}, {"type": "node", "id": 10294281506, "lat": 47.1426631, "lon": -119.2757248}, {"type": "node", "id": 10294281507, "lat": 47.1424031, "lon": -119.275732}, {"type": "node", "id": 10294281508, "lat": 47.1424029, "lon": -119.2758013}, {"type": "node", "id": 10294335609, "lat": 47.1422101, "lon": -119.2757914}, {"type": "node", "id": 10294335610, "lat": 47.1422106, "lon": -119.2758724}, {"type": "node", "id": 10769939792, "lat": 47.1377333, "lon": -119.277162, "tags": {"addr:city": "Moses Lake", "addr:housenumber": "711", "addr:postcode": "98837", "addr:state": "WA", "addr:street": "North Stratford Road", "addr:unit": "A", "amenity": "restaurant", "cuisine": "asian", "name": "Super China Buffet 2", "phone": "+1-509-766-6633"}}, {"type": "node", "id": 10998538170, "lat": 47.1394921, "lon": -119.2765746, "tags": {"addr:city": "Moses Lake", "addr:housenumber": "815", "addr:postcode": "98837", "addr:state": "WA", "addr:street": "North Stratford Road", "addr:unit": "B", "brand": "Staples", "brand:wikidata": "Q785943", "name": "Staples", "opening_hours": "Mo-Fr 08:00-20:00; Sa 09:00-18:00; Su 10:00-18:00", "shop": "stationery", "website": "https://stores.staples.com/wa/moses-lake/815-north-stratford-road"}}, {"type": "node", "id": 10998538171, "lat": 47.1390573, "lon": -119.2765317, "tags": {"addr:city": "Moses Lake", "addr:housenumber": "813", "addr:postcode": "98837", "addr:state": "WA", "addr:street": "North Stratford Road", "brand": "Big Lots", "brand:wikidata": "Q4905973", "name": "Big Lots", "opening_hours": "Mo 10:00-21:00; Tu-Sa 09:00-21:00; Su 10:00-21:00", "phone": "+1-509-765-2521", "shop": "department_store", "website": "https://local.biglots.com/wa/moses-lake/813-n-stratford-rd"}}, {"type": "node", "id": 13016440554, "lat": 47.1402173, "lon": -119.2788452, "tags": {"addr:housenumber": "826", "addr:street": "North Stratford Road", "brand": "O'Reilly Auto Parts", "brand:wikidata": "Q7071951", "name": "O'Reilly Auto Parts", "shop": "car_parts"}}, {"type": "way", "id": 263388562, "nodes": [2690030194, 2690030196, 2690030175, 2690030177, 2690030198, 2690030200, 4714257383, 2690030180, 2690030182, 2690030174, 2690030176, 6407203743, 2690030168, 2690030170, 2690030159, 2690030157, 2690030131, 6407203742, 2690030133, 2690030126, 2690030124, 2690030122, 2690030120, 2690030114, 2690030112, 2690030118, 2690030116, 2690030129, 2690030127, 2690030147, 2690030146, 6407203744, 2690030149, 2690030151, 2690030155, 2690030153, 356543325, 2690030161, 2690030162, 2690030164, 2690030166, 2690030173, 2690030172, 2690030194], "tags": {"addr:city": "Moses Lake", "addr:country": "US", "addr:housenumber": "1005", "addr:postcode": "98837", "addr:state": "WA", "addr:street": "North Stratford Road", "brand": "Walmart", "brand:wikidata": "Q483551", "building": "retail", "ele": "327", "gnis:feature_id": "1514976", "name": "Walmart Supercenter", "opening_hours": "Mo-Su 06:00-24:00", "operator": "Walmart", "operator:wikidata": "Q483551", "payment:app:walmart": "yes", "payment:apple_pay": "no", "payment:google_pay": "no", "payment:samsung_pay": "no", "phone": "+1-509-765-8979", "ref": "2007", "ref:walmart": "2007", "sensory_friendly:accommodation": "dimmed_light;static_screens;no_pa", "sensory_friendly:conditional": "yes @ 08:00-10:00", "shop": "supermarket", "website": "https://www.walmart.com/store/2007-moses-lake-wa"}}, {"type": "way", "id": 479526195, "nodes": [4726099782, 4726099783, 4726099784, 4726099785, 490694186, 4726099782], "tags": {"amenity": "school", "name": "Longview Elementary School"}}, {"type": "way", "id": 586716492, "nodes": [5605440833, 5605626304, 5605626305, 5605626303, 5605440835, 5605440836, 5605440833], "tags": {"brand": "Grocery Outlet", "brand:wikidata": "Q5609934", "building": "yes", "name": "Grocery Outlet", "official_name": "Grocery Outlet Bargain Market", "shop": "supermarket"}}, {"type": "way", "id": 800520023, "nodes": [7487233225, 7487233226, 7487233227, 7487233228, 7487233225], "tags": {"amenity": "fast_food", "brand": "Papa Murphy's", "brand:wikidata": "Q7132349", "building": "yes", "cuisine": "pizza", "delivery": "yes", "drive_through": "yes", "name": "Papa Murphy's", "official_name": "Papa Murphy's Take 'N' Bake Pizza", "opening_hours": "Mo-Th 11:00-20:00; Fr,Sa 11:00-21:00; Su 11:00-20:00", "takeaway": "only"}}, {"type": "way", "id": 813814084, "nodes": [7601967506, 7152381198, 7601967504, 7601967505, 7601967507, 7601967506], "tags": {"amenity": "shelter", "building": "yes", "shelter_type": "gazebo"}}, {"type": "way", "id": 1013217906, "nodes": [9347737363, 9347737364, 9347737365, 9456510492, 9456510491, 9456510490, 9456510489, 9347737366, 9347737363], "tags": {"amenity": "car_wash", "building": "yes"}}, {"type": "way", "id": 1027485539, "nodes": [9472454260, 9472454261, 9472454262, 9472454263, 9472454260], "tags": {"amenity": "parking"}}, {"type": "way", "id": 1027485540, "nodes": [9472454264, 9472454265, 9472454266, 9472454267, 9472454268, 4714752666, 9472454269, 9472454270, 9472454271, 9472454272, 9472454273, 9472454274, 9472454264], "tags": {"amenity": "parking"}}, {"type": "way", "id": 1064666213, "nodes": [9777796862, 9777796863, 9777796864, 4714297741, 9777796862], "tags": {"amenity": "parking"}}, {"type": "way", "id": 1125747737, "nodes": [10294281505, 10294281506, 10294281507, 10294281508, 10294335609, 10294335610, 10294281505], "tags": {"amenity": "car_wash", "automated": "yes", "building": "yes", "layer": "1", "name": "Mister Car Wash", "self_service": "no"}}]}