{"version": 0.6, "generator": "Overpass API 0.7.62.8 e802775f", "osm3s": {"timestamp_osm_base": "2025-12-08T22:02:44Z", "copyright": "The data included in this document is from www.openstreetmap.org. The data is made available under ODbL."}, "elements": [{"type": "node", "id": 3728635356, "lat": 45.73406, "lon": -108.60497, "tags": {"access": "customers", "addr:city": "Billings", "addr:country": "US", "addr:housenumber": "1801", "addr:postcode": "59102", "addr:state": "MT", "addr:street": "Majestic LN", "amenity": "charging_station", "authentication:app": "yes", "bicycle": "no", "brand": "Tesla Supercharger", "brand:en": "Tesla Supercharger", "brand:website": "https://www.tesla.com/supercharger", "brand:wikidata": "Q17089620", "bus": "no", "capacity": "4", "ele": "978", "fee": "yes", "frequency": "0", "hgv": "no", "maxstay": "no", "motorcar": "designated", "name": "Tesla Supercharger", "network": "Supercharger", "network:website": "https://www.tesla.com/supercharger", "network:wikidata": "Q17089620", "note": "This Tesla Supercharger was edited or added by the June 2025 import from supercharge.info... if you have any questions, comments, or concerns, please reach out to the US Slack / Forum", "opening_hours": "24/7", "operator": "Tesla, Inc.", "operator:wikidata": "Q478214", "operator:wikipedia": "en:Tesla, Inc.", "payment:app:tesla": "yes", "ref:plugshare": "52618", "ref:supercharge_info": "282", "reservation": "no", "scooter": "no", "socket:nacs": "4", "socket:nacs:output": "150", "source": "https://supercharge.info", "start_date": "2014-07-23", "website": "https://www.tesla.com/findus/location/supercharger/billingssupercharger"}}, {"type": "node", "id": 4069984659, "lat": 45.7368352, "lon": -108.605039, "tags": {"amenity": "clinic", "healthcare": "clinic", "name": "Billings VA Community Based Outpatient Clinic"}}, {"type": "node", "id": 5283246558, "lat": 45.7322964, "lon": -108.598276}, {"type": "node", "id": 5283246559, "lat": 45.7318056, "lon": -108.5977959}, {"type": "node", "id": 5283246560, "lat": 45.731955, "lon": -108.5974824}, {"type": "node", "id": 5283246561, "lat": 45.7322901, "lon": -108.5978101}, {"type": "node", "id": 5283246562, "lat": 45.73232, "lon": -108.5977726}, {"type": "node", "id": 5283246563, "lat": 45.7324365, "lon": -108.5978866}, {"type": "node", "id": 5283246564, "lat": 45.7324054, "lon": -108.5979519}, {"type": "node", "id": 5283246565, "lat": 45.7324364, "lon": -108.5979822}, {"type": "node", "id": 5310693690, "lat": 45.732806, "lon": -108.6187323}, {"type": "node", "id": 5310693691, "lat": 45.7319636, "lon": -108.6198118}, {"type": "node", "id": 5310693692, "lat": 45.7318524, "lon": -108.6196348}, {"type": "node", "id": 5310693693, "lat": 45.7327022, "lon": -108.618527}, {"type": "node", "id": 5310693694, "lat": 45.7330828, "lon": -108.6191287}, {"type": "node", "id": 5310693695, "lat": 45.7328871, "lon": -108.6187774}, {"type": "node", "id": 5310703724, "lat": 45.7325257, "lon": -108.6216212}, {"type": "node", "id": 5310703725, "lat": 45.7325172, "lon": -108.6217509}, {"type": "node", "id": 5310703726, "lat": 45.7324582, "lon": -108.6217436}, {"type": "node", "id": 5310703727, "lat": 45.7323922, "lon": -108.6216921}, {"type": "node", "id": 5310703729, "lat": 45.7323419, "lon": -108.6215401}, {"type": "node", "id": 5310703730, "lat": 45.7324702, "lon": -108.6214536}, {"type": "node", "id": 5310703731, "lat": 45.7325618, "lon": -108.6215537}, {"type": "node", "id": 5310703799, "lat": 45.7325241, "lon": -108.6216449}, {"type": "node", "id": 6632426138, "lat": 45.7358047, "lon": -108.6042778}, {"type": "node", "id": 6632426139, "lat": 45.7358645, "lon": -108.6041951}, {"type": "node", "id": 6632426140, "lat": 45.7358813, "lon": -108.6042085}, {"type": "node", "id": 6632426141, "lat": 45.7359207, "lon": -108.6041495}, {"type": "node", "id": 6632426142, "lat": 45.7359038, "lon": -108.6041388}, {"type": "node", "id": 6632426143, "lat": 45.7359579, "lon": -108.6040632}, {"type": "node", "id": 6632426144, "lat": 45.7358724, "lon": -108.6039375}, {"type": "node", "id": 6632426145, "lat": 45.7358857, "lon": -108.603919}, {"type": "node", "id": 6632426146, "lat": 45.7357729, "lon": -108.6037529}, {"type": "node", "id": 6632426147, "lat": 45.7357599, "lon": -108.603771}, {"type": "node", "id": 6632426148, "lat": 45.7357391, "lon": -108.6037403}, {"type": "node", "id": 6632426149, "lat": 45.7355817, "lon": -108.603959}, {"type": "node", "id": 6632426150, "lat": 45.7356129, "lon": -108.604005}, {"type": "node", "id": 6632426151, "lat": 45.7355744, "lon": -108.6040584}, {"type": "node", "id": 6632426152, "lat": 45.7356455, "lon": -108.6041635}, {"type": "node", "id": 6632426153, "lat": 45.735696, "lon": -108.6040934}, {"type": "node", "id": 6632426154, "lat": 45.7357284, "lon": -108.6041414}, {"type": "node", "id": 6632426155, "lat": 45.735709, "lon": -108.6041683}, {"type": "node", "id": 6632426156, "lat": 45.7357428, "lon": -108.6042183}, {"type": "node", "id": 6632426157, "lat": 45.7357541, "lon": -108.6042026}, {"type": "node", "id": 6632479266, "lat": 45.7351175, "lon": -108.6053431}, {"type": "node", "id": 6632479267, "lat": 45.7353572, "lon": -108.6049702}, {"type": "node", "id": 6632479268, "lat": 45.7352242, "lon": -108.6047986}, {"type": "node", "id": 6632479269, "lat": 45.7350108, "lon": -108.6051339}, {"type": "node", "id": 6632479270, "lat": 45.7350707, "lon": -108.605217}, {"type": "node", "id": 6632479271, "lat": 45.7350426, "lon": -108.6052519}, {"type": "node", "id": 6632492759, "lat": 45.736843, "lon": -108.6085884}, {"type": "node", "id": 6632492760, "lat": 45.7369147, "lon": -108.6085225}, {"type": "node", "id": 6632492761, "lat": 45.7366761, "lon": -108.6079896}, {"type": "node", "id": 6632492762, "lat": 45.7366045, "lon": -108.6080554}, {"type": "node", "id": 6632492763, "lat": 45.7369819, "lon": -108.6082577}, {"type": "node", "id": 6632492764, "lat": 45.7371003, "lon": -108.6081504}, {"type": "node", "id": 6632492765, "lat": 45.7370316, "lon": -108.6079949}, {"type": "node", "id": 6632492766, "lat": 45.7370857, "lon": -108.6079459}, {"type": "node", "id": 6632492767, "lat": 45.7370016, "lon": -108.6077554}, {"type": "node", "id": 6632492768, "lat": 45.7369392, "lon": -108.6078119}, {"type": "node", "id": 6632492769, "lat": 45.7369617, "lon": -108.6078629}, {"type": "node", "id": 6632492770, "lat": 45.7369292, "lon": -108.6078923}, {"type": "node", "id": 6632492771, "lat": 45.7369461, "lon": -108.6079305}, {"type": "node", "id": 6632492772, "lat": 45.7368685, "lon": -108.6080009}, {"type": "node", "id": 8076524264, "lat": 45.734041, "lon": -108.595513}, {"type": "node", "id": 8076524265, "lat": 45.734853, "lon": -108.595522}, {"type": "node", "id": 8076524266, "lat": 45.73485, "lon": -108.596081}, {"type": "node", "id": 8076524267, "lat": 45.734865, "lon": -108.596081}, {"type": "node", "id": 8076524268, "lat": 45.734864, "lon": -108.596265}, {"type": "node", "id": 8076524269, "lat": 45.734753, "lon": -108.596263}, {"type": "node", "id": 8076524270, "lat": 45.734753, "lon": -108.596221}, {"type": "node", "id": 8076524271, "lat": 45.734142, "lon": -108.596214}, {"type": "node", "id": 8076524272, "lat": 45.734145, "lon": -108.5956}, {"type": "node", "id": 8076524273, "lat": 45.73404, "lon": -108.595599}, {"type": "node", "id": 8076524306, "lat": 45.737331, "lon": -108.589586}, {"type": "node", "id": 8076524307, "lat": 45.73781, "lon": -108.59002}, {"type": "node", "id": 8076524308, "lat": 45.737861, "lon": -108.589903}, {"type": "node", "id": 8076524309, "lat": 45.73807, "lon": -108.590092}, {"type": "node", "id": 8076524310, "lat": 45.737932, "lon": -108.590404}, {"type": "node", "id": 8076524311, "lat": 45.737971, "lon": -108.590439}, {"type": "node", "id": 8076524312, "lat": 45.73793, "lon": -108.590533}, {"type": "node", "id": 8076524313, "lat": 45.737877, "lon": -108.590485}, {"type": "node", "id": 8076524314, "lat": 45.737803, "lon": -108.590652}, {"type": "node", "id": 8076524315, "lat": 45.737594, "lon": -108.590463}, {"type": "node", "id": 8076524316, "lat": 45.737646, "lon": -108.590344}, {"type": "node", "id": 8076524317, "lat": 45.737352, "lon": -108.590077}, {"type": "node", "id": 8076524318, "lat": 45.737375, "lon": -108.590025}, {"type": "node", "id": 8076524319, "lat": 45.737205, "lon": -108.589872}, {"type": "node", "id": 10099447751, "lat": 45.7350802, "lon": -108.6113461, "tags": {"brand": "Nissan", "brand:wikidata": "Q20165", "name": "Denny Menholt Nissan", "shop": "car"}}, {"type": "node", "id": 10099447752, "lat": 45.7346059, "lon": -108.6089041, "tags": {"brand": "Honda", "brand:wikidata": "Q9584", "name": "Underriner Honda", "shop": "car"}}, {"type": "node", "id": 10099447753, "lat": 45.7337363, "lon": -108.6089395, "tags": {"brand": "Hyundai", "brand:wikidata": "Q55931", "name": "Underriner Hyundai", "shop": "car"}}, {"type": "node", "id": 10099447754, "lat": 45.7337412, "lon": -108.6093288, "tags": {"brand": "Volvo", "brand:wikidata": "Q215293", "name": "Underriner Volvo", "shop": "car"}}, {"type": "node", "id": 10099447755, "lat": 45.7329507, "lon": -108.6118487, "tags": {"name": "360 Office Solutions", "shop": "stationery"}}, {"type": "node", "id": 10099447756, "lat": 45.7317551, "lon": -108.6168248, "tags": {"amenity": "restaurant", "name": "Meadowlark Brewing"}}, {"type": "node", "id": 10099447757, "lat": 45.7309017, "lon": -108.6122019, "tags": {"addr:housenumber": "3800", "addr:street": "Pierce Parkway", "name": "Pierce Homes & RVs", "office": "estate_agent", "phone": "+1 406 6558000", "shop": "mobile_home"}}, {"type": "node", "id": 10658887321, "lat": 45.7331634, "lon": -108.6204463}, {"type": "node", "id": 10658887322, "lat": 45.7330887, "lon": -108.6207175}, {"type": "node", "id": 10658887323, "lat": 45.732726, "lon": -108.6210518}, {"type": "node", "id": 10658887324, "lat": 45.732119, "lon": -108.6201809}, {"type": "node", "id": 10658887325, "lat": 45.7321167, "lon": -108.6198222}, {"type": "node", "id": 10658887327, "lat": 45.7330011, "lon": -108.6192707}, {"type": "node", "id": 10658887328, "lat": 45.7331695, "lon": -108.6195884}, {"type": "node", "id": 10658887329, "lat": 45.732978, "lon": -108.620045}, {"type": "node", "id": 10658887330, "lat": 45.7331752, "lon": -108.6198032}, {"type": "node", "id": 11236682504, "lat": 45.7339574, "lon": -108.6152207, "tags": {"addr:city": "Billings", "addr:housenumber": "3880", "addr:postcode": "59106", "addr:state": "MT", "addr:street": "Zoo Drive", "branch": "Billings", "brand": "Costco", "brand:wikidata": "Q715583", "description": "Wholesale Store", "name": "Costco", "opening_hours": "Mo-Fr 10:00-08:30, Sa 09:30-19:00, Su 10:00-18:00", "phone": "+1 406-601-8273", "ref": "1644", "shop": "wholesale", "website": "https://www.costco.com/warehouse-locations/billings-mt-1644.html", "wheelchair": "yes"}}, {"type": "node", "id": 12482367483, "lat": 45.7354813, "lon": -108.6153602, "tags": {"amenity": "fuel", "brand": "Costco Gasoline", "brand:wikidata": "Q715583", "name": "Costco Gasoline"}}, {"type": "node", "id": 12482367484, "lat": 45.7342861, "lon": -108.6155963, "tags": {"amenity": "pharmacy", "brand": "Costco Pharmacy", "brand:wikidata": "Q715583", "healthcare": "pharmacy", "name": "Costco Pharmacy"}}, {"type": "node", "id": 12482367485, "lat": 45.7339846, "lon": -108.6121334}, {"type": "node", "id": 12482367486, "lat": 45.7334178, "lon": -108.6122594}, {"type": "node", "id": 12482367487, "lat": 45.7332781, "lon": -108.6109685}, {"type": "node", "id": 12482367488, "lat": 45.7338448, "lon": -108.6108426}, {"type": "way", "id": 546732647, "nodes": [5283246558, 5283246559, 5283246560, 5283246561, 5283246562, 5283246563, 5283246564, 5283246565, 5283246558], "tags": {"addr:city": "Billings", "addr:housenumber": "2124", "addr:postcode": "59101", "addr:state": "MT", "addr:street": "Goodman Road", "brand": "Honda", "brand:wikidata": "Q9584", "building": "commercial", "building:levels": "1", "description": "Sales and Service Hondas, four wheelers, boats, bikes. They also have a full line of apparel.", "name": "Montana Honda and Marine", "shop": "motorcycle_repair"}}, {"type": "way", "id": 549783977, "nodes": [5310693690, 5310693691, 5310693692, 5310693693, 5310693690], "tags": {"amenity": "parking"}}, {"type": "way", "id": 549783978, "nodes": [5310693694, 5310693695, 10658887325, 10658887324, 10658887323, 10658887322, 10658887321, 10658887329, 10658887330, 10658887328, 10658887327, 5310693694], "tags": {"amenity": "parking"}}, {"type": "way", "id": 549785010, "nodes": [5310703724, 5310703799, 5310703725, 5310703726, 5310703727, 5310703729, 5310703730, 5310703731, 5310703724], "tags": {"amenity": "theatre", "building": "yes", "name": "Amphitheater"}}, {"type": "way", "id": 705855937, "nodes": [6632426138, 6632426139, 6632426140, 6632426141, 6632426142, 6632426143, 6632426144, 6632426145, 6632426146, 6632426147, 6632426148, 6632426149, 6632426150, 6632426151, 6632426152, 6632426153, 6632426154, 6632426155, 6632426156, 6632426157, 6632426138], "tags": {"amenity": "restaurant", "building": "yes", "name": "The Montana Club"}}, {"type": "way", "id": 705855956, "nodes": [6632479266, 6632479267, 6632479268, 6632479269, 6632479270, 6632479271, 6632479266], "tags": {"amenity": "restaurant", "building": "yes", "name": "Montana Rib & Chop House"}}, {"type": "way", "id": 705857879, "nodes": [6632492759, 6632492760, 6632492761, 6632492762, 6632492759], "tags": {"amenity": "fuel", "brand": "Holiday", "brand:wikidata": "Q5880490", "building": "roof", "name": "Holiday"}}, {"type": "way", "id": 705857880, "nodes": [6632492763, 6632492764, 6632492765, 6632492766, 6632492767, 6632492768, 6632492769, 6632492770, 6632492771, 6632492772, 6632492763], "tags": {"brand": "Holiday", "brand:wikidata": "Q5880490", "building": "yes", "name": "Holiday", "shop": "convenience"}}, {"type": "way", "id": 866513822, "nodes": [8076524264, 8076524265, 8076524266, 8076524267, 8076524268, 8076524269, 8076524270, 8076524271, 8076524272, 8076524273, 8076524264], "tags": {"addr:city": "Billings", "addr:housenumber": "7185", "addr:postcode": "59101", "addr:state": "MT", "addr:street": "Trade Center Avenue", "building": "yes", "building:levels": "1", "description": "High quality furniture at a low price.", "name": "Slumberlander Furniture", "shop": "furniture", "source": "microsoft/BuildingFootprints"}}, {"type": "way", "id": 866513828, "nodes": [8076524306, 8076524307, 8076524308, 8076524309, 8076524310, 8076524311, 8076524312, 8076524313, 8076524314, 8076524315, 8076524316, 8076524317, 8076524318, 8076524319, 8076524306], "tags": {"addr:city": "Billings", "addr:housenumber": "6900", "addr:postcode": "59101", "addr:state": "MT", "addr:street": "South Frontage Road", "brand": "Harley-Davidson", "brand:wikidata": "Q192814", "building": "yes", "building:levels": "1", "description": "Full line of motor cycles for sale. safety apparel and full line of clothing.", "name": "Beartooth Harley Davidson", "shop": "motorcycle", "source": "microsoft/BuildingFootprints"}}, {"type": "way", "id": 1349367422, "nodes": [12482367485, 12482367486, 12482367487, 12482367488, 12482367485], "tags": {"amenity": "parking"}}]}