{"version": 0.6, "generator": "Overpass API 0.7.62.8 e802775f", "osm3s": {"timestamp_osm_base": "2025-12-12T19:00:53Z", "copyright": "The data included in this document is from www.openstreetmap.org. The data is made available under ODbL."}, "elements": [{"type": "node", "id": 1014926492, "lat": 39.0203889, "lon": -105.0692989, "tags": {"amenity": "restaurant", "name": "Mountain View Bar and Grill", "website": "https://www.shiningmountaingolf.com/mountain-view-bar-grill/"}}, {"type": "node", "id": 1109226440, "lat": 39.0138477, "lon": -105.0624497}, {"type": "node", "id": 1109230766, "lat": 39.0137208, "lon": -105.0624423}, {"type": "node", "id": 1109232159, "lat": 39.01372, "lon": -105.062466}, {"type": "node", "id": 1109242912, "lat": 39.0138333, "lon": -105.0628581}, {"type": "node", "id": 2374476820, "lat": 39.0160095, "lon": -105.067089, "tags": {"amenity": "school", "name": "Colorado Springs Christian School of Woodland Park"}}, {"type": "node", "id": 2374476848, "lat": 39.0148807, "lon": -105.0662481, "tags": {"amenity": "police", "name": "Woodland Park Police Department"}}, {"type": "node", "id": 2374476849, "lat": 39.015318, "lon": -105.065296, "tags": {"amenity": "post_office", "name": "Woodland Park Post Office"}}, {"type": "node", "id": 2514509815, "lat": 39.0160096, "lon": -105.0657913, "tags": {"amenity": "bicycle_parking", "bicycle_parking": "rack", "capacity": "4"}}, {"type": "node", "id": 3006005256, "lat": 39.0207957, "lon": -105.069222, "tags": {"amenity": "parking"}}, {"type": "node", "id": 3090259622, "lat": 39.0136373, "lon": -105.0624612}, {"type": "node", "id": 3090259653, "lat": 39.0138251, "lon": -105.0631128}, {"type": "node", "id": 3090259718, "lat": 39.0136727, "lon": -105.062943}, {"type": "node", "id": 3090259890, "lat": 39.0138424, "lon": -105.0625995}, {"type": "node", "id": 3090260007, "lat": 39.0138043, "lon": -105.0630191}, {"type": "node", "id": 3090260025, "lat": 39.013831, "lon": -105.0630206}, {"type": "node", "id": 3090260049, "lat": 39.0138843, "lon": -105.0630237}, {"type": "node", "id": 3090260064, "lat": 39.0136677, "lon": -105.0630877}, {"type": "node", "id": 3090260198, "lat": 39.0136329, "lon": -105.0625864}, {"type": "node", "id": 3090260239, "lat": 39.0135691, "lon": -105.0630838}, {"type": "node", "id": 3090260245, "lat": 39.01389, "lon": -105.0628614}, {"type": "node", "id": 3090260257, "lat": 39.0136349, "lon": -105.0625303}, {"type": "node", "id": 3090260258, "lat": 39.0138765, "lon": -105.0631135}, {"type": "node", "id": 3090260367, "lat": 39.0136582, "lon": -105.0625879}, {"type": "node", "id": 3090260389, "lat": 39.0136458, "lon": -105.0629415}, {"type": "node", "id": 3090260412, "lat": 39.0138631, "lon": -105.0633415}, {"type": "node", "id": 3090260429, "lat": 39.0135558, "lon": -105.0633117}, {"type": "node", "id": 3090260509, "lat": 39.0138016, "lon": -105.0630954}, {"type": "node", "id": 9706310673, "lat": 39.013801, "lon": -105.0647399, "tags": {"addr:unit": "100", "name": "Teller County Department of Human Services", "office": "government", "website": "https://www.co.teller.co.us/DHS/ContactInfo.aspx"}}, {"type": "node", "id": 9706310674, "lat": 39.013886, "lon": -105.064351, "tags": {"addr:unit": "200", "name": "Teller County Motor Vehicles Department", "office": "government", "website": "https://www.co.teller.co.us/cr/MotorVehicleDept.aspx"}}, {"type": "node", "id": 9706310675, "lat": 39.0138341, "lon": -105.0645029, "tags": {"addr:unit": "130", "amenity": "place_of_worship", "name": "Highland Bible Church", "religion": "christian", "website": "https://highlandbiblechurch.org/"}}, {"type": "way", "id": 95675663, "nodes": [1109242912, 3090259890, 1109226440, 1109230766, 1109232159, 3090259622, 3090260257, 3090260198, 3090260367, 3090260389, 3090259718, 3090260064, 3090260509, 3090260007, 3090260025, 3090260049, 3090260245, 1109242912], "tags": {"addr:housenumber": "785", "addr:postcode": "80863", "addr:state": "CO", "addr:street": "Apache Trail", "amenity": "place_of_worship", "building": "church", "denomination": "mormon", "name": "The Church of Jesus Christ of Latter-day Saints", "religion": "christian", "website": "https://www.lds.org"}}, {"type": "way", "id": 304483030, "nodes": [3090260429, 3090260239, 3090259653, 3090260258, 3090260412, 3090260429], "tags": {"amenity": "parking"}}]}