{"version": 0.6, "generator": "Overpass API 0.7.62.8 e802775f", "osm3s": {"timestamp_osm_base": "2025-12-06T22:57:04Z", "copyright": "The data included in this document is from www.openstreetmap.org. The data is made available under ODbL."}, "elements": [{"type": "node", "id": 1015296861, "lat": 47.8392559, "lon": -122.1253388, "tags": {"amenity": "pharmacy", "brand": "Safeway", "brand:wikidata": "Q1508234", "check_date": "2022-10-21", "healthcare": "pharmacy", "name": "Safeway", "opening_hours": "Mo-Fr 09:00-20:00; Sa 10:00-18:00; Su 10:00-17:00", "website": "https://local.pharmacy.safeway.com/safeway/wa/snohomish/17520-sr-9-se.html"}}, {"type": "node", "id": 1015296862, "lat": 47.8385203, "lon": -122.125321, "tags": {"addr:city": "Snohomish", "addr:housenumber": "17424", "addr:postcode": "98290", "addr:state": "WA", "addr:street": "State Route 9 Southeast", "addr:unit": "D", "amenity": "fast_food", "brand": "Subway", "brand:wikidata": "Q244457", "check_date": "2022-09-23", "cuisine": "sandwich", "name": "Subway", "opening_hours": "Mo-Fr 09:00-20:00; Sa 09:00-18:00; Su 09:00-20:00", "phone": "+1-360-668-6068", "takeaway": "yes", "website": "https://restaurants.subway.com/united-states/wa/snohomish/17424-sr-9-se"}}, {"type": "node", "id": 1015296863, "lat": 47.8387529, "lon": -122.125109, "tags": {"addr:city": "Snohomish", "addr:housenumber": "17520", "addr:postcode": "98296", "addr:state": "WA", "addr:street": "State Route 9 Southeast", "brand": "Safeway", "brand:wikidata": "Q1508234", "check_date": "2023-09-27", "name": "Safeway", "opening_hours": "Mo-Su 06:00-00:00", "payment:mastercard": "yes", "payment:visa": "yes", "phone": "+1-360-668-1132", "shop": "supermarket", "toilets": "yes", "toilets:wheelchair": "yes", "website": "https://local.safeway.com/safeway/wa/snohomish/17520-sr-9-se.html", "wheelchair": "yes"}}, {"type": "node", "id": 1379004282, "lat": 47.8387308, "lon": -122.123867, "tags": {"addr:city": "Snohomish", "addr:housenumber": "17408", "addr:postcode": "98296", "addr:state": "WA", "addr:street": "State Route 9 Southeast", "amenity": "cafe", "branch": "Clearview Plaza", "brand": "Starbucks", "brand:wikidata": "Q37158", "cuisine": "coffee_shop", "name": "Starbucks", "official_name": "Starbucks Coffee", "phone": "+1-360-668-5132", "ref": "14342", "takeaway": "yes", "website": "https://www.starbucks.com/store-locator/store/14342/clearview-plaza-17408-state-route-9-se-snohomish-wa-982968322-us"}}, {"type": "node", "id": 3190924420, "lat": 47.8486839, "lon": -122.1167502, "tags": {"amenity": "fuel", "check_date": "2022-11-28", "name": "Chevron"}}, {"type": "node", "id": 3977317056, "lat": 47.8389786, "lon": -122.124919, "tags": {"amenity": "post_box", "collection_times": "Mo-Sa 10:30", "drive_through": "yes", "operator": "United States Postal Service", "operator:short": "USPS", "operator:type": "public", "operator:website": "https://www.usps.com", "operator:wikidata": "Q668687", "operator:wikipedia": "en:United States Postal Service"}}, {"type": "node", "id": 4381317610, "lat": 47.8418561, "lon": -122.1220453, "tags": {"name": "Clearview RV", "name:en": "Clearview RV", "shop": "car"}}, {"type": "node", "id": 4381317612, "lat": 47.8382232, "lon": -122.1241021, "tags": {"amenity": "bank", "name": "Opus Bank", "name:en": "Opus Bank"}}, {"type": "node", "id": 4381343595, "lat": 47.8372175, "lon": -122.1248195, "tags": {"name": "Chinook Lumber", "name:en": "Chinook Lumber", "shop": "hardware"}}, {"type": "node", "id": 4381343799, "lat": 47.8428727, "lon": -122.12158, "tags": {"name": "Clearview Nursery & Store", "name:en": "Clearview Nursery & Store", "shop": "garden_centre"}}, {"type": "node", "id": 4381346202, "lat": 47.8377303, "lon": -122.1245821, "tags": {"addr:city": "Snohomish", "addr:housenumber": "17422", "addr:postcode": "98296", "addr:state": "WA", "addr:street": "Highway 9 Southeast", "amenity": "fast_food", "brand": "McDonald's", "brand:wikidata": "Q38076", "check_date": "2025-11-07", "cuisine": "burger", "drive_through": "yes", "internet_access": "wlan", "name": "McDonald's", "name:en": "McDonald's", "opening_hours": "06:00-23:00", "phone": "+1-425-482-1608", "takeaway": "yes", "website": "https://www.mcdonalds.com/us/en-us/location/13373.html"}}, {"type": "node", "id": 4381346300, "lat": 47.8380928, "lon": -122.1255422, "tags": {"brand": "O'Reilly Auto Parts", "brand:wikidata": "Q7071951", "check_date": "2022-05-17", "name": "O'Reilly Auto Parts", "name:en": "O'Reilly Auto Parts", "shop": "car_parts", "website": "https://locations.oreillyauto.com/wa/snohomish/autoparts-2931.html"}}, {"type": "node", "id": 4383894816, "lat": 47.8481088, "lon": -122.117106, "tags": {"name": "Crane Financial Group", "office": "company"}}, {"type": "node", "id": 4383894817, "lat": 47.8472538, "lon": -122.118545, "tags": {"amenity": "cafe", "cuisine": "coffee_shop", "name": "Express Java", "takeaway": "yes"}}, {"type": "node", "id": 4383894818, "lat": 47.8479288, "lon": -122.1173018, "tags": {"amenity": "cafe", "cuisine": "coffee_shop", "name": "Shirley's", "takeaway": "yes"}}, {"type": "node", "id": 4383911703, "lat": 47.8473355, "lon": -122.1191527, "tags": {"check_date": "2022-06-06", "shop": "convenience"}}, {"type": "node", "id": 4383911704, "lat": 47.8472637, "lon": -122.118836, "tags": {"amenity": "fuel", "check_date": "2022-06-06", "name": "76"}}, {"type": "node", "id": 4383935087, "lat": 47.8534416, "lon": -122.1154725, "tags": {"name": "Hilltop Automotive", "shop": "car_repair"}}, {"type": "node", "id": 4383935088, "lat": 47.8487258, "lon": -122.1183908, "tags": {"name": "Miidway Service", "shop": "car_repair"}}, {"type": "node", "id": 5180983900, "lat": 47.8471391, "lon": -122.1191606, "tags": {"amenity": "restaurant", "check_date": "2022-06-06", "cuisine": "american", "name": "Cunios"}}, {"type": "node", "id": 6923855168, "lat": 47.8491177, "lon": -122.116356, "tags": {"check_date": "2022-11-28", "name": "Beth Western Country Store", "payment:cash": "yes", "payment:credit_cards": "yes", "payment:debit_cards": "yes", "payment:visa": "yes", "shop": "country_store"}}, {"type": "node", "id": 8994515285, "lat": 47.832905, "lon": -122.127242}, {"type": "node", "id": 8994515286, "lat": 47.8328904, "lon": -122.1271861}, {"type": "node", "id": 8994515287, "lat": 47.8329491, "lon": -122.1271523}, {"type": "node", "id": 8994515288, "lat": 47.8329375, "lon": -122.1271077}, {"type": "node", "id": 8994515289, "lat": 47.8329585, "lon": -122.1270956}, {"type": "node", "id": 8994515290, "lat": 47.8329492, "lon": -122.1270601}, {"type": "node", "id": 8994515291, "lat": 47.8329309, "lon": -122.1270707}, {"type": "node", "id": 8994515292, "lat": 47.8329236, "lon": -122.1270427}, {"type": "node", "id": 8994515293, "lat": 47.8329085, "lon": -122.1270515}, {"type": "node", "id": 8994515294, "lat": 47.8329065, "lon": -122.1270438}, {"type": "node", "id": 8994515295, "lat": 47.8327298, "lon": -122.1271458}, {"type": "node", "id": 8994515296, "lat": 47.8327526, "lon": -122.1272332}, {"type": "node", "id": 8994515297, "lat": 47.8327583, "lon": -122.1272299}, {"type": "node", "id": 8994515298, "lat": 47.8327724, "lon": -122.1272842}, {"type": "node", "id": 8994515299, "lat": 47.8328377, "lon": -122.1272465}, {"type": "node", "id": 8994515300, "lat": 47.8328454, "lon": -122.1272764}, {"type": "node", "id": 8994515305, "lat": 47.8344755, "lon": -122.1267486}, {"type": "node", "id": 8994515306, "lat": 47.8342564, "lon": -122.1268792}, {"type": "node", "id": 8994515307, "lat": 47.8342091, "lon": -122.1267031}, {"type": "node", "id": 8994515308, "lat": 47.8344282, "lon": -122.1265726}, {"type": "node", "id": 8994515309, "lat": 47.8343669, "lon": -122.1266092}, {"type": "node", "id": 8994515310, "lat": 47.8343164, "lon": -122.1264273}, {"type": "node", "id": 8994515311, "lat": 47.8344312, "lon": -122.1263561}, {"type": "node", "id": 8994515312, "lat": 47.8344295, "lon": -122.1262129}, {"type": "node", "id": 8994515313, "lat": 47.8340693, "lon": -122.1264316}, {"type": "node", "id": 8994515314, "lat": 47.8340693, "lon": -122.1265705}, {"type": "node", "id": 8994515315, "lat": 47.834218, "lon": -122.1264829}, {"type": "node", "id": 8994515316, "lat": 47.8342719, "lon": -122.1266657}, {"type": "node", "id": 8994516217, "lat": 47.8342265, "lon": -122.1265117}, {"type": "node", "id": 8994516218, "lat": 47.8343239, "lon": -122.1264542}, {"type": "node", "id": 8994516220, "lat": 47.8342394, "lon": -122.125616}, {"type": "node", "id": 8994516221, "lat": 47.8342146, "lon": -122.1255231}, {"type": "node", "id": 8994516222, "lat": 47.8340876, "lon": -122.1255981}, {"type": "node", "id": 8994516223, "lat": 47.8341123, "lon": -122.125691}, {"type": "node", "id": 8994516224, "lat": 47.8344321, "lon": -122.12527}, {"type": "node", "id": 8994516225, "lat": 47.8344282, "lon": -122.1252212}, {"type": "node", "id": 8994516226, "lat": 47.8344174, "lon": -122.125225}, {"type": "node", "id": 8994516227, "lat": 47.8344097, "lon": -122.125099}, {"type": "node", "id": 8994516228, "lat": 47.8339992, "lon": -122.1251717}, {"type": "node", "id": 8994516229, "lat": 47.8340109, "lon": -122.1253009}, {"type": "node", "id": 8994516230, "lat": 47.834001, "lon": -122.1253028}, {"type": "node", "id": 8994516231, "lat": 47.8340044, "lon": -122.1253472}, {"type": "node", "id": 8994516236, "lat": 47.8333545, "lon": -122.1267657, "tags": {"name": "The Kushery", "shop": "tobacco"}}, {"type": "node", "id": 8994516237, "lat": 47.833321, "lon": -122.1268686, "tags": {"name": "Woodinville Saws & Motors", "shop": "repair"}}, {"type": "node", "id": 8994516341, "lat": 47.8352719, "lon": -122.1257516}, {"type": "node", "id": 8994516342, "lat": 47.8352658, "lon": -122.1257009}, {"type": "node", "id": 8994516343, "lat": 47.8352256, "lon": -122.1257116}, {"type": "node", "id": 8994516344, "lat": 47.8352317, "lon": -122.1257624}, {"type": "node", "id": 8994516345, "lat": 47.8352549, "lon": -122.1247804, "tags": {"name": "Cut & Style", "shop": "hairdresser"}}, {"type": "node", "id": 8994516346, "lat": 47.8352541, "lon": -122.1246738, "tags": {"amenity": "animal_boarding", "animal_boarding": "cat", "name": "Cozy Cat"}}, {"type": "node", "id": 8994516594, "lat": 47.8401965, "lon": -122.1229072}, {"type": "node", "id": 8994516595, "lat": 47.8402446, "lon": -122.1229066}, {"type": "node", "id": 8994516596, "lat": 47.8402449, "lon": -122.1229551}, {"type": "node", "id": 8994516597, "lat": 47.8402513, "lon": -122.122955}, {"type": "node", "id": 8994516598, "lat": 47.8402514, "lon": -122.122974}, {"type": "node", "id": 8994516599, "lat": 47.8402563, "lon": -122.122974}, {"type": "node", "id": 8994516600, "lat": 47.8402565, "lon": -122.1230042}, {"type": "node", "id": 8994516601, "lat": 47.840252, "lon": -122.1230043}, {"type": "node", "id": 8994516602, "lat": 47.8402521, "lon": -122.1230258}, {"type": "node", "id": 8994516603, "lat": 47.8402477, "lon": -122.1230258}, {"type": "node", "id": 8994516604, "lat": 47.8402482, "lon": -122.1230986}, {"type": "node", "id": 8994516605, "lat": 47.8401991, "lon": -122.1230993}, {"type": "node", "id": 8994516606, "lat": 47.8401986, "lon": -122.1230225}, {"type": "node", "id": 8994516607, "lat": 47.840194, "lon": -122.1230225}, {"type": "node", "id": 8994516608, "lat": 47.8401938, "lon": -122.1230044}, {"type": "node", "id": 8994516609, "lat": 47.8401886, "lon": -122.1230044}, {"type": "node", "id": 8994516610, "lat": 47.8401885, "lon": -122.1229792}, {"type": "node", "id": 8994516611, "lat": 47.8401927, "lon": -122.1229792}, {"type": "node", "id": 8994516612, "lat": 47.8401926, "lon": -122.1229572}, {"type": "node", "id": 8994516613, "lat": 47.8401968, "lon": -122.1229571}, {"type": "node", "id": 8994516615, "lat": 47.8411662, "lon": -122.1229696}, {"type": "node", "id": 8994516616, "lat": 47.84118, "lon": -122.1228746}, {"type": "node", "id": 8994516617, "lat": 47.8411624, "lon": -122.1227818}, {"type": "node", "id": 8994516618, "lat": 47.8409618, "lon": -122.1227985}, {"type": "node", "id": 8994516619, "lat": 47.8410267, "lon": -122.1226914}, {"type": "node", "id": 8994516620, "lat": 47.8409745, "lon": -122.122621}, {"type": "node", "id": 8994516621, "lat": 47.840911, "lon": -122.1227163}, {"type": "node", "id": 8994516622, "lat": 47.8409091, "lon": -122.1226197}, {"type": "node", "id": 8994516623, "lat": 47.8408098, "lon": -122.122622}, {"type": "node", "id": 8994516624, "lat": 47.8408178, "lon": -122.1230422}, {"type": "node", "id": 8994516625, "lat": 47.8409174, "lon": -122.1230398}, {"type": "node", "id": 8994516626, "lat": 47.8409167, "lon": -122.122999}, {"type": "node", "id": 8994516627, "lat": 47.8411608, "lon": -122.1229896}, {"type": "node", "id": 8994516628, "lat": 47.8411607, "lon": -122.1229698}, {"type": "node", "id": 8994516629, "lat": 47.84113, "lon": -122.1227905}, {"type": "node", "id": 8994516630, "lat": 47.8411302, "lon": -122.122783}, {"type": "node", "id": 9312759115, "lat": 47.838893, "lon": -122.1247456, "tags": {"amenity": "charging_station"}}, {"type": "node", "id": 9501641937, "lat": 47.8337689, "lon": -122.1420827}, {"type": "node", "id": 9501641938, "lat": 47.8337667, "lon": -122.1419403}, {"type": "node", "id": 9501641939, "lat": 47.8338195, "lon": -122.1419384}, {"type": "node", "id": 9501641940, "lat": 47.8338157, "lon": -122.1416895}, {"type": "node", "id": 9501641941, "lat": 47.8337618, "lon": -122.1416913}, {"type": "node", "id": 9501641942, "lat": 47.8337593, "lon": -122.1415275}, {"type": "node", "id": 9501641943, "lat": 47.8336277, "lon": -122.1415319}, {"type": "node", "id": 9501641944, "lat": 47.8336304, "lon": -122.1417044}, {"type": "node", "id": 9501641945, "lat": 47.833533, "lon": -122.1417077}, {"type": "node", "id": 9501641946, "lat": 47.8335366, "lon": -122.1419435}, {"type": "node", "id": 9501641947, "lat": 47.8336441, "lon": -122.1419398}, {"type": "node", "id": 9501641948, "lat": 47.8336464, "lon": -122.1420869}, {"type": "node", "id": 10226558219, "lat": 47.8342183, "lon": -122.1253086, "tags": {"door": "hinged", "entrance": "main", "material": "glass"}}, {"type": "node", "id": 11026622136, "lat": 47.8562426, "lon": -122.1256553}, {"type": "node", "id": 11026622137, "lat": 47.8562407, "lon": -122.1256433}, {"type": "node", "id": 11026622138, "lat": 47.8562364, "lon": -122.1256327}, {"type": "node", "id": 11026622139, "lat": 47.8561913, "lon": -122.1256516}, {"type": "node", "id": 11026622140, "lat": 47.8561913, "lon": -122.1256646}, {"type": "node", "id": 11026622141, "lat": 47.8561942, "lon": -122.1256768}, {"type": "node", "id": 11026622142, "lat": 47.8561997, "lon": -122.1256869}, {"type": "node", "id": 11026622143, "lat": 47.85623, "lon": -122.1256248}, {"type": "node", "id": 11026622144, "lat": 47.8562222, "lon": -122.1256203}, {"type": "node", "id": 11026622145, "lat": 47.8562139, "lon": -122.1256197}, {"type": "node", "id": 11026622146, "lat": 47.8562059, "lon": -122.1256231}, {"type": "node", "id": 11026622147, "lat": 47.8561991, "lon": -122.12563}, {"type": "node", "id": 11026622148, "lat": 47.856194, "lon": -122.1256399}, {"type": "node", "id": 11026622149, "lat": 47.8562071, "lon": -122.1256938}, {"type": "node", "id": 11026622150, "lat": 47.8562156, "lon": -122.1256966}, {"type": "node", "id": 11026622151, "lat": 47.8562242, "lon": -122.125695}, {"type": "node", "id": 11026622152, "lat": 47.856232, "lon": -122.1256893}, {"type": "node", "id": 11026622153, "lat": 47.8562381, "lon": -122.12568}, {"type": "node", "id": 11026622154, "lat": 47.8562418, "lon": -122.1256682}, {"type": "node", "id": 12689658393, "lat": 47.8377729, "lon": -122.1256219, "tags": {"addr:city": "Snohomish", "addr:housenumber": "17432", "addr:postcode": "98296", "addr:state": "WA", "addr:street": "State Route 9", "addr:unit": "201", "amenity": "doctors", "healthcare": "doctor", "healthcare:speciality": "general", "name": "Providence Clearview Family Medicine", "opening_hours": "Mo-Fr 08:00-17:00"}}, {"type": "node", "id": 13073166097, "lat": 47.8378606, "lon": -122.1256153, "tags": {"addr:city": "Snohomish", "addr:housenumber": "17432", "addr:postcode": "98296", "addr:state": "WA", "addr:street": "State Route 9", "addr:unit": "202", "amenity": "dentist", "healthcare": "dentist", "healthcare:speciality": "dentist", "name": "Mountain View Family Dentistry"}}, {"type": "node", "id": 13269359685, "lat": 47.8377466, "lon": -122.1247242, "tags": {"amenity": "toilets", "check_date": "2025-11-07", "fee": "no", "gender_segregated": "yes", "handwashing:soap": "yes", "toilets:disposal": "flush", "toilets:hands_drying": "electric_hand_dryer", "toilets:handwashing": "yes", "toilets:paper_supplied": "yes", "toilets:position": "seated;urinal"}}, {"type": "way", "id": 971799010, "nodes": [8994515285, 8994515286, 8994515287, 8994515288, 8994515289, 8994515290, 8994515291, 8994515292, 8994515293, 8994515294, 8994515295, 8994515296, 8994515297, 8994515298, 8994515299, 8994515300, 8994515285], "tags": {"amenity": "restaurant", "building": "yes", "check_date": "2025-11-07", "cuisine": "mexican", "name": "Ixpata Mexican Restaurant"}}, {"type": "way", "id": 971799012, "nodes": [8994515305, 8994515306, 8994515307, 8994515316, 8994515309, 8994515308, 8994515305], "tags": {"brand": "Jacksons", "brand:wikidata": "Q64617393", "building": "yes", "check_date": "2025-11-05", "name": "Jacksons", "shop": "convenience"}}, {"type": "way", "id": 971799013, "nodes": [8994515309, 8994516218, 8994515310, 8994515311, 8994515312, 8994515313, 8994515314, 8994515315, 8994516217, 8994515316, 8994515309], "tags": {"amenity": "fuel", "brand": "Shell", "brand:wikidata": "Q110716465", "building": "roof", "check_date": "2025-11-05", "compressed_air": "yes", "name": "Shell"}}, {"type": "way", "id": 971799019, "nodes": [8994516220, 8994516221, 8994516222, 8994516223, 8994516220], "tags": {"amenity": "fuel", "brand": "76", "brand:wikidata": "Q1658320", "building": "roof", "check_date": "2025-11-05", "name": "76"}}, {"type": "way", "id": 971799020, "nodes": [8994516224, 8994516225, 8994516226, 8994516227, 8994516228, 8994516229, 8994516230, 8994516231, 10226558219, 8994516224], "tags": {"building": "yes", "check_date": "2025-11-05", "name": "Clearview Food Mart", "outdoor_seating": "yes", "shop": "convenience"}}, {"type": "way", "id": 971799044, "nodes": [8994516341, 8994516342, 8994516343, 8994516344, 8994516341], "tags": {"amenity": "cafe", "building": "yes"}}, {"type": "way", "id": 971799076, "nodes": [8994516594, 8994516595, 8994516596, 8994516597, 8994516598, 8994516599, 8994516600, 8994516601, 8994516602, 8994516603, 8994516604, 8994516605, 8994516606, 8994516607, 8994516608, 8994516609, 8994516610, 8994516611, 8994516612, 8994516613, 8994516594], "tags": {"amenity": "cafe", "building": "yes", "cuisine": "coffee_shop", "name": "Highmark Espresso", "name:en": "Highmark Espresso"}}, {"type": "way", "id": 971799077, "nodes": [8994516615, 8994516616, 8994516617, 8994516630, 8994516629, 8994516618, 8994516619, 8994516620, 8994516621, 8994516622, 8994516623, 8994516624, 8994516625, 8994516626, 8994516627, 8994516628, 8994516615], "tags": {"amenity": "place_of_worship", "building": "church", "name": "Clearview Foursquare", "religion": "christian"}}, {"type": "way", "id": 1030802844, "nodes": [9501641937, 9501641938, 9501641939, 9501641940, 9501641941, 9501641942, 9501641943, 9501641944, 9501641945, 9501641946, 9501641947, 9501641948, 9501641937], "tags": {"amenity": "place_of_worship", "building": "yes", "name": "Clearview Gospel Hall", "religion": "christian"}}, {"type": "way", "id": 1187437746, "nodes": [11026622149, 11026622150, 11026622151, 11026622152, 11026622153, 11026622154, 11026622136, 11026622137, 11026622138, 11026622143, 11026622144, 11026622145, 11026622146, 11026622147, 11026622148, 11026622139, 11026622140, 11026622141, 11026622142, 11026622149], "tags": {"amenity": "shelter", "building": "yes", "shelter_type": "gazebo"}}]}