{"version": 0.6, "generator": "Overpass API 0.7.62.8 e802775f", "osm3s": {"timestamp_osm_base": "2025-12-06T18:40:41Z", "copyright": "The data included in this document is from www.openstreetmap.org. The data is made available under ODbL."}, "elements": [{"type": "node", "id": 356543216, "lat": 46.9754815, "lon": -118.6177862}, {"type": "node", "id": 3066888510, "lat": 46.9740896, "lon": -118.6188508}, {"type": "node", "id": 3066888523, "lat": 46.9731955, "lon": -118.6189582}, {"type": "node", "id": 3066904233, "lat": 46.9745298, "lon": -118.6171023}, {"type": "node", "id": 3066904265, "lat": 46.9731107, "lon": -118.6172719}, {"type": "node", "id": 3066904276, "lat": 46.9749365, "lon": -118.6178654}, {"type": "node", "id": 3066904334, "lat": 46.9749393, "lon": -118.6179168}, {"type": "node", "id": 3066904337, "lat": 46.9745792, "lon": -118.6179552}, {"type": "node", "id": 3066904340, "lat": 46.9754412, "lon": -118.6170057}, {"type": "node", "id": 3066904383, "lat": 46.9740137, "lon": -118.617174}, {"type": "node", "id": 8344434357, "lat": 46.9712679, "lon": -118.6135493}, {"type": "node", "id": 8344434358, "lat": 46.9716047, "lon": -118.6135144}, {"type": "node", "id": 8344434359, "lat": 46.9716107, "lon": -118.6136395}, {"type": "node", "id": 8344434360, "lat": 46.971274, "lon": -118.6136744}, {"type": "node", "id": 9301825259, "lat": 46.9715561, "lon": -118.5930058}, {"type": "node", "id": 9301825260, "lat": 46.9714383, "lon": -118.5930305}, {"type": "node", "id": 9301825261, "lat": 46.9714678, "lon": -118.5933817}, {"type": "node", "id": 9301825262, "lat": 46.9714152, "lon": -118.593582}, {"type": "node", "id": 9301825263, "lat": 46.9710199, "lon": -118.5936528}, {"type": "node", "id": 9301825264, "lat": 46.9709401, "lon": -118.5935881}, {"type": "node", "id": 9301825265, "lat": 46.970877, "lon": -118.5928025}, {"type": "node", "id": 9301825266, "lat": 46.9709316, "lon": -118.5926823}, {"type": "node", "id": 9301825267, "lat": 46.9713269, "lon": -118.5926176}, {"type": "node", "id": 9301825268, "lat": 46.9714804, "lon": -118.5927408}, {"type": "node", "id": 9301825269, "lat": 46.9715392, "lon": -118.592784}, {"type": "node", "id": 9301825270, "lat": 46.9715331, "lon": -118.6121411}, {"type": "node", "id": 9301825271, "lat": 46.9714406, "lon": -118.6121519}, {"type": "node", "id": 9301825272, "lat": 46.9714354, "lon": -118.6120672}, {"type": "node", "id": 9301825273, "lat": 46.971531, "lon": -118.6120564}, {"type": "node", "id": 9301825278, "lat": 46.9717885, "lon": -118.6161042}, {"type": "node", "id": 9301825279, "lat": 46.9715993, "lon": -118.6161255}, {"type": "node", "id": 9301825280, "lat": 46.9715833, "lon": -118.6158214}, {"type": "node", "id": 9301825281, "lat": 46.9717726, "lon": -118.6158001}, {"type": "node", "id": 9301825284, "lat": 46.9715534, "lon": -118.6157347, "tags": {"name": "Crazy Quilter", "shop": "craft"}}, {"type": "node", "id": 9301825285, "lat": 46.971535, "lon": -118.615737, "tags": {"name": "Birth and Baby", "shop": "baby_goods"}}, {"type": "node", "id": 9301825286, "lat": 46.971466, "lon": -118.6157477, "tags": {"amenity": "social_centre", "name": "Lind Senior Center"}}, {"type": "node", "id": 9301825287, "lat": 46.9713354, "lon": -118.6160458}, {"type": "node", "id": 9301825288, "lat": 46.9712665, "lon": -118.6160528}, {"type": "node", "id": 9301825289, "lat": 46.971257, "lon": -118.6158539}, {"type": "node", "id": 9301825290, "lat": 46.9713259, "lon": -118.6158469}, {"type": "node", "id": 9301825291, "lat": 46.9711735, "lon": -118.6158625}, {"type": "node", "id": 9301825292, "lat": 46.9711811, "lon": -118.6160206}, {"type": "node", "id": 9301825293, "lat": 46.9711145, "lon": -118.6160274}, {"type": "node", "id": 9301825294, "lat": 46.971107, "lon": -118.6158693}, {"type": "node", "id": 9301825295, "lat": 46.972806, "lon": -118.6156561}, {"type": "node", "id": 9301825296, "lat": 46.9728269, "lon": -118.6160897}, {"type": "node", "id": 9301825297, "lat": 46.9726495, "lon": -118.616108}, {"type": "node", "id": 9301825298, "lat": 46.9726449, "lon": -118.6160117}, {"type": "node", "id": 9301825299, "lat": 46.9725829, "lon": -118.6160181}, {"type": "node", "id": 9301825300, "lat": 46.9725879, "lon": -118.6161218}, {"type": "node", "id": 9301825301, "lat": 46.9724392, "lon": -118.6161372}, {"type": "node", "id": 9301825302, "lat": 46.972418, "lon": -118.6156963}, {"type": "node", "id": 9301825303, "lat": 46.972986, "lon": -118.6188174}, {"type": "node", "id": 9301825304, "lat": 46.9729071, "lon": -118.6188256}, {"type": "node", "id": 9301825305, "lat": 46.9729063, "lon": -118.6188022}, {"type": "node", "id": 9301825306, "lat": 46.9727868, "lon": -118.6188127}, {"type": "node", "id": 9301825307, "lat": 46.9727797, "lon": -118.618668}, {"type": "node", "id": 9301825308, "lat": 46.9729, "lon": -118.6186621}, {"type": "node", "id": 9301825309, "lat": 46.9728992, "lon": -118.6186283}, {"type": "node", "id": 9301825310, "lat": 46.9729772, "lon": -118.6186259}, {"type": "node", "id": 9301825311, "lat": 46.9747187, "lon": -118.6137672}, {"type": "node", "id": 9301825312, "lat": 46.974632, "lon": -118.6137779}, {"type": "node", "id": 9301825313, "lat": 46.9746359, "lon": -118.6138454}, {"type": "node", "id": 9301825314, "lat": 46.9743814, "lon": -118.6138767}, {"type": "node", "id": 9301825315, "lat": 46.9743697, "lon": -118.6136735}, {"type": "node", "id": 9301825316, "lat": 46.9747109, "lon": -118.6136315}, {"type": "node", "id": 11932960569, "lat": 46.9716901, "lon": -118.6166156, "tags": {"addr:city": "Lind", "addr:housenumber": "113", "addr:postcode": "99341", "addr:state": "WA", "addr:street": "West 2nd Street", "name": "Jim's Market", "opening_hours": "Mo-Sa 06:00-19:00; Su 09:00-15:00", "phone": "+1-509-677-3581", "shop": "grocery", "website": "https://jims-market-lind.edan.io/"}}, {"type": "node", "id": 12000156236, "lat": 46.9722416, "lon": -118.6167205}, {"type": "node", "id": 12000156237, "lat": 46.9721039, "lon": -118.6167369}, {"type": "node", "id": 12000156238, "lat": 46.9720973, "lon": -118.6166179}, {"type": "node", "id": 12000156239, "lat": 46.972235, "lon": -118.6166015}, {"type": "node", "id": 12000156244, "lat": 46.9718122, "lon": -118.6169002}, {"type": "node", "id": 12000156245, "lat": 46.9718159, "lon": -118.6170488}, {"type": "node", "id": 12000156246, "lat": 46.9718032, "lon": -118.6170495}, {"type": "node", "id": 12000156247, "lat": 46.9718029, "lon": -118.617037}, {"type": "node", "id": 12000156248, "lat": 46.9716681, "lon": -118.6170442}, {"type": "node", "id": 12000156249, "lat": 46.9716676, "lon": -118.6170236}, {"type": "node", "id": 12000156250, "lat": 46.9716422, "lon": -118.617025}, {"type": "node", "id": 12000156251, "lat": 46.9716409, "lon": -118.6169704}, {"type": "node", "id": 12000156252, "lat": 46.9716589, "lon": -118.6169694}, {"type": "node", "id": 12000156253, "lat": 46.9716574, "lon": -118.6169085}, {"type": "node", "id": 12000234773, "lat": 46.9768965, "lon": -118.6170232}, {"type": "node", "id": 12000234774, "lat": 46.9768065, "lon": -118.6170265}, {"type": "node", "id": 12000234775, "lat": 46.976806, "lon": -118.6169942}, {"type": "node", "id": 12000234776, "lat": 46.976896, "lon": -118.6169909}, {"type": "node", "id": 12000234777, "lat": 46.9770344, "lon": -118.6171704}, {"type": "node", "id": 12000234778, "lat": 46.9770385, "lon": -118.6172702}, {"type": "node", "id": 12000234779, "lat": 46.9770197, "lon": -118.6172718}, {"type": "node", "id": 12000234780, "lat": 46.9770156, "lon": -118.617172}, {"type": "node", "id": 12000234785, "lat": 46.9771318, "lon": -118.6187664}, {"type": "node", "id": 12000234786, "lat": 46.9771276, "lon": -118.6188992}, {"type": "node", "id": 12000234787, "lat": 46.9771082, "lon": -118.6188979}, {"type": "node", "id": 12000234788, "lat": 46.9771123, "lon": -118.6187651}, {"type": "node", "id": 12000234789, "lat": 46.9768906, "lon": -118.6192474}, {"type": "node", "id": 12000234790, "lat": 46.9768251, "lon": -118.6192552}, {"type": "node", "id": 12000234791, "lat": 46.9768236, "lon": -118.6192279}, {"type": "node", "id": 12000234792, "lat": 46.976889, "lon": -118.6192201}, {"type": "node", "id": 12152474436, "lat": 46.9720318, "lon": -118.6165921, "tags": {"amenity": "polling_station", "location": "outdoor", "polling_station": "ballot_box"}}, {"type": "way", "id": 302431871, "nodes": [3066888510, 3066904383, 3066904265, 3066888523, 3066888510], "tags": {"amenity": "school", "ele": "420", "gnis:feature_id": "1514801", "name": "Lind Elementary School"}}, {"type": "way", "id": 302431873, "nodes": [356543216, 3066904340, 3066904233, 3066904337, 3066904334, 3066904276, 356543216], "tags": {"amenity": "school", "ele": "435", "gnis:feature_id": "1514797", "name": "Lind Junior-Senior High School"}}, {"type": "way", "id": 897868444, "nodes": [8344434360, 8344434359, 8344434358, 8344434357, 8344434360], "tags": {"building": "yes", "name": "Joe's Body Shop", "shop": "car_repair"}}, {"type": "way", "id": 1008269302, "nodes": [9301825259, 9301825260, 9301825261, 9301825262, 9301825263, 9301825264, 9301825265, 9301825266, 9301825267, 9301825268, 9301825269, 9301825259], "tags": {"amenity": "exhibition_centre", "building": "yes", "description": "Please review!", "name": "Lind Lions Club Arena"}}, {"type": "way", "id": 1008269303, "nodes": [9301825270, 9301825271, 9301825272, 9301825273, 9301825270], "tags": {"building": "yes", "name": "Certified Public Accountants", "office": "accountant"}}, {"type": "way", "id": 1008269305, "nodes": [9301825278, 9301825279, 9301825280, 9301825281, 9301825278], "tags": {"amenity": "restaurant", "building": "yes", "cuisine": "american", "name": "Slim's Bar and Grill"}}, {"type": "way", "id": 1008269307, "nodes": [9301825287, 9301825288, 9301825289, 9301825290, 9301825287], "tags": {"building": "yes", "name": "Winchester Gems", "shop": "jewelry"}}, {"type": "way", "id": 1008269308, "nodes": [9301825292, 9301825293, 9301825294, 9301825291, 9301825292], "tags": {"amenity": "cafe", "building": "yes", "cuisine": "coffee_shop", "name": "Kindra's Coffee Bar"}}, {"type": "way", "id": 1008269309, "nodes": [9301825295, 9301825296, 9301825297, 9301825298, 9301825299, 9301825300, 9301825301, 9301825302, 9301825295], "tags": {"building": "yes", "name": "Wills Variety Store", "shop": "variety_store"}}, {"type": "way", "id": 1008269310, "nodes": [9301825303, 9301825304, 9301825305, 9301825306, 9301825307, 9301825308, 9301825309, 9301825310, 9301825303], "tags": {"amenity": "place_of_worship", "building": "yes", "name": "Assembly of God Church", "religion": "christian"}}, {"type": "way", "id": 1008269311, "nodes": [9301825311, 9301825312, 9301825313, 9301825314, 9301825315, 9301825316, 9301825311], "tags": {"addr:city": "Lind", "addr:housenumber": "114", "addr:postcode": "99341", "addr:state": "WA", "addr:street": "East 5th Street", "amenity": "place_of_worship", "building": "church", "name": "Lind Community Church", "phone": "+1-509-750-5672", "religion": "christian", "website": "https://www.facebook.com/people/Lind-Community-Church-LCC/61559100457833/"}}, {"type": "way", "id": 1294902464, "nodes": [12000156236, 12000156237, 12000156238, 12000156239, 12000156236], "tags": {"addr:city": "Lind", "addr:housenumber": "116 1/2", "addr:postcode": "99341", "addr:state": "WA", "addr:street": "West 2nd Street", "amenity": "townhall", "building": "yes", "name": "Lind Town Hall", "phone": "+1-509-677-3241"}}, {"type": "way", "id": 1294902465, "nodes": [12000156244, 12000156245, 12000156246, 12000156247, 12000156248, 12000156249, 12000156250, 12000156251, 12000156252, 12000156253, 12000156244], "tags": {"addr:city": "Lind", "addr:housenumber": "119", "addr:postcode": "99341", "addr:state": "WA", "addr:street": "West 2nd Street", "amenity": "post_office", "building": "public", "name": "United States Postal Service", "operator": "United States Postal Service", "operator:short": "USPS", "operator:type": "public", "operator:website": "https://www.usps.com", "operator:wikidata": "Q668687", "operator:wikipedia": "en:United States Postal Service", "phone": "+1-800-275-8777", "website": "https://tools.usps.com/locations/details/1370508"}}, {"type": "way", "id": 1294902466, "nodes": [12000234773, 12000234774, 12000234775, 12000234776, 12000234773], "tags": {"amenity": "shelter", "baseball": "dugout", "building": "yes"}}, {"type": "way", "id": 1294902467, "nodes": [12000234777, 12000234778, 12000234779, 12000234780, 12000234777], "tags": {"amenity": "shelter", "baseball": "dugout", "building": "yes"}}, {"type": "way", "id": 1294902469, "nodes": [12000234785, 12000234786, 12000234787, 12000234788, 12000234785], "tags": {"amenity": "shelter", "baseball": "dugout", "building": "yes"}}, {"type": "way", "id": 1294902470, "nodes": [12000234789, 12000234790, 12000234791, 12000234792, 12000234789], "tags": {"amenity": "shelter", "baseball": "dugout", "building": "yes"}}]}