{"version": 0.6, "generator": "Overpass API 0.7.62.8 e802775f", "osm3s": {"timestamp_osm_base": "2025-12-06T04:19:16Z", "copyright": "The data included in this document is from www.openstreetmap.org. The data is made available under ODbL."}, "elements": [{"type": "node", "id": 2165923567, "lat": 48.5537058, "lon": -109.6768959, "tags": {"amenity": "bar", "name": "Vic's"}}, {"type": "node", "id": 2167507816, "lat": 48.5532432, "lon": -109.6786841, "tags": {"name": "Norman's Ranch and Sportswear", "shop": "clothes"}}, {"type": "node", "id": 3005389552, "lat": 48.5537531, "lon": -109.6746154, "tags": {"addr:city": "Havre", "addr:housenumber": "130", "addr:postcode": "59501", "addr:street": "5th Avenue", "name": "Havre Chamber of Commerce", "office": "government"}}, {"type": "node", "id": 3473573473, "lat": 48.5521771, "lon": -109.6689751, "tags": {"amenity": "bar", "name": "Shanty Lounge"}}, {"type": "node", "id": 3473573485, "lat": 48.5515321, "lon": -109.667161, "tags": {"name": "Zip Trip", "shop": "convenience"}}, {"type": "node", "id": 3473573616, "lat": 48.5540828, "lon": -109.677847, "tags": {"addr:housenumber": "15", "addr:street": "3rd Avenue", "amenity": "bar", "name": "PJ's Restaurant & Casino", "opening_hours": "Su-Sa 07:00-21:00 open \"Restaurant\" || Su-Sa 08:00-23:00 open \"Bar\"", "website": "https://pjshavre.com/"}}, {"type": "node", "id": 3474139356, "lat": 48.5536834, "lon": -109.6840366}, {"type": "node", "id": 3474139387, "lat": 48.5538973, "lon": -109.6843915}, {"type": "node", "id": 3474139388, "lat": 48.553718, "lon": -109.6844277}, {"type": "node", "id": 3474141236, "lat": 48.5538627, "lon": -109.6840004}, {"type": "node", "id": 3475277070, "lat": 48.5513597, "lon": -109.675039, "tags": {"amenity": "restaurant", "name": "Taco Treat"}}, {"type": "node", "id": 6592042982, "lat": 48.5526872, "lon": -109.6709051}, {"type": "node", "id": 6592042983, "lat": 48.5525392, "lon": -109.6702956}, {"type": "node", "id": 6592042984, "lat": 48.5523863, "lon": -109.6703803}, {"type": "node", "id": 6592079985, "lat": 48.5523946, "lon": -109.6704145}, {"type": "node", "id": 6592079986, "lat": 48.5518529, "lon": -109.6707146}, {"type": "node", "id": 6592079987, "lat": 48.5519274, "lon": -109.6710218}, {"type": "node", "id": 6592079988, "lat": 48.5519783, "lon": -109.6709936}, {"type": "node", "id": 6592079989, "lat": 48.552044, "lon": -109.6712644}, {"type": "node", "id": 6592079990, "lat": 48.5522558, "lon": -109.6711471}, {"type": "node", "id": 6592079991, "lat": 48.5523059, "lon": -109.6712007}, {"type": "node", "id": 6592079992, "lat": 48.552564, "lon": -109.6710529}, {"type": "node", "id": 6592079993, "lat": 48.5525872, "lon": -109.6709605}, {"type": "node", "id": 6698087285, "lat": 48.5538786, "lon": -109.6828446, "tags": {"addr:housenumber": "4", "addr:street": "1st Street", "amenity": "cafe", "name": "Coffee Hound"}}, {"type": "node", "id": 8262497909, "lat": 48.5537555, "lon": -109.6775069, "tags": {"amenity": "bar", "name": "Shamrock's Bar & Casino"}}, {"type": "node", "id": 8262515032, "lat": 48.5534358, "lon": -109.6788329, "tags": {"amenity": "bar", "name": "Palace Bar"}}, {"type": "node", "id": 8262515049, "lat": 48.5528507, "lon": -109.6787951, "tags": {"amenity": "restaurant", "name": "Wolfer's Diner"}}, {"type": "node", "id": 8262515072, "lat": 48.5526286, "lon": -109.6772801, "tags": {"amenity": "restaurant", "name": "The Pro"}}, {"type": "node", "id": 8262515073, "lat": 48.5537175, "lon": -109.6770144, "tags": {"amenity": "restaurant", "cuisine": "mexican", "name": "Guadalajara Mexican"}}, {"type": "node", "id": 8262515097, "lat": 48.5530706, "lon": -109.6764829, "tags": {"name": "Havre Bicycle Center", "shop": "bicycle"}}, {"type": "node", "id": 8262515108, "lat": 48.5532172, "lon": -109.6759783, "tags": {"name": "Finest Boot Repair", "shop": "shoes"}}, {"type": "node", "id": 8262515168, "lat": 48.5533348, "lon": -109.6812559}, {"type": "node", "id": 8262515169, "lat": 48.5530564, "lon": -109.681314}, {"type": "node", "id": 8262515170, "lat": 48.5530336, "lon": -109.6810645}, {"type": "node", "id": 8262515171, "lat": 48.553312, "lon": -109.6810064}, {"type": "node", "id": 8262515174, "lat": 48.5530553, "lon": -109.6807106, "tags": {"name": "Havre Daily News", "office": "newspaper"}}, {"type": "node", "id": 8262515175, "lat": 48.5531597, "lon": -109.6818281}, {"type": "node", "id": 8262515176, "lat": 48.5531407, "lon": -109.6818321}, {"type": "node", "id": 8262515177, "lat": 48.5531657, "lon": -109.6821061}, {"type": "node", "id": 8262515178, "lat": 48.5530627, "lon": -109.6821271}, {"type": "node", "id": 8262515179, "lat": 48.5530237, "lon": -109.6816901}, {"type": "node", "id": 8262515180, "lat": 48.5531457, "lon": -109.6816651}, {"type": "node", "id": 8262561316, "lat": 48.5536418, "lon": -109.681565, "tags": {"name": "Havre Laundry & Dry Cleaning", "shop": "laundry"}}, {"type": "node", "id": 8262569451, "lat": 48.5544272, "lon": -109.682531, "tags": {"name": "Red's Auto Parts", "shop": "car_parts"}}, {"type": "node", "id": 8262569524, "lat": 48.5547386, "lon": -109.6853406, "tags": {"brand": "Sherwin-Williams", "brand:wikidata": "Q48881", "name": "Sherwin-Williams", "shop": "paint"}}, {"type": "node", "id": 8262569525, "lat": 48.5547533, "lon": -109.6855331, "tags": {"brand": "NAPA Auto Parts", "brand:wikidata": "Q6970842", "name": "NAPA Auto Parts", "shop": "car_parts"}}, {"type": "node", "id": 8262569550, "lat": 48.5540333, "lon": -109.6859647, "tags": {"name": "Town Pump", "shop": "convenience"}}, {"type": "node", "id": 8262569581, "lat": 48.5540233, "lon": -109.6873817}, {"type": "node", "id": 8262569582, "lat": 48.5539879, "lon": -109.6873893}, {"type": "node", "id": 8262569583, "lat": 48.5539497, "lon": -109.6869849}, {"type": "node", "id": 8262569584, "lat": 48.5540619, "lon": -109.6869607}, {"type": "node", "id": 8262569585, "lat": 48.5540937, "lon": -109.6872969}, {"type": "node", "id": 8262569586, "lat": 48.5540169, "lon": -109.6873135}, {"type": "node", "id": 8262569597, "lat": 48.5547291, "lon": -109.686827, "tags": {"name": "Tire-Rama", "shop": "tyres"}}, {"type": "node", "id": 8262661855, "lat": 48.5525251, "lon": -109.6793425}, {"type": "node", "id": 8262661856, "lat": 48.5521437, "lon": -109.6794214}, {"type": "node", "id": 8262661857, "lat": 48.5520843, "lon": -109.6787685}, {"type": "node", "id": 8262661858, "lat": 48.552467, "lon": -109.6786904}, {"type": "node", "id": 8262661861, "lat": 48.5522554, "lon": -109.6796407, "tags": {"name": "Office Equipment Co", "shop": "stationery"}}, {"type": "node", "id": 8262661862, "lat": 48.5527759, "lon": -109.6788033, "tags": {"name": "Havre Computer Store", "shop": "computer"}}, {"type": "node", "id": 8262661885, "lat": 48.5523499, "lon": -109.6782442, "tags": {"name": "Montana Country Boutique", "shop": "clothes"}}, {"type": "node", "id": 8262661886, "lat": 48.5523204, "lon": -109.6779616, "tags": {"name": "Havre Hardware and Home", "shop": "hardware"}}, {"type": "node", "id": 8262661887, "lat": 48.5521529, "lon": -109.6783016, "tags": {"name": "Heirloom Jewelers", "shop": "jewelry"}}, {"type": "node", "id": 8262661889, "lat": 48.5516986, "lon": -109.6773771, "tags": {"name": "Henny Penny's Cupcakes", "shop": "bakery"}}, {"type": "node", "id": 8262661890, "lat": 48.5516595, "lon": -109.6778112, "tags": {"name": "Cavaliers for Men & Women", "shop": "clothes"}}, {"type": "node", "id": 8262662204, "lat": 48.5512333, "lon": -109.6780167, "tags": {"name": "Bing N' Bob's Sport Shop", "shop": "sports"}}, {"type": "node", "id": 8262662205, "lat": 48.5511857, "lon": -109.6785513, "tags": {"name": "Infinity Bake Shop", "shop": "bakery"}}, {"type": "node", "id": 8262662217, "lat": 48.5512482, "lon": -109.6791155, "tags": {"name": "United States Historic Post Office and Courthouse", "office": "government"}}, {"type": "node", "id": 8262662228, "lat": 48.5512775, "lon": -109.6796737, "tags": {"name": "Holland & Bonine Funeral Home", "shop": "funeral_directors"}}, {"type": "node", "id": 8262662417, "lat": 48.5519964, "lon": -109.6749617, "tags": {"name": "McLean's Grocery", "shop": "supermarket"}}, {"type": "node", "id": 8262662496, "lat": 48.5528686, "lon": -109.672616, "tags": {"amenity": "restaurant", "name": "Char's Family Dining"}}, {"type": "node", "id": 8262810190, "lat": 48.5514025, "lon": -109.6639093, "tags": {"amenity": "restaurant", "name": "Duck Inn"}}, {"type": "node", "id": 8262810199, "lat": 48.5522447, "lon": -109.6627324, "tags": {"name": "Emporium Food & Fuel Store", "shop": "convenience"}}, {"type": "node", "id": 8262843959, "lat": 48.5481971, "lon": -109.6766054, "tags": {"name": "Havre School District 16A", "office": "yes"}}, {"type": "node", "id": 10753157279, "lat": 48.5523532, "lon": -109.672369, "tags": {"addr:city": "Havre", "addr:housenumber": "631", "addr:postcode": "59501", "addr:state": "MT", "addr:street": "2nd Street", "addr:unit": "B", "image": "https://live.staticflickr.com/65535/52769512871_0c128fb27c_b.jpg", "name": "Affordable Bail Bonds & Monitoring of Montan", "office": "bail_bond_agent", "opening_hours": "24/7", "phone": "+1 406-399-0054", "smoking": "no", "website": "https://letsbail.com/"}}, {"type": "node", "id": 10753157280, "lat": 48.5521632, "lon": -109.6723965, "tags": {"addr:city": "Havre", "addr:housenumber": "631", "addr:state": "MT", "addr:street": "2nd Street", "name": "Affordable Tree, Lawn & Fence of Montana", "office": "lawyer"}}, {"type": "way", "id": 340205271, "nodes": [3474139387, 3474141236, 3474139356, 3474139388, 3474139387], "tags": {"brand": "O'Reilly Auto Parts", "brand:wikidata": "Q7071951", "building": "yes", "name": "O'Reilly Auto Parts", "shop": "car_parts", "website": "https://locations.oreillyauto.com/mt/havre/autoparts-3152.html"}}, {"type": "way", "id": 701952552, "nodes": [6592042982, 6592042983, 6592042984, 6592079985, 6592079986, 6592079987, 6592079988, 6592079989, 6592079990, 6592079991, 6592079992, 6592079993, 6592042982], "tags": {"addr:city": "Havre", "addr:housenumber": "730", "addr:postcode": "59501", "addr:state": "MT", "addr:street": "1st Street", "brand:wikidata": "Q3146662", "building": "yes", "name": "Gary and Leo's Fresh Foods IGA", "opening_hours": "05:00-24:00; Dec 25 off", "phone": "+1 406-252-4798", "shop": "supermarket", "website": "https://www.garyandleos.com"}}, {"type": "way", "id": 888717557, "nodes": [8262515168, 8262515169, 8262515170, 8262515171, 8262515168], "tags": {"brand": "Carquest", "brand:wikidata": "Q5045948", "building": "yes", "name": "Carquest", "official_name": "Carquest Auto Parts", "shop": "car_parts"}}, {"type": "way", "id": 888717559, "nodes": [8262515175, 8262515176, 8262515177, 8262515178, 8262515179, 8262515180, 8262515175], "tags": {"building": "yes", "name": "Job Service of Havre", "office": "employment_agency", "source": "microsoft/BuildingFootprints"}}, {"type": "way", "id": 888722293, "nodes": [8262569581, 8262569582, 8262569583, 8262569584, 8262569585, 8262569586, 8262569581], "tags": {"addr:city": "Havre", "addr:housenumber": "200", "addr:state": "MT", "addr:street": "1st Street West", "building": "yes", "name": "Holiday Stationstores", "shop": "convenience"}}, {"type": "way", "id": 888732548, "nodes": [8262661855, 8262661856, 8262661857, 8262661858, 8262661855], "tags": {"building": "yes", "name": "The Atrium", "shop": "mall"}}]}