{"version": 0.6, "generator": "Overpass API 0.7.62.8 e802775f", "osm3s": {"timestamp_osm_base": "2025-12-13T00:27:11Z", "copyright": "The data included in this document is from www.openstreetmap.org. The data is made available under ODbL."}, "elements": [{"type": "node", "id": 3466889421, "lat": 37.1732846, "lon": -105.9363604}, {"type": "node", "id": 3466889422, "lat": 37.1732869, "lon": -105.9365462}, {"type": "node", "id": 3466889425, "lat": 37.1733426, "lon": -105.9346668}, {"type": "node", "id": 3466889426, "lat": 37.1733431, "lon": -105.9345175}, {"type": "node", "id": 3466889427, "lat": 37.1734142, "lon": -105.9365438}, {"type": "node", "id": 3466889428, "lat": 37.1734142, "lon": -105.9365486}, {"type": "node", "id": 3466889429, "lat": 37.1734196, "lon": -105.9363578}, {"type": "node", "id": 3466889430, "lat": 37.1734197, "lon": -105.9363651}, {"type": "node", "id": 3466889433, "lat": 37.1734525, "lon": -105.9346674}, {"type": "node", "id": 3466889434, "lat": 37.1734525, "lon": -105.9346823}, {"type": "node", "id": 3466889445, "lat": 37.173548, "lon": -105.9348925}, {"type": "node", "id": 3466889446, "lat": 37.1735485, "lon": -105.9347632}, {"type": "node", "id": 3466889453, "lat": 37.1736293, "lon": -105.9346834}, {"type": "node", "id": 3466889454, "lat": 37.1736294, "lon": -105.9346478}, {"type": "node", "id": 3466889455, "lat": 37.1736296, "lon": -105.9345942}, {"type": "node", "id": 3466889456, "lat": 37.1736299, "lon": -105.9345192}, {"type": "node", "id": 3466889457, "lat": 37.1736329, "lon": -105.9346478}, {"type": "node", "id": 3466889458, "lat": 37.1736331, "lon": -105.9345942}, {"type": "node", "id": 3466889462, "lat": 37.173688, "lon": -105.93636}, {"type": "node", "id": 3466889464, "lat": 37.1736902, "lon": -105.9365433}, {"type": "node", "id": 3466889465, "lat": 37.173695, "lon": -105.9348934}, {"type": "node", "id": 3466889466, "lat": 37.1736952, "lon": -105.9348396}, {"type": "node", "id": 3466889467, "lat": 37.1736986, "lon": -105.9348396}, {"type": "node", "id": 3466889468, "lat": 37.1736989, "lon": -105.934764}, {"type": "node", "id": 6415465492, "lat": 37.1739681, "lon": -105.9302348}, {"type": "node", "id": 6415465493, "lat": 37.1739681, "lon": -105.9299035}, {"type": "node", "id": 6415465494, "lat": 37.1743292, "lon": -105.929921}, {"type": "node", "id": 6415465495, "lat": 37.1743175, "lon": -105.9302375}, {"type": "node", "id": 6415465514, "lat": 37.1739403, "lon": -105.9306343}, {"type": "node", "id": 6415465515, "lat": 37.173923, "lon": -105.928738}, {"type": "node", "id": 6415465516, "lat": 37.1746519, "lon": -105.9287276}, {"type": "node", "id": 6415465517, "lat": 37.1746692, "lon": -105.9306238}, {"type": "node", "id": 12918949380, "lat": 37.172585, "lon": -105.9383503}, {"type": "node", "id": 12918949381, "lat": 37.1725877, "lon": -105.9374163}, {"type": "node", "id": 12918949382, "lat": 37.1709498, "lon": -105.9374086}, {"type": "node", "id": 12918949383, "lat": 37.170947, "lon": -105.9383429}, {"type": "node", "id": 12918949385, "lat": 37.1739732, "lon": -105.9352948}, {"type": "node", "id": 12918949386, "lat": 37.1739709, "lon": -105.9354217}, {"type": "node", "id": 12918949387, "lat": 37.1741025, "lon": -105.9354254}, {"type": "node", "id": 12918949388, "lat": 37.1741048, "lon": -105.9352985}, {"type": "node", "id": 12918949402, "lat": 37.1735316, "lon": -105.9370132, "tags": {"addr:city": "Manassa", "addr:housenumber": "418", "addr:postcode": "81141", "addr:state": "CO", "addr:street": "Main Street", "name": "Standard Service", "shop": "convenience"}}, {"type": "node", "id": 12918949403, "lat": 37.1739955, "lon": -105.9362371}, {"type": "node", "id": 12918949404, "lat": 37.1741127, "lon": -105.9362397}, {"type": "node", "id": 12918949405, "lat": 37.1741109, "lon": -105.9363623}, {"type": "node", "id": 12918949406, "lat": 37.1739937, "lon": -105.9363596}, {"type": "node", "id": 12918949407, "lat": 37.1735589, "lon": -105.9368048, "tags": {"addr:city": "Manassa", "addr:housenumber": "418", "addr:postcode": "81141", "addr:state": "CO", "addr:street": "Main Street", "amenity": "fuel", "name": "Standard Service"}}, {"type": "node", "id": 12918949409, "lat": 37.1739704, "lon": -105.9331089}, {"type": "node", "id": 12918949410, "lat": 37.1739807, "lon": -105.9349097}, {"type": "node", "id": 12918949411, "lat": 37.1754283, "lon": -105.9348967}, {"type": "node", "id": 12918949412, "lat": 37.1754181, "lon": -105.933096}, {"type": "way", "id": 339485373, "nodes": [3466889453, 3466889454, 3466889457, 3466889458, 3466889455, 3466889456, 3466889426, 3466889425, 3466889433, 3466889434, 3466889453], "tags": {"addr:city": "Manassa", "addr:country": "US", "addr:housenumber": "316", "addr:postcode": "81141", "addr:state": "CO", "addr:street": "Main Street", "amenity": "fire_station", "building": "fire_station", "capacity": "3", "name": "Manassa Fire Station"}}, {"type": "way", "id": 339485384, "nodes": [3466889465, 3466889466, 3466889467, 3466889468, 3466889446, 3466889445, 3466889465], "tags": {"addr:city": "Manassa", "addr:country": "US", "addr:housenumber": "318", "addr:postcode": "81141", "addr:state": "CO", "addr:street": "Main Street", "building": "yes", "name": "Conejos Water Conservation District Office", "office": "government"}}, {"type": "way", "id": 339485385, "nodes": [3466889464, 3466889462, 3466889430, 3466889429, 3466889421, 3466889422, 3466889427, 3466889428, 3466889464], "tags": {"addr:city": "Manassa", "addr:country": "US", "addr:housenumber": "414", "addr:state": "CO", "addr:street": "Main Street", "building": "yes", "name": "Conejos County Shop", "office": "government"}}, {"type": "way", "id": 684698625, "nodes": [6415465495, 6415465494, 6415465493, 6415465492, 6415465495], "tags": {"amenity": "parking"}}, {"type": "way", "id": 684698628, "nodes": [6415465517, 6415465516, 6415465515, 6415465514, 6415465517], "tags": {"addr:city": "Manassa", "addr:country": "US", "addr:housenumber": "115", "addr:postcode": "81141", "addr:state": "CO", "addr:street": "Main Street", "amenity": "place_of_worship", "denomination": "roman_catholic", "description": "A mission of Saint Joseph Catholic Church in Capulin, CO", "description_1": "Mail goes to:P.O. Box 40 Capulin, CO 81124-0040", "name": "Saint Therese of the Child Jesus Catholic Mission", "phone": "+1 719-274-5304", "religion": "christian", "wikimedia_commons": "File:St Therese of the Child Jesus - Manassa, Colorado, 2016.jpg"}}, {"type": "way", "id": 1395680434, "nodes": [12918949380, 12918949381, 12918949382, 12918949383, 12918949380], "tags": {"addr:city": "Manassa", "addr:housenumber": "200", "addr:postcode": "81141", "addr:state": "CO", "addr:street": "South 5th Street", "amenity": "school", "grades": "1-6", "name": "Manassa Elementary School"}}, {"type": "way", "id": 1395680435, "nodes": [12918949385, 12918949386, 12918949387, 12918949388, 12918949385], "tags": {"addr:city": "Manassa", "addr:housenumber": "401", "addr:postcode": "81141", "addr:state": "CO", "addr:street": "Main Street", "amenity": "townhall", "building": "yes", "name": "Manassa Town Hall"}}, {"type": "way", "id": 1395680439, "nodes": [12918949403, 12918949404, 12918949405, 12918949406, 12918949403], "tags": {"addr:city": "Manassa", "addr:housenumber": "413", "addr:postcode": "81141", "addr:state": "CO", "addr:street": "Main Street", "amenity": "post_office", "building": "yes", "name": "Manassa Post Office"}}, {"type": "way", "id": 1395680440, "nodes": [12918949409, 12918949410, 12918949411, 12918949412, 12918949409], "tags": {"addr:city": "Manassa", "addr:housenumber": "311", "addr:postcode": "81141", "addr:state": "CO", "addr:street": "Main Street", "amenity": "place_of_worship", "building": "no", "denomination": "mormon", "name": "The Church of Jesus Christ of Latter-day Saints", "religion": "christian"}}]}