{"version": 0.6, "generator": "Overpass API 0.7.62.8 e802775f", "osm3s": {"timestamp_osm_base": "2025-12-12T18:21:51Z", "copyright": "The data included in this document is from www.openstreetmap.org. The data is made available under ODbL."}, "elements": [{"type": "node", "id": 358913764, "lat": 37.3380495, "lon": -108.5950933, "tags": {"amenity": "school", "ele": "1874", "gnis:feature_id": "179045", "name": "Mesa School"}}, {"type": "node", "id": 358913768, "lat": 37.3441606, "lon": -108.5806485, "tags": {"amenity": "school", "ele": "1876", "gnis:feature_id": "179046", "name": "Manaugh School"}}, {"type": "node", "id": 358945511, "lat": 37.3416605, "lon": -108.5964823, "tags": {"amenity": "school", "ele": "1873", "gnis:feature_id": "1794954", "name": "Mesa Elementary School"}}, {"type": "node", "id": 358945517, "lat": 37.3447161, "lon": -108.5814818, "tags": {"amenity": "school", "ele": "1878", "gnis:feature_id": "1794956", "name": "Manaugh Elementary School"}}, {"type": "node", "id": 358945521, "lat": 37.3449939, "lon": -108.5814818, "tags": {"amenity": "place_of_worship", "denomination": "presbyterian", "ele": "1878", "gnis:feature_id": "1794957", "name": "Montezuma Valley Presbyterian Church", "religion": "christian"}}, {"type": "node", "id": 358946215, "lat": 37.3488827, "lon": -108.5856487, "tags": {"amenity": "school", "ele": "1887", "gnis:feature_id": "1795392", "name": "University of Colorado Center"}}, {"type": "node", "id": 1425898097, "lat": 37.3478205, "lon": -108.5841399, "tags": {"amenity": "post_office", "wheelchair": "yes"}}, {"type": "node", "id": 1860573325, "lat": 37.348394, "lon": -108.581861, "tags": {"drive_through": "yes"}}, {"type": "node", "id": 3213001762, "lat": 37.3484244, "lon": -108.5846644, "tags": {"addr:city": "Cortez", "addr:housenumber": "21", "addr:state": "CO", "addr:street": "US 491", "amenity": "restaurant", "brewery": "Main Street Brewery & Restaurant", "microbrewery": "yes", "name": "Main Street Brewery & Restaurant", "phone": "+1-970-564-9112", "postal_code": "81321", "website": "http://www.mainstreetbrewerycortez.com"}}, {"type": "node", "id": 3373670124, "lat": 37.334188, "lon": -108.5937175}, {"type": "node", "id": 3373670125, "lat": 37.3341704, "lon": -108.59323}, {"type": "node", "id": 3373670126, "lat": 37.3340713, "lon": -108.5932286}, {"type": "node", "id": 3373670127, "lat": 37.3340531, "lon": -108.5932353}, {"type": "node", "id": 3373670128, "lat": 37.3340435, "lon": -108.5932508}, {"type": "node", "id": 3373670129, "lat": 37.3340345, "lon": -108.5932675}, {"type": "node", "id": 3373670130, "lat": 37.3340147, "lon": -108.5937134}, {"type": "node", "id": 3373697666, "lat": 37.3313377, "lon": -108.5978856, "tags": {"amenity": "toilets"}}, {"type": "node", "id": 3373706352, "lat": 37.3326813, "lon": -108.5951471, "tags": {"amenity": "theatre", "name": "Claret Cup Amphitheater"}}, {"type": "node", "id": 3375015230, "lat": 37.3424111, "lon": -108.5872635}, {"type": "node", "id": 3375015231, "lat": 37.3424155, "lon": -108.5870435}, {"type": "node", "id": 3375015232, "lat": 37.3417785, "lon": -108.5870233}, {"type": "node", "id": 3375088821, "lat": 37.3492061, "lon": -108.5784117}, {"type": "node", "id": 3375088822, "lat": 37.3488671, "lon": -108.5784016}, {"type": "node", "id": 3375088823, "lat": 37.3488656, "lon": -108.5784835}, {"type": "node", "id": 3375088824, "lat": 37.3492045, "lon": -108.5784936}, {"type": "node", "id": 3375088825, "lat": 37.3507138, "lon": -108.5778905}, {"type": "node", "id": 3375088826, "lat": 37.3503283, "lon": -108.5778823}, {"type": "node", "id": 3375088827, "lat": 37.3503363, "lon": -108.577293}, {"type": "node", "id": 3375088828, "lat": 37.3500731, "lon": -108.5772873}, {"type": "node", "id": 3375088829, "lat": 37.3500618, "lon": -108.5781211}, {"type": "node", "id": 3375088830, "lat": 37.3497164, "lon": -108.5782552}, {"type": "node", "id": 3375088831, "lat": 37.349099, "lon": -108.578242}, {"type": "node", "id": 3375088832, "lat": 37.3491125, "lon": -108.577243}, {"type": "node", "id": 3375088833, "lat": 37.3495937, "lon": -108.5772532}, {"type": "node", "id": 3375088834, "lat": 37.3496079, "lon": -108.5762038}, {"type": "node", "id": 3375088835, "lat": 37.3493048, "lon": -108.5761973}, {"type": "node", "id": 3375088836, "lat": 37.3493016, "lon": -108.5764353}, {"type": "node", "id": 3375088837, "lat": 37.3488596, "lon": -108.5764258}, {"type": "node", "id": 3375088838, "lat": 37.3488343, "lon": -108.5783017}, {"type": "node", "id": 3375088839, "lat": 37.3492584, "lon": -108.5783107}, {"type": "node", "id": 3375088840, "lat": 37.3492546, "lon": -108.5785909}, {"type": "node", "id": 3375088841, "lat": 37.3507039, "lon": -108.5786219}, {"type": "node", "id": 3375103643, "lat": 37.3466374, "lon": -108.5900207, "tags": {"amenity": "place_of_worship", "name": "Faith Bible Church", "religion": "christian"}}, {"type": "node", "id": 3444294913, "lat": 37.3428162, "lon": -108.587262}, {"type": "node", "id": 3444294916, "lat": 37.3428268, "lon": -108.5864815}, {"type": "node", "id": 3444294917, "lat": 37.3416156, "lon": -108.5864412}, {"type": "node", "id": 3444294925, "lat": 37.3416028, "lon": -108.5870206}, {"type": "node", "id": 4331310199, "lat": 37.3490192, "lon": -108.579633, "tags": {"addr:housenumber": "400", "addr:street": "East Main Street", "amenity": "restaurant", "cuisine": "american;burger;mexican", "name": "Burger Boy's Drive In", "opening_hours": "Mo-Fr 07:00-19:00; Sa 10:30-18:00", "phone": "+1-970-565-7921", "postal_code": "81321"}}, {"type": "node", "id": 7015025522, "lat": 37.3484734, "lon": -108.5860672}, {"type": "node", "id": 7015025523, "lat": 37.3481069, "lon": -108.5860648}, {"type": "node", "id": 7015025524, "lat": 37.3481079, "lon": -108.5858252}, {"type": "node", "id": 7015025525, "lat": 37.3484743, "lon": -108.5858275}, {"type": "node", "id": 7165183664, "lat": 37.341576, "lon": -108.597779, "tags": {"addr:housenumber": "690", "addr:street": "South Broadway", "shop": "car_repair"}}, {"type": "node", "id": 7165234490, "lat": 37.3442473, "lon": -108.5958955, "tags": {"addr:city": "Cortez", "addr:housenumber": "436", "addr:postcode": "81321", "addr:state": "CO", "addr:street": "South Broadway", "amenity": "fast_food", "brand": "Sonic", "brand:wikidata": "Q7561808", "cuisine": "burger", "drive_in": "yes", "name": "Sonic", "opening_hours": "07:30-21:00", "phone": "+1 970-565-3102", "takeaway": "yes", "website": "https://locations.sonicdrivein.com/co/cortez/436-s.-broadway.html"}}, {"type": "node", "id": 7165239650, "lat": 37.3490438, "lon": -108.5809777, "tags": {"addr:city": "Cortez", "addr:country": "US", "addr:housenumber": "300", "addr:postcode": "81321", "addr:state": "CO", "addr:street": "East Main Street", "amenity": "restaurant", "cuisine": "chinese", "name": "Ocean Pearl", "website": "https://oceanpearlco.com"}}, {"type": "node", "id": 7165239891, "lat": 37.348428, "lon": -108.588077, "tags": {"addr:housenumber": "209", "addr:street": "West Main Street", "brand": "Rent-A-Center", "brand:wikidata": "Q7313497", "name": "Rent-A-Center", "shop": "furniture"}}, {"type": "node", "id": 7165239901, "lat": 37.3483806, "lon": -108.584883, "tags": {"addr:housenumber": "1", "addr:street": "East Main Street", "brand": "Sears", "brand:wikidata": "Q6499202", "name": "Sears", "shop": "department_store"}}, {"type": "node", "id": 7165240262, "lat": 37.3487896, "lon": -108.5856715, "tags": {"addr:city": "Cortez", "addr:country": "US", "addr:housenumber": "16", "addr:state": "CO", "addr:street": "West Main Street", "amenity": "restaurant", "cuisine": "sushi", "name": "Stonefish Sushi", "website": "https://www.stonefishsushi.com"}}, {"type": "node", "id": 7183043298, "lat": 37.3449478, "lon": -108.595245, "tags": {"addr:housenumber": "324", "addr:street": "South Broadway", "brand": "Family Dollar", "brand:wikidata": "Q5433101", "name": "Family Dollar", "shop": "variety_store"}}, {"type": "node", "id": 7183046106, "lat": 37.3483105, "lon": -108.5868784, "tags": {"addr:housenumber": "109", "addr:street": "West Main Street", "name": "County Administration", "office": "government"}}, {"type": "node", "id": 7183046130, "lat": 37.3487439, "lon": -108.585411, "tags": {"addr:city": "Cortez", "addr:housenumber": "2", "addr:postcode": "81321", "addr:state": "CO", "addr:street": "West Main Street", "air_conditioning": "yes", "alt_name": "Loungin Lizard", "amenity": "restaurant", "bar": "yes", "cuisine": "regional", "diet:gluten_free": "yes", "diet:vegetarian": "yes", "name": "Loungin' Lizard", "outdoor_seating": "yes", "phone": "+1-970-516-1998", "website": "https://www.lounginlizardcortez.com"}}, {"type": "node", "id": 7183046404, "lat": 37.3491536, "lon": -108.5789113, "tags": {"addr:city": "Cortez", "addr:housenumber": "17", "addr:postcode": "81321", "addr:state": "CO", "addr:street": "Harrison", "name": "The Pie Maker", "shop": "bakery", "website": "https://piemakerbakery.square.site/"}}, {"type": "node", "id": 7183046824, "lat": 37.343, "lon": -108.596916}, {"type": "node", "id": 7183047334, "lat": 37.3393591, "lon": -108.599595, "tags": {"addr:housenumber": "804", "addr:street": "South Broadway", "name": "Quality Appliance", "shop": "appliance"}}, {"type": "node", "id": 7265266472, "lat": 37.343, "lon": -108.596605}, {"type": "node", "id": 7265266473, "lat": 37.342884, "lon": -108.596605}, {"type": "node", "id": 7265266474, "lat": 37.342884, "lon": -108.596916}, {"type": "node", "id": 7265281482, "lat": 37.344162, "lon": -108.580823}, {"type": "node", "id": 7265281483, "lat": 37.344161, "lon": -108.580924}, {"type": "node", "id": 7265281485, "lat": 37.344067, "lon": -108.580922}, {"type": "node", "id": 7265281489, "lat": 37.344063, "lon": -108.581268}, {"type": "node", "id": 7265285417, "lat": 37.349043, "lon": -108.586083}, {"type": "node", "id": 7265296971, "lat": 37.348286, "lon": -108.581861}, {"type": "node", "id": 7265296972, "lat": 37.348286, "lon": -108.581585}, {"type": "node", "id": 7265296973, "lat": 37.348394, "lon": -108.581585}, {"type": "node", "id": 7265302446, "lat": 37.348905, "lon": -108.57941}, {"type": "node", "id": 7265302452, "lat": 37.349208, "lon": -108.579413}, {"type": "node", "id": 7265302453, "lat": 37.349177, "lon": -108.579244}, {"type": "node", "id": 7265302454, "lat": 37.349209, "lon": -108.579245}, {"type": "node", "id": 7265302455, "lat": 37.348835, "lon": -108.579135}, {"type": "node", "id": 7265302456, "lat": 37.349178, "lon": -108.57914}, {"type": "node", "id": 7265302457, "lat": 37.348906, "lon": -108.579329}, {"type": "node", "id": 7265302458, "lat": 37.348834, "lon": -108.579329}, {"type": "node", "id": 7695388842, "lat": 37.3487768, "lon": -108.5862744, "tags": {"addr:city": "Cortez", "addr:housenumber": "44", "addr:state": "CO", "addr:street": "West Main Street", "amenity": "restaurant", "name": "The Wigglin\u2019 Pig"}}, {"type": "node", "id": 8248436616, "lat": 37.3478245, "lon": -108.5790567, "tags": {"addr:city": "Cortez", "addr:housenumber": "21", "addr:postcode": "81321", "addr:state": "CO", "addr:street": "South Harrison Street", "amenity": "car_wash", "name": "First Street Car Wash", "opening_hours": "24/7", "payment:coins": "yes", "self_service": "yes"}}, {"type": "node", "id": 8248477717, "lat": 37.34839, "lon": -108.5796361, "tags": {"addr:city": "Cortez", "addr:housenumber": "405", "addr:postcode": "81321", "addr:state": "CO", "addr:street": "East Main Street", "amenity": "car_wash", "name": "Aqua Car Wash", "self_service": "yes"}}, {"type": "node", "id": 8248477718, "lat": 37.34839, "lon": -108.579083, "tags": {"addr:city": "Cortez", "addr:housenumber": "439", "addr:postcode": "81321", "addr:state": "CO", "addr:street": "East Main Street", "amenity": "restaurant", "cuisine": "italian;pizza", "name": "Lotsa Pasta That'za Pizza", "opening_hours": "Tu-Sa 15:00-22:00", "phone": "+1-970-565-8500", "website": "http://lotsapastaandthatzapizza.com/"}}, {"type": "node", "id": 9029594618, "lat": 37.3487386, "lon": -108.5861237, "tags": {"access": "customers", "door": "yes", "entrance": "main"}}, {"type": "node", "id": 9029594619, "lat": 37.349042, "lon": -108.5861566}, {"type": "node", "id": 9029594620, "lat": 37.3487385, "lon": -108.5861552}, {"type": "node", "id": 9029594621, "lat": 37.3487387, "lon": -108.5860799}, {"type": "node", "id": 12003572836, "lat": 37.3488192, "lon": -108.5855808, "tags": {"addr:city": "Cortez", "addr:country": "US", "addr:housenumber": "10", "addr:postcode": "81321", "addr:state": "CO", "addr:street": "West Main Street", "addr:unit": "102", "contact:email": "general@scyclistens.org", "contact:facebook": "https://www.facebook.com/scyclistens", "name": "School Community Youth Collaborative", "office": "association", "phone": "+1-970-480-7293", "website": "https://www.scyclistens.org/"}}, {"type": "node", "id": 12158306301, "lat": 37.3489147, "lon": -108.5806842, "tags": {"addr:housenumber": "318", "addr:postcode": "81321", "addr:street": "East Main Street", "internet_access": "wlan", "name": "Loops Coffee House & Bistro", "opening_hours": "Mo-Sa 07:00-13:00; Su 07:00-13:00", "outdoor_seating": "no", "phone": "+1-970-676-4250", "shop": "coffee"}}, {"type": "node", "id": 12264883014, "lat": 37.3440928, "lon": -108.5813635}, {"type": "node", "id": 12264883015, "lat": 37.3439686, "lon": -108.5812442}, {"type": "node", "id": 12264883016, "lat": 37.3435026, "lon": -108.5812425}, {"type": "node", "id": 12264883017, "lat": 37.3434929, "lon": -108.5808353}, {"type": "node", "id": 12264883018, "lat": 37.3436561, "lon": -108.5808441}, {"type": "node", "id": 12264883019, "lat": 37.3436576, "lon": -108.5808133}, {"type": "node", "id": 12264883020, "lat": 37.3440957, "lon": -108.5812687}, {"type": "node", "id": 12264883021, "lat": 37.3440956, "lon": -108.5813197}, {"type": "node", "id": 12272767323, "lat": 37.3401817, "lon": -108.578973}, {"type": "node", "id": 12272767324, "lat": 37.3400721, "lon": -108.5787467}, {"type": "node", "id": 12272767325, "lat": 37.3399261, "lon": -108.5788586}, {"type": "node", "id": 12272767326, "lat": 37.3400357, "lon": -108.5790849}, {"type": "way", "id": 330407247, "nodes": [3373670124, 3373670125, 3373670126, 3373670127, 3373670128, 3373670129, 3373670130, 3373670124], "tags": {"amenity": "parking"}}, {"type": "way", "id": 330543390, "nodes": [3375088821, 3375088822, 3375088823, 3375088824, 3375088821], "tags": {"amenity": "fuel", "brand": "City Market", "building": "yes", "fuel:diesel": "yes", "fuel:gasoline": "yes", "fuel:octane_85": "yes", "fuel:octane_86": "no", "fuel:octane_87": "yes", "fuel:octane_88": "no", "fuel:octane_89": "no", "fuel:octane_90": "no", "fuel:octane_91": "yes", "large_vehicles": "yes", "payment:cards": "yes", "payment:contactless": "no", "self_service": "yes"}}, {"type": "way", "id": 330543391, "nodes": [3375088825, 3375088826, 3375088827, 3375088828, 3375088829, 3375088830, 3375088831, 3375088832, 3375088833, 3375088834, 3375088835, 3375088836, 3375088837, 3375088838, 3375088839, 3375088840, 3375088841, 3375088825], "tags": {"amenity": "parking"}}, {"type": "way", "id": 337329755, "nodes": [3444294917, 3444294916, 3444294913, 3375015230, 3375015231, 3375015232, 3444294925, 3444294917], "tags": {"amenity": "parking"}}, {"type": "way", "id": 750224574, "nodes": [7015025522, 7015025523, 7015025524, 7015025525, 7015025522], "tags": {"addr:city": "Cortez", "addr:housenumber": "23", "addr:state": "CO", "addr:street": "West Main Street", "amenity": "cinema", "building": "yes", "name": "Fiesta Twin Cinema", "postal_code": "81321", "screen": "2", "wikidata": "Q42385241"}}, {"type": "way", "id": 778441668, "nodes": [7183046824, 7265266474, 7265266473, 7265266472, 7183046824], "tags": {"addr:city": "Cortez", "addr:housenumber": "504", "addr:postcode": "81321", "addr:state": "CO", "addr:street": "South Broadway", "amenity": "fast_food", "brand": "Arby's", "brand:wikidata": "Q630866", "building": "yes", "check_date": "2024-06-21", "cuisine": "sandwich", "name": "Arby's", "opening_hours": "Mo-Th 09:30-22:00; Fr-Sa 09:30-22:30; Su 09:30-22:00", "phone": "+1 970-565-1856", "takeaway": "yes", "website": "https://www.arbys.com/locations/us/co/cortez/504-s-broadway/store-6915/"}}, {"type": "way", "id": 778442756, "nodes": [1860573325, 7265296971, 7265296972, 7265296973, 1860573325], "tags": {"addr:city": "Cortez", "addr:housenumber": "221", "addr:postcode": "81321", "addr:state": "CO", "addr:street": "East Main Street", "amenity": "fast_food", "brand": "Wendy's", "brand:wikidata": "Q550258", "building": "yes", "cuisine": "burger", "name": "Wendy's", "opening_hours": "07:30-22:00", "opening_hours:drive_through": "Mo-Su 06:30-00:00", "phone": "+1 970-564-9241", "takeaway": "yes", "website": "https://locations.wendys.com/united-states/co/cortez/221-emain-street"}}, {"type": "way", "id": 778443808, "nodes": [7265302446, 7265302457, 7265302458, 7265302455, 7265302456, 7265302453, 7265302454, 7265302452, 7265302446], "tags": {"addr:housenumber": "444", "addr:state": "CO", "addr:street": "East Main Street", "building": "retail", "name": "Methodist Thrift Shop", "opening_hours": "Tu-Sa 10:00-16:00", "shop": "second_hand"}}, {"type": "way", "id": 975784860, "nodes": [7265285417, 9029594621, 9029594618, 9029594620, 9029594619, 7265285417], "tags": {"addr:city": "Cortez", "addr:housenumber": "34", "addr:postcode": "81231", "addr:state": "CO", "addr:street": "West Main Street", "air_conditioning": "yes", "amenity": "restaurant", "bar": "yes", "building:part": "yes", "capacity": "54", "cuisine": "burger", "diet:gluten_free": "yes", "diet:vegan": "yes", "diet:vegetarian": "yes", "name": "The Farm Bistro", "outdoor_seating": "no", "phone": "+1 970-565-3834", "website": "http://www.thefarmbistrocortez.com/"}}, {"type": "way", "id": 1325526596, "nodes": [12264883014, 12264883015, 12264883016, 12264883017, 12264883018, 12264883019, 7265281482, 7265281483, 7265281485, 7265281489, 12264883020, 12264883021, 12264883014], "tags": {"amenity": "parking", "capacity": "20"}}, {"type": "way", "id": 1326428736, "nodes": [12272767323, 12272767324, 12272767325, 12272767326, 12272767323], "tags": {"amenity": "parking", "parking": "surface", "surface": "asphalt"}}]}