{"version": 0.6, "generator": "Overpass API 0.7.62.8 e802775f", "osm3s": {"timestamp_osm_base": "2025-12-12T17:48:18Z", "copyright": "The data included in this document is from www.openstreetmap.org. The data is made available under ODbL."}, "elements": [{"type": "node", "id": 51229720, "lat": 40.3645125, "lon": -105.5449445}, {"type": "node", "id": 3200077923, "lat": 40.3315809, "lon": -105.5287011}, {"type": "node", "id": 3200077924, "lat": 40.3315841, "lon": -105.5287546}, {"type": "node", "id": 3200077925, "lat": 40.3315866, "lon": -105.5287126}, {"type": "node", "id": 3200077927, "lat": 40.3315885, "lon": -105.5287349}, {"type": "node", "id": 3200077928, "lat": 40.3316067, "lon": -105.5288008}, {"type": "node", "id": 3200077930, "lat": 40.3316167, "lon": -105.5288263}, {"type": "node", "id": 3200077931, "lat": 40.3316167, "lon": -105.5288436}, {"type": "node", "id": 3200077932, "lat": 40.3316236, "lon": -105.5288585}, {"type": "node", "id": 3200077934, "lat": 40.3316299, "lon": -105.5286673}, {"type": "node", "id": 3200077935, "lat": 40.3316362, "lon": -105.5288659}, {"type": "node", "id": 3200077938, "lat": 40.3316544, "lon": -105.5288947}, {"type": "node", "id": 3200077939, "lat": 40.331655, "lon": -105.5287184}, {"type": "node", "id": 3200077943, "lat": 40.3316858, "lon": -105.5287307}, {"type": "node", "id": 3200077945, "lat": 40.3316971, "lon": -105.5287242}, {"type": "node", "id": 3200077949, "lat": 40.3317216, "lon": -105.5287579}, {"type": "node", "id": 3200077951, "lat": 40.3317467, "lon": -105.5288008}, {"type": "node", "id": 3200077952, "lat": 40.3317806, "lon": -105.5288799}, {"type": "node", "id": 3200077954, "lat": 40.3318127, "lon": -105.5292754}, {"type": "node", "id": 3200077956, "lat": 40.3318252, "lon": -105.528856}, {"type": "node", "id": 3200077957, "lat": 40.3319033, "lon": -105.5288697}, {"type": "node", "id": 3200077958, "lat": 40.3318403, "lon": -105.5293372}, {"type": "node", "id": 3200083561, "lat": 40.3318497, "lon": -105.5293503}, {"type": "node", "id": 3200083564, "lat": 40.331873, "lon": -105.5290916}, {"type": "node", "id": 3200083565, "lat": 40.33192, "lon": -105.5289036}, {"type": "node", "id": 3200083566, "lat": 40.3318818, "lon": -105.5293718}, {"type": "node", "id": 3200083568, "lat": 40.3319119, "lon": -105.5291839}, {"type": "node", "id": 3200083570, "lat": 40.3319535, "lon": -105.528972}, {"type": "node", "id": 3200083574, "lat": 40.3319906, "lon": -105.5291287}, {"type": "node", "id": 3200083575, "lat": 40.3320045, "lon": -105.529117}, {"type": "node", "id": 3200083582, "lat": 40.3320156, "lon": -105.529324}, {"type": "node", "id": 3200083584, "lat": 40.3320306, "lon": -105.5294673}, {"type": "node", "id": 3200083587, "lat": 40.3320394, "lon": -105.5293644}, {"type": "node", "id": 3200083590, "lat": 40.332057, "lon": -105.5293866}, {"type": "node", "id": 3264279229, "lat": 40.3646056, "lon": -105.5446173}, {"type": "node", "id": 3264279233, "lat": 40.3632598, "lon": -105.5433879}, {"type": "node", "id": 3264279238, "lat": 40.3632925, "lon": -105.5432699}, {"type": "node", "id": 3264279247, "lat": 40.3651922, "lon": -105.5411334}, {"type": "node", "id": 3264279255, "lat": 40.3634825, "lon": -105.5432296}, {"type": "node", "id": 3264279256, "lat": 40.3646206, "lon": -105.5447635}, {"type": "node", "id": 3264279260, "lat": 40.3648927, "lon": -105.5406775}, {"type": "node", "id": 3264279386, "lat": 40.3633681, "lon": -105.5434254}, {"type": "node", "id": 3264279389, "lat": 40.3647653, "lon": -105.5410035}, {"type": "node", "id": 3264279393, "lat": 40.3632598, "lon": -105.5431465}, {"type": "node", "id": 3264279429, "lat": 40.364318, "lon": -105.5425084}, {"type": "node", "id": 3264279459, "lat": 40.3649509, "lon": -105.5407175}, {"type": "node", "id": 3264279464, "lat": 40.3643415, "lon": -105.5423671}, {"type": "node", "id": 3264279466, "lat": 40.3640987, "lon": -105.5424454}, {"type": "node", "id": 3264279468, "lat": 40.3633865, "lon": -105.5433342}, {"type": "node", "id": 3264279473, "lat": 40.3634335, "lon": -105.5431143}, {"type": "node", "id": 3264279476, "lat": 40.3633661, "lon": -105.5430875}, {"type": "node", "id": 3264279481, "lat": 40.3647374, "lon": -105.544743}, {"type": "node", "id": 3264279483, "lat": 40.3647225, "lon": -105.5445967}, {"type": "node", "id": 3264279489, "lat": 40.3634601, "lon": -105.5433423}, {"type": "node", "id": 3264279490, "lat": 40.3652714, "lon": -105.5411882}, {"type": "node", "id": 3264279497, "lat": 40.3641222, "lon": -105.5423042}, {"type": "node", "id": 3264279515, "lat": 40.3648235, "lon": -105.5410435}, {"type": "node", "id": 3264279520, "lat": 40.3632373, "lon": -105.5432484}, {"type": "node", "id": 3264279533, "lat": 40.3651542, "lon": -105.5412279}, {"type": "node", "id": 4101351952, "lat": 40.3639931, "lon": -105.5437131}, {"type": "node", "id": 4101351959, "lat": 40.3640318, "lon": -105.5437847}, {"type": "node", "id": 4101352091, "lat": 40.3641546, "lon": -105.5435629}, {"type": "node", "id": 4101352105, "lat": 40.3641933, "lon": -105.5436345}, {"type": "node", "id": 4101380804, "lat": 40.3631389, "lon": -105.5436407}, {"type": "node", "id": 4101380805, "lat": 40.3631634, "lon": -105.5434073}, {"type": "node", "id": 4101380808, "lat": 40.3633064, "lon": -105.5434637}, {"type": "node", "id": 4101380810, "lat": 40.3633974, "lon": -105.5437292}, {"type": "node", "id": 4101380812, "lat": 40.363426, "lon": -105.5436112}, {"type": "node", "id": 4101380817, "lat": 40.3634781, "lon": -105.543461}, {"type": "node", "id": 4101380818, "lat": 40.3635047, "lon": -105.5433912}, {"type": "node", "id": 4101380826, "lat": 40.3635875, "lon": -105.5438043}, {"type": "node", "id": 4101380827, "lat": 40.3635921, "lon": -105.5425085}, {"type": "node", "id": 4101380828, "lat": 40.3635987, "lon": -105.5437292}, {"type": "node", "id": 4101380829, "lat": 40.3636069, "lon": -105.5436849}, {"type": "node", "id": 4101380832, "lat": 40.3636329, "lon": -105.5422992}, {"type": "node", "id": 4101380835, "lat": 40.3636738, "lon": -105.5422563}, {"type": "node", "id": 4101380837, "lat": 40.3637009, "lon": -105.5434261}, {"type": "node", "id": 4101380840, "lat": 40.3637985, "lon": -105.5425701}, {"type": "node", "id": 4101380841, "lat": 40.3638455, "lon": -105.5426721}, {"type": "node", "id": 4101380842, "lat": 40.3638521, "lon": -105.5438942}, {"type": "node", "id": 4101380845, "lat": 40.3638848, "lon": -105.5436528}, {"type": "node", "id": 4101380847, "lat": 40.3639052, "lon": -105.543292}, {"type": "node", "id": 4101380848, "lat": 40.3639109, "lon": -105.5425299}, {"type": "node", "id": 4101380850, "lat": 40.3639339, "lon": -105.543351}, {"type": "node", "id": 4101380851, "lat": 40.363964, "lon": -105.5423985}, {"type": "node", "id": 4101380852, "lat": 40.3639686, "lon": -105.5432464}, {"type": "node", "id": 4101380853, "lat": 40.3639824, "lon": -105.5422832}, {"type": "node", "id": 4101380854, "lat": 40.3640013, "lon": -105.5433027}, {"type": "node", "id": 4101380855, "lat": 40.3640728, "lon": -105.5431686}, {"type": "node", "id": 4101380857, "lat": 40.3641495, "lon": -105.5434637}, {"type": "node", "id": 4101380858, "lat": 40.3641791, "lon": -105.543182}, {"type": "node", "id": 4101380859, "lat": 40.3642108, "lon": -105.5436139}, {"type": "node", "id": 4101380860, "lat": 40.3642639, "lon": -105.5436367}, {"type": "node", "id": 4101380863, "lat": 40.3642915, "lon": -105.5426617}, {"type": "node", "id": 4101380864, "lat": 40.3643181, "lon": -105.5425571}, {"type": "node", "id": 4101380865, "lat": 40.3643273, "lon": -105.5433175}, {"type": "node", "id": 4101380866, "lat": 40.3643487, "lon": -105.5424069}, {"type": "node", "id": 4101380867, "lat": 40.3643773, "lon": -105.5433363}, {"type": "node", "id": 4101380869, "lat": 40.3644969, "lon": -105.5427958}, {"type": "node", "id": 4101380870, "lat": 40.3645214, "lon": -105.5424739}, {"type": "node", "id": 4143764251, "lat": 40.3645703, "lon": -105.5413381, "tags": {"addr:city": "Estes Park", "addr:housenumber": "870", "addr:postcode": "80517", "addr:state": "CO", "addr:street": "Moraine Avenue", "name": "Scot's Sporting Goods", "shop": "sports"}}, {"type": "node", "id": 6410748887, "lat": 40.3647103, "lon": -105.54062, "tags": {"addr:city": "Estes Park", "addr:housenumber": "860", "addr:postcode": "80517", "addr:state": "CO", "addr:street": "Moraine Avenue", "amenity": "fast_food", "cuisine": "burger;milkshake;tacos", "drive_through": "yes", "name": "Fresh Burger Stop", "opening_hours": "Mo-Sa 07:30-19:30; Su 08:00-15:00", "phone": "+1-970-480-1492"}}, {"type": "node", "id": 6819020629, "lat": 40.3652334, "lon": -105.541282}, {"type": "node", "id": 6819020630, "lat": 40.3653819, "lon": -105.5408033, "tags": {"description": "Sells wood carvings", "name": "Bear's Den", "shop": "art"}}, {"type": "node", "id": 6819059031, "lat": 40.3646277, "lon": -105.5408154, "tags": {"addr:city": "Estes Park", "addr:housenumber": "860", "addr:postcode": "80517", "addr:state": "CO", "addr:street": "Moraine Avenue", "name": "Dino Mart", "opening_hours": "24/7", "shop": "convenience"}}, {"type": "node", "id": 8773267256, "lat": 40.3648727, "lon": -105.5406423}, {"type": "node", "id": 8773267257, "lat": 40.3647477, "lon": -105.5405493}, {"type": "node", "id": 8773267258, "lat": 40.3647811, "lon": -105.5404718}, {"type": "node", "id": 8773267259, "lat": 40.3649061, "lon": -105.5405648}, {"type": "node", "id": 8839206225, "lat": 40.3646623, "lon": -105.5440427, "tags": {"name": "Sticks N Stones", "shop": "furniture"}}, {"type": "node", "id": 8925120580, "lat": 40.3637635, "lon": -105.5431618, "tags": {"name": "The mad Moose", "shop": "gift"}}, {"type": "node", "id": 8925120581, "lat": 40.3640476, "lon": -105.5430304, "tags": {"addr:housenumber": "900", "addr:postcode": "80517", "addr:street": "Moraine Avenue", "name": "Country Super Market of Estes Park", "opening_hours": "Mo-Su 07:00-20:30", "phone": "+1-970-586-2702", "shop": "supermarket", "website": "https://the-country-market-of-estes-park.business.site/"}}, {"type": "node", "id": 9210228033, "lat": 40.3636752, "lon": -105.5438, "tags": {"access": "yes", "amenity": "charging_station", "brand": "FreeWire;Blink", "capacity": "6", "frequency": "0", "name": "National Park Village", "note": "Sources: FreeWire video. https://youtu.be/WISV73Cl06Q?t=123 PlugShare: https://www.plugshare.com/location/337436", "socket:chademo": "yes", "socket:type1_combo": "yes"}}, {"type": "node", "id": 9780582017, "lat": 40.3650072, "lon": -105.5416609}, {"type": "node", "id": 9780582018, "lat": 40.364939, "lon": -105.5416008}, {"type": "node", "id": 9780582019, "lat": 40.3649899, "lon": -105.5415012}, {"type": "node", "id": 9780582020, "lat": 40.3650582, "lon": -105.5415614}, {"type": "node", "id": 10924302647, "lat": 40.3462502, "lon": -105.5365501}, {"type": "node", "id": 10924302648, "lat": 40.3458264, "lon": -105.5362941}, {"type": "node", "id": 10924302649, "lat": 40.3456267, "lon": -105.5360592}, {"type": "node", "id": 10924302650, "lat": 40.3455066, "lon": -105.5358214}, {"type": "node", "id": 10924302651, "lat": 40.3460435, "lon": -105.536138}, {"type": "node", "id": 10924302652, "lat": 40.3462999, "lon": -105.5363759}, {"type": "node", "id": 10924302653, "lat": 40.3463483, "lon": -105.5365506}, {"type": "node", "id": 10924302654, "lat": 40.3463129, "lon": -105.5365361}, {"type": "node", "id": 10924302655, "lat": 40.3463193, "lon": -105.5365091}, {"type": "node", "id": 10924302656, "lat": 40.3463547, "lon": -105.5365237}, {"type": "node", "id": 10924302663, "lat": 40.3465846, "lon": -105.5324451}, {"type": "node", "id": 10924302664, "lat": 40.3464957, "lon": -105.5325921}, {"type": "node", "id": 10924302665, "lat": 40.3463825, "lon": -105.5325754}, {"type": "node", "id": 10924302666, "lat": 40.3463144, "lon": -105.5325103}, {"type": "node", "id": 10924302667, "lat": 40.3462936, "lon": -105.5323618}, {"type": "node", "id": 10924302668, "lat": 40.346304, "lon": -105.5322603}, {"type": "node", "id": 10924302669, "lat": 40.3463675, "lon": -105.5321754}, {"type": "node", "id": 10924302670, "lat": 40.3464945, "lon": -105.5320876}, {"type": "node", "id": 10924302671, "lat": 40.3465661, "lon": -105.532077}, {"type": "node", "id": 10924302672, "lat": 40.3462844, "lon": -105.5323668}, {"type": "node", "id": 10924302673, "lat": 40.3462414, "lon": -105.5323646}, {"type": "node", "id": 10924302674, "lat": 40.3462425, "lon": -105.5323307}, {"type": "node", "id": 10924302675, "lat": 40.3462854, "lon": -105.5323328}, {"type": "node", "id": 10924302702, "lat": 40.346328, "lon": -105.5365127}, {"type": "node", "id": 10925307182, "lat": 40.3643645, "lon": -105.5451653, "tags": {"air_conditioning": "yes", "amenity": "restaurant", "bar": "yes", "brewery": "yes", "cuisine": "Seasonal", "name": "Bird and Jim", "phone": "+1-970-586-9832", "website": "https://www.birdandjim.com/"}}, {"type": "node", "id": 10926865998, "lat": 40.3646818, "lon": -105.5408017, "tags": {"addr:city": "Estes Park", "addr:housenumber": "860", "addr:postcode": "80517", "addr:state": "CO", "addr:street": "Moraine Avenue", "amenity": "fast_food", "cuisine": "donut", "drive_through": "no", "name": "Donut Haus", "opening_hours": "Tu-Sa 06:30-12:00", "phone": "+1-970-568-2988"}}, {"type": "node", "id": 11124322727, "lat": 40.3394559, "lon": -105.5324812}, {"type": "node", "id": 11124322728, "lat": 40.3395569, "lon": -105.5323328}, {"type": "node", "id": 11124322729, "lat": 40.3391468, "lon": -105.5321234}, {"type": "node", "id": 11124322730, "lat": 40.3392559, "lon": -105.5319432}, {"type": "node", "id": 11124322747, "lat": 40.340261, "lon": -105.5325246}, {"type": "node", "id": 11124322748, "lat": 40.3403961, "lon": -105.5324002}, {"type": "node", "id": 11124322749, "lat": 40.3400228, "lon": -105.5320795}, {"type": "node", "id": 11124322750, "lat": 40.3401579, "lon": -105.5319551}, {"type": "node", "id": 11124322751, "lat": 40.340091, "lon": -105.5318543}, {"type": "node", "id": 11124322752, "lat": 40.3401794, "lon": -105.5317069}, {"type": "node", "id": 11124322753, "lat": 40.3398474, "lon": -105.5316029}, {"type": "node", "id": 11124322754, "lat": 40.3399358, "lon": -105.5314555}, {"type": "node", "id": 11124322755, "lat": 40.3398207, "lon": -105.5320673}, {"type": "node", "id": 11124322756, "lat": 40.3398955, "lon": -105.5319468}, {"type": "node", "id": 11124322757, "lat": 40.3396547, "lon": -105.5318901}, {"type": "node", "id": 11124322758, "lat": 40.3397295, "lon": -105.5317696}, {"type": "node", "id": 11124322759, "lat": 40.3386253, "lon": -105.5319114}, {"type": "node", "id": 11124322760, "lat": 40.3388576, "lon": -105.5318743}, {"type": "node", "id": 11124322761, "lat": 40.3383991, "lon": -105.5317948}, {"type": "node", "id": 11124322762, "lat": 40.3381547, "lon": -105.5315987}, {"type": "node", "id": 11124322763, "lat": 40.3380698, "lon": -105.5315457}, {"type": "node", "id": 11124322764, "lat": 40.3381991, "lon": -105.5314158}, {"type": "node", "id": 11124322765, "lat": 40.3384254, "lon": -105.5315404}, {"type": "node", "id": 11124322766, "lat": 40.3386435, "lon": -105.5316755}, {"type": "node", "id": 12025753786, "lat": 40.3630905, "lon": -105.5392686}, {"type": "node", "id": 12025753787, "lat": 40.3631034, "lon": -105.5391779}, {"type": "node", "id": 12025753788, "lat": 40.3631874, "lon": -105.5391985}, {"type": "node", "id": 12025753789, "lat": 40.3631744, "lon": -105.5392892}, {"type": "node", "id": 12075596921, "lat": 40.3646593, "lon": -105.545359}, {"type": "node", "id": 12075596927, "lat": 40.3646281, "lon": -105.5449354}, {"type": "node", "id": 12075596928, "lat": 40.3645474, "lon": -105.5453684}, {"type": "node", "id": 12634678301, "lat": 40.3616607, "lon": -105.5541866, "tags": {"addr:housenumber": "1675", "addr:postcode": "80517", "addr:street": "SH-66", "amenity": "restaurant", "name": "The Rock Inn", "website": "https://rockinnestes.com/"}}, {"type": "way", "id": 313965082, "nodes": [3200083590, 3200083584, 3200083566, 3200083561, 3200077958, 3200077954, 3200077938, 3200077935, 3200077932, 3200077931, 3200077930, 3200077928, 3200077924, 3200077927, 3200077925, 3200077923, 3200077934, 3200077939, 3200077943, 3200077945, 3200077949, 3200077951, 3200077952, 3200077956, 3200077957, 3200083565, 3200083570, 3200083564, 3200083568, 3200083574, 3200083575, 3200083582, 3200083587, 3200083590], "tags": {"access": "customers", "amenity": "parking", "parking": "surface", "surface": "asphalt"}}, {"type": "way", "id": 319934573, "nodes": [6819020629, 3264279490, 3264279247, 3264279533, 6819020629], "tags": {"addr:city": "Estes Park", "addr:housenumber": "861", "addr:postcode": "80517", "addr:state": "CO", "addr:street": "Moraine Avenue", "amenity": "fast_food", "building": "retail", "cuisine": "burger;gyros", "drive_through": "yes", "name": "Burgers & Gyros", "opening_hours": "Mo-Su 11:00-20:00", "roof:shape": "quadruple_saltbox"}}, {"type": "way", "id": 319934586, "nodes": [3264279515, 3264279459, 3264279260, 3264279389, 3264279515], "tags": {"addr:city": "Estes Park", "addr:housenumber": "860", "addr:postcode": "80517", "addr:state": "CO", "addr:street": "Moraine Avenue", "amenity": "fuel", "brand": "Sinclair", "brand:wikidata": "Q1290900", "building": "roof", "compressed_air": "no", "fuel:octane_85": "yes", "fuel:octane_87": "yes", "fuel:octane_89": "yes", "name": "Sinclair", "opening_hours": "24/7", "self_service": "yes"}}, {"type": "way", "id": 319934598, "nodes": [3264279429, 3264279464, 3264279497, 3264279466, 3264279429], "tags": {"addr:housenumber": "900", "addr:state": "CO", "addr:street": "Moraine Avenue", "building": "yes", "name": "Spur Liquor", "shop": "alcohol"}}, {"type": "way", "id": 319934602, "nodes": [3264279489, 3264279255, 3264279473, 3264279476, 3264279393, 3264279520, 3264279238, 3264279233, 3264279386, 3264279468, 3264279489], "tags": {"amenity": "restaurant", "building": "yes", "name": "Wayfinder"}}, {"type": "way", "id": 319934605, "nodes": [3264279481, 3264279483, 3264279229, 3264279256, 3264279481], "tags": {"addr:city": "Estes Park", "addr:housenumber": "1221", "addr:postcode": "80517", "addr:state": "CO", "addr:street": "High Drive", "air_conditioning": "yes", "amenity": "restaurant", "building": "retail", "cuisine": "coffee_shop;pizza;smoothies;bakery;sandwich", "drive_through": "no", "email": "info@thebirds-nest.com", "name": "The Bird's Nest", "opening_hours": "Mo-Su 07:00-19:00", "phone": "+1-970-586-4707", "roof:shape": "gabled", "website": "https://www.thebirds-nest.com/"}}, {"type": "way", "id": 408128995, "nodes": [4101351952, 4101351959, 4101352105, 4101352091, 4101351952], "tags": {"addr:city": "Estes Park", "addr:housenumber": "900", "addr:postcode": "80517", "addr:state": "CO", "addr:street": "Moraine Avenue", "amenity": "fuel", "brand": "Conoco", "brand:wikidata": "Q109341187", "building": "roof", "building:levels": "1", "compressed_air": "yes", "name": "Conoco", "opening_hours": "24/7", "operator": "ConocoPhillips", "phone": "+1-303-962-5846", "roof:shape": "gabled", "self_service": "yes", "website": "https://www.conoco.com/station/CON-NPV-FUEL-STOP-0000890800/"}}, {"type": "way", "id": 408137093, "nodes": [4101380804, 4101380805, 4101380808, 4101380817, 4101380818, 4101380837, 4101380847, 4101380850, 4101380854, 4101380852, 4101380855, 4101380858, 4101380863, 4101380864, 4101380866, 4101380870, 4101380869, 4101380867, 4101380865, 4101380860, 4101380859, 4101380857, 4101380845, 4101380842, 4101380826, 4101380828, 4101380829, 4101380812, 4101380810, 4101380804], "tags": {"access": "customers", "amenity": "parking", "fee": "no", "parking": "surface"}}, {"type": "way", "id": 408137100, "nodes": [4101380827, 4101380840, 4101380841, 4101380848, 4101380851, 4101380853, 4101380835, 4101380832, 4101380827], "tags": {"access": "customers", "amenity": "parking", "fee": "no", "parking": "surface"}}, {"type": "way", "id": 947849396, "nodes": [8773267256, 8773267257, 8773267258, 8773267259, 8773267256], "tags": {"addr:city": "Estes Park", "addr:housenumber": "860", "addr:postcode": "80517", "addr:state": "CO", "addr:street": "Moraine Avenue", "amenity": "fuel", "atm": "yes", "brand": "Sinclair", "brand:wikidata": "Q1290900", "building": "roof", "check_date": "2024-09-25", "compressed_air": "no", "name": "Sinclair", "opening_hours": "24/7", "phone": "+1 970-586-7867", "self_service": "yes", "website": "https://stations.sinclairoil.com/co/estes-park/860-moraine-ave"}}, {"type": "way", "id": 1065001505, "nodes": [9780582017, 9780582018, 9780582019, 9780582020, 9780582017], "tags": {"addr:city": "Estes Park", "addr:housenumber": "865", "addr:postcode": "80517", "addr:state": "CO", "addr:street": "Moraine Avenue", "air_conditioning": "yes", "amenity": "restaurant", "building": "retail", "cuisine": "mexican", "drive_through": "no", "email": "veronicaayala052@gmail.com", "name": "Jeep Jeep Tacos", "note": "Their sign says everyday; their website says closed Wednesdays. Staff said closed Sundays...so i listed only consistent hours.", "opening_hours": "Mo-Tu 10:00-17:00; Th-Sa 10:00-17:00", "phone": "+1-970-586-9866", "roof:shape": "gabled", "website": "https://jeepjeeptacos.com/"}}, {"type": "way", "id": 1175649551, "nodes": [10924302647, 10924302648, 10924302649, 10924302650, 10924302651, 10924302652, 10924302647], "tags": {"access": "yes", "amenity": "parking", "fee": "no", "parking": "surface", "surface": "gravel"}}, {"type": "way", "id": 1175649552, "nodes": [10924302653, 10924302654, 10924302655, 10924302702, 10924302656, 10924302653], "tags": {"access": "yes", "amenity": "toilets", "building": "yes", "wheelchair": "yes"}}, {"type": "way", "id": 1175649553, "nodes": [10924302663, 10924302664, 10924302665, 10924302666, 10924302667, 10924302668, 10924302669, 10924302670, 10924302671, 10924302663], "tags": {"access": "yes", "amenity": "parking", "fee": "no", "parking": "surface"}}, {"type": "way", "id": 1175649554, "nodes": [10924302672, 10924302673, 10924302674, 10924302675, 10924302672], "tags": {"access": "yes", "amenity": "toilets", "building": "yes", "wheelchair": "yes"}}, {"type": "way", "id": 1199345962, "nodes": [11124322728, 11124322727, 11124322729, 11124322730, 11124322728], "tags": {"amenity": "parking", "parking": "surface"}}, {"type": "way", "id": 1199345966, "nodes": [11124322748, 11124322747, 11124322749, 11124322750, 11124322748], "tags": {"amenity": "parking", "parking": "surface"}}, {"type": "way", "id": 1199345967, "nodes": [11124322752, 11124322751, 11124322753, 11124322754, 11124322752], "tags": {"amenity": "parking", "parking": "surface"}}, {"type": "way", "id": 1199345968, "nodes": [11124322756, 11124322755, 11124322757, 11124322758, 11124322756], "tags": {"amenity": "parking", "parking": "surface"}}, {"type": "way", "id": 1199345969, "nodes": [11124322760, 11124322759, 11124322761, 11124322762, 11124322763, 11124322764, 11124322765, 11124322766, 11124322760], "tags": {"amenity": "parking", "parking": "surface"}}, {"type": "way", "id": 1298096009, "nodes": [12025753786, 12025753787, 12025753788, 12025753789, 12025753786], "tags": {"amenity": "shower", "building": "yes", "source": "microsoft/BuildingFootprints"}}, {"type": "way", "id": 1303938119, "nodes": [12075596921, 12075596927, 51229720, 12075596928, 12075596921], "tags": {"access": "customers", "amenity": "parking", "parking": "surface"}}]}