{"version": 0.6, "generator": "Overpass API 0.7.62.8 e802775f", "osm3s": {"timestamp_osm_base": "2025-12-06T06:10:09Z", "copyright": "The data included in this document is from www.openstreetmap.org. The data is made available under ODbL."}, "elements": [{"type": "node", "id": 2012535784, "lat": 43.6002432, "lon": -116.1937957, "tags": {"addr:city": "Boise", "addr:housenumber": "1021", "addr:postcode": "83706", "addr:state": "ID", "addr:street": "South Broadway Avenue", "designation": "skateboard shop", "name": "Newt & Harolds", "shop": "clothes"}}, {"type": "node", "id": 2383763406, "lat": 43.6000739, "lon": -116.1939417}, {"type": "node", "id": 2383763410, "lat": 43.5999914, "lon": -116.1937599}, {"type": "node", "id": 2383763412, "lat": 43.6000733, "lon": -116.1937593}, {"type": "node", "id": 2383763414, "lat": 43.5999018, "lon": -116.1939249}, {"type": "node", "id": 2383763416, "lat": 43.5999921, "lon": -116.1939234}, {"type": "node", "id": 2383763418, "lat": 43.5999004, "lon": -116.1937614}, {"type": "node", "id": 2383763422, "lat": 43.5998336, "lon": -116.1937625}, {"type": "node", "id": 2383763424, "lat": 43.5998364, "lon": -116.1939831}, {"type": "node", "id": 2383763433, "lat": 43.6008626, "lon": -116.1942148}, {"type": "node", "id": 2383763435, "lat": 43.6007079, "lon": -116.1942165}, {"type": "node", "id": 2383763437, "lat": 43.6007072, "lon": -116.1940875}, {"type": "node", "id": 2383763439, "lat": 43.6008619, "lon": -116.1940858}, {"type": "node", "id": 2429508749, "lat": 43.5678808, "lon": -116.1887341}, {"type": "node", "id": 2429508752, "lat": 43.5673122, "lon": -116.1866282}, {"type": "node", "id": 2429508755, "lat": 43.568043, "lon": -116.1862523}, {"type": "node", "id": 2429508767, "lat": 43.5678377, "lon": -116.1858769}, {"type": "node", "id": 2429508770, "lat": 43.567641, "lon": -116.1858962}, {"type": "node", "id": 2429508784, "lat": 43.5674528, "lon": -116.1865559}, {"type": "node", "id": 2429508790, "lat": 43.5670293, "lon": -116.1842518}, {"type": "node", "id": 2429508793, "lat": 43.567204, "lon": -116.1842314}, {"type": "node", "id": 2429508795, "lat": 43.5672059, "lon": -116.1842706}, {"type": "node", "id": 2429508798, "lat": 43.567733, "lon": -116.1842208}, {"type": "node", "id": 2429508816, "lat": 43.568113, "lon": -116.1827542}, {"type": "node", "id": 2429508818, "lat": 43.5680079, "lon": -116.1828555}, {"type": "node", "id": 2429508828, "lat": 43.5679628, "lon": -116.1830396}, {"type": "node", "id": 2429508830, "lat": 43.5679699, "lon": -116.1830512}, {"type": "node", "id": 2429508836, "lat": 43.5679141, "lon": -116.1831662}, {"type": "node", "id": 2429508838, "lat": 43.5679152, "lon": -116.1832215}, {"type": "node", "id": 2429508841, "lat": 43.5679809, "lon": -116.1832195}, {"type": "node", "id": 2429508847, "lat": 43.5681405, "lon": -116.1833706}, {"type": "node", "id": 2429508850, "lat": 43.568192, "lon": -116.183321}, {"type": "node", "id": 2429508853, "lat": 43.5681805, "lon": -116.1832983}, {"type": "node", "id": 3610211539, "lat": 43.5809287, "lon": -116.172773, "tags": {"addr:city": "Boise", "addr:housenumber": "2454", "addr:postcode": "83706", "addr:state": "ID", "addr:street": "South Apple Street", "amenity": "cafe", "cuisine": "japanese", "name": "Zen Bento"}}, {"type": "node", "id": 3610211540, "lat": 43.5810398, "lon": -116.172758, "tags": {"name": "Idaho State Liquor Store", "shop": "alcohol"}}, {"type": "node", "id": 3610211543, "lat": 43.5811199, "lon": -116.172155, "tags": {"addr:city": "Boise", "addr:housenumber": "909", "addr:postcode": "83706", "addr:state": "ID", "addr:street": "East Parkcenter Boulevard", "brand": "Albertsons", "brand:wikidata": "Q2831861", "name": "Albertsons", "opening_hours": "Mo-Fr 06:00-23:00; Sa 06:00-23:00; Su 06:00-23:00", "phone": "+1 208-345-3180", "ref": "169", "shop": "supermarket", "website": "https://local.albertsons.com/id/boise/909-e-parkcenter-blvd.html"}}, {"type": "node", "id": 3610211545, "lat": 43.5812053, "lon": -116.1716094, "tags": {"addr:city": "Boise", "addr:housenumber": "935", "addr:postcode": "83706", "addr:state": "ID", "addr:street": "East Parkcenter Boulevard", "beauty": "nails", "name": "Amore Nail Studio", "opening_hours": "Tu-Fr 10:00-19:00, Sa 10:00-17:30", "shop": "beauty"}}, {"type": "node", "id": 3610211546, "lat": 43.5812515, "lon": -116.1712949, "tags": {"brand": "Dollar Tree", "brand:wikidata": "Q5289230", "check_date": "2024-07-11", "check_date:opening_hours": "2024-07-11", "name": "Dollar Tree", "opening_hours": "Mo-Sa 09:00-21:00; Su 09:00-20:00", "shop": "variety_store", "website": "https://www.dollartree.com/locations/id/boise/2686/"}}, {"type": "node", "id": 3610211559, "lat": 43.5856274, "lon": -116.1827371}, {"type": "node", "id": 4218593194, "lat": 43.585181, "lon": -116.193965, "tags": {"addr:city": "Boise", "addr:housenumber": "2137", "addr:postcode": "83706", "addr:state": "ID", "addr:street": "South Broadway Avenue", "amenity": "restaurant", "name": "Dong Khanh Vietnamese Restaurant", "wheelchair": "limited"}}, {"type": "node", "id": 4814412098, "lat": 43.5961233, "lon": -116.1771303, "tags": {"addr:city": "Boise", "addr:housenumber": "404", "addr:postcode": "83706", "addr:state": "ID", "addr:street": "East Parkcenter Boulevard", "addr:unit": "300", "amenity": "restaurant", "cuisine": "american", "name": "The Refuge"}}, {"type": "node", "id": 5112143177, "lat": 43.5963433, "lon": -116.177141, "tags": {"addr:city": "Boise", "addr:housenumber": "404", "addr:postcode": "83706", "addr:state": "ID", "addr:street": "East Parkcenter Boulevard", "addr:unit": "200", "amenity": "restaurant", "name": "The Griddle"}}, {"type": "node", "id": 5826128680, "lat": 43.5999028, "lon": -116.1939815}, {"type": "node", "id": 5826128681, "lat": 43.600413, "lon": -116.1932892}, {"type": "node", "id": 5826128682, "lat": 43.6004136, "lon": -116.1931146}, {"type": "node", "id": 5826128683, "lat": 43.6003324, "lon": -116.1931129}, {"type": "node", "id": 5826128684, "lat": 43.6003319, "lon": -116.1932899}, {"type": "node", "id": 6182586612, "lat": 43.5824829, "lon": -116.1727474}, {"type": "node", "id": 6182586613, "lat": 43.5824107, "lon": -116.172765}, {"type": "node", "id": 6182586614, "lat": 43.5824069, "lon": -116.1727347}, {"type": "node", "id": 6182586615, "lat": 43.5823274, "lon": -116.172754}, {"type": "node", "id": 6182586616, "lat": 43.5823313, "lon": -116.1727845}, {"type": "node", "id": 6182586617, "lat": 43.5822592, "lon": -116.172802}, {"type": "node", "id": 6182586618, "lat": 43.5822804, "lon": -116.1729679}, {"type": "node", "id": 6237328729, "lat": 43.602563, "lon": -116.172935}, {"type": "node", "id": 6237328730, "lat": 43.6025911, "lon": -116.1729145}, {"type": "node", "id": 6237328731, "lat": 43.6024826, "lon": -116.1726315}, {"type": "node", "id": 6237328732, "lat": 43.6024538, "lon": -116.1726526}, {"type": "node", "id": 6237328733, "lat": 43.6024103, "lon": -116.1725391}, {"type": "node", "id": 6237328734, "lat": 43.6022538, "lon": -116.1726536}, {"type": "node", "id": 6237328735, "lat": 43.6024474, "lon": -116.1731582}, {"type": "node", "id": 6237328737, "lat": 43.6028748, "lon": -116.1730625}, {"type": "node", "id": 6237328738, "lat": 43.6028422, "lon": -116.1729775}, {"type": "node", "id": 6237328739, "lat": 43.6027641, "lon": -116.1730347}, {"type": "node", "id": 6237328740, "lat": 43.6027667, "lon": -116.1730416}, {"type": "node", "id": 6237328741, "lat": 43.602687, "lon": -116.1731}, {"type": "node", "id": 6237328742, "lat": 43.6026944, "lon": -116.1731194}, {"type": "node", "id": 6237328743, "lat": 43.6026652, "lon": -116.1731407}, {"type": "node", "id": 6237328880, "lat": 43.5790833, "lon": -116.1746247}, {"type": "node", "id": 6237328881, "lat": 43.5791017, "lon": -116.1746814}, {"type": "node", "id": 6237328882, "lat": 43.5790375, "lon": -116.1747211}, {"type": "node", "id": 6237328883, "lat": 43.5789968, "lon": -116.1745955}, {"type": "node", "id": 6237328884, "lat": 43.5789864, "lon": -116.1746019}, {"type": "node", "id": 6237328885, "lat": 43.5789654, "lon": -116.1745373}, {"type": "node", "id": 6237328886, "lat": 43.5789892, "lon": -116.1745227}, {"type": "node", "id": 6237328887, "lat": 43.5789813, "lon": -116.1744982}, {"type": "node", "id": 6237328888, "lat": 43.5790404, "lon": -116.1744617}, {"type": "node", "id": 6285317245, "lat": 43.5981981, "lon": -116.1956034}, {"type": "node", "id": 6285317246, "lat": 43.5982276, "lon": -116.1956032}, {"type": "node", "id": 6285317247, "lat": 43.5982259, "lon": -116.1951525}, {"type": "node", "id": 6285317248, "lat": 43.5976733, "lon": -116.1951564}, {"type": "node", "id": 6285317249, "lat": 43.5976736, "lon": -116.1952176}, {"type": "node", "id": 6285317250, "lat": 43.5973984, "lon": -116.1952196}, {"type": "node", "id": 6285317251, "lat": 43.5972623, "lon": -116.1959623}, {"type": "node", "id": 6360642008, "lat": 43.5984116, "lon": -116.1836386}, {"type": "node", "id": 6360642009, "lat": 43.5984103, "lon": -116.183685}, {"type": "node", "id": 6360642010, "lat": 43.5983395, "lon": -116.1836813}, {"type": "node", "id": 6360642011, "lat": 43.5983386, "lon": -116.1837125}, {"type": "node", "id": 6360642012, "lat": 43.5983013, "lon": -116.1837106}, {"type": "node", "id": 6360642013, "lat": 43.5983003, "lon": -116.1837454}, {"type": "node", "id": 6360642014, "lat": 43.5982679, "lon": -116.1837437}, {"type": "node", "id": 6360642015, "lat": 43.5982689, "lon": -116.1837073}, {"type": "node", "id": 6360642016, "lat": 43.5982323, "lon": -116.1837054}, {"type": "node", "id": 6360642017, "lat": 43.5982331, "lon": -116.1836776}, {"type": "node", "id": 6360642018, "lat": 43.5981235, "lon": -116.1836719}, {"type": "node", "id": 6360642019, "lat": 43.5981282, "lon": -116.1835025}, {"type": "node", "id": 6360642020, "lat": 43.5981781, "lon": -116.1835051}, {"type": "node", "id": 6360642021, "lat": 43.59818, "lon": -116.1834329}, {"type": "node", "id": 6360642022, "lat": 43.5983824, "lon": -116.1834434}, {"type": "node", "id": 6360642023, "lat": 43.5983805, "lon": -116.1835129}, {"type": "node", "id": 6360642024, "lat": 43.5984123, "lon": -116.1835146}, {"type": "node", "id": 6360642025, "lat": 43.5984102, "lon": -116.1835914}, {"type": "node", "id": 6360642026, "lat": 43.5984401, "lon": -116.183593}, {"type": "node", "id": 6376252518, "lat": 43.5814134, "lon": -116.170026, "tags": {"addr:city": "Boise", "addr:housenumber": "1055", "addr:postcode": "83706", "addr:state": "ID", "addr:street": "East Parkcenter Boulevard", "name": "Albertsons Innovation Center", "office": "company"}}, {"type": "node", "id": 6381140371, "lat": 43.5668943, "lon": -116.180968}, {"type": "node", "id": 6381140372, "lat": 43.5668929, "lon": -116.1807945}, {"type": "node", "id": 6381140373, "lat": 43.5670037, "lon": -116.1807928}, {"type": "node", "id": 6381140374, "lat": 43.567004, "lon": -116.180834}, {"type": "node", "id": 6381140375, "lat": 43.5670344, "lon": -116.1808335}, {"type": "node", "id": 6381140376, "lat": 43.5709988, "lon": -116.1883445}, {"type": "node", "id": 6381140377, "lat": 43.5708319, "lon": -116.188057}, {"type": "node", "id": 6381140378, "lat": 43.5711252, "lon": -116.1877326}, {"type": "node", "id": 6381140380, "lat": 43.5713185, "lon": -116.1879907}, {"type": "node", "id": 6381616101, "lat": 43.5812237, "lon": -116.1714989, "tags": {"addr:city": "Boise", "addr:housenumber": "951", "addr:postcode": "83706", "addr:state": "ID", "addr:street": "East Parkcenter Boulevard", "name": "Hairmasters", "opening_hours": "Mo-Fr 09:00-20:00, Sa 09:00-18:00, Su 10:00-18:00", "shop": "hairdresser"}}, {"type": "node", "id": 6779713111, "lat": 43.5980397, "lon": -116.1932184}, {"type": "node", "id": 6779713112, "lat": 43.5980372, "lon": -116.1932076}, {"type": "node", "id": 6779713113, "lat": 43.5978831, "lon": -116.1932072}, {"type": "node", "id": 6779713114, "lat": 43.5978833, "lon": -116.1931292}, {"type": "node", "id": 6779713115, "lat": 43.5978896, "lon": -116.1931292}, {"type": "node", "id": 6779713116, "lat": 43.5978897, "lon": -116.1930224}, {"type": "node", "id": 6779713117, "lat": 43.5979532, "lon": -116.1930225}, {"type": "node", "id": 6779713118, "lat": 43.5980665, "lon": -116.1930855}, {"type": "node", "id": 6779713119, "lat": 43.5981882, "lon": -116.1930838}, {"type": "node", "id": 6779713120, "lat": 43.5977942, "lon": -116.1930925, "tags": {"addr:city": "Boise", "addr:housenumber": "1216", "addr:postcode": "83706", "addr:state": "ID", "addr:street": "South Broadway Avenue", "beauty": "tanning", "name": "Jamaca Me Tan", "opening_hours": "Mo-Fr 09:00-20:00; Sa 10:00-18:00; Su 11:00-17:00", "shop": "beauty"}}, {"type": "node", "id": 6779713121, "lat": 43.5976447, "lon": -116.193087, "tags": {"addr:city": "Boise", "addr:housenumber": "1218", "addr:postcode": "83706", "addr:state": "ID", "addr:street": "South Broadway Avenue", "name": "World Finance Loans & Tax Services", "shop": "money_lender"}}, {"type": "node", "id": 6779713122, "lat": 43.5975364, "lon": -116.1931011, "tags": {"addr:city": "Boise", "addr:housenumber": "1222", "addr:postcode": "83706", "addr:state": "ID", "addr:street": "South Broadway Avenue", "name": "Lendnation", "opening_hours": "Mo-Fr 09:00-19:00; Sa 09:00-16:00", "phone": "+1-208-429-9331", "shop": "money_lender", "website": "https://www.lendnation.com"}}, {"type": "node", "id": 6779713123, "lat": 43.5974785, "lon": -116.1931019, "tags": {"name": "Vapors Alley", "opening_hours": "Mo-Su 09:00-20:00", "phone": "+1-208-258-8145", "shop": "e-cigarette"}}, {"type": "node", "id": 6779713132, "lat": 43.5968625, "lon": -116.194194}, {"type": "node", "id": 6779713133, "lat": 43.5968626, "lon": -116.1942259}, {"type": "node", "id": 6779713134, "lat": 43.596799, "lon": -116.1942265}, {"type": "node", "id": 6779713135, "lat": 43.5967988, "lon": -116.1942007}, {"type": "node", "id": 6779713136, "lat": 43.5967804, "lon": -116.1942008}, {"type": "node", "id": 6779713137, "lat": 43.5967796, "lon": -116.1940398}, {"type": "node", "id": 6779713138, "lat": 43.5967966, "lon": -116.1940396}, {"type": "node", "id": 6779713139, "lat": 43.5967964, "lon": -116.1940031}, {"type": "node", "id": 6779713140, "lat": 43.5969845, "lon": -116.1940014}, {"type": "node", "id": 6779713141, "lat": 43.5969847, "lon": -116.1940414}, {"type": "node", "id": 6779713142, "lat": 43.5970544, "lon": -116.1940408}, {"type": "node", "id": 6779713170, "lat": 43.5961661, "lon": -116.1929792}, {"type": "node", "id": 6779713171, "lat": 43.596166, "lon": -116.1932423}, {"type": "node", "id": 6779713172, "lat": 43.5960648, "lon": -116.1932422}, {"type": "node", "id": 6779713173, "lat": 43.5960648, "lon": -116.1932773}, {"type": "node", "id": 6779713174, "lat": 43.595961, "lon": -116.1932772}, {"type": "node", "id": 6779713175, "lat": 43.5959611, "lon": -116.1930819}, {"type": "node", "id": 6779713176, "lat": 43.5960496, "lon": -116.193082}, {"type": "node", "id": 6779713177, "lat": 43.5960496, "lon": -116.1929791}, {"type": "node", "id": 6779713179, "lat": 43.5956057, "lon": -116.194014, "tags": {"addr:city": "Boise", "addr:housenumber": "1401", "addr:postcode": "83706", "addr:state": "ID", "addr:street": "South Broadway Avenue", "addr:unit": "B", "alt_name": "MetroPCS", "brand": "Metro by T-Mobile", "brand:wikidata": "Q1925685", "name": "Metro by T-Mobile", "shop": "mobile_phone", "website": "https://www.metrobyt-mobile.com/stores/bd/metro-by-t-mobile-boise-id-10222755/"}}, {"type": "node", "id": 6779713180, "lat": 43.595434, "lon": -116.194048}, {"type": "node", "id": 6779713182, "lat": 43.5948769, "lon": -116.194224}, {"type": "node", "id": 6779713183, "lat": 43.594878, "lon": -116.1940233}, {"type": "node", "id": 6779713184, "lat": 43.5947207, "lon": -116.1940218}, {"type": "node", "id": 6779791485, "lat": 43.5947201, "lon": -116.1941476}, {"type": "node", "id": 6779791486, "lat": 43.5947292, "lon": -116.1941477}, {"type": "node", "id": 6779791487, "lat": 43.5947288, "lon": -116.1942225}, {"type": "node", "id": 6779791489, "lat": 43.5957657, "lon": -116.1932792}, {"type": "node", "id": 6779791490, "lat": 43.5957651, "lon": -116.1931674}, {"type": "node", "id": 6779791491, "lat": 43.5956878, "lon": -116.1931681}, {"type": "node", "id": 6779791492, "lat": 43.5956875, "lon": -116.1931094}, {"type": "node", "id": 6779791493, "lat": 43.595653, "lon": -116.1930333}, {"type": "node", "id": 6779791494, "lat": 43.5956386, "lon": -116.1930334}, {"type": "node", "id": 6779791495, "lat": 43.595638, "lon": -116.1929135}, {"type": "node", "id": 6779791496, "lat": 43.5955696, "lon": -116.1929141}, {"type": "node", "id": 6779791497, "lat": 43.5955709, "lon": -116.1931786}, {"type": "node", "id": 6779791498, "lat": 43.5955812, "lon": -116.1931785}, {"type": "node", "id": 6779791499, "lat": 43.5955817, "lon": -116.1932809}, {"type": "node", "id": 6779791500, "lat": 43.5954634, "lon": -116.1931724}, {"type": "node", "id": 6779791501, "lat": 43.5954634, "lon": -116.1930106}, {"type": "node", "id": 6779791503, "lat": 43.5955536, "lon": -116.1931521}, {"type": "node", "id": 6779791504, "lat": 43.5954919, "lon": -116.1931523}, {"type": "node", "id": 6779791505, "lat": 43.5954919, "lon": -116.1931722}, {"type": "node", "id": 6779791506, "lat": 43.5954308, "lon": -116.1931724}, {"type": "node", "id": 6779791507, "lat": 43.5954308, "lon": -116.1931556}, {"type": "node", "id": 6779791508, "lat": 43.5953727, "lon": -116.1931556}, {"type": "node", "id": 6779791509, "lat": 43.5953727, "lon": -116.1930106}, {"type": "node", "id": 6779824867, "lat": 43.5942809, "lon": -116.194147, "tags": {"addr:city": "Boise", "addr:housenumber": "1505", "addr:postcode": "83706", "addr:state": "ID", "addr:street": "South Broadway Avenue", "amenity": "restaurant", "brand": "Pizza Hut", "brand:wikidata": "Q191615", "cuisine": "pizza", "name": "Pizza Hut"}}, {"type": "node", "id": 6779824868, "lat": 43.5942512, "lon": -116.19392, "tags": {"addr:city": "Boise", "addr:housenumber": "1503", "addr:postcode": "83706", "addr:state": "ID", "addr:street": "South Broadway Avenue", "cannabis:cbd": "only", "name": "Nugget Cbd", "shop": "cannabis"}}, {"type": "node", "id": 6779824870, "lat": 43.594429, "lon": -116.193042}, {"type": "node", "id": 6779824871, "lat": 43.5940397, "lon": -116.1932701}, {"type": "node", "id": 6779824872, "lat": 43.5939614, "lon": -116.1932696}, {"type": "node", "id": 6779824873, "lat": 43.5939621, "lon": -116.1930639}, {"type": "node", "id": 6779824874, "lat": 43.5939962, "lon": -116.1930641}, {"type": "node", "id": 6779824875, "lat": 43.5939961, "lon": -116.1930953}, {"type": "node", "id": 6779824876, "lat": 43.5940403, "lon": -116.1930955}, {"type": "node", "id": 6779824877, "lat": 43.5939021, "lon": -116.1932639}, {"type": "node", "id": 6779824878, "lat": 43.5938259, "lon": -116.1932631}, {"type": "node", "id": 6779824879, "lat": 43.5938266, "lon": -116.1931236}, {"type": "node", "id": 6779824880, "lat": 43.5939028, "lon": -116.1931243}, {"type": "node", "id": 6779824881, "lat": 43.5936659, "lon": -116.193304}, {"type": "node", "id": 6779824882, "lat": 43.5936656, "lon": -116.1932173}, {"type": "node", "id": 6779824883, "lat": 43.5936401, "lon": -116.1932175}, {"type": "node", "id": 6779824884, "lat": 43.5936398, "lon": -116.1931235}, {"type": "node", "id": 6779845985, "lat": 43.5935979, "lon": -116.1931238}, {"type": "node", "id": 6779845986, "lat": 43.593598, "lon": -116.1931491}, {"type": "node", "id": 6779845987, "lat": 43.5935772, "lon": -116.1931492}, {"type": "node", "id": 6779845988, "lat": 43.5935774, "lon": -116.1932214}, {"type": "node", "id": 6779845989, "lat": 43.5936016, "lon": -116.1932213}, {"type": "node", "id": 6779845990, "lat": 43.5936018, "lon": -116.1933044}, {"type": "node", "id": 6779845991, "lat": 43.5934807, "lon": -116.193219, "tags": {"brand": "State Farm", "brand:wikidata": "Q2007336", "name": "State Farm", "office": "insurance", "phone": "+1-208-424-7691"}}, {"type": "node", "id": 6779845992, "lat": 43.5929526, "lon": -116.1942232}, {"type": "node", "id": 6779845993, "lat": 43.592808, "lon": -116.194224}, {"type": "node", "id": 6779845994, "lat": 43.5928075, "lon": -116.1940241}, {"type": "node", "id": 6779845995, "lat": 43.59291, "lon": -116.1940236}, {"type": "node", "id": 6779845996, "lat": 43.5929522, "lon": -116.1940868}, {"type": "node", "id": 6779846010, "lat": 43.5925256, "lon": -116.194013}, {"type": "node", "id": 6779846011, "lat": 43.5922925, "lon": -116.194012}, {"type": "node", "id": 6779846012, "lat": 43.592293, "lon": -116.1938264}, {"type": "node", "id": 6779846013, "lat": 43.5923902, "lon": -116.1938269}, {"type": "node", "id": 6779846014, "lat": 43.5924326, "lon": -116.1937667}, {"type": "node", "id": 6779846015, "lat": 43.5925262, "lon": -116.1937671}, {"type": "node", "id": 6779846048, "lat": 43.5919379, "lon": -116.1940358}, {"type": "node", "id": 6779846049, "lat": 43.591938, "lon": -116.1940026}, {"type": "node", "id": 6779846050, "lat": 43.591942, "lon": -116.1940027}, {"type": "node", "id": 6779846051, "lat": 43.591943, "lon": -116.1937696}, {"type": "node", "id": 6779846052, "lat": 43.5918451, "lon": -116.1937688}, {"type": "node", "id": 6779846053, "lat": 43.591844, "lon": -116.194035}, {"type": "node", "id": 6779846055, "lat": 43.5918395, "lon": -116.1937707}, {"type": "node", "id": 6779846056, "lat": 43.591733, "lon": -116.1937708}, {"type": "node", "id": 6779846057, "lat": 43.5917328, "lon": -116.1941531}, {"type": "node", "id": 6779846058, "lat": 43.5917328, "lon": -116.1939478}, {"type": "node", "id": 6779846059, "lat": 43.5916635, "lon": -116.1939477}, {"type": "node", "id": 6779846060, "lat": 43.591663, "lon": -116.1937716}, {"type": "node", "id": 6779846061, "lat": 43.5916638, "lon": -116.1939201}, {"type": "node", "id": 6779846062, "lat": 43.5915942, "lon": -116.1939208}, {"type": "node", "id": 6779846063, "lat": 43.5915934, "lon": -116.1937723}, {"type": "node", "id": 6779846064, "lat": 43.5914153, "lon": -116.1938093, "tags": {"name": "Record World", "shop": "music"}}, {"type": "node", "id": 6779846068, "lat": 43.5912179, "lon": -116.1938046, "tags": {"addr:city": "Boise", "addr:housenumber": "1773", "addr:postcode": "83706", "addr:state": "ID", "addr:street": "South Broadway Avenue", "name": "Pampered Pets", "opening_hours": "Mo-Fr 09:00-16:00; Sa[3] 09:00-15:00", "shop": "pet_grooming"}}, {"type": "node", "id": 6779846069, "lat": 43.591183, "lon": -116.1942078, "tags": {"alt_name": "Edward Jones Investments", "brand": "Edward Jones", "brand:wikidata": "Q5343830", "name": "Edward Jones", "office": "financial_advisor"}}, {"type": "node", "id": 6779846070, "lat": 43.5911022, "lon": -116.1942014, "tags": {"brand": "Farmers Insurance", "brand:wikidata": "Q1396863", "name": "Farmers Insurance", "office": "insurance"}}, {"type": "node", "id": 6779846076, "lat": 43.591791, "lon": -116.1932669, "tags": {"addr:city": "Boise", "addr:housenumber": "1712", "addr:postcode": "83706", "addr:state": "ID", "addr:street": "South Broadway Avenue", "amenity": "bar", "name": "Broadway Bar", "opening_hours": "Mo-Su 10:00-02:00"}}, {"type": "node", "id": 6779846077, "lat": 43.5916861, "lon": -116.1933836, "tags": {"addr:city": "Boise", "addr:housenumber": "1716", "addr:postcode": "83706", "addr:state": "ID", "addr:street": "South Broadway Avenue", "amenity": "restaurant", "cuisine": "korean", "name": "K-Fusion"}}, {"type": "node", "id": 6779846078, "lat": 43.5916751, "lon": -116.1931947, "tags": {"addr:city": "Boise", "addr:housenumber": "1724", "addr:postcode": "83706", "addr:state": "ID", "addr:street": "South Broadway Avenue", "name": "Hair Designs on Broadway", "shop": "hairdresser"}}, {"type": "node", "id": 6779846079, "lat": 43.5915888, "lon": -116.1931152, "tags": {"addr:city": "Boise", "addr:housenumber": "1736", "addr:postcode": "83706", "addr:state": "ID", "addr:street": "South Broadway Avenue", "name": "Jiffy Clean Coin Laundry", "shop": "laundry"}}, {"type": "node", "id": 6779846081, "lat": 43.5910034, "lon": -116.1931614, "tags": {"name": "Capital City Auto", "shop": "car_repair"}}, {"type": "node", "id": 6779846084, "lat": 43.5903661, "lon": -116.1927173, "tags": {"addr:city": "Boise", "addr:housenumber": "1808", "addr:postcode": "83706", "addr:state": "ID", "addr:street": "South Broadway Avenue", "amenity": "restaurant", "cuisine": "mongolian_grill", "name": "The Original Mongolian BBQ", "opening_hours": "Mo-Th 10:45-21:30; Fr,Sa 10:45-22:00; Su 11:00-20:30", "website": "https://www.idahomongolianbbq.com/"}}, {"type": "node", "id": 6913398145, "lat": 43.5972615, "lon": -116.1957606}, {"type": "node", "id": 6913398146, "lat": 43.5974005, "lon": -116.1957595}, {"type": "node", "id": 6916122220, "lat": 43.5770708, "lon": -116.1944947}, {"type": "node", "id": 6916122221, "lat": 43.5769152, "lon": -116.194284}, {"type": "node", "id": 6916122222, "lat": 43.5768016, "lon": -116.1944439}, {"type": "node", "id": 6939580714, "lat": 43.5678319, "lon": -116.1857642}, {"type": "node", "id": 6939580775, "lat": 43.5682344, "lon": -116.1832284}, {"type": "node", "id": 6939580776, "lat": 43.5682405, "lon": -116.1832406}, {"type": "node", "id": 6939580780, "lat": 43.5680555, "lon": -116.1833577}, {"type": "node", "id": 6939583498, "lat": 43.5679685, "lon": -116.1857508}, {"type": "node", "id": 6939583499, "lat": 43.5679527, "lon": -116.1854439}, {"type": "node", "id": 6939583500, "lat": 43.5678649, "lon": -116.1854525}, {"type": "node", "id": 6939583501, "lat": 43.567812, "lon": -116.1844202}, {"type": "node", "id": 6939583502, "lat": 43.5677733, "lon": -116.184424}, {"type": "node", "id": 6939583503, "lat": 43.5677697, "lon": -116.1843534}, {"type": "node", "id": 6939583504, "lat": 43.5677592, "lon": -116.1843544}, {"type": "node", "id": 6939583505, "lat": 43.5677526, "lon": -116.184225}, {"type": "node", "id": 6943640577, "lat": 43.600129, "lon": -116.1937579}, {"type": "node", "id": 6943640579, "lat": 43.6003259, "lon": -116.1939797, "tags": {"addr:city": "Boise", "addr:housenumber": "1011", "addr:postcode": "83706", "addr:state": "ID", "addr:street": "South Broadway Avenue", "amenity": "restaurant", "cuisine": "teriyaki", "name": "Happy Teriyaki", "opening_hours": "Mo-Th 11:00-21:00; Fr-Sa 11:00-23:00", "phone": "+1-208-342-1587", "website": "https://www.ilovehappyteriyaki.com"}}, {"type": "node", "id": 6943640580, "lat": 43.6003272, "lon": -116.194081, "tags": {"addr:city": "Boise", "addr:housenumber": "1017", "addr:postcode": "83706", "addr:state": "ID", "addr:street": "South Broadway Avenue", "alt_name": "Verizon Wireless", "brand": "Verizon", "brand:wikidata": "Q919641", "name": "Verizon", "opening_hours": "Mo-Sa 10:00-20:00; Su 11:00-18:00", "operator": "Go Wireless", "shop": "mobile_phone"}}, {"type": "node", "id": 6964945340, "lat": 43.599567, "lon": -116.1667617}, {"type": "node", "id": 6964945341, "lat": 43.5989298, "lon": -116.1677635}, {"type": "node", "id": 6964945342, "lat": 43.599163, "lon": -116.168092}, {"type": "node", "id": 6964945343, "lat": 43.5995942, "lon": -116.168253}, {"type": "node", "id": 6964945344, "lat": 43.6003499, "lon": -116.168246}, {"type": "node", "id": 7068561578, "lat": 43.56937, "lon": -116.185575}, {"type": "node", "id": 7068561579, "lat": 43.569541, "lon": -116.185389}, {"type": "node", "id": 7068561580, "lat": 43.569647, "lon": -116.185574}, {"type": "node", "id": 7068561742, "lat": 43.570424, "lon": -116.187241}, {"type": "node", "id": 7068561743, "lat": 43.570306, "lon": -116.187032}, {"type": "node", "id": 7068561744, "lat": 43.570451, "lon": -116.186876}, {"type": "node", "id": 7068561745, "lat": 43.570471, "lon": -116.186913}, {"type": "node", "id": 7068561746, "lat": 43.570695, "lon": -116.186672}, {"type": "node", "id": 7068561747, "lat": 43.570967, "lon": -116.187154}, {"type": "node", "id": 7068561748, "lat": 43.570628, "lon": -116.187519}, {"type": "node", "id": 7068561905, "lat": 43.572559, "lon": -116.195433}, {"type": "node", "id": 7068561906, "lat": 43.572487, "lon": -116.19539}, {"type": "node", "id": 7068561907, "lat": 43.572546, "lon": -116.1952}, {"type": "node", "id": 7068561908, "lat": 43.572618, "lon": -116.195243}, {"type": "node", "id": 7068561972, "lat": 43.577909, "lon": -116.197934}, {"type": "node", "id": 7068561973, "lat": 43.577963, "lon": -116.197742}, {"type": "node", "id": 7068561974, "lat": 43.57811, "lon": -116.197822}, {"type": "node", "id": 7068561975, "lat": 43.578092, "lon": -116.197888}, {"type": "node", "id": 7068561976, "lat": 43.578131, "lon": -116.19791}, {"type": "node", "id": 7068561977, "lat": 43.578096, "lon": -116.198035}, {"type": "node", "id": 7138099742, "lat": 43.57393, "lon": -116.164075}, {"type": "node", "id": 7138100150, "lat": 43.5738589, "lon": -116.1636013}, {"type": "node", "id": 7138104277, "lat": 43.57393, "lon": -116.164335}, {"type": "node", "id": 7138104603, "lat": 43.5740049, "lon": -116.1635979}, {"type": "node", "id": 7138104975, "lat": 43.573794, "lon": -116.164335}, {"type": "node", "id": 7138107539, "lat": 43.5740061, "lon": -116.1636919}, {"type": "node", "id": 7138271368, "lat": 43.587535, "lon": -116.19315}, {"type": "node", "id": 7138286773, "lat": 43.586554, "lon": -116.194411}, {"type": "node", "id": 7138293060, "lat": 43.586198, "lon": -116.194297}, {"type": "node", "id": 7138301480, "lat": 43.586553, "lon": -116.194028}, {"type": "node", "id": 7138302174, "lat": 43.5916369, "lon": -116.1957174}, {"type": "node", "id": 7138307884, "lat": 43.5925124, "lon": -116.1972678}, {"type": "node", "id": 7138308734, "lat": 43.594163, "lon": -116.192919}, {"type": "node", "id": 7138309272, "lat": 43.579243, "lon": -116.172701}, {"type": "node", "id": 7138310118, "lat": 43.599555, "lon": -116.193082}, {"type": "node", "id": 7138310229, "lat": 43.5822162, "lon": -116.173761}, {"type": "node", "id": 7138310325, "lat": 43.578207, "lon": -116.193292}, {"type": "node", "id": 7138311009, "lat": 43.59306, "lon": -116.1933164}, {"type": "node", "id": 7138311032, "lat": 43.585532, "lon": -116.1833899}, {"type": "node", "id": 7138313819, "lat": 43.599557, "lon": -116.192964}, {"type": "node", "id": 7138314300, "lat": 43.579818, "lon": -116.172899}, {"type": "node", "id": 7138314535, "lat": 43.586847, "lon": -116.192962}, {"type": "node", "id": 7138315968, "lat": 43.594163, "lon": -116.193042}, {"type": "node", "id": 7138316819, "lat": 43.587509, "lon": -116.193176}, {"type": "node", "id": 7138317156, "lat": 43.5823652, "lon": -116.173761}, {"type": "node", "id": 7138318138, "lat": 43.578162, "lon": -116.193337}, {"type": "node", "id": 7138318685, "lat": 43.579653, "lon": -116.172601}, {"type": "node", "id": 7138318862, "lat": 43.593189, "lon": -116.1933176}, {"type": "node", "id": 7138319655, "lat": 43.587667, "lon": -116.193903}, {"type": "node", "id": 7138320242, "lat": 43.5840538, "lon": -116.1943496}, {"type": "node", "id": 7138321012, "lat": 43.578133, "lon": -116.193246}, {"type": "node", "id": 7138321103, "lat": 43.5823652, "lon": -116.1736379}, {"type": "node", "id": 7138323096, "lat": 43.584948, "lon": -116.193249}, {"type": "node", "id": 7138323868, "lat": 43.578166, "lon": -116.193246}, {"type": "node", "id": 7138325602, "lat": 43.584579, "lon": -116.193247}, {"type": "node", "id": 7138325807, "lat": 43.5915218, "lon": -116.1958676}, {"type": "node", "id": 7138326146, "lat": 43.595486, "lon": -116.194048}, {"type": "node", "id": 7138326622, "lat": 43.595486, "lon": -116.193941}, {"type": "node", "id": 7138327104, "lat": 43.5924114, "lon": -116.1971057}, {"type": "node", "id": 7138327447, "lat": 43.587684, "lon": -116.19315}, {"type": "node", "id": 7138327509, "lat": 43.579243, "lon": -116.172481}, {"type": "node", "id": 7138327919, "lat": 43.587684, "lon": -116.192959}, {"type": "node", "id": 7138328137, "lat": 43.5837748, "lon": -116.1945811}, {"type": "node", "id": 7138328153, "lat": 43.586087, "lon": -116.194142}, {"type": "node", "id": 7138328176, "lat": 43.5840539, "lon": -116.1945808}, {"type": "node", "id": 7138328405, "lat": 43.5855344, "lon": -116.1827365}, {"type": "node", "id": 7138328485, "lat": 43.586087, "lon": -116.194298}, {"type": "node", "id": 7138329024, "lat": 43.58737, "lon": -116.194094}, {"type": "node", "id": 7138329691, "lat": 43.579087, "lon": -116.172481}, {"type": "node", "id": 7138330116, "lat": 43.578162, "lon": -116.193388}, {"type": "node", "id": 7138330222, "lat": 43.58737, "lon": -116.193903}, {"type": "node", "id": 7138331255, "lat": 43.599392, "lon": -116.193075}, {"type": "node", "id": 7138331576, "lat": 43.584579, "lon": -116.193053}, {"type": "node", "id": 7138331604, "lat": 43.578207, "lon": -116.193337}, {"type": "node", "id": 7138331932, "lat": 43.586198, "lon": -116.194142}, {"type": "node", "id": 7138332527, "lat": 43.595519, "lon": -116.19382}, {"type": "node", "id": 7138332815, "lat": 43.5856098, "lon": -116.1833904}, {"type": "node", "id": 7138332820, "lat": 43.5915937, "lon": -116.1959727}, {"type": "node", "id": 7138333022, "lat": 43.5925832, "lon": -116.1971961}, {"type": "node", "id": 7138333686, "lat": 43.587507, "lon": -116.192954}, {"type": "node", "id": 7138333833, "lat": 43.594429, "lon": -116.192919}, {"type": "node", "id": 7138334278, "lat": 43.578133, "lon": -116.193388}, {"type": "node", "id": 7138334631, "lat": 43.595434, "lon": -116.19382}, {"type": "node", "id": 7138334924, "lat": 43.5931896, "lon": -116.193208}, {"type": "node", "id": 7138335355, "lat": 43.586198, "lon": -116.194411}, {"type": "node", "id": 7138336875, "lat": 43.5918144, "lon": -116.1959767}, {"type": "node", "id": 7138337397, "lat": 43.595519, "lon": -116.193941}, {"type": "node", "id": 7138339161, "lat": 43.579818, "lon": -116.172601}, {"type": "node", "id": 7234148988, "lat": 43.6001294, "lon": -116.1939422}, {"type": "node", "id": 8203010408, "lat": 43.5678847, "lon": -116.1854506}, {"type": "node", "id": 8235391824, "lat": 43.6001361, "lon": -116.1657167}, {"type": "node", "id": 8235391825, "lat": 43.5993776, "lon": -116.1648651}, {"type": "node", "id": 8235391826, "lat": 43.598952, "lon": -116.1657752}, {"type": "node", "id": 8235391827, "lat": 43.6001315, "lon": -116.1670393}, {"type": "node", "id": 8235391828, "lat": 43.6003935, "lon": -116.1682421}, {"type": "node", "id": 8235391829, "lat": 43.600486, "lon": -116.1678549}, {"type": "node", "id": 8235391832, "lat": 43.5995662, "lon": -116.1650769}, {"type": "node", "id": 8329056421, "lat": 43.5822192, "lon": -116.1714225, "tags": {"addr:city": "Boise", "addr:housenumber": "991", "addr:postcode": "83706", "addr:state": "ID", "addr:street": "East Parkcenter Boulevard", "brand": "Martinizing Dry Cleaning", "brand:wikidata": "Q6777169", "name": "Martinizing Dry Cleaning", "opening_hours": "Mo-Fr 06:30-18:30, Sa 08:30-17:30", "shop": "dry_cleaning"}}, {"type": "node", "id": 8331532922, "lat": 43.5763395, "lon": -116.1486264, "tags": {"addr:city": "Boise", "addr:housenumber": "3083", "addr:postcode": "83716", "addr:state": "ID", "addr:street": "East Barber Valley Drive", "amenity": "restaurant", "name": "House of the Little Pig", "website": "https://www.hlpboise.com/"}}, {"type": "node", "id": 8331538297, "lat": 43.5930605, "lon": -116.1932068}, {"type": "node", "id": 8331540415, "lat": 43.5745724, "lon": -116.154804, "tags": {"addr:city": "Boise", "addr:housenumber": "3077", "addr:postcode": "83706", "addr:state": "ID", "addr:street": "South Bown Way", "name": "Templeton Real Estate Group", "office": "estate_agent", "website": "https://www.templetonrealestategroup.com/"}}, {"type": "node", "id": 8331545169, "lat": 43.5713905, "lon": -116.188293, "tags": {"addr:city": "Boise", "addr:housenumber": "3367", "addr:postcode": "83705", "addr:state": "ID", "addr:street": "South Federal Way", "amenity": "restaurant", "brand": "Pizza Hut", "brand:wikidata": "Q191615", "cuisine": "pizza", "name": "Pizza Hut", "phone": "+1 208-387-2600", "website": "https://locations.pizzahut.com/id/boise/3367-s-federal-way"}}, {"type": "node", "id": 8331546339, "lat": 43.5744514, "lon": -116.154342, "tags": {"addr:city": "Boise", "addr:housenumber": "3072", "addr:postcode": "83706", "addr:state": "ID", "addr:street": "South Bown Way", "name": "Eastside Cycles", "shop": "bicycle"}}, {"type": "node", "id": 8331547401, "lat": 43.5742252, "lon": -116.154399, "tags": {"addr:city": "Boise", "addr:housenumber": "2400", "addr:postcode": "83706", "addr:state": "ID", "addr:street": "East Riverwalk Drive", "name": "LKV Architects", "office": "architect", "website": "https://www.lkvarchitects.com/"}}, {"type": "node", "id": 8331577271, "lat": 43.5769572, "lon": -116.194654}, {"type": "node", "id": 8331577515, "lat": 43.5686245, "lon": -116.1842863, "tags": {"addr:city": "Boise", "addr:housenumber": "3633", "addr:postcode": "83705", "addr:state": "ID", "addr:street": "South Federal Way", "brand": "GNC", "brand:wikidata": "Q4808595", "name": "GNC", "shop": "nutrition_supplements", "website": "https://stores.gnc.com/all-stores-idaho/boise/3633-s-federal-way"}}, {"type": "node", "id": 8331577516, "lat": 43.568665, "lon": -116.1842855, "tags": {"addr:city": "Boise", "addr:housenumber": "3629", "addr:postcode": "83705", "addr:state": "ID", "addr:street": "South Federal Way", "brand": "Crumbl Cookies", "brand:wikidata": "Q106924414", "name": "Crumbl Cookies", "shop": "pastry", "short_name": "Crumbl", "website": "https://crumblcookies.com/idsoutheastboise"}}, {"type": "node", "id": 8331577517, "lat": 43.5687545, "lon": -116.184296, "tags": {"addr:city": "Boise", "addr:housenumber": "3625", "addr:postcode": "83705", "addr:state": "ID", "addr:street": "South Federal Way", "brand": "Sport Clips", "brand:wikidata": "Q7579310", "name": "Sport Clips", "shop": "hairdresser"}}, {"type": "node", "id": 8331577518, "lat": 43.5688083, "lon": -116.1842953, "tags": {"addr:city": "Boise", "addr:housenumber": "3621", "addr:postcode": "83705", "addr:state": "ID", "addr:street": "South Federal Way", "alt_name": "Verizon Wireless", "brand": "Verizon", "brand:wikidata": "Q919641", "name": "Verizon", "operator": "Victra", "operator:website": "https://victra.com/stores/id-boise-federal/", "operator:wikidata": "Q118402656", "shop": "mobile_phone", "website": "https://victra.com/stores/id-boise-federal"}}, {"type": "node", "id": 8331577521, "lat": 43.5698046, "lon": -116.188064, "tags": {"addr:city": "Boise", "addr:housenumber": "3548", "addr:postcode": "83705", "addr:state": "ID", "addr:street": "South Findley Avenue", "branch": "Boise Federal Way", "brand": "Petco", "brand:wikidata": "Q7171798", "name": "Petco", "opening_hours": "Mo-We 09:00-20:00; Th 09:00-19:00; Fr-Sa 09:00-20:00; Su 10:00-19:00", "phone": "+1 208-344-1651", "ref": "1205", "shop": "pet", "website": "https://stores.petco.com/id/boise/pet-supplies-boise-id-1205.html"}}, {"type": "node", "id": 8331577527, "lat": 43.5692546, "lon": -116.188346, "tags": {"addr:city": "Boise", "addr:housenumber": "3640", "addr:postcode": "83705", "addr:state": "ID", "addr:street": "South Findley Avenue", "amenity": "restaurant", "cuisine": "sushi", "name": "Shogun Sushi", "website": "https://www.shogunsushi.org/"}}, {"type": "node", "id": 8331577529, "lat": 43.5686117, "lon": -116.188358}, {"type": "node", "id": 8331577532, "lat": 43.568935, "lon": -116.188466, "tags": {"addr:city": "Boise", "addr:housenumber": "3662", "addr:postcode": "83705", "addr:state": "ID", "addr:street": "South Findley Avenue", "amenity": "restaurant", "cuisine": "american", "name": "Ticket Stubs Sports Pub", "website": "https://www.ticketstubssportspub.com/"}}, {"type": "node", "id": 8331577541, "lat": 43.5691983, "lon": -116.188351, "tags": {"addr:city": "Boise", "addr:housenumber": "3642", "addr:postcode": "83705", "addr:state": "ID", "addr:street": "South Findley Avenue", "brand": "T-Mobile", "brand:wikidata": "Q3511885", "name": "T-Mobile", "shop": "mobile_phone", "website": "https://www.t-mobile.com/stores/bd/t-mobile-boise-id-83705-986c"}}, {"type": "node", "id": 8331577557, "lat": 43.5671167, "lon": -116.185947}, {"type": "node", "id": 8331577558, "lat": 43.569476, "lon": -116.185759}, {"type": "node", "id": 8331577563, "lat": 43.5675148, "lon": -116.1803952, "tags": {"addr:city": "Boise", "addr:country": "US", "addr:housenumber": "262", "addr:postcode": "83716", "addr:state": "ID", "addr:street": "East Lake Rim Lane", "check_date": "2025-01-17", "description": "We are professional Boise movers dedicated to providing our customers with high-quality, stress-free moving services. Whether you\u2019re moving to or from Boise, we are here to help make your transition as smooth and hassle-free as possible.", "name": "Idaho Premier Moving", "office": "moving_company", "website": "https://www.boiselocalmoving.com/"}}, {"type": "node", "id": 8331577590, "lat": 43.568314, "lon": -116.1831517}, {"type": "node", "id": 8331577607, "lat": 43.5709202, "lon": -116.192534, "tags": {"addr:city": "Boise", "addr:housenumber": "3491", "addr:postcode": "83705", "addr:state": "ID", "addr:street": "South T K Avenue", "name": "B and D Foods", "shop": "wholesale", "website": "https://banddfoods.com/"}}, {"type": "node", "id": 8331577651, "lat": 43.570453, "lon": -116.18721}, {"type": "node", "id": 8331577688, "lat": 43.5711714, "lon": -116.1877376}, {"type": "node", "id": 8331578415, "lat": 43.5670355, "lon": -116.180965}, {"type": "node", "id": 8331578428, "lat": 43.5740564, "lon": -116.155422, "tags": {"addr:city": "Boise", "addr:housenumber": "3123", "addr:postcode": "83706", "addr:state": "ID", "addr:street": "South Bown Way", "name": "Boise Diamond Ring Fine Jewelry Boutique", "shop": "jewelry", "website": "https://boisediamondring.com/"}}, {"type": "node", "id": 8331578433, "lat": 43.5738675, "lon": -116.155061, "tags": {"addr:city": "Boise", "addr:housenumber": "3122", "addr:postcode": "83706", "addr:state": "ID", "addr:street": "South Bown Way", "name": "SkinOwl", "shop": "cosmetics"}}, {"type": "node", "id": 8331578434, "lat": 43.573902, "lon": -116.155014, "tags": {"addr:city": "Boise", "addr:housenumber": "3118", "addr:postcode": "83706", "addr:state": "ID", "addr:street": "South Bown Way", "name": "The Collab Salon", "shop": "hairdresser"}}, {"type": "node", "id": 8331578482, "lat": 43.5739427, "lon": -116.1556246, "tags": {"addr:city": "Boise", "addr:housenumber": "3139", "addr:postcode": "83706", "addr:state": "ID", "addr:street": "South Bown Way", "amenity": "restaurant", "cuisine": "italian", "name": "Ti Amo Italian Ristorante", "opening_hours": "Mo-Fr 11:00-21:00, Sa-Su 10:00-21:00", "phone": "+1-208-343-4177", "website": "https://tiamoboise.com/"}}, {"type": "node", "id": 8331578483, "lat": 43.5742916, "lon": -116.154515, "tags": {"addr:city": "Boise", "addr:housenumber": "3082", "addr:postcode": "83706", "addr:state": "ID", "addr:street": "South Bown Way", "brand": "Elements Massage", "brand:wikidata": "Q113642393", "name": "Elements Massage", "shop": "massage"}}, {"type": "node", "id": 8331578484, "lat": 43.5742048, "lon": -116.1552505, "tags": {"addr:city": "Boise", "addr:housenumber": "3111", "addr:postcode": "83706", "addr:state": "ID", "addr:street": "South Bown Way", "amenity": "restaurant", "name": "Tavern at Bown Crossing", "website": "https://www.tavernatbown.com/"}}, {"type": "node", "id": 8331578485, "lat": 43.5745374, "lon": -116.1542425, "tags": {"addr:city": "Boise", "addr:housenumber": "3064", "addr:postcode": "83706", "addr:state": "ID", "addr:street": "South Bown Way", "name": "Cravin's Candy Emporium", "shop": "confectionery"}}, {"type": "node", "id": 8331579169, "lat": 43.573794, "lon": -116.164075}, {"type": "node", "id": 8331579171, "lat": 43.5738601, "lon": -116.1636953}, {"type": "node", "id": 8331580826, "lat": 43.579087, "lon": -116.172701}, {"type": "node", "id": 8331581892, "lat": 43.5860781, "lon": -116.183781, "tags": {"addr:city": "Boise", "addr:housenumber": "201", "addr:postcode": "83706", "addr:state": "ID", "addr:street": "West Boise Avenue", "brand": "Jacksons", "brand:wikidata": "Q64617393", "name": "Jacksons", "ref": "173", "shop": "convenience"}}, {"type": "node", "id": 8331581980, "lat": 43.5790916, "lon": -116.174619}, {"type": "node", "id": 8331582010, "lat": 43.5822162, "lon": -116.1736379}, {"type": "node", "id": 8331582105, "lat": 43.585917, "lon": -116.193296}, {"type": "node", "id": 8331582975, "lat": 43.578166, "lon": -116.193292}, {"type": "node", "id": 8331584598, "lat": 43.584948, "lon": -116.193054}, {"type": "node", "id": 8331584668, "lat": 43.586848, "lon": -116.193185}, {"type": "node", "id": 8331584674, "lat": 43.587535, "lon": -116.192959}, {"type": "node", "id": 8331585760, "lat": 43.5853698, "lon": -116.193805, "tags": {"addr:city": "Boise", "addr:housenumber": "2127", "addr:postcode": "83706", "addr:state": "ID", "addr:street": "South Broadway Avenue", "name": "Big Smoke", "ref": "108", "shop": "tobacco"}}, {"type": "node", "id": 8331585839, "lat": 43.5837747, "lon": -116.1943489}, {"type": "node", "id": 8331585869, "lat": 43.586198, "lon": -116.194029}, {"type": "node", "id": 8331585886, "lat": 43.587667, "lon": -116.194094}, {"type": "node", "id": 8331586876, "lat": 43.5795395, "lon": -116.1944489}, {"type": "node", "id": 8331602978, "lat": 43.5914492, "lon": -116.193814, "tags": {"addr:city": "Boise", "addr:housenumber": "1753", "addr:postcode": "83706", "addr:state": "ID", "addr:street": "South Broadway Avenue", "name": "Knucklehead Barbershop", "shop": "hairdresser"}}, {"type": "node", "id": 8331603478, "lat": 43.5912475, "lon": -116.193803, "tags": {"addr:city": "Boise", "addr:housenumber": "1767", "addr:postcode": "83706", "addr:state": "ID", "addr:street": "South Broadway Avenue", "name": "Salvage Sisters and Son", "opening_hours": "Tu-Sa 08:00-17:00", "shop": "antiques"}}, {"type": "node", "id": 8331603483, "lat": 43.591839, "lon": -116.1941533}, {"type": "node", "id": 8331604152, "lat": 43.5970551, "lon": -116.194192}, {"type": "node", "id": 8331604174, "lat": 43.5924534, "lon": -116.1970068}, {"type": "node", "id": 8331605785, "lat": 43.599394, "lon": -116.192957}, {"type": "node", "id": 8331605853, "lat": 43.5984388, "lon": -116.18364}, {"type": "node", "id": 8331606301, "lat": 43.6026877, "lon": -116.173199}, {"type": "node", "id": 8331606302, "lat": 43.6026045, "lon": -116.173043}, {"type": "node", "id": 8340488857, "lat": 43.5955533, "lon": -116.19301}, {"type": "node", "id": 8672373167, "lat": 43.5964096, "lon": -116.1771045, "tags": {"addr:city": "Boise", "addr:housenumber": "404", "addr:postcode": "83706", "addr:state": "ID", "addr:street": "East Parkcenter Boulevard", "addr:unit": "100", "name": "Zero Six Coffee Fix", "opening_hours": "Mo-Fr 06:30-18:00; Sa, Su 07:00-14:00", "phone": "+1-208-424-9463", "shop": "coffee"}}, {"type": "node", "id": 8672374329, "lat": 43.6001511, "lon": -116.1940582, "tags": {"addr:city": "Boise", "addr:housenumber": "1021", "addr:postcode": "83706", "addr:state": "ID", "addr:street": "South Broadway Avenue", "name": "Uptown Cheapskate", "second_hand": "only", "shop": "clothes"}}, {"type": "node", "id": 8672375808, "lat": 43.5738434, "lon": -116.1558348, "tags": {"addr:city": "Boise", "addr:housenumber": "3157", "addr:postcode": "83706", "addr:state": "ID", "addr:street": "South Bown Way", "addr:unit": "100", "name": "M Spa & Salon", "shop": "beauty", "website": "https://www.mspaboise.com/"}}, {"type": "node", "id": 8672379265, "lat": 43.5745243, "lon": -116.1550047, "tags": {"addr:city": "Boise", "addr:housenumber": "2242", "addr:postcode": "83706", "addr:state": "ID", "addr:street": "East Riverwalk Drive", "addr:unit": "220", "brand": "State Farm", "brand:wikidata": "Q2007336", "name": "State Farm", "office": "insurance", "website": "https://www.eastboiseinsurance.com"}}, {"type": "node", "id": 8672381528, "lat": 43.5825041, "lon": -116.172913}, {"type": "node", "id": 8672381529, "lat": 43.579653, "lon": -116.172899}, {"type": "node", "id": 8672381537, "lat": 43.5862225, "lon": -116.183948, "tags": {"addr:city": "Boise", "addr:housenumber": "201", "addr:postcode": "83706", "addr:state": "ID", "addr:street": "West Boise Avenue", "addr:unit": "101", "name": "Comet Dry Cleaners", "shop": "dry_cleaning", "website": "https://www.cometdrycleaners.com/"}}, {"type": "node", "id": 8672381837, "lat": 43.5981994, "lon": -116.195955}, {"type": "node", "id": 8672381856, "lat": 43.595225, "lon": -116.193996}, {"type": "node", "id": 8672381889, "lat": 43.5981552, "lon": -116.193217}, {"type": "node", "id": 9387216811, "lat": 43.5793734, "lon": -116.1944501}, {"type": "node", "id": 9387216812, "lat": 43.5793731, "lon": -116.1943806}, {"type": "node", "id": 9387216813, "lat": 43.5794717, "lon": -116.1943799}, {"type": "node", "id": 9387216814, "lat": 43.5795028, "lon": -116.1941378}, {"type": "node", "id": 9387216815, "lat": 43.5796764, "lon": -116.1941385}, {"type": "node", "id": 9387216816, "lat": 43.579676, "lon": -116.1943219}, {"type": "node", "id": 9387216817, "lat": 43.5795392, "lon": -116.1943838}, {"type": "node", "id": 9387216818, "lat": 43.579471, "lon": -116.1941837}, {"type": "node", "id": 9387216819, "lat": 43.579632, "lon": -116.1943832}, {"type": "node", "id": 9387237466, "lat": 43.585967, "lon": -116.193298}, {"type": "node", "id": 9387237467, "lat": 43.585967, "lon": -116.193323}, {"type": "node", "id": 9387237468, "lat": 43.586002, "lon": -116.193324}, {"type": "node", "id": 9387237469, "lat": 43.586001, "lon": -116.193374}, {"type": "node", "id": 9387237470, "lat": 43.585916, "lon": -116.193372}, {"type": "node", "id": 9491205430, "lat": 43.59522, "lon": -116.193797}, {"type": "node", "id": 9491205431, "lat": 43.595319, "lon": -116.193793}, {"type": "node", "id": 9491205432, "lat": 43.595324, "lon": -116.193992}, {"type": "node", "id": 9646688715, "lat": 43.5981177, "lon": -116.1952184, "tags": {"addr:city": "Boise", "addr:housenumber": "1219", "addr:postcode": "83706", "addr:state": "ID", "addr:street": "South Broadway Avenue", "amenity": "cafe", "branch": "Albertsons Broadway 199", "brand": "Starbucks", "brand:wikidata": "Q37158", "cuisine": "coffee_shop", "name": "Starbucks", "official_name": "Starbucks Coffee", "phone": "+1 208-336-5278", "ref": "1022403", "takeaway": "yes", "website": "https://www.starbucks.com/store-locator/store/1022403/albertsons-broadway-199-1219-s-broadway-ave-boise-id-83706-us"}}, {"type": "node", "id": 9646711225, "lat": 43.5812595, "lon": -116.1721805, "tags": {"addr:city": "Boise", "addr:housenumber": "909", "addr:postcode": "83706", "addr:state": "ID", "addr:street": "East Parkcenter Boulevard", "amenity": "cafe", "branch": "Albertsons Boise 169", "brand": "Starbucks", "brand:wikidata": "Q37158", "cuisine": "coffee_shop", "name": "Starbucks", "official_name": "Starbucks Coffee", "phone": "+1 208-345-3180", "ref": "1022768", "takeaway": "yes", "website": "https://www.starbucks.com/store-locator/store/1022768/albertsons-boise-169-909-e-parkcenter-blvd-boise-id-83706-us"}}, {"type": "node", "id": 9646713142, "lat": 43.5680819, "lon": -116.1870428, "tags": {"addr:city": "Boise", "addr:housenumber": "3527", "addr:postcode": "83705", "addr:state": "ID", "addr:street": "Federal Way", "amenity": "cafe", "branch": "Fred Meyer Boise Federal Way 6", "brand": "Starbucks", "brand:wikidata": "Q37158", "cuisine": "coffee_shop", "name": "Starbucks", "official_name": "Starbucks Coffee", "phone": "+1 208-424-7500", "ref": "12411", "takeaway": "yes", "website": "https://www.starbucks.com/store-locator/store/12411/fred-meyer-boise-federal-way-6-3527-federal-way-boise-id-837055204-us"}}, {"type": "node", "id": 9765450280, "lat": 43.5917649, "lon": -116.19529, "tags": {"addr:city": "Boise", "addr:housenumber": "1108", "addr:postcode": "83706", "addr:state": "ID", "addr:street": "West Boise Avenue", "addr:unit": "120", "office": "yes"}}, {"type": "node", "id": 9765450281, "lat": 43.5918096, "lon": -116.195378, "tags": {"addr:city": "Boise", "addr:housenumber": "1108", "addr:postcode": "83706", "addr:state": "ID", "addr:street": "West Boise Avenue", "addr:unit": "110", "office": "yes"}}, {"type": "node", "id": 9765450282, "lat": 43.5918483, "lon": -116.195443, "tags": {"addr:city": "Boise", "addr:housenumber": "1108", "addr:postcode": "83706", "addr:state": "ID", "addr:street": "West Boise Avenue", "addr:unit": "100", "name": "Erstad Wealth Management", "office": "yes"}}, {"type": "node", "id": 10808932127, "lat": 43.5765525, "lon": -116.1493519, "tags": {"addr:city": "Boise", "addr:housenumber": "3035", "addr:postcode": "83716", "addr:state": "ID", "addr:street": "East Barber Valley Drive", "addr:unit": "130", "amenity": "restaurant", "cuisine": "american", "name": "Sid's Garage", "website": "https://www.sidsgarage.com/locations/barberstation"}}, {"type": "node", "id": 10927069666, "lat": 43.5726022, "lon": -116.195294}, {"type": "node", "id": 11006285760, "lat": 43.5925823, "lon": -116.1971441}, {"type": "node", "id": 11006285761, "lat": 43.592564, "lon": -116.1971675}, {"type": "node", "id": 11006285762, "lat": 43.5925269, "lon": -116.1972492}, {"type": "node", "id": 11006285763, "lat": 43.5925338, "lon": -116.1972594}, {"type": "node", "id": 11006285764, "lat": 43.5924885, "lon": -116.1970044}, {"type": "node", "id": 11006285765, "lat": 43.5924738, "lon": -116.1969974}, {"type": "node", "id": 11006285766, "lat": 43.5924831, "lon": -116.1970113}, {"type": "node", "id": 11006285767, "lat": 43.5924594, "lon": -116.1970158}, {"type": "node", "id": 11006285768, "lat": 43.592445, "lon": -116.1970626}, {"type": "node", "id": 11006285769, "lat": 43.5924287, "lon": -116.1970385}, {"type": "node", "id": 11006285770, "lat": 43.5924522, "lon": -116.1971664}, {"type": "node", "id": 11006285771, "lat": 43.5924976, "lon": -116.1972458}, {"type": "node", "id": 11006285772, "lat": 43.5924855, "lon": -116.1972613}, {"type": "node", "id": 11006285773, "lat": 43.5924358, "lon": -116.1971874}, {"type": "node", "id": 11006285781, "lat": 43.5925139, "lon": -116.1970423}, {"type": "node", "id": 11017241062, "lat": 43.5840435, "lon": -116.1943497}, {"type": "node", "id": 11017241063, "lat": 43.5838554, "lon": -116.1943488}, {"type": "node", "id": 11017241064, "lat": 43.5838554, "lon": -116.1943325}, {"type": "node", "id": 11017241065, "lat": 43.5840435, "lon": -116.1943323}, {"type": "node", "id": 11037771503, "lat": 43.6015463, "lon": -116.1638754, "tags": {"shop": "ticket"}}, {"type": "node", "id": 11046694385, "lat": 43.5822886, "lon": -116.1736379}, {"type": "node", "id": 11046694386, "lat": 43.5822903, "lon": -116.173761}, {"type": "node", "id": 11046694387, "lat": 43.5823289, "lon": -116.173761}, {"type": "node", "id": 11046694388, "lat": 43.5823272, "lon": -116.1736379}, {"type": "node", "id": 11068936244, "lat": 43.5979387, "lon": -116.193207}, {"type": "node", "id": 11408610336, "lat": 43.5856253, "lon": -116.1832793}, {"type": "node", "id": 11408610337, "lat": 43.5856102, "lon": -116.1832792}, {"type": "node", "id": 11662945436, "lat": 43.5671859, "lon": -116.1838852}, {"type": "node", "id": 11662945437, "lat": 43.5677146, "lon": -116.1838351}, {"type": "node", "id": 11662945438, "lat": 43.5677179, "lon": -116.1839178}, {"type": "node", "id": 11662945441, "lat": 43.5672004, "lon": -116.1841588}, {"type": "node", "id": 11952742070, "lat": 43.592725, "lon": -116.1932435, "tags": {"addr:postcode": "83706", "opening_hours": "Mo-Su 07:00-22:00", "shop": "laundry", "website": "https://breezelaundry.com/locations/broadway-avenue/"}}, {"type": "node", "id": 11953134170, "lat": 43.5927177, "lon": -116.1932421, "tags": {"addr:postcode": "83706", "name": "Breeze Better Laundry", "opening_hours": "Mo-Su 07:00-22:00", "shop": "laundry", "website": "https://breezelaundry.com/locations/broadway-avenue/"}}, {"type": "node", "id": 12105236832, "lat": 43.5715077, "lon": -116.189058, "tags": {"shop": "convenience"}}, {"type": "node", "id": 12196268476, "lat": 43.5976192, "lon": -116.1835486, "tags": {"addr:housenumber": "276", "addr:street": "Bobwhite Court", "amenity": "restaurant", "name": "Barbacoa Grill", "opening_hours": "Mo-Th, Su 16:00-22:00", "phone": "+1-208-338-5000", "website": "https://barbacoa-boise.com/"}}, {"type": "node", "id": 12196386287, "lat": 43.5921328, "lon": -116.1931675, "tags": {"addr:housenumber": "1630", "addr:street": "South Broadway Avenue", "amenity": "restaurant", "name": "Manna's Donuts", "opening_hours": "Mo-Sa 06:00-14:00", "phone": "+1-208-703-1627", "website": "https://mannasdonuts.com/"}}, {"type": "node", "id": 12549428022, "lat": 43.5915478, "lon": -116.1938072, "tags": {"addr:city": "Boise", "addr:housenumber": "1737", "addr:postcode": "83706", "addr:state": "ID", "addr:street": "South Broadway Avenue", "amenity": "cafe", "name": "Hideout", "opening_hours": "We-Fr 08:00-16:00; Sa 10:00-16:00", "website": "https://hideoutboise.com/"}}, {"type": "node", "id": 12758426527, "lat": 43.5962361, "lon": -116.1771426, "tags": {"addr:city": "Boise", "addr:housenumber": "404", "addr:postcode": "83706", "addr:state": "ID", "addr:street": "East Parkcenter Boulevard", "addr:unit": "250", "amenity": "restaurant", "cuisine": "american", "name": "The Grove by Lemon Tree Co", "website": "https://thegrovebylemontree.com/"}}, {"type": "node", "id": 12760489250, "lat": 43.567908, "lon": -116.1857567}, {"type": "node", "id": 12785080005, "lat": 43.5634944, "lon": -116.1835472}, {"type": "node", "id": 12785080007, "lat": 43.5649195, "lon": -116.1835476}, {"type": "node", "id": 12785080008, "lat": 43.5649173, "lon": -116.1853714}, {"type": "node", "id": 12785080009, "lat": 43.5639796, "lon": -116.185362}, {"type": "node", "id": 13205237001, "lat": 43.5981732, "lon": -116.1860447, "tags": {"addr:housenumber": "401", "addr:postcode": "83706", "addr:street": "West Parkcenter Boulevard", "amenity": "restaurant", "cuisine": "mexican", "name": "La Tapatia Mexican Restaurant", "opening_hours": "Mo-Sa 11:00-22:00; Su 12:00-21:00", "phone": "+1-208-343-6403", "website:menu": "http://places.singleplatform.com/la-tapatia/menu"}}, {"type": "way", "id": 229832928, "nodes": [2383763414, 2383763416, 2383763410, 2383763418, 2383763414], "tags": {"addr:city": "Boise", "addr:housenumber": "1041", "addr:postcode": "83706", "addr:state": "ID", "addr:street": "South Broadway Avenue", "amenity": "bar", "building": "yes", "name": "R Bar", "opening_hours": "Mo-Su 15:00-02:00", "outdoor_seating": "yes"}}, {"type": "way", "id": 229832929, "nodes": [5826128680, 2383763414, 2383763418, 2383763422, 2383763424, 5826128680], "tags": {"addr:city": "Boise", "addr:housenumber": "1079", "addr:postcode": "83706", "addr:state": "ID", "addr:street": "South Broadway Avenue", "amenity": "restaurant", "building": "yes", "building:levels": "1", "cuisine": "burger", "name": "Burger Belly", "opening_hours": "11:00-21:00", "phone": "+1 208-336-1240", "website": "https://www.burgerbellyboise.com/"}}, {"type": "way", "id": 229832931, "nodes": [2383763433, 2383763435, 2383763437, 2383763439, 2383763433], "tags": {"brand": "Jacksons", "brand:wikidata": "Q64617393", "building": "yes", "name": "Jacksons", "shop": "convenience"}}, {"type": "way", "id": 234821522, "nodes": [8331577529, 2429508749, 2429508752, 2429508784, 2429508755, 8331577529], "tags": {"addr:city": "Boise", "addr:housenumber": "3527", "addr:postcode": "83705", "addr:state": "ID", "addr:street": "South Federal Way", "branch": "Southeast Boise", "brand": "Fred Meyer", "brand:wikidata": "Q5495932", "building": "yes", "building:levels": "1", "name": "Fred Meyer", "opening_hours": "Mo-Fr 09:00-20:00;Sa 09:00-18:00;Su 10:00-17:00", "phone": "+1 208-424-7533", "ref": "613", "shop": "supermarket", "website": "https://www.fredmeyer.com/stores/grocery/id/boise/southeast-boise/701/00613"}}, {"type": "way", "id": 234821528, "nodes": [2429508767, 2429508770, 8331577557, 2429508790, 2429508793, 2429508795, 2429508798, 6939583505, 6939583504, 6939583503, 6939583502, 6939583501, 6939583500, 8203010408, 6939583499, 6939583498, 12760489250, 6939580714, 2429508767], "tags": {"addr:city": "Boise", "addr:housenumber": "3639", "addr:postcode": "83705", "addr:state": "ID", "addr:street": "South Federal Way", "alt_name": "Home Depot", "branch": "East Boise", "brand": "The Home Depot", "brand:wikidata": "Q864407", "building": "yes", "building:levels": "1", "name": "The Home Depot", "opening_hours": "Mo-Sa 06:00-22:00; Su 08:00-20:00", "phone": "+1 208-388-8500", "ref": "1806", "shop": "doityourself", "website": "https://www.homedepot.com/l/e-boise/id/boise/83705/1806"}}, {"type": "way", "id": 234821530, "nodes": [8331577590, 2429508816, 2429508818, 2429508828, 2429508830, 2429508836, 2429508838, 2429508841, 6939580780, 2429508847, 2429508850, 2429508853, 6939580776, 6939580775, 8331577590], "tags": {"addr:city": "Boise", "addr:housenumber": "3691", "addr:postcode": "83716", "addr:state": "ID", "addr:street": "South Federal Way", "building": "yes", "building:levels": "1", "name": "Zamzows", "opening_hours": "Mo-Fr 09:00-19:00; Su 22:00-17:00; Sa 09:00-18:00", "phone": "+1-208-338-8484", "shop": "garden_centre"}}, {"type": "way", "id": 616199365, "nodes": [5826128681, 5826128682, 5826128683, 5826128684, 5826128681], "tags": {"addr:city": "Boise", "addr:housenumber": "1016", "addr:postcode": "83706", "addr:state": "ID", "addr:street": "South Broadway Avenue", "amenity": "restaurant", "building": "yes", "cuisine": "pizza", "name": "Pie Hole"}}, {"type": "way", "id": 660352608, "nodes": [8672381528, 6182586612, 6182586613, 6182586614, 6182586615, 6182586616, 6182586617, 6182586618, 8672381528], "tags": {"addr:city": "Boise", "addr:housenumber": "2300", "addr:postcode": "83706", "addr:state": "ID", "addr:street": "South Apple Street", "building": "yes", "name": "Albertsons Express Fuel Center", "shop": "convenience"}}, {"type": "way", "id": 666218629, "nodes": [8331606302, 6237328729, 6237328730, 6237328731, 6237328732, 6237328733, 6237328734, 6237328735, 8331606302], "tags": {"addr:city": "Boise", "addr:housenumber": "1835", "addr:postcode": "83712", "addr:state": "ID", "addr:street": "East Warm Springs Avenue", "building": "yes", "name": "M&W Market", "shop": "greengrocer"}}, {"type": "way", "id": 666218630, "nodes": [8331606301, 6237328737, 6237328738, 6237328739, 6237328740, 6237328741, 6237328742, 6237328743, 8331606301], "tags": {"addr:city": "Boise", "addr:housenumber": "1821", "addr:postcode": "83712", "addr:state": "ID", "addr:street": "East Warm Springs Avenue", "amenity": "restaurant", "building": "yes", "cuisine": "american", "name": "Trolley House", "website": "https://trolleyhouseboise.com/"}}, {"type": "way", "id": 666218647, "nodes": [8331581980, 6237328880, 6237328881, 6237328882, 6237328883, 6237328884, 6237328885, 6237328886, 6237328887, 6237328888, 8331581980], "tags": {"addr:city": "Boise", "addr:housenumber": "672", "addr:postcode": "83706", "addr:state": "ID", "addr:street": "East Boise Avenue", "amenity": "cafe", "branch": "Boise Avenue and Apple-ID", "brand": "Starbucks", "brand:wikidata": "Q37158", "building": "yes", "cuisine": "coffee_shop", "name": "Starbucks", "official_name": "Starbucks Coffee", "phone": "+1 208-344-2344", "ref": "8762", "takeaway": "yes", "website": "https://www.starbucks.com/store-locator/store/8762/boise-avenue-and-apple-id-672-east-boise-avenue-boise-id-837065118-us"}}, {"type": "way", "id": 671185340, "nodes": [8672381837, 6285317245, 6285317246, 6285317247, 6285317248, 6285317249, 6285317250, 6913398146, 6913398145, 6285317251, 8672381837], "tags": {"addr:city": "Boise", "addr:housenumber": "1219", "addr:postcode": "83706", "addr:state": "ID", "addr:street": "South Broadway Avenue", "branch": "Market Street", "brand": "Albertsons", "brand:wikidata": "Q2831861", "building": "yes", "building:levels": "2", "name": "Albertsons", "opening_hours": "Mo-Fr 06:00-24:00; Sa 06:00-24:00; Su 06:00-24:00", "phone": "+1 208-336-5278", "ref": "199", "shop": "supermarket", "website": "https://local.albertsons.com/id/boise/1219-s-broadway-ave.html"}}, {"type": "way", "id": 679264442, "nodes": [8331605853, 6360642008, 6360642009, 6360642010, 6360642011, 6360642012, 6360642013, 6360642014, 6360642015, 6360642016, 6360642017, 6360642018, 6360642019, 6360642020, 6360642021, 6360642022, 6360642023, 6360642024, 6360642025, 6360642026, 8331605853], "tags": {"addr:city": "Boise", "addr:housenumber": "211", "addr:postcode": "83706", "addr:state": "ID", "addr:street": "West Parkcenter Boulevard", "amenity": "restaurant", "brand": "Red Robin", "brand:wikidata": "Q7304886", "building": "yes", "cuisine": "burger", "name": "Red Robin", "official_name": "Red Robin Gourmet Burgers and Brews"}}, {"type": "way", "id": 681407810, "nodes": [8331578415, 6381140371, 6381140372, 6381140373, 6381140374, 6381140375, 8331578415], "tags": {"addr:city": "Boise", "addr:housenumber": "3863", "addr:postcode": "83716", "addr:state": "ID", "addr:street": "South Federal Way", "building": "yes", "name": "Auto Surgeon", "shop": "car_repair"}}, {"type": "way", "id": 681407811, "nodes": [6381140376, 6381140377, 6381140378, 8331577688, 6381140380, 6381140376], "tags": {"addr:city": "Boise", "addr:housenumber": "3395", "addr:postcode": "83705", "addr:state": "ID", "addr:street": "South Federal Way", "brand": "Walgreens", "brand:wikidata": "Q1591889", "building": "yes", "name": "Walgreens", "shop": "chemist", "website": "https://www.walgreens.com/locator/walgreens-3395+s+federal+way-boise-id-83705/id=12123"}}, {"type": "way", "id": 722773364, "nodes": [8672381889, 6779713111, 6779713112, 11068936244, 6779713113, 6779713114, 6779713115, 6779713116, 6779713117, 6779713118, 6779713119, 8672381889], "tags": {"addr:city": "Boise", "addr:housenumber": "1206", "addr:postcode": "83706", "addr:state": "ID", "addr:street": "South Broadway Avenue", "brand": "Jiffy Lube", "brand:wikidata": "Q6192247", "building": "yes", "name": "Jiffy Lube", "shop": "car_repair"}}, {"type": "way", "id": 722773366, "nodes": [8331604152, 6779713132, 6779713133, 6779713134, 6779713135, 6779713136, 6779713137, 6779713138, 6779713139, 6779713140, 6779713141, 6779713142, 8331604152], "tags": {"addr:city": "Boise", "addr:housenumber": "1305", "addr:postcode": "83706", "addr:state": "ID", "addr:street": "South Broadway Avenue", "building": "yes", "name": "Idaho State Liquor Store", "shop": "alcohol"}}, {"type": "way", "id": 722773370, "nodes": [6779713170, 6779713171, 6779713172, 6779713173, 6779713174, 6779713175, 6779713176, 6779713177, 6779713170], "tags": {"addr:city": "Boise", "addr:housenumber": "1326", "addr:postcode": "83706", "addr:state": "ID", "addr:street": "South Broadway Avenue", "amenity": "restaurant", "building": "yes", "cuisine": "pizza", "name": "Flying Pie Pizzaria & Bistro"}}, {"type": "way", "id": 722773371, "nodes": [6779713182, 6779713183, 6779713184, 6779791485, 6779791486, 6779791487, 6779713182], "tags": {"addr:city": "Boise", "addr:housenumber": "1475", "addr:postcode": "83706", "addr:state": "ID", "addr:street": "South Broadway Avenue", "brand": "AT&T", "brand:wikidata": "Q298594", "building": "yes", "name": "AT&T", "shop": "mobile_phone"}}, {"type": "way", "id": 722773372, "nodes": [6779791489, 6779791490, 6779791491, 6779791492, 6779791493, 6779791494, 6779791495, 6779791496, 6779791497, 6779791498, 6779791499, 6779791489], "tags": {"addr:city": "Boise", "addr:housenumber": "1400", "addr:postcode": "83706", "addr:state": "ID", "addr:street": "South Broadway Avenue", "building": "yes", "name": "Six Daggers Tattoo", "shop": "tattoo"}}, {"type": "way", "id": 722773373, "nodes": [6779791500, 6779791501, 8340488857, 6779791503, 6779791504, 6779791505, 6779791500], "tags": {"addr:city": "Boise", "addr:housenumber": "1406", "addr:postcode": "83706", "addr:state": "ID", "addr:street": "South Broadway Avenue", "building": "yes", "name": "Tease Hair & Lash Studio", "shop": "hairdresser"}}, {"type": "way", "id": 722773374, "nodes": [6779791500, 6779791506, 6779791507, 6779791508, 6779791509, 6779791501, 6779791500], "tags": {"addr:city": "Boise", "addr:housenumber": "1410", "addr:postcode": "83706", "addr:state": "ID", "addr:street": "South Broadway Avenue", "building": "yes", "name": "Lullaby Waters", "office": "therapist"}}, {"type": "way", "id": 722779251, "nodes": [6779824871, 6779824872, 6779824873, 6779824874, 6779824875, 6779824876, 6779824871], "tags": {"addr:city": "Boise", "addr:housenumber": "1510", "addr:postcode": "83706", "addr:state": "ID", "addr:street": "South Broadway Avenue", "building": "yes", "name": "Devotion Tattoo and Piercing", "shop": "tattoo", "walk-in": "yes"}}, {"type": "way", "id": 722779252, "nodes": [6779824877, 6779824878, 6779824879, 6779824880, 6779824877], "tags": {"addr:city": "Boise", "addr:housenumber": "1512", "addr:postcode": "83706", "addr:state": "ID", "addr:street": "South Broadway Avenue", "building": "yes", "name": "Sun Spa Massage", "phone": "+1-208-345-3570", "shop": "massage"}}, {"type": "way", "id": 722779253, "nodes": [6779824881, 6779824882, 6779824883, 6779824884, 6779845985, 6779845986, 6779845987, 6779845988, 6779845989, 6779845990, 6779824881], "tags": {"addr:city": "Boise", "addr:housenumber": "1520", "addr:postcode": "83706", "addr:state": "ID", "addr:street": "South Broadway Avenue", "building": "yes", "name": "Defined Barbershop", "opening_hours": "Mo-Fr 10:00-19:00; Sa 10:00-18:00", "phone": "+1-208-345-6176", "shop": "hairdresser", "walk-in": "yes"}}, {"type": "way", "id": 722779254, "nodes": [6779845992, 6779845993, 6779845994, 6779845995, 6779845996, 6779845992], "tags": {"addr:city": "Boise", "addr:housenumber": "1607", "addr:postcode": "83706", "addr:state": "ID", "addr:street": "South Broadway Avenue", "brand": "Stinker", "brand:wikidata": "Q95990164", "building": "yes", "name": "Stinker", "shop": "convenience"}}, {"type": "way", "id": 722779256, "nodes": [6779846010, 6779846011, 6779846012, 6779846013, 6779846014, 6779846015, 6779846010], "tags": {"addr:city": "Boise", "addr:housenumber": "1677", "addr:postcode": "83706", "addr:state": "ID", "addr:street": "South Broadway Avenue", "amenity": "restaurant", "building": "yes", "cuisine": "pizza", "name": "Idaho Pizza Company", "opening_hours": "Mo-Su 11:00-21:00", "phone": "+1-208-343-1011", "website": "https://www.idahopizzacompany.com/"}}, {"type": "way", "id": 722779259, "nodes": [6779846048, 6779846049, 6779846050, 6779846051, 6779846052, 6779846053, 6779846048], "tags": {"addr:city": "Boise", "addr:housenumber": "1701", "addr:postcode": "83706", "addr:state": "ID", "addr:street": "South Broadway Avenue", "building": "yes", "name": "The Coble Company", "office": "advertising_agency"}}, {"type": "way", "id": 722779260, "nodes": [8331603483, 6779846055, 6779846056, 6779846058, 6779846057, 8331603483], "tags": {"addr:city": "Boise", "addr:housenumber": "1707", "addr:postcode": "83706", "addr:state": "ID", "addr:street": "South Broadway Avenue", "building": "yes", "name": "Thompsons", "shop": "laundry"}}, {"type": "way", "id": 722779261, "nodes": [6779846058, 6779846059, 6779846061, 6779846060, 6779846056, 6779846058], "tags": {"addr:city": "Boise", "addr:housenumber": "1713", "addr:postcode": "83706", "addr:state": "ID", "addr:street": "South Broadway Avenue", "building": "retail", "building:levels": "2", "name": "Born Weird Tattoo", "shop": "tattoo"}}, {"type": "way", "id": 722779262, "nodes": [6779846061, 6779846062, 6779846063, 6779846060, 6779846061], "tags": {"addr:city": "Boise", "addr:housenumber": "1725", "addr:postcode": "83706", "addr:state": "ID", "addr:street": "South Broadway Avenue", "building": "yes", "name": "Junkyard Jeans", "shop": "clothes"}}, {"type": "way", "id": 738578444, "nodes": [8331577271, 6916122220, 6916122221, 6916122222, 8331577271], "tags": {"addr:city": "Boise", "addr:housenumber": "2801", "addr:postcode": "83706", "addr:state": "ID", "addr:street": "South Broadway Avenue", "building": "commercial", "shop": "car_repair"}}, {"type": "way", "id": 756807899, "nodes": [8331577558, 7068561578, 7068561579, 7068561580, 8331577558], "tags": {"addr:city": "Boise", "addr:housenumber": "3599", "addr:postcode": "83705", "addr:state": "ID", "addr:street": "South Federal Way", "amenity": "restaurant", "brand": "IHOP", "brand:wikidata": "Q1185675", "building": "yes", "cuisine": "breakfast;pancake", "name": "IHOP"}}, {"type": "way", "id": 756807927, "nodes": [8331577651, 7068561742, 7068561743, 7068561744, 7068561745, 7068561746, 7068561747, 7068561748, 8331577651], "tags": {"addr:city": "Boise", "addr:housenumber": "3423", "addr:postcode": "83705", "addr:state": "ID", "addr:street": "South Federal Way", "brand": "Ross", "brand:wikidata": "Q3442791", "building": "yes", "name": "Ross", "official_name": "Ross Dress for Less", "opening_hours": "Mo-Th 09:30-21:00; Fr-Sa 09:30-22:00; Su 10:00-21:00", "phone": "+1 208-336-6774", "ref": "1125", "shop": "department_store"}}, {"type": "way", "id": 756807959, "nodes": [7068561905, 7068561906, 7068561907, 7068561908, 10927069666, 7068561905], "tags": {"addr:city": "Boise", "addr:housenumber": "3290", "addr:postcode": "83705", "addr:state": "ID", "addr:street": "South Denver Way", "building": "yes", "name": "Republic Storage", "opening_hours": "Mo-Sa 08:00-18:00, Su 12:00-17:00", "payment:american_express": "yes", "payment:cash": "yes", "payment:cheque": "yes", "payment:credit_cards": "yes", "payment:debit_cards": "yes", "payment:discover_card": "yes", "payment:mastercard": "yes", "payment:online": "yes", "payment:visa": "yes", "phone": "+1-208-629-5432", "shop": "storage_rental", "website": "https://www.republicstorageidaho.com/boise---broadway-1"}}, {"type": "way", "id": 756807973, "nodes": [7068561972, 7068561973, 7068561974, 7068561975, 7068561976, 7068561977, 7068561972], "tags": {"brand": "Jacksons", "brand:wikidata": "Q64617393", "building": "yes", "name": "Jacksons", "shop": "convenience"}}, {"type": "way", "id": 764049114, "nodes": [8331579169, 7138099742, 7138104277, 7138104975, 8331579169], "tags": {"addr:city": "Boise", "addr:housenumber": "1575", "addr:postcode": "83706", "addr:state": "ID", "addr:street": "East Boise Avenue", "brand": "Jacksons", "brand:wikidata": "Q64617393", "building": "yes", "name": "Jacksons", "shop": "convenience", "source": "microsoft/BuildingFootprints"}}, {"type": "way", "id": 764049169, "nodes": [8331579171, 7138100150, 7138104603, 7138107539, 8331579171], "tags": {"addr:city": "Boise", "addr:housenumber": "1523", "addr:postcode": "83706", "addr:state": "ID", "addr:street": "East Boise Avenue", "brand": "State Farm", "brand:wikidata": "Q2007336", "building": "yes", "name": "State Farm", "office": "insurance", "source": "microsoft/BuildingFootprints"}}, {"type": "way", "id": 764073064, "nodes": [8672381529, 7138318685, 7138339161, 7138314300, 8672381529], "tags": {"addr:city": "Boise", "addr:housenumber": "2534", "addr:postcode": "83706", "addr:state": "ID", "addr:street": "South Apple Street", "building": "yes", "name": "Commercial Tire", "opening_hours": "Mo-Fr 07:30-18:00", "phone": "+1 208-331-8473", "shop": "tyres", "source": "microsoft/BuildingFootprints", "website": "https://commercialtire.com/"}}, {"type": "way", "id": 764073185, "nodes": [7138336875, 7138332820, 7138325807, 7138302174, 7138336875], "tags": {"addr:city": "Boise", "addr:housenumber": "1175", "addr:postcode": "83706", "addr:state": "ID", "addr:street": "West Boise Avenue", "building": "retail", "name": "Idaho Eye Care Center", "shop": "optician"}}, {"type": "way", "id": 764073749, "nodes": [8331584668, 7138314535, 7138333686, 7138316819, 8331584668], "tags": {"addr:city": "Boise", "addr:housenumber": "2050", "addr:postcode": "83706-4204", "addr:state": "ID", "addr:street": "South Broadway Avenue", "brand": "Ace Hardware", "brand:wikidata": "Q4672981", "building": "yes", "name": "B's Ace Hardware", "opening_hours": "Mo-Sa 08:00-19:00; Su 09:00-18:00", "phone": "+1 208-336-7330", "ref": "18179", "shop": "doityourself", "source": "microsoft/BuildingFootprints"}}, {"type": "way", "id": 764073768, "nodes": [8331585869, 7138301480, 7138286773, 7138335355, 7138293060, 7138328485, 7138328153, 7138331932, 8331585869], "tags": {"addr:city": "Boise", "addr:housenumber": "2085", "addr:postcode": "83706", "addr:state": "ID", "addr:street": "South Broadway Avenue", "brand": "Les Schwab Tire Center", "brand:wikidata": "Q6529977", "building": "yes", "name": "Les Schwab Tire Center", "shop": "tyres", "source": "microsoft/BuildingFootprints"}}, {"type": "way", "id": 764073947, "nodes": [6779713180, 7138334631, 7138332527, 7138337397, 7138326622, 7138326146, 6779713180], "tags": {"addr:city": "Boise", "addr:housenumber": "1403", "addr:postcode": "83706", "addr:state": "ID", "addr:street": "South Broadway Avenue", "building": "yes", "name": "Day|Willis Cpas Pllc", "office": "accountant", "source": "microsoft/BuildingFootprints"}}, {"type": "way", "id": 764074416, "nodes": [8331580826, 7138329691, 7138327509, 7138309272, 8331580826], "tags": {"addr:city": "Boise", "addr:housenumber": "2550", "addr:postcode": "83706", "addr:state": "ID", "addr:street": "South Apple Street", "brand": "Stinker", "brand:wikidata": "Q95990164", "building": "yes", "name": "Stinker", "shop": "convenience", "source": "microsoft/BuildingFootprints"}}, {"type": "way", "id": 764074607, "nodes": [6779824870, 7138315968, 7138308734, 7138333833, 6779824870], "tags": {"addr:city": "Boise", "addr:housenumber": "1502", "addr:postcode": "83706", "addr:state": "ID", "addr:street": "South Broadway Avenue", "building": "yes", "name": "Tates Rents", "opening_hours": "Mo-Sa 07:00-18:00; Su 09:00-15:00", "shop": "rental", "source": "microsoft/BuildingFootprints"}}, {"type": "way", "id": 764074839, "nodes": [8331584598, 7138323096, 7138325602, 7138331576, 8331584598], "tags": {"addr:city": "Boise", "addr:housenumber": "2178", "addr:postcode": "83706", "addr:state": "ID", "addr:street": "South Broadway Avenue", "brand": "Firestone", "brand:wikidata": "Q420837", "building": "yes", "name": "Firestone", "official_name": "Firestone Complete Auto Care", "shop": "car_repair", "source": "microsoft/BuildingFootprints"}}, {"type": "way", "id": 764076547, "nodes": [8331605785, 7138313819, 7138310118, 7138331255, 8331605785], "tags": {"addr:city": "Boise", "addr:housenumber": "1100", "addr:postcode": "83706", "addr:state": "ID", "addr:street": "South Broadway Avenue", "amenity": "cafe", "branch": "Broadway Avenue&Belmont", "brand": "Starbucks", "brand:wikidata": "Q37158", "building": "yes", "cuisine": "coffee_shop", "name": "Starbucks", "official_name": "Starbucks Coffee", "phone": "+1 208-385-0269", "source": "microsoft/BuildingFootprints", "takeaway": "yes", "website": "https://www.starbucks.com/store-locator/store/15908/broadway-ave-belmont-1100-broadway-ave-boise-id-837063627-us"}}, {"type": "way", "id": 764077040, "nodes": [8331584674, 7138327919, 7138327447, 7138271368, 8331584674], "tags": {"addr:city": "Boise", "addr:housenumber": "2002", "addr:postcode": "83706", "addr:state": "ID", "addr:street": "South Broadway Avenue", "brand": "ExtraMile", "brand:wikidata": "Q64224605", "building": "yes", "name": "ExtraMile", "operator": "Jacksons Food Stores", "operator:wikidata": "Q64617393", "ref": "79", "shop": "convenience", "source": "microsoft/BuildingFootprints"}}, {"type": "way", "id": 764077479, "nodes": [8331585839, 11017241063, 11017241064, 11017241065, 11017241062, 7138320242, 7138328176, 7138328137, 8331585839], "tags": {"addr:city": "Boise", "addr:housenumber": "2213", "addr:postcode": "83706", "addr:state": "ID", "addr:street": "South Broadway Avenue", "brand": "O'Reilly Auto Parts", "brand:wikidata": "Q7071951", "building": "retail", "name": "O'Reilly Auto Parts", "shop": "car_parts", "source": "microsoft/BuildingFootprints"}}, {"type": "way", "id": 764077801, "nodes": [8331582010, 11046694385, 11046694388, 7138321103, 7138317156, 11046694387, 11046694386, 7138310229, 8331582010], "tags": {"addr:city": "Boise", "addr:housenumber": "2315", "addr:postcode": "83706", "addr:state": "ID", "addr:street": "South Apple Street", "brand": "Valvoline", "brand:wikidata": "Q7912852", "building": "yes", "name": "Valvoline", "official_name": "Valvoline Instant Oil Change", "shop": "car_repair", "source": "microsoft/BuildingFootprints", "website": "https://store.vioc.com/id/boise/oil-change-090090.html"}}, {"type": "way", "id": 764077879, "nodes": [7138334278, 7138321012, 7138323868, 8331582975, 7138310325, 7138331604, 7138318138, 7138330116, 7138334278], "tags": {"addr:city": "Boise", "addr:housenumber": "2630", "addr:postcode": "83706", "addr:state": "ID", "addr:street": "South Broadway Avenue", "amenity": "cafe", "branch": "Boise", "brand": "Dutch Bros. Coffee", "brand:wikidata": "Q5317253", "building": "yes", "cuisine": "coffee_shop", "name": "Dutch Bros. Coffee", "opening_hours": "Mo-Th 05:00-22:00; Fr-Sa 05:00-23:00; Su 05:00-22:00", "ref": "DB110", "source": "microsoft/BuildingFootprints", "takeaway": "only", "website": "https://locations.dutchbros.com/dutch-bros-coffee-337964a8f596"}}, {"type": "way", "id": 764077951, "nodes": [3610211559, 11408610336, 11408610337, 7138332815, 7138311032, 7138328405, 3610211559], "tags": {"addr:city": "Boise", "addr:housenumber": "119", "addr:postcode": "83706", "addr:state": "ID", "addr:street": "East Boise Avenue", "building": "yes", "name": "Harold's Auto Body", "shop": "car_repair", "source": "microsoft/BuildingFootprints", "website": "http://haroldsautobody.com/"}}, {"type": "way", "id": 764078030, "nodes": [8331585886, 7138329024, 7138330222, 7138319655, 8331585886], "tags": {"addr:city": "Boise", "addr:housenumber": "2013", "addr:postcode": "83706", "addr:state": "ID", "addr:street": "South Broadway Avenue", "brand": "Big O Tires", "brand:wikidata": "Q4906085", "building": "yes", "name": "Big O Tires", "shop": "tyres", "source": "microsoft/BuildingFootprints"}}, {"type": "way", "id": 764078128, "nodes": [8331538297, 7138334924, 7138318862, 7138311009, 8331538297], "tags": {"addr:city": "Boise", "addr:housenumber": "1604", "addr:postcode": "83706", "addr:state": "ID", "addr:street": "South Broadway Avenue", "amenity": "cafe", "brand": "Black Rock Coffee", "brand:wikidata": "Q64225934", "building": "yes", "cuisine": "coffee_shop", "name": "Black Rock Coffee", "opening_hours": "Mo-Fr 05:00-19:00; Sa, Su 06:00-19:00", "phone": "+1-208-779-0967", "source": "microsoft/Buildingfootprints", "takeaway": "yes", "website": "https://blackrockcoffeebar.orderexperience.net/66186a8094115ba8480803d4/menu"}}, {"type": "way", "id": 764078927, "nodes": [8331604174, 11006285767, 11006285765, 11006285766, 11006285764, 11006285781, 11006285760, 11006285761, 7138333022, 11006285763, 11006285762, 7138307884, 11006285771, 11006285772, 11006285773, 11006285770, 7138327104, 11006285768, 11006285769, 8331604174], "tags": {"addr:city": "Boise", "addr:housenumber": "1221", "addr:postcode": "83706", "addr:state": "ID", "addr:street": "West Boise Avenue", "amenity": "restaurant", "building": "retail", "name": "Addie's Restaurant", "outdoor_seating": "yes", "source": "microsoft/BuildingFootprints"}}, {"type": "way", "id": 775411555, "nodes": [2383763412, 6943640577, 7234148988, 2383763406, 2383763412], "tags": {"building": "yes", "name": "Pyramid Tattoo Co.", "opening_hours": "Tu-Sa 12:00-19:00", "phone": "+1-208-996-7575", "shop": "tattoo"}}, {"type": "way", "id": 885641133, "nodes": [8235391827, 8235391824, 8235391832, 8235391825, 8235391826, 8235391827]}, {"type": "way", "id": 1017727126, "nodes": [8331586876, 9387216811, 9387216812, 9387216813, 9387216818, 9387216814, 9387216815, 9387216816, 9387216819, 9387216817, 8331586876], "tags": {"addr:city": "Boise", "addr:housenumber": "2581", "addr:postcode": "83706", "addr:state": "ID", "addr:street": "South Broadway Avenue", "brand": "Jacksons", "brand:wikidata": "Q64617393", "building": "yes", "name": "Jacksons", "shop": "convenience", "source": "microsoft/BuildingFootprints"}}, {"type": "way", "id": 1017729813, "nodes": [8331582105, 9387237466, 9387237467, 9387237468, 9387237469, 9387237470, 8331582105], "tags": {"addr:city": "Boise", "addr:housenumber": "2100", "addr:postcode": "83706", "addr:state": "ID", "addr:street": "South Broadway Avenue", "amenity": "cafe", "brand": "The Human Bean", "brand:wikidata": "Q7740821", "building": "yes", "cuisine": "coffee_shop", "name": "The Human Bean", "source": "microsoft/BuildingFootprints", "takeaway": "yes"}}, {"type": "way", "id": 1029461649, "nodes": [8672381856, 9491205430, 9491205431, 9491205432, 8672381856], "tags": {"addr:city": "Boise", "addr:housenumber": "1415", "addr:postcode": "83706", "addr:state": "ID", "addr:street": "South Broadway Avenue", "building": "yes", "name": "Einstein's Oilery", "shop": "car_repair", "source": "microsoft/BuildingFootprints"}}, {"type": "way", "id": 1033167041, "nodes": [6964945340, 6964945341, 6964945342, 6964945343, 6964945344, 8235391828, 8235391829, 6964945340]}, {"type": "way", "id": 1254614384, "nodes": [2429508795, 2429508793, 11662945441, 11662945436, 11662945437, 11662945438, 2429508798, 2429508795], "tags": {"shop": "garden_centre"}}, {"type": "way", "id": 1381027887, "nodes": [12785080009, 12785080005, 12785080007, 12785080008, 12785080009], "tags": {"shop": "storage_rental"}}, {"type": "relation", "id": 13825054, "members": [{"type": "way", "ref": 885641133, "role": "outer"}, {"type": "way", "ref": 1033167041, "role": "outer"}], "tags": {"addr:city": "Boise", "addr:housenumber": "2207", "addr:postcode": "83712", "addr:state": "ID", "addr:street": "East Warm Springs Avenue", "landuse": "industrial", "name": "Warm Springs Storage", "shop": "storage_rental", "type": "multipolygon"}}]}