{"version": 0.6, "generator": "Overpass API 0.7.62.8 e802775f", "osm3s": {"timestamp_osm_base": "2025-12-06T19:46:00Z", "copyright": "The data included in this document is from www.openstreetmap.org. The data is made available under ODbL."}, "elements": [{"type": "node", "id": 1492038742, "lat": 47.666722, "lon": -122.3824393}, {"type": "node", "id": 1738570796, "lat": 47.6667639, "lon": -122.3815799}, {"type": "node", "id": 1738570798, "lat": 47.666668, "lon": -122.3817445}, {"type": "node", "id": 1738570801, "lat": 47.6669098, "lon": -122.3819309}, {"type": "node", "id": 1738570811, "lat": 47.6667458, "lon": -122.3818428}, {"type": "node", "id": 1738570816, "lat": 47.6669802, "lon": -122.3818209}, {"type": "node", "id": 1738574881, "lat": 47.6662479, "lon": -122.3828336}, {"type": "node", "id": 1738574886, "lat": 47.6665756, "lon": -122.3827048}, {"type": "node", "id": 1738574898, "lat": 47.666406, "lon": -122.3830208}, {"type": "node", "id": 2051964568, "lat": 47.6663384, "lon": -122.3824221}, {"type": "node", "id": 2051964572, "lat": 47.6664102, "lon": -122.3822754}, {"type": "node", "id": 2051964576, "lat": 47.6665315, "lon": -122.3824235}, {"type": "node", "id": 2051964578, "lat": 47.6666031, "lon": -122.3822941}, {"type": "node", "id": 2138368908, "lat": 47.668834, "lon": -122.379765, "tags": {"addr:city": "Seattle", "addr:housenumber": "1718", "addr:postcode": "98107", "addr:street": "Northwest Market Street", "check_date:opening_hours": "2022-11-17", "contact:facebook": "https://www.facebook.com/inspireseattle", "contact:instagram": "https://www.instagram.com/inspirefitnessseattle/", "email": "info@inspireseattle.com", "leisure": "fitness_centre", "name": "Inspire Ballard", "opening_hours:signed": "no", "phone": "+1-206-467-5607", "source": "King County GIS", "website": "https://inspireseattle.com/", "wheelchair": "yes"}}, {"type": "node", "id": 2138389683, "lat": 47.6685161, "lon": -122.379605, "tags": {"addr:city": "Seattle", "addr:housenumber": "1715", "addr:postcode": "98107", "addr:street": "Northwest Market Street", "contact:facebook": "https://www.facebook.com/striveanduplift/", "contact:instagram": "https://www.instagram.com/striveanduplift/", "email": "striveanduplift@gmail.com", "leisure": "fitness_centre", "name": "Strive & Uplift", "phone": "+1-206-919-9079", "source": "King County GIS", "website": "https://www.striveanduplift.com/"}}, {"type": "node", "id": 2138396849, "lat": 47.666419, "lon": -122.3825148}, {"type": "node", "id": 2138399518, "lat": 47.668856, "lon": -122.383654, "tags": {"addr:city": "Seattle", "addr:housenumber": "2032", "addr:postcode": "98107", "addr:state": "WA", "addr:street": "Northwest Market Street", "brand": "Orangetheory Fitness", "brand:wikidata": "Q25005163", "check_date:opening_hours": "2022-11-17", "checked_exists:date": "2016-08-27", "leisure": "fitness_centre", "name": "Orangetheory Fitness", "opening_hours:signed": "no", "phone": "+1-206-330-0510", "ref": "2095", "source": "King County GIS", "website": "https://www.orangetheory.com/en-us/locations/washington/seattle/2032-nw-market-st", "wheelchair": "yes"}}, {"type": "node", "id": 2138399535, "lat": 47.6688494, "lon": -122.3852279, "tags": {"addr:city": "Seattle", "addr:housenumber": "2208", "addr:postcode": "98107", "addr:street": "Northwest Market Street", "leisure": "fitness_centre", "name": "Ballard Health Club", "phone": "+1-206-706-4882", "source": "King County GIS", "website": "https://www.ballardhealthclub.com/"}}, {"type": "node", "id": 2138399621, "lat": 47.6700341, "lon": -122.387332, "tags": {"addr:city": "Seattle", "addr:housenumber": "5680", "addr:postcode": "98107", "addr:street": "24th Avenue Northwest", "leisure": "fitness_centre", "name": "Tumbles", "source": "King County GIS"}}, {"type": "node", "id": 2140460435, "lat": 47.6749129, "lon": -122.3878421, "tags": {"addr:city": "Seattle", "addr:housenumber": "6311", "addr:postcode": "98107", "addr:street": "24th Avenue Northwest", "check_date": "2024-05-10", "leisure": "fitness_centre", "name": "Pilates Studio", "source": "King County GIS", "sport": "pilates", "website": "http://pilatesstudioinballard.com"}}, {"type": "node", "id": 2266547985, "lat": 47.6848669, "lon": -122.3772747}, {"type": "node", "id": 2266548025, "lat": 47.6848686, "lon": -122.3769843}, {"type": "node", "id": 2266548188, "lat": 47.6849269, "lon": -122.3772748}, {"type": "node", "id": 2266548191, "lat": 47.6849277, "lon": -122.3772285}, {"type": "node", "id": 2266548237, "lat": 47.68498, "lon": -122.3772304}, {"type": "node", "id": 2266548249, "lat": 47.6849807, "lon": -122.376985}, {"type": "node", "id": 2328648850, "lat": 47.7037703, "lon": -122.35653, "tags": {"addr:city": "Seattle", "addr:housenumber": "124", "addr:postcode": "98133", "addr:street": "North 103rd Street", "check_date": "2023-08-23", "leisure": "fitness_centre", "name": "Positive Spin", "phone": "+1-206-590-7746", "source": "King County GIS;data.seattle.gov", "sport": "pole_dance", "website": "https://positivespinpoledance.com"}}, {"type": "node", "id": 2420110698, "lat": 47.6896229, "lon": -122.355087, "tags": {"addr:city": "Seattle", "addr:housenumber": "8314", "addr:postcode": "98103", "addr:street": "Greenwood Avenue North", "leisure": "sports_hall", "name": "Emerald City Karate", "phone": "+1-206-437-3932", "source": "King County GIS;data.seattle.gov", "sport": "karate", "website": "https://emeraldcitykarate.com/"}}, {"type": "node", "id": 2462449191, "lat": 47.681606, "lon": -122.3551067, "tags": {"addr:city": "Seattle", "addr:housenumber": "7216", "addr:postcode": "98103", "addr:street": "Greenwood Avenue North", "check_date": "2023-08-14", "leisure": "fitness_centre", "name": "Vitality Pilates", "source": "King County GIS;data.seattle.gov", "website": "https://www.vitalitypilates.com/"}}, {"type": "node", "id": 2462449260, "lat": 47.6828281, "lon": -122.3551066, "tags": {"addr:city": "Seattle", "addr:housenumber": "7408", "addr:postcode": "98103", "addr:street": "Greenwood Avenue North", "check_date": "2023-06-26", "leisure": "fitness_centre", "name": "Seattle Strength & Performance", "opening_hours": "Mo,We 06:00-13:00,17:00-19:00; Tu 06:00-14:00,16:30-20:15; Th 06:00-13:00,16:00-18:00; Fr 06:00-13:00; Sa 09:00-11:00", "source": "King County GIS;data.seattle.gov", "sport": "fitness", "website": "https://seattlesp.com", "wheelchair": "limited"}}, {"type": "node", "id": 2463139566, "lat": 47.6830269, "lon": -122.3442474, "tags": {"addr:city": "Seattle", "addr:housenumber": "7400", "addr:postcode": "98103", "addr:street": "Aurora Avenue North", "check_date": "2023-10-28", "leisure": "fitness_centre", "name": "Ian Fitness", "source": "King County GIS;data.seattle.gov", "website": "http://ianfitness.org"}}, {"type": "node", "id": 2463139818, "lat": 47.6848677, "lon": -122.34426, "tags": {"addr:city": "Seattle", "addr:housenumber": "7700", "addr:postcode": "98103", "addr:street": "Aurora Avenue North", "check_date": "2025-03-16", "leisure": "fitness_centre", "name": "Tenzan Aikido", "source": "King County GIS;data.seattle.gov", "website": "https://tenzanaikido.com/"}}, {"type": "node", "id": 2549978295, "lat": 47.6843122, "lon": -122.355525, "tags": {"addr:city": "Seattle", "addr:housenumber": "7601", "addr:street": "Greenwood Avenue North", "addr:unit": "100", "leisure": "fitness_centre", "name": "Crossfit Phinney Ridge"}}, {"type": "node", "id": 3045087533, "lat": 47.6688647, "lon": -122.376694, "tags": {"addr:city": "Seattle", "addr:housenumber": "1500", "addr:postcode": "98107", "addr:street": "Northwest Market Street", "addr:unit": "101", "brand": "Planet Fitness", "brand:wikidata": "Q7201095", "check_date": "2025-11-22", "leisure": "fitness_centre", "name": "Planet Fitness", "payment:cash": "yes", "payment:credit_cards": "yes", "payment:debit_cards": "yes", "source": "King County GIS"}}, {"type": "node", "id": 3163408163, "lat": 47.6755907, "lon": -122.376551, "tags": {"addr:city": "Seattle", "addr:housenumber": "6419", "addr:postcode": "98107", "addr:state": "WA", "addr:street": "15th Avenue Northwest", "contact:facebook": "https://www.facebook.com/ballardcrossfit?ref=aymt_homepage_panel", "email": "paige@ballardcrossfit.com", "leisure": "fitness_centre", "name": "Ballard Crossfit", "phone": "+1-206-383-2020", "sport": "fitness;crossfit", "website": "http://www.ballardcrossfit.com/"}}, {"type": "node", "id": 4520151851, "lat": 47.6706553, "lon": -122.387834, "tags": {"addr:city": "Seattle", "addr:housenumber": "5711", "addr:postcode": "98107", "addr:state": "WA", "addr:street": "24th Avenue Northwest", "addr:unit": "150", "email": "ballard@barre3.com", "leisure": "fitness_centre", "name": "barre3", "phone": "+1-206-420-2288", "website": "https://barre3.com/studio-locations/ballard"}}, {"type": "node", "id": 4840538767, "lat": 47.6912618, "lon": -122.3571868, "tags": {"addr:city": "Seattle", "addr:housenumber": "112", "addr:postcode": "98103", "addr:street": "North 85th Street", "check_date": "2024-10-26", "leisure": "fitness_centre", "name": "Title Boxing Club", "source": "King County GIS;data.seattle.gov", "sport": "boxing"}}, {"type": "node", "id": 4840570374, "lat": 47.6915602, "lon": -122.3550886, "tags": {"addr:city": "Seattle", "addr:housenumber": "8554 1/2", "addr:postcode": "98103", "addr:street": "Greenwood Avenue North", "check_date": "2024-12-05", "leisure": "fitness_centre", "name": "The Grinning Yogi", "source": "King County GIS;data.seattle.gov", "sport": "yoga", "website": "https://www.thegrinningyogi.com/"}}, {"type": "node", "id": 4957689274, "lat": 47.6904752, "lon": -122.3586613, "tags": {"addr:housenumber": "117", "addr:street": "Northwest 85th Street", "check_date": "2023-09-29", "leisure": "fitness_centre", "name": "City Cycle", "website": "https://citycycleseattle.com"}}, {"type": "node", "id": 5479028406, "lat": 47.6690214, "lon": -122.384979, "tags": {"addr:city": "Seattle", "addr:housenumber": "2208", "addr:postcode": "98107", "addr:state": "WA", "addr:street": "Northwest Market Street", "addr:unit": "202", "contact:facebook": "https://www.facebook.com/BallardHealthClub/", "email": "info@ballardhealthclub.com", "leisure": "fitness_centre", "name": "Ballard Health Club", "phone": "+1-206-706-4882", "sport": "fitness", "website": "https://www.ballardhealthclub.com/"}}, {"type": "node", "id": 5987636693, "lat": 47.690815, "lon": -122.3749784, "tags": {"addr:city": "Seattle", "addr:housenumber": "1414", "addr:postcode": "98117", "addr:street": "Northwest 85th Street", "check_date": "2025-03-19", "leisure": "fitness_centre", "name": "Crown Hill Fitness And Wellness", "website": "https://crownhillfw.com"}}, {"type": "node", "id": 7590282296, "lat": 47.6688676, "lon": -122.388547, "tags": {"addr:city": "Seattle", "addr:housenumber": "2420", "addr:postcode": "98107", "addr:street": "Northwest Market Street", "check_date": "2024-11-03", "leisure": "fitness_centre", "name": "The Cycle Sanctuary", "phone": "+1-206-550-7932", "sport": "cycling", "website": "https://www.thecyclesanctuary.com"}}, {"type": "node", "id": 7781423080, "lat": 47.6665917, "lon": -122.3826756, "tags": {"entrance": "yes"}}, {"type": "node", "id": 8443238615, "lat": 47.6682401, "lon": -122.3787494}, {"type": "node", "id": 8443238616, "lat": 47.6681191, "lon": -122.3787467}, {"type": "node", "id": 8443293817, "lat": 47.6681191, "lon": -122.3786246}, {"type": "node", "id": 8443293818, "lat": 47.6682392, "lon": -122.378626}, {"type": "node", "id": 9777969517, "lat": 47.6691447, "lon": -122.379041, "tags": {"addr:city": "Seattle", "addr:housenumber": "5599", "addr:postcode": "98107", "addr:state": "WA", "addr:street": "17th Avenue Northwest", "contact:facebook": "https://www.facebook.com/pages/The%20Six%20Ballard/103010781142212/", "email": "hello@thesixseattle.com", "leisure": "fitness_centre", "name": "The Six", "opening_hours": "Mo-Sa 08:00-14:00; Su 09:00-14:00", "phone": "+1-206-695-2771", "sport": "yoga", "website": "https://www.thesixseattle.com/"}}, {"type": "node", "id": 10927041970, "lat": 47.6758377, "lon": -122.3615246, "tags": {"addr:city": "Seattle", "addr:housenumber": "315", "addr:postcode": "98117", "addr:state": "WA", "addr:street": "Northwest 65th Street", "addr:unit": "05", "check_date": "2024-04-26", "leisure": "fitness_centre", "name": "Seattle Personal Fitness", "phone": "+1-206-437-8091"}}, {"type": "node", "id": 11390730404, "lat": 47.6785062, "lon": -122.3551088, "tags": {"addr:housenumber": "6726", "addr:street": "Greenwood Avenue North", "brand": "The Bar Method", "brand:wikidata": "Q117599728", "check_date": "2023-12-02", "leisure": "fitness_centre", "name": "The Bar Method", "sport": "barre"}}, {"type": "node", "id": 11390730408, "lat": 47.6789459, "lon": -122.3555592, "tags": {"addr:housenumber": "6801", "addr:street": "Greenwood Avenue North", "addr:unit": "113", "check_date": "2023-12-02", "leisure": "fitness_centre", "name": "8 Limbs Yoga", "sport": "yoga", "website": "https://8limbsyoga.com"}}, {"type": "node", "id": 11951040666, "lat": 47.6835143, "lon": -122.3877626, "tags": {"addr:housenumber": "7509", "addr:street": "24th Avenue Northwest", "check_date": "2024-05-26", "leisure": "fitness_centre", "name": "Ballard Yoga Collective", "sport": "yoga"}}, {"type": "node", "id": 12542865877, "lat": 47.6841024, "lon": -122.3556935, "tags": {"addr:housenumber": "7601", "addr:street": "Greenwood Avenue North", "addr:unit": "103", "check_date": "2025-01-16", "leisure": "fitness_centre", "name": "New Moon Movement Arts", "phone": "+1-206-693-4124", "website": "https://www.newmoonmovementarts.com"}}, {"type": "way", "id": 161906718, "nodes": [1738570796, 1738570816, 1738570801, 1738570811, 1738570798, 1738570796], "tags": {"addr:city": "Seattle", "addr:housenumber": "5244", "addr:postcode": "98107", "addr:state": "WA", "addr:street": "Leary Avenue Northwest", "building": "yes", "email": "richardf@olympicathleticclub.com", "leisure": "fitness_centre", "name": "Olympic Athletic Club Women\u2019s Gym", "source": "King County GIS", "website": "https://www.olympicathleticclub.com/womensgym/"}}, {"type": "way", "id": 161907000, "nodes": [1738574898, 1738574881, 2138396849, 1738574886, 1738574898], "tags": {"addr:city": "Seattle", "addr:housenumber": "5232", "addr:postcode": "98107", "addr:state": "WA", "addr:street": "Ballard Avenue Northwest", "building": "yes", "contact:facebook": "https://www.facebook.com/olympicathleticclub", "contact:instagram": "https://www.instagram.com/olympicathleticclub/", "leisure": "fitness_centre", "name": "Olympic Athletic Club", "phone": "+1-206-789-5010", "source": "King County GIS", "website": "https://www.olympicathleticclub.com/"}}, {"type": "way", "id": 194691096, "nodes": [1492038742, 2051964578, 2051964576, 2051964572, 2051964568, 2138396849, 1738574886, 7781423080, 1492038742], "tags": {"addr:city": "Seattle", "addr:housenumber": "5301", "addr:postcode": "98107", "addr:state": "WA", "addr:street": "Leary Avenue Northwest", "building": "yes", "contact:facebook": "https://www.facebook.com/olympicathleticclub", "contact:instagram": "https://www.instagram.com/olympicathleticclub/", "leisure": "fitness_centre", "name": "Olympic Athletic Club", "phone": "+1-206-789-5010", "source": "King County GIS", "website": "https://www.olympicathleticclub.com/"}}, {"type": "way", "id": 217381789, "nodes": [2266547985, 2266548188, 2266548191, 2266548237, 2266548249, 2266548025, 2266547985], "tags": {"addr:city": "Seattle", "addr:housenumber": "7555", "addr:postcode": "98117", "addr:state": "WA", "addr:street": "15th Avenue Northwest", "building": "yes", "leisure": "fitness_centre", "name": "Alpha Martial Arts", "source": "King County GIS;data.seattle.gov", "website": "https://www.alphamartialarts.com/"}}, {"type": "way", "id": 909354700, "nodes": [8443238615, 8443238616, 8443293817, 8443293818, 8443238615], "tags": {"access": "private", "building": "yes", "description": "Private apartment building fitness center", "leisure": "fitness_centre"}}]}