{"version": 0.6, "generator": "Overpass API 0.7.62.8 e802775f", "osm3s": {"timestamp_osm_base": "2025-11-30T00:09:29Z", "copyright": "The data included in this document is from www.openstreetmap.org. The data is made available under ODbL."}, "elements": [{"type": "node", "id": 5534751033, "lat": 33.565911, "lon": -86.5172338}, {"type": "node", "id": 5534751034, "lat": 33.5645458, "lon": -86.5172212}, {"type": "node", "id": 5534751035, "lat": 33.5645451, "lon": -86.5173295}, {"type": "node", "id": 5534751036, "lat": 33.5644363, "lon": -86.5173285}, {"type": "node", "id": 5534751037, "lat": 33.5644313, "lon": -86.5180962}, {"type": "node", "id": 5534751038, "lat": 33.5648818, "lon": -86.5181004}, {"type": "node", "id": 5534751039, "lat": 33.5648813, "lon": -86.5181788}, {"type": "node", "id": 5534751040, "lat": 33.5655389, "lon": -86.5181849}, {"type": "node", "id": 5534751041, "lat": 33.5655394, "lon": -86.5181178}, {"type": "node", "id": 5534751042, "lat": 33.5659053, "lon": -86.5181211}, {"type": "node", "id": 6175531742, "lat": 33.568484, "lon": -86.5202143}, {"type": "node", "id": 6175531743, "lat": 33.5683767, "lon": -86.5202148}, {"type": "node", "id": 6175531744, "lat": 33.5683763, "lon": -86.5200981}, {"type": "node", "id": 6175531745, "lat": 33.5683192, "lon": -86.5200984}, {"type": "node", "id": 6175531746, "lat": 33.5683186, "lon": -86.5199368}, {"type": "node", "id": 6175531747, "lat": 33.5683707, "lon": -86.5199365}, {"type": "node", "id": 6175531748, "lat": 33.5683705, "lon": -86.5198899}, {"type": "node", "id": 6175531749, "lat": 33.5684157, "lon": -86.5198897}, {"type": "node", "id": 6175531750, "lat": 33.5684154, "lon": -86.5197991}, {"type": "node", "id": 6175531751, "lat": 33.5684825, "lon": -86.5197988}, {"type": "node", "id": 6175531752, "lat": 33.5675964, "lon": -86.5200138}, {"type": "node", "id": 6175531753, "lat": 33.5675986, "lon": -86.5196689}, {"type": "node", "id": 6175531754, "lat": 33.5673109, "lon": -86.5196662}, {"type": "node", "id": 6175531755, "lat": 33.5673087, "lon": -86.5200112}, {"type": "node", "id": 6175531756, "lat": 33.5676056, "lon": -86.5188319}, {"type": "node", "id": 6175531757, "lat": 33.5676063, "lon": -86.5186955}, {"type": "node", "id": 6175531758, "lat": 33.5676209, "lon": -86.5186956}, {"type": "node", "id": 6175531759, "lat": 33.5676213, "lon": -86.51861}, {"type": "node", "id": 6175531760, "lat": 33.5675157, "lon": -86.5185806}, {"type": "node", "id": 6175531762, "lat": 33.5673692, "lon": -86.5185796}, {"type": "node", "id": 6175531763, "lat": 33.5673679, "lon": -86.5188367}, {"type": "node", "id": 6175531764, "lat": 33.5675112, "lon": -86.5188377}, {"type": "node", "id": 6175531887, "lat": 33.5703899, "lon": -86.5178222}, {"type": "node", "id": 6175531888, "lat": 33.5703868, "lon": -86.517225}, {"type": "node", "id": 6175531889, "lat": 33.5701313, "lon": -86.5172269}, {"type": "node", "id": 6175531890, "lat": 33.5701308, "lon": -86.5171475}, {"type": "node", "id": 6175531891, "lat": 33.569988, "lon": -86.5171486}, {"type": "node", "id": 6175531892, "lat": 33.5699884, "lon": -86.5172346}, {"type": "node", "id": 6175531893, "lat": 33.5697548, "lon": -86.5172364}, {"type": "node", "id": 6175531894, "lat": 33.5697579, "lon": -86.51784}, {"type": "node", "id": 6175531895, "lat": 33.5699598, "lon": -86.5178384}, {"type": "node", "id": 6175531896, "lat": 33.5699602, "lon": -86.5179178}, {"type": "node", "id": 6175531897, "lat": 33.5702001, "lon": -86.5179159}, {"type": "node", "id": 6175531898, "lat": 33.5701996, "lon": -86.5178236}, {"type": "node", "id": 7653767980, "lat": 33.5643087, "lon": -86.5224829}, {"type": "node", "id": 7653767981, "lat": 33.5643054, "lon": -86.5222309}, {"type": "node", "id": 7653767982, "lat": 33.5642448, "lon": -86.5222321}, {"type": "node", "id": 7653767983, "lat": 33.5642481, "lon": -86.522484}, {"type": "node", "id": 9143734757, "lat": 33.5649784, "lon": -86.5145521}, {"type": "node", "id": 9143734758, "lat": 33.5649928, "lon": -86.514512}, {"type": "node", "id": 9143734759, "lat": 33.565008, "lon": -86.5145198}, {"type": "node", "id": 9143734760, "lat": 33.5650357, "lon": -86.5144425}, {"type": "node", "id": 9143734761, "lat": 33.565021, "lon": -86.5144349}, {"type": "node", "id": 9143734762, "lat": 33.5650346, "lon": -86.514397}, {"type": "node", "id": 9143734763, "lat": 33.5649551, "lon": -86.514356}, {"type": "node", "id": 9143734764, "lat": 33.5649286, "lon": -86.5144299}, {"type": "node", "id": 9143734765, "lat": 33.5649003, "lon": -86.5144153}, {"type": "node", "id": 9143734766, "lat": 33.5648845, "lon": -86.5144593}, {"type": "node", "id": 9143734767, "lat": 33.564907, "lon": -86.5144709}, {"type": "node", "id": 9143734768, "lat": 33.5649003, "lon": -86.5144897}, {"type": "node", "id": 9143734769, "lat": 33.5649045, "lon": -86.514499}, {"type": "node", "id": 9143734770, "lat": 33.5649, "lon": -86.5145116}, {"type": "node", "id": 9143734771, "lat": 33.5651343, "lon": -86.5142433}, {"type": "node", "id": 9143734772, "lat": 33.5651957, "lon": -86.5141379}, {"type": "node", "id": 9143734773, "lat": 33.565202, "lon": -86.5141432}, {"type": "node", "id": 9143734774, "lat": 33.5652615, "lon": -86.5140412}, {"type": "node", "id": 9143734775, "lat": 33.5651858, "lon": -86.5139776}, {"type": "node", "id": 9143734776, "lat": 33.5651486, "lon": -86.5140413}, {"type": "node", "id": 9143734777, "lat": 33.5651206, "lon": -86.5140178}, {"type": "node", "id": 9143734778, "lat": 33.5650888, "lon": -86.5140724}, {"type": "node", "id": 9143734779, "lat": 33.5651067, "lon": -86.5140875}, {"type": "node", "id": 9143734780, "lat": 33.5650548, "lon": -86.5141764}, {"type": "node", "id": 9143734781, "lat": 33.565938, "lon": -86.5155917}, {"type": "node", "id": 9143734782, "lat": 33.5660293, "lon": -86.5153522}, {"type": "node", "id": 9143734783, "lat": 33.565927, "lon": -86.5152961}, {"type": "node", "id": 9143734784, "lat": 33.5658357, "lon": -86.5155355}, {"type": "node", "id": 9699268822, "lat": 33.573046, "lon": -86.5190534}, {"type": "node", "id": 9709730977, "lat": 33.5729613, "lon": -86.5191054}, {"type": "node", "id": 9709730978, "lat": 33.5729167, "lon": -86.5190008}, {"type": "node", "id": 9709730979, "lat": 33.5729067, "lon": -86.519007}, {"type": "node", "id": 9709730980, "lat": 33.572872, "lon": -86.5189255}, {"type": "node", "id": 9709730981, "lat": 33.5728834, "lon": -86.5189185}, {"type": "node", "id": 9709730982, "lat": 33.5728676, "lon": -86.5188815}, {"type": "node", "id": 9709730983, "lat": 33.5728773, "lon": -86.5188756}, {"type": "node", "id": 9709730984, "lat": 33.5728721, "lon": -86.5188635}, {"type": "node", "id": 9709730985, "lat": 33.5729139, "lon": -86.5188378}, {"type": "node", "id": 9709730986, "lat": 33.5729189, "lon": -86.5188495}, {"type": "node", "id": 9709730987, "lat": 33.5729306, "lon": -86.5188423}, {"type": "node", "id": 9709730988, "lat": 33.572961, "lon": -86.5189135}, {"type": "node", "id": 9709730989, "lat": 33.5729811, "lon": -86.5189011}, {"type": "node", "id": 9709730990, "lat": 33.5733993, "lon": -86.5189016}, {"type": "node", "id": 9709730991, "lat": 33.5732837, "lon": -86.5189836}, {"type": "node", "id": 9709730992, "lat": 33.5731732, "lon": -86.5187592}, {"type": "node", "id": 9709730993, "lat": 33.5732888, "lon": -86.5186772}, {"type": "node", "id": 9709730994, "lat": 33.573866, "lon": -86.5185421}, {"type": "node", "id": 9709730995, "lat": 33.5737661, "lon": -86.5186125}, {"type": "node", "id": 9709730996, "lat": 33.5736724, "lon": -86.5184344}, {"type": "node", "id": 9709730997, "lat": 33.5736946, "lon": -86.5184182}, {"type": "node", "id": 9709730998, "lat": 33.5736521, "lon": -86.5183316}, {"type": "node", "id": 9709730999, "lat": 33.5737203, "lon": -86.5182773}, {"type": "node", "id": 9709731000, "lat": 33.5737675, "lon": -86.5183729}, {"type": "node", "id": 9709731001, "lat": 33.5737823, "lon": -86.5183623}, {"type": "node", "id": 9709731002, "lat": 33.574443, "lon": -86.5179831}, {"type": "node", "id": 9709731003, "lat": 33.5743278, "lon": -86.5177557}, {"type": "node", "id": 9709731004, "lat": 33.5742312, "lon": -86.5178262}, {"type": "node", "id": 9709731005, "lat": 33.5743465, "lon": -86.5180535}, {"type": "node", "id": 9898273287, "lat": 33.5674303, "lon": -86.5178032}, {"type": "node", "id": 9898273288, "lat": 33.5672598, "lon": -86.5178035}, {"type": "node", "id": 9898273289, "lat": 33.5672589, "lon": -86.5171603}, {"type": "node", "id": 9898273290, "lat": 33.5673355, "lon": -86.5171602}, {"type": "node", "id": 9898273291, "lat": 33.5673354, "lon": -86.5171313}, {"type": "node", "id": 9898273292, "lat": 33.5673814, "lon": -86.5171312}, {"type": "node", "id": 9898273293, "lat": 33.5673815, "lon": -86.5171638}, {"type": "node", "id": 9898273294, "lat": 33.5674288, "lon": -86.5171637}, {"type": "node", "id": 9898273295, "lat": 33.5674288, "lon": -86.5172028}, {"type": "node", "id": 9898273296, "lat": 33.567444, "lon": -86.5172028}, {"type": "node", "id": 9898273297, "lat": 33.5674443, "lon": -86.517327}, {"type": "node", "id": 9898273298, "lat": 33.567429, "lon": -86.5173271}, {"type": "node", "id": 9898273299, "lat": 33.5674292, "lon": -86.517444}, {"type": "node", "id": 9898273300, "lat": 33.5675421, "lon": -86.5174437}, {"type": "node", "id": 9898273301, "lat": 33.5675423, "lon": -86.5175579}, {"type": "node", "id": 9898273302, "lat": 33.5674275, "lon": -86.5175582}, {"type": "node", "id": 9898273303, "lat": 33.5674276, "lon": -86.5176377}, {"type": "node", "id": 9898273304, "lat": 33.567442, "lon": -86.5176377}, {"type": "node", "id": 9898273305, "lat": 33.5674422, "lon": -86.5177609}, {"type": "node", "id": 9898273306, "lat": 33.5674302, "lon": -86.5177609}, {"type": "node", "id": 9898273307, "lat": 33.5674854, "lon": -86.517558}, {"type": "node", "id": 9898273308, "lat": 33.5674854, "lon": -86.5174439}, {"type": "node", "id": 9898273311, "lat": 33.5678745, "lon": -86.5150414}, {"type": "node", "id": 9898273312, "lat": 33.5677258, "lon": -86.5150372}, {"type": "node", "id": 9898273313, "lat": 33.5677309, "lon": -86.5147738}, {"type": "node", "id": 9898273314, "lat": 33.5678811, "lon": -86.514778}, {"type": "node", "id": 9898273315, "lat": 33.567879, "lon": -86.5148857}, {"type": "node", "id": 9898273316, "lat": 33.5678918, "lon": -86.5148861}, {"type": "node", "id": 9898273317, "lat": 33.5678906, "lon": -86.5149514}, {"type": "node", "id": 9898273318, "lat": 33.5678763, "lon": -86.514951}, {"type": "node", "id": 9898273320, "lat": 33.5678676, "lon": -86.5160285}, {"type": "node", "id": 9898273321, "lat": 33.5678775, "lon": -86.5153098}, {"type": "node", "id": 9898273322, "lat": 33.5680532, "lon": -86.5153133}, {"type": "node", "id": 9898273323, "lat": 33.5680431, "lon": -86.516032}, {"type": "node", "id": 9898273326, "lat": 33.5675129, "lon": -86.5165509}, {"type": "node", "id": 9898273327, "lat": 33.5675148, "lon": -86.5163368}, {"type": "node", "id": 9898273328, "lat": 33.5680147, "lon": -86.516343}, {"type": "node", "id": 9898273329, "lat": 33.5680128, "lon": -86.5165573}, {"type": "node", "id": 10915466807, "lat": 33.5675156, "lon": -86.5185863}, {"type": "node", "id": 10915466808, "lat": 33.5675625, "lon": -86.5185866}, {"type": "node", "id": 10915466809, "lat": 33.5675624, "lon": -86.5186097}, {"type": "node", "id": 10915466810, "lat": 33.5675112, "lon": -86.5188313}, {"type": "way", "id": 577310216, "nodes": [5534751033, 5534751034, 5534751035, 5534751036, 5534751037, 5534751038, 5534751039, 5534751040, 5534751041, 5534751042, 5534751033], "tags": {"addr:city": "Leeds", "addr:housenumber": "8900", "addr:postcode": "35094", "addr:state": "AL", "addr:street": "Weaver Avenue", "brand": "Lowe's", "brand:wikidata": "Q1373493", "building": "commercial", "name": "Lowe's", "opening_hours": "Mo-Sa 06:00-22:00; Su 08:00-20:00", "phone": "+1 205-699-4520", "ref": "1737", "shop": "doityourself", "start_date": "2003-10-29", "website": "https://www.lowes.com/store/al-leeds/1737"}}, {"type": "way", "id": 659591286, "nodes": [6175531742, 6175531743, 6175531744, 6175531745, 6175531746, 6175531747, 6175531748, 6175531749, 6175531750, 6175531751, 6175531742], "tags": {"amenity": "restaurant", "brand": "Ruby Tuesday", "brand:wikidata": "Q7376400", "building": "yes", "name": "Ruby Tuesday"}}, {"type": "way", "id": 659591287, "nodes": [6175531752, 6175531753, 6175531754, 6175531755, 6175531752], "tags": {"amenity": "restaurant", "brand": "Cracker Barrel", "brand:wikidata": "Q4492609", "building": "yes", "cuisine": "american", "name": "Cracker Barrel", "official_name": "Cracker Barrel Old Country Store"}}, {"type": "way", "id": 659591288, "nodes": [6175531756, 6175531757, 6175531758, 6175531759, 10915466809, 10915466808, 10915466807, 6175531760, 6175531762, 6175531763, 6175531764, 10915466810, 6175531756], "tags": {"amenity": "restaurant", "brand": "Logan's Roadhouse", "brand:wikidata": "Q6666872", "building": "commercial", "cuisine": "american", "internet_access": "wlan", "internet_access:fee": "no", "name": "Logan's Roadhouse", "outdoor_seating": "no", "smoking": "no", "takeaway": "yes"}}, {"type": "way", "id": 659591301, "nodes": [6175531887, 6175531888, 6175531889, 6175531890, 6175531891, 6175531892, 6175531893, 6175531894, 6175531895, 6175531896, 6175531897, 6175531898, 6175531887], "tags": {"addr:city": "Moody", "addr:housenumber": "2200", "addr:postcode": "35004-3241", "addr:state": "AL", "addr:street": "Village Drive", "branch": "The Village at Moody", "brand": "Publix", "brand:wikidata": "Q672170", "building": "commercial", "name": "Publix", "opening_hours": "Mo-Su 07:00-22:00", "phone": "+1 205-640-3230", "ref": "1508", "shop": "supermarket", "website": "https://www.publix.com/locations/1508"}}, {"type": "way", "id": 819609624, "nodes": [7653767980, 7653767981, 7653767982, 7653767983, 7653767980], "tags": {"amenity": "restaurant", "brand": "Waffle House", "brand:wikidata": "Q1701206", "building": "yes", "check_date": "2024-09-24", "check_date:opening_hours": "2024-09-24", "cuisine": "american", "name": "Waffle House", "opening_hours": "24/7", "phone": "+1 205-699-5300", "website": "https://locations.wafflehouse.com/leeds-al-1093/"}}, {"type": "way", "id": 989281843, "nodes": [9143734757, 9143734758, 9143734759, 9143734760, 9143734761, 9143734762, 9143734763, 9143734764, 9143734765, 9143734766, 9143734767, 9143734768, 9143734769, 9143734770, 9143734757], "tags": {"building": "yes"}}, {"type": "way", "id": 989281844, "nodes": [9143734771, 9143734772, 9143734773, 9143734774, 9143734775, 9143734776, 9143734777, 9143734778, 9143734779, 9143734780, 9143734771], "tags": {"building": "yes"}}, {"type": "way", "id": 989281845, "nodes": [9143734781, 9143734782, 9143734783, 9143734784, 9143734781], "tags": {"building": "yes"}}, {"type": "way", "id": 1056690117, "nodes": [9699268822, 9709730977, 9709730978, 9709730979, 9709730980, 9709730981, 9709730982, 9709730983, 9709730984, 9709730985, 9709730986, 9709730987, 9709730988, 9709730989, 9699268822], "tags": {"addr:city": "Leeds", "addr:housenumber": "2203", "addr:postcode": "35004", "addr:state": "AL", "addr:street": "Moody Parkway", "amenity": "fast_food", "brand": "Popeyes", "brand:wikidata": "Q1330910", "building": "retail", "cuisine": "chicken", "delivery": "yes", "drive_through": "yes", "indoor_seating": "yes", "internet_access": "wlan", "name": "Popeyes", "official_name": "Popeyes Louisiana Kitchen", "opening_hours": "Mo-Th 10:00-22:00; Fr-Sa 10:00-23:00; Su 10:00-22:00", "phone": "+1 352-225-8951", "takeaway": "yes", "website": "https://www.popeyes.com/store-locator/store/restaurant_235680"}}, {"type": "way", "id": 1056690118, "nodes": [9709730990, 9709730991, 9709730992, 9709730993, 9709730990], "tags": {"brand": "Sherwin-Williams", "brand:wikidata": "Q48881", "building": "retail", "name": "Sherwin-Williams", "shop": "paint"}}, {"type": "way", "id": 1056690119, "nodes": [9709730994, 9709730995, 9709730996, 9709730997, 9709730998, 9709730999, 9709731000, 9709731001, 9709730994], "tags": {"amenity": "fast_food", "building": "retail", "name": "The Purple Onion"}}, {"type": "way", "id": 1056690120, "nodes": [9709731002, 9709731003, 9709731004, 9709731005, 9709731002], "tags": {"addr:city": "Moody", "addr:housenumber": "2211", "addr:postcode": "35004", "addr:state": "AL", "addr:street": "Moody Parkway", "amenity": "clinic", "building": "yes", "contact:facebook": "MainStreetFamilyCareMoody", "contact:instagram": "mainstreetfamilycare", "contact:linkedin": "https://www.linkedin.com/company/mainstreet-family-care/", "contact:twitter": "mainstreetfam", "contact:youtube": "https://www.youtube.com/channel/UCag5OmXWf738j85IjjrP1VQ/featured", "description": "MainStreet Family Care offers urgent care, primary care, and occupational care for the entire family!", "email": "info@mainstreetfamilycare.com", "fax": "+1-205-352-2478", "healthcare": "clinic", "healthcare:speciality": "emergency", "name": "MainStreet Family Care", "opening_hours": "Mo-Fr 08:00-20:00; Sa-Su 09:00-16:00", "phone": "+1-205-352-2480", "start_date": "2017", "website": "https://www.mainstreetfamilycare.com/locations/moody/"}}, {"type": "way", "id": 1079856395, "nodes": [9898273287, 9898273288, 9898273289, 9898273290, 9898273291, 9898273292, 9898273293, 9898273294, 9898273295, 9898273296, 9898273297, 9898273298, 9898273299, 9898273308, 9898273300, 9898273301, 9898273307, 9898273302, 9898273303, 9898273304, 9898273305, 9898273306, 9898273287], "tags": {"addr:city": "Leeds", "addr:housenumber": "1951", "addr:postcode": "35094", "addr:state": "AL", "addr:street": "Village Drive", "branch": "Leeds I-20", "brand": "Comfort Inn & Suites", "brand:wikidata": "Q113152349", "building": "yes", "name": "Comfort Inn & Suites", "phone": "+1 205-640-6600", "ref": "AL435", "tourism": "hotel", "website": "https://www.choicehotels.com/alabama/trussville/quality-inn-hotels"}}, {"type": "way", "id": 1079856403, "nodes": [9898273311, 9898273312, 9898273313, 9898273314, 9898273315, 9898273316, 9898273317, 9898273318, 9898273311], "tags": {"amenity": "veterinary", "building": "yes", "name": "Crossroads Animal Hospital"}}, {"type": "way", "id": 1079856404, "nodes": [9898273320, 9898273321, 9898273322, 9898273323, 9898273320], "tags": {"addr:city": "Moody", "addr:housenumber": "1820", "addr:postcode": "35004", "addr:state": "AL", "addr:street": "Carl Jones Road", "branch": "Moody - Leeds", "brand": "Holiday Inn Express", "brand:wikidata": "Q5880423", "building": "yes", "name": "Holiday Inn Express & Suites", "phone": "+1 205-352-0515", "ref": "BHMLD", "tourism": "hotel", "website": "https://www.ihg.com/holidayinnexpress/hotels/us/en/leeds/bhmld/hoteldetail"}}, {"type": "way", "id": 1079856405, "nodes": [9898273326, 9898273327, 9898273328, 9898273329, 9898273326], "tags": {"addr:city": "Leeds", "addr:housenumber": "1949", "addr:postcode": "35094-1133", "addr:street": "Village Drive", "branch": "Bass Hotel & Suites", "brand": "Best Western Plus", "brand:wikidata": "Q830334", "building": "yes", "name": "Best Western Plus", "phone": "+1 205-640-5300", "ref": "01104", "tourism": "hotel", "website": "https://www.bestwestern.com/en_US/book/hotels-in-leeds/best-western-plus-bass-hotel-suites/propertyCode.01104.html"}}]}