{"version": 0.6, "generator": "Overpass API 0.7.62.8 e802775f", "osm3s": {"timestamp_osm_base": "2025-12-06T20:47:21Z", "copyright": "The data included in this document is from www.openstreetmap.org. The data is made available under ODbL."}, "elements": [{"type": "node", "id": 33671034, "lat": 48.1120537, "lon": -122.7598106, "tags": {"source": "PGS"}}, {"type": "node", "id": 48452980, "lat": 48.1165128, "lon": -122.7747976}, {"type": "node", "id": 48531187, "lat": 48.1113668, "lon": -122.759264}, {"type": "node", "id": 356547452, "lat": 48.1171089, "lon": -122.7818298, "tags": {"amenity": "school", "check_date": "2024-07-29", "ele": "22", "gnis:feature_id": "1530636", "name": "Swan School"}}, {"type": "node", "id": 677316773, "lat": 48.1184534, "lon": -122.751134}, {"type": "node", "id": 677316779, "lat": 48.1181515, "lon": -122.7511987}, {"type": "node", "id": 677316782, "lat": 48.1183472, "lon": -122.7513887}, {"type": "node", "id": 677316786, "lat": 48.118219, "lon": -122.7510135}, {"type": "node", "id": 677316795, "lat": 48.1182583, "lon": -122.7513055}, {"type": "node", "id": 677316799, "lat": 48.1183686, "lon": -122.7510547}, {"type": "node", "id": 677316804, "lat": 48.1181641, "lon": -122.7508634}, {"type": "node", "id": 677316806, "lat": 48.1182447, "lon": -122.7513381}, {"type": "node", "id": 677316810, "lat": 48.1182486, "lon": -122.7509426}, {"type": "node", "id": 677316812, "lat": 48.1180599, "lon": -122.7511129}, {"type": "node", "id": 677316817, "lat": 48.1181342, "lon": -122.7512402}, {"type": "node", "id": 677316820, "lat": 48.1119315, "lon": -122.7604212}, {"type": "node", "id": 691131939, "lat": 48.1144513, "lon": -122.7580212}, {"type": "node", "id": 907764657, "lat": 48.1118641, "lon": -122.7679197}, {"type": "node", "id": 907764659, "lat": 48.1120368, "lon": -122.7681029}, {"type": "node", "id": 907764661, "lat": 48.1122297, "lon": -122.7675665}, {"type": "node", "id": 907764663, "lat": 48.1121046, "lon": -122.7674662}, {"type": "node", "id": 1297879867, "lat": 48.1160536, "lon": -122.7642915}, {"type": "node", "id": 1297880154, "lat": 48.1150174, "lon": -122.7719377, "tags": {"amenity": "police", "name": "Port Townsend Police"}}, {"type": "node", "id": 1463064323, "lat": 48.1137433, "lon": -122.757085, "tags": {"addr:housenumber": "100", "addr:postcode": "98368", "addr:street": "Tyler Street", "amenity": "cafe", "cuisine": "coffee_shop", "internet_access": "wlan", "internet_access:fee": "no", "name": "Better Living Through Coffee", "source": "Local Knowledge", "website": "https://www.bltcoffee.com/"}}, {"type": "node", "id": 1488255727, "lat": 48.1087943, "lon": -122.7755825}, {"type": "node", "id": 1488255728, "lat": 48.1085721, "lon": -122.7756921}, {"type": "node", "id": 1488255731, "lat": 48.1085232, "lon": -122.7758305}, {"type": "node", "id": 1488255733, "lat": 48.1084798, "lon": -122.7762921}, {"type": "node", "id": 1488255738, "lat": 48.1086184, "lon": -122.7754915}, {"type": "node", "id": 1488255741, "lat": 48.1083727, "lon": -122.7761923}, {"type": "node", "id": 1488255742, "lat": 48.1086302, "lon": -122.7759304}, {"type": "node", "id": 1919739647, "lat": 48.1157314, "lon": -122.7546485, "tags": {"addr:city": "Port Townsend", "addr:housenumber": "230", "addr:postcode": "98368", "addr:street": "Quincy Street", "amenity": "cafe", "name": "Courtyard Cafe", "opening_hours": "Mo, Th-Su 08:00-17:00", "website": "https://www.courtyardcafept.com/"}}, {"type": "node", "id": 1919739649, "lat": 48.1151491, "lon": -122.7560208, "tags": {"addr:housenumber": "225", "addr:street": "Adams Street", "amenity": "restaurant", "check_date": "2023-07-30", "cuisine": "thai", "level": "0", "name": "Khu Larb Thai", "outdoor_seating": "yes", "phone": "+1-360-385-5023"}}, {"type": "node", "id": 1919739650, "lat": 48.1145622, "lon": -122.755752, "tags": {"addr:housenumber": "817", "addr:street": "Water Street", "amenity": "restaurant", "cuisine": "ice_cream;burger", "name": "Nifty Fiftys", "website": "http://niftyfiftyspt.com"}}, {"type": "node", "id": 1919739653, "lat": 48.1148708, "lon": -122.7571565, "tags": {"addr:housenumber": "237", "addr:street": "Taylor Street", "amenity": "restaurant", "name": "Silverwater Cafe", "opening_hours": "Tu-Sa 11:30-15:00, 16:00-20:00", "website": "https://www.silverwatercafe.com/"}}, {"type": "node", "id": 1919739655, "lat": 48.114314, "lon": -122.7557815, "tags": {"addr:city": "Port Townsend", "addr:housenumber": "823", "addr:postcode": "98368", "addr:street": "Water Street", "amenity": "pub", "name": "Sirens", "opening_hours": "Mo-We,Su 12:00-22:00; Th-Sa 12:00-24:00; PH closed", "phone": "+1-360-379-1100", "website": "https://www.sirenspub.com/"}}, {"type": "node", "id": 1919739658, "lat": 48.1141112, "lon": -122.7569473, "tags": {"amenity": "restaurant", "name": "The Belmont"}}, {"type": "node", "id": 1919739674, "lat": 48.1154682, "lon": -122.753634, "tags": {"amenity": "toilets", "fee": "no"}}, {"type": "node", "id": 1919739676, "lat": 48.1161771, "lon": -122.753612, "tags": {"addr:city": "Port Townsend", "addr:housenumber": "250", "addr:postcode": "98368", "addr:state": "WA", "addr:street": "Madison Street", "amenity": "townhall", "name": "City Hall", "operator": "City of Port Townsend"}}, {"type": "node", "id": 1919739681, "lat": 48.117374, "lon": -122.7589614, "tags": {"amenity": "place_of_worship", "denomination": "methodist", "name": "Trinity United Methodist Church", "religion": "christian"}}, {"type": "node", "id": 2128126279, "lat": 48.1173284, "lon": -122.7528583}, {"type": "node", "id": 2132586110, "lat": 48.1152013, "lon": -122.7572599, "tags": {"amenity": "fountain", "lit": "yes", "name": "Haller Fountain"}}, {"type": "node", "id": 2133022246, "lat": 48.1120831, "lon": -122.7600634}, {"type": "node", "id": 2133022247, "lat": 48.1115583, "lon": -122.7593363}, {"type": "node", "id": 2133022251, "lat": 48.1111823, "lon": -122.7597222}, {"type": "node", "id": 2133031260, "lat": 48.1133373, "lon": -122.7622518}, {"type": "node", "id": 2133031261, "lat": 48.1134463, "lon": -122.761536}, {"type": "node", "id": 2133031262, "lat": 48.1132, "lon": -122.7621223}, {"type": "node", "id": 2133031263, "lat": 48.1135085, "lon": -122.7618294}, {"type": "node", "id": 2133031264, "lat": 48.1134481, "lon": -122.7621178}, {"type": "node", "id": 2133031265, "lat": 48.1135907, "lon": -122.7619069}, {"type": "node", "id": 2133031266, "lat": 48.1134091, "lon": -122.762081}, {"type": "node", "id": 2133031267, "lat": 48.1135792, "lon": -122.7616614}, {"type": "node", "id": 2133976111, "lat": 48.1129418, "lon": -122.759013, "tags": {"addr:housenumber": "1145", "addr:street": "Water Street", "amenity": "restaurant", "cuisine": "mexican", "name": "Burritos Y Tacos Mexican Grill", "opening_hours": "We-Mo 11:00-20:00"}}, {"type": "node", "id": 2133985741, "lat": 48.1144055, "lon": -122.7741753}, {"type": "node", "id": 2133994339, "lat": 48.1156027, "lon": -122.754028, "tags": {"addr:city": "Port Townsend", "addr:postcode": "98368", "addr:street": "Water Street", "name": "The Broken Spoke", "phone": "+1-360-379-1295", "shop": "bicycle", "website": "http://thebrokenspokept.blogspot.com/"}}, {"type": "node", "id": 2143022855, "lat": 48.1175207, "lon": -122.7658018, "tags": {"amenity": "place_of_worship", "denomination": "catholic", "name": "St. Mary Star of the Sea", "religion": "christian"}}, {"type": "node", "id": 2214210404, "lat": 48.1106763, "lon": -122.7705028}, {"type": "node", "id": 2214210509, "lat": 48.1105547, "lon": -122.7707871}, {"type": "node", "id": 2214210637, "lat": 48.1110139, "lon": -122.7704998}, {"type": "node", "id": 2214210722, "lat": 48.110628, "lon": -122.7704565}, {"type": "node", "id": 2214210908, "lat": 48.1107206, "lon": -122.7702658}, {"type": "node", "id": 2219903198, "lat": 48.1085739, "lon": -122.7799968}, {"type": "node", "id": 2219903201, "lat": 48.108321, "lon": -122.7793092}, {"type": "node", "id": 2219903205, "lat": 48.1082594, "lon": -122.7799946}, {"type": "node", "id": 2243954614, "lat": 48.1154547, "lon": -122.7536897}, {"type": "node", "id": 2243954619, "lat": 48.1153444, "lon": -122.7535831}, {"type": "node", "id": 2243994420, "lat": 48.1158316, "lon": -122.753434}, {"type": "node", "id": 2243994421, "lat": 48.1162808, "lon": -122.7535602}, {"type": "node", "id": 2243994422, "lat": 48.1163459, "lon": -122.753595}, {"type": "node", "id": 2243994424, "lat": 48.1159213, "lon": -122.7532181}, {"type": "node", "id": 2243994426, "lat": 48.1162893, "lon": -122.7535395}, {"type": "node", "id": 2243994428, "lat": 48.1162553, "lon": -122.75382}, {"type": "node", "id": 2244014199, "lat": 48.1168056, "lon": -122.7530918}, {"type": "node", "id": 2244014202, "lat": 48.1169413, "lon": -122.752515}, {"type": "node", "id": 2244038993, "lat": 48.1177597, "lon": -122.7608773}, {"type": "node", "id": 2244038995, "lat": 48.1176319, "lon": -122.7604199}, {"type": "node", "id": 2244038997, "lat": 48.1175306, "lon": -122.7606634}, {"type": "node", "id": 2244045932, "lat": 48.1163665, "lon": -122.7642378}, {"type": "node", "id": 2244045934, "lat": 48.1161567, "lon": -122.7640428}, {"type": "node", "id": 2244045935, "lat": 48.1162634, "lon": -122.7644866}, {"type": "node", "id": 2285938818, "lat": 48.1167818, "lon": -122.7530688}, {"type": "node", "id": 2294803658, "lat": 48.1085896, "lon": -122.7792563}, {"type": "node", "id": 2294824530, "lat": 48.1165406, "lon": -122.7636866}, {"type": "node", "id": 2294824534, "lat": 48.1165084, "lon": -122.7636563}, {"type": "node", "id": 2294824537, "lat": 48.1165244, "lon": -122.7636179}, {"type": "node", "id": 2294824538, "lat": 48.1164493, "lon": -122.7635474}, {"type": "node", "id": 2294824540, "lat": 48.1165547, "lon": -122.7632954}, {"type": "node", "id": 2294824542, "lat": 48.1166334, "lon": -122.7633693}, {"type": "node", "id": 2294824544, "lat": 48.1165472, "lon": -122.7636709}, {"type": "node", "id": 2294824546, "lat": 48.1166432, "lon": -122.763761}, {"type": "node", "id": 2314651698, "lat": 48.1160687, "lon": -122.7545049}, {"type": "node", "id": 2314651699, "lat": 48.1161281, "lon": -122.7543567}, {"type": "node", "id": 2314651700, "lat": 48.1160441, "lon": -122.7542811}, {"type": "node", "id": 2314651701, "lat": 48.1159847, "lon": -122.7544293}, {"type": "node", "id": 2314655641, "lat": 48.1167063, "lon": -122.7630049, "tags": {"addr:city": "Port Townsend", "addr:country": "US", "addr:county": "Jefferson", "addr:housenumber": "1202", "addr:postcode": "98368", "addr:state": "WA", "addr:street": "Lawrence Street", "amenity": "place_of_worship", "denomination": "baptist", "name": "First Baptist Church", "religion": "christian", "source": "Jefferson County Washington Open Data Site"}}, {"type": "node", "id": 2315952453, "lat": 48.1129389, "lon": -122.7605607}, {"type": "node", "id": 2315952454, "lat": 48.1128603, "lon": -122.7604894}, {"type": "node", "id": 2315952455, "lat": 48.1127914, "lon": -122.7606596}, {"type": "node", "id": 2315952460, "lat": 48.1125072, "lon": -122.7601982}, {"type": "node", "id": 2315952462, "lat": 48.1123212, "lon": -122.7598683}, {"type": "node", "id": 2315952463, "lat": 48.1123357, "lon": -122.7598335}, {"type": "node", "id": 2315952464, "lat": 48.1122792, "lon": -122.7597804}, {"type": "node", "id": 2315952465, "lat": 48.1122097, "lon": -122.7599215}, {"type": "node", "id": 2331829573, "lat": 48.1150727, "lon": -122.7546643}, {"type": "node", "id": 2331829577, "lat": 48.1150262, "lon": -122.7547768}, {"type": "node", "id": 2331829579, "lat": 48.1149659, "lon": -122.7545652}, {"type": "node", "id": 2331829581, "lat": 48.1149738, "lon": -122.7548931}, {"type": "node", "id": 2331829587, "lat": 48.1148751, "lon": -122.7546956}, {"type": "node", "id": 2331829588, "lat": 48.1148438, "lon": -122.7547696}, {"type": "node", "id": 2331831932, "lat": 48.1145136, "lon": -122.7574848}, {"type": "node", "id": 2331831933, "lat": 48.1146624, "lon": -122.7576245}, {"type": "node", "id": 2331831934, "lat": 48.1145502, "lon": -122.7579007}, {"type": "node", "id": 2331831935, "lat": 48.115287, "lon": -122.7535298}, {"type": "node", "id": 2331831936, "lat": 48.1152099, "lon": -122.753713}, {"type": "node", "id": 2331850564, "lat": 48.1131503, "lon": -122.7604219}, {"type": "node", "id": 2331850565, "lat": 48.1131103, "lon": -122.7603839}, {"type": "node", "id": 2331850566, "lat": 48.1131367, "lon": -122.7603216}, {"type": "node", "id": 2331850567, "lat": 48.1130241, "lon": -122.7602147}, {"type": "node", "id": 2331850568, "lat": 48.1130098, "lon": -122.7602487}, {"type": "node", "id": 2331850569, "lat": 48.1129725, "lon": -122.7602133}, {"type": "node", "id": 2331850570, "lat": 48.1129221, "lon": -122.7603323}, {"type": "node", "id": 2331850585, "lat": 48.1113979, "lon": -122.7591822}, {"type": "node", "id": 2408343142, "lat": 48.1111064, "lon": -122.759022, "tags": {"amenity": "ferry_terminal", "bicycle": "yes", "cargo": "passengers;vehicle", "ferry": "yes", "name": "Port Townsend", "network": "Washington State Ferries", "network:wikidata": "Q3500373", "network:wikipedia": "en:Washington State Ferries", "operator": "Washington State Ferries", "public_transport": "stop_position"}}, {"type": "node", "id": 2435528449, "lat": 48.1149914, "lon": -122.7554597}, {"type": "node", "id": 2435528451, "lat": 48.1150222, "lon": -122.7553834}, {"type": "node", "id": 2435528453, "lat": 48.1150399, "lon": -122.7553994}, {"type": "node", "id": 2435528454, "lat": 48.1150649, "lon": -122.7553376}, {"type": "node", "id": 2435528456, "lat": 48.1150278, "lon": -122.7553039}, {"type": "node", "id": 2435528457, "lat": 48.1150582, "lon": -122.7552287}, {"type": "node", "id": 2435528459, "lat": 48.1150848, "lon": -122.7552528}, {"type": "node", "id": 2435528460, "lat": 48.115118, "lon": -122.7551708}, {"type": "node", "id": 2435528462, "lat": 48.1151709, "lon": -122.7552188}, {"type": "node", "id": 2435528463, "lat": 48.1152017, "lon": -122.7551427}, {"type": "node", "id": 2435528465, "lat": 48.115286, "lon": -122.7552191}, {"type": "node", "id": 2435528467, "lat": 48.1151312, "lon": -122.7555866}, {"type": "node", "id": 2435533246, "lat": 48.1152504, "lon": -122.7556618}, {"type": "node", "id": 2435533248, "lat": 48.1153567, "lon": -122.7554035}, {"type": "node", "id": 2435533249, "lat": 48.1154179, "lon": -122.75546}, {"type": "node", "id": 2435533250, "lat": 48.1153117, "lon": -122.7557184}, {"type": "node", "id": 2444606489, "lat": 48.1101293, "lon": -122.7699383}, {"type": "node", "id": 2444606490, "lat": 48.1102136, "lon": -122.7697388}, {"type": "node", "id": 2444606491, "lat": 48.1104047, "lon": -122.7699213}, {"type": "node", "id": 2444617431, "lat": 48.1171629, "lon": -122.7623367}, {"type": "node", "id": 2444617432, "lat": 48.1172439, "lon": -122.7621385}, {"type": "node", "id": 2444617433, "lat": 48.1170029, "lon": -122.7619176}, {"type": "node", "id": 2444617434, "lat": 48.1169121, "lon": -122.7621399}, {"type": "node", "id": 2514652209, "lat": 48.1076596, "lon": -122.7762713}, {"type": "node", "id": 2514652210, "lat": 48.1079928, "lon": -122.7754136}, {"type": "node", "id": 2514652211, "lat": 48.1079891, "lon": -122.7752732}, {"type": "node", "id": 2514652212, "lat": 48.1077982, "lon": -122.7750969}, {"type": "node", "id": 2514652213, "lat": 48.1076785, "lon": -122.7751507}, {"type": "node", "id": 2514652214, "lat": 48.107342, "lon": -122.7759824}, {"type": "node", "id": 2759858739, "lat": 48.1152689, "lon": -122.7570537, "tags": {"addr:housenumber": "842", "addr:street": "Washington Street", "amenity": "bistro", "level": "0", "name": "Alchemy Bistro & Wine bust"}}, {"type": "node", "id": 2759867848, "lat": 48.1147744, "lon": -122.7570713, "tags": {"addr:city": "Port Townsend", "addr:housenumber": "235", "addr:postcode": "98368", "addr:state": "WA", "addr:street": "Taylor Street", "amenity": "cinema", "name": "Rose Theatre", "website": "https://rosetheatre.com/", "wikidata": "Q43305790"}}, {"type": "node", "id": 2858348890, "lat": 48.1160556, "lon": -122.7519406, "tags": {"addr:housenumber": "431", "addr:street": "Water Street", "amenity": "cafe", "name": "Velocity Coffee House", "opening_hours": "Mo-Fr,Su 07:00-14:00", "phone": "+1-360-379-5383", "website": "https://facebook.com/velocityporttownsend/"}}, {"type": "node", "id": 2858355818, "lat": 48.1095183, "lon": -122.7711461, "tags": {"addr:city": "Port Townsend", "addr:housenumber": "2219", "addr:postcode": "98368", "addr:state": "WA", "addr:street": "East Sims Way", "amenity": "restaurant", "capacity": "20", "cuisine": "thai", "name": "123 Thai", "takeaway": "yes"}}, {"type": "node", "id": 2858399931, "lat": 48.1091863, "lon": -122.7801586}, {"type": "node", "id": 2858399933, "lat": 48.1091468, "lon": -122.7799552}, {"type": "node", "id": 2858399934, "lat": 48.1090974, "lon": -122.7800793}, {"type": "node", "id": 2862545305, "lat": 48.1162446, "lon": -122.753511, "tags": {"amenity": "bicycle_parking", "bicycle_parking": "stands", "covered": "yes"}}, {"type": "node", "id": 2912072668, "lat": 48.1152953, "lon": -122.7539358, "tags": {"addr:city": "Port Townsend", "addr:housenumber": "627", "addr:postcode": "98368", "addr:street": "Water Street", "amenity": "cafe", "amenity_1": "Creamery_and_Chocolatier", "cuisine": "ice_cream;chocolate", "internet_access": "yes", "name": "Elevated Ice Cream", "note": "The Elevated Ice Cream Co. is a refreshingly modern old-fashioned Ice Cream Parlor and Candy Shop located in the historic seaport of Port Townsend, WA Featuring fresh ice cream, sherbert and Italian ices and handmade chocolate, truffles and confections.", "opening_hours": "Mo-Su 12:00-20:00", "phone": "+1-360-385-1156", "smoking": "outside", "website": "https://www.elevatedicecream.com/"}}, {"type": "node", "id": 2912077497, "lat": 48.1077725, "lon": -122.7744572, "tags": {"amenity": "atm", "name": "Marina ATM", "operator": "Kitsap Credit Union"}}, {"type": "node", "id": 2969701333, "lat": 48.1152822, "lon": -122.7605778, "tags": {"addr:city": "Port Townsend", "addr:housenumber": "1111", "addr:postcode": "98368", "addr:street": "Franklin Street", "amenity": "place_of_worship", "denomination": "presbyterian", "name": "First Presbyterian Church", "phone": "+1-360-385-2525", "religion": "christian", "website": "https://fpcpt.org/", "wheelchair": "yes"}}, {"type": "node", "id": 2969717774, "lat": 48.1150305, "lon": -122.7602739, "tags": {"addr:city": "Port Townsend", "addr:country": "US", "addr:housenumber": "1110", "addr:postcode": "98368", "addr:state": "WA", "addr:street": "Jefferson Street", "amenity": "social_facility", "description": "ECHHO a non-profit organization works in partnership with volunteers and community organizations of Jefferson County to provide transportation, chores, social support and medical equipment services to persons who are elderly, disabled, or of limit means.", "name": "ECHHO (Ecumenical Christian Helping Hands Organization)", "phone": "+1-360-379-3246", "phone:mnemonic": "+1 360-379-ECHO", "social_facility": "outreach", "social_facility:for": "senior;disabled", "website": "https://echhojc.org/", "wheelchair": "yes"}}, {"type": "node", "id": 3085521423, "lat": 48.106911, "lon": -122.7780445}, {"type": "node", "id": 3085521425, "lat": 48.1068118, "lon": -122.7776081}, {"type": "node", "id": 3085521426, "lat": 48.1067087, "lon": -122.7778543}, {"type": "node", "id": 3085525402, "lat": 48.1084491, "lon": -122.7737238}, {"type": "node", "id": 3085525403, "lat": 48.1084239, "lon": -122.7737004}, {"type": "node", "id": 3085525404, "lat": 48.1083586, "lon": -122.7738608}, {"type": "node", "id": 3085525405, "lat": 48.108371, "lon": -122.7738738}, {"type": "node", "id": 3085525406, "lat": 48.1083303, "lon": -122.7739803}, {"type": "node", "id": 3085525907, "lat": 48.1085761, "lon": -122.7733292}, {"type": "node", "id": 3085525911, "lat": 48.1084942, "lon": -122.7732543}, {"type": "node", "id": 3085525912, "lat": 48.1085874, "lon": -122.7730256}, {"type": "node", "id": 3085526249, "lat": 48.1094949, "lon": -122.7724066}, {"type": "node", "id": 3085526250, "lat": 48.1094053, "lon": -122.7723232}, {"type": "node", "id": 3085526251, "lat": 48.1094117, "lon": -122.7723076}, {"type": "node", "id": 3085526252, "lat": 48.1093234, "lon": -122.7722254}, {"type": "node", "id": 3085526253, "lat": 48.1093685, "lon": -122.7721166}, {"type": "node", "id": 3085526255, "lat": 48.1094604, "lon": -122.7721825}, {"type": "node", "id": 3085528414, "lat": 48.108844, "lon": -122.7750975}, {"type": "node", "id": 3085528416, "lat": 48.1087932, "lon": -122.7747398}, {"type": "node", "id": 3085528418, "lat": 48.1088759, "lon": -122.7746248}, {"type": "node", "id": 3085528419, "lat": 48.108994, "lon": -122.7747341}, {"type": "node", "id": 3085528424, "lat": 48.1085535, "lon": -122.7720925}, {"type": "node", "id": 3085528935, "lat": 48.1085383, "lon": -122.7717859}, {"type": "node", "id": 3085528937, "lat": 48.1086276, "lon": -122.7720299}, {"type": "node", "id": 3085528938, "lat": 48.1086128, "lon": -122.7720654}, {"type": "node", "id": 3085528939, "lat": 48.1085782, "lon": -122.772033}, {"type": "node", "id": 3085528947, "lat": 48.1089957, "lon": -122.7710883}, {"type": "node", "id": 3085528948, "lat": 48.1090815, "lon": -122.7708778}, {"type": "node", "id": 3085528949, "lat": 48.1091861, "lon": -122.7709788}, {"type": "node", "id": 3085528976, "lat": 48.1097885, "lon": -122.7695752}, {"type": "node", "id": 3085528977, "lat": 48.1095629, "lon": -122.7693694}, {"type": "node", "id": 3085528978, "lat": 48.1095879, "lon": -122.7693082}, {"type": "node", "id": 3085528979, "lat": 48.1095519, "lon": -122.7692754}, {"type": "node", "id": 3085528980, "lat": 48.1095811, "lon": -122.7692037}, {"type": "node", "id": 3085528981, "lat": 48.1096187, "lon": -122.7692381}, {"type": "node", "id": 3085528982, "lat": 48.1096319, "lon": -122.7692056}, {"type": "node", "id": 3221061463, "lat": 48.1102787, "lon": -122.7721173}, {"type": "node", "id": 3221061464, "lat": 48.1103821, "lon": -122.7718799}, {"type": "node", "id": 3221061465, "lat": 48.1102451, "lon": -122.7717462}, {"type": "node", "id": 3221061466, "lat": 48.1101606, "lon": -122.7719404}, {"type": "node", "id": 3221061467, "lat": 48.1102111, "lon": -122.7719897}, {"type": "node", "id": 3221061468, "lat": 48.1101922, "lon": -122.7720329}, {"type": "node", "id": 3285087820, "lat": 48.1105363, "lon": -122.7696278}, {"type": "node", "id": 3285087821, "lat": 48.1106957, "lon": -122.7692612}, {"type": "node", "id": 3285087822, "lat": 48.1106824, "lon": -122.7690671}, {"type": "node", "id": 3285087835, "lat": 48.1113718, "lon": -122.7716941}, {"type": "node", "id": 3285087836, "lat": 48.1114333, "lon": -122.7717532}, {"type": "node", "id": 3285087837, "lat": 48.111476, "lon": -122.7716832}, {"type": "node", "id": 3285087838, "lat": 48.1114082, "lon": -122.7716344}, {"type": "node", "id": 3285098270, "lat": 48.1083548, "lon": -122.7728808}, {"type": "node", "id": 3285098274, "lat": 48.1083021, "lon": -122.7727197}, {"type": "node", "id": 3357058205, "lat": 48.11498, "lon": -122.7558176}, {"type": "node", "id": 3357058207, "lat": 48.114878, "lon": -122.7557211}, {"type": "node", "id": 3470093755, "lat": 48.1120533, "lon": -122.7605357}, {"type": "node", "id": 3470093756, "lat": 48.1121018, "lon": -122.760224}, {"type": "node", "id": 3470093757, "lat": 48.112161, "lon": -122.7602747}, {"type": "node", "id": 3601722581, "lat": 48.1173264, "lon": -122.7611502, "tags": {"amenity": "pub", "name": "Uptown Pub"}}, {"type": "node", "id": 3601730553, "lat": 48.1168959, "lon": -122.7604959, "tags": {"addr:housenumber": "617", "addr:street": "Tyler Street", "name": "Pane  d'Amore", "opening_hours": "Mo-Su 08:00-15:00", "shop": "bakery", "website": "https://www.panedamore.com/"}}, {"type": "node", "id": 3734103923, "lat": 48.1221834, "lon": -122.7565903}, {"type": "node", "id": 3734103924, "lat": 48.1222193, "lon": -122.7565044}, {"type": "node", "id": 3734103925, "lat": 48.122201, "lon": -122.7563484, "tags": {"amenity": "toilets"}}, {"type": "node", "id": 3734103926, "lat": 48.1224836, "lon": -122.7568873}, {"type": "node", "id": 3734103927, "lat": 48.122518, "lon": -122.7568037}, {"type": "node", "id": 3753072713, "lat": 48.1154773, "lon": -122.7592803}, {"type": "node", "id": 3753083087, "lat": 48.1154462, "lon": -122.7537379, "tags": {"amenity": "bicycle_parking", "bicycle_parking": "stands", "capacity": "6", "covered": "no"}}, {"type": "node", "id": 4220416114, "lat": 48.1172537, "lon": -122.7503655}, {"type": "node", "id": 4220416115, "lat": 48.1172041, "lon": -122.7503179}, {"type": "node", "id": 4220416117, "lat": 48.117209, "lon": -122.7500906}, {"type": "node", "id": 4220416118, "lat": 48.1172464, "lon": -122.7500031}, {"type": "node", "id": 4220416119, "lat": 48.1174248, "lon": -122.7501778}, {"type": "node", "id": 4220416120, "lat": 48.1173809, "lon": -122.7502806}, {"type": "node", "id": 4220416121, "lat": 48.1173163, "lon": -122.7502188}, {"type": "node", "id": 4232524428, "lat": 48.1151908, "lon": -122.7550441, "tags": {"check_date": "2024-04-03", "name": "The Green Eyeshade", "shop": "gift"}}, {"type": "node", "id": 4232531542, "lat": 48.1163726, "lon": -122.7719634}, {"type": "node", "id": 4232540513, "lat": 48.1178511, "lon": -122.7724393}, {"type": "node", "id": 4528950557, "lat": 48.1070903, "lon": -122.7736148}, {"type": "node", "id": 4528950558, "lat": 48.1071261, "lon": -122.773531}, {"type": "node", "id": 4530751352, "lat": 48.1146467, "lon": -122.7573249, "tags": {"addr:housenumber": "252", "addr:street": "Tyler Street", "name": "PT Cyclery", "shop": "bicycle", "website": "https://www.ptcyclery.com/"}}, {"type": "node", "id": 4530752926, "lat": 48.1080013, "lon": -122.7753712}, {"type": "node", "id": 4530752927, "lat": 48.1080025, "lon": -122.775324}, {"type": "node", "id": 4530752928, "lat": 48.1077822, "lon": -122.7750929}, {"type": "node", "id": 4530752929, "lat": 48.1077572, "lon": -122.7750976}, {"type": "node", "id": 4530752930, "lat": 48.1077361, "lon": -122.7751053}, {"type": "node", "id": 4530752931, "lat": 48.1077063, "lon": -122.7751184}, {"type": "node", "id": 4530752932, "lat": 48.1076924, "lon": -122.7751307}, {"type": "node", "id": 4530752933, "lat": 48.1076548, "lon": -122.7752054}, {"type": "node", "id": 4530753829, "lat": 48.1074613, "lon": -122.776212}, {"type": "node", "id": 4530753830, "lat": 48.107367, "lon": -122.7761235}, {"type": "node", "id": 4530753831, "lat": 48.1073, "lon": -122.7762835}, {"type": "node", "id": 4539931513, "lat": 48.1128338, "lon": -122.7593248, "tags": {"name": "Don's Pharmacy", "shop": "chemist"}}, {"type": "node", "id": 4539931514, "lat": 48.1131139, "lon": -122.7586134, "tags": {"name": "Quimper Mercantile", "shop": "variety_store"}}, {"type": "node", "id": 4539931515, "lat": 48.113271, "lon": -122.758346, "tags": {"addr:housenumber": "1111", "addr:street": "Water Street", "amenity": "restaurant", "cuisine": "chinese", "name": "Four Seasons", "opening_hours": "Mo-Fr 11:00-21:00; Sa,Su 11:30-21:00", "phone": "+1-360-385-5395"}}, {"type": "node", "id": 4539931516, "lat": 48.1132237, "lon": -122.7584896, "tags": {"amenity": "cafe", "name": "Ground to Perfection Espresso"}}, {"type": "node", "id": 4539931517, "lat": 48.1135782, "lon": -122.7589514, "tags": {"amenity": "restaurant", "cuisine": "pizza", "name": "Pizza Factory"}}, {"type": "node", "id": 4539931518, "lat": 48.1136219, "lon": -122.7588789, "tags": {"name": "Jim's Barber Shop", "shop": "hairdresser"}}, {"type": "node", "id": 4539931519, "lat": 48.113694, "lon": -122.7589249, "tags": {"name": "Deanna's Hair Design", "shop": "hairdresser"}}, {"type": "node", "id": 4539936941, "lat": 48.1146155, "lon": -122.756477, "tags": {"addr:housenumber": "844", "addr:street": "Water Street", "name": "What's Cookin!", "shop": "kitchen"}}, {"type": "node", "id": 4539942183, "lat": 48.109434, "lon": -122.771361, "tags": {"brand": "O'Reilly Auto Parts", "brand:wikidata": "Q7071951", "name": "O'Reilly Auto Parts", "shop": "car_parts", "website": "https://locations.oreillyauto.com/wa/porttownsend/autoparts-3939.html"}}, {"type": "node", "id": 4539942516, "lat": 48.1157437, "lon": -122.757386, "tags": {"amenity": "dentist", "healthcare": "dentist", "name": "Cunnington Dental"}}, {"type": "node", "id": 4539942517, "lat": 48.1155583, "lon": -122.7564912, "tags": {"name": "Port Townsend Antique Mall", "opening_hours": "Mo-Fr 10:30-17:30; Sa 10:30-18:00; Su 11:00-17:00", "shop": "antiques"}}, {"type": "node", "id": 4564629136, "lat": 48.1139934, "lon": -122.7578549, "tags": {"addr:city": "Port Townsend", "addr:housenumber": "1010", "addr:postcode": "98368", "addr:state": "WA", "addr:street": "Water Street", "name": "The Wine Seller", "phone": "+1-360-385-7673", "shop": "wine", "website": "https://www.ptwineseller.com/"}}, {"type": "node", "id": 4569158103, "lat": 48.1178847, "lon": -122.7511998}, {"type": "node", "id": 4569158104, "lat": 48.1177688, "lon": -122.7510958}, {"type": "node", "id": 4922649073, "lat": 48.1141865, "lon": -122.7573942, "tags": {"addr:housenumber": "940", "addr:street": "Water Street", "name": "PT Shirt Company", "shop": "clothes"}}, {"type": "node", "id": 4922649074, "lat": 48.1147387, "lon": -122.7561162, "tags": {"name": "About Time", "shop": "clothes"}}, {"type": "node", "id": 4922649075, "lat": 48.1148599, "lon": -122.7567269, "tags": {"addr:housenumber": "218", "addr:street": "Taylor Street", "amenity": "restaurant", "cuisine": "pizza", "level": "-1", "name": "The Tin Brick"}}, {"type": "node", "id": 4922649076, "lat": 48.1143463, "lon": -122.7570124, "tags": {"addr:housenumber": "918", "addr:street": "Water Street", "name": "Lila Drake Jewelry", "shop": "jewelry"}}, {"type": "node", "id": 4922649077, "lat": 48.1141484, "lon": -122.7574603, "tags": {"addr:housenumber": "940", "addr:street": "Water Street", "name": "Victorian Square", "shop": "yes"}}, {"type": "node", "id": 4922649078, "lat": 48.1147118, "lon": -122.7561888, "tags": {"addr:housenumber": "830", "addr:street": "Water Street", "addr:unit": "200", "name": "Joglo", "opening_hours": "We-Su 11:00-17:00", "shop": "furniture"}}, {"type": "node", "id": 4922649079, "lat": 48.1146704, "lon": -122.7569644, "tags": {"addr:housenumber": "225", "addr:street": "Taylor Street", "amenity": "restaurant", "cuisine": "japanese", "name": "Hanazono"}}, {"type": "node", "id": 4922649080, "lat": 48.1143254, "lon": -122.7570559, "tags": {"addr:housenumber": "922", "addr:street": "Water Street", "name": "Babe's Salon", "shop": "beauty"}}, {"type": "node", "id": 4922649081, "lat": 48.1146365, "lon": -122.7563723, "tags": {"addr:housenumber": "834", "addr:street": "Water Street", "name": "Expressions", "shop": "gift"}}, {"type": "node", "id": 4922649082, "lat": 48.1146128, "lon": -122.7569249, "tags": {"addr:housenumber": "221", "addr:street": "Taylor Street", "amenity": "cafe", "cuisine": "soup;sandwich", "name": "Lehani's Deli & Coffeehouse"}}, {"type": "node", "id": 4922649083, "lat": 48.1142936, "lon": -122.7571293, "tags": {"addr:housenumber": "926", "addr:street": "Water Street", "name": "Mad Hatter and Company", "opening_hours": "Th,Fr,Su,Mo 11:00-17:30; Sa 11:00-18:00", "shop": "clothes"}}, {"type": "node", "id": 4922649084, "lat": 48.1148246, "lon": -122.7559199, "tags": {"addr:housenumber": "810", "addr:street": "Water Street", "name": "Getables", "note": "Has own narrow building", "shop": "gift"}}, {"type": "node", "id": 4922649085, "lat": 48.1146112, "lon": -122.7564182, "tags": {"addr:housenumber": "840", "addr:street": "Water Street", "name": "Pop!", "shop": "clothes"}}, {"type": "node", "id": 4922649086, "lat": 48.1145298, "lon": -122.7568642, "tags": {"addr:housenumber": "213", "addr:street": "Taylor Street", "amenity": "cafe", "cuisine": "tea", "name": "The Abbey Tea Room"}}, {"type": "node", "id": 4922649088, "lat": 48.114793, "lon": -122.7559975, "tags": {"addr:housenumber": "820", "addr:street": "Water Street", "name": "Writers Workshoppe Imprint Books", "shop": "books"}}, {"type": "node", "id": 4922649089, "lat": 48.114693, "lon": -122.7565642, "tags": {"addr:housenumber": "218", "addr:street": "Taylor Street", "name": "Big Wolf Trading Co.", "shop": "antiques"}}, {"type": "node", "id": 4922649091, "lat": 48.1142199, "lon": -122.7573294, "tags": {"addr:housenumber": "936", "addr:street": "Water Street", "name": "Abracadabra", "opening_hours": "Su-We 10:30-17:30; Th-Sa 10:30-18:00", "shop": "gift"}}, {"type": "node", "id": 4922649093, "lat": 48.1147393, "lon": -122.7566005, "tags": {"addr:housenumber": "220", "addr:street": "Taylor Street", "name": "Olympic Art and Office", "shop": "stationery"}}, {"type": "node", "id": 4922649094, "lat": 48.1143876, "lon": -122.7569352, "tags": {"addr:housenumber": "914", "addr:street": "Water Street", "name": "Wandering Angus Celtic Traders", "shop": "gift"}}, {"type": "node", "id": 4922660059, "lat": 48.1137566, "lon": -122.7584646, "tags": {"addr:housenumber": "1046", "addr:street": "Water Street", "name": "The Perfect Season", "shop": "garden_centre"}}, {"type": "node", "id": 4922660060, "lat": 48.1138968, "lon": -122.7586064, "tags": {"addr:housenumber": "218", "addr:street": "Water Street", "amenity": "cafe", "name": "Owl Sprit Cafe", "opening_hours": "Mo-We, Fr-Su 11:00-17:00", "phone": "+1-360-385-5275", "website": "https://www.owlsprit.com"}}, {"type": "node", "id": 4922660061, "lat": 48.1139782, "lon": -122.7578928, "tags": {"addr:housenumber": "1012", "addr:street": "Water Street", "name": "Gallery 9", "shop": "art", "tourism": "gallery", "website": "https://gallery-9.com/"}}, {"type": "node", "id": 4922660062, "lat": 48.113961, "lon": -122.7579331, "tags": {"addr:housenumber": "1020", "addr:street": "Water Street", "name": "World's End", "shop": "costume"}}, {"type": "node", "id": 4922660064, "lat": 48.1138406, "lon": -122.7582557, "tags": {"addr:housenumber": "1038", "addr:street": "Water Street", "amenity": "restaurant", "cuisine": "regional", "name": "The Old Whiskey Mill", "website": "https://www.theoldwhiskeymill.com/"}}, {"type": "node", "id": 4922675072, "lat": 48.1141372, "lon": -122.756714, "tags": {"name": "Shirvan Rug & Jewelry", "shop": "jewelry", "shop:carpet": "yes"}}, {"type": "node", "id": 4922675073, "lat": 48.1139237, "lon": -122.7572715, "tags": {"addr:housenumber": "955", "addr:street": "Water Street", "amenity": "restaurant", "check_date": "2024-04-03", "name": "Lighthouse Cafe"}}, {"type": "node", "id": 4922675074, "lat": 48.1139453, "lon": -122.7572221, "tags": {"addr:housenumber": "953", "addr:street": "Water Street", "amenity": "restaurant", "cuisine": "pizza", "delivery": "yes", "level": "1", "name": "Waterfront Pizza", "opening_hours": "Mo-Th,Su 12:00-19:00; Fr-Sa 12:00-22:00; PH closed", "phone": "+1-360-385-6629", "takeaway": "only", "website": "https://www.waterfrontpizzaporttownsend.com/"}}, {"type": "node", "id": 4922675075, "lat": 48.1137078, "lon": -122.7577764, "tags": {"name": "Whistle Stop Toys", "shop": "toys"}}, {"type": "node", "id": 4922675076, "lat": 48.1139798, "lon": -122.7571495, "tags": {"check_date": "2025-06-19", "check_date:opening_hours": "2025-06-19", "name": "The Spice & Tea Exchange", "opening_hours": "Mo-Su 10:00-17:00", "shop": "tea"}}, {"type": "node", "id": 4922675077, "lat": 48.1136051, "lon": -122.757628, "tags": {"amenity": "restaurant", "level": "1", "name": "Quench"}}, {"type": "node", "id": 4922675078, "lat": 48.1138504, "lon": -122.7569366, "tags": {"addr:city": "Port Townsend", "addr:housenumber": "929", "addr:postcode": "98368", "addr:state": "WA", "addr:street": "Water Street", "amenity": "restaurant", "cuisine": "sandwich;salad;drinks", "name": "Howells Sandwich Co.", "opening_hours": "Tu-Su 11:00-6:00"}}, {"type": "node", "id": 4922675079, "lat": 48.1136352, "lon": -122.7575452, "tags": {"addr:housenumber": "1011", "addr:street": "Water Street", "name": "Port Townsend Kites", "shop": "kites", "website": "http://www.porttownsendkites.com"}}, {"type": "node", "id": 4922675080, "lat": 48.1140162, "lon": -122.75703, "tags": {"check_date": "2024-04-03", "name": "Lively Olive Tasting Bar", "shop": "olive_oil"}}, {"type": "node", "id": 4922675081, "lat": 48.1137761, "lon": -122.7576089, "tags": {"name": "The Bag Store", "shop": "bag"}}, {"type": "node", "id": 4922727638, "lat": 48.1147154, "lon": -122.755589, "tags": {"amenity": "post_box", "operator": "United States Postal Service", "operator:short": "USPS", "operator:type": "public", "operator:website": "https://www.usps.com", "operator:wikidata": "Q668687", "operator:wikipedia": "en:United States Postal Service", "short_name": "USPS"}}, {"type": "node", "id": 4922727640, "lat": 48.1141058, "lon": -122.7567813, "tags": {"check_date": "2024-04-03", "name": "Summer House Design", "shop": "interior_decoration"}}, {"type": "node", "id": 5065483921, "lat": 48.1142446, "lon": -122.7575718, "tags": {"amenity": "nightclub", "name": "Cellar Door", "opening_hours": "Mo-Su 17:00-01:45"}}, {"type": "node", "id": 5328855047, "lat": 48.1166821, "lon": -122.75221}, {"type": "node", "id": 5328855048, "lat": 48.1164224, "lon": -122.7519725}, {"type": "node", "id": 5328855050, "lat": 48.1167751, "lon": -122.7517612}, {"type": "node", "id": 5328855052, "lat": 48.1166486, "lon": -122.7516448}, {"type": "node", "id": 5423828130, "lat": 48.1125418, "lon": -122.7600707}, {"type": "node", "id": 5423828131, "lat": 48.1125625, "lon": -122.7600222}, {"type": "node", "id": 5423828132, "lat": 48.1124532, "lon": -122.7599921}, {"type": "node", "id": 5423834730, "lat": 48.112474, "lon": -122.7599436}, {"type": "node", "id": 5423834732, "lat": 48.112624, "lon": -122.7605102}, {"type": "node", "id": 5423834733, "lat": 48.1127666, "lon": -122.760152}, {"type": "node", "id": 5423834734, "lat": 48.1127975, "lon": -122.760068}, {"type": "node", "id": 5423834735, "lat": 48.1128453, "lon": -122.759965}, {"type": "node", "id": 5423834736, "lat": 48.1136361, "lon": -122.7580651}, {"type": "node", "id": 5423834737, "lat": 48.1135972, "lon": -122.7580307}, {"type": "node", "id": 5423834738, "lat": 48.113626, "lon": -122.7579573}, {"type": "node", "id": 5423834739, "lat": 48.1132027, "lon": -122.7575435}, {"type": "node", "id": 5423834740, "lat": 48.1123822, "lon": -122.7595288}, {"type": "node", "id": 5423834746, "lat": 48.1125573, "lon": -122.7600856}, {"type": "node", "id": 5423834747, "lat": 48.1126146, "lon": -122.7600989}, {"type": "node", "id": 5423834748, "lat": 48.112634, "lon": -122.7601008}, {"type": "node", "id": 5423834749, "lat": 48.112625, "lon": -122.7601417}, {"type": "node", "id": 5423834750, "lat": 48.1125839, "lon": -122.7601171}, {"type": "node", "id": 5423834751, "lat": 48.1125358, "lon": -122.7602326}, {"type": "node", "id": 5423834752, "lat": 48.1125842, "lon": -122.7602804}, {"type": "node", "id": 5423834753, "lat": 48.1125221, "lon": -122.7603425}, {"type": "node", "id": 5423834754, "lat": 48.1125457, "lon": -122.7602833}, {"type": "node", "id": 5423834762, "lat": 48.1124954, "lon": -122.7605728}, {"type": "node", "id": 5423834763, "lat": 48.1126074, "lon": -122.7605502}, {"type": "node", "id": 5423834764, "lat": 48.1136667, "lon": -122.757998}, {"type": "node", "id": 5423834765, "lat": 48.1132006, "lon": -122.7575403}, {"type": "node", "id": 5423834766, "lat": 48.112319, "lon": -122.7604064}, {"type": "node", "id": 5423834767, "lat": 48.1126763, "lon": -122.7587983}, {"type": "node", "id": 5423834768, "lat": 48.1123588, "lon": -122.759517}, {"type": "node", "id": 5423835221, "lat": 48.1125295, "lon": -122.7604902}, {"type": "node", "id": 5423835222, "lat": 48.1125849, "lon": -122.7604746}, {"type": "node", "id": 5423835223, "lat": 48.1125925, "lon": -122.7601002}, {"type": "node", "id": 5423835224, "lat": 48.1125538, "lon": -122.7603586}, {"type": "node", "id": 5423835225, "lat": 48.1125313, "lon": -122.7603652}, {"type": "node", "id": 5423835228, "lat": 48.112434, "lon": -122.7601302}, {"type": "node", "id": 5423835229, "lat": 48.1126842, "lon": -122.7588021}, {"type": "node", "id": 5423835230, "lat": 48.1124677, "lon": -122.7592911}, {"type": "node", "id": 5423835521, "lat": 48.1124182, "lon": -122.7601688}, {"type": "node", "id": 5423835525, "lat": 48.1125694, "lon": -122.7605886}, {"type": "node", "id": 5423835526, "lat": 48.1124736, "lon": -122.759294}, {"type": "node", "id": 5424446826, "lat": 48.1098054, "lon": -122.7683588}, {"type": "node", "id": 5424446827, "lat": 48.1099189, "lon": -122.7692091}, {"type": "node", "id": 5424446828, "lat": 48.1099311, "lon": -122.7689328}, {"type": "node", "id": 5424446829, "lat": 48.1098124, "lon": -122.7690673}, {"type": "node", "id": 5424446830, "lat": 48.1095076, "lon": -122.7687798}, {"type": "node", "id": 5424446831, "lat": 48.1094063, "lon": -122.7687885}, {"type": "node", "id": 5424446832, "lat": 48.1099043, "lon": -122.7692391}, {"type": "node", "id": 5424446834, "lat": 48.1095311, "lon": -122.767746}, {"type": "node", "id": 5424446835, "lat": 48.1094455, "lon": -122.768056}, {"type": "node", "id": 5424447123, "lat": 48.1099033, "lon": -122.7680709}, {"type": "node", "id": 5424447124, "lat": 48.1098099, "lon": -122.7682549}, {"type": "node", "id": 5424447125, "lat": 48.1098843, "lon": -122.7692349}, {"type": "node", "id": 5424447127, "lat": 48.1094606, "lon": -122.7686031}, {"type": "node", "id": 5424447128, "lat": 48.1096127, "lon": -122.7678201}, {"type": "node", "id": 5424456024, "lat": 48.1096786, "lon": -122.7686585}, {"type": "node", "id": 5424456025, "lat": 48.1098853, "lon": -122.7689323}, {"type": "node", "id": 5424456026, "lat": 48.1098834, "lon": -122.7690004}, {"type": "node", "id": 5424456027, "lat": 48.1098399, "lon": -122.7691183}, {"type": "node", "id": 5424456029, "lat": 48.1097581, "lon": -122.7678875}, {"type": "node", "id": 5424456030, "lat": 48.1097536, "lon": -122.7677501}, {"type": "node", "id": 5424456031, "lat": 48.1094617, "lon": -122.7685053}, {"type": "node", "id": 5424456123, "lat": 48.10995, "lon": -122.768116}, {"type": "node", "id": 5424456124, "lat": 48.1098762, "lon": -122.768836}, {"type": "node", "id": 5424456125, "lat": 48.1098166, "lon": -122.7691166}, {"type": "node", "id": 5424456127, "lat": 48.1095027, "lon": -122.7681112}, {"type": "node", "id": 5424456221, "lat": 48.1099261, "lon": -122.7688407}, {"type": "node", "id": 5424485623, "lat": 48.1153609, "lon": -122.759164}, {"type": "node", "id": 5424503521, "lat": 48.1154011, "lon": -122.7590735}, {"type": "node", "id": 5424516724, "lat": 48.1148719, "lon": -122.7579507}, {"type": "node", "id": 5424539025, "lat": 48.1154771, "lon": -122.7574651, "tags": {"amenity": "bench", "backrest": "yes"}}, {"type": "node", "id": 5424539026, "lat": 48.114934, "lon": -122.7580097}, {"type": "node", "id": 5424539027, "lat": 48.1147994, "lon": -122.7581207}, {"type": "node", "id": 5424539121, "lat": 48.1148614, "lon": -122.7581807}, {"type": "node", "id": 5426623829, "lat": 48.1181941, "lon": -122.7513736}, {"type": "node", "id": 5426651424, "lat": 48.118134, "lon": -122.7513174}, {"type": "node", "id": 5426651425, "lat": 48.1181573, "lon": -122.7512617}, {"type": "node", "id": 5426656022, "lat": 48.1182189, "lon": -122.751314}, {"type": "node", "id": 5426656032, "lat": 48.1171102, "lon": -122.7533684}, {"type": "node", "id": 5436126522, "lat": 48.1115352, "lon": -122.7593133, "tags": {"access": "private", "entrance": "yes"}}, {"type": "node", "id": 5436126523, "lat": 48.1114417, "lon": -122.7592227, "tags": {"access": "customers", "entrance": "yes"}}, {"type": "node", "id": 5436126621, "lat": 48.1109903, "lon": -122.7594484, "tags": {"amenity": "ferry_terminal", "ferry": "yes", "network": "Washington State Ferries", "network:wikidata": "Q3500373", "network:wikipedia": "en:Washington State Ferries", "operator": "Washington State Ferries", "public_transport": "stop_position"}}, {"type": "node", "id": 5436126623, "lat": 48.1114829, "lon": -122.759211, "tags": {"amenity": "toilets", "female": "yes", "indoor": "yes", "male": "yes", "toilets:disposal": "flush"}}, {"type": "node", "id": 5436126624, "lat": 48.1114432, "lon": -122.7591712, "tags": {"amenity": "vending_machine", "indoor": "yes", "vending": "food"}}, {"type": "node", "id": 5436126625, "lat": 48.1114461, "lon": -122.7591565, "tags": {"amenity": "vending_machine", "indoor": "yes", "vending": "drinks"}}, {"type": "node", "id": 5436126724, "lat": 48.1114113, "lon": -122.7591269, "tags": {"amenity": "bench", "backrest": "yes", "indoor": "yes"}}, {"type": "node", "id": 5437720360, "lat": 48.1113915, "lon": -122.7591975}, {"type": "node", "id": 5437720368, "lat": 48.1112561, "lon": -122.759544}, {"type": "node", "id": 5437729335, "lat": 48.111349, "lon": -122.7593094}, {"type": "node", "id": 5437729339, "lat": 48.1112105, "lon": -122.759654}, {"type": "node", "id": 5439080644, "lat": 48.1091455, "lon": -122.7798658}, {"type": "node", "id": 5439080645, "lat": 48.1090174, "lon": -122.7797579}, {"type": "node", "id": 5439080646, "lat": 48.1088781, "lon": -122.7800616}, {"type": "node", "id": 5439080657, "lat": 48.1082601, "lon": -122.779797}, {"type": "node", "id": 5439080658, "lat": 48.1083221, "lon": -122.7795295}, {"type": "node", "id": 5439080659, "lat": 48.108359, "lon": -122.7792591}, {"type": "node", "id": 5439080660, "lat": 48.1083593, "lon": -122.779212}, {"type": "node", "id": 5439080661, "lat": 48.1085975, "lon": -122.7792564}, {"type": "node", "id": 5439080744, "lat": 48.1090216, "lon": -122.7801999}, {"type": "node", "id": 5439080759, "lat": 48.1082776, "lon": -122.7795299}, {"type": "node", "id": 5439080760, "lat": 48.1085745, "lon": -122.7798105}, {"type": "node", "id": 5439080840, "lat": 48.1088942, "lon": -122.7801555}, {"type": "node", "id": 5439080841, "lat": 48.1089665, "lon": -122.7802385}, {"type": "node", "id": 5439080847, "lat": 48.1085958, "lon": -122.7798107}, {"type": "node", "id": 5439081033, "lat": 48.1082789, "lon": -122.7797915}, {"type": "node", "id": 5440194022, "lat": 48.1141571, "lon": -122.7566658, "tags": {"addr:housenumber": "911", "addr:street": "Water Street", "name": "Thuja", "shop": "gift", "website": "https://www.thujastore.com"}}, {"type": "node", "id": 5440242922, "lat": 48.1144562, "lon": -122.755988, "tags": {"addr:housenumber": "829", "addr:street": "Water Street", "level": "0", "name": "William James Bookseller", "shop": "books", "website": "http://www.williamjamesbookseller.com"}}, {"type": "node", "id": 5440242923, "lat": 48.1145277, "lon": -122.7558513, "tags": {"addr:housenumber": "821", "addr:street": "Water Street", "name": "Maestrale", "shop": "interior_decoration", "website": "https://www.maestraleimports.com/"}}, {"type": "node", "id": 5440277421, "lat": 48.1141952, "lon": -122.756575, "tags": {"addr:housenumber": "901", "addr:street": "Water Street", "name": "The Northwest Man", "shop": "clothes"}}, {"type": "node", "id": 5440277422, "lat": 48.1141768, "lon": -122.7566237, "tags": {"addr:housenumber": "909", "addr:street": "Water Street", "name": "Studio STL", "office": "company"}}, {"type": "node", "id": 5440310722, "lat": 48.1143982, "lon": -122.7560871, "tags": {"addr:housenumber": "833", "addr:street": "Water Street", "level": "0", "name": "Magpie Alley Antiques & Oddities", "shop": "antiques"}}, {"type": "node", "id": 5440319124, "lat": 48.1143421, "lon": -122.7562466, "tags": {"addr:housenumber": "839", "addr:street": "Water Street", "check_date": "2024-04-03", "level": "0", "name": "Mara's Gallery", "shop": "art", "tourism": "gallery"}}, {"type": "node", "id": 5441309924, "lat": 48.1152881, "lon": -122.7569758, "tags": {"entrance": "yes", "name": "Heron's Nest Commercial Condos", "office": "company"}}, {"type": "node", "id": 5441309925, "lat": 48.1156617, "lon": -122.7570991}, {"type": "node", "id": 5441309926, "lat": 48.1157451, "lon": -122.7569092}, {"type": "node", "id": 5441309927, "lat": 48.1155832, "lon": -122.7567497}, {"type": "node", "id": 5441309928, "lat": 48.1154342, "lon": -122.7565406}, {"type": "node", "id": 5441309929, "lat": 48.1153008, "lon": -122.756851}, {"type": "node", "id": 5441309930, "lat": 48.1156176, "lon": -122.756379}, {"type": "node", "id": 5441309931, "lat": 48.1157063, "lon": -122.7561824}, {"type": "node", "id": 5441309932, "lat": 48.1158878, "lon": -122.7563585}, {"type": "node", "id": 5441309933, "lat": 48.1160791, "lon": -122.7563553}, {"type": "node", "id": 5441309934, "lat": 48.1155562, "lon": -122.7563206}, {"type": "node", "id": 5441324521, "lat": 48.1151647, "lon": -122.7555038}, {"type": "node", "id": 5441324522, "lat": 48.1151923, "lon": -122.7554508}, {"type": "node", "id": 5441324523, "lat": 48.1152698, "lon": -122.7555992}, {"type": "node", "id": 5441324524, "lat": 48.1154524, "lon": -122.7559004}, {"type": "node", "id": 5441324525, "lat": 48.1154987, "lon": -122.7559061}, {"type": "node", "id": 5441324526, "lat": 48.115444, "lon": -122.7554607}, {"type": "node", "id": 5441324527, "lat": 48.115358, "lon": -122.7553832}, {"type": "node", "id": 5441324531, "lat": 48.1152501, "lon": -122.7555033}, {"type": "node", "id": 5441324532, "lat": 48.1152273, "lon": -122.7555599}, {"type": "node", "id": 5441324537, "lat": 48.1152507, "lon": -122.7561157, "tags": {"addr:housenumber": "227", "addr:street": "Adams Street", "amenity": "restaurant", "check_date": "2023-07-30", "cuisine": "thai", "level": "0", "name": "Little Rose Thai", "takeaway": "only"}}, {"type": "node", "id": 5441324541, "lat": 48.1151484, "lon": -122.7565775, "tags": {"addr:housenumber": "821", "addr:street": "Washington Street", "name": "Insatiable Books", "shop": "books"}}, {"type": "node", "id": 5441324542, "lat": 48.1150098, "lon": -122.756859, "tags": {"addr:housenumber": "242", "addr:street": "Taylor Street", "name": "Gooding, O'Hara & Mackey, PS Certified Public Accountants", "office": "accountant", "website": "https://www.pttaxcpa.com"}}, {"type": "node", "id": 5441324544, "lat": 48.1148013, "lon": -122.7574301, "tags": {"addr:housenumber": "921", "addr:street": "Washington Street", "level": "0", "name": "Towns End Tattoo", "shop": "tattoo"}}, {"type": "node", "id": 5441324545, "lat": 48.1148235, "lon": -122.7573276, "tags": {"amenity": "bar", "name": "Mezzaluna Lounge"}}, {"type": "node", "id": 5441324548, "lat": 48.1143221, "lon": -122.757961}, {"type": "node", "id": 5441324550, "lat": 48.1144313, "lon": -122.7580685}, {"type": "node", "id": 5441324551, "lat": 48.1145007, "lon": -122.7579171}, {"type": "node", "id": 5441324555, "lat": 48.1149928, "lon": -122.7577221, "tags": {"addr:housenumber": "920", "addr:street": "Washington Street", "amenity": "cafe", "name": "Fountain Cafe"}}, {"type": "node", "id": 5441324556, "lat": 48.1149118, "lon": -122.7578966, "tags": {"addr:housenumber": "926", "addr:street": "Washington Street", "name": "Port Townsend Fudge", "shop": "confectionery", "website": "http://www.ptfudgeco.com"}}, {"type": "node", "id": 5441324557, "lat": 48.1148946, "lon": -122.7579412, "tags": {"addr:housenumber": "930", "addr:street": "Washington Street", "amenity": "dojo", "name": "Thai Massage", "shop": "massage", "sport": "yoga"}}, {"type": "node", "id": 5441324621, "lat": 48.1152929, "lon": -122.7555421}, {"type": "node", "id": 5441324622, "lat": 48.1154636, "lon": -122.7559104}, {"type": "node", "id": 5441324624, "lat": 48.1152062, "lon": -122.7564315, "tags": {"addr:housenumber": "809", "addr:street": "Washington Street", "name": "Bergstrom's Antique & Classic Autos", "opening_hours": "Mo-Fr 10:00-17:00", "shop": "antiques", "shop:car": "yes"}}, {"type": "node", "id": 5441324721, "lat": 48.1158117, "lon": -122.7551558}, {"type": "node", "id": 5441324722, "lat": 48.1153248, "lon": -122.7557778}, {"type": "node", "id": 5441324723, "lat": 48.1155636, "lon": -122.7549313}, {"type": "node", "id": 5441324732, "lat": 48.1152576, "lon": -122.756224, "tags": {"addr:housenumber": "80", "addr:street": "Washington Street", "name": "Forest Gems", "shop": "furniture"}}, {"type": "node", "id": 5441324734, "lat": 48.1147858, "lon": -122.7574764, "tags": {"addr:housenumber": "923", "addr:street": "Washington Street", "level": "0", "name": "Wash House Salon", "shop": "hairdresser"}}, {"type": "node", "id": 5441332921, "lat": 48.1155749, "lon": -122.7566763}, {"type": "node", "id": 5441333021, "lat": 48.1154612, "lon": -122.7570056}, {"type": "node", "id": 5441333022, "lat": 48.1154915, "lon": -122.756935}, {"type": "node", "id": 5441333023, "lat": 48.1159396, "lon": -122.7563839}, {"type": "node", "id": 5441333024, "lat": 48.116, "lon": -122.7563938}, {"type": "node", "id": 5441333025, "lat": 48.1160411, "lon": -122.7563858}, {"type": "node", "id": 5441333122, "lat": 48.1161546, "lon": -122.7561542}, {"type": "node", "id": 5441333123, "lat": 48.115789, "lon": -122.7557494}, {"type": "node", "id": 5442811328, "lat": 48.1149725, "lon": -122.7584234, "tags": {"amenity": "bench", "covered": "no", "tourism": "viewpoint"}}, {"type": "node", "id": 5442828622, "lat": 48.1149625, "lon": -122.7584902, "tags": {"amenity": "waste_basket"}}, {"type": "node", "id": 5442841633, "lat": 48.1141316, "lon": -122.7591678, "tags": {"amenity": "bench", "backrest": "yes", "material": "wood"}}, {"type": "node", "id": 5504921151, "lat": 48.1122014, "lon": -122.7600185, "tags": {"amenity": "bench", "backrest": "yes"}}, {"type": "node", "id": 5504921152, "lat": 48.1121518, "lon": -122.7600744, "tags": {"amenity": "bench", "backrest": "yes"}}, {"type": "node", "id": 5504921155, "lat": 48.11234, "lon": -122.7602114, "tags": {"amenity": "bench", "backrest": "yes"}}, {"type": "node", "id": 5504921156, "lat": 48.1123133, "lon": -122.7602802, "tags": {"amenity": "bench", "backrest": "yes"}}, {"type": "node", "id": 5504921159, "lat": 48.1122173, "lon": -122.7600947, "tags": {"amenity": "bench", "backrest": "yes"}}, {"type": "node", "id": 5504921160, "lat": 48.112208, "lon": -122.7601493, "tags": {"amenity": "bench", "backrest": "yes"}}, {"type": "node", "id": 5504921206, "lat": 48.1118112, "lon": -122.7670167}, {"type": "node", "id": 5504921220, "lat": 48.1115195, "lon": -122.7677096}, {"type": "node", "id": 5504922121, "lat": 48.1114255, "lon": -122.766639}, {"type": "node", "id": 5504922122, "lat": 48.1114744, "lon": -122.7665128}, {"type": "node", "id": 5504922124, "lat": 48.1115789, "lon": -122.7678188}, {"type": "node", "id": 5504922125, "lat": 48.1118615, "lon": -122.7671356}, {"type": "node", "id": 5504922126, "lat": 48.1118439, "lon": -122.766862}, {"type": "node", "id": 5504922127, "lat": 48.1117603, "lon": -122.7669413}, {"type": "node", "id": 5504922142, "lat": 48.1168368, "lon": -122.7518189}, {"type": "node", "id": 5504922177, "lat": 48.1162055, "lon": -122.7558871, "tags": {"amenity": "bench", "backrest": "yes"}}, {"type": "node", "id": 5504922178, "lat": 48.1162093, "lon": -122.7557638, "tags": {"amenity": "bench", "backrest": "yes"}}, {"type": "node", "id": 5504922179, "lat": 48.1161181, "lon": -122.7558264, "tags": {"amenity": "bench", "backrest": "yes"}}, {"type": "node", "id": 5504922187, "lat": 48.1159771, "lon": -122.7559576}, {"type": "node", "id": 5509737696, "lat": 48.11675, "lon": -122.774417}, {"type": "node", "id": 5509737697, "lat": 48.1165635, "lon": -122.7741495}, {"type": "node", "id": 5509737698, "lat": 48.1164684, "lon": -122.774024}, {"type": "node", "id": 5509737699, "lat": 48.1164103, "lon": -122.7740317}, {"type": "node", "id": 5509737700, "lat": 48.1163645, "lon": -122.7740967}, {"type": "node", "id": 5509737701, "lat": 48.116229, "lon": -122.7743944}, {"type": "node", "id": 5509737702, "lat": 48.1162531, "lon": -122.7744937}, {"type": "node", "id": 5509737703, "lat": 48.1164549, "lon": -122.7747237}, {"type": "node", "id": 5509737704, "lat": 48.1165753, "lon": -122.7748771}, {"type": "node", "id": 5838497286, "lat": 48.115246, "lon": -122.7538343, "tags": {"shop": "massage"}}, {"type": "node", "id": 5838497287, "lat": 48.1152169, "lon": -122.753913, "tags": {"amenity": "doctors", "healthcare": "doctor"}}, {"type": "node", "id": 5932281176, "lat": 48.1126721, "lon": -122.7612901, "tags": {"addr:city": "Port Townsend", "addr:housenumber": "1300", "addr:postcode": "98368", "addr:state": "WA", "addr:street": "Water Street", "amenity": "fast_food", "brand": "Subway", "brand:wikidata": "Q244457", "cuisine": "sandwich", "name": "Subway", "opening_hours": "Mo-Fr 08:00-20:00; Sa-Su 08:00-17:00", "phone": "+1-360-385-1463", "smoking": "no", "takeaway": "yes", "website": "https://restaurants.subway.com/united-states/wa/port-townsend/1300-water-st"}}, {"type": "node", "id": 5932282387, "lat": 48.1217309, "lon": -122.7756011, "tags": {"addr:city": "Port Townsend", "addr:housenumber": "1210", "addr:state": "WA", "addr:street": "F Street", "name": "Collinwood Farm Produce Stand", "shop": "farm"}}, {"type": "node", "id": 6119608623, "lat": 48.1125321, "lon": -122.7605927}, {"type": "node", "id": 6119608624, "lat": 48.1125968, "lon": -122.7601167}, {"type": "node", "id": 6119608625, "lat": 48.1126405, "lon": -122.7601258}, {"type": "node", "id": 6119608626, "lat": 48.1126348, "lon": -122.7601357}, {"type": "node", "id": 6119608627, "lat": 48.1126406, "lon": -122.7601108}, {"type": "node", "id": 6119638743, "lat": 48.1122635, "lon": -122.759816}, {"type": "node", "id": 6119638744, "lat": 48.1122553, "lon": -122.7598088}, {"type": "node", "id": 6119835586, "lat": 48.1153807, "lon": -122.7538716}, {"type": "node", "id": 6120221714, "lat": 48.1165834, "lon": -122.751585, "tags": {"crossing": "unmarked", "crossing:markings": "no", "highway": "crossing", "tactile_paving": "no"}}, {"type": "node", "id": 6474141687, "lat": 48.112683, "lon": -122.7727667, "tags": {"addr:city": "Port Townsend", "addr:housenumber": "2132", "addr:postcode": "98368", "addr:state": "WA", "addr:street": "Lawrence Street", "name": "Dailey Computer Consulting", "office": "it", "opening_hours": "Mo-Fr 09:00-17:00", "website": "https://www.daileycomputer.com/"}}, {"type": "node", "id": 6484904283, "lat": 48.1148526, "lon": -122.7571477, "tags": {"amenity": "cinema", "name": "Starlight Room", "payment:cash": "yes", "payment:credit_cards": "yes"}}, {"type": "node", "id": 6592211798, "lat": 48.1096763, "lon": -122.7702331}, {"type": "node", "id": 6592211799, "lat": 48.1098648, "lon": -122.7698672}, {"type": "node", "id": 6597323304, "lat": 48.1145885, "lon": -122.755635, "tags": {"amenity": "bench", "backrest": "yes"}}, {"type": "node", "id": 6597323305, "lat": 48.1145702, "lon": -122.7554687, "tags": {"amenity": "bench", "backrest": "yes"}}, {"type": "node", "id": 6597579570, "lat": 48.1098648, "lon": -122.7701501, "tags": {"amenity": "bench"}}, {"type": "node", "id": 6597628918, "lat": 48.115241, "lon": -122.7572184}, {"type": "node", "id": 6597628919, "lat": 48.1152482, "lon": -122.7572291}, {"type": "node", "id": 6597628920, "lat": 48.1152531, "lon": -122.7572392}, {"type": "node", "id": 6597628921, "lat": 48.1152571, "lon": -122.7572512}, {"type": "node", "id": 6597628922, "lat": 48.1152598, "lon": -122.7572653}, {"type": "node", "id": 6597628923, "lat": 48.1152613, "lon": -122.7572806}, {"type": "node", "id": 6597628927, "lat": 48.1152508, "lon": -122.757329}, {"type": "node", "id": 6597628928, "lat": 48.1152459, "lon": -122.7573384}, {"type": "node", "id": 6597628929, "lat": 48.1152396, "lon": -122.7573465}, {"type": "node", "id": 6597628930, "lat": 48.1152329, "lon": -122.7573512}, {"type": "node", "id": 6597628931, "lat": 48.1152258, "lon": -122.7573552}, {"type": "node", "id": 6597628932, "lat": 48.1152186, "lon": -122.7573579}, {"type": "node", "id": 6597628933, "lat": 48.1152096, "lon": -122.7573599}, {"type": "node", "id": 6597628934, "lat": 48.1151998, "lon": -122.7573585}, {"type": "node", "id": 6597628935, "lat": 48.1151904, "lon": -122.7573545}, {"type": "node", "id": 6597628937, "lat": 48.1152595, "lon": -122.7572991}, {"type": "node", "id": 6597628938, "lat": 48.1152679, "lon": -122.7573037}, {"type": "node", "id": 6597628939, "lat": 48.1152695, "lon": -122.7572981}, {"type": "node", "id": 6597628940, "lat": 48.1152708, "lon": -122.7572875}, {"type": "node", "id": 6597628941, "lat": 48.1152708, "lon": -122.7572773}, {"type": "node", "id": 6597628942, "lat": 48.1152701, "lon": -122.7572684}, {"type": "node", "id": 6597628943, "lat": 48.1152687, "lon": -122.7572562}, {"type": "node", "id": 6597628944, "lat": 48.1152662, "lon": -122.7572451}, {"type": "node", "id": 6597628945, "lat": 48.1152628, "lon": -122.7572348}, {"type": "node", "id": 6597628946, "lat": 48.1152585, "lon": -122.7572253}, {"type": "node", "id": 6597628947, "lat": 48.1152532, "lon": -122.7572159}, {"type": "node", "id": 6597628948, "lat": 48.1152469, "lon": -122.757208}, {"type": "node", "id": 6597628949, "lat": 48.1152408, "lon": -122.7572024}, {"type": "node", "id": 6597628950, "lat": 48.1152357, "lon": -122.7572124}, {"type": "node", "id": 6597628951, "lat": 48.1152527, "lon": -122.7573234}, {"type": "node", "id": 6597628952, "lat": 48.1152611, "lon": -122.7573299}, {"type": "node", "id": 6597628953, "lat": 48.1152596, "lon": -122.757336}, {"type": "node", "id": 6597628954, "lat": 48.1152572, "lon": -122.7573418}, {"type": "node", "id": 6597628955, "lat": 48.1152537, "lon": -122.757348}, {"type": "node", "id": 6597628956, "lat": 48.1152506, "lon": -122.7573524}, {"type": "node", "id": 6597628957, "lat": 48.1152471, "lon": -122.7573561}, {"type": "node", "id": 6597628958, "lat": 48.1152432, "lon": -122.7573599}, {"type": "node", "id": 6597628959, "lat": 48.1152395, "lon": -122.7573634}, {"type": "node", "id": 6597628960, "lat": 48.115236, "lon": -122.7573667}, {"type": "node", "id": 6597628961, "lat": 48.1152321, "lon": -122.7573687}, {"type": "node", "id": 6597628962, "lat": 48.1152276, "lon": -122.7573704}, {"type": "node", "id": 6597628963, "lat": 48.1152237, "lon": -122.7573716}, {"type": "node", "id": 6597628964, "lat": 48.1152196, "lon": -122.7573728}, {"type": "node", "id": 6597628965, "lat": 48.1152155, "lon": -122.7573734}, {"type": "node", "id": 6597628966, "lat": 48.1152114, "lon": -122.7573734}, {"type": "node", "id": 6597628967, "lat": 48.1152058, "lon": -122.7573737}, {"type": "node", "id": 6597628968, "lat": 48.1152011, "lon": -122.7573734}, {"type": "node", "id": 6597628969, "lat": 48.1151966, "lon": -122.7573728}, {"type": "node", "id": 6597628970, "lat": 48.1151923, "lon": -122.7573722}, {"type": "node", "id": 6597628971, "lat": 48.1151888, "lon": -122.757371}, {"type": "node", "id": 6597628972, "lat": 48.1151952, "lon": -122.7573566}, {"type": "node", "id": 6597628973, "lat": 48.1152048, "lon": -122.7573592}, {"type": "node", "id": 6597628974, "lat": 48.1152139, "lon": -122.7573589}, {"type": "node", "id": 6597628975, "lat": 48.1152221, "lon": -122.7573566}, {"type": "node", "id": 6597628976, "lat": 48.1152292, "lon": -122.7573532}, {"type": "node", "id": 6597628977, "lat": 48.1152364, "lon": -122.7573487}, {"type": "node", "id": 6597628978, "lat": 48.1152421, "lon": -122.7573434}, {"type": "node", "id": 6597628979, "lat": 48.1152486, "lon": -122.7573333}, {"type": "node", "id": 6597628980, "lat": 48.1152517, "lon": -122.7573266}, {"type": "node", "id": 6601144055, "lat": 48.1230769, "lon": -122.75575, "tags": {"amenity": "bench"}}, {"type": "node", "id": 6601144058, "lat": 48.1226787, "lon": -122.7560544, "tags": {"amenity": "bench"}}, {"type": "node", "id": 6601144067, "lat": 48.122765, "lon": -122.7552868, "tags": {"amenity": "bench"}}, {"type": "node", "id": 6601144068, "lat": 48.1227504, "lon": -122.7549921, "tags": {"amenity": "bench"}}, {"type": "node", "id": 6601144069, "lat": 48.1220679, "lon": -122.7558787}, {"type": "node", "id": 6601144071, "lat": 48.1219123, "lon": -122.7559066}, {"type": "node", "id": 6601144072, "lat": 48.1220354, "lon": -122.7559884}, {"type": "node", "id": 6601144077, "lat": 48.1222259, "lon": -122.75579, "tags": {"amenity": "bench"}}, {"type": "node", "id": 6601144080, "lat": 48.1217597, "lon": -122.756008, "tags": {"amenity": "bicycle_parking"}}, {"type": "node", "id": 6601144081, "lat": 48.1221335, "lon": -122.7563574, "tags": {"amenity": "bicycle_parking"}}, {"type": "node", "id": 6601144083, "lat": 48.121918, "lon": -122.7545013}, {"type": "node", "id": 6601144084, "lat": 48.1218635, "lon": -122.7544473}, {"type": "node", "id": 6601147985, "lat": 48.1218962, "lon": -122.7543703}, {"type": "node", "id": 6601147986, "lat": 48.1219508, "lon": -122.7544193}, {"type": "node", "id": 6601148059, "lat": 48.1219946, "lon": -122.75645}, {"type": "node", "id": 6601148060, "lat": 48.1220148, "lon": -122.7563963}, {"type": "node", "id": 6601148061, "lat": 48.1214989, "lon": -122.755941}, {"type": "node", "id": 6601148062, "lat": 48.1214802, "lon": -122.7559923}, {"type": "node", "id": 6601171179, "lat": 48.1096494, "lon": -122.779082, "tags": {"amenity": "bench"}}, {"type": "node", "id": 6601171180, "lat": 48.1099441, "lon": -122.7791731, "tags": {"amenity": "bench"}}, {"type": "node", "id": 6666269509, "lat": 48.1114764, "lon": -122.7671293, "tags": {"amenity": "drinking_water"}}, {"type": "node", "id": 6702355653, "lat": 48.1092357, "lon": -122.7800345}, {"type": "node", "id": 6727707018, "lat": 48.1161544, "lon": -122.7537683, "tags": {"amenity": "bicycle_parking"}}, {"type": "node", "id": 6728015312, "lat": 48.1115479, "lon": -122.7677884}, {"type": "node", "id": 6728015315, "lat": 48.1118334, "lon": -122.7671063}, {"type": "node", "id": 6728015316, "lat": 48.1118245, "lon": -122.7669048}, {"type": "node", "id": 6728017755, "lat": 48.1167364, "lon": -122.7530266}, {"type": "node", "id": 6732419791, "lat": 48.1176891, "lon": -122.7724842}, {"type": "node", "id": 6732419792, "lat": 48.1176686, "lon": -122.7723065}, {"type": "node", "id": 6732419793, "lat": 48.1178292, "lon": -122.772262}, {"type": "node", "id": 6732419796, "lat": 48.1136314, "lon": -122.7619763}, {"type": "node", "id": 6732419797, "lat": 48.1135662, "lon": -122.7621409}, {"type": "node", "id": 6732419798, "lat": 48.1134169, "lon": -122.7622426}, {"type": "node", "id": 8119626918, "lat": 48.1148867, "lon": -122.7549793, "tags": {"addr:city": "Port Townsend", "addr:country": "US", "addr:county": "Jefferson", "addr:housenumber": "725", "addr:postcode": "98368", "addr:state": "WA", "addr:street": "Water Street", "check_date": "2024-04-03", "name": "Vintage by Port Townsend Vineyards", "shop": "wine", "source": "Jefferson County Washington Open Data Site", "website": "http://porttownsendvineyards.com"}}, {"type": "node", "id": 8188180458, "lat": 48.1073132, "lon": -122.7738635}, {"type": "node", "id": 8188180459, "lat": 48.1073859, "lon": -122.7739426}, {"type": "node", "id": 8188180460, "lat": 48.1074432, "lon": -122.7737645}, {"type": "node", "id": 8188180462, "lat": 48.1071448, "lon": -122.7734861}, {"type": "node", "id": 8793108465, "lat": 48.1149448, "lon": -122.7534091, "tags": {"amenity": "bench"}}, {"type": "node", "id": 8793108466, "lat": 48.1149312, "lon": -122.7534442, "tags": {"amenity": "bench"}}, {"type": "node", "id": 8793108467, "lat": 48.114911, "lon": -122.7534948, "tags": {"amenity": "bench"}}, {"type": "node", "id": 8793108468, "lat": 48.1148947, "lon": -122.7535299, "tags": {"amenity": "bench"}}, {"type": "node", "id": 8793108469, "lat": 48.1148733, "lon": -122.7535796, "tags": {"amenity": "bench"}}, {"type": "node", "id": 8793108470, "lat": 48.1148616, "lon": -122.7536079, "tags": {"amenity": "bench"}}, {"type": "node", "id": 9473260237, "lat": 48.1155565, "lon": -122.7591796}, {"type": "node", "id": 9473261827, "lat": 48.1143161, "lon": -122.7740998}, {"type": "node", "id": 9473263833, "lat": 48.1146363, "lon": -122.7569984, "tags": {"addr:city": "Port Townsend", "addr:country": "US", "addr:county": "Jefferson", "addr:housenumber": "221", "addr:postcode": "98368", "addr:state": "WA", "addr:street": "Taylor Street", "air_conditioning": "yes", "amenity": "restaurant", "changing_table": "yes", "check_date": "2025-07-04", "cuisine": "mexican", "diet:meat": "yes", "diet:vegan": "yes", "diet:vegetarian": "yes", "internet_access": "wlan", "internet_access:fee": "customers", "name": "LA COCINA", "opening_hours": "Mo-Tu 11:00-20:00; Fr-Su 11:00-20:00", "payment:cash": "yes", "payment:credit_cards": "yes", "payment:debit_cards": "yes", "phone": "+1-360-390-8225", "source": "Jefferson County Washington Open Data Site", "toilets:menstrual_products": "no", "toilets:wheelchair": "limited", "website": "https://www.lacocinapt.com/", "wheelchair": "limited"}}, {"type": "node", "id": 9473264531, "lat": 48.1174958, "lon": -122.750596, "tags": {"addr:city": "Port Townsend", "addr:country": "US", "addr:county": "Jefferson", "addr:housenumber": "130", "addr:postcode": "98368", "addr:state": "WA", "addr:street": "Hudson Street", "amenity": "cafe", "name": "Hudson Point Cafe", "source": "Jefferson County Washington Open Data Site"}}, {"type": "node", "id": 9473264540, "lat": 48.11287, "lon": -122.7607309}, {"type": "node", "id": 9473264553, "lat": 48.1070142, "lon": -122.7777983}, {"type": "node", "id": 9473264554, "lat": 48.106994, "lon": -122.777349}, {"type": "node", "id": 9473264701, "lat": 48.1168567, "lon": -122.752498, "tags": {"addr:city": "Port Townsend", "addr:country": "US", "addr:county": "Jefferson", "addr:housenumber": "419", "addr:postcode": "98368", "addr:state": "WA", "addr:street": "Washington Street", "amenity": "theatre", "name": "Key City Public Theater", "source": "Jefferson County Washington Open Data Site", "website": "https://keycitypublictheatre.org/"}}, {"type": "node", "id": 9473264905, "lat": 48.1114411, "lon": -122.7716794}, {"type": "node", "id": 9473265028, "lat": 48.1171655, "lon": -122.7525837, "tags": {"addr:city": "Port Townsend", "addr:country": "US", "addr:county": "Jefferson", "addr:housenumber": "410", "addr:postcode": "98368", "addr:state": "WA", "addr:street": "Washington Street", "name": "The Artful Sailor", "shop": "trade", "source": "Jefferson County Washington Open Data Site", "trade": "boat", "website": "https://www.theartfulsailor.com/"}}, {"type": "node", "id": 9473265033, "lat": 48.1166157, "lon": -122.7634115}, {"type": "node", "id": 9473265054, "lat": 48.1172744, "lon": -122.7501533}, {"type": "node", "id": 9473265055, "lat": 48.1176131, "lon": -122.7505808, "tags": {"addr:city": "Port Townsend", "addr:country": "US", "addr:county": "Jefferson", "addr:housenumber": "265", "addr:postcode": "98368", "addr:state": "WA", "addr:street": "Hudson Street", "amenity": "restaurant", "name": "Shanghai Chinese Restaurant", "source": "Jefferson County Washington Open Data Site", "website": "https://m.facebook.com/Shanghai.PortTownsend"}}, {"type": "node", "id": 9473265057, "lat": 48.1183389, "lon": -122.7511258}, {"type": "node", "id": 9473265381, "lat": 48.1081211, "lon": -122.7749417}, {"type": "node", "id": 9473265382, "lat": 48.1073944, "lon": -122.776372}, {"type": "node", "id": 9473265385, "lat": 48.1083883, "lon": -122.7728046}, {"type": "node", "id": 9473265907, "lat": 48.1151389, "lon": -122.7566439, "tags": {"addr:city": "Port Townsend", "addr:country": "US", "addr:county": "Jefferson", "addr:housenumber": "823", "addr:postcode": "98368", "addr:state": "WA", "addr:street": "Washington Street", "name": "The Big Picture", "shop": "frame", "source": "Jefferson County Washington Open Data Site"}}, {"type": "node", "id": 9473266549, "lat": 48.1132142, "lon": -122.7602295, "tags": {"addr:city": "Port Townsend", "addr:country": "US", "addr:county": "Jefferson", "addr:housenumber": "1208", "addr:postcode": "98368", "addr:state": "WA", "addr:street": "Water Street", "amenity": "restaurant", "cuisine": "sushi", "name": "Ichikawa Sushi Bar & Steak House", "operator": "Enso Enterprises Inc", "source": "Jefferson County Washington Open Data Site", "website": "https://ptsushi.com/"}}, {"type": "node", "id": 9473266558, "lat": 48.1086944, "lon": -122.7734375}, {"type": "node", "id": 9473266739, "lat": 48.117861, "lon": -122.7606337}, {"type": "node", "id": 9473268530, "lat": 48.1150051, "lon": -122.754819}, {"type": "node", "id": 9473272023, "lat": 48.1107308, "lon": -122.770956}, {"type": "node", "id": 9473272219, "lat": 48.1088187, "lon": -122.7747634}, {"type": "node", "id": 9473274348, "lat": 48.1159481, "lon": -122.7547133, "tags": {"addr:city": "Port Townsend", "addr:country": "US", "addr:county": "Jefferson", "addr:housenumber": "647", "addr:postcode": "98368", "addr:state": "WA", "addr:street": "Washington Street", "name": "Bazaar Girls Yarn Shop", "shop": "craft", "source": "Jefferson County Washington Open Data Site"}}, {"type": "node", "id": 9473274611, "lat": 48.1087481, "lon": -122.7757831}, {"type": "node", "id": 9473275002, "lat": 48.1087877, "lon": -122.7732088}, {"type": "node", "id": 9473275215, "lat": 48.1084901, "lon": -122.7719015}, {"type": "node", "id": 9473275272, "lat": 48.1095524, "lon": -122.772268}, {"type": "node", "id": 9473275536, "lat": 48.1090983, "lon": -122.7711827}, {"type": "node", "id": 9473275752, "lat": 48.1085898, "lon": -122.7792144}, {"type": "node", "id": 9473275810, "lat": 48.1103184, "lon": -122.7701238}, {"type": "node", "id": 9473279838, "lat": 48.1131163, "lon": -122.7605023}, {"type": "node", "id": 9551682949, "lat": 48.1132464, "lon": -122.7619175}, {"type": "node", "id": 9551682950, "lat": 48.1133063, "lon": -122.7618613}, {"type": "node", "id": 9551682951, "lat": 48.1132694, "lon": -122.7619573}, {"type": "node", "id": 9551682952, "lat": 48.1132573, "lon": -122.7619459}, {"type": "node", "id": 9551682953, "lat": 48.1132469, "lon": -122.7618906}, {"type": "node", "id": 9551682954, "lat": 48.113258, "lon": -122.7618639}, {"type": "node", "id": 9551682955, "lat": 48.1132824, "lon": -122.7618499}, {"type": "node", "id": 9551682956, "lat": 48.1133009, "lon": -122.7618571}, {"type": "node", "id": 9551682957, "lat": 48.1132504, "lon": -122.7619329}, {"type": "node", "id": 9551682958, "lat": 48.1132456, "lon": -122.761904}, {"type": "node", "id": 9551682959, "lat": 48.1132511, "lon": -122.7618761}, {"type": "node", "id": 9551682960, "lat": 48.1132653, "lon": -122.7618563}, {"type": "node", "id": 9551682961, "lat": 48.1132736, "lon": -122.7618516}, {"type": "node", "id": 9551682962, "lat": 48.113292, "lon": -122.7618517}, {"type": "node", "id": 9551682963, "lat": 48.1134742, "lon": -122.7620559}, {"type": "node", "id": 9551682964, "lat": 48.1135127, "lon": -122.7620922}, {"type": "node", "id": 9551682965, "lat": 48.1132669, "lon": -122.7621855}, {"type": "node", "id": 9551682967, "lat": 48.1133175, "lon": -122.7618315}, {"type": "node", "id": 9551682975, "lat": 48.1135188, "lon": -122.7616048}, {"type": "node", "id": 9551683340, "lat": 48.1137727, "lon": -122.7618908}, {"type": "node", "id": 9551683341, "lat": 48.1135345, "lon": -122.7624447}, {"type": "node", "id": 9551683342, "lat": 48.1133879, "lon": -122.7623125}, {"type": "node", "id": 9551683343, "lat": 48.1136508, "lon": -122.7617808}, {"type": "node", "id": 9551699176, "lat": 48.1133768, "lon": -122.7617021}, {"type": "node", "id": 9551699177, "lat": 48.1133688, "lon": -122.761695}, {"type": "node", "id": 9553073645, "lat": 48.1178462, "lon": -122.7512978}, {"type": "node", "id": 9553073646, "lat": 48.1177307, "lon": -122.7511898}, {"type": "node", "id": 9553073678, "lat": 48.1177584, "lon": -122.7511216}, {"type": "node", "id": 9553110385, "lat": 48.1182147, "lon": -122.7513241}, {"type": "node", "id": 9553110389, "lat": 48.1183796, "lon": -122.7513109}, {"type": "node", "id": 9553110391, "lat": 48.1182751, "lon": -122.7510661}, {"type": "node", "id": 9553110398, "lat": 48.1180904, "lon": -122.7510399}, {"type": "node", "id": 9553110408, "lat": 48.1173456, "lon": -122.7500636, "tags": {"entrance": "main"}}, {"type": "node", "id": 9553110409, "lat": 48.1173619, "lon": -122.7501175}, {"type": "node", "id": 9553110410, "lat": 48.1173038, "lon": -122.7500581}, {"type": "node", "id": 9553110411, "lat": 48.1173143, "lon": -122.7500336}, {"type": "node", "id": 9553110412, "lat": 48.1173735, "lon": -122.7500903}, {"type": "node", "id": 9553110419, "lat": 48.1177728, "lon": -122.7504252}, {"type": "node", "id": 9553110420, "lat": 48.1174472, "lon": -122.7501489, "tags": {"amenity": "parking_space", "parking_space": "disabled"}}, {"type": "node", "id": 9806740603, "lat": 48.1089211, "lon": -122.7802229}, {"type": "node", "id": 9806740604, "lat": 48.1089311, "lon": -122.7799056}, {"type": "node", "id": 9806740605, "lat": 48.1091388, "lon": -122.7799284}, {"type": "node", "id": 9806740606, "lat": 48.1091274, "lon": -122.7799165}, {"type": "node", "id": 9972614184, "lat": 48.1104635, "lon": -122.7695553}, {"type": "node", "id": 9972614185, "lat": 48.1104877, "lon": -122.7694785}, {"type": "node", "id": 9972614186, "lat": 48.1104717, "lon": -122.7693797}, {"type": "node", "id": 9972614187, "lat": 48.110532, "lon": -122.7691821}, {"type": "node", "id": 9972614188, "lat": 48.1105648, "lon": -122.7691741}, {"type": "node", "id": 9972614189, "lat": 48.1105351, "lon": -122.769109}, {"type": "node", "id": 9972614190, "lat": 48.1102642, "lon": -122.7690015}, {"type": "node", "id": 9972614191, "lat": 48.1103798, "lon": -122.7687847}, {"type": "node", "id": 9991968261, "lat": 48.1121896, "lon": -122.7604503}, {"type": "node", "id": 9991968262, "lat": 48.1121529, "lon": -122.7604139}, {"type": "node", "id": 9991968263, "lat": 48.1121424, "lon": -122.7604434}, {"type": "node", "id": 9991968264, "lat": 48.1121799, "lon": -122.7604784}, {"type": "node", "id": 9991968265, "lat": 48.112167, "lon": -122.7605135}, {"type": "node", "id": 9991968266, "lat": 48.1121299, "lon": -122.7604804}, {"type": "node", "id": 9991968267, "lat": 48.1121179, "lon": -122.7605092}, {"type": "node", "id": 9991968268, "lat": 48.1121563, "lon": -122.7605424}, {"type": "node", "id": 9991968270, "lat": 48.116864, "lon": -122.753144, "tags": {"crossing": "marked", "crossing:markings": "yes", "highway": "crossing"}}, {"type": "node", "id": 11010953656, "lat": 48.109569, "lon": -122.7692909}, {"type": "node", "id": 11010953657, "lat": 48.1095995, "lon": -122.7692205}, {"type": "node", "id": 11098134863, "lat": 48.1070393, "lon": -122.7772217}, {"type": "node", "id": 11098134864, "lat": 48.1069881, "lon": -122.7771808}, {"type": "node", "id": 11098134865, "lat": 48.1069428, "lon": -122.7773082}, {"type": "node", "id": 11784774695, "lat": 48.1140086, "lon": -122.7573552, "tags": {"amenity": "bicycle_parking"}}, {"type": "node", "id": 11784774696, "lat": 48.1149194, "lon": -122.7546776}, {"type": "node", "id": 11784774697, "lat": 48.114693, "lon": -122.7554951, "tags": {"amenity": "bicycle_parking"}}, {"type": "node", "id": 11784774698, "lat": 48.1142813, "lon": -122.7564733, "tags": {"amenity": "bench", "backrest": "yes", "material": "wood"}}, {"type": "node", "id": 12011139428, "lat": 48.1087005, "lon": -122.7749646}, {"type": "node", "id": 12011139429, "lat": 48.108484, "lon": -122.7748769}, {"type": "node", "id": 12011139430, "lat": 48.1088462, "lon": -122.7740114}, {"type": "node", "id": 12011139431, "lat": 48.1085304, "lon": -122.7737005}, {"type": "node", "id": 12011139433, "lat": 48.108458, "lon": -122.7741076}, {"type": "node", "id": 12011139434, "lat": 48.1082402, "lon": -122.7746425}, {"type": "node", "id": 12011139435, "lat": 48.1092469, "lon": -122.7728307, "tags": {"amenity": "charging_station", "capacity": "4", "operator": "EVCS", "operator:wikidata": "Q117302781"}}, {"type": "node", "id": 12011139436, "lat": 48.1094545, "lon": -122.7721967}, {"type": "node", "id": 12011139461, "lat": 48.1104782, "lon": -122.7714789}, {"type": "node", "id": 12011139462, "lat": 48.1102756, "lon": -122.7712858}, {"type": "node", "id": 12011139463, "lat": 48.110267, "lon": -122.7713699}, {"type": "node", "id": 12026370971, "lat": 48.1170393, "lon": -122.7516612, "tags": {"addr:city": "Port Townsend", "addr:housenumber": "227", "addr:postcode": "98368", "addr:state": "WA", "addr:street": "Jackson Street", "amenity": "ferry_terminal", "ferry": "yes", "name": "Puget Sound Express", "network": "Puget Sound Express", "operator": "Puget Sound Express", "public_transport": "station"}}, {"type": "node", "id": 12125226133, "lat": 48.1097099, "lon": -122.7702353}, {"type": "node", "id": 12125226134, "lat": 48.1098513, "lon": -122.769804}, {"type": "node", "id": 12125226144, "lat": 48.1098967, "lon": -122.7700801}, {"type": "node", "id": 12125226145, "lat": 48.1098952, "lon": -122.7701189}, {"type": "node", "id": 12125226146, "lat": 48.1098818, "lon": -122.7701178}, {"type": "node", "id": 12125226147, "lat": 48.1098833, "lon": -122.7700789}, {"type": "node", "id": 12128127548, "lat": 48.1091085, "lon": -122.774003}, {"type": "node", "id": 12128127555, "lat": 48.1090641, "lon": -122.7739659}, {"type": "node", "id": 12128127556, "lat": 48.1092017, "lon": -122.7737756}, {"type": "node", "id": 12128127590, "lat": 48.1091592, "lon": -122.7737354}, {"type": "node", "id": 12128127591, "lat": 48.1092767, "lon": -122.7735662, "tags": {"amenity": "bench"}}, {"type": "node", "id": 12128127599, "lat": 48.1095063, "lon": -122.7723792}, {"type": "node", "id": 12128128332, "lat": 48.1084425, "lon": -122.7740927}, {"type": "node", "id": 12128128334, "lat": 48.108507, "lon": -122.7737547}, {"type": "node", "id": 12128128335, "lat": 48.1084976, "lon": -122.7737584}, {"type": "node", "id": 12128128336, "lat": 48.108487, "lon": -122.7737618}, {"type": "node", "id": 12128145354, "lat": 48.1079654, "lon": -122.7747731, "tags": {"amenity": "bench"}}, {"type": "node", "id": 12128145355, "lat": 48.1079349, "lon": -122.7748457, "tags": {"amenity": "bench"}}, {"type": "node", "id": 12128145356, "lat": 48.1079252, "lon": -122.7749423, "tags": {"amenity": "bench"}}, {"type": "node", "id": 12128182330, "lat": 48.1079068, "lon": -122.7756351}, {"type": "node", "id": 12128182334, "lat": 48.1076874, "lon": -122.7761997, "tags": {"crossing": "uncontrolled", "highway": "crossing"}}, {"type": "node", "id": 12159116699, "lat": 48.1238341, "lon": -122.7629849, "tags": {"amenity": "vending_machine", "vending": "excrement_bags"}}, {"type": "node", "id": 12159117917, "lat": 48.1239452, "lon": -122.7628444}, {"type": "node", "id": 12159117918, "lat": 48.1239149, "lon": -122.7628785}, {"type": "node", "id": 12159117919, "lat": 48.1235652, "lon": -122.7625434}, {"type": "node", "id": 12159117920, "lat": 48.1235861, "lon": -122.7624895}, {"type": "node", "id": 12159117924, "lat": 48.1230195, "lon": -122.763229, "tags": {"amenity": "bench"}}, {"type": "node", "id": 12159117926, "lat": 48.1236133, "lon": -122.7636435}, {"type": "node", "id": 12159117927, "lat": 48.1235932, "lon": -122.7636835}, {"type": "node", "id": 12159117928, "lat": 48.1232642, "lon": -122.7633809}, {"type": "node", "id": 12159117929, "lat": 48.1232917, "lon": -122.763323}, {"type": "node", "id": 12159117933, "lat": 48.1238102, "lon": -122.7629362, "tags": {"amenity": "waste_basket"}}, {"type": "node", "id": 12162957881, "lat": 48.1086128, "lon": -122.7791795}, {"type": "node", "id": 12162957882, "lat": 48.1083457, "lon": -122.7791847}, {"type": "node", "id": 12162957883, "lat": 48.1083519, "lon": -122.7787557}, {"type": "node", "id": 12162957884, "lat": 48.1084453, "lon": -122.7783623}, {"type": "node", "id": 12162957885, "lat": 48.1084744, "lon": -122.7782949}, {"type": "node", "id": 12162957886, "lat": 48.1085784, "lon": -122.7783438}, {"type": "node", "id": 12162957887, "lat": 48.1085723, "lon": -122.7788309}, {"type": "node", "id": 12162957888, "lat": 48.1085802, "lon": -122.7789959}, {"type": "node", "id": 12162957889, "lat": 48.1081888, "lon": -122.7800138}, {"type": "node", "id": 12162957890, "lat": 48.1082593, "lon": -122.7793748}, {"type": "node", "id": 12162957891, "lat": 48.1083149, "lon": -122.7793366}, {"type": "node", "id": 12162957892, "lat": 48.1083061, "lon": -122.7794633}, {"type": "node", "id": 12162957893, "lat": 48.1082717, "lon": -122.7795016}, {"type": "node", "id": 12162957894, "lat": 48.1082496, "lon": -122.7799623}, {"type": "node", "id": 12162957895, "lat": 48.1082266, "lon": -122.7795471}, {"type": "node", "id": 12163029381, "lat": 48.1104023, "lon": -122.7689823}, {"type": "node", "id": 12163029382, "lat": 48.1103596, "lon": -122.7690895}, {"type": "node", "id": 12163029383, "lat": 48.1103007, "lon": -122.7688869}, {"type": "node", "id": 12163029384, "lat": 48.1103595, "lon": -122.7688311}, {"type": "node", "id": 12163031946, "lat": 48.1109371, "lon": -122.771481}, {"type": "node", "id": 12163031947, "lat": 48.1111348, "lon": -122.770808}, {"type": "node", "id": 12163031948, "lat": 48.1109653, "lon": -122.770752}, {"type": "node", "id": 12163031949, "lat": 48.1108656, "lon": -122.7711253}, {"type": "node", "id": 12163031950, "lat": 48.1104825, "lon": -122.7707583}, {"type": "node", "id": 12163031951, "lat": 48.1104211, "lon": -122.7709287}, {"type": "node", "id": 12163031952, "lat": 48.1104028, "lon": -122.770976}, {"type": "node", "id": 12163031958, "lat": 48.1103472, "lon": -122.7719628}, {"type": "node", "id": 12163031959, "lat": 48.110315, "lon": -122.7720389}, {"type": "node", "id": 12163031961, "lat": 48.110148, "lon": -122.7719857, "tags": {"amenity": "atm", "brand": "Chase", "brand:wikidata": "Q524629", "operator": "Chase", "operator:wikidata": "Q524629"}}, {"type": "node", "id": 12163031962, "lat": 48.1101206, "lon": -122.7719496}, {"type": "node", "id": 12163031963, "lat": 48.1100657, "lon": -122.7718949}, {"type": "node", "id": 12163031964, "lat": 48.1102452, "lon": -122.7714842}, {"type": "node", "id": 12163031965, "lat": 48.1104845, "lon": -122.7715776}, {"type": "node", "id": 12163031966, "lat": 48.1104521, "lon": -122.7716485}, {"type": "node", "id": 12163031967, "lat": 48.1103972, "lon": -122.7716958}, {"type": "node", "id": 12163031968, "lat": 48.1102726, "lon": -122.7715813}, {"type": "node", "id": 12163239947, "lat": 48.1164417, "lon": -122.7689982}, {"type": "node", "id": 12163239948, "lat": 48.1167355, "lon": -122.7692607}, {"type": "node", "id": 12163239949, "lat": 48.116559, "lon": -122.7697}, {"type": "node", "id": 12163239950, "lat": 48.116595, "lon": -122.7686452}, {"type": "node", "id": 12163239951, "lat": 48.1171939, "lon": -122.7692015}, {"type": "node", "id": 12163239956, "lat": 48.117279, "lon": -122.7703497}, {"type": "node", "id": 12416998579, "lat": 48.1142064, "lon": -122.774391}, {"type": "node", "id": 12416998580, "lat": 48.1143442, "lon": -122.7743379}, {"type": "node", "id": 12416998581, "lat": 48.1143258, "lon": -122.7743223}, {"type": "node", "id": 12416998582, "lat": 48.1142774, "lon": -122.7744509}, {"type": "node", "id": 12416998590, "lat": 48.1142081, "lon": -122.7743863}, {"type": "node", "id": 12416998597, "lat": 48.1167485, "lon": -122.7714137}, {"type": "node", "id": 12416998598, "lat": 48.1168054, "lon": -122.7716142}, {"type": "node", "id": 12416998599, "lat": 48.1168187, "lon": -122.7718673}, {"type": "node", "id": 12416998600, "lat": 48.1167864, "lon": -122.7721303}, {"type": "node", "id": 12417004309, "lat": 48.1162863, "lon": -122.7718861}, {"type": "node", "id": 12417004310, "lat": 48.1163031, "lon": -122.7718439}, {"type": "node", "id": 12417004311, "lat": 48.1162699, "lon": -122.7718141}, {"type": "node", "id": 12417004312, "lat": 48.1162766, "lon": -122.7717973}, {"type": "node", "id": 12417004313, "lat": 48.1162023, "lon": -122.7717308}, {"type": "node", "id": 12417004314, "lat": 48.1161231, "lon": -122.7719292}, {"type": "node", "id": 12417004315, "lat": 48.1161958, "lon": -122.7719942}, {"type": "node", "id": 12417004316, "lat": 48.1162099, "lon": -122.7719588}, {"type": "node", "id": 12417004317, "lat": 48.1163814, "lon": -122.7721123}, {"type": "node", "id": 12417004318, "lat": 48.1163912, "lon": -122.7720877}, {"type": "node", "id": 12417004319, "lat": 48.1164358, "lon": -122.7721277}, {"type": "node", "id": 12417004320, "lat": 48.1165336, "lon": -122.7718825}, {"type": "node", "id": 12417004321, "lat": 48.1164387, "lon": -122.7717976}, {"type": "node", "id": 12417004324, "lat": 48.1164736, "lon": -122.7722148}, {"type": "node", "id": 12417004325, "lat": 48.1165854, "lon": -122.771935}, {"type": "node", "id": 12417004326, "lat": 48.116749, "lon": -122.7723439}, {"type": "node", "id": 12417004327, "lat": 48.1167072, "lon": -122.7722607}, {"type": "node", "id": 12417004328, "lat": 48.1166604, "lon": -122.7722485}, {"type": "node", "id": 12417004329, "lat": 48.1166235, "lon": -122.7722785}, {"type": "node", "id": 12417004330, "lat": 48.1165061, "lon": -122.7722513}, {"type": "node", "id": 12417004354, "lat": 48.1176824, "lon": -122.7724306}, {"type": "node", "id": 12417004355, "lat": 48.1176753, "lon": -122.7723606}, {"type": "node", "id": 12417004356, "lat": 48.11766, "lon": -122.7723649}, {"type": "node", "id": 12417004357, "lat": 48.1176685, "lon": -122.7724344}, {"type": "node", "id": 12417004366, "lat": 48.1171609, "lon": -122.7532498}, {"type": "node", "id": 12417004368, "lat": 48.1174852, "lon": -122.7530522, "tags": {"access": "yes", "amenity": "drinking_water", "fee": "no", "wheelchair": "yes"}}, {"type": "node", "id": 12613298760, "lat": 48.1149007, "lon": -122.7560055}, {"type": "node", "id": 12613298761, "lat": 48.1147987, "lon": -122.755909}, {"type": "node", "id": 12626504776, "lat": 48.1065526, "lon": -122.7783967}, {"type": "node", "id": 12626504777, "lat": 48.1064132, "lon": -122.7787336}, {"type": "node", "id": 12626504778, "lat": 48.106377, "lon": -122.7787}, {"type": "node", "id": 12626504779, "lat": 48.1067152, "lon": -122.7778827}, {"type": "node", "id": 12626504780, "lat": 48.1065673, "lon": -122.7784103}, {"type": "node", "id": 12626504781, "lat": 48.106766, "lon": -122.7779299}, {"type": "node", "id": 12626504782, "lat": 48.1065458, "lon": -122.7779402}, {"type": "node", "id": 12626504783, "lat": 48.1067508, "lon": -122.7774092}, {"type": "node", "id": 12626504784, "lat": 48.1067103, "lon": -122.7773741}, {"type": "node", "id": 12626504785, "lat": 48.1065052, "lon": -122.7779051}, {"type": "node", "id": 12626504786, "lat": 48.1063274, "lon": -122.7785544}, {"type": "node", "id": 12626504787, "lat": 48.1064416, "lon": -122.7782587}, {"type": "node", "id": 12626504788, "lat": 48.1063964, "lon": -122.7782196}, {"type": "node", "id": 12626504789, "lat": 48.1062822, "lon": -122.7785153}, {"type": "node", "id": 12628645881, "lat": 48.1082686, "lon": -122.7727959, "tags": {"source": "PGS"}}, {"type": "node", "id": 12629004721, "lat": 48.1199119, "lon": -122.7788801}, {"type": "node", "id": 12629004722, "lat": 48.1198705, "lon": -122.7788948}, {"type": "node", "id": 12629004723, "lat": 48.1198611, "lon": -122.7789532}, {"type": "node", "id": 12629004724, "lat": 48.1199284, "lon": -122.7789786}, {"type": "node", "id": 12629345016, "lat": 48.111235, "lon": -122.7595949}, {"type": "node", "id": 12629365059, "lat": 48.1170177, "lon": -122.7503839}, {"type": "node", "id": 12629365060, "lat": 48.117104, "lon": -122.7501708}, {"type": "node", "id": 12629365061, "lat": 48.1169869, "lon": -122.7500645}, {"type": "node", "id": 12629365062, "lat": 48.1169007, "lon": -122.7502777}, {"type": "node", "id": 12629365063, "lat": 48.1171327, "lon": -122.7502681}, {"type": "node", "id": 12629365064, "lat": 48.1172387, "lon": -122.7500061}, {"type": "node", "id": 12629365065, "lat": 48.1171889, "lon": -122.7499609}, {"type": "node", "id": 12629365066, "lat": 48.1173067, "lon": -122.7504261}, {"type": "node", "id": 12629365067, "lat": 48.1170059, "lon": -122.7504131}, {"type": "node", "id": 12629365068, "lat": 48.1172298, "lon": -122.7506163}, {"type": "node", "id": 12629365072, "lat": 48.1185732, "lon": -122.7509616}, {"type": "node", "id": 12629365073, "lat": 48.11819, "lon": -122.7505781}, {"type": "node", "id": 12629365074, "lat": 48.117878, "lon": -122.7503105}, {"type": "node", "id": 12629365075, "lat": 48.1175355, "lon": -122.749994}, {"type": "node", "id": 12629365076, "lat": 48.1172387, "lon": -122.7497385}, {"type": "node", "id": 12629365077, "lat": 48.1172101, "lon": -122.7498009}, {"type": "node", "id": 12629365078, "lat": 48.1175897, "lon": -122.7501234}, {"type": "node", "id": 12629365079, "lat": 48.1179223, "lon": -122.7504473}, {"type": "node", "id": 12629365080, "lat": 48.1183516, "lon": -122.750845}, {"type": "node", "id": 12629365081, "lat": 48.1185517, "lon": -122.7510173}, {"type": "node", "id": 12629365083, "lat": 48.1181411, "lon": -122.7508405}, {"type": "node", "id": 12629365084, "lat": 48.1181665, "lon": -122.750778}, {"type": "node", "id": 12629365085, "lat": 48.1181912, "lon": -122.7508004}, {"type": "node", "id": 12629365086, "lat": 48.1181658, "lon": -122.750863}, {"type": "node", "id": 12629365087, "lat": 48.1179188, "lon": -122.7506451}, {"type": "node", "id": 12629365088, "lat": 48.1179442, "lon": -122.7505825}, {"type": "node", "id": 12629365089, "lat": 48.1179688, "lon": -122.750605}, {"type": "node", "id": 12629365090, "lat": 48.1179434, "lon": -122.7506675}, {"type": "node", "id": 12629365091, "lat": 48.1177228, "lon": -122.7504653}, {"type": "node", "id": 12629365092, "lat": 48.1177482, "lon": -122.7504028}, {"type": "node", "id": 12629365093, "lat": 48.1177474, "lon": -122.7504877}, {"type": "node", "id": 12629737923, "lat": 48.1114589, "lon": -122.7665528}, {"type": "node", "id": 12630215414, "lat": 48.11662, "lon": -122.7782514, "tags": {"amenity": "bench"}}, {"type": "node", "id": 12630215415, "lat": 48.1166455, "lon": -122.7782353, "tags": {"amenity": "bench"}}, {"type": "node", "id": 12630215416, "lat": 48.1166404, "lon": -122.7782685, "tags": {"amenity": "bench"}}, {"type": "node", "id": 12630215425, "lat": 48.1174045, "lon": -122.7781759}, {"type": "node", "id": 12630215426, "lat": 48.1173369, "lon": -122.778178}, {"type": "node", "id": 12630215427, "lat": 48.1173433, "lon": -122.7786344}, {"type": "node", "id": 12630215428, "lat": 48.1174109, "lon": -122.7786323}, {"type": "node", "id": 12630215432, "lat": 48.1171328, "lon": -122.778644}, {"type": "node", "id": 12630215433, "lat": 48.1171302, "lon": -122.7782849}, {"type": "node", "id": 12630215434, "lat": 48.1172909, "lon": -122.7782823}, {"type": "node", "id": 12630215435, "lat": 48.1172935, "lon": -122.7786414}, {"type": "node", "id": 12630215441, "lat": 48.1161192, "lon": -122.7782619}, {"type": "node", "id": 12630215442, "lat": 48.1164802, "lon": -122.7782653}, {"type": "node", "id": 12630215443, "lat": 48.1164782, "lon": -122.7787549}, {"type": "node", "id": 12630215444, "lat": 48.1161171, "lon": -122.7787515}, {"type": "node", "id": 12630215445, "lat": 48.116118, "lon": -122.7785419}, {"type": "node", "id": 12630215468, "lat": 48.1158456, "lon": -122.7783096}, {"type": "node", "id": 12630215469, "lat": 48.115845, "lon": -122.7786915}, {"type": "node", "id": 12630215470, "lat": 48.1159168, "lon": -122.7786918}, {"type": "node", "id": 12630215471, "lat": 48.1159176, "lon": -122.7781894}, {"type": "node", "id": 12630215472, "lat": 48.1157393, "lon": -122.7781888}, {"type": "node", "id": 12630215473, "lat": 48.1157391, "lon": -122.7783093}, {"type": "node", "id": 12630468124, "lat": 48.1082849, "lon": -122.7759043}, {"type": "node", "id": 12630468125, "lat": 48.108413, "lon": -122.7755995}, {"type": "node", "id": 12630468126, "lat": 48.1083936, "lon": -122.7755812}, {"type": "node", "id": 12630468127, "lat": 48.1082655, "lon": -122.7758861}, {"type": "node", "id": 12630468188, "lat": 48.1083683, "lon": -122.7751894}, {"type": "node", "id": 12630468189, "lat": 48.1083733, "lon": -122.7751672}, {"type": "node", "id": 12630468190, "lat": 48.1083773, "lon": -122.7751156}, {"type": "node", "id": 12630468191, "lat": 48.1083692, "lon": -122.775068}, {"type": "node", "id": 12630468192, "lat": 48.1082528, "lon": -122.7749453}, {"type": "node", "id": 12630468193, "lat": 48.1082403, "lon": -122.7749037}, {"type": "node", "id": 12630468194, "lat": 48.1080871, "lon": -122.7747609}, {"type": "node", "id": 12630468195, "lat": 48.1080421, "lon": -122.7748674}, {"type": "node", "id": 12630468196, "lat": 48.1080985, "lon": -122.7749957}, {"type": "node", "id": 12630468197, "lat": 48.1083491, "lon": -122.7752289}, {"type": "node", "id": 12630468214, "lat": 48.1078788, "lon": -122.7740833}, {"type": "node", "id": 12630468215, "lat": 48.1084175, "lon": -122.7727989}, {"type": "node", "id": 12630468216, "lat": 48.1084588, "lon": -122.7728377}, {"type": "node", "id": 12630468217, "lat": 48.1079201, "lon": -122.7741222}, {"type": "node", "id": 12630468219, "lat": 48.1084, "lon": -122.7734419}, {"type": "node", "id": 12630468220, "lat": 48.1085727, "lon": -122.7730345}, {"type": "node", "id": 12630468221, "lat": 48.1085244, "lon": -122.7729886}, {"type": "node", "id": 12630468222, "lat": 48.1083518, "lon": -122.773396}, {"type": "node", "id": 12630527179, "lat": 48.1147008, "lon": -122.7727606}, {"type": "node", "id": 12630527180, "lat": 48.1149094, "lon": -122.7722912}, {"type": "node", "id": 12630527181, "lat": 48.1150921, "lon": -122.7724622}, {"type": "node", "id": 12630527182, "lat": 48.1148495, "lon": -122.7730523}, {"type": "node", "id": 12630527187, "lat": 48.1140508, "lon": -122.7752645}, {"type": "node", "id": 12630527188, "lat": 48.1140315, "lon": -122.7752457}, {"type": "node", "id": 12630527189, "lat": 48.114006, "lon": -122.7750908}, {"type": "node", "id": 12630527190, "lat": 48.1140257, "lon": -122.7750405}, {"type": "node", "id": 12630527191, "lat": 48.1141085, "lon": -122.7750063}, {"type": "node", "id": 12630527192, "lat": 48.1141828, "lon": -122.7750003}, {"type": "node", "id": 12630527193, "lat": 48.1141931, "lon": -122.7750123}, {"type": "node", "id": 12630527194, "lat": 48.1140723, "lon": -122.7753101}, {"type": "node", "id": 12630527195, "lat": 48.1140561, "lon": -122.7753221}, {"type": "node", "id": 12630549698, "lat": 48.1139017, "lon": -122.7704412}, {"type": "node", "id": 12630549699, "lat": 48.1138421, "lon": -122.7704177}, {"type": "node", "id": 12630549700, "lat": 48.1136658, "lon": -122.7702521}, {"type": "node", "id": 12630582501, "lat": 48.1137034, "lon": -122.7701381}, {"type": "node", "id": 12630582502, "lat": 48.1140911, "lon": -122.7705022}, {"type": "node", "id": 12630582503, "lat": 48.1141032, "lon": -122.7705297}, {"type": "node", "id": 12630582504, "lat": 48.1141596, "lon": -122.7707201}, {"type": "node", "id": 12630582505, "lat": 48.1141555, "lon": -122.770763}, {"type": "node", "id": 12630582506, "lat": 48.1141331, "lon": -122.7707999}, {"type": "node", "id": 12630582507, "lat": 48.11404, "lon": -122.7708784}, {"type": "node", "id": 12630582632, "lat": 48.1154389, "lon": -122.7724897}, {"type": "node", "id": 12630582633, "lat": 48.1154543, "lon": -122.7724521}, {"type": "node", "id": 12630582634, "lat": 48.115466, "lon": -122.7724629}, {"type": "node", "id": 12630582635, "lat": 48.1154506, "lon": -122.7725004}, {"type": "node", "id": 12630582637, "lat": 48.1148974, "lon": -122.7719486, "tags": {"amenity": "bench"}}, {"type": "node", "id": 12630582638, "lat": 48.1147866, "lon": -122.7719771, "tags": {"amenity": "bench"}}, {"type": "node", "id": 12630582639, "lat": 48.1147767, "lon": -122.7719281, "tags": {"amenity": "bench"}}, {"type": "node", "id": 12630582640, "lat": 48.1148145, "lon": -122.7719161, "tags": {"amenity": "bench"}}, {"type": "node", "id": 12630582641, "lat": 48.1148224, "lon": -122.7719667, "tags": {"amenity": "bench"}}, {"type": "node", "id": 12630599198, "lat": 48.1139159, "lon": -122.7732181}, {"type": "node", "id": 12630599199, "lat": 48.113725, "lon": -122.7736744}, {"type": "node", "id": 12630599200, "lat": 48.113625, "lon": -122.7735804}, {"type": "node", "id": 12630624301, "lat": 48.1137046, "lon": -122.77339}, {"type": "node", "id": 12630624302, "lat": 48.1136029, "lon": -122.7732945}, {"type": "node", "id": 12630624303, "lat": 48.1137141, "lon": -122.7730287}, {"type": "node", "id": 12630624304, "lat": 48.1138105, "lon": -122.7731192}, {"type": "node", "id": 12630624321, "lat": 48.1126027, "lon": -122.773353}, {"type": "node", "id": 12630624322, "lat": 48.1125549, "lon": -122.7734123}, {"type": "node", "id": 12630624323, "lat": 48.112721, "lon": -122.7737131}, {"type": "node", "id": 12630624324, "lat": 48.1127689, "lon": -122.7736539}, {"type": "node", "id": 12630624329, "lat": 48.1131823, "lon": -122.7742475}, {"type": "node", "id": 12630624330, "lat": 48.1132335, "lon": -122.7741313}, {"type": "node", "id": 12630624331, "lat": 48.1132821, "lon": -122.7741794}, {"type": "node", "id": 12630624332, "lat": 48.1133129, "lon": -122.7741096}, {"type": "node", "id": 12630624333, "lat": 48.1134763, "lon": -122.7742712}, {"type": "node", "id": 12630624334, "lat": 48.1133943, "lon": -122.7744572}, {"type": "node", "id": 12630629215, "lat": 48.1085564, "lon": -122.7719634}, {"type": "node", "id": 12630629360, "lat": 48.1069568, "lon": -122.7772689}, {"type": "node", "id": 12630629361, "lat": 48.1072978, "lon": -122.7763521}, {"type": "node", "id": 12630629362, "lat": 48.1072718, "lon": -122.7762763}, {"type": "node", "id": 12630629363, "lat": 48.1069145, "lon": -122.7772285}, {"type": "node", "id": 12630629364, "lat": 48.1069073, "lon": -122.77703}, {"type": "node", "id": 12630629365, "lat": 48.1071196, "lon": -122.7764701}, {"type": "node", "id": 12630629366, "lat": 48.1074258, "lon": -122.7756447}, {"type": "node", "id": 12630629367, "lat": 48.1073994, "lon": -122.7755789}, {"type": "node", "id": 12630629368, "lat": 48.1072364, "lon": -122.7760074}, {"type": "node", "id": 12630629369, "lat": 48.1068787, "lon": -122.7769542}, {"type": "node", "id": 12630629374, "lat": 48.1087139, "lon": -122.7758995}, {"type": "node", "id": 12630629375, "lat": 48.1086181, "lon": -122.7758479}, {"type": "node", "id": 12630629376, "lat": 48.1086367, "lon": -122.7757701}, {"type": "node", "id": 12630629377, "lat": 48.1087326, "lon": -122.7758217}, {"type": "node", "id": 12630629378, "lat": 48.1083304, "lon": -122.7760702}, {"type": "node", "id": 12630629379, "lat": 48.108424, "lon": -122.7758409}, {"type": "node", "id": 12630629380, "lat": 48.1083818, "lon": -122.7758022}, {"type": "node", "id": 12630629381, "lat": 48.1082882, "lon": -122.7760316}, {"type": "node", "id": 12630629393, "lat": 48.1091472, "lon": -122.7735322}, {"type": "node", "id": 12630629394, "lat": 48.1092851, "lon": -122.7732063}, {"type": "node", "id": 12630629395, "lat": 48.1092412, "lon": -122.7731646}, {"type": "node", "id": 12630629396, "lat": 48.1091033, "lon": -122.7734905}, {"type": "node", "id": 12630629415, "lat": 48.1097851, "lon": -122.7710991}, {"type": "node", "id": 12630629416, "lat": 48.1097183, "lon": -122.7712565}, {"type": "node", "id": 12630629417, "lat": 48.1094748, "lon": -122.7714973}, {"type": "node", "id": 12630629418, "lat": 48.1096844, "lon": -122.7710033}, {"type": "node", "id": 12630629419, "lat": 48.1097599, "lon": -122.7712961}, {"type": "node", "id": 12630629420, "lat": 48.1096171, "lon": -122.7716327}, {"type": "node", "id": 12630629421, "lat": 48.1092869, "lon": -122.7714071}, {"type": "node", "id": 12630629422, "lat": 48.1092378, "lon": -122.7714554}, {"type": "node", "id": 12630629423, "lat": 48.1094216, "lon": -122.7716287}, {"type": "node", "id": 12630629424, "lat": 48.1094827, "lon": -122.7715828}, {"type": "node", "id": 12630629427, "lat": 48.1089026, "lon": -122.7723541}, {"type": "node", "id": 12630629428, "lat": 48.108871, "lon": -122.7723245}, {"type": "node", "id": 12630629429, "lat": 48.1089748, "lon": -122.7721814}, {"type": "node", "id": 12630629430, "lat": 48.108943, "lon": -122.7721517}, {"type": "node", "id": 12630629431, "lat": 48.1088034, "lon": -122.7723139}, {"type": "node", "id": 12630629432, "lat": 48.1089592, "lon": -122.77194}, {"type": "node", "id": 12630629433, "lat": 48.1090428, "lon": -122.7720182}, {"type": "node", "id": 12630629434, "lat": 48.1088869, "lon": -122.7723919}, {"type": "node", "id": 12630629435, "lat": 48.1092418, "lon": -122.7712562}, {"type": "node", "id": 12630629436, "lat": 48.1094541, "lon": -122.7707586}, {"type": "node", "id": 12630629437, "lat": 48.109472, "lon": -122.7707758}, {"type": "node", "id": 12630629438, "lat": 48.1092598, "lon": -122.7712733}, {"type": "node", "id": 12630629439, "lat": 48.1094617, "lon": -122.7707525}, {"type": "node", "id": 12630629440, "lat": 48.1095443, "lon": -122.770549}, {"type": "node", "id": 12630629441, "lat": 48.1095754, "lon": -122.7705773}, {"type": "node", "id": 12630629442, "lat": 48.1094928, "lon": -122.7707808}, {"type": "node", "id": 12630629443, "lat": 48.1097583, "lon": -122.770606}, {"type": "node", "id": 12630629444, "lat": 48.1096386, "lon": -122.7704987}, {"type": "node", "id": 12630629445, "lat": 48.1096121, "lon": -122.7705649}, {"type": "node", "id": 12630629446, "lat": 48.1097319, "lon": -122.7706722}, {"type": "node", "id": 12630629447, "lat": 48.1098336, "lon": -122.7693896}, {"type": "node", "id": 12630629448, "lat": 48.1098415, "lon": -122.7694449}, {"type": "node", "id": 12630629475, "lat": 48.10935, "lon": -122.7700094}, {"type": "node", "id": 12630629476, "lat": 48.1092175, "lon": -122.7698799}, {"type": "node", "id": 12630629477, "lat": 48.1092499, "lon": -122.7698055}, {"type": "node", "id": 12630629478, "lat": 48.1093825, "lon": -122.7699349}, {"type": "node", "id": 12630629504, "lat": 48.1103984, "lon": -122.7703842}, {"type": "node", "id": 12630629505, "lat": 48.1104279, "lon": -122.7702561}, {"type": "node", "id": 12630629506, "lat": 48.1101279, "lon": -122.7699631}, {"type": "node", "id": 12630629507, "lat": 48.1101082, "lon": -122.7705431}, {"type": "node", "id": 12630629508, "lat": 48.1101194, "lon": -122.770706}, {"type": "node", "id": 12630629509, "lat": 48.1102237, "lon": -122.77081}, {"type": "node", "id": 12630629556, "lat": 48.109454, "lon": -122.7720903}, {"type": "node", "id": 12630629557, "lat": 48.1094832, "lon": -122.7720217}, {"type": "node", "id": 12630629558, "lat": 48.1096095, "lon": -122.7721421}, {"type": "node", "id": 12630629559, "lat": 48.1095804, "lon": -122.7722108}, {"type": "node", "id": 12630629560, "lat": 48.1092432, "lon": -122.7724054}, {"type": "node", "id": 12630629561, "lat": 48.1092648, "lon": -122.7724261}, {"type": "node", "id": 12630629562, "lat": 48.1095252, "lon": -122.7724368}, {"type": "node", "id": 12630629563, "lat": 48.109315, "lon": -122.7722364}, {"type": "node", "id": 12630629564, "lat": 48.1092401, "lon": -122.7724843}, {"type": "node", "id": 12630629565, "lat": 48.1094286, "lon": -122.7726641}, {"type": "node", "id": 12630629567, "lat": 48.108711, "lon": -122.7717144}, {"type": "node", "id": 12630629569, "lat": 48.108608, "lon": -122.7716183}, {"type": "node", "id": 12630629570, "lat": 48.1087833, "lon": -122.7719664}, {"type": "node", "id": 12630629571, "lat": 48.1086812, "lon": -122.7722117}, {"type": "node", "id": 12630629593, "lat": 48.1094588, "lon": -122.7692678}, {"type": "node", "id": 12630629594, "lat": 48.1094411, "lon": -122.7691427}, {"type": "node", "id": 12630629595, "lat": 48.1093829, "lon": -122.7692909}, {"type": "node", "id": 12630629596, "lat": 48.1094411, "lon": -122.7693087}, {"type": "node", "id": 12630629597, "lat": 48.1094738, "lon": -122.7690672}, {"type": "node", "id": 12630629598, "lat": 48.1095699, "lon": -122.7691607}, {"type": "node", "id": 12630629599, "lat": 48.1095042, "lon": -122.769312}, {"type": "node", "id": 12630629600, "lat": 48.1094001, "lon": -122.7691029}, {"type": "node", "id": 12630629601, "lat": 48.1093377, "lon": -122.7692469}, {"type": "node", "id": 12630629602, "lat": 48.1097677, "lon": -122.7696264}, {"type": "node", "id": 12630629603, "lat": 48.1093278, "lon": -122.7694179}, {"type": "node", "id": 12630629604, "lat": 48.1097008, "lon": -122.7697807}, {"type": "node", "id": 12630629608, "lat": 48.1102631, "lon": -122.7659125}, {"type": "node", "id": 12630629609, "lat": 48.1101865, "lon": -122.7661014}, {"type": "node", "id": 12630629610, "lat": 48.1101232, "lon": -122.7664625}, {"type": "node", "id": 12630629611, "lat": 48.1103239, "lon": -122.7659678}, {"type": "node", "id": 12630629612, "lat": 48.1101709, "lon": -122.7660873}, {"type": "node", "id": 12630629613, "lat": 48.1100469, "lon": -122.7663931}, {"type": "node", "id": 12630629614, "lat": 48.1099007, "lon": -122.7666899}, {"type": "node", "id": 12630629615, "lat": 48.1098793, "lon": -122.7667469}, {"type": "node", "id": 12630629616, "lat": 48.109971, "lon": -122.7668243}, {"type": "node", "id": 12630629617, "lat": 48.1097976, "lon": -122.7666029}, {"type": "node", "id": 12630629618, "lat": 48.1097147, "lon": -122.7668235}, {"type": "node", "id": 12630629619, "lat": 48.1099094, "lon": -122.7669878}, {"type": "node", "id": 12630669510, "lat": 48.1155272, "lon": -122.7648509, "tags": {"amenity": "shelter", "shelter_type": "gazebo"}}, {"type": "node", "id": 12631207971, "lat": 48.1174774, "lon": -122.768673}, {"type": "node", "id": 12631207972, "lat": 48.1175769, "lon": -122.7684259}, {"type": "node", "id": 12631207973, "lat": 48.1177255, "lon": -122.7685602}, {"type": "node", "id": 12631207974, "lat": 48.117626, "lon": -122.7688073}, {"type": "node", "id": 12631207975, "lat": 48.1179535, "lon": -122.7695297}, {"type": "node", "id": 12631207976, "lat": 48.1180264, "lon": -122.7693533}, {"type": "node", "id": 12631207977, "lat": 48.1176643, "lon": -122.7690178}, {"type": "node", "id": 12631207978, "lat": 48.1176437, "lon": -122.7690677}, {"type": "node", "id": 12631207979, "lat": 48.1176138, "lon": -122.76904}, {"type": "node", "id": 12631207980, "lat": 48.1175616, "lon": -122.7691665}, {"type": "node", "id": 12631207997, "lat": 48.1186403, "lon": -122.7692188}, {"type": "node", "id": 12631207998, "lat": 48.1186905, "lon": -122.7692033}, {"type": "node", "id": 12631207999, "lat": 48.1186376, "lon": -122.7688003}, {"type": "node", "id": 12631208000, "lat": 48.1186766, "lon": -122.7687849}, {"type": "node", "id": 12631208001, "lat": 48.1186605, "lon": -122.7686803}, {"type": "node", "id": 12631208002, "lat": 48.1186305, "lon": -122.768632}, {"type": "node", "id": 12631208003, "lat": 48.1184026, "lon": -122.7692436}, {"type": "node", "id": 12631208004, "lat": 48.1184707, "lon": -122.76932}, {"type": "node", "id": 12631208005, "lat": 48.1186367, "lon": -122.7693314}, {"type": "node", "id": 12631325898, "lat": 48.1188902, "lon": -122.7665573}, {"type": "node", "id": 12631325900, "lat": 48.1191416, "lon": -122.767098}, {"type": "node", "id": 12631335201, "lat": 48.1191636, "lon": -122.7671447}, {"type": "node", "id": 12631335202, "lat": 48.1190343, "lon": -122.7667741}, {"type": "node", "id": 12631335203, "lat": 48.1191199, "lon": -122.7670318}, {"type": "node", "id": 12631335204, "lat": 48.1190877, "lon": -122.7669119}, {"type": "node", "id": 12631335205, "lat": 48.1181871, "lon": -122.7658399}, {"type": "node", "id": 12631335206, "lat": 48.1184469, "lon": -122.7694852}, {"type": "node", "id": 12631335207, "lat": 48.1175582, "lon": -122.7682173}, {"type": "node", "id": 12631335208, "lat": 48.1176364, "lon": -122.7679167}, {"type": "node", "id": 12631335209, "lat": 48.117603, "lon": -122.7678779}, {"type": "node", "id": 12631335210, "lat": 48.1180422, "lon": -122.7695864}, {"type": "node", "id": 12631335211, "lat": 48.1176303, "lon": -122.7680455}, {"type": "node", "id": 12631335212, "lat": 48.1206436, "lon": -122.7688435}, {"type": "node", "id": 12631335213, "lat": 48.119458, "lon": -122.7691824}, {"type": "node", "id": 12631335214, "lat": 48.1181084, "lon": -122.7695758}, {"type": "node", "id": 12631335215, "lat": 48.1182133, "lon": -122.769555}, {"type": "node", "id": 12631335216, "lat": 48.1175676, "lon": -122.7663806}, {"type": "node", "id": 12631335217, "lat": 48.117987, "lon": -122.76959}, {"type": "node", "id": 12631335218, "lat": 48.1174576, "lon": -122.7665477}, {"type": "node", "id": 12631335219, "lat": 48.1179119, "lon": -122.7695579}, {"type": "node", "id": 12631335220, "lat": 48.1178425, "lon": -122.7694926}, {"type": "node", "id": 12631335221, "lat": 48.1192772, "lon": -122.7692375}, {"type": "node", "id": 12631335222, "lat": 48.1176436, "lon": -122.7680094}, {"type": "node", "id": 12631335223, "lat": 48.1203729, "lon": -122.7669002}, {"type": "node", "id": 12631335224, "lat": 48.1177025, "lon": -122.7693767}, {"type": "node", "id": 12631335225, "lat": 48.1192405, "lon": -122.7672022}, {"type": "node", "id": 12631335226, "lat": 48.1191935, "lon": -122.7671796}, {"type": "node", "id": 12631335227, "lat": 48.1176525, "lon": -122.76798}, {"type": "node", "id": 12631335228, "lat": 48.11971, "lon": -122.7670937}, {"type": "node", "id": 12631335229, "lat": 48.1193073, "lon": -122.7672058}, {"type": "node", "id": 12631335230, "lat": 48.1176505, "lon": -122.767951}, {"type": "node", "id": 12631335231, "lat": 48.1171084, "lon": -122.7674076}, {"type": "node", "id": 12631436010, "lat": 48.1171116, "lon": -122.7658385}, {"type": "node", "id": 12631436011, "lat": 48.1170753, "lon": -122.7657661}, {"type": "node", "id": 12631436012, "lat": 48.1170758, "lon": -122.7657131}, {"type": "node", "id": 12631436013, "lat": 48.1171272, "lon": -122.7655247}, {"type": "node", "id": 12631436014, "lat": 48.1171586, "lon": -122.7655502}, {"type": "node", "id": 12631436015, "lat": 48.1172051, "lon": -122.7654456}, {"type": "node", "id": 12631436016, "lat": 48.1171729, "lon": -122.7654161}, {"type": "node", "id": 12631436017, "lat": 48.1173345, "lon": -122.7650218}, {"type": "node", "id": 12631436018, "lat": 48.1171971, "lon": -122.7659109}, {"type": "node", "id": 12631436019, "lat": 48.1175091, "lon": -122.7651733}, {"type": "node", "id": 12631584998, "lat": 48.1086143, "lon": -122.7721492}, {"type": "node", "id": 12631646207, "lat": 48.1087506, "lon": -122.7717514}, {"type": "node", "id": 12631646208, "lat": 48.1087532, "lon": -122.7717452}, {"type": "node", "id": 12631646209, "lat": 48.1088366, "lon": -122.7718231}, {"type": "node", "id": 12631646210, "lat": 48.1087787, "lon": -122.7719621}, {"type": "node", "id": 12631646211, "lat": 48.1075035, "lon": -122.7755813}, {"type": "node", "id": 12631646591, "lat": 48.108184, "lon": -122.7750752}, {"type": "node", "id": 12631646597, "lat": 48.108381, "lon": -122.7756757}, {"type": "node", "id": 12631646598, "lat": 48.108349, "lon": -122.7757519}, {"type": "node", "id": 12631646599, "lat": 48.108317, "lon": -122.7758281}, {"type": "node", "id": 12631646600, "lat": 48.1083616, "lon": -122.7756574}, {"type": "node", "id": 12631646601, "lat": 48.1083296, "lon": -122.7757336}, {"type": "node", "id": 12631646602, "lat": 48.1082976, "lon": -122.7758099}, {"type": "node", "id": 12631994176, "lat": 48.1156682, "lon": -122.7667923}, {"type": "node", "id": 12632001921, "lat": 48.1156362, "lon": -122.7668693}, {"type": "node", "id": 12632001922, "lat": 48.1155634, "lon": -122.7667896}, {"type": "node", "id": 12632001923, "lat": 48.1155809, "lon": -122.766749}, {"type": "node", "id": 12632001957, "lat": 48.1155961, "lon": -122.7667152}, {"type": "node", "id": 12633520744, "lat": 48.1165219, "lon": -122.7688542}, {"type": "node", "id": 12633520745, "lat": 48.1165936, "lon": -122.7686784}, {"type": "node", "id": 12633520746, "lat": 48.1167497, "lon": -122.7688212}, {"type": "node", "id": 12633520747, "lat": 48.1166781, "lon": -122.768997}, {"type": "node", "id": 12634610731, "lat": 48.1117198, "lon": -122.7667447}, {"type": "node", "id": 12634611000, "lat": 48.112051, "lon": -122.7681155}, {"type": "node", "id": 12634611001, "lat": 48.1120665, "lon": -122.7681071}, {"type": "node", "id": 12634611002, "lat": 48.1120744, "lon": -122.7680884}, {"type": "node", "id": 12634611003, "lat": 48.11207, "lon": -122.7680651}, {"type": "node", "id": 12634611004, "lat": 48.1121401, "lon": -122.7678085}, {"type": "node", "id": 12634611005, "lat": 48.1121665, "lon": -122.7677463}, {"type": "node", "id": 12634611006, "lat": 48.1121924, "lon": -122.7677705}, {"type": "node", "id": 12634611007, "lat": 48.1121556, "lon": -122.7674947}, {"type": "node", "id": 12634611008, "lat": 48.1121487, "lon": -122.7675091}, {"type": "node", "id": 12634611009, "lat": 48.1120352, "lon": -122.7680771}, {"type": "node", "id": 12634611010, "lat": 48.1118989, "lon": -122.7679488}, {"type": "node", "id": 12634611011, "lat": 48.1118813, "lon": -122.7679551}, {"type": "node", "id": 12634611012, "lat": 48.1118685, "lon": -122.7679432}, {"type": "node", "id": 12634611013, "lat": 48.1118722, "lon": -122.7678978}, {"type": "node", "id": 12634611014, "lat": 48.1118904, "lon": -122.7678933}, {"type": "node", "id": 12634611015, "lat": 48.1119565, "lon": -122.7677339}, {"type": "node", "id": 12634611016, "lat": 48.1119527, "lon": -122.7677091}, {"type": "node", "id": 12634611017, "lat": 48.1119612, "lon": -122.7676886}, {"type": "node", "id": 12634611018, "lat": 48.1119752, "lon": -122.7676845}, {"type": "node", "id": 12634611019, "lat": 48.111989, "lon": -122.7676962}, {"type": "node", "id": 12634611020, "lat": 48.1119925, "lon": -122.7677184}, {"type": "node", "id": 12634611021, "lat": 48.1119945, "lon": -122.7677284}, {"type": "node", "id": 12634611022, "lat": 48.1119901, "lon": -122.7677242}, {"type": "node", "id": 12634611023, "lat": 48.1120415, "lon": -122.7676168}, {"type": "node", "id": 12634611024, "lat": 48.1120359, "lon": -122.7676114}, {"type": "node", "id": 12634611025, "lat": 48.1121402, "lon": -122.7678998}, {"type": "node", "id": 12634611026, "lat": 48.1121445, "lon": -122.7679005}, {"type": "node", "id": 12634611027, "lat": 48.1121493, "lon": -122.7678983}, {"type": "node", "id": 12634611028, "lat": 48.1121543, "lon": -122.7678946}, {"type": "node", "id": 12634611029, "lat": 48.1121681, "lon": -122.7678626}, {"type": "node", "id": 12634611030, "lat": 48.1121698, "lon": -122.7678534}, {"type": "node", "id": 12634611031, "lat": 48.1121683, "lon": -122.7678417}, {"type": "node", "id": 12634611032, "lat": 48.1121656, "lon": -122.7678328}, {"type": "node", "id": 12634611033, "lat": 48.112252, "lon": -122.7676288}, {"type": "node", "id": 12634611034, "lat": 48.1122574, "lon": -122.7676296}, {"type": "node", "id": 12634611035, "lat": 48.1122628, "lon": -122.767627}, {"type": "node", "id": 12634611036, "lat": 48.1122683, "lon": -122.7676226}, {"type": "node", "id": 12634611037, "lat": 48.1122718, "lon": -122.7676172}, {"type": "node", "id": 12634611038, "lat": 48.1122738, "lon": -122.7676107}, {"type": "node", "id": 12634611039, "lat": 48.1122745, "lon": -122.7676016}, {"type": "node", "id": 12634611040, "lat": 48.1122737, "lon": -122.7675918}, {"type": "node", "id": 12634611041, "lat": 48.11227, "lon": -122.7675816}, {"type": "node", "id": 12634611042, "lat": 48.1122617, "lon": -122.7675761}, {"type": "node", "id": 12634611043, "lat": 48.1122558, "lon": -122.7675755}, {"type": "node", "id": 12634611044, "lat": 48.1122491, "lon": -122.7675771}, {"type": "node", "id": 12634611045, "lat": 48.1122433, "lon": -122.7675804}, {"type": "node", "id": 12634611046, "lat": 48.1121335, "lon": -122.767494}, {"type": "node", "id": 12634611047, "lat": 48.1121371, "lon": -122.767485}, {"type": "node", "id": 12634611048, "lat": 48.1121388, "lon": -122.7674752}, {"type": "node", "id": 12634611049, "lat": 48.1121383, "lon": -122.7674658}, {"type": "node", "id": 12634611050, "lat": 48.1121354, "lon": -122.7674567}, {"type": "node", "id": 12634611051, "lat": 48.11213, "lon": -122.7674508}, {"type": "node", "id": 12634611052, "lat": 48.112119, "lon": -122.7674458}, {"type": "node", "id": 12634611053, "lat": 48.1121109, "lon": -122.7674504}, {"type": "node", "id": 12634611054, "lat": 48.112101, "lon": -122.7674614}, {"type": "node", "id": 12634611055, "lat": 48.1121794, "lon": -122.7677584}, {"type": "node", "id": 12634611056, "lat": 48.1121813, "lon": -122.7677687}, {"type": "node", "id": 12634611057, "lat": 48.1121842, "lon": -122.7677719}, {"type": "node", "id": 12634611058, "lat": 48.1121872, "lon": -122.7677732}, {"type": "node", "id": 12634611059, "lat": 48.1121902, "lon": -122.7677727}, {"type": "node", "id": 12634611060, "lat": 48.1121796, "lon": -122.7677633}, {"type": "node", "id": 12634643838, "lat": 48.1130595, "lon": -122.7604483}, {"type": "node", "id": 12634643839, "lat": 48.1130551, "lon": -122.7604586}, {"type": "node", "id": 12636046891, "lat": 48.1164839, "lon": -122.764313}, {"type": "node", "id": 12636046892, "lat": 48.1163652, "lon": -122.7646022}, {"type": "node", "id": 12636046893, "lat": 48.1162688, "lon": -122.7645134}, {"type": "node", "id": 12636046894, "lat": 48.1163875, "lon": -122.7642243}, {"type": "node", "id": 12639333203, "lat": 48.1121919, "lon": -122.7682862}, {"type": "node", "id": 12639333204, "lat": 48.1121597, "lon": -122.7682567}, {"type": "node", "id": 12639333205, "lat": 48.1120803, "lon": -122.7682691}, {"type": "node", "id": 12639333206, "lat": 48.1121358, "lon": -122.7681335}, {"type": "node", "id": 12639333209, "lat": 48.112268, "lon": -122.7674351, "tags": {"amenity": "bicycle_parking", "capacity": "4"}}, {"type": "node", "id": 12639333225, "lat": 48.1121634, "lon": -122.7673568, "tags": {"amenity": "bench"}}, {"type": "node", "id": 12639333226, "lat": 48.1121473, "lon": -122.7673426, "tags": {"amenity": "bench"}}, {"type": "node", "id": 12639333227, "lat": 48.1121323, "lon": -122.7673291, "tags": {"amenity": "bench"}}, {"type": "node", "id": 12639333228, "lat": 48.1120734, "lon": -122.767273, "tags": {"amenity": "bench"}}, {"type": "node", "id": 12639333229, "lat": 48.112057, "lon": -122.7672581, "tags": {"amenity": "bench"}}, {"type": "node", "id": 12639333230, "lat": 48.112043, "lon": -122.7672438, "tags": {"amenity": "bench"}}, {"type": "node", "id": 12639333291, "lat": 48.1118067, "lon": -122.7676772, "tags": {"amenity": "bench"}}, {"type": "node", "id": 12639333292, "lat": 48.111789, "lon": -122.7677254, "tags": {"amenity": "bench"}}, {"type": "node", "id": 12639333293, "lat": 48.1118485, "lon": -122.7677844, "tags": {"amenity": "bench"}}, {"type": "node", "id": 12639333294, "lat": 48.1118687, "lon": -122.7677338, "tags": {"amenity": "bench"}}, {"type": "node", "id": 12639333374, "lat": 48.1122581, "lon": -122.7675541}, {"type": "node", "id": 12639333375, "lat": 48.1122922, "lon": -122.7675855}, {"type": "node", "id": 12639333376, "lat": 48.1122001, "lon": -122.768158}, {"type": "node", "id": 12639333377, "lat": 48.1121665, "lon": -122.7683482}, {"type": "node", "id": 12639333378, "lat": 48.1120865, "lon": -122.7680882}, {"type": "node", "id": 12639333379, "lat": 48.112293, "lon": -122.7674688}, {"type": "node", "id": 12639333380, "lat": 48.1124167, "lon": -122.7675824}, {"type": "node", "id": 12639333381, "lat": 48.1122984, "lon": -122.7678715}, {"type": "node", "id": 12639333382, "lat": 48.1123545, "lon": -122.7679229}, {"type": "node", "id": 12639333383, "lat": 48.1122424, "lon": -122.7681968}, {"type": "node", "id": 12641065957, "lat": 48.1136286, "lon": -122.7711982}, {"type": "node", "id": 12641065958, "lat": 48.1137665, "lon": -122.7708569}, {"type": "node", "id": 12641065959, "lat": 48.113728, "lon": -122.770751}, {"type": "node", "id": 12641065960, "lat": 48.1136975, "lon": -122.770822}, {"type": "node", "id": 12641065961, "lat": 48.113548, "lon": -122.7706933}, {"type": "node", "id": 12641065962, "lat": 48.1135856, "lon": -122.77058}, {"type": "node", "id": 12641065963, "lat": 48.1135194, "lon": -122.770519}, {"type": "node", "id": 12641065964, "lat": 48.1135655, "lon": -122.7703983}, {"type": "node", "id": 12641065965, "lat": 48.1138113, "lon": -122.7706336}, {"type": "node", "id": 12641065966, "lat": 48.113878, "lon": -122.7708603}, {"type": "node", "id": 12641065967, "lat": 48.1138198, "lon": -122.7709018}, {"type": "node", "id": 12641065968, "lat": 48.1138623, "lon": -122.7709515}, {"type": "node", "id": 12641065969, "lat": 48.113839, "lon": -122.7710031}, {"type": "node", "id": 12641065970, "lat": 48.1137275, "lon": -122.77128}, {"type": "node", "id": 12641081720, "lat": 48.1114557, "lon": -122.7716555}, {"type": "node", "id": 12641081721, "lat": 48.1114038, "lon": -122.7717378}, {"type": "node", "id": 12641081722, "lat": 48.1114121, "lon": -122.7717243}, {"type": "node", "id": 12641081727, "lat": 48.1109515, "lon": -122.77044}, {"type": "node", "id": 12641081728, "lat": 48.1109456, "lon": -122.7704539}, {"type": "node", "id": 12641081729, "lat": 48.1108573, "lon": -122.7708659}, {"type": "node", "id": 12641081730, "lat": 48.1108405, "lon": -122.7708497}, {"type": "node", "id": 12641081731, "lat": 48.1107905, "lon": -122.7709668}, {"type": "node", "id": 12641081732, "lat": 48.1107449, "lon": -122.770923}, {"type": "node", "id": 12641081733, "lat": 48.1107086, "lon": -122.770294}, {"type": "node", "id": 12641081734, "lat": 48.1107045, "lon": -122.7702902}, {"type": "node", "id": 12641081735, "lat": 48.1107592, "lon": -122.7703028}, {"type": "node", "id": 12641081736, "lat": 48.1107676, "lon": -122.7702832}, {"type": "node", "id": 12641081737, "lat": 48.1106649, "lon": -122.7703703}, {"type": "node", "id": 12641081738, "lat": 48.1106687, "lon": -122.770374}, {"type": "node", "id": 12644230260, "lat": 48.1140501, "lon": -122.7589002}, {"type": "node", "id": 12644230261, "lat": 48.1141033, "lon": -122.758407}, {"type": "node", "id": 12644230262, "lat": 48.113942, "lon": -122.7587931}, {"type": "node", "id": 12644230263, "lat": 48.1142132, "lon": -122.75851}, {"type": "node", "id": 12644230264, "lat": 48.1139287, "lon": -122.7590378}, {"type": "node", "id": 12644230265, "lat": 48.1136419, "lon": -122.7587688}, {"type": "node", "id": 12644230266, "lat": 48.1137191, "lon": -122.7585841}, {"type": "node", "id": 12644237861, "lat": 48.1130904, "lon": -122.7600494}, {"type": "node", "id": 12644237862, "lat": 48.113078, "lon": -122.7600384}, {"type": "node", "id": 12644237863, "lat": 48.1131794, "lon": -122.759782}, {"type": "node", "id": 12644237864, "lat": 48.1132368, "lon": -122.7598329}, {"type": "node", "id": 12644237865, "lat": 48.1133238, "lon": -122.759613}, {"type": "node", "id": 12644237866, "lat": 48.1134213, "lon": -122.7596995}, {"type": "node", "id": 12644237867, "lat": 48.1134452, "lon": -122.7596391}, {"type": "node", "id": 12644237868, "lat": 48.1135407, "lon": -122.7597239}, {"type": "node", "id": 12644237869, "lat": 48.113501, "lon": -122.7598244}, {"type": "node", "id": 12644237870, "lat": 48.113557, "lon": -122.7598741}, {"type": "node", "id": 12644237871, "lat": 48.1134624, "lon": -122.7601132}, {"type": "node", "id": 12644237872, "lat": 48.1132659, "lon": -122.7599388}, {"type": "node", "id": 12644237873, "lat": 48.1131734, "lon": -122.7601728}, {"type": "node", "id": 12644237874, "lat": 48.1131243, "lon": -122.7601292}, {"type": "node", "id": 12644237875, "lat": 48.1130896, "lon": -122.7602168}, {"type": "node", "id": 12644237876, "lat": 48.1130412, "lon": -122.7601739}, {"type": "node", "id": 12644237886, "lat": 48.1129499, "lon": -122.7604617}, {"type": "node", "id": 12644237887, "lat": 48.1129747, "lon": -122.7603916}, {"type": "node", "id": 12644237888, "lat": 48.1131122, "lon": -122.7605132}, {"type": "node", "id": 12644237889, "lat": 48.1130799, "lon": -122.7605888}, {"type": "node", "id": 12644237890, "lat": 48.1131449, "lon": -122.7606459}, {"type": "node", "id": 12644237891, "lat": 48.1130898, "lon": -122.760755}, {"type": "node", "id": 12644237892, "lat": 48.1130343, "lon": -122.7608288}, {"type": "node", "id": 12644237893, "lat": 48.1129942, "lon": -122.7607922}, {"type": "node", "id": 12644237894, "lat": 48.1129784, "lon": -122.760822}, {"type": "node", "id": 12644237895, "lat": 48.1128873, "lon": -122.7607358}, {"type": "node", "id": 12644237896, "lat": 48.1129528, "lon": -122.7605597}, {"type": "node", "id": 12644237897, "lat": 48.1129445, "lon": -122.7605516}, {"type": "node", "id": 12644237898, "lat": 48.1127771, "lon": -122.7612037}, {"type": "node", "id": 12644237899, "lat": 48.1127516, "lon": -122.7612662}, {"type": "node", "id": 12644237900, "lat": 48.1126205, "lon": -122.761146}, {"type": "node", "id": 12644259601, "lat": 48.1128001, "lon": -122.7607066}, {"type": "node", "id": 12644259602, "lat": 48.1129706, "lon": -122.7608629}, {"type": "node", "id": 12644259603, "lat": 48.1129425, "lon": -122.7609317}, {"type": "node", "id": 12644259604, "lat": 48.1129829, "lon": -122.7609688}, {"type": "node", "id": 12644259605, "lat": 48.1128569, "lon": -122.7612769}, {"type": "node", "id": 12645166880, "lat": 48.1154915, "lon": -122.7591638}, {"type": "node", "id": 12645166881, "lat": 48.1155067, "lon": -122.7591298}, {"type": "node", "id": 12645166882, "lat": 48.1155236, "lon": -122.7592535}, {"type": "node", "id": 12645166883, "lat": 48.1154998, "lon": -122.7592297}, {"type": "node", "id": 12645166980, "lat": 48.1149284, "lon": -122.7610416}, {"type": "node", "id": 12645166981, "lat": 48.1150192, "lon": -122.7608143}, {"type": "node", "id": 12645166982, "lat": 48.1150526, "lon": -122.7608442}, {"type": "node", "id": 12645166983, "lat": 48.1150794, "lon": -122.7607771}, {"type": "node", "id": 12645166984, "lat": 48.1152343, "lon": -122.760916}, {"type": "node", "id": 12645166985, "lat": 48.1152074, "lon": -122.7609835}, {"type": "node", "id": 12645166986, "lat": 48.1152455, "lon": -122.7610177}, {"type": "node", "id": 12645166987, "lat": 48.1151549, "lon": -122.7612446}, {"type": "node", "id": 12645467650, "lat": 48.1167763, "lon": -122.7639201}, {"type": "node", "id": 12645467651, "lat": 48.1167575, "lon": -122.7639006}, {"type": "node", "id": 12645467652, "lat": 48.1168076, "lon": -122.7637819}, {"type": "node", "id": 12645467653, "lat": 48.1168282, "lon": -122.7638007}, {"type": "node", "id": 12645467654, "lat": 48.1169106, "lon": -122.7635935}, {"type": "node", "id": 12645467655, "lat": 48.1168604, "lon": -122.7635452}, {"type": "node", "id": 12645467656, "lat": 48.1167091, "lon": -122.7639194}, {"type": "node", "id": 12645467657, "lat": 48.1166773, "lon": -122.7638838}, {"type": "node", "id": 12645467658, "lat": 48.1166048, "lon": -122.7640649}, {"type": "node", "id": 12645467659, "lat": 48.1166281, "lon": -122.7641353}, {"type": "node", "id": 12645467660, "lat": 48.1166209, "lon": -122.7641521}, {"type": "node", "id": 12645467661, "lat": 48.1166643, "lon": -122.7641869}, {"type": "node", "id": 12645467696, "lat": 48.1164537, "lon": -122.7639968}, {"type": "node", "id": 12645467697, "lat": 48.1165231, "lon": -122.7638322}, {"type": "node", "id": 12645467698, "lat": 48.116511, "lon": -122.7637497}, {"type": "node", "id": 12645467699, "lat": 48.1165294, "lon": -122.7637082}, {"type": "node", "id": 12645467700, "lat": 48.1166563, "lon": -122.7638262}, {"type": "node", "id": 12645530001, "lat": 48.1165524, "lon": -122.7640837}, {"type": "node", "id": 12645530218, "lat": 48.1167405, "lon": -122.7635286}, {"type": "node", "id": 12645614033, "lat": 48.1172651, "lon": -122.7619527}, {"type": "node", "id": 12645614034, "lat": 48.1170753, "lon": -122.7617803}, {"type": "node", "id": 12645614035, "lat": 48.1171174, "lon": -122.7617394}, {"type": "node", "id": 12645614036, "lat": 48.1173027, "lon": -122.7619097}, {"type": "node", "id": 12645614037, "lat": 48.117274, "lon": -122.7620499}, {"type": "node", "id": 12645614038, "lat": 48.1170495, "lon": -122.7618425}, {"type": "node", "id": 12645614039, "lat": 48.1170216, "lon": -122.7619101}, {"type": "node", "id": 12645614040, "lat": 48.1172462, "lon": -122.7621175}, {"type": "node", "id": 12645614041, "lat": 48.1170496, "lon": -122.7622659}, {"type": "node", "id": 12645614042, "lat": 48.1170594, "lon": -122.7622419}, {"type": "node", "id": 12660512771, "lat": 48.1219448, "lon": -122.7557969}, {"type": "node", "id": 12687547590, "lat": 48.1215836, "lon": -122.7774887}, {"type": "node", "id": 12687547591, "lat": 48.1215598, "lon": -122.7775899}, {"type": "node", "id": 12687547592, "lat": 48.1214641, "lon": -122.7775463}, {"type": "node", "id": 12687547593, "lat": 48.1213897, "lon": -122.7775256}, {"type": "node", "id": 12687547594, "lat": 48.1213575, "lon": -122.7775504}, {"type": "node", "id": 12687547595, "lat": 48.1213678, "lon": -122.7776677}, {"type": "node", "id": 12687547596, "lat": 48.1214211, "lon": -122.7776684}, {"type": "node", "id": 12687547597, "lat": 48.1214175, "lon": -122.7778025}, {"type": "node", "id": 12687547598, "lat": 48.1216015, "lon": -122.7777857}, {"type": "node", "id": 12687547599, "lat": 48.1216476, "lon": -122.7777529}, {"type": "node", "id": 12687547600, "lat": 48.1216821, "lon": -122.7776898}, {"type": "node", "id": 12687566001, "lat": 48.121704, "lon": -122.7775732}, {"type": "node", "id": 12687566002, "lat": 48.1217089, "lon": -122.7774263}, {"type": "node", "id": 12704710384, "lat": 48.1182039, "lon": -122.7684934}, {"type": "node", "id": 12704710385, "lat": 48.1182261, "lon": -122.7684974}, {"type": "node", "id": 12704710386, "lat": 48.1182339, "lon": -122.7685039}, {"type": "node", "id": 12704710387, "lat": 48.1182448, "lon": -122.7685303}, {"type": "node", "id": 12704710388, "lat": 48.1182468, "lon": -122.7685398}, {"type": "node", "id": 12704710389, "lat": 48.1182443, "lon": -122.768566}, {"type": "node", "id": 12704710390, "lat": 48.1182348, "lon": -122.7685881}, {"type": "node", "id": 12704710391, "lat": 48.1182219, "lon": -122.7686025}, {"type": "node", "id": 12704710392, "lat": 48.118214, "lon": -122.7686052}, {"type": "node", "id": 12704710393, "lat": 48.1181919, "lon": -122.7686002}, {"type": "node", "id": 12704710394, "lat": 48.1181967, "lon": -122.7684957}, {"type": "node", "id": 12704710395, "lat": 48.1181828, "lon": -122.7685093}, {"type": "node", "id": 12704710396, "lat": 48.1181742, "lon": -122.7685314}, {"type": "node", "id": 12704710397, "lat": 48.1181715, "lon": -122.7685563}, {"type": "node", "id": 12704710398, "lat": 48.1181743, "lon": -122.7685683}, {"type": "node", "id": 12704710399, "lat": 48.1181861, "lon": -122.768594}, {"type": "node", "id": 12705362581, "lat": 48.1184186, "lon": -122.7821163}, {"type": "node", "id": 12705362582, "lat": 48.1184184, "lon": -122.7820807}, {"type": "node", "id": 12705362583, "lat": 48.1184182, "lon": -122.782046}, {"type": "node", "id": 12705362584, "lat": 48.118418, "lon": -122.7820112}, {"type": "node", "id": 12705362585, "lat": 48.1184178, "lon": -122.781977}, {"type": "node", "id": 12705362586, "lat": 48.1184176, "lon": -122.7819424}, {"type": "node", "id": 12705362587, "lat": 48.1184175, "lon": -122.7819078}, {"type": "node", "id": 12705362588, "lat": 48.1184173, "lon": -122.7818727}, {"type": "node", "id": 12705362589, "lat": 48.1184171, "lon": -122.7818387}, {"type": "node", "id": 12705362590, "lat": 48.1184169, "lon": -122.7818037}, {"type": "node", "id": 12705362591, "lat": 48.1184167, "lon": -122.781769}, {"type": "node", "id": 12705362592, "lat": 48.1184165, "lon": -122.7817341}, {"type": "node", "id": 12705362593, "lat": 48.1184163, "lon": -122.7817002}, {"type": "node", "id": 12705362594, "lat": 48.1183666, "lon": -122.7821169}, {"type": "node", "id": 12705362595, "lat": 48.1183664, "lon": -122.7820814}, {"type": "node", "id": 12705362596, "lat": 48.1183662, "lon": -122.7820466}, {"type": "node", "id": 12705362597, "lat": 48.118366, "lon": -122.7820119}, {"type": "node", "id": 12705362598, "lat": 48.1183658, "lon": -122.7819776}, {"type": "node", "id": 12705362599, "lat": 48.1183656, "lon": -122.781943}, {"type": "node", "id": 12705362600, "lat": 48.1183654, "lon": -122.7819085}, {"type": "node", "id": 12705362601, "lat": 48.1183652, "lon": -122.7818734}, {"type": "node", "id": 12705362602, "lat": 48.118365, "lon": -122.7818393}, {"type": "node", "id": 12705362603, "lat": 48.1183649, "lon": -122.7818044}, {"type": "node", "id": 12705362604, "lat": 48.1183647, "lon": -122.7817696}, {"type": "node", "id": 12705362605, "lat": 48.1183645, "lon": -122.7817347}, {"type": "node", "id": 12705362606, "lat": 48.1183643, "lon": -122.7817008}, {"type": "node", "id": 12705362607, "lat": 48.1184161, "lon": -122.7816572}, {"type": "node", "id": 12705362608, "lat": 48.1184188, "lon": -122.7821507}, {"type": "node", "id": 12705362609, "lat": 48.1183667, "lon": -122.7821514}, {"type": "node", "id": 12705362610, "lat": 48.1183641, "lon": -122.7816578}, {"type": "node", "id": 12705362611, "lat": 48.1182683, "lon": -122.7821875}, {"type": "node", "id": 12705362612, "lat": 48.1182691, "lon": -122.7822621}, {"type": "node", "id": 12705362613, "lat": 48.1182457, "lon": -122.7822627}, {"type": "node", "id": 12705362614, "lat": 48.1182449, "lon": -122.7821881}, {"type": "node", "id": 12705362615, "lat": 48.1183193, "lon": -122.7822606}, {"type": "node", "id": 12705362616, "lat": 48.1182898, "lon": -122.7822613}, {"type": "node", "id": 12705362617, "lat": 48.118289, "lon": -122.782187}, {"type": "node", "id": 12705362618, "lat": 48.1183455, "lon": -122.7822595}, {"type": "node", "id": 12705362619, "lat": 48.1183185, "lon": -122.7821862}, {"type": "node", "id": 12705362620, "lat": 48.1183447, "lon": -122.7821856}, {"type": "node", "id": 12707194001, "lat": 48.1141278, "lon": -122.7746769, "tags": {"addr:housenumber": "939", "addr:street": "Kearney Street", "amenity": "cafe", "name": "Dove House Recovery Cafe", "opening_hours": "Tu-Fr 09:00-16:00", "website": "http://recoverycafejc.org"}}, {"type": "node", "id": 12779150368, "lat": 48.1228413, "lon": -122.7741974}, {"type": "node", "id": 12779150369, "lat": 48.1228349, "lon": -122.7742624}, {"type": "node", "id": 12779150370, "lat": 48.1224735, "lon": -122.774664}, {"type": "node", "id": 12779150371, "lat": 48.1225021, "lon": -122.7746036}, {"type": "node", "id": 12779150372, "lat": 48.1224878, "lon": -122.7746331}, {"type": "node", "id": 12779150373, "lat": 48.1224211, "lon": -122.7746643}, {"type": "node", "id": 12779150374, "lat": 48.1224876, "lon": -122.7745299}, {"type": "node", "id": 12779150375, "lat": 48.122518, "lon": -122.7745755}, {"type": "node", "id": 12779150376, "lat": 48.1224614, "lon": -122.7746942}, {"type": "node", "id": 12779150377, "lat": 48.1221174, "lon": -122.7743775}, {"type": "node", "id": 12779150378, "lat": 48.1221211, "lon": -122.7743683}, {"type": "node", "id": 12779150379, "lat": 48.1221196, "lon": -122.774373}, {"type": "node", "id": 12779150380, "lat": 48.122343, "lon": -122.7742668}, {"type": "node", "id": 12779150381, "lat": 48.1221212, "lon": -122.7742714}, {"type": "node", "id": 12779150382, "lat": 48.1221221, "lon": -122.7743626}, {"type": "node", "id": 12779150383, "lat": 48.1221145, "lon": -122.774381}, {"type": "node", "id": 12779150384, "lat": 48.1223439, "lon": -122.7744078}, {"type": "node", "id": 12779150385, "lat": 48.1222995, "lon": -122.7744688}, {"type": "node", "id": 12779150386, "lat": 48.1221124, "lon": -122.7744709}, {"type": "node", "id": 12779150387, "lat": 48.1228716, "lon": -122.7742067}, {"type": "node", "id": 12779150388, "lat": 48.12286, "lon": -122.7742694}, {"type": "node", "id": 12779150389, "lat": 48.1228996, "lon": -122.774223}, {"type": "node", "id": 12779150390, "lat": 48.122919, "lon": -122.7742341}, {"type": "node", "id": 12779150391, "lat": 48.1229038, "lon": -122.7742942}, {"type": "node", "id": 12779150392, "lat": 48.1228844, "lon": -122.7742831}, {"type": "node", "id": 12779150393, "lat": 48.1229435, "lon": -122.7743183}, {"type": "node", "id": 12779150394, "lat": 48.1229645, "lon": -122.7742647}, {"type": "node", "id": 12779150395, "lat": 48.1229332, "lon": -122.7742439}, {"type": "node", "id": 12779150396, "lat": 48.1229179, "lon": -122.7743026}, {"type": "node", "id": 13066520389, "lat": 48.1148724, "lon": -122.7571798, "tags": {"addr:city": "Port Townsend", "addr:housenumber": "237", "addr:postcode": "98368", "addr:state": "WA", "addr:street": "Taylor Street", "addr:unit": "2F", "internet_access": "wlan", "internet_access:fee": "customers", "name": "The CoLab", "office": "coworking", "opening_hours": "24/7", "phone": "+1-206-612-3314", "website": "https://www.colabnw.com/"}}, {"type": "node", "id": 13104012091, "lat": 48.1120751, "lon": -122.7675188}, {"type": "node", "id": 13104012094, "lat": 48.1120718, "lon": -122.7674682, "tags": {"amenity": "clock", "date": "no", "display": "analog", "faces": "4", "seamark:landmark:category": "tower", "seamark:landmark:conspicuity": "visually conspicuous", "seamark:landmark:function": "clock", "seamark:type": "landmark", "support": "wall_mounted", "visibility": "area"}}, {"type": "way", "id": 53626740, "nodes": [677316810, 677316804, 9553110398, 677316812, 677316779, 677316817, 5426651425, 5426651424, 5426623829, 9553110385, 5426656022, 677316806, 677316795, 677316782, 9553110389, 677316773, 677316799, 9473265057, 9553110391, 677316786, 677316810], "tags": {"addr:city": "Port Townsend", "addr:country": "US", "addr:county": "Jefferson", "addr:housenumber": "375", "addr:postcode": "98368", "addr:state": "WA", "addr:street": "Hudson Street", "building": "yes", "name": "Port Administration", "office": "government", "source": "Jefferson County Washington Open Data Site"}}, {"type": "way", "id": 77086668, "nodes": [907764657, 12634611012, 12634611011, 12634611010, 12634611009, 907764659, 12634611000, 12634611001, 12634611002, 12634611003, 12634611025, 12634611026, 12634611027, 12634611028, 12634611029, 12634611030, 12634611031, 12634611032, 12634611004, 12634611005, 12634611055, 12634611060, 12634611056, 12634611057, 12634611058, 12634611059, 12634611006, 12634611033, 12634611034, 12634611035, 12634611036, 12634611037, 12634611038, 12634611039, 12634611040, 12634611041, 12634611042, 12634611043, 12634611044, 12634611045, 907764661, 12634611007, 12634611008, 12634611046, 12634611047, 12634611048, 12634611049, 12634611050, 12634611051, 12634611052, 12634611053, 907764663, 12634611054, 13104012091, 12634611024, 12634611023, 12634611021, 12634611022, 12634611020, 12634611019, 12634611018, 12634611017, 12634611016, 12634611015, 12634611014, 12634611013, 907764657], "tags": {"addr:city": "Port Townsend", "addr:housenumber": "1820", "addr:postcode": "98368", "addr:street": "Jefferson Street", "amenity": "courthouse", "building": "yes", "name": "Jefferson County Courthouse"}}, {"type": "way", "id": 135500347, "nodes": [9473274611, 1488255728, 1488255738, 1488255727, 9473274611], "tags": {"addr:city": "Port Townsend", "addr:country": "US", "addr:county": "Jefferson", "addr:housenumber": "2611", "addr:postcode": "98368", "addr:state": "WA", "addr:street": "East Sims Way", "building": "yes", "designation": "Safeway 4608", "name": "Safeway Convenience Store", "shop": "convenience", "source": "Jefferson County Washington Open Data Site", "website": "https://local.safeway.com/wa/port-townsend-4608.html"}}, {"type": "way", "id": 135500349, "nodes": [1488255741, 1488255731, 1488255742, 1488255733, 1488255741], "tags": {"addr:housenumber": "4611", "addr:postcode": "98368", "addr:street": "East Sims Way", "amenity": "fuel", "brand": "Safeway", "brand:wikidata": "Q1508234", "building": "yes", "designation": "Safeway 4608", "name": "Safeway Fuel Station", "operator": "Safeway", "website": "https://local.fuel.safeway.com/safeway/wa/port-townsend/2611-e-sims-way.html"}}, {"type": "way", "id": 203297485, "nodes": [2133031260, 2133031266, 2133031264, 9551682963, 9551682964, 2133031265, 2133031263, 2133031267, 9551682975, 2133031261, 9551699176, 9551699177, 9551682967, 9551682950, 9551682956, 9551682962, 9551682955, 9551682961, 9551682960, 9551682954, 9551682959, 9551682953, 9551682958, 9551682949, 9551682957, 9551682952, 9551682951, 2133031262, 9551682965, 2133031260], "tags": {"addr:city": "Port Townsend", "addr:country": "US", "addr:county": "Jefferson", "addr:housenumber": "1322", "addr:postcode": "98368", "addr:state": "WA", "addr:street": "Washington Street", "amenity": "post_office", "building": "yes", "description": "Port Townsend was the U.S. Customs Headquarters of the Puget Sound from 1854 when the Port of Entry was moved from Olympia. Ships were required to put into port for inspection, strengthening the local economy. Solely as post office since 1913.", "heritage": "2", "heritage:operator": "nrhp", "heritage:website": "https://www.nps.gov/subjects/nationalregister/index.htm", "historic": "maritime", "name": "Port Townsend Post Office", "nrhp:criteria": "(A), (C)", "nrhp:inscription_date": "1991-05-30", "old_name:1893-1913": "Port Townsend US Custom House and Post Office", "operator": "United States Postal Service", "operator:short": "USPS", "operator:type": "public", "operator:website": "https://www.usps.com", "operator:wikidata": "Q668687", "operator:wikipedia": "en:United States Postal Service", "protection_title": "U.S. Postal Service", "ref:nrhp": "91000652", "source": "Jefferson County Washington Open Data Site", "source_ref": "https://catalog.archives.gov/id/75611110", "start_date": "1893", "wikidata": "Q7890901", "wikipedia": "en:United States Post Office \u2013 Port Townsend Main"}}, {"type": "way", "id": 211411833, "nodes": [9473272023, 12641081732, 12641081731, 12641081730, 12641081729, 2214210637, 12641081727, 12641081728, 12641081736, 12641081735, 2214210908, 12641081733, 12641081734, 12641081738, 12641081737, 2214210722, 2214210404, 2214210509, 9473272023], "tags": {"addr:city": "Port Townsend", "addr:country": "US", "addr:county": "Jefferson", "addr:housenumber": "414", "addr:postcode": "98368", "addr:state": "WA", "addr:street": "Kearney Street", "building": "yes", "name": "The Food Co-op", "shop": "supermarket", "source": "Jefferson County Washington Open Data Site", "website": "https://www.foodcoop.coop/"}}, {"type": "way", "id": 212097934, "nodes": [9473275752, 2294803658, 5439080661, 5439080847, 5439080760, 2219903198, 2219903205, 5439080657, 5439081033, 5439080759, 5439080658, 2219903201, 5439080659, 5439080660, 9473275752], "tags": {"addr:city": "Port Townsend", "addr:country": "US", "addr:county": "Jefferson", "addr:housenumber": "218", "addr:postcode": "98368", "addr:state": "WA", "addr:street": "West Sims Way", "building": "commercial", "name": "Henery's Hardware", "shop": "hardware", "source": "Jefferson County Washington Open Data Site"}}, {"type": "way", "id": 214954366, "nodes": [2243994428, 2243994420, 2243994424, 2243994421, 2243994426, 2243994422, 2243994428], "tags": {"building": "yes", "office": "government"}}, {"type": "way", "id": 214957309, "nodes": [5426656032, 9991968270, 2244014199, 2285938818, 6728017755, 2244014202, 2128126279, 12417004366, 5426656032], "tags": {"access": "yes", "amenity": "parking", "parking": "surface"}}, {"type": "way", "id": 214960917, "nodes": [2244038993, 2244038997, 2244038995, 9473266739, 2244038993], "tags": {"addr:city": "Port Townsend", "addr:country": "US", "addr:county": "Jefferson", "addr:housenumber": "940", "addr:postcode": "98368", "addr:state": "WA", "addr:street": "Lawrence Street", "building": "yes", "name": "Aldrich's Market", "opening_hours": "Mo-Su 07:00-21:00", "shop": "supermarket", "source": "Jefferson County Washington Open Data Site", "website": "https://aldrichs.com/"}}, {"type": "way", "id": 214961566, "nodes": [1297879867, 2244045935, 2244045932, 2244045934, 1297879867], "tags": {"amenity": "fire_station", "building": "yes"}}, {"type": "way", "id": 219432851, "nodes": [12631335212, 12631335223, 12631335228, 12631335229, 12631335225, 12631335226, 12631335201, 12631325900, 12631335203, 12631335204, 12631335202, 12631325898, 12631335205, 12631335216, 12631335218, 12631335231, 12631335209, 12631335208, 12631335230, 12631335227, 12631335222, 12631335211, 12631335207, 12163239951, 12163239950, 12163239947, 12163239948, 12163239949, 12163239956, 12631335224, 12631335220, 12631335219, 12631335217, 12631335210, 12631335214, 12631335215, 12631335206, 12631335221, 12631335213, 12631335212], "tags": {"amenity": "school", "contact:facebook": "https://www.facebook.com/PortTownsendHighSchool/", "email": "communication@ptschools.org", "fax": "+1-360-379-4506", "mascot": "Redhawks", "name": "Port Townsend High School", "phone": "+1-360-379-4520", "website": "https://highschool.ptschools.org/"}}, {"type": "way", "id": 220351636, "nodes": [2294824530, 2294824534, 2294824537, 2294824538, 2294824540, 2294824542, 9473265033, 12645530218, 2294824546, 2294824544, 2294824530], "tags": {"addr:city": "Port Townsend", "addr:country": "US", "addr:county": "Jefferson", "addr:housenumber": "1220", "addr:postcode": "98368", "addr:state": "WA", "addr:street": "Lawrence Street", "amenity": "library", "building": "yes", "name": "Port Townsend Public Library", "operator": "City of Port Townsend", "operator:type": "government", "source": "Jefferson County Washington Open Data Site", "wikidata": "Q69764026"}}, {"type": "way", "id": 222503909, "nodes": [2314651698, 2314651699, 2314651700, 2314651701, 2314651698], "tags": {"addr:city": "Port Townsend", "addr:housenumber": "609", "addr:postcode": "98368", "addr:state": "WA", "addr:street": "Washington Street", "amenity": "restaurant", "building": "yes", "name": "Banana Leaf Thai Bistro", "opening_hours": "Mo-Tu,Th-Fr 11:00-15:00,16:00-20:30; Sa-Su 11:00-20:30", "website": "https://www.bananaleafthaibistro.net/"}}, {"type": "way", "id": 222651894, "nodes": [9473264540, 2315952453, 2315952454, 2315952455, 9473264540], "tags": {"addr:city": "Port Townsend", "addr:country": "US", "addr:county": "Jefferson", "addr:housenumber": "1220", "addr:postcode": "98368", "addr:state": "WA", "addr:street": "Water Street", "building": "retail", "source": "Jefferson County Washington Open Data Site"}}, {"type": "way", "id": 222651896, "nodes": [2315952465, 5423835228, 2315952460, 5423834746, 5423828130, 5423828131, 5423834730, 5423828132, 2315952462]}, {"type": "way", "id": 224367628, "nodes": [2331829573, 2331829577, 11784774696, 2331829579, 2331829573], "tags": {"addr:city": "Port Townsend", "addr:country": "US", "addr:county": "Jefferson", "addr:housenumber": "711", "addr:postcode": "98368", "addr:state": "WA", "addr:street": "Water Street", "amenity": "restaurant", "building": "retail", "check_date": "2024-04-03", "contact:instagram": "https://www.instagram.com/Tommyknockers_pt", "cuisine": "british", "name": "Tommyknocker's", "source": "Jefferson County Washington Open Data Site"}}, {"type": "way", "id": 224367630, "nodes": [2331829581, 9473268530, 2331829587, 2331829588, 2331829581], "tags": {"addr:city": "Port Townsend", "addr:country": "US", "addr:county": "Jefferson", "addr:housenumber": "715", "addr:postcode": "98368", "addr:state": "WA", "addr:street": "Water Street", "building": "yes", "check_date": "2024-04-03", "fee": "no", "name": "Port Townsend Gallery", "shop": "art", "source": "Jefferson County Washington Open Data Site", "tourism": "gallery", "website": "http://porttownsendgallery.com/"}}, {"type": "way", "id": 224367935, "nodes": [2331831934, 5441324551, 691131939, 5441324550, 5441324548, 2331831932, 2331831933, 2331831934], "tags": {"access": "customers", "amenity": "parking", "name": "Back Alley", "parking": "surface", "surface": "gravel"}}, {"type": "way", "id": 224367936, "nodes": [6119835586, 2243954614, 2243954619, 2331831935, 2331831936, 6119835586], "tags": {"amenity": "parking", "parking": "lane"}}, {"type": "way", "id": 224370222, "nodes": [9473279838, 2331850564, 2331850565, 2331850566, 2331850567, 2331850568, 2331850569, 2331850570, 12634643839, 12634643838, 9473279838], "tags": {"addr:city": "Port Townsend", "addr:country": "US", "addr:county": "Jefferson", "addr:housenumber": "1210", "addr:postcode": "98368", "addr:state": "WA", "addr:street": "Water Street", "building": "retail", "source": "Jefferson County Washington Open Data Site"}}, {"type": "way", "id": 235500493, "nodes": [2435528449, 2435528451, 2435528453, 2435528454, 2435528456, 2435528457, 2435528459, 2435528460, 2435528462, 2435528463, 2435528465, 5441324522, 5441324531, 5441324621, 5441324523, 5441324532, 5441324521, 2435528467, 2435528449], "tags": {"addr:housenumber": "734", "addr:street": "Water Street", "amenity": "bank", "atm": "yes", "building": "yes", "check_date": "2023-07-30", "drive_through": "yes", "name": "1st Security Bank"}}, {"type": "way", "id": 235500852, "nodes": [2435533246, 2435533248, 2435533249, 2435533250, 2435533246], "tags": {"building": "commercial", "name": "The Leader", "office": "newspaper", "start_date": "1869"}}, {"type": "way", "id": 236425217, "nodes": [9473275810, 2444606489, 2444606490, 2444606491, 9473275810], "tags": {"addr:city": "Port Townsend", "addr:country": "US", "addr:county": "Jefferson", "addr:housenumber": "2140", "addr:postcode": "98368", "addr:state": "WA", "addr:street": "East Sims Way", "building": "yes", "name": "Penny Saver", "shop": "convenience", "source": "Jefferson County Washington Open Data Site"}}, {"type": "way", "id": 236426579, "nodes": [2444617431, 2444617432, 2444617433, 2444617434, 12645614041, 12645614042, 2444617431], "tags": {"amenity": "cinema", "building": "yes", "name": "Uptown Theater", "screen": "1", "website": "https://www.ptuptowntheatre.com/", "wikidata": "Q43305790"}}, {"type": "way", "id": 244115009, "nodes": [2514652209, 12128182334, 12128182330, 2514652210, 4530752926, 4530752927, 2514652211, 2514652212, 4530752928, 4530752929, 4530752930, 4530752931, 4530752932, 2514652213, 4530752933, 12631646211, 2514652214, 2514652209], "tags": {"amenity": "parking"}}, {"type": "way", "id": 281880146, "nodes": [2858399931, 6702355653, 2858399933, 2858399934, 2858399931], "tags": {"amenity": "toilets", "building": "yes"}}, {"type": "way", "id": 304036937, "nodes": [3085521423, 9473264553, 3085521425, 3085521426, 3085521423], "tags": {"addr:city": "Port Townsend", "addr:country": "US", "addr:county": "Jefferson", "addr:housenumber": "2800", "addr:postcode": "98368", "addr:state": "WA", "addr:street": "Washington Street", "amenity": "cafe", "building": "commercial", "name": "Marina Cafe", "source": "Jefferson County Washington Open Data Site"}}, {"type": "way", "id": 304037306, "nodes": [9473275002, 9473266558, 3085525907, 3085525911, 3085525912, 9473275002], "tags": {"addr:city": "Port Townsend", "addr:country": "US", "addr:county": "Jefferson", "addr:housenumber": "2428", "addr:postcode": "98368", "addr:state": "WA", "addr:street": "Washington Street", "amenity": "cafe", "building": "yes", "name": "Marina Cafe", "source": "Jefferson County Washington Open Data Site"}}, {"type": "way", "id": 304037312, "nodes": [3085526249, 3085526250, 3085526251, 3085526252, 3085526253, 12011139436, 3085526255, 9473275272, 12128127599, 3085526249], "tags": {"addr:city": "Port Townsend", "addr:country": "US", "addr:county": "Jefferson", "addr:housenumber": "2313", "addr:postcode": "98368", "addr:state": "WA", "addr:street": "East Sims Way", "amenity": "bank", "building": "commercial", "name": "Kitsap Bank", "source": "Jefferson County Washington Open Data Site"}}, {"type": "way", "id": 304037671, "nodes": [3085528414, 12011139428, 3085528416, 9473272219, 3085528418, 3085528419, 3085528414], "tags": {"addr:city": "Port Townsend", "addr:country": "US", "addr:county": "Jefferson", "addr:housenumber": "406", "addr:postcode": "98368", "addr:state": "WA", "addr:street": "Benedict Street", "building": "commercial", "name": "Port Townsend Garden Center", "shop": "garden_centre", "source": "Jefferson County Washington Open Data Site"}}, {"type": "way", "id": 304037675, "nodes": [9473275536, 3085528947, 3085528948, 3085528949, 9473275536], "tags": {"addr:city": "Port Townsend", "addr:country": "US", "addr:county": "Jefferson", "addr:housenumber": "2231", "addr:postcode": "98368", "addr:state": "WA", "addr:street": "Washington Street", "amenity": "pub", "brewery": "yes;various", "building": "commercial", "description": "21 and over only. Outdoor seating, ping pong, p\u00e9tanque court. Twelve rotating beers on tap, wines, ciders and hundreds of bottled and canned beverages as well. Live music venue.", "name": "The Pourhouse", "outdoor_seating": "yes", "source": "Jefferson County Washington Open Data Site", "website": "https://ptpourhouse.com/home.html"}}, {"type": "way", "id": 304037681, "nodes": [3085528976, 3085528977, 3085528978, 11010953656, 3085528979, 3085528980, 11010953657, 3085528981, 3085528982, 12630629447, 12630629448, 3085528976], "tags": {"addr:city": "Port Townsend", "addr:country": "US", "addr:county": "Jefferson", "addr:housenumber": "2101", "addr:postcode": "98368", "addr:state": "WA", "addr:street": "Washington Street", "amenity": "bank", "brand": "Wells Fargo", "brand:wikidata": "Q744149", "building": "commercial", "name": "Wells Fargo", "source": "Jefferson County Washington Open Data Site"}}, {"type": "way", "id": 315988979, "nodes": [3221061463, 12163031959, 12163031958, 3221061464, 3221061465, 3221061466, 3221061467, 3221061468, 3221061463], "tags": {"amenity": "bank", "brand": "Chase", "brand:wikidata": "Q524629", "building": "yes", "check_date": "2024-09-17", "check_date:opening_hours": "2024-09-17", "name": "Chase", "opening_hours": "Mo-Fr 09:00-17:00; Sa-Su closed", "phone": "+1-360-385-0425", "website": "https://locator.chase.com/wa/port-townsend/419-kearney-st"}}, {"type": "way", "id": 321742627, "nodes": [3285087835, 12641081721, 12641081722, 3285087836, 3285087837, 12641081720, 9473264905, 3285087838, 3285087835], "tags": {"addr:city": "Port Townsend", "addr:country": "US", "addr:county": "Jefferson", "addr:housenumber": "530", "addr:postcode": "98368", "addr:state": "WA", "addr:street": "Kearney Street", "building": "commercial", "hairdresser": "barber", "name": "Victorian Clipper", "shop": "hairdresser", "source": "Jefferson County Washington Open Data Site"}}, {"type": "way", "id": 321743305, "nodes": [3285098270, 9473265385, 3285098274, 12628645881, 3285098270], "tags": {"addr:city": "Port Townsend", "addr:country": "US", "addr:county": "Jefferson", "addr:housenumber": "2501", "addr:postcode": "98368", "addr:state": "WA", "addr:street": "Washington Street", "amenity": "cafe", "building": "commercial", "name": "Sea J's Cafe", "source": "Jefferson County Washington Open Data Site"}}, {"type": "way", "id": 328883161, "nodes": [12613298761, 12613298760, 3357058205, 3357058207, 12613298761], "tags": {"addr:housenumber": "820", "addr:street": "Water Street", "alt_name": "Homer Smith Insurance", "building": "commercial", "name": "Smith Building", "office": "insurance"}}, {"type": "way", "id": 339798444, "nodes": [677316820, 3470093755, 3470093757, 3470093756, 2133022246, 33671034, 2133022247, 5436126522, 5436126523, 2331850585, 5437720360, 48531187, 5437729335, 5437720368, 12629345016, 5437729339, 2133022251, 677316820], "tags": {"amenity": "parking", "bench": "no", "covered": "no", "ferry": "yes", "layer": "1", "name": "Ferry Waiting Area", "operator": "Washington State Ferries", "parking": "surface", "public_transport": "platform", "shelter": "no", "wheelchair": "yes"}}, {"type": "way", "id": 369631119, "nodes": [3734103927, 3734103924, 3734103923, 3734103926, 3734103927], "tags": {"amenity": "parking", "orientation": "perpendicular", "parking": "street_side"}}, {"type": "way", "id": 422299572, "nodes": [4220416114, 4220416115, 9473265054, 4220416117, 4220416118, 9553110410, 9553110411, 9553110408, 9553110412, 9553110409, 4220416119, 4220416120, 4220416121, 4220416114], "tags": {"addr:city": "Port Townsend", "addr:country": "US", "addr:county": "Jefferson", "addr:housenumber": "141", "addr:postcode": "98368", "addr:state": "WA", "addr:street": "Hudson Street", "amenity": "restaurant", "building": "commercial", "cuisine": "regional", "name": "Doc's Marina Grill", "phone": "+1-360-344-3627", "source": "Jefferson County Washington Open Data Site", "website": "https://docsgrill.com", "wheelchair": "yes"}}, {"type": "way", "id": 456843025, "nodes": [9473265382, 4530753829, 4530753830, 4530753831, 9473265382], "tags": {"addr:city": "Port Townsend", "addr:country": "US", "addr:county": "Jefferson", "addr:housenumber": "2736", "addr:postcode": "98368", "addr:state": "WA", "addr:street": "Washington Street", "amenity": "toilets", "building": "commercial", "shower": "yes", "source": "Jefferson County Washington Open Data Site"}}, {"type": "way", "id": 461418160, "nodes": [9553073645, 4569158103, 4569158104, 9553073678, 9553073646, 9553073645], "tags": {"amenity": "toilets", "building": "yes", "building:levels": "1", "man_made": "pier"}}, {"type": "way", "id": 551829896, "nodes": [5504922142, 5328855047, 5328855048, 6120221714, 5328855052, 5328855050, 5504922142], "tags": {"amenity": "parking", "parking": "surface"}}, {"type": "way", "id": 562636673, "nodes": [5423834762, 5423835221, 5423835222, 5423834732, 5423834733, 5423834734, 5423834735, 5423834736, 5423834737, 5423834738, 5423834739, 5423835229, 5423835526, 5423834740, 2315952464, 2315952463, 2315952462, 5423828132, 5423834730, 5423828131, 5423828130, 5423834746, 5423835223, 5423834747, 5423834748, 6119608627, 6119608625, 6119608626, 5423834749, 6119608624, 5423834750, 5423834751, 5423834752, 5423835224, 5423835225, 5423834753, 5423834754, 5423835521, 5423834766, 5423834762], "tags": {"access": "permissive", "amenity": "parking", "parking": "surface", "surface": "asphalt"}}, {"type": "way", "id": 562727183, "nodes": [5424456221, 5424456123, 5424447123, 5424447124, 5424446826, 5424456024, 5424456124, 5424456221], "tags": {"access": "permissive", "amenity": "parking", "parking": "surface", "surface": "asphalt"}}, {"type": "way", "id": 562727184, "nodes": [5424446827, 5424446828, 5424456025, 5424456026, 5424456027, 5424456125, 5424446829, 5424446830, 5424446831, 5424447125, 5424446832, 5424446827], "tags": {"access": "permissive", "amenity": "parking", "parking": "surface", "surface": "asphalt"}}, {"type": "way", "id": 562727185, "nodes": [5424447127, 5424456029, 5424456030, 5424456031, 5424447127], "tags": {"access": "permissive", "amenity": "parking", "orientation": "diagonal", "parking": "street_side", "surface": "asphalt"}}, {"type": "way", "id": 562727186, "nodes": [5424456127, 5424447128, 5424446834, 5424446835, 5424456127], "tags": {"access": "permissive", "amenity": "parking", "orientation": "perpendicular", "parking": "street_side", "surface": "asphalt"}}, {"type": "way", "id": 562733570, "nodes": [3753072713, 12645166883, 12645166882, 9473260237, 12645166881, 12645166880, 5424503521, 5424485623, 3753072713], "tags": {"addr:city": "Port Townsend", "addr:country": "US", "addr:county": "Jefferson", "addr:housenumber": "1020", "addr:postcode": "98368", "addr:state": "WA", "addr:street": "Jefferson Street", "amenity": "place_of_worship", "building": "church", "columbarium": "yes", "denomination": "episcopal", "labyrinth": "yes", "memorial_garden": "yes", "name": "St. Paul's Episcopal Church", "religion": "christian", "source": "Jefferson County Washington Open Data Site"}}, {"type": "way", "id": 562737282, "nodes": [5424539121, 5424539026, 5424516724, 5424539027, 5424539121], "tags": {"addr:housenumber": "936", "addr:street": "Washington Street", "building": "retail", "building:levels": "1", "name": "The Wandering Wardrobe", "opening_hours": "Mo-Sa 11:00-18:00;Su12:00-17:00", "second_hand": "only", "shop": "clothes", "website": "http://wanderingwardrobe.com"}}, {"type": "way", "id": 564545652, "nodes": [5439080744, 9806740605, 9806740606, 5439080644, 5439080645, 9806740604, 5439080646, 5439080840, 9806740603, 5439080841, 5439080744], "tags": {"access": "permissive", "amenity": "parking", "parking": "surface", "surface": "asphalt"}}, {"type": "way", "id": 564842415, "nodes": [5441324524, 5441324622, 5441324525, 5441324721, 5441324723, 5441324527, 5441324526, 5441324722, 5441324524], "tags": {"access": "customers", "amenity": "parking", "parking": "surface", "surface": "asphalt"}}, {"type": "way", "id": 564843681, "nodes": [5441309925, 5441309926, 5441309927, 5441332921, 5441309928, 5441309929, 5441333021, 5441333022, 5441309925], "tags": {"access": "customers", "amenity": "parking", "fee": "no", "parking": "surface", "surface": "asphalt"}}, {"type": "way", "id": 564843682, "nodes": [5441309930, 5441309931, 5441309932, 5441333023, 5441333024, 5441333025, 5441309933, 5441333122, 5504922187, 5441333123, 5441309934, 5441309930], "tags": {"access": "customers", "amenity": "parking", "parking": "surface", "surface": "asphalt"}}, {"type": "way", "id": 573059306, "nodes": [5504922124, 6728015312, 5504921220, 5504921206, 6728015315, 5504922125, 5504922124], "tags": {"amenity": "parking"}}, {"type": "way", "id": 573059309, "nodes": [5504922126, 6728015316, 5504922127, 5504922121, 12629737923, 5504922122, 12634610731, 5504922126], "tags": {"amenity": "parking"}}, {"type": "way", "id": 573774085, "nodes": [5509737696, 5509737697, 5509737698, 5509737699, 5509737700, 5509737701, 5509737702, 5509737703, 48452980, 5509737704, 5509737696], "tags": {"amenity": "parking"}}, {"type": "way", "id": 652894593, "nodes": [2315952462, 2315952463, 2315952464, 6119638743, 6119638744, 2315952465]}, {"type": "way", "id": 652894595, "nodes": [5423834732, 5423834764, 5423834765, 5423834767, 5423835230, 5423834768, 2315952465, 5423835228, 5423835521, 5423834766, 5423834762, 6119608623, 5423835525, 5423834763, 5423834732], "tags": {"alt_name": "Port Townsend Plaza", "landuse": "retail", "name": "PT Plaza", "shop": "mall"}}, {"type": "way", "id": 702560201, "nodes": [6597628937, 6597628938, 6597628939, 6597628940, 6597628941, 6597628942, 6597628943, 6597628944, 6597628945, 6597628946, 6597628947, 6597628948, 6597628949, 6597628950, 6597628918, 6597628919, 6597628920, 6597628921, 6597628922, 6597628923, 6597628937], "tags": {"amenity": "bench"}}, {"type": "way", "id": 702560202, "nodes": [6597628951, 6597628952, 6597628953, 6597628954, 6597628955, 6597628956, 6597628957, 6597628958, 6597628959, 6597628960, 6597628961, 6597628962, 6597628963, 6597628964, 6597628965, 6597628966, 6597628967, 6597628968, 6597628969, 6597628970, 6597628971, 6597628935, 6597628972, 6597628934, 6597628973, 6597628933, 6597628974, 6597628932, 6597628975, 6597628931, 6597628976, 6597628930, 6597628977, 6597628929, 6597628978, 6597628928, 6597628979, 6597628927, 6597628980, 6597628951], "tags": {"amenity": "bench"}}, {"type": "way", "id": 702916634, "nodes": [6601144069, 12660512771, 6601144071, 6601144072, 6601144069], "tags": {"amenity": "shelter", "shelter_type": "picnic_shelter"}}, {"type": "way", "id": 702916636, "nodes": [6601144083, 6601144084, 6601147985, 6601147986, 6601144083], "tags": {"amenity": "theatre"}}, {"type": "way", "id": 702916638, "nodes": [6601148059, 6601148060, 6601148061, 6601148062, 6601148059], "tags": {"amenity": "parking", "orientation": "parallel", "parking": "street_side"}}, {"type": "way", "id": 716760293, "nodes": [4232540513, 6732419791, 12417004354, 12417004357, 12417004356, 12417004355, 6732419792, 6732419793, 4232540513], "tags": {"addr:city": "Port Townsend", "addr:housenumber": "230", "addr:postcode": "98368", "addr:state": "WA", "addr:street": "A Street", "amenity": "place_of_worship", "building": "yes", "name": "Port Townsend Church of Christ", "religion": "christian"}}, {"type": "way", "id": 880324394, "nodes": [8188180459, 8188180458, 4528950557, 4528950558, 8188180462, 8188180460, 8188180459], "tags": {"access": "private", "amenity": "parking", "name": "USCG Parking", "operator": "U.S. Coast Guard", "operator:type": "military"}}, {"type": "way", "id": 1036793880, "nodes": [9551683340, 9551683341, 9551683342, 6732419798, 6732419797, 6732419796, 9551683343, 9551683340], "tags": {"amenity": "parking", "operator": "U.S. Postal Service", "operator:type": "government", "parking": "surface"}}, {"type": "way", "id": 1088494277, "nodes": [3285087820, 9972614184, 9972614185, 9972614186, 9972614187, 9972614188, 9972614189, 12163029381, 12163029382, 9972614190, 12163029383, 12163029384, 9972614191, 3285087822, 3285087821, 3285087820], "tags": {"amenity": "parking"}}, {"type": "way", "id": 1090895453, "nodes": [9991968261, 9991968262, 9991968263, 9991968264, 9991968261], "tags": {"building": "yes", "shop": "ticket"}}, {"type": "way", "id": 1090895454, "nodes": [9991968265, 9991968266, 9991968267, 9991968268, 9991968265], "tags": {"building": "yes", "shop": "ticket"}}, {"type": "way", "id": 1195896995, "nodes": [9473264554, 11098134863, 11098134864, 12630629360, 11098134865, 9473264554], "tags": {"addr:city": "Port Townsend", "addr:country": "US", "addr:county": "Jefferson", "addr:housenumber": "2790", "addr:postcode": "98368", "addr:state": "WA", "addr:street": "Washington Street", "building": "yes", "name": "Port of Port Townsend Office", "office": "yes", "source": "Jefferson County Washington Open Data Site"}}, {"type": "way", "id": 1296212608, "nodes": [12011139429, 12011139430, 12011139431, 12128128334, 12128128335, 12128128336, 3085525402, 3085525403, 3085525404, 3085525405, 3085525406, 12128128332, 12011139433, 12011139434, 12011139429], "tags": {"access": "customers", "amenity": "parking", "parking": "surface"}}, {"type": "way", "id": 1309459372, "nodes": [12125226144, 12125226145, 12125226146, 12125226147, 12125226144], "tags": {"amenity": "shelter", "bench": "yes", "bin": "no", "building": "roof", "lit": "no", "shelter_type": "public_transport"}}, {"type": "way", "id": 1309901092, "nodes": [12128127556, 12128127548, 12128127555, 12128127590, 12128127556], "tags": {"amenity": "parking"}}, {"type": "way", "id": 1313635566, "nodes": [12159117917, 12159117918, 12159117919, 12159117920, 12159117917], "tags": {"access": "yes", "amenity": "parking", "orientation": "parallel", "parking": "street_side", "surface": "grass"}}, {"type": "way", "id": 1313635568, "nodes": [12159117926, 12159117927, 12159117928, 12159117929, 12159117926], "tags": {"access": "yes", "amenity": "parking", "orientation": "parallel", "parking": "street_side", "surface": "grass"}}, {"type": "way", "id": 1314098590, "nodes": [12162957881, 12162957882, 12162957883, 12162957884, 12162957885, 12162957886, 12162957887, 12162957888, 12162957881], "tags": {"amenity": "parking", "parking": "surface"}}, {"type": "way", "id": 1314098591, "nodes": [12162957889, 12162957895, 12162957890, 12162957891, 12162957892, 12162957893, 12162957894, 12162957889], "tags": {"amenity": "parking"}}, {"type": "way", "id": 1314105848, "nodes": [12163031946, 12163031947, 12163031948, 12163031949, 12163031950, 12163031951, 12163031952, 12163031946], "tags": {"amenity": "parking"}}, {"type": "way", "id": 1314105850, "nodes": [12163031962, 12163031963, 12163031964, 12011139463, 12011139462, 12011139461, 12163031965, 12163031966, 12163031967, 12163031968, 12163031962], "tags": {"amenity": "parking", "parking": "surface"}}, {"type": "way", "id": 1342227478, "nodes": [2133985741, 9473261827, 12416998590, 12416998579, 12416998582, 12416998581, 12416998580, 2133985741], "tags": {"addr:city": "Port Townsend", "addr:country": "US", "addr:county": "Jefferson", "addr:housenumber": "1925", "addr:postcode": "98368", "addr:state": "WA", "addr:street": "Blaine Street", "building": "yes", "name": "The ReCyclery", "shop": "bicycle", "source": "Jefferson County Washington Open Data Site", "website": "https://ptrecyclery.com/"}}, {"type": "way", "id": 1342227483, "nodes": [4232531542, 12417004309, 12417004310, 12417004311, 12417004312, 12417004313, 12417004314, 12417004315, 12417004316, 12417004317, 12417004318, 12417004319, 12417004320, 12417004321, 4232531542], "tags": {"addr:city": "Port Townsend", "addr:housenumber": "1120", "addr:postcode": "98368", "addr:state": "WA", "addr:street": "Walker Street", "amenity": "place_of_worship", "building": "yes", "denomination": "lutheran", "name": "Grace Lutheran Church", "religion": "christian"}}, {"type": "way", "id": 1342227485, "nodes": [12417004324, 12417004325, 12416998597, 12416998598, 12416998599, 12416998600, 12417004326, 12417004327, 12417004328, 12417004329, 12417004330, 12417004324], "tags": {"amenity": "parking"}}, {"type": "way", "id": 1363679964, "nodes": [12626504781, 12626504779, 12626504778, 12626504777, 12626504776, 12626504780, 12626504781], "tags": {"amenity": "parking", "parking": "street_side"}}, {"type": "way", "id": 1363679965, "nodes": [12626504785, 12626504782, 12626504783, 12626504784, 12626504785], "tags": {"amenity": "parking", "parking": "street_side"}}, {"type": "way", "id": 1363679966, "nodes": [12626504789, 12626504786, 12626504787, 12626504788, 12626504789], "tags": {"amenity": "parking", "parking": "street_side"}}, {"type": "way", "id": 1363896018, "nodes": [12629004724, 12629004723, 12629004722, 12629004721, 12629004724], "tags": {"amenity": "shelter", "building": "roof"}}, {"type": "way", "id": 1363938370, "nodes": [12629365062, 12629365059, 12629365067, 12629365068, 12629365066, 12629365063, 12629365064, 12629365065, 12629365060, 12629365061, 12629365062], "tags": {"amenity": "parking", "parking": "surface"}}, {"type": "way", "id": 1363938371, "nodes": [12629365081, 12629365080, 12629365079, 12629365078, 12629365077, 12629365076, 12629365075, 12629365074, 12629365073, 12629365072, 12629365081], "tags": {"amenity": "parking", "parking": "street_side"}}, {"type": "way", "id": 1363938372, "nodes": [12629365086, 12629365085, 12629365084, 12629365083, 12629365086], "tags": {"amenity": "parking_space", "parking_space": "disabled"}}, {"type": "way", "id": 1363938373, "nodes": [12629365090, 12629365089, 12629365088, 12629365087, 12629365090], "tags": {"amenity": "parking_space", "parking_space": "disabled"}}, {"type": "way", "id": 1363938374, "nodes": [12629365093, 9553110419, 12629365092, 12629365091, 12629365093], "tags": {"amenity": "parking_space", "parking_space": "disabled"}}, {"type": "way", "id": 1364009474, "nodes": [12630215428, 12630215427, 12630215426, 12630215425, 12630215428], "tags": {"amenity": "parking", "parking": "surface", "surface": "grass"}}, {"type": "way", "id": 1364009477, "nodes": [12630215435, 12630215434, 12630215433, 12630215432, 12630215435], "tags": {"amenity": "parking", "parking": "surface", "surface": "gravel"}}, {"type": "way", "id": 1364009481, "nodes": [12630215445, 12630215444, 12630215443, 12630215442, 12630215441, 12630215445], "tags": {"amenity": "parking", "parking": "surface"}}, {"type": "way", "id": 1364009484, "nodes": [12630215473, 12630215472, 12630215471, 12630215470, 12630215469, 12630215468, 12630215473], "tags": {"amenity": "parking", "parking": "surface", "surface": "gravel"}}, {"type": "way", "id": 1364038319, "nodes": [12630468127, 12630468124, 12630468125, 12630468126, 12630468127], "tags": {"amenity": "parking", "capacity": "4", "parking": "street_side"}}, {"type": "way", "id": 1364038326, "nodes": [12630468197, 12631646591, 12630468196, 9473265381, 12630468195, 12630468194, 12630468193, 12630468192, 12630468191, 12630468190, 12630468189, 12630468188, 12630468197], "tags": {"amenity": "parking", "parking": "surface"}}, {"type": "way", "id": 1364038331, "nodes": [12630468217, 12630468216, 12630468215, 12630468214, 12630468217], "tags": {"amenity": "parking", "parking": "street_side"}}, {"type": "way", "id": 1364038333, "nodes": [12630468222, 12630468219, 12630468220, 12630468221, 12630468222], "tags": {"amenity": "parking", "parking": "street_side"}}, {"type": "way", "id": 1364046808, "nodes": [12630527182, 12630527181, 12630527180, 12630527179, 12630527182], "tags": {"amenity": "parking", "parking": "surface"}}, {"type": "way", "id": 1364046811, "nodes": [12630527195, 12630527194, 12630527193, 12630527192, 12630527191, 12630527190, 12630527189, 12630527188, 12630527187, 12630527195], "tags": {"amenity": "parking", "parking": "surface"}}, {"type": "way", "id": 1364052814, "nodes": [12630582507, 12630582506, 12630582505, 12630582504, 12630582503, 12630582502, 12630582501, 12630549700, 12630549699, 12630549698, 12630582507], "tags": {"access": "customers", "amenity": "parking", "parking": "surface"}}, {"type": "way", "id": 1364052832, "nodes": [12630582635, 12630582634, 12630582633, 12630582632, 12630582635], "tags": {"amenity": "shelter", "building": "roof"}}, {"type": "way", "id": 1364057508, "nodes": [12630624304, 12630624303, 12630624302, 12630624301, 12630599200, 12630599199, 12630599198, 12630624304], "tags": {"amenity": "parking", "parking": "surface"}}, {"type": "way", "id": 1364057509, "nodes": [12630624324, 12630624323, 12630624322, 12630624321, 12630624324], "tags": {"amenity": "parking", "parking": "surface"}}, {"type": "way", "id": 1364057510, "nodes": [12630624334, 12630624333, 12630624332, 12630624331, 12630624330, 12630624329, 12630624334], "tags": {"amenity": "parking", "parking": "surface"}}, {"type": "way", "id": 1364058125, "nodes": [12630629363, 12630629362, 12630629361, 11098134864, 12630629360, 12630629363], "tags": {"amenity": "parking", "parking": "street_side"}}, {"type": "way", "id": 1364058126, "nodes": [12630629369, 12630629368, 12630629367, 12630629366, 12630629365, 12630629364, 12630629369], "tags": {"amenity": "parking", "parking": "street_side"}}, {"type": "way", "id": 1364058128, "nodes": [12630629377, 12630629376, 12630629375, 12630629374, 12630629377], "tags": {"amenity": "parking", "parking": "street_side"}}, {"type": "way", "id": 1364058129, "nodes": [12630629381, 12630629378, 12630629379, 12630629380, 12630629381], "tags": {"amenity": "parking", "parking": "street_side"}}, {"type": "way", "id": 1364058133, "nodes": [12630629396, 12630629393, 12630629394, 12630629395, 12630629396], "tags": {"amenity": "parking", "parking": "street_side"}}, {"type": "way", "id": 1364058137, "nodes": [12630629420, 12630629419, 12630629416, 12630629415, 12630629418, 12630629417, 12630629420], "tags": {"amenity": "parking", "parking": "surface"}}, {"type": "way", "id": 1364058138, "nodes": [12630629424, 12630629423, 12630629422, 12630629421, 12630629424], "tags": {"amenity": "parking", "parking": "street_side"}}, {"type": "way", "id": 1364058140, "nodes": [12630629434, 12630629427, 12630629428, 12630629430, 12630629429, 12630629433, 12630629432, 12630629431, 12630629434], "tags": {"amenity": "parking", "parking": "street_side"}}, {"type": "way", "id": 1364058141, "nodes": [12630629438, 12630629437, 12630629436, 12630629435, 12630629438], "tags": {"amenity": "parking", "parking": "street_side"}}, {"type": "way", "id": 1364058142, "nodes": [12630629442, 12630629441, 12630629440, 12630629439, 12630629442], "tags": {"amenity": "parking", "parking": "street_side"}}, {"type": "way", "id": 1364058143, "nodes": [12630629446, 12630629443, 12630629444, 12630629445, 12630629446], "tags": {"amenity": "parking", "parking": "street_side"}}, {"type": "way", "id": 1364058147, "nodes": [6592211798, 12125226134, 6592211799, 12125226133, 6592211798], "tags": {"amenity": "parking", "parking": "street_side"}}, {"type": "way", "id": 1364058148, "nodes": [12630629478, 12630629477, 12630629476, 12630629475, 12630629478], "tags": {"amenity": "parking", "parking": "street_side"}}, {"type": "way", "id": 1364058150, "nodes": [12630629509, 12630629508, 12630629507, 12630629506, 12630629505, 12630629504, 12630629509], "tags": {"amenity": "parking", "parking": "surface"}}, {"type": "way", "id": 1364058158, "nodes": [12630629559, 12630629558, 12630629557, 12630629556, 12630629559], "tags": {"amenity": "parking", "parking": "street_side"}}, {"type": "way", "id": 1364058159, "nodes": [12630629565, 12630629562, 12630629563, 12630629560, 12630629561, 12630629564, 12630629565], "tags": {"amenity": "parking", "parking": "surface"}}, {"type": "way", "id": 1364058160, "nodes": [3085528424, 12631584998, 12630629571, 12630629570, 12631646210, 12631646209, 12631646208, 12631646207, 12630629567, 12630629569, 3085528935, 9473275215, 12630629215, 3085528937, 3085528938, 3085528939, 3085528424], "tags": {"amenity": "parking", "parking": "surface"}}, {"type": "way", "id": 1364058167, "nodes": [12630629604, 12630629602, 12630629596, 12630629593, 12630629599, 12630629598, 12630629597, 12630629594, 12630629600, 12630629601, 12630629595, 12630629603, 12630629604], "tags": {"amenity": "parking", "parking": "surface"}}, {"type": "way", "id": 1364058169, "nodes": [12630629613, 12630629610, 12630629611, 12630629608, 12630629609, 12630629612, 12630629613], "tags": {"amenity": "parking", "parking": "surface"}}, {"type": "way", "id": 1364058170, "nodes": [12630629619, 12630629616, 12630629615, 12630629614, 12630629617, 12630629618, 12630629619], "tags": {"amenity": "parking", "parking": "surface"}}, {"type": "way", "id": 1364091617, "nodes": [12631207974, 12631207973, 12631207972, 12631207971, 12631207974], "tags": {"amenity": "parking", "parking": "surface"}}, {"type": "way", "id": 1364091618, "nodes": [12631207980, 12631207979, 12631207978, 12631207977, 12631207976, 12631207975, 12631207980], "tags": {"amenity": "parking", "parking": "surface"}}, {"type": "way", "id": 1364091624, "nodes": [12631208005, 12631208004, 12631208003, 12631208002, 12631208001, 12631208000, 12631207999, 12631207998, 12631207997, 12631208005], "tags": {"amenity": "parking", "parking": "surface"}}, {"type": "way", "id": 1364113355, "nodes": [12631436018, 12631436010, 12631436011, 12631436012, 12631436013, 12631436014, 12631436015, 12631436016, 12631436017, 12631436019, 12631436018], "tags": {"amenity": "parking", "parking": "surface"}}, {"type": "way", "id": 1364123108, "nodes": [12631646600, 12631646597, 12630468125, 12630468126, 12631646600], "tags": {"amenity": "parking_space"}}, {"type": "way", "id": 1364123109, "nodes": [12631646601, 12631646598, 12631646597, 12631646600, 12631646601], "tags": {"amenity": "parking_space"}}, {"type": "way", "id": 1364123110, "nodes": [12631646602, 12631646599, 12631646598, 12631646601, 12631646602], "tags": {"amenity": "parking_space"}}, {"type": "way", "id": 1364123111, "nodes": [12630468127, 12630468124, 12631646599, 12631646602, 12630468127], "tags": {"amenity": "parking_space"}}, {"type": "way", "id": 1364165059, "nodes": [12632001923, 12632001957, 12631994176, 12632001921, 12632001922, 12632001923], "tags": {"access": "private", "amenity": "parking_space", "capacity": "2", "parking_space": "normal"}}, {"type": "way", "id": 1364286607, "nodes": [12633520747, 12633520746, 12633520745, 12633520744, 12633520747], "tags": {"amenity": "parking", "parking": "surface"}}, {"type": "way", "id": 1364516490, "nodes": [12636046894, 12636046893, 12636046892, 12636046891, 12636046894], "tags": {"amenity": "parking", "parking": "surface"}}, {"type": "way", "id": 1364842538, "nodes": [12639333383, 12639333382, 12639333381, 12639333380, 12639333379, 12639333374, 12639333375, 12639333378, 12639333206, 12639333205, 12639333377, 12639333203, 12639333204, 12639333376, 12639333383], "tags": {"amenity": "parking", "parking": "surface"}}, {"type": "way", "id": 1365025096, "nodes": [12641065970, 12641065969, 12641065968, 12641065967, 12641065966, 12641065965, 12641065964, 12641065963, 12641065962, 12641065961, 12641065960, 12641065959, 12641065958, 12641065957, 12641065970], "tags": {"access": "customers", "amenity": "parking", "parking": "surface"}}, {"type": "way", "id": 1365410260, "nodes": [12644237876, 12644237875, 12644237874, 12644237873, 12644237872, 12644237871, 12644237870, 12644237869, 12644237868, 12644237867, 12644237866, 12644237865, 12644237864, 12644237863, 12644237862, 12644237861, 12644237876], "tags": {"amenity": "parking", "parking": "surface"}}, {"type": "way", "id": 1365410264, "nodes": [12644237886, 12644237897, 12644237896, 12644237895, 12644237894, 12644237893, 12644237892, 12644237891, 12644237890, 12644237889, 12644237888, 12644237887, 12644237886], "tags": {"amenity": "parking", "parking": "surface"}}, {"type": "way", "id": 1365410265, "nodes": [12644259605, 12644259604, 12644259603, 12644259602, 12644259601, 12644237900, 12644237899, 12644237898, 12644259605], "tags": {"amenity": "parking", "parking": "surface"}}, {"type": "way", "id": 1365411551, "nodes": [12644230266, 12644230265, 12644230264, 12644230260, 12644230263, 12644230261, 12644230262, 12644230266], "tags": {"amenity": "parking", "parking": "surface"}}, {"type": "way", "id": 1365503104, "nodes": [12645166987, 12645166986, 12645166985, 12645166984, 12645166983, 12645166982, 12645166981, 12645166980, 12645166987], "tags": {"amenity": "parking", "parking": "surface"}}, {"type": "way", "id": 1365543905, "nodes": [12645467661, 12645467660, 12645467659, 12645467658, 12645467657, 12645467656, 12645467655, 12645467654, 12645467653, 12645467652, 12645467651, 12645467650, 12645467661], "tags": {"amenity": "parking", "parking": "surface"}}, {"type": "way", "id": 1365543917, "nodes": [12645530001, 12645467700, 12645467699, 12645467698, 12645467697, 12645467696, 12645530001], "tags": {"amenity": "parking", "parking": "surface"}}, {"type": "way", "id": 1365554970, "nodes": [12645614036, 12645614035, 12645614034, 12645614033, 12645614036], "tags": {"amenity": "parking"}}, {"type": "way", "id": 1365554971, "nodes": [12645614040, 12645614039, 12645614038, 12645614037, 12645614040], "tags": {"amenity": "parking"}}, {"type": "way", "id": 1369996726, "nodes": [12687566002, 12687566001, 12687547600, 12687547599, 12687547598, 12687547597, 12687547596, 12687547595, 12687547594, 12687547593, 12687547592, 12687547591, 12687547590, 12687566002], "tags": {"amenity": "parking", "parking": "surface"}}, {"type": "way", "id": 1372041193, "nodes": [12704710385, 12704710384], "tags": {"amenity": "bench", "backrest": "yes", "direction": "265"}}, {"type": "way", "id": 1372041194, "nodes": [12704710387, 12704710386], "tags": {"amenity": "bench", "backrest": "yes", "direction": "215"}}, {"type": "way", "id": 1372041195, "nodes": [12704710389, 12704710388], "tags": {"amenity": "bench", "backrest": "yes", "direction": "170"}}, {"type": "way", "id": 1372041196, "nodes": [12704710391, 12704710390], "tags": {"amenity": "bench", "backrest": "yes", "direction": "125"}}, {"type": "way", "id": 1372041197, "nodes": [12704710393, 12704710392], "tags": {"amenity": "bench", "backrest": "yes", "direction": "33"}}, {"type": "way", "id": 1372041198, "nodes": [12704710395, 12704710394], "tags": {"amenity": "bench", "backrest": "yes", "direction": "300"}}, {"type": "way", "id": 1372041199, "nodes": [12704710397, 12704710396], "tags": {"amenity": "bench", "backrest": "yes", "direction": "350"}}, {"type": "way", "id": 1372041200, "nodes": [12704710399, 12704710398], "tags": {"amenity": "bench", "backrest": "yes", "direction": "33"}}, {"type": "way", "id": 1372121484, "nodes": [12705362594, 12705362609, 12705362608, 12705362581, 12705362594], "tags": {"amenity": "parking_space"}}, {"type": "way", "id": 1372121485, "nodes": [12705362595, 12705362594, 12705362581, 12705362582, 12705362595], "tags": {"amenity": "parking_space"}}, {"type": "way", "id": 1372121486, "nodes": [12705362596, 12705362595, 12705362582, 12705362583, 12705362596], "tags": {"amenity": "parking_space"}}, {"type": "way", "id": 1372121487, "nodes": [12705362597, 12705362596, 12705362583, 12705362584, 12705362597], "tags": {"amenity": "parking_space"}}, {"type": "way", "id": 1372121488, "nodes": [12705362598, 12705362597, 12705362584, 12705362585, 12705362598], "tags": {"amenity": "parking_space"}}, {"type": "way", "id": 1372121489, "nodes": [12705362599, 12705362598, 12705362585, 12705362586, 12705362599], "tags": {"amenity": "parking_space"}}, {"type": "way", "id": 1372121490, "nodes": [12705362600, 12705362599, 12705362586, 12705362587, 12705362600], "tags": {"amenity": "parking_space"}}, {"type": "way", "id": 1372121491, "nodes": [12705362601, 12705362600, 12705362587, 12705362588, 12705362601], "tags": {"amenity": "parking_space"}}, {"type": "way", "id": 1372121492, "nodes": [12705362602, 12705362601, 12705362588, 12705362589, 12705362602], "tags": {"amenity": "parking_space"}}, {"type": "way", "id": 1372121493, "nodes": [12705362603, 12705362602, 12705362589, 12705362590, 12705362603], "tags": {"amenity": "parking_space"}}, {"type": "way", "id": 1372121494, "nodes": [12705362604, 12705362603, 12705362590, 12705362591, 12705362604], "tags": {"amenity": "parking_space"}}, {"type": "way", "id": 1372121495, "nodes": [12705362605, 12705362604, 12705362591, 12705362592, 12705362605], "tags": {"amenity": "parking_space"}}, {"type": "way", "id": 1372121496, "nodes": [12705362606, 12705362605, 12705362592, 12705362593, 12705362606], "tags": {"amenity": "parking_space"}}, {"type": "way", "id": 1372121497, "nodes": [12705362610, 12705362606, 12705362593, 12705362607, 12705362610], "tags": {"amenity": "parking_space"}}, {"type": "way", "id": 1372121498, "nodes": [12705362614, 12705362613, 12705362612, 12705362611, 12705362614], "tags": {"amenity": "parking_space"}}, {"type": "way", "id": 1372121499, "nodes": [12705362619, 12705362617, 12705362616, 12705362615, 12705362619], "tags": {"amenity": "parking_space", "parking_space": "disabled"}}, {"type": "way", "id": 1372121500, "nodes": [12705362620, 12705362619, 12705362615, 12705362618, 12705362620], "tags": {"amenity": "parking_space"}}, {"type": "way", "id": 1380343056, "nodes": [12779150388, 12779150387, 12779150368, 12779150369, 12779150388], "tags": {"amenity": "parking_space"}}, {"type": "way", "id": 1380343057, "nodes": [12779150393, 12779150396, 12779150391, 12779150392, 12779150388, 12779150369, 12779150368, 12779150387, 12779150389, 12779150390, 12779150395, 12779150394, 12779150393], "tags": {"amenity": "parking", "orientation": "perpendicular", "parking": "street_side"}}, {"type": "way", "id": 1380343058, "nodes": [12779150376, 12779150370, 12779150372, 12779150371, 12779150375, 12779150374, 12779150373, 12779150376], "tags": {"amenity": "parking", "orientation": "perpendicular", "parking": "street_side"}}, {"type": "way", "id": 1380343059, "nodes": [12779150384, 12779150380, 12779150381, 12779150382, 12779150378, 12779150379, 12779150377, 12779150383, 12779150386, 12779150385, 12779150384], "tags": {"amenity": "parking"}}, {"type": "way", "id": 1380343060, "nodes": [12779150392, 12779150388, 12779150387, 12779150389, 12779150392], "tags": {"amenity": "parking_space"}}, {"type": "way", "id": 1380343061, "nodes": [12779150392, 12779150391, 12779150390, 12779150389, 12779150392], "tags": {"amenity": "parking_space"}}, {"type": "way", "id": 1380343062, "nodes": [12779150396, 12779150395, 12779150394, 12779150393, 12779150396], "tags": {"amenity": "parking_space", "parking_space": "disabled"}}, {"type": "relation", "id": 9081661, "members": [{"type": "way", "ref": 222651896, "role": "outer"}, {"type": "way", "ref": 652894593, "role": "outer"}], "tags": {"addr:city": "Port Townsend", "addr:country": "US", "addr:county": "Jefferson", "addr:housenumber": "1239", "addr:postcode": "98368", "addr:state": "WA", "addr:street": "Water Street", "amenity": "bank", "atm": "yes", "brand": "U.S. Bank", "brand:wikidata": "Q739084", "building": "retail", "layer": "1", "name": "U.S. Bank", "source": "Jefferson County Washington Open Data Site", "type": "multipolygon"}}, {"type": "relation", "id": 18779243, "members": [{"type": "way", "ref": 222651894, "role": "outer"}, {"type": "way", "ref": 224370222, "role": "outer"}], "tags": {"name": "Windermere Real Estate", "office": "estate_agent", "type": "multipolygon"}}]}