{"version": 0.6, "generator": "Overpass API 0.7.62.8 e802775f", "osm3s": {"timestamp_osm_base": "2025-12-06T19:56:15Z", "copyright": "The data included in this document is from www.openstreetmap.org. The data is made available under ODbL."}, "elements": [{"type": "node", "id": 4510979937, "lat": 47.3192782, "lon": -122.0059427, "tags": {"check_date": "2024-03-02", "name": "Moneyman Pawn", "shop": "pawnbroker"}}, {"type": "node", "id": 4510979938, "lat": 47.319167, "lon": -122.0058786, "tags": {"amenity": "restaurant", "check_date": "2024-03-02", "cuisine": "teriyaki", "name": "Oshio 2", "opening_hours": "Mo-Sa 11:00-21:00"}}, {"type": "node", "id": 4510979940, "lat": 47.3187488, "lon": -122.0057352, "tags": {"amenity": "restaurant", "check_date": "2025-05-30", "cuisine": "pizza", "delivery": "yes", "name": "Sahara Pizza", "opening_hours": "11:00-20:00", "payment:mastercard": "yes", "payment:visa": "yes", "takeaway": "yes"}}, {"type": "node", "id": 4510979941, "lat": 47.3185824, "lon": -122.0056705, "tags": {"amenity": "dentist", "check_date": "2025-05-30", "healthcare": "dentist", "name": "Black Diamond Dentistry", "opening_hours": "Mo-We 08:00-17:00; Th 08:00-15:00; Fr 09:00-15:00; Sa-Su off"}}, {"type": "node", "id": 4510979942, "lat": 47.318353, "lon": -122.0053688, "tags": {"addr:city": "Black Diamond", "addr:housenumber": "31605", "addr:postcode": "98010", "addr:state": "WA", "addr:street": "3rd Avenue", "amenity": "community_centre", "check_date": "2025-05-30", "name": "Black Diamond Community Center", "payment:cash": "yes", "payment:credit_cards": "yes", "payment:debit_cards": "yes"}}, {"type": "node", "id": 4927807640, "lat": 47.317949, "lon": -122.0051742}, {"type": "node", "id": 4927807641, "lat": 47.3182495, "lon": -122.0053169, "tags": {"amenity": "social_centre", "check_date": "2024-09-22", "name": "Sons of Italy Black Diamond Lodge #1809"}}, {"type": "node", "id": 4927807644, "lat": 47.3183295, "lon": -122.0055006, "tags": {"amenity": "childcare", "name": "Black Diamond Community Center Child Care"}}, {"type": "node", "id": 4927807657, "lat": 47.3186745, "lon": -122.00522, "tags": {"check_date": "2023-03-12", "name": "Black Bear Outpost Propane", "opening_hours": "Mo-Fr 09:00-18:00; Sa 09:00-17:00; Su 10:00-16:00", "payment:mastercard": "yes", "payment:visa": "yes", "shop": "gas", "vending": "propane"}}, {"type": "node", "id": 4927807660, "lat": 47.3190886, "lon": -122.0058359, "tags": {"check_date": "2023-06-29", "name": "Food Mart", "opening_hours": "Mo-Th 05:00-23:00; Fr-Sa 05:00-24:00; Su 06:00-22:00", "payment:mastercard": "yes", "payment:visa": "yes", "shop": "convenience"}}, {"type": "node", "id": 4927807663, "lat": 47.3196129, "lon": -122.006129}, {"type": "node", "id": 4927807673, "lat": 47.3222491, "lon": -122.0074459}, {"type": "node", "id": 4927807674, "lat": 47.3221318, "lon": -122.0076566}, {"type": "node", "id": 4927807675, "lat": 47.3224028, "lon": -122.0085616}, {"type": "node", "id": 4927807676, "lat": 47.3219759, "lon": -122.0083539}, {"type": "node", "id": 4927807677, "lat": 47.3220449, "lon": -122.008045}, {"type": "node", "id": 4927807678, "lat": 47.3221977, "lon": -122.0081194}, {"type": "node", "id": 4927807679, "lat": 47.3222421, "lon": -122.007921}, {"type": "node", "id": 4927807680, "lat": 47.3223299, "lon": -122.0079637}, {"type": "node", "id": 4927807681, "lat": 47.3223723, "lon": -122.0077737}, {"type": "node", "id": 4927807682, "lat": 47.3225587, "lon": -122.0078644}, {"type": "node", "id": 4927807683, "lat": 47.3222651, "lon": -122.0098311}, {"type": "node", "id": 4927807684, "lat": 47.3219488, "lon": -122.0098794}, {"type": "node", "id": 4927807685, "lat": 47.3214597, "lon": -122.0092946}, {"type": "node", "id": 4927807687, "lat": 47.3213997, "lon": -122.0088628}, {"type": "node", "id": 4927807689, "lat": 47.3213887, "lon": -122.0081225}, {"type": "node", "id": 4927807690, "lat": 47.3222527, "lon": -122.0084886}, {"type": "node", "id": 4927807691, "lat": 47.3226131, "lon": -122.0072582}, {"type": "node", "id": 4927807695, "lat": 47.3253558, "lon": -122.0076109}, {"type": "node", "id": 4927807698, "lat": 47.3258255, "lon": -122.0079006, "tags": {"check_date": "2025-09-09", "name": "Shana's Bake Shoppe", "opening_hours": "10:00-16:00", "shop": "bakery"}}, {"type": "node", "id": 4927807726, "lat": 47.3266059, "lon": -122.0100632, "tags": {"brand": "Farmers Insurance", "brand:wikidata": "Q1396863", "name": "Farmers Insurance - Lyon Agency", "office": "insurance"}}, {"type": "node", "id": 4927807728, "lat": 47.326505, "lon": -122.009966, "tags": {"addr:door": "125", "check_date": "2025-09-01", "name": "India Food Mart", "opening_hours": "Mo-Th,Su 10:00-20:30; Fr-Sa 10:00-21:00", "shop": "supermarket"}}, {"type": "node", "id": 4927807729, "lat": 47.3262977, "lon": -122.0099638, "tags": {"addr:door": "105", "amenity": "ice_cream", "check_date": "2025-09-01", "dance:teaching": "yes", "name": "Frozen Delights", "sport": "dance"}}, {"type": "node", "id": 4927807731, "lat": 47.3261124, "lon": -122.0099693, "tags": {"addr:door": "103", "amenity": "cafe", "check_date": "2025-09-01", "name": "Canvas 'N Cafe"}}, {"type": "node", "id": 4927807732, "lat": 47.3266732, "lon": -122.009021}, {"type": "node", "id": 5031304749, "lat": 47.3300219, "lon": -122.0098029}, {"type": "node", "id": 5031304750, "lat": 47.3299519, "lon": -122.0097519}, {"type": "node", "id": 5031304751, "lat": 47.3298319, "lon": -122.010051}, {"type": "node", "id": 5031304752, "lat": 47.3299692, "lon": -122.0101167}, {"type": "node", "id": 6141241772, "lat": 47.3266759, "lon": -122.008982}, {"type": "node", "id": 6141241773, "lat": 47.3266404, "lon": -122.0089766}, {"type": "node", "id": 6141241774, "lat": 47.3266377, "lon": -122.0090157}, {"type": "node", "id": 6141246548, "lat": 47.316317, "lon": -122.0056867}, {"type": "node", "id": 6141246550, "lat": 47.3163424, "lon": -122.0054982}, {"type": "node", "id": 6141246552, "lat": 47.3163859, "lon": -122.00551}, {"type": "node", "id": 6141246561, "lat": 47.3164911, "lon": -122.0057343}, {"type": "node", "id": 6141246569, "lat": 47.3163941, "lon": -122.0054487}, {"type": "node", "id": 6141246571, "lat": 47.3164813, "lon": -122.0054725}, {"type": "node", "id": 6141246573, "lat": 47.3164646, "lon": -122.0055988}, {"type": "node", "id": 6141246575, "lat": 47.3165075, "lon": -122.0056105}, {"type": "node", "id": 6141253301, "lat": 47.3223774, "lon": -122.0075056}, {"type": "node", "id": 6141253304, "lat": 47.3223517, "lon": -122.007625}, {"type": "node", "id": 6141253306, "lat": 47.3222234, "lon": -122.0075654}, {"type": "node", "id": 6141253326, "lat": 47.3224844, "lon": -122.007188}, {"type": "node", "id": 6141253328, "lat": 47.3225202, "lon": -122.0070461}, {"type": "node", "id": 6141253330, "lat": 47.3226489, "lon": -122.0071164}, {"type": "node", "id": 6141254787, "lat": 47.3180795, "lon": -122.0052346}, {"type": "node", "id": 6141254789, "lat": 47.3179252, "lon": -122.0052846}, {"type": "node", "id": 6141254790, "lat": 47.3180556, "lon": -122.005345}, {"type": "node", "id": 6141255472, "lat": 47.3254292, "lon": -122.0077031}, {"type": "node", "id": 6141255475, "lat": 47.3254188, "lon": -122.0077645}, {"type": "node", "id": 6141255476, "lat": 47.3255634, "lon": -122.007576}, {"type": "node", "id": 6141255479, "lat": 47.3255351, "lon": -122.0077422}, {"type": "node", "id": 6141255670, "lat": 47.3253735, "lon": -122.0075062}, {"type": "node", "id": 6141255673, "lat": 47.3252875, "lon": -122.0077162}, {"type": "node", "id": 6141255675, "lat": 47.3253082, "lon": -122.0075935}, {"type": "node", "id": 6612467885, "lat": 47.3182083, "lon": -122.0054441, "tags": {"amenity": "place_of_worship", "name": "Chapel Wood Baptist Church", "religion": "christian"}}, {"type": "node", "id": 6682413885, "lat": 47.3260643, "lon": -122.0103853, "tags": {"addr:door": "180", "amenity": "bar", "brewery": "yes", "check_date": "2025-11-16", "craft": "brewery", "name": "Big Block Brewing", "opening_hours": "Mo-Sa 11:00-21:00; Su 11:00-20:00", "payment:cash": "yes", "payment:credit_cards": "yes", "payment:debit_cards": "yes"}}, {"type": "node", "id": 6860632785, "lat": 47.3188772, "lon": -122.005801, "tags": {"amenity": "fast_food", "brand": "Krispy Krunchy Chicken", "brand:wikidata": "Q65087447", "check_date": "2023-03-12", "cuisine": "chicken", "name": "Krispy Krunchy Chicken", "opening_hours": "Mo-Fr 05:00-22:00; Sa 06:00-22:00; Su 07:00-22:00", "payment:mastercard": "yes", "payment:visa": "yes", "takeaway": "yes"}}, {"type": "node", "id": 6923822541, "lat": 47.3225361, "lon": -122.0078534}, {"type": "node", "id": 8395728406, "lat": 47.3210555, "lon": -122.0064914}, {"type": "node", "id": 8395728407, "lat": 47.3215037, "lon": -122.0081672}, {"type": "node", "id": 8395728412, "lat": 47.3210455, "lon": -122.0070679}, {"type": "node", "id": 8436485936, "lat": 47.3188201, "lon": -122.0057762, "tags": {"addr:door": "140", "addr:housenumber": "31509", "addr:street": "3rd Avenue", "check_date": "2025-08-09", "name": "The Hair Scene", "payment:mastercard": "yes", "payment:visa": "yes", "phone": "+1-360-886-7770", "shop": "hairdresser"}}, {"type": "node", "id": 9223884068, "lat": 47.3284135, "lon": -122.0092503}, {"type": "node", "id": 9438103244, "lat": 47.3285767, "lon": -122.0093202}, {"type": "node", "id": 9438103245, "lat": 47.3285904, "lon": -122.0092448}, {"type": "node", "id": 9438103246, "lat": 47.3286297, "lon": -122.0092476}, {"type": "node", "id": 9438103247, "lat": 47.3286266, "lon": -122.0092908}, {"type": "node", "id": 9438103248, "lat": 47.3286969, "lon": -122.0092908}, {"type": "node", "id": 9438103249, "lat": 47.3286876, "lon": -122.0082551}, {"type": "node", "id": 9438103250, "lat": 47.3283612, "lon": -122.0082606}, {"type": "node", "id": 9438103251, "lat": 47.32836, "lon": -122.0088396}, {"type": "node", "id": 9438103252, "lat": 47.3284098, "lon": -122.0088359}, {"type": "node", "id": 9438103253, "lat": 47.3284117, "lon": -122.009129}, {"type": "node", "id": 9438103254, "lat": 47.3284353, "lon": -122.009129}, {"type": "node", "id": 9846937917, "lat": 47.3264402, "lon": -122.0099666, "tags": {"addr:door": "120", "amenity": "restaurant", "check_date": "2025-09-01", "cuisine": "indian", "name": "Chaat N Dosa"}}, {"type": "node", "id": 9846942517, "lat": 47.3210672, "lon": -122.0064399}, {"type": "node", "id": 9912925067, "lat": 47.3188547, "lon": -122.0057875, "tags": {"addr:door": "130", "addr:housenumber": "31509", "addr:street": "3rd Avenue", "check_date": "2025-08-09", "name": "Deb's Pet Transformations", "opening_hours": "Mo-Fr 08:00-16:00", "payment:mastercard": "yes", "payment:visa": "yes", "phone": "+1-360-886-5284", "shop": "pet_grooming"}}, {"type": "node", "id": 9912925069, "lat": 47.3195735, "lon": -122.0061004}, {"type": "node", "id": 9912925070, "lat": 47.3195537, "lon": -122.0061599}, {"type": "node", "id": 9912925071, "lat": 47.319593, "lon": -122.0061884}, {"type": "node", "id": 9965004396, "lat": 47.3262011, "lon": -122.0099708, "tags": {"brand": "State Farm", "brand:wikidata": "Q2007336", "check_date": "2025-09-01", "name": "State Farm", "office": "insurance"}}, {"type": "node", "id": 9965004397, "lat": 47.3263656, "lon": -122.009967, "tags": {"addr:door": "115", "check_date": "2025-09-01", "name": "Lifetime", "shop": "outdoor"}}, {"type": "node", "id": 9965004398, "lat": 47.3265873, "lon": -122.009967, "tags": {"beauty": "nails", "check_date": "2025-09-01", "name": "Mimi's Nails", "phone": "+1-360-886-5532", "shop": "beauty"}}, {"type": "node", "id": 9965004399, "lat": 47.3266085, "lon": -122.0101661, "tags": {"amenity": "bar", "name": "Uva Furem Winery Tasting Room"}}, {"type": "node", "id": 9965004400, "lat": 47.3266097, "lon": -122.010274, "tags": {"brand": "John L. Scott", "brand:wikidata": "Q6243687", "name": "John L. Scott", "office": "estate_agent"}}, {"type": "node", "id": 9965004401, "lat": 47.326572, "lon": -122.010408, "tags": {"addr:door": "153", "check_date": "2025-11-16", "name": "Faithful Harvest Market / Stems 'n Caps", "office": "company"}}, {"type": "node", "id": 10002836322, "lat": 47.3223485, "lon": -122.006997, "tags": {"amenity": "fast_food", "cuisine": "mexican", "name": "Taqueria Chavez"}}, {"type": "node", "id": 10003151517, "lat": 47.3187817, "lon": -122.0057497, "tags": {"addr:door": "150", "check_date": "2025-08-09", "name": "Black Bear Outpost", "opening_hours": "Mo-Fr 09:00-18:00; Sa 09:00-17:00; Su 10:00-16:00", "payment:mastercard": "yes", "payment:visa": "yes", "phone": "+1-360-469-4637", "shop": "gift"}}, {"type": "node", "id": 10181334874, "lat": 47.3210916, "lon": -122.0065092}, {"type": "node", "id": 10181334875, "lat": 47.3211033, "lon": -122.0064577}, {"type": "node", "id": 10181334876, "lat": 47.3211432, "lon": -122.0065346}, {"type": "node", "id": 10181334877, "lat": 47.3211549, "lon": -122.0064832}, {"type": "node", "id": 10181334885, "lat": 47.3211818, "lon": -122.0064965}, {"type": "node", "id": 10181334886, "lat": 47.3211702, "lon": -122.0065479}, {"type": "node", "id": 10181334887, "lat": 47.3210832, "lon": -122.0065463}, {"type": "node", "id": 10181334888, "lat": 47.3211106, "lon": -122.0064253}, {"type": "node", "id": 10181334889, "lat": 47.3211622, "lon": -122.0064507}, {"type": "node", "id": 10181334890, "lat": 47.3211348, "lon": -122.0065717}, {"type": "node", "id": 10181334892, "lat": 47.3210172, "lon": -122.0066611}, {"type": "node", "id": 10181334893, "lat": 47.3211255, "lon": -122.0067145}, {"type": "node", "id": 10731394003, "lat": 47.3209372, "lon": -122.0070145}, {"type": "node", "id": 10731493305, "lat": 47.3215603, "lon": -122.0070382, "tags": {"amenity": "dentist", "check_date": "2023-03-12", "healthcare": "dentist", "name": "Rooted Dentistry"}}, {"type": "node", "id": 11076212971, "lat": 47.3215865, "lon": -122.0069275, "tags": {"check_date": "2023-07-29", "name": "Sharkey's Cuts for Kids", "shop": "hairdresser"}}, {"type": "node", "id": 11211335785, "lat": 47.3279444, "lon": -122.0078103, "tags": {"check_date": "2023-09-22", "name": "Namaste Mart", "shop": "convenience"}}, {"type": "node", "id": 11211335786, "lat": 47.3215342, "lon": -122.0071489, "tags": {"amenity": "cafe", "check_date": "2023-09-22", "name": "Our Hive Juicery"}}, {"type": "node", "id": 11211335787, "lat": 47.3280938, "lon": -122.0079142, "tags": {"check_date": "2023-09-22", "name": "Bath Fitters", "shop": "bathroom_furnishing"}}, {"type": "node", "id": 11685903762, "lat": 47.328037, "lon": -122.0078652, "tags": {"amenity": "cafe", "check_date": "2024-03-02", "name": "Huxdotter Coffee"}}, {"type": "node", "id": 12060796745, "lat": 47.3205069, "lon": -122.0063566, "tags": {"addr:city": "Black Diamond", "addr:housenumber": "31243", "addr:postcode": "98010", "addr:street": "3rd Avenue", "amenity": "fast_food", "brand": "Wendy's", "brand:wikidata": "Q550258", "check_date": "2025-09-04", "cuisine": "burger", "name": "Wendy's", "opening_hours": "06:00-01:00", "payment:cash": "yes", "payment:credit_cards": "yes", "payment:debit_cards": "yes", "takeaway": "yes"}}, {"type": "node", "id": 12117680801, "lat": 47.3214601, "lon": -122.006923, "tags": {"amenity": "charging_station"}}, {"type": "node", "id": 12210069717, "lat": 47.3284976, "lon": -122.0091752, "tags": {"check_date": "2024-09-29", "name": "Humble Insurance Group", "office": "insurance"}}, {"type": "node", "id": 12572749384, "lat": 47.3192249, "lon": -122.0054024, "tags": {"amenity": "vacuum_cleaner"}}, {"type": "node", "id": 12876200318, "lat": 47.3182828, "lon": -122.0054362, "tags": {"amenity": "social_facility", "check_date": "2025-05-30", "name": "Black Diamond Food Bank", "opening_hours": "Mo,We 09:00-16:00", "social_facility": "food_bank"}}, {"type": "node", "id": 13132223366, "lat": 47.3265176, "lon": -122.0104252, "tags": {"check_date": "2025-09-09", "name": "Nordvind Septic & Sewer", "office": "company"}}, {"type": "node", "id": 13309719989, "lat": 47.3264884, "lon": -122.0104227, "tags": {"addr:door": "160", "check_date": "2025-11-16", "name": "Core Hobby", "shop": "collector"}}, {"type": "way", "id": 502240799, "nodes": [4927807677, 4927807674, 4927807681, 4927807680, 4927807679, 4927807678, 4927807677], "tags": {"landuse": "garages", "name": "Royal Storage", "shop": "storage_rental"}}, {"type": "way", "id": 502240800, "nodes": [4927807682, 6923822541, 4927807681, 4927807680, 4927807679, 4927807678, 4927807677, 4927807676, 4927807690, 4927807675, 4927807682], "tags": {"brand": "Public Storage", "brand:wikidata": "Q1156045", "landuse": "garages", "name": "Public Storage", "shop": "storage_rental"}}, {"type": "way", "id": 502240801, "nodes": [4927807690, 4927807676, 8395728407, 4927807689, 4927807687, 4927807685, 4927807684, 4927807683, 4927807690], "tags": {"landuse": "industrial", "name": "Black Diamond Auto Wreaking", "shop": "car_repair"}}, {"type": "way", "id": 515099944, "nodes": [5031304752, 5031304751, 5031304750, 5031304749, 5031304752], "tags": {"amenity": "parking", "name": "Summit Ridge Trailhead"}}, {"type": "way", "id": 655472100, "nodes": [4927807732, 6141241772, 6141241773, 6141241774, 4927807732], "tags": {"addr:city": "Black Diamond", "addr:housenumber": "30741", "addr:postcode": "98010", "addr:state": "WA", "addr:street": "3rd Avenue", "amenity": "cafe", "building": "yes", "check_date": "2025-09-14", "cuisine": "coffee_shop", "internet_access": "no", "name": "Farmhouse Brew", "opening_hours": "Mo-Fr 05:00-14:00; Sa-Su 06:00-14:00", "outdoor_seating": "no", "payment:cash": "yes", "payment:credit_cards": "yes", "payment:debit_cards": "yes"}}, {"type": "way", "id": 655472376, "nodes": [4927807640, 6141254789, 6141254790, 6141254787, 4927807640], "tags": {"addr:city": "Black Diamond", "addr:housenumber": "31615", "addr:postcode": "98010", "addr:state": "WA", "addr:street": "3rd Avenue", "building": "yes", "name": "Rainier Legal Center - Barry Kombol Attorney at Law", "office": "lawyer"}}, {"type": "way", "id": 655472583, "nodes": [6141255475, 6141255472, 6141255479, 6141255476, 6141255670, 4927807695, 6141255675, 6141255673, 6141255475], "tags": {"addr:city": "Black Diamond", "addr:housenumber": "30410", "addr:postcode": "98010", "addr:state": "WA", "addr:street": "3rd Avenue", "amenity": "place_of_worship", "building": "yes", "denomination": "baptist", "name": "Chapel Wood Baptist Church", "religion": "christian"}}, {"type": "way", "id": 655472789, "nodes": [4927807691, 6141253330, 6141253328, 6141253326, 4927807691], "tags": {"addr:city": "Black Diamond", "addr:housenumber": "31117", "addr:postcode": "98010", "addr:state": "WA", "addr:street": "3rd Avenue", "amenity": "pub", "building": "yes", "name": "2 Boots"}}, {"type": "way", "id": 655472796, "nodes": [4927807673, 6141253306, 6141253304, 6141253301, 4927807673], "tags": {"addr:city": "Black Diamond", "addr:housenumber": "31121", "addr:postcode": "98010", "addr:state": "WA", "addr:street": "3rd Avenue", "building": "yes", "name": "Royal Towing", "shop": "car_repair"}}, {"type": "way", "id": 655472874, "nodes": [6141246561, 6141246575, 6141246573, 6141246571, 6141246569, 6141246552, 6141246550, 6141246548, 6141246561], "tags": {"addr:city": "Black Diamond", "addr:housenumber": "25203", "addr:postcode": "98010", "addr:state": "WA", "addr:street": "Roberts Drive", "amenity": "veterinary", "building": "yes", "email": "nw-equine@msn.com", "name": "Northwest Equine Veterinary", "opening_hours": "Mo-Fr 08:30-17:00", "phone": "+1-425-432-1914", "website": "https://nwequinevet.com/"}}, {"type": "way", "id": 1023440531, "nodes": [9223884068, 9438103244, 9438103245, 9438103246, 9438103247, 9438103248, 9438103249, 9438103250, 9438103251, 9438103252, 9438103253, 9438103254, 9223884068], "tags": {"addr:city": "Black Diamond", "addr:housenumber": "30460", "addr:postcode": "98010", "addr:street": "3rd Avenue", "building": "commercial", "name": "Free Up Storage", "shop": "storage_rental"}}, {"type": "way", "id": 1081559960, "nodes": [4927807663, 9912925069, 9912925070, 9912925071, 4927807663], "tags": {"amenity": "cafe", "building": "yes", "check_date": "2025-11-15", "cuisine": "coffee_shop", "name": "Risterritos Coffee"}}, {"type": "way", "id": 1112771681, "nodes": [10181334874, 10181334887, 10181334890, 10181334876, 10181334886, 10181334885, 10181334877, 10181334889, 10181334888, 10181334875, 9846942517, 8395728406, 10181334874], "tags": {"addr:city": "Black Diamond", "addr:housenumber": "31317", "addr:postcode": "98010", "addr:state": "WA", "addr:street": "3rd Avenue", "amenity": "cafe", "building": "yes", "name": "Gravity Coffee"}}, {"type": "way", "id": 1112771684, "nodes": [8395728412, 10181334893, 10181334892, 10731394003, 8395728412], "tags": {"addr:city": "Black Diamond", "addr:housenumber": "31231", "addr:postcode": "98010", "addr:state": "WA", "addr:street": "3rd Avenue", "amenity": "car_wash", "building": "yes", "check_date": "2023-03-12", "name": "3rd Ave Eco Wash"}}]}