{"version": 0.6, "generator": "Overpass API 0.7.62.8 e802775f", "osm3s": {"timestamp_osm_base": "2025-12-06T04:37:40Z", "copyright": "The data included in this document is from www.openstreetmap.org. The data is made available under ODbL."}, "elements": [{"type": "node", "id": 3423488400, "lat": 46.1264159, "lon": -112.9312411, "tags": {"addr:city": "Anaconda", "addr:housenumber": "1515", "addr:postcode": "59711", "addr:street": "East Commercial Avenue", "amenity": "restaurant", "cuisine": "american", "name": "O'bella Italian Restaurant", "website": "http://obellarestaurant.com/"}}, {"type": "node", "id": 3423488415, "lat": 46.1269755, "lon": -112.931934}, {"type": "node", "id": 3423488452, "lat": 46.1271198, "lon": -112.9319302}, {"type": "node", "id": 3423488453, "lat": 46.1267654, "lon": -112.9332608, "tags": {"name": "Thriftway Super Stop", "shop": "convenience"}}, {"type": "node", "id": 3423488464, "lat": 46.1324406, "lon": -112.9542023}, {"type": "node", "id": 3423488465, "lat": 46.127016, "lon": -112.9313678}, {"type": "node", "id": 3423488468, "lat": 46.1322319, "lon": -112.9542774}, {"type": "node", "id": 3423488477, "lat": 46.13244, "lon": -112.9542808}, {"type": "node", "id": 3423488481, "lat": 46.1269349, "lon": -112.9317139}, {"type": "node", "id": 3423488499, "lat": 46.1269882, "lon": -112.9316935}, {"type": "node", "id": 3423488520, "lat": 46.1270166, "lon": -112.9319182}, {"type": "node", "id": 3423488523, "lat": 46.1270255, "lon": -112.9319664}, {"type": "node", "id": 3423488528, "lat": 46.1269339, "lon": -112.9313993}, {"type": "node", "id": 3423505197, "lat": 46.1276647, "lon": -112.9348495}, {"type": "node", "id": 3423505198, "lat": 46.1271124, "lon": -112.93189}, {"type": "node", "id": 3423505199, "lat": 46.127466, "lon": -112.9350841}, {"type": "node", "id": 3423505210, "lat": 46.1270182, "lon": -112.935243, "tags": {"addr:city": "Anaconda", "addr:housenumber": "1300", "addr:postcode": "59711", "addr:state": "MT", "addr:street": "East Park Avenue", "brand": "Albertsons", "brand:wikidata": "Q2831861", "name": "Albertsons", "opening_hours": "Mo-Su 07:00-22:00", "phone": "+1 406-563-5238", "shop": "supermarket", "website": "https://local.albertsons.com/mt/anaconda/1300-e-park-ave.html"}}, {"type": "node", "id": 3423505215, "lat": 46.1274406, "lon": -112.9349231}, {"type": "node", "id": 3423505230, "lat": 46.1275927, "lon": -112.9345885, "tags": {"addr:city": "Anaconda", "addr:housenumber": "1310", "addr:postcode": "59711-2722", "addr:state": "MT", "addr:street": "East Commercial Avenue", "brand": "Ace Hardware", "brand:wikidata": "Q4672981", "name": "Ace Hardware", "opening_hours": "Mo-Fr 08:00-19:00; Sa 08:00-18:00; Su 09:00-17:00", "phone": "+1 406-563-6060", "ref": "11455", "shop": "doityourself"}}, {"type": "node", "id": 3423505237, "lat": 46.1276901, "lon": -112.93501}, {"type": "node", "id": 3423728258, "lat": 46.132526, "lon": -112.9738102, "tags": {"addr:city": "Anaconda", "addr:housenumber": "1525", "addr:postcode": "59711", "addr:street": "West Park Avenue", "brand": "Stokes", "brand:wikidata": "Q66481382", "name": "Stokes", "shop": "houseware"}}, {"type": "node", "id": 3423728270, "lat": 46.1286614, "lon": -112.9404784, "tags": {"name": "Suds Pub Laundromat", "shop": "laundry"}}, {"type": "node", "id": 3423728276, "lat": 46.1322376, "lon": -112.9736131}, {"type": "node", "id": 3423728278, "lat": 46.1284216, "lon": -112.940175, "tags": {"addr:city": "Anaconda", "addr:housenumber": "920", "addr:postcode": "59711", "addr:street": "East Commercial Avenue", "brand": "Carquest", "brand:wikidata": "Q5045948", "name": "Carquest", "official_name": "Carquest Auto Parts", "shop": "car_parts"}}, {"type": "node", "id": 3423728290, "lat": 46.1308493, "lon": -112.9637841, "tags": {"name": "Town Pump", "shop": "convenience"}}, {"type": "node", "id": 3423773402, "lat": 46.1392989, "lon": -112.9845739, "tags": {"name": "Thriftway Super Stops", "shop": "convenience"}}, {"type": "node", "id": 3424000782, "lat": 46.1287637, "lon": -112.9529453, "tags": {"addr:city": "Anaconda", "addr:housenumber": "213", "addr:postcode": "59711", "addr:street": "Main Street", "amenity": "bar", "name": "Thompson's Bar"}}, {"type": "node", "id": 3424014025, "lat": 46.1281856, "lon": -112.948331, "tags": {"addr:city": "Anaconda", "addr:housenumber": "401", "addr:postcode": "59711", "addr:state": "MT", "addr:street": "East Park Avenue", "amenity": "restaurant", "brand": "Pizza Hut", "brand:wikidata": "Q191615", "cuisine": "pizza", "name": "Pizza Hut", "phone": "+1 406-563-8433", "website": "https://locations.pizzahut.com/mt/anaconda/401-e-park-ave"}}, {"type": "node", "id": 3424014037, "lat": 46.128983, "lon": -112.9521138, "tags": {"amenity": "bar", "name": "Locker Room Bar"}}, {"type": "node", "id": 3424127387, "lat": 46.1284068, "lon": -112.9468996, "tags": {"amenity": "bar", "name": "Ananaconda Bar"}}, {"type": "node", "id": 3424127594, "lat": 46.127271, "lon": -112.9418544, "tags": {"amenity": "bar", "name": "JFK Bar"}}, {"type": "node", "id": 3424127602, "lat": 46.1274784, "lon": -112.9429253}, {"type": "node", "id": 3424955997, "lat": 46.1237241, "lon": -112.9325763}, {"type": "node", "id": 3424956065, "lat": 46.1299609, "lon": -112.9550703, "tags": {"name": "Hardware Hank", "shop": "doityourself"}}, {"type": "node", "id": 6871594457, "lat": 46.127786, "lon": -112.9374542}, {"type": "node", "id": 6871594458, "lat": 46.1281801, "lon": -112.9372932}, {"type": "node", "id": 6871594459, "lat": 46.1278641, "lon": -112.935464}, {"type": "node", "id": 6871594460, "lat": 46.1274402, "lon": -112.9356249}, {"type": "node", "id": 6871644693, "lat": 46.1242972, "lon": -112.934264}, {"type": "node", "id": 6871644694, "lat": 46.1244376, "lon": -112.93401}, {"type": "node", "id": 6871644696, "lat": 46.1243047, "lon": -112.9338572}, {"type": "node", "id": 6871644698, "lat": 46.1242477, "lon": -112.9339604}, {"type": "node", "id": 6871644699, "lat": 46.1242108, "lon": -112.9340178}, {"type": "node", "id": 6871655733, "lat": 46.1240229, "lon": -112.9343572}, {"type": "node", "id": 6871655734, "lat": 46.1237068, "lon": -112.9342196}, {"type": "node", "id": 6871655737, "lat": 46.1234991, "lon": -112.933428}, {"type": "node", "id": 6871655738, "lat": 46.1234178, "lon": -112.9331192}, {"type": "node", "id": 6871655739, "lat": 46.1235237, "lon": -112.9326967}, {"type": "node", "id": 6871655740, "lat": 46.1236024, "lon": -112.9325657}, {"type": "node", "id": 6871655743, "lat": 46.1239175, "lon": -112.9337226}, {"type": "node", "id": 6871797102, "lat": 46.1319059, "lon": -112.9741195}, {"type": "node", "id": 6871797103, "lat": 46.132299, "lon": -112.9739819}, {"type": "node", "id": 6871797105, "lat": 46.1318441, "lon": -112.9737567}, {"type": "node", "id": 6871797107, "lat": 46.1323249, "lon": -112.9680121}, {"type": "node", "id": 6871797108, "lat": 46.132278, "lon": -112.9677239}, {"type": "node", "id": 6871797109, "lat": 46.1319386, "lon": -112.9678388}, {"type": "node", "id": 6871797110, "lat": 46.1319855, "lon": -112.9681269}, {"type": "node", "id": 6871797111, "lat": 46.1299095, "lon": -112.9556583}, {"type": "node", "id": 6871797112, "lat": 46.1302293, "lon": -112.9555618}, {"type": "node", "id": 6871797113, "lat": 46.1301958, "lon": -112.9553472}, {"type": "node", "id": 6871797114, "lat": 46.1298761, "lon": -112.9554599}, {"type": "node", "id": 6871797126, "lat": 46.1292994, "lon": -112.9536857}, {"type": "node", "id": 6871797127, "lat": 46.1292176, "lon": -112.9532264}, {"type": "node", "id": 6871797128, "lat": 46.1291143, "lon": -112.9532647}, {"type": "node", "id": 6871797129, "lat": 46.1291947, "lon": -112.9537227}, {"type": "node", "id": 8889250701, "lat": 46.1324607, "lon": -112.953987}, {"type": "node", "id": 9953987020, "lat": 46.1268008, "lon": -112.9450543}, {"type": "node", "id": 9953987021, "lat": 46.1266434, "lon": -112.9451234}, {"type": "node", "id": 9953987022, "lat": 46.1266206, "lon": -112.9450155}, {"type": "node", "id": 9953987023, "lat": 46.1267781, "lon": -112.9449464}, {"type": "node", "id": 9954001193, "lat": 46.1274621, "lon": -112.942828}, {"type": "node", "id": 9954001194, "lat": 46.1272463, "lon": -112.9429031}, {"type": "node", "id": 9954001195, "lat": 46.1272626, "lon": -112.9430004}, {"type": "node", "id": 9954172669, "lat": 46.1294718, "lon": -112.95195}, {"type": "node", "id": 9954172670, "lat": 46.1292494, "lon": -112.9520302}, {"type": "node", "id": 9954172671, "lat": 46.1292326, "lon": -112.9519328}, {"type": "node", "id": 9954172672, "lat": 46.1294549, "lon": -112.9518525}, {"type": "node", "id": 9954219153, "lat": 46.1405656, "lon": -112.987846}, {"type": "node", "id": 9954219154, "lat": 46.1404811, "lon": -112.9875103}, {"type": "node", "id": 9954219155, "lat": 46.1403259, "lon": -112.9875917}, {"type": "node", "id": 9954219156, "lat": 46.1404104, "lon": -112.9879274}, {"type": "node", "id": 9956043060, "lat": 46.128328, "lon": -112.9479478}, {"type": "node", "id": 9956043061, "lat": 46.1280871, "lon": -112.9480343}, {"type": "node", "id": 9956043062, "lat": 46.1280658, "lon": -112.9479108}, {"type": "node", "id": 9956043063, "lat": 46.1283067, "lon": -112.9478244}, {"type": "node", "id": 9956149117, "lat": 46.1267709, "lon": -112.9362231}, {"type": "node", "id": 9956149118, "lat": 46.1266784, "lon": -112.9362561}, {"type": "node", "id": 9956149119, "lat": 46.126719, "lon": -112.9364926}, {"type": "node", "id": 9956149120, "lat": 46.126791, "lon": -112.9364669}, {"type": "node", "id": 9956149121, "lat": 46.1267687, "lon": -112.9363369}, {"type": "node", "id": 9956149122, "lat": 46.1267892, "lon": -112.9363296}, {"type": "node", "id": 12179288605, "lat": 46.1265309, "lon": -112.9382764, "tags": {"addr:city": "Anaconda", "addr:housenumber": "1111", "addr:postcode": "59711", "addr:state": "MT", "addr:street": "East Park Avenue", "amenity": "cafe", "contact:facebook": "https://www.facebook.com/profile.php?id=100084766897311", "name": "The Hangout", "source": "esri/USA_NAD_Addresses"}}, {"type": "node", "id": 12318673259, "lat": 46.1275838, "lon": -112.9447891, "tags": {"addr:city": "Anaconda", "addr:housenumber": "627", "addr:postcode": "59711", "addr:state": "MT", "addr:street": "East Park Avenue", "amenity": "restaurant", "cuisine": "tex-mex", "name": "Jordi's Cantina", "source": "esri/USA_NAD_Addresses", "website": "https://www.jordiscantina.com/"}}, {"type": "node", "id": 12770612175, "lat": 46.1291689, "lon": -112.9535775}, {"type": "node", "id": 13055455516, "lat": 46.1319146, "lon": -112.9737317}, {"type": "node", "id": 13055455517, "lat": 46.1319094, "lon": -112.973701}, {"type": "node", "id": 13055455518, "lat": 46.1321747, "lon": -112.9740743}, {"type": "node", "id": 13055455519, "lat": 46.131984, "lon": -112.9741419}, {"type": "node", "id": 13055455520, "lat": 46.131976, "lon": -112.9740946}, {"type": "node", "id": 13055455521, "lat": 46.1321666, "lon": -112.974027}, {"type": "node", "id": 13055455522, "lat": 46.1321319, "lon": -112.9736508}, {"type": "node", "id": 13055455523, "lat": 46.1321273, "lon": -112.9736237}, {"type": "node", "id": 13058273222, "lat": 46.1234517, "lon": -112.9328683}, {"type": "node", "id": 13058273235, "lat": 46.1241612, "lon": -112.9341076}, {"type": "node", "id": 13058273236, "lat": 46.1241929, "lon": -112.9339972}, {"type": "node", "id": 13058273237, "lat": 46.1242266, "lon": -112.9339362}, {"type": "node", "id": 13070136941, "lat": 46.1324589, "lon": -112.9542026}, {"type": "node", "id": 13070136942, "lat": 46.1322305, "lon": -112.9539831}, {"type": "node", "id": 13070136943, "lat": 46.1322288, "lon": -112.9541973}, {"type": "node", "id": 13070136944, "lat": 46.1322189, "lon": -112.9541972}, {"type": "node", "id": 13070136945, "lat": 46.1322182, "lon": -112.9542772}, {"type": "way", "id": 335232057, "nodes": [3423505198, 3423488465, 3423488528, 3423488499, 3423488481, 3423488415, 3423488520, 3423488523, 3423488452, 3423505198], "tags": {"amenity": "restaurant", "building": "yes", "name": "May Palace Chinese"}}, {"type": "way", "id": 335234009, "nodes": [3423505237, 3423505197, 3423505215, 3423505199, 3423505237], "tags": {"amenity": "restaurant", "building": "yes", "name": "Barclay II Supper Club & Lounge"}}, {"type": "way", "id": 733678635, "nodes": [6871594457, 6871594458, 6871594459, 6871594460, 6871594457], "tags": {"building": "yes", "name": "Dee Motors", "shop": "car"}}, {"type": "way", "id": 733680165, "nodes": [6871655733, 6871655734, 6871655737, 6871655738, 13058273222, 6871655739, 6871655740, 3424955997, 6871655743, 6871655733], "tags": {"addr:city": "Anaconda", "addr:postcode": "59711", "addr:state": "MT", "addr:street": "Anaconda Smelter Road", "landuse": "commercial", "name": "Discovery Storage", "shop": "storage_rental"}}, {"type": "way", "id": 733680277, "nodes": [6871644693, 6871644694, 6871644696, 6871644698, 13058273237, 13058273236, 6871644699, 13058273235, 6871644693], "tags": {"building": "yes", "shop": "car_repair"}}, {"type": "way", "id": 733702020, "nodes": [6871797102, 13055455520, 13055455519, 13055455518, 13055455521, 6871797103, 3423728276, 13055455522, 13055455523, 13055455517, 13055455516, 6871797105, 6871797102], "tags": {"brand": "True Value", "brand:wikidata": "Q7847545", "building": "yes", "name": "True Value", "shop": "hardware"}}, {"type": "way", "id": 733702021, "nodes": [6871797107, 6871797108, 6871797109, 6871797110, 6871797107], "tags": {"building": "yes", "name": "Lisac's Tire", "shop": "tyres"}}, {"type": "way", "id": 733702022, "nodes": [6871797111, 6871797112, 6871797113, 6871797114, 6871797111], "tags": {"building": "yes", "shop": "alcohol"}}, {"type": "way", "id": 733702024, "nodes": [6871797126, 6871797127, 6871797128, 12770612175, 6871797129, 6871797126], "tags": {"amenity": "cafe", "building": "yes", "name": "406 Bistro"}}, {"type": "way", "id": 1086346272, "nodes": [9953987020, 9953987021, 9953987022, 9953987023, 9953987020], "tags": {"amenity": "bar", "building": "yes", "name": "Carmel's Sports Bar & Grill"}}, {"type": "way", "id": 1086354449, "nodes": [3424127602, 9954001193, 9954001194, 9954001195, 3424127602], "tags": {"amenity": "bar", "name": "Club Moderne"}}, {"type": "way", "id": 1086369064, "nodes": [9954172669, 9954172670, 9954172671, 9954172672, 9954172669], "tags": {"amenity": "restaurant", "building": "yes", "name": "Gallicano's Pizzeria"}}, {"type": "way", "id": 1086379408, "nodes": [9954219153, 9954219154, 9954219155, 9954219156, 9954219153], "tags": {"amenity": "restaurant", "building": "yes", "cuisine": "american", "name": "Haufbrau"}}, {"type": "way", "id": 1086567929, "nodes": [9956043060, 9956043061, 9956043062, 9956043063, 9956043060], "tags": {"amenity": "bar", "building": "yes", "name": "Mining Co Saloon & Casino"}}, {"type": "way", "id": 1086578750, "nodes": [9956149117, 9956149118, 9956149119, 9956149120, 9956149121, 9956149122, 9956149117], "tags": {"amenity": "restaurant", "building": "yes", "cuisine": "american", "name": "Peppermint Patty\u2019s"}}, {"type": "way", "id": 1422214200, "nodes": [13070136941, 8889250701, 13070136942, 13070136943, 13070136944, 13070136945, 3423488468, 3423488477, 3423488464, 13070136941], "tags": {"addr:city": "Anaconda", "addr:housenumber": "217", "addr:postcode": "59711", "addr:state": "MT", "addr:street": "West Pennsylvania Street", "building": "office", "denomination": "roman_catholic", "description": "A pastoral unit comprised of Holy Family Church and St. Peter Church", "diocese": "Helena", "fax": "+1 406-563-5912", "name": "Anaconda Catholic Community", "office": "religion", "phone": "+1 406-563-8406", "religion": "christian", "website": "https://www.anacondacatholiccommunity.com/"}}]}