{"version": 0.6, "generator": "Overpass API 0.7.62.8 e802775f", "osm3s": {"timestamp_osm_base": "2025-12-06T23:47:13Z", "copyright": "The data included in this document is from www.openstreetmap.org. The data is made available under ODbL."}, "elements": [{"type": "node", "id": 32777486, "lat": 47.5264555, "lon": -122.6891402}, {"type": "node", "id": 32782302, "lat": 47.5270757, "lon": -122.686321}, {"type": "node", "id": 32786780, "lat": 47.5277295, "lon": -122.6879259}, {"type": "node", "id": 32808569, "lat": 47.5276619, "lon": -122.6884226}, {"type": "node", "id": 32811122, "lat": 47.5277659, "lon": -122.6891515}, {"type": "node", "id": 32820217, "lat": 47.5277291, "lon": -122.6864977}, {"type": "node", "id": 32830456, "lat": 47.5278586, "lon": -122.6891109}, {"type": "node", "id": 32842195, "lat": 47.5277761, "lon": -122.6865712}, {"type": "node", "id": 356547835, "lat": 47.5248166, "lon": -122.7001405, "tags": {"amenity": "school", "ele": "9", "gnis:feature_id": "1531071", "name": "Pleasant Valley School"}}, {"type": "node", "id": 1078480490, "lat": 47.5262227, "lon": -122.6888052}, {"type": "node", "id": 1078480534, "lat": 47.5262591, "lon": -122.6890883}, {"type": "node", "id": 1311240727, "lat": 47.5257643, "lon": -122.698297, "tags": {"addr:city": "Bremerton", "addr:housenumber": "3888", "addr:postcode": "98312", "addr:state": "WA", "addr:street": "West State Highway 16", "check_date": "2024-10-12", "name": "Peninsula Subaru", "opening_hours": "Mo-Sa 08:30-20:00", "phone": "+1-360-479-4320", "shop": "car", "website": "https://www.peninsulasubaru.com/"}}, {"type": "node", "id": 4986823501, "lat": 47.5301455, "lon": -122.6962254, "tags": {"check_date": "2024-10-13", "name": "Kitsap Muffler", "shop": "car_repair"}}, {"type": "node", "id": 5406198549, "lat": 47.5249105, "lon": -122.7055401}, {"type": "node", "id": 5406198550, "lat": 47.524877, "lon": -122.7055098}, {"type": "node", "id": 5406198551, "lat": 47.52489, "lon": -122.7054783}, {"type": "node", "id": 5406198552, "lat": 47.5248003, "lon": -122.705397}, {"type": "node", "id": 5406198553, "lat": 47.5247874, "lon": -122.7054282}, {"type": "node", "id": 5406198554, "lat": 47.5247415, "lon": -122.7053866}, {"type": "node", "id": 5406198555, "lat": 47.5247069, "lon": -122.7054703}, {"type": "node", "id": 5406198556, "lat": 47.5247146, "lon": -122.7054834}, {"type": "node", "id": 5406198557, "lat": 47.5246661, "lon": -122.7056033}, {"type": "node", "id": 5406198558, "lat": 47.524652, "lon": -122.7055908}, {"type": "node", "id": 5406198559, "lat": 47.5246163, "lon": -122.705679}, {"type": "node", "id": 5406198560, "lat": 47.5246535, "lon": -122.705712}, {"type": "node", "id": 5406198561, "lat": 47.5246475, "lon": -122.705727}, {"type": "node", "id": 5406198562, "lat": 47.5247239, "lon": -122.705795}, {"type": "node", "id": 5406198563, "lat": 47.524731, "lon": -122.7057776}, {"type": "node", "id": 5406198564, "lat": 47.5248002, "lon": -122.7058393}, {"type": "node", "id": 5406198565, "lat": 47.5248373, "lon": -122.7057481}, {"type": "node", "id": 5406198566, "lat": 47.5248253, "lon": -122.7057374}, {"type": "node", "id": 5406198567, "lat": 47.5248744, "lon": -122.7056171}, {"type": "node", "id": 5406198568, "lat": 47.5248776, "lon": -122.7056199}, {"type": "node", "id": 5636335446, "lat": 47.5271591, "lon": -122.701775}, {"type": "node", "id": 5636335447, "lat": 47.5272365, "lon": -122.701574}, {"type": "node", "id": 5636335448, "lat": 47.5270905, "lon": -122.7014506}, {"type": "node", "id": 5636335449, "lat": 47.5270445, "lon": -122.7015699}, {"type": "node", "id": 5636335450, "lat": 47.5269991, "lon": -122.7015315}, {"type": "node", "id": 5636335451, "lat": 47.5269817, "lon": -122.7015767}, {"type": "node", "id": 5636335452, "lat": 47.527023, "lon": -122.7016115}, {"type": "node", "id": 5636335453, "lat": 47.526979, "lon": -122.7017258}, {"type": "node", "id": 5636335454, "lat": 47.5270731, "lon": -122.7018053}, {"type": "node", "id": 5636335455, "lat": 47.5270882, "lon": -122.7017663}, {"type": "node", "id": 5636335456, "lat": 47.5271076, "lon": -122.7017826}, {"type": "node", "id": 5636335457, "lat": 47.5271224, "lon": -122.701744}, {"type": "node", "id": 5895506692, "lat": 47.5252613, "lon": -122.6965667, "tags": {"check_date": "2024-10-12", "name": "Peninsula Preowned Cars & Trucks", "shop": "car"}}, {"type": "node", "id": 5895507486, "lat": 47.5268942, "lon": -122.6993991, "tags": {"check_date": "2024-10-12", "name": "The Overland Truck Store", "shop": "car"}}, {"type": "node", "id": 6620815512, "lat": 47.5259924, "lon": -122.7026534, "tags": {"brand": "U-Haul", "brand:wikidata": "Q7862902", "shop": "storage_rental"}}, {"type": "node", "id": 6620815513, "lat": 47.5268184, "lon": -122.7006508, "tags": {"amenity": "fuel", "check_date": "2025-09-07", "name": "76"}}, {"type": "node", "id": 7661577686, "lat": 47.5277852, "lon": -122.6987835, "tags": {"check_date": "2024-10-12", "name": "Cloise and Mike Construction", "office": "company"}}, {"type": "node", "id": 7661587485, "lat": 47.5266693, "lon": -122.7006415, "tags": {"check_date": "2025-09-07", "name": "Gorst Food Mart", "shop": "convenience"}}, {"type": "node", "id": 7662620593, "lat": 47.527458, "lon": -122.7006355, "tags": {"addr:housenumber": "3995", "name": "Beto's Tires", "shop": "tyres"}}, {"type": "node", "id": 7662620892, "lat": 47.5312469, "lon": -122.6938578, "tags": {"check_date": "2025-09-07", "name": "Karport King", "shop": "car_parts"}}, {"type": "node", "id": 7662620992, "lat": 47.5244302, "lon": -122.6961973, "tags": {"check_date": "2025-07-12", "name": "Custom Hearth", "shop": "furniture"}}, {"type": "node", "id": 7662620993, "lat": 47.5294992, "lon": -122.6975459, "tags": {"check_date": "2025-09-07", "shop": "computer"}}, {"type": "node", "id": 8736985821, "lat": 47.5251062, "lon": -122.7064263, "tags": {"shop": "tobacco"}}, {"type": "node", "id": 8736985834, "lat": 47.5252215, "lon": -122.7062689, "tags": {"name": "Boerner", "shop": "weapons"}}, {"type": "node", "id": 8736985841, "lat": 47.5250803, "lon": -122.7066434, "tags": {"amenity": "veterinary", "name": "All Creatures Animal Hospital"}}, {"type": "node", "id": 8736985843, "lat": 47.5245438, "lon": -122.7136965, "tags": {"amenity": "place_of_worship", "religion": "christian"}}, {"type": "node", "id": 8870956738, "lat": 47.525081, "lon": -122.6932645, "tags": {"amenity": "cafe", "name": "Ladybug Espresso", "takeaway": "only"}}, {"type": "node", "id": 8870956739, "lat": 47.5254989, "lon": -122.6932104, "tags": {"shop": "cannabis"}}, {"type": "node", "id": 8870956740, "lat": 47.5264594, "lon": -122.6992938, "tags": {"amenity": "cafe", "check_date": "2024-10-12", "cuisine": "coffee_shop", "name": "Espresso Gone Crazy", "takeaway": "only"}}, {"type": "node", "id": 10049663817, "lat": 47.5287936, "lon": -122.6985218, "tags": {"amenity": "recycling", "check_date": "2024-10-13", "name": "Navy City Metal Recycling", "recycling_type": "centre"}}, {"type": "node", "id": 10049663818, "lat": 47.5260197, "lon": -122.701049, "tags": {"name": "Future Homes of Bremerton", "office": "company"}}, {"type": "node", "id": 10049663917, "lat": 47.5251301, "lon": -122.697288, "tags": {"amenity": "cafe", "check_date": "2024-10-12", "cuisine": "coffee_shop", "name": "Goat Coffee Co."}}, {"type": "node", "id": 10049663918, "lat": 47.5258903, "lon": -122.7001374, "tags": {"amenity": "cafe", "check_date": "2024-10-12", "cuisine": "coffee_shop"}}, {"type": "node", "id": 10052509917, "lat": 47.5250743, "lon": -122.6996884, "tags": {"name": "Evergreen Solar", "office": "company"}}, {"type": "node", "id": 10052510017, "lat": 47.5295025, "lon": -122.6976874, "tags": {"name": "Denali", "shop": "variety_store"}}, {"type": "node", "id": 11006457505, "lat": 47.5252547, "lon": -122.6933484, "tags": {"name": "Nibergall Marble Services", "shop": "hardware"}}, {"type": "node", "id": 11077630918, "lat": 47.5246752, "lon": -122.705867}, {"type": "node", "id": 11077630919, "lat": 47.5246531, "lon": -122.7059166}, {"type": "node", "id": 11077630920, "lat": 47.5246032, "lon": -122.7060018}, {"type": "node", "id": 11077630921, "lat": 47.5245838, "lon": -122.7060541}, {"type": "node", "id": 11077630922, "lat": 47.524687, "lon": -122.7061412}, {"type": "node", "id": 11077630923, "lat": 47.5247038, "lon": -122.7060963}, {"type": "node", "id": 11077630924, "lat": 47.5248133, "lon": -122.706048}, {"type": "node", "id": 11077630925, "lat": 47.5248324, "lon": -122.7059944}, {"type": "node", "id": 11443249267, "lat": 47.5273266, "lon": -122.686394}, {"type": "node", "id": 11443249268, "lat": 47.5275213, "lon": -122.6864417}, {"type": "node", "id": 11443258072, "lat": 47.5277227, "lon": -122.6875985}, {"type": "node", "id": 11443290230, "lat": 47.5278088, "lon": -122.6889694}, {"type": "node", "id": 11469164848, "lat": 47.5277678, "lon": -122.6869086}, {"type": "node", "id": 11469164849, "lat": 47.5277236, "lon": -122.6887099}, {"type": "node", "id": 12249297721, "lat": 47.527343, "lon": -122.7009086, "tags": {"check_date": "2025-09-07", "name": "Kitsap Cannabis", "shop": "cannabis"}}, {"type": "node", "id": 12249297722, "lat": 47.5256789, "lon": -122.6933086, "tags": {"check_date": "2024-10-13", "name": "Maddy's Old Town Flowers", "shop": "florist"}}, {"type": "node", "id": 12251546781, "lat": 47.5273429, "lon": -122.7009086, "tags": {"check_date": "2024-10-13", "shop": "cannabis"}}, {"type": "node", "id": 12251546782, "lat": 47.5256789, "lon": -122.6933085, "tags": {"check_date": "2024-10-13", "name": "Maddy's Old Town Flowers", "shop": "florist"}}, {"type": "node", "id": 12913717283, "lat": 47.5297248, "lon": -122.6969264, "tags": {"check_date": "2025-06-13", "name": "Park View Homes", "office": "company"}}, {"type": "way", "id": 560586424, "nodes": [5406198549, 5406198550, 5406198551, 5406198552, 5406198553, 5406198554, 5406198555, 5406198556, 5406198557, 5406198558, 5406198559, 5406198560, 5406198561, 5406198562, 5406198563, 5406198564, 5406198565, 5406198566, 5406198567, 5406198568, 5406198549], "tags": {"amenity": "fire_station", "building": "yes", "name": "South Kitsap Fire and Rescue #16"}}, {"type": "way", "id": 590302493, "nodes": [5636335446, 5636335447, 5636335448, 5636335449, 5636335450, 5636335451, 5636335452, 5636335453, 5636335454, 5636335455, 5636335456, 5636335457, 5636335446], "tags": {"addr:city": "Bremerton", "addr:housenumber": "4017", "addr:postcode": "98312", "addr:state": "WA", "addr:street": "State Highway 3 West", "amenity": "restaurant", "building": "yes", "check_date": "2025-09-07", "cuisine": "american;diner", "name": "Jimmy D's Hwy 3 Roadhouse", "opening_hours": "Mo-Su 08:00-21:00"}}, {"type": "way", "id": 590302495, "nodes": [1078480534, 32777486, 32811122, 32830456, 11443290230, 11469164849, 32808569, 32786780, 11443258072, 11469164848, 32842195, 32820217, 11443249268, 11443249267, 32782302, 1078480490, 1078480534], "tags": {"amenity": "garden", "description": "World-class bonsai collection and landscape artistry. The bonsai museum is set among ponds, waterfalls, sculptures and lush gardens on the shores of Puget Sound.", "landuse": "plant_nursery", "name": "Elandan Gardens", "operator": "Dan Robinson", "website": "https://elandan.com/"}}, {"type": "way", "id": 1193418791, "nodes": [11077630925, 11077630924, 11077630923, 11077630922, 11077630921, 11077630920, 11077630919, 11077630918, 11077630925], "tags": {"access": "private", "amenity": "parking", "parking": "surface"}}]}