{"version": 0.6, "generator": "Overpass API 0.7.62.8 e802775f", "osm3s": {"timestamp_osm_base": "2025-12-12T18:42:21Z", "copyright": "The data included in this document is from www.openstreetmap.org. The data is made available under ODbL."}, "elements": [{"type": "node", "id": 10625147973, "lat": 39.1814601, "lon": -106.9534313, "tags": {"amenity": "restaurant", "cuisine": "pizza;burger;stew", "name": "High Alpine", "opening_hours": "Mo-Su 10:45-15:00", "website": "https://www.aspensnowmass.com/visit/dining/snowmass/high-alpine"}}, {"type": "node", "id": 10625153619, "lat": 39.1875632, "lon": -106.9730827, "tags": {"amenity": "restaurant", "cuisine": "italian", "description": "Sample menu items: Rigatoni bolognese, linguini and clams, grilled salmon, lamb burger, Italian salads", "name": "Sam's", "opening_hours": "Mo-Su 11:00-14:30", "website": "https://www.aspensnowmass.com/visit/dining/snowmass/sams"}}, {"type": "node", "id": 10625168713, "lat": 39.1699749, "lon": -106.9698788, "tags": {"amenity": "restaurant", "cuisine": "pizza", "name": "Up4pizza", "website": "https://www.aspensnowmass.com/visit/dining/snowmass/up4pizza"}}]}