{"version": 0.6, "generator": "Overpass API 0.7.62.8 e802775f", "osm3s": {"timestamp_osm_base": "2025-12-12T18:34:14Z", "copyright": "The data included in this document is from www.openstreetmap.org. The data is made available under ODbL."}, "elements": [{"type": "node", "id": 2524946181, "lat": 39.7096744, "lon": -104.8710328, "tags": {"amenity": "fuel", "source": "Bing"}}, {"type": "node", "id": 2524946186, "lat": 39.7093154, "lon": -104.8710247, "tags": {"amenity": "car_wash", "source": "Bing"}}, {"type": "node", "id": 2524946205, "lat": 39.7044724, "lon": -104.866561, "tags": {"addr:city": "Aurora", "addr:housenumber": "625", "addr:postcode": "80012", "addr:state": "CO", "addr:street": "South Havana Street", "brand": "DriveTime", "brand:wikidata": "Q5307879", "name": "Drive Time", "phone": "+1-303-537-1050", "second_hand": "only", "shop": "car", "website": "https://drivetime.com/"}}, {"type": "node", "id": 2524946226, "lat": 39.7095506, "lon": -104.8712607, "tags": {"shop": "convenience", "source": "Bing"}}, {"type": "node", "id": 2524946240, "lat": 39.7070621, "lon": -104.866593, "tags": {"addr:city": "Aurora", "addr:housenumber": "505", "addr:postcode": "80247", "addr:state": "CO", "addr:street": "South Havana Street", "brand": "Fiat", "brand:wikidata": "Q27597", "name": "Fiat of Denver", "phone": "+1-303-343-9700", "shop": "car", "source": "Bing", "website": "http://fiatusofdenver.com"}}, {"type": "node", "id": 2524946258, "lat": 39.7113251, "lon": -104.865553, "tags": {"addr:city": "Aurora", "addr:postcode": "80012", "addr:state": "CO", "addr:street": "South Havana Street", "amenity": "fuel", "brand": "Conoco", "brand:wikidata": "Q109341187", "name": "Conoco", "source": "Bing", "website": "https://www.conoco.com/station/CON-ROCKET-6500-0000880382/"}}, {"type": "node", "id": 2906593690, "lat": 39.7049437, "lon": -104.866831, "tags": {"addr:city": "Aurora", "addr:housenumber": "615", "addr:postcode": "80012", "addr:state": "CO", "addr:street": "South Havana Street", "amenity": "car_rental", "branch": "Moving & Storage", "brand": "U-Haul", "brand:wikidata": "Q7862902", "name": "U-Haul", "phone": "+1-303-340-3070", "shop": "rental", "source": "Bing", "website": "https://uhaul.com/"}}, {"type": "node", "id": 5538926226, "lat": 39.705438, "lon": -104.8663582}, {"type": "node", "id": 5538926255, "lat": 39.7053101, "lon": -104.8663285}, {"type": "node", "id": 5538926274, "lat": 39.7052883, "lon": -104.866357}, {"type": "node", "id": 5538926287, "lat": 39.7054188, "lon": -104.8663294}, {"type": "node", "id": 5538926298, "lat": 39.7054176, "lon": -104.8665699}, {"type": "node", "id": 5538926422, "lat": 39.7054372, "lon": -104.8665175}, {"type": "node", "id": 5538926423, "lat": 39.7053737, "lon": -104.866329}, {"type": "node", "id": 5538926438, "lat": 39.7053389, "lon": -104.8663287}, {"type": "node", "id": 5538926458, "lat": 39.7052875, "lon": -104.8665163}, {"type": "node", "id": 5538926460, "lat": 39.7053091, "lon": -104.8665442}, {"type": "node", "id": 5538926492, "lat": 39.7053745, "lon": -104.8665447}, {"type": "node", "id": 5538926497, "lat": 39.7053743, "lon": -104.8665695}, {"type": "node", "id": 5538926544, "lat": 39.7054177, "lon": -104.8665451}, {"type": "node", "id": 5599788925, "lat": 39.7089587, "lon": -104.867739, "tags": {"addr:city": "Denver", "addr:housenumber": "10350", "addr:postcode": "80247-1314", "addr:state": "CO", "addr:street": "East Dakota Avenue", "amenity": "clinic", "healthcare": "clinic", "name": "Kaiser Permanente Highline Behavioral Health Center", "operator": "Kaiser Permanente", "operator:short": "KP", "operator:website": "https://healthy.kaiserpermanente.org/", "operator:wikidata": "Q1721601", "operator:wikipedia": "en:Kaiser Permanente"}}, {"type": "node", "id": 6219819424, "lat": 39.7090294, "lon": -104.872469, "tags": {"addr:city": "Denver", "addr:postcode": "80247", "addr:state": "CO", "addr:street": "East Alameda Avenue", "doityourself": "storage", "shop": "doityourself", "source": "Bing"}}, {"type": "node", "id": 9516179814, "lat": 39.7081978, "lon": -104.8699988}, {"type": "node", "id": 9516179815, "lat": 39.708108, "lon": -104.8699984}, {"type": "node", "id": 9516179816, "lat": 39.7081087, "lon": -104.8697878}, {"type": "node", "id": 9516223217, "lat": 39.7081984, "lon": -104.8697883}, {"type": "node", "id": 10993957591, "lat": 39.7092713, "lon": -104.867229, "tags": {"amenity": "parking_space", "parking_space": "disabled"}}, {"type": "node", "id": 10993957592, "lat": 39.7092589, "lon": -104.8672611, "tags": {"amenity": "parking_space", "parking_space": "disabled"}}, {"type": "node", "id": 10993957593, "lat": 39.7092465, "lon": -104.8673175, "tags": {"amenity": "parking_space", "parking_space": "disabled"}}, {"type": "node", "id": 10993957594, "lat": 39.7091537, "lon": -104.8672772, "tags": {"amenity": "parking_space", "parking_space": "disabled"}}, {"type": "node", "id": 10993957595, "lat": 39.709164, "lon": -104.8672236, "tags": {"amenity": "parking_space", "parking_space": "disabled"}}, {"type": "node", "id": 10993957596, "lat": 39.7091743, "lon": -104.8671914, "tags": {"amenity": "parking_space", "parking_space": "disabled"}}, {"type": "node", "id": 10993957597, "lat": 39.7088029, "lon": -104.8689134, "tags": {"amenity": "parking_space", "parking_space": "disabled"}}, {"type": "node", "id": 10993957598, "lat": 39.7088111, "lon": -104.8688571, "tags": {"amenity": "parking_space", "parking_space": "disabled"}}, {"type": "node", "id": 10993957599, "lat": 39.7088173, "lon": -104.8688195, "tags": {"amenity": "parking_space", "parking_space": "disabled"}}, {"type": "node", "id": 10993957600, "lat": 39.7088276, "lon": -104.8687739, "tags": {"amenity": "parking_space", "parking_space": "disabled"}}, {"type": "node", "id": 10993957601, "lat": 39.7088359, "lon": -104.868739, "tags": {"amenity": "parking_space", "parking_space": "disabled"}}, {"type": "node", "id": 10993957602, "lat": 39.7088462, "lon": -104.8686988, "tags": {"amenity": "parking_space", "parking_space": "disabled"}}, {"type": "node", "id": 10993967514, "lat": 39.7087639, "lon": -104.8686631, "tags": {"amenity": "parking_space", "parking_space": "disabled"}}, {"type": "way", "id": 577881932, "nodes": [5538926492, 5538926497, 5538926298, 5538926544, 5538926422, 5538926226, 5538926287, 5538926423, 5538926438, 5538926255, 5538926274, 5538926458, 5538926460, 5538926492], "tags": {"addr:city": "Aurora", "addr:housenumber": "605", "addr:postcode": "80012", "addr:state": "CO", "addr:street": "South Havana Street", "building": "retail", "name": "Trap House", "note": "Seesm 2025 mapillary says this is elite cannabis https://elite-canna.com/ but their website does not have a havana st location", "shop": "cannabis", "website": "https://traphousecolorado.com/"}}, {"type": "way", "id": 1032863433, "nodes": [9516179814, 9516179815, 9516179816, 9516223217, 9516179814], "tags": {"amenity": "shelter", "building": "yes", "shelter_type": "picnic_shelter"}}]}