{"version": 0.6, "generator": "Overpass API 0.7.62.8 e802775f", "osm3s": {"timestamp_osm_base": "2025-12-06T22:58:10Z", "copyright": "The data included in this document is from www.openstreetmap.org. The data is made available under ODbL."}, "elements": [{"type": "node", "id": 356546098, "lat": 46.9215075, "lon": -121.0434143, "tags": {"amenity": "grave_yard", "ele": "756", "gnis:feature_id": "1524357", "name": "Peterson Cemetery"}}, {"type": "node", "id": 10111812300, "lat": 46.9145349, "lon": -121.03741, "tags": {"amenity": "restaurant", "cuisine": "american", "name": "Gold Creek Saloon"}}, {"type": "node", "id": 10111906451, "lat": 46.9146567, "lon": -121.0375842, "tags": {"name": "Gold Creek Grocery", "shop": "convenience"}}, {"type": "node", "id": 11077985334, "lat": 46.9067546, "lon": -121.0270831, "tags": {"access": "yes", "amenity": "toilets", "female": "yes", "toilets:disposal": "pitlatrine"}}, {"type": "node", "id": 11077985335, "lat": 46.9067546, "lon": -121.0272011, "tags": {"access": "yes", "amenity": "toilets", "male": "yes", "toilets:disposal": "pitlatrine"}}, {"type": "node", "id": 11077985338, "lat": 46.9068114, "lon": -121.0265923, "tags": {"amenity": "drinking_water"}}, {"type": "node", "id": 11077985347, "lat": 46.9067253, "lon": -121.02597, "tags": {"access": "yes", "amenity": "toilets", "male": "yes", "toilets:disposal": "pitlatrine"}}, {"type": "node", "id": 11077985350, "lat": 46.906764, "lon": -121.026078, "tags": {"access": "yes", "amenity": "toilets", "female": "yes", "toilets:disposal": "pitlatrine"}}, {"type": "node", "id": 12081733478, "lat": 46.9148361, "lon": -121.0379274, "tags": {"name": "Gold Creek Laundry", "shop": "laundry"}}]}