{"version": 0.6, "generator": "Overpass API 0.7.62.8 e802775f", "osm3s": {"timestamp_osm_base": "2025-12-13T01:38:28Z", "copyright": "The data included in this document is from www.openstreetmap.org. The data is made available under ODbL."}, "elements": [{"type": "node", "id": 358945877, "lat": 39.1818593, "lon": -107.2391408, "tags": {"amenity": "place_of_worship", "ele": "2189", "gnis:feature_id": "1795189", "name": "The Church of Redstone", "religion": "christian"}}, {"type": "node", "id": 366394786, "lat": 39.1930409, "lon": -107.2333837, "tags": {"addr:state": "CO", "amenity": "fire_station", "ele": "2177", "gnis:feature_id": "1795190", "name": "Carbondale and Rural Fire Protection District Station Number 2"}}, {"type": "node", "id": 8050642447, "lat": 39.1851401, "lon": -107.2363338, "tags": {"addr:city": "Redstone", "addr:housenumber": "467", "addr:postcode": "81623", "addr:state": "CO", "addr:street": "Redstone Boulevard", "amenity": "restaurant", "bar": "yes", "brewery": "yes", "cuisine": "pizza", "diet:dairy_free": "yes", "diet:egg_free": "yes", "diet:gluten_free": "yes", "diet:lacto_vegetarian": "yes", "diet:lactose_free": "yes", "diet:meat": "yes", "diet:non-vegetarian": "yes", "diet:pescetarian": "yes", "diet:soy_free": "yes", "diet:vegan": "yes", "diet:vegetarian": "yes", "email": "Propagandapie467@gmail.com", "image": "https://lh5.googleusercontent.com/p/AF1QipNRyD4h6nU-lfuT2PtvkdoWXqSrVBcO-WMCmcwH=s387-k-no", "name": "Propaganda Pie", "opening_hours": "Mo-Su 11:00-21:00", "phone": "+1-970-963-9515", "takeaway": "yes", "website": "https://www.propagandapie.com/"}}, {"type": "node", "id": 9048532780, "lat": 39.1791902, "lon": -107.232426}, {"type": "node", "id": 9048532781, "lat": 39.1792919, "lon": -107.2322511}, {"type": "node", "id": 9048532782, "lat": 39.1792378, "lon": -107.2321987}, {"type": "node", "id": 9048532783, "lat": 39.179136, "lon": -107.2323735}, {"type": "node", "id": 9048609355, "lat": 39.1812491, "lon": -107.2336341, "tags": {"amenity": "bench"}}, {"type": "node", "id": 12749176411, "lat": 39.1829715, "lon": -107.2375794, "tags": {"name": "Redstone General Store", "shop": "general"}}, {"type": "node", "id": 12903185200, "lat": 39.1812171, "lon": -107.2420079}, {"type": "node", "id": 12903205519, "lat": 39.1807957, "lon": -107.2420443}, {"type": "node", "id": 12903205530, "lat": 39.1808817, "lon": -107.242231}, {"type": "node", "id": 12903205628, "lat": 39.1811532, "lon": -107.2418702}, {"type": "node", "id": 12903205644, "lat": 39.1808278, "lon": -107.2422096}, {"type": "node", "id": 12903205670, "lat": 39.1807861, "lon": -107.2421368}, {"type": "node", "id": 12903205674, "lat": 39.180996, "lon": -107.2419557}, {"type": "node", "id": 12903205710, "lat": 39.1811863, "lon": -107.2420803}, {"type": "node", "id": 12903205739, "lat": 39.1812174, "lon": -107.2419281}, {"type": "node", "id": 12903205744, "lat": 39.1811202, "lon": -107.2421177}, {"type": "way", "id": 977905316, "nodes": [9048532783, 9048532782, 9048532781, 9048532780, 9048532783], "tags": {"amenity": "parking", "parking": "surface"}}, {"type": "way", "id": 1393994543, "nodes": [12903205530, 12903205644, 12903205670, 12903205519, 12903205674, 12903205628, 12903205739, 12903185200, 12903205710, 12903205744, 12903205530], "tags": {"amenity": "parking", "parking": "surface"}}]}