{"version": 0.6, "generator": "Overpass API 0.7.62.8 e802775f", "osm3s": {"timestamp_osm_base": "2025-12-06T20:39:11Z", "copyright": "The data included in this document is from www.openstreetmap.org. The data is made available under ODbL."}, "elements": [{"type": "node", "id": 622197647, "lat": 47.1564637, "lon": -122.4673939}, {"type": "node", "id": 622197648, "lat": 47.1563504, "lon": -122.4673944}, {"type": "node", "id": 622197655, "lat": 47.1564626, "lon": -122.4671744}, {"type": "node", "id": 622197656, "lat": 47.1563144, "lon": -122.4671752}, {"type": "node", "id": 622197657, "lat": 47.1563152, "lon": -122.4673431}, {"type": "node", "id": 663591799, "lat": 47.1561807, "lon": -122.4685374}, {"type": "node", "id": 663591800, "lat": 47.1561215, "lon": -122.468212}, {"type": "node", "id": 663591801, "lat": 47.156259, "lon": -122.4684309}, {"type": "node", "id": 663591802, "lat": 47.1560431, "lon": -122.4683185}, {"type": "node", "id": 4525521351, "lat": 47.1557065, "lon": -122.4676509}, {"type": "node", "id": 4525521352, "lat": 47.1564468, "lon": -122.4683599}, {"type": "node", "id": 4525521353, "lat": 47.1563128, "lon": -122.4675421}, {"type": "node", "id": 4525521357, "lat": 47.1557623, "lon": -122.4684788}, {"type": "node", "id": 4525521358, "lat": 47.1562474, "lon": -122.4688182, "tags": {"addr:city": "Lakewood", "addr:housenumber": "11120", "addr:postcode": "98499", "addr:state": "WA", "addr:street": "Steele Street South", "addr:unit": "A", "amenity": "fast_food", "brand": "Subway", "brand:wikidata": "Q244457", "cuisine": "sandwich", "name": "Subway", "opening_hours": "Mo-Sa 08:30-22:00; Su 09:00-21:00", "phone": "+1-253-444-2626", "takeaway": "yes", "website": "https://restaurants.subway.com/united-states/wa/lakewood/11120-steele-st-s"}}, {"type": "node", "id": 4525521361, "lat": 47.155486, "lon": -122.4683951}, {"type": "node", "id": 4525521362, "lat": 47.1563731, "lon": -122.4688105, "tags": {"name": "ExtraMile", "shop": "convenience"}}, {"type": "node", "id": 4525521363, "lat": 47.1556909, "lon": -122.4689998}, {"type": "node", "id": 4525559374, "lat": 47.155553, "lon": -122.4691506}, {"type": "node", "id": 4525559375, "lat": 47.1555562, "lon": -122.4689776}, {"type": "node", "id": 4525559378, "lat": 47.155569, "lon": -122.468521}, {"type": "node", "id": 4525559384, "lat": 47.1555904, "lon": -122.4682463}, {"type": "node", "id": 4525559385, "lat": 47.1556127, "lon": -122.4672879}, {"type": "node", "id": 4525559388, "lat": 47.1556282, "lon": -122.467658}, {"type": "node", "id": 4525559493, "lat": 47.1556734, "lon": -122.4683721}, {"type": "node", "id": 4525559497, "lat": 47.1556862, "lon": -122.4684781}, {"type": "node", "id": 4525559498, "lat": 47.1556866, "lon": -122.4683541}, {"type": "node", "id": 4525559499, "lat": 47.155688, "lon": -122.469156}, {"type": "node", "id": 4525559500, "lat": 47.1556885, "lon": -122.4691259}, {"type": "node", "id": 4525559501, "lat": 47.155691, "lon": -122.4672808}, {"type": "node", "id": 4525559502, "lat": 47.1556912, "lon": -122.468983}, {"type": "node", "id": 4525559503, "lat": 47.155711, "lon": -122.4691268}, {"type": "node", "id": 4525559504, "lat": 47.1557133, "lon": -122.4690007}, {"type": "node", "id": 4525559508, "lat": 47.1557263, "lon": -122.4683544}, {"type": "node", "id": 4525559509, "lat": 47.1557265, "lon": -122.4684785}, {"type": "node", "id": 4525559514, "lat": 47.1557628, "lon": -122.4683547}, {"type": "node", "id": 4525559536, "lat": 47.1560947, "lon": -122.467546}, {"type": "node", "id": 4525559550, "lat": 47.1561997, "lon": -122.4673838}, {"type": "node", "id": 4525559552, "lat": 47.1562078, "lon": -122.4677043}, {"type": "node", "id": 4525559581, "lat": 47.1564145, "lon": -122.4683602}, {"type": "node", "id": 4525559582, "lat": 47.1564149, "lon": -122.4684555}, {"type": "node", "id": 4525559584, "lat": 47.1564473, "lon": -122.4684551}, {"type": "node", "id": 8609928462, "lat": 47.1560875, "lon": -122.4683892}, {"type": "node", "id": 11043988491, "lat": 47.1561692, "lon": -122.468288}, {"type": "way", "id": 49031362, "nodes": [622197656, 622197657, 622197648, 622197647, 622197655, 622197656], "tags": {"addr:city": "Tacoma", "addr:housenumber": "11109", "addr:postcode": "98499", "addr:state": "WA", "addr:street": "Steele Street South", "building": "yes", "name": "ampm", "opening_hours": "24/7", "phone": "+1-253-588-2545", "shop": "convenience", "website": "https://www.arco.com/"}}, {"type": "way", "id": 52062938, "nodes": [663591801, 11043988491, 663591800, 663591802, 8609928462, 663591799, 663591801], "tags": {"addr:city": "Tacoma", "addr:country": "US", "addr:housenumber": "11122", "addr:postcode": "98499", "addr:state": "WA", "addr:street": "Steele Street South", "amenity": "fuel", "building": "roof", "layer": "1", "name": "Chevron", "phone": "+1-253-589-4757", "website": "https://www.chevron.com/"}}, {"type": "way", "id": 456280010, "nodes": [4525521357, 4525559514, 4525559508, 4525559498, 4525559497, 4525559509, 4525521357], "tags": {"amenity": "fuel", "building": "yes", "name": "76"}}, {"type": "way", "id": 456280011, "nodes": [4525559552, 4525521353, 4525559550, 4525559536, 4525559552], "tags": {"amenity": "fuel", "building": "roof", "layer": "1", "name": "ARCO"}}, {"type": "way", "id": 456280012, "nodes": [4525559584, 4525521352, 4525559581, 4525559582, 4525559584], "tags": {"amenity": "cafe", "building": "yes", "name": "Cafe Elite"}}, {"type": "way", "id": 456280013, "nodes": [4525559388, 4525521351, 4525559501, 4525559385, 4525559388], "tags": {"amenity": "car_wash", "building": "yes", "name": "Classy Chassis"}}, {"type": "way", "id": 456280014, "nodes": [4525559378, 4525559493, 4525559384, 4525521361, 4525559378], "tags": {"building": "yes", "name": "Food Mart", "shop": "convenience"}}, {"type": "way", "id": 456280016, "nodes": [4525521363, 4525559502, 4525559375, 4525559374, 4525559499, 4525559500, 4525559503, 4525559504, 4525521363], "tags": {"amenity": "pub", "building": "yes", "name": "Rollies Tavern"}}]}