{"version": 0.6, "generator": "Overpass API 0.7.62.8 e802775f", "osm3s": {"timestamp_osm_base": "2025-12-06T04:23:30Z", "copyright": "The data included in this document is from www.openstreetmap.org. The data is made available under ODbL."}, "elements": [{"type": "node", "id": 357960617, "lat": 48.1936879, "lon": -106.6339403}, {"type": "node", "id": 1753203152, "lat": 48.1973498, "lon": -106.6367443, "tags": {"addr:housenumber": "620", "addr:street": "1st Avenue North", "entrance": "yes"}}, {"type": "node", "id": 1837197375, "lat": 48.1974606, "lon": -106.6371116}, {"type": "node", "id": 1837197377, "lat": 48.1972613, "lon": -106.6364276}, {"type": "node", "id": 1837197381, "lat": 48.1973941, "lon": -106.636338}, {"type": "node", "id": 1837197395, "lat": 48.1973951, "lon": -106.636267}, {"type": "node", "id": 1837197399, "lat": 48.1974722, "lon": -106.6362182}, {"type": "node", "id": 1837197402, "lat": 48.1976837, "lon": -106.6369625}, {"type": "node", "id": 1837202527, "lat": 48.1968447, "lon": -106.6372866}, {"type": "node", "id": 1837202529, "lat": 48.1968299, "lon": -106.6372979, "tags": {"addr:housenumber": "619", "addr:street": "1st Avenue North", "entrance": "yes"}}, {"type": "node", "id": 1837202533, "lat": 48.1967293, "lon": -106.6373479}, {"type": "node", "id": 1837202537, "lat": 48.1966787, "lon": -106.6371989}, {"type": "node", "id": 1837202538, "lat": 48.1968144, "lon": -106.6373097}, {"type": "node", "id": 1837202540, "lat": 48.1968675, "lon": -106.6370548}, {"type": "node", "id": 1837202541, "lat": 48.1968375, "lon": -106.6372652}, {"type": "node", "id": 1837202542, "lat": 48.1968072, "lon": -106.6372884}, {"type": "node", "id": 1837202543, "lat": 48.196918, "lon": -106.6372037}, {"type": "node", "id": 1843437933, "lat": 48.1943284, "lon": -106.6296763}, {"type": "node", "id": 1843437936, "lat": 48.1945989, "lon": -106.6299427}, {"type": "node", "id": 1843437939, "lat": 48.1945995, "lon": -106.630056}, {"type": "node", "id": 1843437940, "lat": 48.1946773, "lon": -106.6296722}, {"type": "node", "id": 1843437946, "lat": 48.1945365, "lon": -106.6301792, "tags": {"addr:housenumber": "193", "addr:street": "Klein Avenue", "entrance": "yes"}}, {"type": "node", "id": 1843437958, "lat": 48.1945358, "lon": -106.6300568}, {"type": "node", "id": 1843437965, "lat": 48.1946787, "lon": -106.6299417}, {"type": "node", "id": 1843437973, "lat": 48.1943316, "lon": -106.6303008}, {"type": "node", "id": 1843437978, "lat": 48.1945372, "lon": -106.6302981}, {"type": "node", "id": 1843437992, "lat": 48.1943304, "lon": -106.6300592}, {"type": "node", "id": 1844829283, "lat": 48.1952312, "lon": -106.6323108}, {"type": "node", "id": 1844829312, "lat": 48.1954385, "lon": -106.6323798}, {"type": "node", "id": 1844829325, "lat": 48.1952926, "lon": -106.6324914}, {"type": "node", "id": 1844829332, "lat": 48.1953771, "lon": -106.6321992}, {"type": "node", "id": 1844829336, "lat": 48.1953968, "lon": -106.6322572, "tags": {"addr:housenumber": "307", "addr:street": "Klein Avenue", "entrance": "yes"}}, {"type": "node", "id": 2535130996, "lat": 48.1988421, "lon": -106.6409231, "tags": {"amenity": "restaurant", "cuisine": "steak_house", "name": "Durum Steak House"}}, {"type": "node", "id": 3482149015, "lat": 48.1947554, "lon": -106.6314691}, {"type": "node", "id": 3482149016, "lat": 48.1946456, "lon": -106.6306874}, {"type": "node", "id": 3482149017, "lat": 48.1947062, "lon": -106.6313278}, {"type": "node", "id": 3482149018, "lat": 48.194659, "lon": -106.6313648}, {"type": "node", "id": 3482149019, "lat": 48.1947623, "lon": -106.6307364, "tags": {"addr:housenumber": "213", "addr:street": "Klein Avenue", "entrance": "main"}}, {"type": "node", "id": 3482149020, "lat": 48.1946897, "lon": -106.6306527}, {"type": "node", "id": 3482149021, "lat": 48.1945332, "lon": -106.6303651}, {"type": "node", "id": 3482149022, "lat": 48.1949582, "lon": -106.6314203}, {"type": "node", "id": 3482149023, "lat": 48.1947375, "lon": -106.6315582}, {"type": "node", "id": 3482149024, "lat": 48.1947658, "lon": -106.631571}, {"type": "node", "id": 3482149026, "lat": 48.1943583, "lon": -106.6305023}, {"type": "node", "id": 4910788599, "lat": 48.1937916, "lon": -106.6338596}, {"type": "node", "id": 4910788600, "lat": 48.1937278, "lon": -106.6336751}, {"type": "node", "id": 4910788601, "lat": 48.1936241, "lon": -106.6337558}, {"type": "node", "id": 5824241286, "lat": 48.1944558, "lon": -106.6353861}, {"type": "node", "id": 6552003477, "lat": 48.1957418, "lon": -106.6307362}, {"type": "node", "id": 6552003478, "lat": 48.1956905, "lon": -106.6305453}, {"type": "node", "id": 6552003479, "lat": 48.1955922, "lon": -106.6306048}, {"type": "node", "id": 6552003480, "lat": 48.1956435, "lon": -106.6307956}, {"type": "node", "id": 6552003485, "lat": 48.1955439, "lon": -106.629284}, {"type": "node", "id": 6552003486, "lat": 48.1955408, "lon": -106.6295017}, {"type": "node", "id": 6552003487, "lat": 48.1956779, "lon": -106.629506}, {"type": "node", "id": 6552003488, "lat": 48.1956809, "lon": -106.6292883}, {"type": "node", "id": 6552003511, "lat": 48.1965539, "lon": -106.6337397}, {"type": "node", "id": 6552003512, "lat": 48.1964878, "lon": -106.6335154}, {"type": "node", "id": 6552003513, "lat": 48.1965611, "lon": -106.6334668}, {"type": "node", "id": 6552003514, "lat": 48.1965836, "lon": -106.6335431}, {"type": "node", "id": 6552003515, "lat": 48.1966297, "lon": -106.6335125}, {"type": "node", "id": 6552003516, "lat": 48.1966733, "lon": -106.6336605}, {"type": "node", "id": 6552003521, "lat": 48.1972834, "lon": -106.6365112}, {"type": "node", "id": 6552003610, "lat": 48.2095907, "lon": -106.6412593}, {"type": "node", "id": 6552003611, "lat": 48.2096093, "lon": -106.6411555}, {"type": "node", "id": 6552003612, "lat": 48.2096355, "lon": -106.6411662}, {"type": "node", "id": 6552003613, "lat": 48.2096531, "lon": -106.6410685}, {"type": "node", "id": 6552003614, "lat": 48.209823, "lon": -106.6411373}, {"type": "node", "id": 6552003615, "lat": 48.2098087, "lon": -106.6412164}, {"type": "node", "id": 6552003616, "lat": 48.2098256, "lon": -106.6412232}, {"type": "node", "id": 6552003617, "lat": 48.2098036, "lon": -106.6413454}, {"type": "node", "id": 6552030490, "lat": 48.1978193, "lon": -106.6395088}, {"type": "node", "id": 6552030491, "lat": 48.1977774, "lon": -106.6393836}, {"type": "node", "id": 6552030492, "lat": 48.1976699, "lon": -106.6394645}, {"type": "node", "id": 6552030493, "lat": 48.1977118, "lon": -106.6395898}, {"type": "node", "id": 6552030558, "lat": 48.1943611, "lon": -106.635115}, {"type": "node", "id": 6552030559, "lat": 48.1940957, "lon": -106.6353236}, {"type": "node", "id": 6552030560, "lat": 48.1941631, "lon": -106.6355165}, {"type": "node", "id": 6552030561, "lat": 48.1942001, "lon": -106.6354874}, {"type": "node", "id": 6552030562, "lat": 48.1942274, "lon": -106.6355656}, {"type": "node", "id": 6552030563, "lat": 48.1941869, "lon": -106.6352518}, {"type": "node", "id": 6552038681, "lat": 48.1917234, "lon": -106.6280474}, {"type": "node", "id": 6552038682, "lat": 48.1915841, "lon": -106.6278084}, {"type": "node", "id": 6552038683, "lat": 48.1913296, "lon": -106.628142}, {"type": "node", "id": 6552038684, "lat": 48.1914689, "lon": -106.6283811}, {"type": "node", "id": 6699172988, "lat": 48.2095857, "lon": -106.6412212, "tags": {"shop": "convenience"}}, {"type": "node", "id": 6875643813, "lat": 48.1947156, "lon": -106.6307269}, {"type": "node", "id": 6875643814, "lat": 48.1947497, "lon": -106.6307002}, {"type": "node", "id": 6875643815, "lat": 48.1947739, "lon": -106.6307697}, {"type": "node", "id": 6875643816, "lat": 48.1947407, "lon": -106.6307957}, {"type": "node", "id": 6875643817, "lat": 48.1921787, "lon": -106.6362144}, {"type": "node", "id": 6875643818, "lat": 48.1921944, "lon": -106.6362594}, {"type": "node", "id": 6875643819, "lat": 48.1922381, "lon": -106.6362238}, {"type": "node", "id": 6875643820, "lat": 48.1921787, "lon": -106.6360218}, {"type": "node", "id": 6875643821, "lat": 48.1924288, "lon": -106.6358278}, {"type": "node", "id": 6875643822, "lat": 48.1925073, "lon": -106.6360548}, {"type": "node", "id": 6875643823, "lat": 48.1922482, "lon": -106.6362549}, {"type": "node", "id": 6875643824, "lat": 48.1922211, "lon": -106.6361775}, {"type": "node", "id": 6875643825, "lat": 48.1924989, "lon": -106.6360308, "tags": {"addr:housenumber": "341", "addr:street": "3rd Avenue South", "entrance": "yes"}}, {"type": "node", "id": 6875643826, "lat": 48.193743, "lon": -106.633719, "tags": {"addr:city": "Glasgow", "addr:housenumber": "303", "addr:postcode": "59230", "addr:street": "1st Avenue South", "entrance": "yes"}}, {"type": "node", "id": 6875643827, "lat": 48.1937829, "lon": -106.6338345, "tags": {"door": "overhead"}}, {"type": "node", "id": 6875643828, "lat": 48.1937689, "lon": -106.633794, "tags": {"door": "overhead"}}, {"type": "node", "id": 7174051603, "lat": 48.1965376, "lon": -106.6361639}, {"type": "node", "id": 7174051606, "lat": 48.1964156, "lon": -106.6357921}, {"type": "node", "id": 7174051607, "lat": 48.1962659, "lon": -106.6359027}, {"type": "node", "id": 7174051611, "lat": 48.196388, "lon": -106.6362745}, {"type": "node", "id": 7174051622, "lat": 48.1964981, "lon": -106.6360435, "tags": {"addr:housenumber": "523", "addr:street": "1st Avenue North", "entrance": "main"}}, {"type": "node", "id": 7788583546, "lat": 48.194898, "lon": -106.628084}, {"type": "node", "id": 7788583547, "lat": 48.194898, "lon": -106.62806}, {"type": "node", "id": 7788583548, "lat": 48.194858, "lon": -106.62806}, {"type": "node", "id": 7788583549, "lat": 48.194858, "lon": -106.627893}, {"type": "node", "id": 7788583550, "lat": 48.195016, "lon": -106.627893}, {"type": "node", "id": 7788583551, "lat": 48.195016, "lon": -106.628084}, {"type": "node", "id": 9956537437, "lat": 48.1941243, "lon": -106.634392}, {"type": "node", "id": 9956537438, "lat": 48.1939719, "lon": -106.6345101}, {"type": "node", "id": 9956537439, "lat": 48.1939323, "lon": -106.6343952}, {"type": "node", "id": 9956537440, "lat": 48.1938831, "lon": -106.6344334}, {"type": "node", "id": 9956537441, "lat": 48.1938491, "lon": -106.6343348}, {"type": "node", "id": 9956537442, "lat": 48.1938769, "lon": -106.6343132}, {"type": "node", "id": 9956537443, "lat": 48.1938602, "lon": -106.6342648}, {"type": "node", "id": 9956537444, "lat": 48.1938965, "lon": -106.6342367}, {"type": "node", "id": 9956537445, "lat": 48.1939135, "lon": -106.634286}, {"type": "node", "id": 9956537446, "lat": 48.194051, "lon": -106.6341793}, {"type": "way", "id": 172873832, "nodes": [1753203152, 6552003521, 1837197377, 1837197381, 1837197395, 1837197399, 1837197402, 1837197375, 1753203152], "tags": {"addr:city": "Glasgow", "addr:housenumber": "620", "addr:postcode": "59230", "addr:state": "MT", "addr:street": "1st Avenue North", "brand": "Albertsons", "brand:wikidata": "Q2831861", "building": "yes", "name": "Albertsons", "opening_hours": "Mo-Fr 07:00-22:00; Sa-Su 07:00-20:00", "phone": "+1 406-228-8252", "shop": "supermarket", "website": "https://local.albertsons.com/mt/glasgow/54181-us-hwy-2.html"}}, {"type": "way", "id": 172874121, "nodes": [1837202542, 1837202533, 1837202537, 1837202540, 1837202543, 1837202541, 1837202527, 1837202529, 1837202538, 1837202542], "tags": {"addr:city": "Glasgow", "addr:housenumber": "619", "addr:postcode": "59230", "addr:state": "MT", "addr:street": "1st Avenue North", "amenity": "restaurant", "brand": "Pizza Hut", "brand:wikidata": "Q191615", "building": "yes", "cuisine": "pizza", "name": "Pizza Hut", "phone": "+1 406-228-2411", "website": "https://locations.pizzahut.com/mt/glasgow/619-1st-ave-n"}}, {"type": "way", "id": 173549789, "nodes": [1843437992, 1843437933, 1843437940, 1843437965, 1843437936, 1843437939, 1843437958, 1843437992], "tags": {"addr:housenumber": "183", "addr:postcode": "59230", "addr:state": "MT", "addr:street": "Klein Avenue", "building:levels": "1", "building:part": "yes", "name": "Town & Country Furniture", "shop": "furniture"}}, {"type": "way", "id": 173549794, "nodes": [1843437958, 1843437946, 1843437978, 1843437973, 1843437992, 1843437958], "tags": {"addr:housenumber": "193", "addr:postcode": "59230", "addr:state": "MT", "addr:street": "Klein Avenue", "amenity": "restaurant", "building:levels": "1", "building:part": "yes", "cuisine": "pizza", "name": "Eugene's Pizza", "phone": "+1-406-228-8552", "website": "https://www.eugenespizza.com/"}}, {"type": "way", "id": 173713315, "nodes": [1844829325, 1844829312, 1844829336, 1844829332, 1844829283, 1844829325], "tags": {"addr:housenumber": "307", "addr:postcode": "59230", "addr:state": "MT", "addr:street": "Klein Avenue", "amenity": "restaurant", "building": "yes", "name": "Sam's Supper Club", "phone": "+1-406-228-4614"}}, {"type": "way", "id": 499887766, "nodes": [4910788601, 4910788600, 6875643826, 6875643828, 6875643827, 4910788599, 357960617, 4910788601], "tags": {"addr:city": "Glasgow", "addr:housenumber": "303", "addr:postcode": "59230", "addr:state": "MT", "addr:street": "1st Avenue South", "amenity": "bar", "bar": "yes", "building": "brewery", "building:start_date": "1959", "email": "bustedknuckle@nemont.net", "microbrewery": "yes", "name": "Busted Knuckle Brewery", "opening_hours": "We-Sa 16:00-21:00", "start_date": "2015-06", "website": "https://www.bustedknucklebrew.com"}}, {"type": "way", "id": 697665448, "nodes": [6552003477, 6552003478, 6552003479, 6552003480, 6552003477], "tags": {"building": "yes", "shop": "convenience"}}, {"type": "way", "id": 697665450, "nodes": [6552003485, 6552003486, 6552003487, 6552003488, 6552003485], "tags": {"building": "yes", "shop": "convenience"}}, {"type": "way", "id": 697665456, "nodes": [6552003511, 6552003512, 6552003513, 6552003514, 6552003515, 6552003516, 6552003511], "tags": {"building": "yes", "shop": "convenience"}}, {"type": "way", "id": 697665470, "nodes": [6552003610, 6552003611, 6552003612, 6552003613, 6552003614, 6552003615, 6552003616, 6552003617, 6552003610], "tags": {"building": "yes", "shop": "convenience"}}, {"type": "way", "id": 697667050, "nodes": [6552030490, 6552030491, 6552030492, 6552030493, 6552030490], "tags": {"addr:housenumber": "813", "addr:state": "MT", "addr:street": "1st Avenue North", "alt_name": "The Taco Shack", "amenity": "restaurant", "building": "yes", "name": "Taco Shack", "phone": "+1-406-228-2979"}}, {"type": "way", "id": 697667063, "nodes": [5824241286, 6552030558, 6552030563, 6552030559, 6552030560, 6552030561, 6552030562, 5824241286], "tags": {"addr:city": "Glasgow", "addr:housenumber": "407", "addr:postcode": "59230", "addr:state": "MT", "addr:street": "1st Avenue South", "amenity": "bar", "building": "yes", "name": "Alley's Palace", "website": "https://alleys-palace.edan.io/"}}, {"type": "way", "id": 697668191, "nodes": [6552038681, 6552038682, 6552038683, 6552038684, 6552038681], "tags": {"building": "yes", "name": "Red Barn Gifts", "shop": "gift"}}, {"type": "way", "id": 734199738, "nodes": [6875643815, 6875643816, 3482149022, 3482149024, 3482149023, 3482149015, 3482149017, 3482149018, 3482149026, 3482149021, 3482149016, 3482149020, 6875643813, 6875643814, 3482149019, 6875643815], "tags": {"addr:city": "Glasgow", "addr:housenumber": "213", "addr:postcode": "59230", "addr:state": "MT", "addr:street": "Klein Avenue", "alt_name": "Reynold's Market", "building": "retail", "name": "Reynolds Market", "name:-2000s": "Gordon's Warehouse Grocery", "opening_hours": "Mo-Sa 06:00-21:00; Su 07:00-21:00", "phone": "+1-406-228-2633", "shop": "supermarket", "website": "https://reynoldsmarket.com/glasgow"}}, {"type": "way", "id": 734199741, "nodes": [6875643820, 6875643821, 6875643825, 6875643822, 6875643823, 6875643819, 6875643818, 6875643817, 6875643824, 6875643820], "tags": {"addr:housenumber": "341", "addr:state": "MT", "addr:street": "3rd Avenue South", "alt_name": "Glasgow Courier", "building": "commercial", "building:levels": "1", "email": "courier@nemont.net", "name": "The Glasgow Courier", "office": "newspaper", "website": "https://www.glasgowcourier.com"}}, {"type": "way", "id": 768417229, "nodes": [7174051611, 7174051607, 7174051606, 7174051622, 7174051603, 7174051611], "tags": {"addr:housenumber": "523", "addr:state": "MT", "addr:street": "1st Avenue North", "brand": "O'Reilly Auto Parts", "brand:wikidata": "Q7071951", "building": "commercial", "name": "O'Reilly Auto Parts", "shop": "car_parts", "website": "https://locations.oreillyauto.com/mt/glasgow/autoparts-4783.html"}}, {"type": "way", "id": 834357746, "nodes": [7788583546, 7788583547, 7788583548, 7788583549, 7788583550, 7788583551, 7788583546], "tags": {"building": "yes", "office": "estate_agent", "source": "microsoft/BuildingFootprints"}}, {"type": "way", "id": 1086634663, "nodes": [9956537437, 9956537438, 9956537439, 9956537440, 9956537441, 9956537442, 9956537443, 9956537444, 9956537445, 9956537446, 9956537437], "tags": {"amenity": "bar", "building": "yes", "name": "Stockmans Bar"}}]}