{"version": 0.6, "generator": "Overpass API 0.7.62.8 e802775f", "osm3s": {"timestamp_osm_base": "2025-12-13T00:39:23Z", "copyright": "The data included in this document is from www.openstreetmap.org. The data is made available under ODbL."}, "elements": [{"type": "node", "id": 366395807, "lat": 39.7418514, "lon": -105.514506, "tags": {"addr:state": "CO", "amenity": "police", "ele": "2295", "gnis:feature_id": "2369860", "name": "Idaho Springs Police Department"}}, {"type": "node", "id": 941637920, "lat": 39.7395106, "lon": -105.5130553}, {"type": "node", "id": 941637921, "lat": 39.7394672, "lon": -105.5128908}, {"type": "node", "id": 941637922, "lat": 39.7385535, "lon": -105.5132992}, {"type": "node", "id": 941637923, "lat": 39.7385969, "lon": -105.5134635}, {"type": "node", "id": 941638412, "lat": 39.7417042, "lon": -105.5069118}, {"type": "node", "id": 941638414, "lat": 39.7415473, "lon": -105.5055663}, {"type": "node", "id": 941638416, "lat": 39.7411886, "lon": -105.5055922}, {"type": "node", "id": 941638417, "lat": 39.7413555, "lon": -105.5069906}, {"type": "node", "id": 941638486, "lat": 39.7420868, "lon": -105.5122336}, {"type": "node", "id": 941638487, "lat": 39.7418877, "lon": -105.5122661}, {"type": "node", "id": 941638490, "lat": 39.7418499, "lon": -105.5118737}, {"type": "node", "id": 941638491, "lat": 39.7420491, "lon": -105.5118412}, {"type": "node", "id": 941638534, "lat": 39.7412967, "lon": -105.5069538}, {"type": "node", "id": 941638535, "lat": 39.7411093, "lon": -105.5057748}, {"type": "node", "id": 941638536, "lat": 39.7407705, "lon": -105.5058318}, {"type": "node", "id": 941638537, "lat": 39.7412173, "lon": -105.5069678}, {"type": "node", "id": 942701666, "lat": 39.7415661, "lon": -105.497286, "tags": {"amenity": "fuel", "name": "Phillips 66"}}, {"type": "node", "id": 942714309, "lat": 39.7419048, "lon": -105.5058935, "tags": {"addr:housenumber": "2394", "addr:street": "Colorado Boulevard", "amenity": "bank", "atm": "yes", "name": "Evergreen National Bank"}}, {"type": "node", "id": 942760596, "lat": 39.7416847, "lon": -105.519035, "tags": {"addr:city": "Idaho Springs", "addr:housenumber": "1319", "addr:state": "CO", "addr:street": "Miner Street", "amenity": "fuel", "brand": "Maverik", "brand:wikidata": "Q6443340", "name": "Maverik"}}, {"type": "node", "id": 944703973, "lat": 39.742031, "lon": -105.5161902, "tags": {"addr:housenumber": "1538", "addr:street": "Miner Street", "shop": "chocolate"}}, {"type": "node", "id": 944703976, "lat": 39.7420271, "lon": -105.5162402, "tags": {"addr:housenumber": "1536", "addr:street": "Miner Street", "name": "Miner Decadence Chocolate", "shop": "chocolate"}}, {"type": "node", "id": 944703977, "lat": 39.7420224, "lon": -105.5163294, "tags": {"addr:housenumber": "1534", "addr:street": "Miner Street", "name": "Margie's Place", "shop": "clothes"}}, {"type": "node", "id": 944703978, "lat": 39.7420163, "lon": -105.5164314, "tags": {"addr:housenumber": "1524", "addr:street": "Miner Street", "name": "Clear Creek Outdoors", "shop": "outdoor"}}, {"type": "node", "id": 944703979, "lat": 39.7414699, "lon": -105.5159855, "tags": {"addr:housenumber": "123", "addr:street": "16th Avenue", "amenity": "pub", "name": "Vintage Moose Tavern"}}, {"type": "node", "id": 944703980, "lat": 39.7416381, "lon": -105.5160824, "tags": {"amenity": "toilets", "fee": "no"}}, {"type": "node", "id": 944703981, "lat": 39.7420359, "lon": -105.5159787, "tags": {"addr:housenumber": "1546", "addr:street": "Miner Street", "amenity": "bank", "name": "Evergreen National Bank"}}, {"type": "node", "id": 944703982, "lat": 39.7420358, "lon": -105.5161148, "tags": {"addr:housenumber": "1542", "addr:street": "Miner Street", "name": "The Soap Shop", "shop": "soap"}}, {"type": "node", "id": 944704475, "lat": 39.7420092, "lon": -105.5165101, "tags": {"addr:housenumber": "1520", "addr:street": "Miner Street", "name": "Edelweiss Pastry Shop", "opening_hours": "Th-Su 08:30-16:00", "shop": "pastry", "website": "https://edelweisspastryshop.com/"}}, {"type": "node", "id": 944704476, "lat": 39.7418064, "lon": -105.5167232, "tags": {"addr:city": "Idaho Springs", "addr:country": "US", "addr:housenumber": "1517", "addr:postcode": "80452", "addr:state": "CO", "addr:street": "Miner Street", "amenity": "restaurant", "branch": "Idaho Springs", "brand": "Beau Jo's", "brand:facebook": "https://www.facebook.com/BeauJos", "brand:instagram": "https://www.instagram.com/beaujospizza/", "brand:twitter": "https://x.com/BeauJos", "check_date": "2025-05-06", "check_date:opening_hours": "2025-05-06", "contact:facebook": "https://www.facebook.com/BeauJosIdahoSprings/", "cuisine": "pizza", "internet_access": "wlan", "name": "Beau Jo's Pizza", "opening_hours": "Su-Th 11:00-20:00; Fr,Sa 11:00-21:00", "phone": "+1-303-567-4376", "website": "https://www.beaujos.com/locations/idaho-springs/", "website:menu": "https://www.beaujos.com/menu/"}}, {"type": "node", "id": 944704477, "lat": 39.7420034, "lon": -105.5165751, "tags": {"addr:city": "Idaho Springs", "addr:housenumber": "1518", "addr:postcode": "80452", "addr:state": "CO", "addr:street": "Miner Street", "amenity": "restaurant", "name": "Main Street Restaurant", "opening_hours": "Mo-Fr 07:00-14:30; Sa-Su 07:00-15:00", "phone": "+1 303 567 2788", "website": "https://www.mainstreetrest.com/"}}, {"type": "node", "id": 944704581, "lat": 39.7419987, "lon": -105.5166376, "tags": {"addr:housenumber": "1516", "addr:street": "Miner Street", "name": "The Barber Shop", "shop": "hairdresser"}}, {"type": "node", "id": 944708043, "lat": 39.7419967, "lon": -105.5166758, "tags": {"addr:housenumber": "1514", "addr:street": "Miner Street", "name": "Mountain Road Bicycle", "shop": "bicycle"}}, {"type": "node", "id": 944708047, "lat": 39.7419928, "lon": -105.5167384, "tags": {"addr:city": "Idaho Springs", "addr:housenumber": "1510", "addr:postcode": "80452", "addr:state": "CO", "addr:street": "Miner Street", "amenity": "restaurant", "check_date": "2025-07-01", "cuisine": "coffee_shop", "name": "The Frothy Cup", "website": "https://www.thefrothycup.com/"}}, {"type": "node", "id": 944709884, "lat": 39.7419856, "lon": -105.5168028, "tags": {"addr:housenumber": "1506", "addr:street": "Miner Street", "name": "Canyon Creek Gifts", "shop": "gift"}}, {"type": "node", "id": 944712798, "lat": 39.7419817, "lon": -105.516897, "tags": {"addr:housenumber": "1502", "addr:street": "Miner Street", "name": "The Jewelry Salon", "shop": "jewelry"}}, {"type": "node", "id": 947498823, "lat": 39.7425079, "lon": -105.5110161, "tags": {"amenity": "fire_station", "name": "Station 2"}}, {"type": "node", "id": 947506281, "lat": 39.7412614, "lon": -105.5065988}, {"type": "node", "id": 947506285, "lat": 39.7411997, "lon": -105.5066088}, {"type": "node", "id": 947506301, "lat": 39.7411798, "lon": -105.5064078}, {"type": "node", "id": 947506304, "lat": 39.7412145, "lon": -105.5064018}, {"type": "node", "id": 947506308, "lat": 39.7411803, "lon": -105.5060568}, {"type": "node", "id": 947506312, "lat": 39.7411379, "lon": -105.5060638}, {"type": "node", "id": 947506318, "lat": 39.7408559, "lon": -105.5066928}, {"type": "node", "id": 947506322, "lat": 39.7409259, "lon": -105.5066808}, {"type": "node", "id": 947506324, "lat": 39.7409507, "lon": -105.5069308}, {"type": "node", "id": 947506327, "lat": 39.7411369, "lon": -105.5068998}, {"type": "node", "id": 947506331, "lat": 39.7411497, "lon": -105.5070288}, {"type": "node", "id": 947506333, "lat": 39.7412221, "lon": -105.5070158}, {"type": "node", "id": 947516916, "lat": 39.7452469, "lon": -105.5244784, "tags": {"amenity": "parking", "note": "RV/bus/trailer parking"}}, {"type": "node", "id": 947563220, "lat": 39.7414201, "lon": -105.4977602, "tags": {"addr:city": "Idaho Springs", "addr:housenumber": "2901", "addr:postcode": "80452", "addr:state": "CO", "addr:street": "Colorado Boulevard", "amenity": "fast_food", "brand": "Carl's Jr.", "brand:wikidata": "Q1043486", "cuisine": "burger", "drive_through": "yes", "name": "Carl's Jr.", "phone": "+1 303-567-2255", "ref": "1101825", "takeaway": "yes", "website": "https://locations.carlsjr.com/co/idaho-springs/2901-colorado-blvd"}}, {"type": "node", "id": 947564669, "lat": 39.7412843, "lon": -105.4986074, "tags": {"name": "Allied Towing", "shop": "car_repair"}}, {"type": "node", "id": 947564869, "lat": 39.7420784, "lon": -105.5156359, "tags": {"addr:city": "Idaho Springs", "addr:housenumber": "1612", "addr:postcode": "80452", "addr:street": "Miner Street", "name": "You Imagine If", "shop": "gift"}}, {"type": "node", "id": 947568115, "lat": 39.7431032, "lon": -105.5186711, "tags": {"addr:city": "Idaho Springs", "addr:housenumber": "1325", "addr:street": "Virginia Street", "amenity": "bench"}}, {"type": "node", "id": 947573315, "lat": 39.743318, "lon": -105.5269798}, {"type": "node", "id": 947574236, "lat": 39.7413735, "lon": -105.5072823}, {"type": "node", "id": 947574237, "lat": 39.741304, "lon": -105.5070457}, {"type": "node", "id": 947574239, "lat": 39.7411861, "lon": -105.5071042}, {"type": "node", "id": 947574240, "lat": 39.7412556, "lon": -105.5073409}, {"type": "node", "id": 947574268, "lat": 39.7422032, "lon": -105.5078265}, {"type": "node", "id": 947574272, "lat": 39.7421269, "lon": -105.5078697}, {"type": "node", "id": 947574275, "lat": 39.7421537, "lon": -105.5079749}, {"type": "node", "id": 947574277, "lat": 39.7422341, "lon": -105.5079397}, {"type": "node", "id": 947574290, "lat": 39.7420361, "lon": -105.5085993}, {"type": "node", "id": 947575093, "lat": 39.7430581, "lon": -105.5184064}, {"type": "node", "id": 947575912, "lat": 39.7419071, "lon": -105.499074, "tags": {"amenity": "fuel", "brand": "Exxon", "brand:wikidata": "Q109675651", "name": "Exxon", "operator": "shell"}}, {"type": "node", "id": 947575913, "lat": 39.7418638, "lon": -105.4996186, "tags": {"addr:housenumber": "2806", "addr:street": "Colorado Boulevard", "amenity": "fuel", "brand": "Sinclair", "brand:wikidata": "Q1290900", "name": "Sinclair", "operator": "sinclair"}}, {"type": "node", "id": 947575915, "lat": 39.7417201, "lon": -105.5012776, "tags": {"amenity": "restaurant", "name": "Smokin Yard's BBQ"}}, {"type": "node", "id": 947575916, "lat": 39.741769, "lon": -105.5001792, "tags": {"addr:housenumber": "2804", "addr:street": "Colorado Boulevard", "name": "Maison de ski", "shop": "sports"}}, {"type": "node", "id": 947575917, "lat": 39.7417483, "lon": -105.5005145, "tags": {"addr:housenumber": "2822", "addr:street": "Colorado Boulevard", "amenity": "car_wash"}}, {"type": "node", "id": 947575929, "lat": 39.7419672, "lon": -105.4982871}, {"type": "node", "id": 947575932, "lat": 39.7418906, "lon": -105.4986959, "tags": {"shop": "alcohol"}}, {"type": "node", "id": 947575947, "lat": 39.7414513, "lon": -105.4992833, "tags": {"amenity": "restaurant", "name": "Marion's of the Rockies"}}, {"type": "node", "id": 947575974, "lat": 39.7419815, "lon": -105.4984292}, {"type": "node", "id": 947575976, "lat": 39.7419709, "lon": -105.4982521}, {"type": "node", "id": 947575979, "lat": 39.741924, "lon": -105.4982438}, {"type": "node", "id": 947575981, "lat": 39.7419058, "lon": -105.4984157}, {"type": "node", "id": 947589112, "lat": 39.7417236, "lon": -105.5161845, "tags": {"amenity": "toilets"}}, {"type": "node", "id": 947589162, "lat": 39.7419495, "lon": -105.5142872}, {"type": "node", "id": 947589165, "lat": 39.7420124, "lon": -105.5140279}, {"type": "node", "id": 947589167, "lat": 39.7416871, "lon": -105.514281}, {"type": "node", "id": 947589238, "lat": 39.7414956, "lon": -105.5161761}, {"type": "node", "id": 947589245, "lat": 39.7414207, "lon": -105.5159244}, {"type": "node", "id": 947589247, "lat": 39.7414074, "lon": -105.5161679}, {"type": "node", "id": 949024661, "lat": 39.7419039, "lon": -105.5140217}, {"type": "node", "id": 949024685, "lat": 39.7417281, "lon": -105.5147037}, {"type": "node", "id": 949024717, "lat": 39.741747, "lon": -105.5144519}, {"type": "node", "id": 949024727, "lat": 39.7419158, "lon": -105.5144733}, {"type": "node", "id": 949024743, "lat": 39.7418968, "lon": -105.5147251}, {"type": "node", "id": 949235887, "lat": 39.7430202, "lon": -105.5150962}, {"type": "node", "id": 949245576, "lat": 39.7419723, "lon": -105.5139007, "tags": {"amenity": "restaurant", "name": "Jiggies Cafe"}}, {"type": "node", "id": 950344596, "lat": 39.7420675, "lon": -105.5158065, "tags": {"addr:city": "Idaho Springs", "addr:country": "US", "addr:housenumber": "1600", "addr:postcode": "80452", "addr:street": "Miner Street", "amenity": "restaurant", "cuisine": "steak_house", "name": "MTN Prime", "phone": "+1 720 428 8515", "website": "https://www.mtnprime.com/"}}, {"type": "node", "id": 950700939, "lat": 39.7422006, "lon": -105.5195336, "tags": {"amenity": "fuel", "brand": "Sinclair", "brand:wikidata": "Q1290900", "check_date": "2024-09-25", "compressed_air": "yes", "ele": "2311.12", "name": "Sinclair", "operator": "Sinclair", "phone": "+1 303-567-2073", "shop": "convenience", "website": "https://stations.sinclairoil.com/co/idaho-springs/1246-miner-st", "wpt_description": "09-OCT-10 11:18:00AM"}}, {"type": "node", "id": 950702046, "lat": 39.7418878, "lon": -105.5196487}, {"type": "node", "id": 950711936, "lat": 39.741999, "lon": -105.5201425, "tags": {"addr:city": "Idaho Springs", "addr:housenumber": "1209", "addr:street": "Miner Street", "amenity": "veterinary", "ele": "2315.2", "name": "Cleer Creek Veterinary Clinic", "wpt_description": "09-OCT-10 11:24:15AM", "wpt_symbol": "Business"}}, {"type": "node", "id": 950711939, "lat": 39.7419441, "lon": -105.5197327, "tags": {"ele": "2315.2", "name": "Grow in Peace", "office": "company", "wpt_description": "09-OCT-10 11:24:15AM", "wpt_symbol": "Business"}}, {"type": "node", "id": 950736755, "lat": 39.7420996, "lon": -105.518279, "tags": {"amenity": "library", "ele": "2312.56", "name": "Public Library", "wpt_description": "09-OCT-10 11:14:51AM", "wpt_symbol": "Library"}}, {"type": "node", "id": 951011599, "lat": 39.7431404, "lon": -105.5154921}, {"type": "node", "id": 951011600, "lat": 39.7429973, "lon": -105.5154776}, {"type": "node", "id": 951011650, "lat": 39.7434825, "lon": -105.5121073}, {"type": "node", "id": 951011747, "lat": 39.7434997, "lon": -105.5119989}, {"type": "node", "id": 951011761, "lat": 39.7431633, "lon": -105.5151107}, {"type": "node", "id": 951011788, "lat": 39.7433535, "lon": -105.512073}, {"type": "node", "id": 967256384, "lat": 39.7418516, "lon": -105.5028365, "tags": {"amenity": "restaurant", "name": "Chinese Cherry Blossom"}}, {"type": "node", "id": 967256388, "lat": 39.7417382, "lon": -105.5025846, "tags": {"amenity": "fuel", "key": "brand"}}, {"type": "node", "id": 967256396, "lat": 39.7411133, "lon": -105.502236, "tags": {"addr:city": "Idaho Springs", "addr:housenumber": "2727", "addr:postcode": "80452", "addr:state": "CO", "addr:street": "Colorado Boulevard", "name": "C & C Machine & Welding", "shop": "welding"}}, {"type": "node", "id": 967256430, "lat": 39.7417196, "lon": -105.5021769, "tags": {"name": "Annis Gold Antiques", "shop": "antiques"}}, {"type": "node", "id": 1860565782, "lat": 39.743119, "lon": -105.509745}, {"type": "node", "id": 1860565787, "lat": 39.7430969, "lon": -105.5095233}, {"type": "node", "id": 1860565813, "lat": 39.7431891, "lon": -105.5097584}, {"type": "node", "id": 1860565815, "lat": 39.7431726, "lon": -105.5097611}, {"type": "node", "id": 1860565817, "lat": 39.7431052, "lon": -105.5096923}, {"type": "node", "id": 1860565821, "lat": 39.7430901, "lon": -105.5096431}, {"type": "node", "id": 2095838700, "lat": 39.7417505, "lon": -105.5176775, "tags": {"addr:city": "Idaho Springs", "addr:housename": "Tommy Knocker Brewery & Pub", "addr:housenumber": "1401", "addr:postcode": "80452", "addr:state": "CO", "addr:street": "Miner Street", "amenity": "pub", "microbrewery": "yes", "name": "Tommy Knocker Brewery & Pub", "website": "https://tommyknocker.com/PUB___RESTAURANT_RK6V.html"}}, {"type": "node", "id": 3023749605, "lat": 39.7401473, "lon": -105.5218397}, {"type": "node", "id": 3023753041, "lat": 39.7404092, "lon": -105.521955}, {"type": "node", "id": 3023753043, "lat": 39.7402625, "lon": -105.5216404}, {"type": "node", "id": 3023753045, "lat": 39.7403082, "lon": -105.5221428}, {"type": "node", "id": 3023753047, "lat": 39.7402192, "lon": -105.5221259}, {"type": "node", "id": 4982490436, "lat": 39.7419016, "lon": -105.5151897, "tags": {"amenity": "bar", "name": "Westwinds Tavern"}}, {"type": "node", "id": 4982490441, "lat": 39.7419112, "lon": -105.5149861, "tags": {"addr:city": "Idaho Springs", "addr:housenumber": "1641", "addr:postcode": "80452", "addr:state": "CO", "addr:street": "Miner Street", "amenity": "restaurant", "cuisine": "mediterranean", "name": "GyroX Mediterranean Deli"}}, {"type": "node", "id": 4982490457, "lat": 39.7419049, "lon": -105.5155002, "tags": {"addr:city": "Idaho Springs", "addr:housenumber": "1617", "addr:postcode": "80452", "addr:state": "CO", "addr:street": "Miner Street", "amenity": "restaurant", "check_date": "2025-07-06", "cuisine": "regional;pizza;burger", "name": "Westbound & cupDown", "opening_hours": "Mo-Fr 11:00-20:00; Sa, Su 08:00-20:00", "website": "https://www.westboundanddown.com/idaho-springs"}}, {"type": "node", "id": 4983426601, "lat": 39.7419751, "lon": -105.5171905, "tags": {"addr:housenumber": "1446", "addr:street": "Miner Street", "amenity": "pub", "name": "Clear Creek Cidery & Eatery", "opening_hours": "Mo-Su 11:00-21:00", "phone": "+1 720 454 4663", "website": "https://clearcreekcider.com"}}, {"type": "node", "id": 5476004478, "lat": 39.7414873, "lon": -105.5164629, "tags": {"amenity": "charging_station", "brand": "ChargePoint", "brand:wikidata": "Q5176149", "capacity": "2", "fixme": "aprox location", "frequency": "60", "name": "ChargePoint", "operator": "ChargePoint", "operator:wikidata": "Q5176149", "operator:wikipedia": "en:ChargePoint", "socket:type1": "2"}}, {"type": "node", "id": 5601174146, "lat": 39.7420803, "lon": -105.4988919, "tags": {"amenity": "pharmacy", "dispensing": "yes", "healthcare": "pharmacy"}}, {"type": "node", "id": 5840972338, "lat": 39.7441711, "lon": -105.5353706}, {"type": "node", "id": 5840972343, "lat": 39.7439053, "lon": -105.5346297}, {"type": "node", "id": 5840972344, "lat": 39.7439305, "lon": -105.5347785}, {"type": "node", "id": 5840972346, "lat": 39.7439487, "lon": -105.534867}, {"type": "node", "id": 5840972360, "lat": 39.7439682, "lon": -105.5353369}, {"type": "node", "id": 5840972372, "lat": 39.743922, "lon": -105.5350585}, {"type": "node", "id": 5840972374, "lat": 39.7439578, "lon": -105.5346131}, {"type": "node", "id": 5840972377, "lat": 39.7440531, "lon": -105.5349929}, {"type": "node", "id": 5840972692, "lat": 39.7440065, "lon": -105.5348237}, {"type": "node", "id": 5840972702, "lat": 39.7440319, "lon": -105.5354689}, {"type": "node", "id": 5840972708, "lat": 39.7438857, "lon": -105.535147}, {"type": "node", "id": 5840972719, "lat": 39.7440282, "lon": -105.5349056}, {"type": "node", "id": 5840972751, "lat": 39.7439416, "lon": -105.5349956}, {"type": "node", "id": 5840972887, "lat": 39.7439369, "lon": -105.5352682}, {"type": "node", "id": 5840972891, "lat": 39.7439487, "lon": -105.5349339}, {"type": "node", "id": 5841059108, "lat": 39.7416528, "lon": -105.5186318, "tags": {"addr:city": "Idaho Springs", "addr:floor": "1", "addr:housenumber": "1319", "addr:state": "CO", "addr:street": "Miner Street", "brand": "Maverik", "brand:wikidata": "Q6443340", "check_date": "2025-07-07", "level": "0", "name": "Maverik", "payment:cash": "yes", "payment:credit_cards": "yes", "payment:debit_cards": "yes", "phone": "+1-303-567-2385", "shop": "convenience", "website": "https://locations.maverik.com/co/idaho-springs/1319-miner-st", "wheelchair": "yes"}}, {"type": "node", "id": 5843092954, "lat": 39.7437857, "lon": -105.536306, "tags": {"amenity": "parking", "source": "EsriWorldImageryClarity"}}, {"type": "node", "id": 6011375040, "lat": 39.7420885, "lon": -105.4978657}, {"type": "node", "id": 6011375041, "lat": 39.7420255, "lon": -105.4974798}, {"type": "node", "id": 6011375042, "lat": 39.7421491, "lon": -105.4975158}, {"type": "node", "id": 6011375043, "lat": 39.7419649, "lon": -105.4978297}, {"type": "node", "id": 6011375044, "lat": 39.7419114, "lon": -105.4985413, "tags": {"amenity": "pharmacy", "healthcare": "pharmacy"}}, {"type": "node", "id": 6011375049, "lat": 39.741996, "lon": -105.4982922}, {"type": "node", "id": 6014131463, "lat": 39.7413609, "lon": -105.5000901, "tags": {"addr:housenumber": "2729", "addr:street": "Colorado Boulevard", "name": "Medical Cannabis", "shop": "cannabis"}}, {"type": "node", "id": 6014131464, "lat": 39.7412963, "lon": -105.5005918, "tags": {"addr:housenumber": "2729", "addr:street": "Colorado Boulevard", "name": "Luxury Laundry", "shop": "laundry"}}, {"type": "node", "id": 6017176685, "lat": 39.7433707, "lon": -105.5119646}, {"type": "node", "id": 6028749684, "lat": 39.7430444, "lon": -105.5270368}, {"type": "node", "id": 6028753015, "lat": 39.7433061, "lon": -105.5268838}, {"type": "node", "id": 6028753040, "lat": 39.7430325, "lon": -105.5269418}, {"type": "node", "id": 6545661210, "lat": 39.741983, "lon": -105.5177064}, {"type": "node", "id": 6545661234, "lat": 39.7416237, "lon": -105.5195607}, {"type": "node", "id": 6545661388, "lat": 39.7416733, "lon": -105.5196412}, {"type": "node", "id": 6545661541, "lat": 39.7418155, "lon": -105.5196892}, {"type": "node", "id": 6545661559, "lat": 39.7420694, "lon": -105.5177083}, {"type": "node", "id": 6545661606, "lat": 39.7418708, "lon": -105.5195097}, {"type": "node", "id": 6545661608, "lat": 39.7420992, "lon": -105.5178719}, {"type": "node", "id": 6545661696, "lat": 39.7418062, "lon": -105.5196136}, {"type": "node", "id": 6545661740, "lat": 39.7420366, "lon": -105.5177126}, {"type": "node", "id": 6545661764, "lat": 39.742225, "lon": -105.5179051}, {"type": "node", "id": 6545661854, "lat": 39.7420667, "lon": -105.5180289}, {"type": "node", "id": 6545661916, "lat": 39.7422365, "lon": -105.5177367}, {"type": "node", "id": 6545689530, "lat": 39.7419772, "lon": -105.5177925}, {"type": "node", "id": 6545689553, "lat": 39.7416412, "lon": -105.5197037}, {"type": "node", "id": 6545696604, "lat": 39.7416826, "lon": -105.5197168}, {"type": "node", "id": 6545696623, "lat": 39.7420371, "lon": -105.5177046}, {"type": "node", "id": 6545696672, "lat": 39.7420775, "lon": -105.5178694}, {"type": "node", "id": 6545696827, "lat": 39.7420979, "lon": -105.5178905}, {"type": "node", "id": 6545696914, "lat": 39.7419339, "lon": -105.5180136}, {"type": "node", "id": 6579139225, "lat": 39.7417347, "lon": -105.504668, "tags": {"addr:city": "Idaho Springs", "addr:housenumber": "2448", "addr:postcode": "80452", "addr:state": "CO", "addr:street": "Colorado Boulevard", "air_conditioning": "yes", "amenity": "fast_food", "cuisine": "sandwich;soup;salad;dessert;cheese", "drive_through": "no", "name": "BIG B'S Soup & Grilled Cheese", "opening_hours": "Su-Th 10:00-18:00, Fr-Sa 10:00-21:00", "outdoor_seating": "yes", "phone": "+1-303-481-8211", "website": "https://www.cheesus.biz/"}}, {"type": "node", "id": 8059593550, "lat": 39.7418309, "lon": -105.5078324}, {"type": "node", "id": 8059593551, "lat": 39.7418518, "lon": -105.5081166}, {"type": "node", "id": 8059593552, "lat": 39.7419749, "lon": -105.508509}, {"type": "node", "id": 8059666291, "lat": 39.7418613, "lon": -105.5076331}, {"type": "node", "id": 8059666292, "lat": 39.7419694, "lon": -105.5076683}, {"type": "node", "id": 8059666293, "lat": 39.7420213, "lon": -105.5081096}, {"type": "node", "id": 8059666294, "lat": 39.7421257, "lon": -105.5084644}, {"type": "node", "id": 9039177446, "lat": 39.74155, "lon": -105.51836, "tags": {"access": "yes", "addr:city": "Idaho Springs", "addr:country": "US", "addr:housenumber": "1319", "addr:postcode": "80452", "addr:state": "CO", "addr:street": "Miner Street", "amenity": "charging_station", "authentication:app": "yes", "bicycle": "no", "brand": "Tesla Supercharger", "brand:en": "Tesla Supercharger", "brand:website": "https://www.tesla.com/supercharger", "brand:wikidata": "Q17089620", "bus": "no", "capacity": "8", "description": "Non-Teslas can charge here. NACS (Tesla) receptacle or adapter required.", "ele": "2303", "fee": "yes", "frequency": "0", "hgv": "no", "maxstay": "no", "motorcar": "designated", "name": "Tesla Supercharger", "network": "Supercharger", "network:website": "https://www.tesla.com/supercharger", "network:wikidata": "Q17089620", "note": "Despite iD prompting to \"upgrade\" operator from \"Tesla, Inc.\" to \"Tesla\", the correct value is in fact \"Tesla, Inc.\" Work is in progress to stop iD from flagging this.", "opening_hours": "24/7", "operator": "Tesla, Inc.", "operator:wikidata": "Q478214", "payment:app:tesla": "yes", "ref:plugshare": "231828", "ref:supercharge_info": "2003", "reservation": "no", "scooter": "no", "socket:nacs": "8", "socket:nacs:output": "250", "source": "https://supercharge.info", "start_date": "2020-02-06", "website": "https://www.tesla.com/findus/location/supercharger/idahospringscosupercharger"}}, {"type": "node", "id": 9081934218, "lat": 39.7417045, "lon": -105.5186456, "tags": {"amenity": "toilets"}}, {"type": "node", "id": 9588812189, "lat": 39.7417133, "lon": -105.5120926, "tags": {"amenity": "charging_station"}}, {"type": "node", "id": 9588812190, "lat": 39.7390825, "lon": -105.5126631, "tags": {"addr:city": "Idaho Springs", "addr:housenumber": "302", "addr:postcode": "80452", "addr:state": "CO", "addr:street": "Soda Creek Road", "amenity": "public_bath", "bath:open_air": "no", "bath:type": "hot_spring", "fee": "yes", "name": "Indian Hot Springs", "tourism": "hotel"}}, {"type": "node", "id": 9748985530, "lat": 39.744049, "lon": -105.530132, "tags": {"addr:city": "Idaho Springs", "addr:country": "US", "addr:housenumber": "243", "addr:postcode": "80452", "addr:state": "CO", "addr:street": "Colorado Boulevard", "name": "Silver City Automotive & Towing", "opening_hours": "Mo-Sa 08:00-17:00", "operator": "Mike Davies", "phone": "+1-303-567-0662", "shop": "towing", "website": "https://silvercityautomotiveandtowing.com", "year": "1985"}}, {"type": "node", "id": 11449591771, "lat": 39.741308, "lon": -105.5172862}, {"type": "node", "id": 11569623525, "lat": 39.7421128, "lon": -105.514939, "tags": {"addr:city": "Idaho Springs", "addr:housenumber": "1640", "addr:postcode": "80452", "addr:state": "CO", "addr:street": "Miner Street", "amenity": "restaurant", "check_date": "2025-06-10", "cuisine": "pizza;burger", "name": "Pick Axe Pizza", "opening_hours": "Mo 12:00-21:00; Tu closed; We-Th 12:00-21:00; Fr-Su 12:00-22:00", "phone": "+1 303-567-2148", "website": "https://pickaxepizza.godaddysites.com"}}, {"type": "node", "id": 11569623526, "lat": 39.7421029, "lon": -105.515107, "tags": {"addr:city": "Idaho Springs", "addr:housenumber": "1626", "addr:postcode": "80452", "addr:state": "CO", "addr:street": "Miner Street", "name": "The Majestic Art Gallery", "phone": "+1 303 567 9303", "shop": "art"}}, {"type": "node", "id": 11817097462, "lat": 39.7413129, "lon": -105.5176578, "tags": {"amenity": "vending_machine", "vending": "parking_tickets"}}, {"type": "node", "id": 11839794395, "lat": 39.7417367, "lon": -105.5184468}, {"type": "node", "id": 11839794396, "lat": 39.7417153, "lon": -105.5182272}, {"type": "node", "id": 11839794397, "lat": 39.7415112, "lon": -105.5182608}, {"type": "node", "id": 11839794398, "lat": 39.7415326, "lon": -105.5184805}, {"type": "node", "id": 11839794401, "lat": 39.7415239, "lon": -105.5197541}, {"type": "node", "id": 11839794402, "lat": 39.7414283, "lon": -105.5198092}, {"type": "node", "id": 11839794403, "lat": 39.7414169, "lon": -105.5199804}, {"type": "node", "id": 11839794404, "lat": 39.7414115, "lon": -105.5202228}, {"type": "node", "id": 11839794405, "lat": 39.7414095, "lon": -105.5204722}, {"type": "node", "id": 11839794406, "lat": 39.7414017, "lon": -105.5206043}, {"type": "node", "id": 11839794407, "lat": 39.74141, "lon": -105.5206806}, {"type": "node", "id": 11839794408, "lat": 39.7416206, "lon": -105.5206434}, {"type": "node", "id": 11839794409, "lat": 39.7416181, "lon": -105.5204735}, {"type": "node", "id": 11839794442, "lat": 39.743045, "lon": -105.5182973}, {"type": "node", "id": 11839794443, "lat": 39.7428986, "lon": -105.5183271}, {"type": "node", "id": 11839794444, "lat": 39.7428961, "lon": -105.5183064}, {"type": "node", "id": 11839794445, "lat": 39.742865, "lon": -105.5183128}, {"type": "node", "id": 11839794446, "lat": 39.7428707, "lon": -105.5183604}, {"type": "node", "id": 11839794447, "lat": 39.742833, "lon": -105.5183681}, {"type": "node", "id": 11839794448, "lat": 39.7428405, "lon": -105.5184301}, {"type": "node", "id": 11839794449, "lat": 39.7428749, "lon": -105.518423}, {"type": "node", "id": 11839794450, "lat": 39.7428773, "lon": -105.5184433}, {"type": "node", "id": 11948642907, "lat": 39.7425984, "lon": -105.5052867}, {"type": "node", "id": 11948642908, "lat": 39.742575, "lon": -105.5046527}, {"type": "node", "id": 11948642909, "lat": 39.7425305, "lon": -105.5046484}, {"type": "node", "id": 11948642910, "lat": 39.7424236, "lon": -105.5052131}, {"type": "node", "id": 12069009377, "lat": 39.7419454, "lon": -105.5175884, "tags": {"addr:city": "Idaho Springs", "addr:housenumber": "1424", "addr:postcode": "80452", "addr:state": "CO", "addr:street": "Miner Street", "amenity": "fast_food", "cuisine": "sandwich", "name": "Two Brothers Deli", "opening_hours": "Mo-Fr 09:00-17:00; Sa,Su 08:00-17:00", "phone": "+1-303-567-2439", "website": "https://www.2brosdelicolorado.com/"}}, {"type": "node", "id": 12111613761, "lat": 39.7418318, "lon": -105.5164487, "tags": {"addr:housenumber": "1527", "addr:street": "Miner Street", "name": "Canyon Trading", "shop": "gift"}}, {"type": "node", "id": 12111654808, "lat": 39.7418014, "lon": -105.5168099, "tags": {"name": "Colorado Gifts & T-Shirts", "shop": "gift"}}, {"type": "node", "id": 12111661937, "lat": 39.7417915, "lon": -105.5168983, "tags": {"amenity": "ice_cream", "name": "Sit N Chill", "website": "https://www.sitnchillicecream.com/"}}, {"type": "node", "id": 12113825307, "lat": 39.7416765, "lon": -105.5141938}, {"type": "node", "id": 12113825308, "lat": 39.7417306, "lon": -105.5140682}, {"type": "node", "id": 12113825309, "lat": 39.741999, "lon": -105.5142023}, {"type": "node", "id": 12113825321, "lat": 39.74124, "lon": -105.5067891, "tags": {"shop": "alcohol"}}, {"type": "node", "id": 12200014883, "lat": 39.7417804, "lon": -105.5122353, "tags": {"amenity": "polling_station", "location": "outdoor", "opening_hours": "24/7", "polling_station": "ballot_box"}}, {"type": "node", "id": 12207869624, "lat": 39.7419258, "lon": -105.5186941}, {"type": "node", "id": 12207869625, "lat": 39.7419103, "lon": -105.5187424}, {"type": "node", "id": 12207869626, "lat": 39.7419779, "lon": -105.5192003}, {"type": "node", "id": 12207869627, "lat": 39.7419671, "lon": -105.5192319}, {"type": "node", "id": 12207869628, "lat": 39.7419655, "lon": -105.5192956}, {"type": "node", "id": 12207869629, "lat": 39.7419805, "lon": -105.5193331}, {"type": "node", "id": 12207869630, "lat": 39.7427291, "lon": -105.5191614}, {"type": "node", "id": 12207869631, "lat": 39.7427317, "lon": -105.5191386}, {"type": "node", "id": 12207869632, "lat": 39.7426342, "lon": -105.5183333}, {"type": "node", "id": 12207869633, "lat": 39.7426559, "lon": -105.5182891}, {"type": "node", "id": 12207869634, "lat": 39.742658, "lon": -105.5182515}, {"type": "node", "id": 12207869635, "lat": 39.7426482, "lon": -105.5182274}, {"type": "node", "id": 12207869636, "lat": 39.7426296, "lon": -105.5182213}, {"type": "node", "id": 12207869637, "lat": 39.742278, "lon": -105.5181831}, {"type": "node", "id": 12207869638, "lat": 39.7422981, "lon": -105.5183997}, {"type": "node", "id": 12207869639, "lat": 39.7422836, "lon": -105.5184057}, {"type": "node", "id": 12207869640, "lat": 39.742296, "lon": -105.5185124}, {"type": "node", "id": 12207869641, "lat": 39.7422166, "lon": -105.5185238}, {"type": "node", "id": 12207869642, "lat": 39.7422182, "lon": -105.5185439}, {"type": "node", "id": 12207869643, "lat": 39.7419134, "lon": -105.518623}, {"type": "node", "id": 12207878248, "lat": 39.7412364, "lon": -105.515802}, {"type": "node", "id": 12207878249, "lat": 39.741255, "lon": -105.5158073}, {"type": "node", "id": 12207878250, "lat": 39.741223, "lon": -105.5155317}, {"type": "node", "id": 12207878251, "lat": 39.7413035, "lon": -105.5155572}, {"type": "node", "id": 12207878252, "lat": 39.741464, "lon": -105.5148712}, {"type": "node", "id": 12207878253, "lat": 39.7415409, "lon": -105.5158363}, {"type": "node", "id": 12207878254, "lat": 39.7413535, "lon": -105.5158179}, {"type": "node", "id": 12207878255, "lat": 39.741556, "lon": -105.5148407}, {"type": "node", "id": 12207878256, "lat": 39.7414788, "lon": -105.5158313}, {"type": "node", "id": 12207878257, "lat": 39.7416156, "lon": -105.5148509}, {"type": "node", "id": 12207878258, "lat": 39.7414881, "lon": -105.5148306}, {"type": "node", "id": 12207878260, "lat": 39.7412451, "lon": -105.5158965}, {"type": "node", "id": 12207878261, "lat": 39.7411041, "lon": -105.5163972}, {"type": "node", "id": 12207878262, "lat": 39.7411596, "lon": -105.5158789}, {"type": "node", "id": 12207878263, "lat": 39.7412148, "lon": -105.5158863}, {"type": "node", "id": 12207878264, "lat": 39.7411543, "lon": -105.516854}, {"type": "node", "id": 12207878265, "lat": 39.7410801, "lon": -105.5168629}, {"type": "node", "id": 12207878266, "lat": 39.7413701, "lon": -105.5179593}, {"type": "node", "id": 12207878267, "lat": 39.7410756, "lon": -105.5179169}, {"type": "node", "id": 12207878268, "lat": 39.7414159, "lon": -105.5173029}, {"type": "node", "id": 12207878269, "lat": 39.7410996, "lon": -105.5172524}, {"type": "node", "id": 12207878270, "lat": 39.7413288, "lon": -105.5169855}, {"type": "node", "id": 12207878271, "lat": 39.741075, "lon": -105.5175865}, {"type": "node", "id": 12207878272, "lat": 39.7412798, "lon": -105.5169797}, {"type": "node", "id": 12207878273, "lat": 39.741259, "lon": -105.5172804}, {"type": "node", "id": 12207878274, "lat": 39.7414745, "lon": -105.5168977}, {"type": "node", "id": 12207878275, "lat": 39.7415247, "lon": -105.5161837}, {"type": "node", "id": 12207878331, "lat": 39.7420688, "lon": -105.5177174}, {"type": "node", "id": 12207878332, "lat": 39.7419448, "lon": -105.5178542}, {"type": "node", "id": 12207878333, "lat": 39.7419728, "lon": -105.5178574}, {"type": "node", "id": 12964350850, "lat": 39.7419463, "lon": -105.517507, "tags": {"amenity": "pub", "craft": "winery", "name": "Slaymaker cellars meadery"}}, {"type": "node", "id": 12964362887, "lat": 39.7418956, "lon": -105.5151073, "tags": {"amenity": "restaurant", "cuisine": "hmong; chinese", "name": "The banana leaf", "website": "https://the-banana-leaf.com/"}}, {"type": "node", "id": 12986349688, "lat": 39.7413194, "lon": -105.5184938, "tags": {"addr:housenumber": "1347", "addr:street": "Idaho Street", "check_date": "2025-07-07", "name": "Clear Creek Laundry", "opening_hours": "06:00-22:00", "payment:cash": "yes", "payment:credit_cards": "yes", "payment:debit_cards": "yes", "phone": "+1-303-567-9940", "self_service": "yes", "shop": "laundry", "website": "https://b-j-laundromat.edan.io/", "wheelchair": "yes"}}, {"type": "way", "id": 80745781, "nodes": [941637920, 941637921, 941637922, 941637923, 941637920], "tags": {"amenity": "parking"}}, {"type": "way", "id": 80746010, "nodes": [941638412, 941638414, 941638416, 941638417, 941638412], "tags": {"access": "customers", "amenity": "parking", "fee": "no", "parking": "surface"}}, {"type": "way", "id": 80746062, "nodes": [941638486, 941638487, 941638490, 941638491, 941638486], "tags": {"addr:city": "Idaho Springs", "addr:housenumber": "1969", "addr:postcode": "80452", "addr:state": "CO", "addr:street": "Miner Street", "amenity": "clinic", "building": "yes", "healthcare": "clinic", "name": "Centura Health Primary Care Idaho Springs", "website": "https://www.centura.org/location/chpg-primary-care-idaho-springs"}}, {"type": "way", "id": 80746093, "nodes": [941638534, 947506281, 947506285, 947506301, 947506304, 947506308, 947506312, 941638535, 941638536, 947506318, 947506322, 947506324, 947506327, 947506331, 947506333, 941638537, 941638534], "tags": {"addr:city": "Idaho Springs", "addr:housenumber": "2425", "addr:postcode": "80452", "addr:state": "CO", "addr:street": "Colorado Boulevard", "brand": "Safeway", "brand:wikidata": "Q1508234", "building": "supermarket", "check_date": "2025-06-08", "name": "Safeway", "phone": "+1 303-567-4471", "phone:pharmacy": "+1 303 567 2496", "ref": "390", "shop": "supermarket", "website": "https://local.safeway.com/safeway/co/idaho-springs/2425-miner-st.html"}}, {"type": "way", "id": 81342251, "nodes": [947574236, 947574237, 947574239, 947574240, 947574236], "tags": {"amenity": "parking"}}, {"type": "way", "id": 81342256, "nodes": [947574268, 947574272, 947574275, 947574277, 947574268], "tags": {"addr:city": "Idaho Springs", "addr:housenumber": "2108", "addr:postcode": "80452", "addr:state": "CO", "addr:street": "Miner Street", "amenity": "toilets", "building": "yes"}}, {"type": "way", "id": 81342295, "nodes": [947575974, 6011375049, 947575929, 947575976, 947575979, 947575981, 947575974], "tags": {"addr:city": "Idaho Springs", "addr:housenumber": "2820", "addr:postcode": "80452", "addr:state": "CO", "addr:street": "Colorado Boulevard", "building": "residential", "height": "5", "shop": "cannabis", "source": "DRCOG PLANIMETRICS DATA"}}, {"type": "way", "id": 81342482, "nodes": [12207878274, 12207878264, 12207878265, 12207878261, 12207878262, 12207878263, 12207878260, 947589245, 947589247, 947589238, 12207878275, 12207878274], "tags": {"amenity": "parking", "fee": "yes"}}, {"type": "way", "id": 81342483, "nodes": [12207878253, 12207878256, 12207878254, 12207878249, 12207878248, 12207878263, 12207878262, 12207878250, 12207878251, 12207878252, 12207878258, 12207878255, 12207878257, 12207878253], "tags": {"amenity": "parking", "fee": "yes"}}, {"type": "way", "id": 81343400, "nodes": [947589162, 12113825309, 947589165, 949024661, 12113825308, 12113825307, 947589167, 947589162], "tags": {"access": "customers", "amenity": "parking", "fee": "no", "parking": "surface"}}, {"type": "way", "id": 81458712, "nodes": [949024743, 949024727, 949024717, 949024685, 949024743], "tags": {"addr:city": "Idaho Springs", "addr:housenumber": "1771", "addr:postcode": "80452", "addr:state": "CO", "addr:street": "Miner Street", "amenity": "townhall", "building": "yes", "name": "Idaho Springs City Hall"}}, {"type": "way", "id": 81605234, "nodes": [951011599, 951011761, 949235887, 951011600, 951011599], "tags": {"addr:city": "Idaho Springs", "addr:housenumber": "1632", "addr:postcode": "80452", "addr:state": "CO", "addr:street": "Colorado Boulevard", "amenity": "place_of_worship", "building": "church", "denomination": "roman_catholic", "diocese": "Denver", "fax": "+1 303-567-4662", "name": "Saint Paul Catholic Church", "note": "Mailing Address: PO Box 848; Idaho Springs, CO 80452", "phone": "+1 303-567-4662", "religion": "christian", "website": "https://www.godrushcatholic.org/", "wikimedia_commons": "File:Saint Paul Catholic Church in Idaho Springs Colorado.jpg"}}, {"type": "way", "id": 81605256, "nodes": [951011747, 6017176685, 951011788, 951011650, 951011747], "tags": {"addr:city": "Idaho Springs", "addr:housenumber": "1921", "addr:postcode": "80452", "addr:state": "CO", "addr:street": "Virginia Street", "amenity": "place_of_worship", "building": "church", "denomination": "lutheran", "height": "10", "name": "Zion Lutheran Church", "religion": "christian", "source": "DRCOG PLANIMETRICS DATA"}}, {"type": "way", "id": 175470990, "nodes": [1860565813, 1860565815, 1860565782, 1860565817, 1860565821, 1860565787, 1860565813], "tags": {"amenity": "parking"}}, {"type": "way", "id": 298464866, "nodes": [3023753043, 3023753041, 3023753045, 3023753047, 3023749605, 3023753043], "tags": {"amenity": "parking"}}, {"type": "way", "id": 617939848, "nodes": [5840972338, 5840972702, 5840972360, 5840972887, 5840972708, 5840972372, 5840972751, 5840972891, 5840972346, 5840972344, 5840972343, 5840972374, 5840972692, 5840972719, 5840972377, 5840972338], "tags": {"amenity": "parking", "parking": "surface", "source": "EsriWorldImageryClarity"}}, {"type": "way", "id": 637669638, "nodes": [6011375040, 6011375042, 6011375041, 6011375043, 6011375040], "tags": {"addr:city": "Idaho Springs", "addr:housenumber": "2900", "addr:postcode": "80439", "addr:state": "CO", "addr:street": "Colorado Boulevard", "amenity": "fast_food", "brand": "Subway", "brand:wikidata": "Q244457", "building": "commercial", "cuisine": "sandwich", "height": "5", "name": "Subway", "source": "DRCOG PLANIMETRICS DATA", "takeaway": "yes"}}, {"type": "way", "id": 639873711, "nodes": [6028753015, 6028753040, 6028749684, 947573315, 6028753015], "tags": {"addr:city": "Idaho Springs", "addr:postcode": "80452", "addr:state": "CO", "building": "garage", "contact:phone": "+1-303-567-4085", "height": "5", "landuse": "retail", "name": "UStor", "shop": "storage_rental", "source": "DRCOG PLANIMETRICS DATA"}}, {"type": "way", "id": 696987407, "nodes": [950702046, 6545661606, 6545661234, 6545689553, 950702046], "tags": {"addr:city": "Idaho Springs", "addr:housenumber": "115", "addr:postcode": "80452", "addr:state": "CO", "addr:street": "13th Avenue", "amenity": "fuel", "brand": "Shell", "brand:wikidata": "Q110716465", "building": "roof", "ele": "2311.12", "height": "5", "layer": "1", "name": "Shell", "operator": "Sinclair", "wpt_description": "09-OCT-10 11:18:00AM"}}, {"type": "way", "id": 696987440, "nodes": [6545696672, 6545661608, 6545696827, 6545661764, 6545661916, 12207878331, 6545661559, 6545696623, 6545661740, 6545661210, 6545689530, 12207878333, 6545696672], "tags": {"addr:city": "Idaho Springs", "addr:housenumber": "1402", "addr:postcode": "80452", "addr:state": "CO", "addr:street": "Miner Street", "building": "commercial", "height": "9", "shop": "second_hand", "source": "DRCOG PLANIMETRICS DATA"}}, {"type": "way", "id": 864700305, "nodes": [947574290, 8059666294, 8059666293, 8059666292, 8059666291, 8059593550, 8059593551, 8059593552, 947574290], "tags": {"access": "yes", "amenity": "parking", "fee": "no", "operator": "City of Idaho Springs", "operator:type": "government", "parking": "surface"}}, {"type": "way", "id": 1233829136, "nodes": [12207878273, 12207878269, 12207878271, 12207878267, 12207878266, 12207878268, 11449591771, 12207878273], "tags": {"amenity": "parking", "fee": "yes"}}, {"type": "way", "id": 1275121819, "nodes": [11839794395, 11839794396, 11839794397, 11839794398, 11839794395], "tags": {"access": "private", "amenity": "parking", "parking": "surface"}}, {"type": "way", "id": 1275121821, "nodes": [11839794401, 11839794402, 11839794403, 11839794404, 11839794405, 11839794406, 11839794407, 11839794408, 11839794409, 11839794401], "tags": {"amenity": "parking"}}, {"type": "way", "id": 1275121824, "nodes": [6545661388, 6545696604, 6545661541, 6545661696, 6545661388], "tags": {"addr:city": "Idaho Springs", "addr:housenumber": "115", "addr:postcode": "80452", "addr:state": "CO", "addr:street": "13th Avenue", "building": "retail", "ele": "2311.12", "height": "5", "name": "Shell", "operator": "Sinclair", "shop": "convenience", "source": "DRCOG PLANIMETRICS DATA", "wpt_description": "09-OCT-10 11:18:00AM"}}, {"type": "way", "id": 1275121828, "nodes": [947575093, 11839794442, 11839794443, 11839794444, 11839794445, 11839794446, 11839794447, 11839794448, 11839794449, 11839794450, 947575093], "tags": {"addr:city": "Idaho Springs", "addr:street": "Colorado Boulevard", "amenity": "place_of_worship", "building": "church", "name": "Church of Saint John", "religion": "christian"}}, {"type": "way", "id": 1288478179, "nodes": [11948642907, 11948642908, 11948642909, 11948642910, 11948642907], "tags": {"amenity": "parking", "parking": "surface", "surface": "gravel"}}, {"type": "way", "id": 1319127520, "nodes": [11449591771, 12207878270, 12207878272, 12207878273, 11449591771], "tags": {"amenity": "parking", "fee": "yes"}}, {"type": "way", "id": 1319127524, "nodes": [12207869643, 12207869642, 12207869641, 12207869640, 12207869639, 12207869638, 12207869637, 12207869636, 12207869635, 12207869634, 12207869633, 12207869632, 12207869631, 12207869630, 12207869629, 12207869628, 12207869627, 12207869626, 12207869625, 12207869624, 12207869643], "tags": {"amenity": "school"}}, {"type": "way", "id": 1319127527, "nodes": [12207878333, 12207878332, 6545696914, 6545661854, 6545696672, 12207878333], "tags": {"addr:city": "Idaho Springs", "addr:housenumber": "1402", "addr:postcode": "80452", "addr:state": "CO", "addr:street": "Miner Street", "building": "commercial", "height": "9", "shop": "second_hand", "source": "DRCOG PLANIMETRICS DATA"}}]}