{"version": 0.6, "generator": "Overpass API 0.7.62.8 e802775f", "osm3s": {"timestamp_osm_base": "2025-12-12T18:27:00Z", "copyright": "The data included in this document is from www.openstreetmap.org. The data is made available under ODbL."}, "elements": [{"type": "node", "id": 358947123, "lat": 37.2750735, "lon": -105.957028, "tags": {"addr:city": "La Jara", "addr:housenumber": "214", "addr:postcode": "81140", "addr:state": "CO", "addr:street": "Poplar Street", "amenity": "school", "ele": "2318", "gnis:feature_id": "2025554", "grades": "K-5", "name": "La Jara Elementary School", "religion": "none", "website": "https://www.northconejos.com/Page/779"}}, {"type": "node", "id": 3469140043, "lat": 37.2691982, "lon": -105.9610347}, {"type": "node", "id": 3469140044, "lat": 37.2692065, "lon": -105.9610851}, {"type": "node", "id": 3469140045, "lat": 37.2692233, "lon": -105.9609755}, {"type": "node", "id": 3469140046, "lat": 37.2692317, "lon": -105.9610259}, {"type": "node", "id": 3469140047, "lat": 37.26924, "lon": -105.9610764}, {"type": "node", "id": 3469140048, "lat": 37.2692428, "lon": -105.9610932}, {"type": "node", "id": 3469140049, "lat": 37.2693377, "lon": -105.9609053}, {"type": "node", "id": 3469140050, "lat": 37.2693441, "lon": -105.960944}, {"type": "node", "id": 3469140051, "lat": 37.2693533, "lon": -105.9610644}, {"type": "node", "id": 3469140052, "lat": 37.269374, "lon": -105.9612951}, {"type": "node", "id": 3469140053, "lat": 37.2693872, "lon": -105.961375}, {"type": "node", "id": 3469140054, "lat": 37.2693907, "lon": -105.9612908}, {"type": "node", "id": 3469140055, "lat": 37.2694177, "lon": -105.961367}, {"type": "node", "id": 3469140056, "lat": 37.2694202, "lon": -105.9613824}, {"type": "node", "id": 3469140057, "lat": 37.2694976, "lon": -105.9612109}, {"type": "node", "id": 3469140058, "lat": 37.2695215, "lon": -105.961356}, {"type": "node", "id": 3469140059, "lat": 37.2696243, "lon": -105.9608306}, {"type": "node", "id": 3469140060, "lat": 37.2696472, "lon": -105.960969}, {"type": "node", "id": 3469140061, "lat": 37.269664, "lon": -105.9609646}, {"type": "node", "id": 3469140062, "lat": 37.2696783, "lon": -105.9611638}, {"type": "node", "id": 3469140063, "lat": 37.2696793, "lon": -105.9610574}, {"type": "node", "id": 3469140064, "lat": 37.2696987, "lon": -105.9612877}, {"type": "node", "id": 3469140065, "lat": 37.2697589, "lon": -105.9610366}, {"type": "node", "id": 3469140066, "lat": 37.2697962, "lon": -105.9612623}, {"type": "node", "id": 3469140087, "lat": 37.2725809, "lon": -105.9620423}, {"type": "node", "id": 3469140089, "lat": 37.2726, "lon": -105.9621564}, {"type": "node", "id": 3469140091, "lat": 37.2726994, "lon": -105.962011}, {"type": "node", "id": 3469140092, "lat": 37.2727184, "lon": -105.9621251}, {"type": "node", "id": 3477870440, "lat": 37.2692188, "lon": -105.9633057}, {"type": "node", "id": 3477870441, "lat": 37.2692265, "lon": -105.9633912}, {"type": "node", "id": 3477870442, "lat": 37.2693986, "lon": -105.9632801}, {"type": "node", "id": 3477870443, "lat": 37.2694063, "lon": -105.9633656}, {"type": "node", "id": 3477870446, "lat": 37.2698676, "lon": -105.9630615}, {"type": "node", "id": 3477870447, "lat": 37.2698797, "lon": -105.9631998}, {"type": "node", "id": 3477870448, "lat": 37.2698805, "lon": -105.9631995}, {"type": "node", "id": 3477870449, "lat": 37.2699064, "lon": -105.9634851}, {"type": "node", "id": 3477870450, "lat": 37.2699545, "lon": -105.9630486}, {"type": "node", "id": 3477870452, "lat": 37.2699674, "lon": -105.9631867}, {"type": "node", "id": 3477870453, "lat": 37.2699708, "lon": -105.9631863}, {"type": "node", "id": 3477870457, "lat": 37.2699975, "lon": -105.9634716}, {"type": "node", "id": 3477870466, "lat": 37.2702448, "lon": -105.961194}, {"type": "node", "id": 3477870467, "lat": 37.2702583, "lon": -105.9611251}, {"type": "node", "id": 3477870468, "lat": 37.2702585, "lon": -105.9612755}, {"type": "node", "id": 3477870469, "lat": 37.2702688, "lon": -105.9611876}, {"type": "node", "id": 3477870470, "lat": 37.2702825, "lon": -105.9612691}, {"type": "node", "id": 3477870472, "lat": 37.2703205, "lon": -105.9614943}, {"type": "node", "id": 3477870474, "lat": 37.2703977, "lon": -105.961088}, {"type": "node", "id": 3477870477, "lat": 37.2704599, "lon": -105.9614572}, {"type": "node", "id": 3477870504, "lat": 37.2713707, "lon": -105.9636969}, {"type": "node", "id": 3477870505, "lat": 37.2713724, "lon": -105.9635901}, {"type": "node", "id": 3477870506, "lat": 37.2713796, "lon": -105.963746}, {"type": "node", "id": 3477870507, "lat": 37.2713907, "lon": -105.9636912}, {"type": "node", "id": 3477870508, "lat": 37.2713995, "lon": -105.9637403}, {"type": "node", "id": 3477870509, "lat": 37.2714154, "lon": -105.9638292}, {"type": "node", "id": 3477870510, "lat": 37.2715214, "lon": -105.9635476}, {"type": "node", "id": 3477870511, "lat": 37.2715285, "lon": -105.9635869}, {"type": "node", "id": 3477870512, "lat": 37.2715899, "lon": -105.9637551}, {"type": "node", "id": 3477870513, "lat": 37.2716189, "lon": -105.963922}, {"type": "node", "id": 3477870514, "lat": 37.2715899, "lon": -105.9635355}, {"type": "node", "id": 3477870515, "lat": 37.2715957, "lon": -105.9635677}, {"type": "node", "id": 3477870516, "lat": 37.271633, "lon": -105.9635232}, {"type": "node", "id": 3477870517, "lat": 37.2716388, "lon": -105.9635554}, {"type": "node", "id": 3477870518, "lat": 37.2716615, "lon": -105.9635455}, {"type": "node", "id": 3477870519, "lat": 37.2716621, "lon": -105.9635488}, {"type": "node", "id": 3477870520, "lat": 37.2716897, "lon": -105.9635374}, {"type": "node", "id": 3477870521, "lat": 37.2716903, "lon": -105.9635408}, {"type": "node", "id": 3477870522, "lat": 37.2716937, "lon": -105.9635104}, {"type": "node", "id": 3477870523, "lat": 37.2716988, "lon": -105.9635384}, {"type": "node", "id": 3477870524, "lat": 37.2717264, "lon": -105.9637159}, {"type": "node", "id": 3477870526, "lat": 37.2717356, "lon": -105.963767}, {"type": "node", "id": 3477870529, "lat": 37.2717766, "lon": -105.9634538}, {"type": "node", "id": 3477870531, "lat": 37.2717822, "lon": -105.9634853}, {"type": "node", "id": 3477870532, "lat": 37.2718125, "lon": -105.9634435}, {"type": "node", "id": 3477870533, "lat": 37.2718181, "lon": -105.963475}, {"type": "node", "id": 3477870536, "lat": 37.2718397, "lon": -105.9634689}, {"type": "node", "id": 3477870538, "lat": 37.2718858, "lon": -105.9637243}, {"type": "node", "id": 3477870567, "lat": 37.2742066, "lon": -105.9615016}, {"type": "node", "id": 3477870577, "lat": 37.2742375, "lon": -105.961696}, {"type": "node", "id": 3477870592, "lat": 37.2742715, "lon": -105.9618357}, {"type": "node", "id": 3477870598, "lat": 37.2742841, "lon": -105.961915}, {"type": "node", "id": 3477870607, "lat": 37.2743631, "lon": -105.9614622}, {"type": "node", "id": 3477870608, "lat": 37.2743732, "lon": -105.9615261}, {"type": "node", "id": 3477870609, "lat": 37.274428, "lon": -105.9617963}, {"type": "node", "id": 3477870610, "lat": 37.2744289, "lon": -105.9615122}, {"type": "node", "id": 3477870611, "lat": 37.2744406, "lon": -105.9618757}, {"type": "node", "id": 3477870612, "lat": 37.2744497, "lon": -105.9616427}, {"type": "node", "id": 3477870613, "lat": 37.274618, "lon": -105.9606692}, {"type": "node", "id": 3477870625, "lat": 37.274705, "lon": -105.9606441}, {"type": "node", "id": 3477965163, "lat": 37.2736943, "lon": -105.9603746}, {"type": "node", "id": 3477965164, "lat": 37.2737263, "lon": -105.9605574}, {"type": "node", "id": 3477965167, "lat": 37.2737778, "lon": -105.9603505}, {"type": "node", "id": 3477965169, "lat": 37.2738099, "lon": -105.9605343}, {"type": "node", "id": 6410617533, "lat": 37.2718064, "lon": -105.9629671}, {"type": "node", "id": 6410617534, "lat": 37.2722226, "lon": -105.9628491}, {"type": "node", "id": 6410617535, "lat": 37.2722983, "lon": -105.9633601}, {"type": "node", "id": 6410617536, "lat": 37.2721916, "lon": -105.9636632}, {"type": "node", "id": 6410617537, "lat": 37.2719334, "lon": -105.9637369}, {"type": "node", "id": 6410617538, "lat": 37.2713753, "lon": -105.9637222, "tags": {"entrance": "yes"}}, {"type": "node", "id": 6410617539, "lat": 37.2716144, "lon": -105.9635285, "tags": {"entrance": "yes"}}, {"type": "node", "id": 9411714477, "lat": 37.2746532, "lon": -105.9577427}, {"type": "node", "id": 9411714478, "lat": 37.2764666, "lon": -105.957239}, {"type": "node", "id": 9411714479, "lat": 37.274939, "lon": -105.9556875}, {"type": "node", "id": 9411714480, "lat": 37.2746102, "lon": -105.9563169}, {"type": "node", "id": 9411714481, "lat": 37.2746253, "lon": -105.9564171}, {"type": "node", "id": 9411714482, "lat": 37.2744596, "lon": -105.9565267}, {"type": "node", "id": 12918949239, "lat": 37.2762882, "lon": -105.955587}, {"type": "node", "id": 12918949240, "lat": 37.2725574, "lon": -105.9629894, "tags": {"amenity": "social_centre", "brand": "Knights of Columbus", "brand:short": "KofC", "brand:wikidata": "Q1046799", "name": "Knights of Columbus Council"}}, {"type": "node", "id": 12918949241, "lat": 37.2716631, "lon": -105.9621177, "tags": {"addr:city": "La Jara", "addr:housenumber": "19620", "addr:postcode": "81140", "addr:state": "CO", "addr:street": "United States Highway 285", "brand": "Dollar General", "brand:wikidata": "Q145168", "name": "Dollar General", "shop": "variety_store"}}, {"type": "node", "id": 12918949249, "lat": 37.2754858, "lon": -105.9613291, "tags": {"addr:city": "La Jara", "addr:housenumber": "217", "addr:postcode": "81140", "addr:state": "CO", "addr:street": "United States Highway 285", "brand": "Family Dollar", "brand:wikidata": "Q5433101", "name": "Family Dollar", "shop": "variety_store"}}, {"type": "node", "id": 12918949254, "lat": 37.2752121, "lon": -105.9606971}, {"type": "node", "id": 12918949255, "lat": 37.2751948, "lon": -105.9605856}, {"type": "node", "id": 12918949256, "lat": 37.2754027, "lon": -105.9605348}, {"type": "node", "id": 12918949257, "lat": 37.27542, "lon": -105.9606463}, {"type": "node", "id": 12918949258, "lat": 37.275633, "lon": -105.9620479, "tags": {"amenity": "ice_cream"}}, {"type": "node", "id": 12918949259, "lat": 37.2776457, "lon": -105.9608249, "tags": {"name": "Jack's", "shop": "supermarket"}}, {"type": "node", "id": 12918949260, "lat": 37.2718381, "lon": -105.9596876, "tags": {"amenity": "place_of_worship", "religion": "christian"}}, {"type": "node", "id": 12918949262, "lat": 37.2696517, "lon": -105.9663568, "tags": {"amenity": "veterinary"}}, {"type": "node", "id": 13061056901, "lat": 37.27149, "lon": -105.9638107}, {"type": "node", "id": 13061056902, "lat": 37.2715909, "lon": -105.9639317}, {"type": "node", "id": 13061056903, "lat": 37.2715303, "lon": -105.9640119}, {"type": "node", "id": 13061056904, "lat": 37.2715996, "lon": -105.9639907}, {"type": "way", "id": 339707680, "nodes": [3469140059, 3469140049, 3469140050, 3469140045, 3469140046, 3469140043, 3469140044, 3469140047, 3469140048, 3469140051, 3469140054, 3469140052, 3469140053, 3469140055, 3469140056, 3469140058, 3469140057, 3469140062, 3469140064, 3469140066, 3469140065, 3469140063, 3469140061, 3469140060, 3469140059], "tags": {"addr:city": "La Jara", "addr:country": "US", "addr:housenumber": "716", "addr:postcode": "81140", "addr:state": "CO", "addr:street": "State Highway 136", "amenity": "place_of_worship", "building": "church", "denomination": "mormon", "name": "The Church of Jesus Christ of Latter-day Saints", "religion": "christian"}}, {"type": "way", "id": 339707681, "nodes": [3469140092, 3469140091, 3469140087, 3469140089, 3469140092], "tags": {"addr:city": "La Jara", "addr:country": "US", "addr:housenumber": "506", "addr:state": "CO", "addr:street": "Spruce Street", "amenity": "fast_food", "brand": "Subway", "brand:wikidata": "Q244457", "building": "industrial", "cuisine": "sandwich", "name": "Subway", "takeaway": "yes"}}, {"type": "way", "id": 340548807, "nodes": [3477870509, 13061056901, 13061056903, 13061056904, 13061056902, 3477870513, 3477870512, 3477870524, 3477870526, 3477870538, 3477870536, 3477870533, 3477870532, 3477870529, 3477870531, 3477870522, 3477870523, 3477870521, 3477870520, 3477870518, 3477870519, 3477870517, 3477870516, 6410617539, 3477870514, 3477870515, 3477870511, 3477870510, 3477870505, 3477870507, 3477870504, 6410617538, 3477870506, 3477870508, 3477870509], "tags": {"addr:city": "La Jara", "addr:housenumber": "19617", "addr:postcode": "81140", "addr:state": "CO", "addr:street": "United States Highway 285", "amenity": "place_of_worship", "building": "church", "denomination": "roman_catholic", "description": "A mission of Saint Joseph Catholic Church in Capulin, CO", "description_1": "Mail goes to:P.O. Box 40, Capulin, CO 81124-0040", "diocese": "Pueblo", "name": "Our Lady of the Valley Catholic Mission", "phone": "+1 719-274-5304", "religion": "christian"}}, {"type": "way", "id": 340548808, "nodes": [3477870443, 3477870442, 3477870440, 3477870441, 3477870443], "tags": {"addr:country": "US", "addr:state": "CO", "amenity": "car_wash", "building": "roof", "name": "Splash n Dash"}}, {"type": "way", "id": 340548828, "nodes": [3477870611, 3477870609, 3477870592, 3477870598, 3477870611], "tags": {"addr:city": "La Jara", "addr:country": "US", "addr:housenumber": "320", "addr:postcode": "81140", "addr:state": "CO", "addr:street": "Spruce Street", "amenity": "fuel", "brand": "Conoco", "brand:wikidata": "Q109341187", "building": "roof", "name": "Conoco", "phone": "+1-719-274-4180", "self_service": "yes"}}, {"type": "way", "id": 340548829, "nodes": [3477870446, 3477870448, 3477870452, 3477870450, 3477870446], "tags": {"addr:country": "US", "addr:state": "CO", "building": "commercial", "name": "Reed's Tire", "repair": "yes", "service:vehicle:tyres": "yes", "shop": "car_repair"}}, {"type": "way", "id": 340548841, "nodes": [3477870457, 3477870453, 3477870452, 3477870448, 3477870447, 3477870449, 3477870457], "tags": {"addr:country": "US", "addr:state": "CO", "building": "commercial", "name": "Reed's Tire", "repair": "yes", "service:vehicle:tyres": "yes", "shop": "car_repair"}}, {"type": "way", "id": 340548843, "nodes": [3477870612, 3477870610, 3477870608, 3477870607, 3477870567, 3477870577, 3477870612], "tags": {"addr:city": "La Jara", "addr:country": "US", "addr:housenumber": "320", "addr:postcode": "81140", "addr:state": "CO", "addr:street": "Spruce Street", "building": "yes", "name": "Alta", "shop": "convenience"}}, {"type": "way", "id": 340548856, "nodes": [3477870477, 3477870474, 3477870467, 3477870469, 3477870466, 3477870468, 3477870470, 3477870472, 3477870477], "tags": {"addr:city": "La Jara", "addr:country": "US", "addr:housenumber": "710", "addr:postcode": "81140", "addr:state": "CO", "addr:street": "Broadway Avenue", "amenity": "fire_station", "building": "fire_station", "name": "La Jara Fire Station"}}, {"type": "way", "id": 340548881, "nodes": [3477870625, 3477870613], "tags": {"amenity": "weighbridge", "highway": "service", "lanes": "2", "oneway": "no", "service": "parking", "surface": "asphalt"}}, {"type": "way", "id": 340557759, "nodes": [3477965163, 3477965164, 3477965169, 3477965167, 3477965163], "tags": {"addr:city": "La Jara", "addr:country": "US", "addr:housenumber": "402", "addr:postcode": "81140", "addr:state": "CO", "addr:street": "Broadway Avenue", "amenity": "police", "building": "commercial", "name": "La Jara Police Department"}}, {"type": "way", "id": 684283493, "nodes": [6410617537, 6410617536, 6410617535, 6410617534, 6410617533, 6410617537], "tags": {"amenity": "parking", "operator": "Our Lady of the Valley Catholic Mission", "surface": "gravel"}}, {"type": "way", "id": 1020445778, "nodes": [9411714477, 9411714478, 12918949239, 9411714479, 9411714480, 9411714481, 9411714482, 9411714477], "tags": {"addr:city": "La Jara", "addr:state": "CO", "addr:street": "Poplar Street", "amenity": "school", "grades": "1-6", "landuse": "education", "name": "La Jara Elementary School"}}, {"type": "way", "id": 1395680408, "nodes": [12918949254, 12918949255, 12918949256, 12918949257, 12918949254], "tags": {"amenity": "townhall", "building": "yes"}}]}