{"version": 0.6, "generator": "Overpass API 0.7.62.8 e802775f", "osm3s": {"timestamp_osm_base": "2025-12-06T17:23:15Z", "copyright": "The data included in this document is from www.openstreetmap.org. The data is made available under ODbL."}, "elements": [{"type": "node", "id": 356540315, "lat": 48.9590059, "lon": -122.4068272, "tags": {"amenity": "grave_yard", "ele": "36", "gnis:feature_id": "1505722", "name": "Indian Joe Cemetery"}}, {"type": "node", "id": 1103684535, "lat": 48.9625718, "lon": -122.4058765, "tags": {"amenity": "school", "name": "Cornerstone Christian School"}}, {"type": "node", "id": 1103688940, "lat": 48.9632621, "lon": -122.4065277, "tags": {"addr:city": "Lynden", "addr:housenumber": "1507", "addr:state": "WA", "addr:street": "East Badger Road", "amenity": "fire_station", "name": "Fire Station #70 (Northwood)", "operator": "Whatcom County Fire District 21 (North Whatcom Fire & Rescue)"}}, {"type": "node", "id": 1103688942, "lat": 48.9639031, "lon": -122.4072862, "tags": {"name": "Northwood Market", "shop": "convenience"}}, {"type": "node", "id": 2399129095, "lat": 48.9492672, "lon": -122.4358571, "tags": {"addr:city": "Lynden", "addr:housenumber": "1011", "addr:postcode": "98264", "addr:street": "East Grover Street", "amenity": "ice_cream", "brand": "Edaleen Dairy", "contact:email": "info@edaleendairy.com", "cuisine": "ice_cream", "internet_access": "no", "name": "Edaleen Dairy", "opening_hours": "Mo-Th 8:00-21:00, Fr-Sa 8:00-22:00", "operator": "Edaleen Dairy", "outdoor_seating": "yes", "phone": "+1-360-746-8664", "smoking": "no", "source": "Local knowledge", "takeaway": "yes", "website": "https://www.edaleendairy.com/"}}, {"type": "node", "id": 2407275882, "lat": 48.956506, "lon": -122.429481, "tags": {"addr:city": "Lynden", "addr:housenumber": "8686", "addr:postcode": "98264", "addr:state": "WA", "addr:street": "Vinup Road", "amenity": "place_of_worship", "denomination": "nazarene", "name": "CrossPoint Church", "phone": "+1-360-354-3554", "religion": "christian", "source": "local knowledge, official website", "website": "https://www.crosspoint-church.com/"}}, {"type": "node", "id": 2407529334, "lat": 48.9628924, "lon": -122.4374291, "tags": {"addr:city": "Lynden", "addr:housenumber": "855", "addr:postcode": "98264", "addr:state": "WA", "addr:street": "Aaron Drive", "amenity": "nursing_home", "fax": "+1-360-354-3768", "name": "Christian Health Care Center", "opening_hours": "8:00-21:00", "operator:type": "private_non_profit", "phone": "+1-360-354-4434", "social_facility:for": "senior", "website": "https://chcclynden.org/", "wheelchair": "yes"}}, {"type": "node", "id": 2407530191, "lat": 48.962985, "lon": -122.436303, "tags": {"addr:city": "Lynden", "addr:housenumber": "905", "addr:postcode": "98264", "addr:street": "Aaron Drive", "amenity": "nursing_home", "contact:email": "dfisher@lyndenmanor.com", "fax": "+1-360-354-0882", "name": "Lynden Manor Assisted Living", "phone": "+1-360-354-5985", "website": "http://lyndenmanor.com", "wheelchair": "yes"}}, {"type": "node", "id": 2407532613, "lat": 48.963966, "lon": -122.440191, "tags": {"addr:city": "Lynden", "addr:housenumber": "8890", "addr:postcode": "98264", "addr:state": "WA", "addr:street": "Bender Road", "atm": "yes", "brand": "Shell", "delivery": "no", "internet_access": "no", "name": "Bender Plaza Shell", "phone": "+1-360-318-8535", "shop": "convenience", "source": "local knowledge", "website": "https://www.shell.com/", "wheelchair": "yes"}}, {"type": "node", "id": 2407532980, "lat": 48.963802, "lon": -122.440493, "tags": {"addr:city": "Lynden", "addr:housenumber": "8890", "addr:postcode": "98264", "addr:street": "Bender Road", "amenity": "fuel", "atm": "yes", "brand": "Shell", "brand:wikidata": "Q3240764", "car_wash": "no", "name": "Shell", "opening_hours": "24/7", "phone": "+1-360-318-8535", "source": "local knowledge", "website": "https://www.shell.com/"}}, {"type": "node", "id": 2407541259, "lat": 48.952296, "lon": -122.454256, "tags": {"addr:city": "Lynden", "addr:housenumber": "338", "addr:postcode": "98264", "addr:state": "WA", "addr:street": "North Park Street", "amenity": "place_of_worship", "contact:email": "office@gbf-online.org", "denomination": "baptist", "fax": "+1-360-354-8173", "name": "Grace Baptist Fellowship", "opening_hours": "Mo-Fr 9:00-12:00, 13:00-16:00, Su 8:30-12:00", "phone": "+1-360-354-2913", "religion": "christian", "source": "local knowledge", "website": "gbf-online.org", "wheelchair": "yes"}}, {"type": "node", "id": 2407552147, "lat": 48.948079, "lon": -122.438353, "tags": {"addr:city": "Lynden", "addr:housenumber": "900", "addr:postcode": "98264", "addr:street": "East Grover Street", "amenity": "place_of_worship", "contact:email": "HopeLC9@verizon.net", "denomination": "lutheran", "name": "Hope Lutheran Church", "phone": "+1-360-354-4211", "religion": "christian", "source": "local knowledge", "website": "https://www.lyndenhopelutheran.org/"}}, {"type": "node", "id": 2407555316, "lat": 48.949411, "lon": -122.435454, "tags": {"addr:city": "Lynden", "addr:housenumber": "1103", "addr:postcode": "98264", "addr:street": "East Grover Street", "atm": "no", "internet_access": "no", "name": "Eastside Hair", "phone": "+1-360-354-8295", "shop": "hairdresser", "source": "local knowledge"}}, {"type": "node", "id": 2407556640, "lat": 48.949429, "lon": -122.43536, "tags": {"addr:city": "Lynden", "addr:housenumber": "1103", "addr:postcode": "98264", "addr:street": "East Grover Street", "atm": "no", "name": "Heartfelt Massage", "phone": "+1-360-318-9000", "shop": "massage", "source": "local knowledge"}}, {"type": "node", "id": 2409253972, "lat": 48.944369, "lon": -122.449309, "tags": {"addr:city": "Lynden", "addr:housenumber": "112", "addr:postcode": "98264", "addr:street": "Front Street", "atm": "yes", "brand": "76 ", "delivery": "no", "internet_access": "no", "name": "Wassef Family Deli", "phone": "+1-360-354-3629", "shop": "convenience", "source": "http://www.76gas.mobi/touch/locator/map.aspx?zip=98264&ran=5&pag=0"}}, {"type": "node", "id": 2417279552, "lat": 48.9634186, "lon": -122.4400938, "tags": {"addr:city": "Lynden", "addr:housenumber": "8874", "addr:postcode": "98264", "addr:street": "Bender Road", "amenity": "cafe", "atm": "no", "cost:coffee": "$1.65", "cuisine": "coffee_shop", "drive_through": "yes", "email": "info@woodscoffee.com", "internet_access": "wlan", "name": "Woods Coffee", "opening_hours": "Mo-Fr 05:30-21:00; Sa 06:00-20:00; Su 06:00-19:00", "operator": "Woods Coffee", "outdoor_seating": "yes", "phone": "+1-360-354-0900", "smoking": "no", "source": "local knowledge", "takeaway": "yes", "website": "https://woodscoffee.com", "wheelchair": "yes", "wifi": "free"}}, {"type": "node", "id": 2417432821, "lat": 48.962701, "lon": -122.440148, "tags": {"addr:city": "Lynden", "addr:housenumber": "8862", "addr:postcode": "98264", "addr:street": "Bender Road", "addr:unit": "103", "amenity": "restaurant", "cuisine": "japanese", "delivery": "no", "name": "Nami Asian Bistro", "opening_hours": "Mo-Fr 11:00-14:30,16:30-21:00; Sa 15:00-21:30", "outdoor_seating": "no", "phone": "+1-360-392-8094", "smoking": "no", "takeaway": "yes", "website": "http://namiasianbistro.org/", "wheelchair": "yes"}}, {"type": "node", "id": 2417444891, "lat": 48.964023, "lon": -122.44066, "tags": {"addr:city": "Lynden", "addr:housenumber": "8894", "addr:postcode": "98264", "addr:street": "Bender Road", "atm": "no", "internet_access": "no", "name": "EXpress Lube", "opening_hours": "Mo-Fr 8:30-17:00, Sa 8:00-16:00", "phone": "+1-360-318-8620", "shop": "car_repair", "source": "local knowledge"}}, {"type": "node", "id": 2622672477, "lat": 48.944259, "lon": -122.451377, "tags": {"addr:city": "Lynden", "addr:housenumber": "115", "addr:postcode": "98264", "addr:street": "3rd Street", "amenity": "restaurant", "cuisine": "chinese", "delivery": "no", "name": "Lynden Mandarin Chinese Restaurant", "outdoor_seating": "no", "phone": "+1-360-354-0532", "smoking": "no", "takeaway": "yes", "wheelchair": "yes"}}, {"type": "node", "id": 2622896621, "lat": 48.943884, "lon": -122.450349, "tags": {"addr:city": "Lynden", "addr:housenumber": "218", "addr:postcode": "98264", "addr:street": "Front Street", "amenity": "bank", "brand:wikidata": "Q739084", "drive_through": "yes", "name": "U.S. Bank - Lynden Office", "opening_hours": "Mo-Fr 9:00-17:00", "operator": "U.S. Bank National Association", "phone": "+1-360-354-5083", "website": "https://usbank.com"}}, {"type": "node", "id": 2622911326, "lat": 48.9487329, "lon": -122.4485658}, {"type": "node", "id": 2622911328, "lat": 48.9487553, "lon": -122.4503791}, {"type": "node", "id": 2626382350, "lat": 48.9446197, "lon": -122.451686, "tags": {"addr:city": "Lynden", "addr:housenumber": "300", "addr:postcode": "98264", "addr:street": "Grover St.", "amenity": "bank", "atm": "yes", "brand": "Washington Federal", "brand:wikidata": "Q7971859", "drive_through": "yes", "email": "lynden.office@washingtonfederal.com", "fax": "+1-360-354-6807", "name": "Washington Federal", "opening_hours": "Mo-Th 9:00-17:00, Fr 9:00-18:00", "operator": "Washington Federal", "phone": "+1-360-354-5678", "source": "official webiste", "website": "https://washingtonfederal.com"}}, {"type": "node", "id": 2626421890, "lat": 48.944217, "lon": -122.449191, "tags": {"addr:city": "Lynden", "addr:housenumber": "112", "addr:postcode": "98264", "addr:street": "Front Street", "amenity": "fuel", "atm": "yes", "brand": "76", "brand:wikidata": "Q1658320", "car_wash": "yes", "check_date": "2014-01-17", "name": "76 Gas Station", "operator": "76", "phone": "+1-360-354-3629", "wheelchair": "yes"}}, {"type": "node", "id": 2626431240, "lat": 48.944688, "lon": -122.44934, "tags": {"addr:city": "Lynden", "addr:housenumber": "119", "addr:postcode": "98264", "addr:street": "Grover St", "amenity": "car_wash", "name": "De Wagon Wasserij", "phone": "+1-360-354-8731", "website": "www.dewagenwash.com/"}}, {"type": "node", "id": 2649065993, "lat": 48.943888, "lon": -122.4511, "tags": {"addr:city": "Lynden", "addr:housenumber": "107", "addr:postcode": "98264", "addr:street": "3rd Street", "amenity": "restaurant", "brand": "Westside Pizza", "cuisine": "pizza", "delivery": "yes", "internet_access": "no", "name": "Westside Pizza", "opening_hours": "Su-Th 11:00-22:00, Fr-Sa 11:00-24:00", "operator": "Westside Pizza", "outdoor_seating": "no", "phone": "+1-360-354-1555", "smoking": "no", "takeaway": "yes", "website": "https://westsidepizza.com/"}}, {"type": "node", "id": 2677820201, "lat": 48.944887, "lon": -122.451239, "tags": {"addr:city": "Lynden", "addr:housenumber": "206", "addr:postcode": "98264", "addr:street": "3rd Street", "amenity": "restaurant", "cuisine": "american", "delivery": "no", "internet_access": "wlan", "name": "Dutch Treat", "opening_hours": "Mo-Fr 6:00-18:30, Sa 6:00-16:00", "outdoor_seating": "no", "phone": "+1-360-354-2003", "smoking": "no", "takeaway": "yes", "wheelchair": "no"}}, {"type": "node", "id": 2702045665, "lat": 48.958104, "lon": -122.4226012}, {"type": "node", "id": 2702045667, "lat": 48.9581938, "lon": -122.4226468}, {"type": "node", "id": 2702045668, "lat": 48.9581727, "lon": -122.4227997}, {"type": "node", "id": 2702045670, "lat": 48.9580758, "lon": -122.4227809}, {"type": "node", "id": 3123272673, "lat": 48.9596339, "lon": -122.4290531}, {"type": "node", "id": 3123272674, "lat": 48.9596136, "lon": -122.4255961}, {"type": "node", "id": 3123272675, "lat": 48.9583027, "lon": -122.4257789}, {"type": "node", "id": 3123272676, "lat": 48.9583241, "lon": -122.4290108}, {"type": "node", "id": 3123272706, "lat": 48.9583003, "lon": -122.4265098}, {"type": "node", "id": 3123280687, "lat": 48.9496668, "lon": -122.4280443}, {"type": "node", "id": 3123280688, "lat": 48.9502298, "lon": -122.4269385}, {"type": "node", "id": 3123280689, "lat": 48.9504958, "lon": -122.4264023}, {"type": "node", "id": 3123280690, "lat": 48.9512233, "lon": -122.424482}, {"type": "node", "id": 3123280692, "lat": 48.9530529, "lon": -122.429873}, {"type": "node", "id": 3123280693, "lat": 48.9526741, "lon": -122.4298954}, {"type": "node", "id": 3123280694, "lat": 48.9508206, "lon": -122.429908}, {"type": "node", "id": 3123280695, "lat": 48.9496977, "lon": -122.4300213}, {"type": "node", "id": 3123280696, "lat": 48.9496915, "lon": -122.4297872}, {"type": "node", "id": 3123283498, "lat": 48.952219, "lon": -122.429541}, {"type": "node", "id": 3123283499, "lat": 48.952917, "lon": -122.4275629}, {"type": "node", "id": 3123283500, "lat": 48.9531018, "lon": -122.4277063}, {"type": "node", "id": 3123283501, "lat": 48.9530971, "lon": -122.4287008}, {"type": "node", "id": 3123283502, "lat": 48.9526783, "lon": -122.4298275}, {"type": "node", "id": 3123283503, "lat": 48.9524173, "lon": -122.4298121}, {"type": "node", "id": 3123359218, "lat": 48.9499921, "lon": -122.4461506}, {"type": "node", "id": 3123359219, "lat": 48.9501872, "lon": -122.4454584}, {"type": "node", "id": 3123359224, "lat": 48.9527302, "lon": -122.4450982}, {"type": "node", "id": 3123359225, "lat": 48.952698, "lon": -122.4429682}, {"type": "node", "id": 3123359226, "lat": 48.9520789, "lon": -122.4429306}, {"type": "node", "id": 3123359227, "lat": 48.9519803, "lon": -122.4428247}, {"type": "node", "id": 3123359228, "lat": 48.9505531, "lon": -122.4428345}, {"type": "node", "id": 3123363829, "lat": 48.9504862, "lon": -122.4430383}, {"type": "node", "id": 3123363830, "lat": 48.9495152, "lon": -122.4423082}, {"type": "node", "id": 3123363831, "lat": 48.9482738, "lon": -122.4464179}, {"type": "node", "id": 3123363832, "lat": 48.9482577, "lon": -122.4467222}, {"type": "node", "id": 3123363835, "lat": 48.9505795, "lon": -122.4489038}, {"type": "node", "id": 3123363836, "lat": 48.9507592, "lon": -122.4483413}, {"type": "node", "id": 3123363837, "lat": 48.9512544, "lon": -122.446698, "tags": {"access": "private", "barrier": "gate"}}, {"type": "node", "id": 3123363838, "lat": 48.9520628, "lon": -122.445187}, {"type": "node", "id": 3570411793, "lat": 48.9531846, "lon": -122.4529245, "tags": {"addr:city": "Lynden", "addr:housenumber": "8581", "addr:postcode": "98264", "addr:state": "WA", "addr:street": "Depot Road", "amenity": "place_of_worship", "denomination": "reformed", "name": "Netherlands Reformed Congregation", "phone": "+1-360-354-6645", "religion": "christian", "website": "http://netherlandsreformed.org"}}, {"type": "node", "id": 3570411794, "lat": 48.9515343, "lon": -122.453193, "tags": {"addr:city": "Lynden", "addr:housenumber": "315", "addr:postcode": "98264", "addr:state": "WA", "addr:street": "North Park Street", "amenity": "place_of_worship", "denomination": "reformed", "email": "ronaldhhanko@netzero.net", "name": "Lynden Protestant Reformed Church", "phone": "+1-360-354-4337", "religion": "christian", "website": "http://www.lyndenprc.org/"}}, {"type": "node", "id": 3570462993, "lat": 48.9478524, "lon": -122.4431439, "tags": {"addr:city": "Lynden", "addr:housenumber": "210", "addr:postcode": "98264", "addr:state": "WA", "addr:street": "Nooksack Avenue", "addr:unit": "Suite 104", "email": "soccer.city@frontier.com", "name": "Soccer City", "opening_hours": "Mo-Fr 10:00-17:00", "phone": "+1-360-318-8669", "shop": "sports"}}, {"type": "node", "id": 3570707893, "lat": 48.9465312, "lon": -122.4473228, "tags": {"addr:city": "Lynden", "addr:housenumber": "309", "addr:postcode": "98264", "addr:state": "WA", "addr:street": "Walnut Street", "name": "Lynden Farm & Garden", "opening_hours": "Mo-Fr 9:00-17:30, Sa 9:00-17:00", "operator": "Portal Way Farm And Garden", "phone": "+1-360-354-5611", "shop": "pet"}}, {"type": "node", "id": 3570707896, "lat": 48.9470315, "lon": -122.4527784, "tags": {"addr:city": "Lynden", "addr:housenumber": "415", "addr:postcode": "98264", "addr:state": "WA", "addr:street": "Depot Road", "name": "Whatcom Farmer's Co-op", "opening_hours": "Mo-Sa 8:00-19:00", "operator": "Whatcom Farmers Coop.", "phone": "+1-360-306-3800", "shop": "pet", "website": "https://www.chsnw.com/locations/wfc-lynden-retail/"}}, {"type": "node", "id": 3570707898, "lat": 48.9465489, "lon": -122.4527623, "tags": {"amenity": "fuel", "name": "WFC Energy", "operator": "Whatcom Farmer's Co-op"}}, {"type": "node", "id": 3570707899, "lat": 48.9466475, "lon": -122.4522044, "tags": {"addr:city": "Lynden", "addr:housenumber": "210", "addr:postcode": "98264", "addr:state": "WA", "addr:street": "Main Street", "name": "Maple Leaf Auto Body", "opening_hours": "Mo-Fr 7:00-18:00", "phone": "+1-360-354-2104", "shop": "car_repair"}}, {"type": "node", "id": 3570707906, "lat": 48.9449669, "lon": -122.448857, "tags": {"addr:city": "Lynden", "addr:housenumber": "101", "addr:postcode": "98264-1420", "addr:state": "WA", "addr:street": "Grover Street", "fax": "+1-360-354-1944", "name": "Dave Burns - State Farm Insurance Agent", "office": "insurance", "opening_hours": "Mo-Fr 8:30-17:00", "phone": "+1-360-354-2123", "source": "local knowledge, official website", "website": "https://daveburns-lynden.com/"}}, {"type": "node", "id": 3676645829, "lat": 48.9613531, "lon": -122.4400819}, {"type": "node", "id": 3676645830, "lat": 48.9599491, "lon": -122.440449}, {"type": "node", "id": 3676645833, "lat": 48.9576473, "lon": -122.441133}, {"type": "node", "id": 3676645835, "lat": 48.9579379, "lon": -122.4409184}, {"type": "node", "id": 3676645848, "lat": 48.9597131, "lon": -122.4380082}, {"type": "node", "id": 3676645855, "lat": 48.9608968, "lon": -122.4403282}, {"type": "node", "id": 3676645864, "lat": 48.9597959, "lon": -122.440221}, {"type": "node", "id": 3676645868, "lat": 48.9576825, "lon": -122.4410525}, {"type": "node", "id": 3676645870, "lat": 48.9610885, "lon": -122.4396242}, {"type": "node", "id": 3676645872, "lat": 48.9607504, "lon": -122.4404275}, {"type": "node", "id": 3676645896, "lat": 48.9609878, "lon": -122.4397341}, {"type": "node", "id": 3676645907, "lat": 48.9597413, "lon": -122.440154}, {"type": "node", "id": 3676645908, "lat": 48.9595282, "lon": -122.4408057}, {"type": "node", "id": 3676645911, "lat": 48.9612352, "lon": -122.4397556}, {"type": "node", "id": 3676645917, "lat": 48.9611911, "lon": -122.4397803}, {"type": "node", "id": 3676645922, "lat": 48.9599421, "lon": -122.4402157}, {"type": "node", "id": 3676645924, "lat": 48.9614275, "lon": -122.4407606}, {"type": "node", "id": 3676646030, "lat": 48.9609477, "lon": -122.4398819}, {"type": "node", "id": 3676646059, "lat": 48.95978, "lon": -122.4395531}, {"type": "node", "id": 3676646065, "lat": 48.9609764, "lon": -122.4396869}, {"type": "node", "id": 3676646066, "lat": 48.9559107, "lon": -122.4409211}, {"type": "node", "id": 3676646074, "lat": 48.9579414, "lon": -122.4410901}, {"type": "node", "id": 3676646078, "lat": 48.959544, "lon": -122.4380162}, {"type": "node", "id": 3676646081, "lat": 48.959898, "lon": -122.4394351}, {"type": "node", "id": 3676646089, "lat": 48.957686, "lon": -122.4409238}, {"type": "node", "id": 3676646097, "lat": 48.9612882, "lon": -122.4399751}, {"type": "node", "id": 3676646103, "lat": 48.9613168, "lon": -122.4401022}, {"type": "node", "id": 3676646104, "lat": 48.9598434, "lon": -122.4394941}, {"type": "node", "id": 3676646110, "lat": 48.9611026, "lon": -122.4396827}, {"type": "node", "id": 3676646229, "lat": 48.9564049, "lon": -122.4409086}, {"type": "node", "id": 3676646230, "lat": 48.9605285, "lon": -122.4393681}, {"type": "node", "id": 3676646231, "lat": 48.9560023, "lon": -122.4410337}, {"type": "node", "id": 3676646238, "lat": 48.9605355, "lon": -122.4394351}, {"type": "node", "id": 3676646247, "lat": 48.9613143, "lon": -122.4402918}, {"type": "node", "id": 3676646249, "lat": 48.9575416, "lon": -122.4407736}, {"type": "node", "id": 3676646250, "lat": 48.9565219, "lon": -122.4411491}, {"type": "node", "id": 3676646253, "lat": 48.9598241, "lon": -122.4395451}, {"type": "node", "id": 3676646272, "lat": 48.9596339, "lon": -122.4407655}, {"type": "node", "id": 3676646273, "lat": 48.9609212, "lon": -122.4401625}, {"type": "node", "id": 3676646281, "lat": 48.9576473, "lon": -122.4409103}, {"type": "node", "id": 3676646285, "lat": 48.9608647, "lon": -122.4399284}, {"type": "node", "id": 3676646300, "lat": 48.9578093, "lon": -122.4408299}, {"type": "node", "id": 3676646315, "lat": 48.9613227, "lon": -122.4399557}, {"type": "node", "id": 3676646320, "lat": 48.9611598, "lon": -122.4396507}, {"type": "node", "id": 3676646328, "lat": 48.9596233, "lon": -122.440162}, {"type": "node", "id": 3676646331, "lat": 48.960921, "lon": -122.4397715}, {"type": "node", "id": 3676646334, "lat": 48.9564444, "lon": -122.4410981}, {"type": "node", "id": 3676646335, "lat": 48.9610738, "lon": -122.4404225}, {"type": "node", "id": 3676646336, "lat": 48.9595793, "lon": -122.4407655}, {"type": "node", "id": 3676646337, "lat": 48.9595317, "lon": -122.4410713}, {"type": "node", "id": 3676646343, "lat": 48.9605584, "lon": -122.4397114}, {"type": "node", "id": 3676646344, "lat": 48.9613568, "lon": -122.440268}, {"type": "node", "id": 3676646353, "lat": 48.9608644, "lon": -122.4401943}, {"type": "node", "id": 3676646361, "lat": 48.9599086, "lon": -122.4393868}, {"type": "node", "id": 3676646363, "lat": 48.9578128, "lon": -122.4409264}, {"type": "node", "id": 3676646366, "lat": 48.9611878, "lon": -122.4408948}, {"type": "node", "id": 3676646367, "lat": 48.9610398, "lon": -122.4404415}, {"type": "node", "id": 3676646376, "lat": 48.9564373, "lon": -122.4407789}, {"type": "node", "id": 3676646382, "lat": 48.9609987, "lon": -122.4402711}, {"type": "node", "id": 3676646391, "lat": 48.9564144, "lon": -122.4410418}, {"type": "node", "id": 3827847272, "lat": 48.9587639, "lon": -122.4379611}, {"type": "node", "id": 3827847273, "lat": 48.9587619, "lon": -122.4378211}, {"type": "node", "id": 3827847274, "lat": 48.9585839, "lon": -122.4378269}, {"type": "node", "id": 3827847275, "lat": 48.9585859, "lon": -122.4379668}, {"type": "node", "id": 3827847281, "lat": 48.963649, "lon": -122.440127, "tags": {"addr:city": "Lynden", "addr:housenumber": "8874", "addr:postcode": "98264", "addr:state": "WA", "addr:street": "Bender Road", "amenity": "restaurant", "level": "1"}}, {"type": "node", "id": 3827891678, "lat": 48.9582801, "lon": -122.431918, "tags": {"addr:street": "Bridgeview Drive", "amenity": "post_box", "drive_through": "no", "operator": "United States Postal Service", "operator:short": "USPS", "operator:type": "public", "operator:website": "https://www.usps.com", "operator:wikidata": "Q668687", "operator:wikipedia": "en:United States Postal Service", "short_name": "USPS", "source": "local knowledge"}}, {"type": "node", "id": 3828002843, "lat": 48.9493514, "lon": -122.450985}, {"type": "node", "id": 3828002844, "lat": 48.9493652, "lon": -122.4508657}, {"type": "node", "id": 3828002845, "lat": 48.9493041, "lon": -122.4508493}, {"type": "node", "id": 3828002846, "lat": 48.9492903, "lon": -122.4509686}, {"type": "node", "id": 3830084376, "lat": 48.9483819, "lon": -122.4381716}, {"type": "node", "id": 3830084377, "lat": 48.9481716, "lon": -122.4388695}, {"type": "node", "id": 3830084378, "lat": 48.948144, "lon": -122.4387967}, {"type": "node", "id": 3830084379, "lat": 48.9483529, "lon": -122.4381097}, {"type": "node", "id": 3830084380, "lat": 48.9475909, "lon": -122.439213}, {"type": "node", "id": 3830084381, "lat": 48.9476984, "lon": -122.4388218}, {"type": "node", "id": 3830084382, "lat": 48.9480318, "lon": -122.4390911}, {"type": "node", "id": 3830084383, "lat": 48.947929, "lon": -122.4394477}, {"type": "node", "id": 3830124000, "lat": 48.9525598, "lon": -122.4285753}, {"type": "node", "id": 3830134477, "lat": 48.9525581, "lon": -122.4269122}, {"type": "node", "id": 3830134478, "lat": 48.9525457, "lon": -122.4264213}, {"type": "node", "id": 3830134479, "lat": 48.9529244, "lon": -122.4253055}, {"type": "node", "id": 3830134481, "lat": 48.9531087, "lon": -122.4244477}, {"type": "node", "id": 3830134482, "lat": 48.9531235, "lon": -122.4272126}, {"type": "node", "id": 3830134483, "lat": 48.9529368, "lon": -122.4272018}, {"type": "node", "id": 3830134484, "lat": 48.9529139, "lon": -122.4244481}, {"type": "node", "id": 3830134494, "lat": 48.9526637, "lon": -122.4260565}, {"type": "node", "id": 3830134495, "lat": 48.9525747, "lon": -122.426336}, {"type": "node", "id": 3830137037, "lat": 48.949941, "lon": -122.4274884}, {"type": "node", "id": 3832288858, "lat": 48.952661, "lon": -122.4429494}, {"type": "node", "id": 3832288859, "lat": 48.9527165, "lon": -122.4431224}, {"type": "node", "id": 3832288860, "lat": 48.9527148, "lon": -122.4430098}, {"type": "node", "id": 3832288903, "lat": 48.952145, "lon": -122.4429414}, {"type": "node", "id": 3832288961, "lat": 48.9493717, "lon": -122.4442224}, {"type": "node", "id": 3832288962, "lat": 48.9498428, "lon": -122.442669}, {"type": "node", "id": 3832288963, "lat": 48.9495046, "lon": -122.4424186}, {"type": "node", "id": 3832288964, "lat": 48.9489601, "lon": -122.4441348}, {"type": "node", "id": 3832288965, "lat": 48.9489902, "lon": -122.4442935}, {"type": "node", "id": 3832288966, "lat": 48.9495891, "lon": -122.444738}, {"type": "node", "id": 3832288967, "lat": 48.9498077, "lon": -122.4448797}, {"type": "node", "id": 3832288968, "lat": 48.9498886, "lon": -122.4445901}, {"type": "node", "id": 3832288969, "lat": 48.9497065, "lon": -122.4459643}, {"type": "node", "id": 3832288970, "lat": 48.9496701, "lon": -122.4461183}, {"type": "node", "id": 3832288971, "lat": 48.9501071, "lon": -122.4464264}, {"type": "node", "id": 3832288972, "lat": 48.9503337, "lon": -122.4456007}, {"type": "node", "id": 3832288973, "lat": 48.9503661, "lon": -122.4450769}, {"type": "node", "id": 3832288974, "lat": 48.9503216, "lon": -122.4449537}, {"type": "node", "id": 3832288975, "lat": 48.9502326, "lon": -122.4448982}, {"type": "node", "id": 3832288976, "lat": 48.950184, "lon": -122.4452371}, {"type": "node", "id": 3832288977, "lat": 48.9501881, "lon": -122.4453974}, {"type": "node", "id": 3832288988, "lat": 48.9482631, "lon": -122.4470312}, {"type": "node", "id": 3832288989, "lat": 48.9499596, "lon": -122.4493428}, {"type": "node", "id": 3832288991, "lat": 48.9503758, "lon": -122.4493286}, {"type": "node", "id": 3832288992, "lat": 48.950488, "lon": -122.4492469}, {"type": "node", "id": 3832288993, "lat": 48.9507944, "lon": -122.448234}, {"type": "node", "id": 3832288994, "lat": 48.9509353, "lon": -122.4474399}, {"type": "node", "id": 3832288995, "lat": 48.9510437, "lon": -122.4471148}, {"type": "node", "id": 3832288996, "lat": 48.9518479, "lon": -122.4456403}, {"type": "node", "id": 3832288997, "lat": 48.9519466, "lon": -122.4454714}, {"type": "node", "id": 3832288998, "lat": 48.9519941, "lon": -122.4453641}, {"type": "node", "id": 3832288999, "lat": 48.9521291, "lon": -122.4451381}, {"type": "node", "id": 3832289000, "lat": 48.9523995, "lon": -122.4451368}, {"type": "node", "id": 3832289001, "lat": 48.9526152, "lon": -122.4451394}, {"type": "node", "id": 3832289002, "lat": 48.9526787, "lon": -122.4451542}, {"type": "node", "id": 3832289003, "lat": 48.9527156, "lon": -122.4451394}, {"type": "node", "id": 3832289004, "lat": 48.9527262, "lon": -122.4448927}, {"type": "node", "id": 3832289005, "lat": 48.9526971, "lon": -122.4439928}, {"type": "node", "id": 3832289006, "lat": 48.952691, "lon": -122.4436387}, {"type": "node", "id": 3832289007, "lat": 48.9527227, "lon": -122.4435301}, {"type": "node", "id": 3832289008, "lat": 48.9520331, "lon": -122.4429011}, {"type": "node", "id": 3832289013, "lat": 48.9499066, "lon": -122.4300493}, {"type": "node", "id": 3832289014, "lat": 48.9530943, "lon": -122.4298448}, {"type": "node", "id": 3832289015, "lat": 48.9531155, "lon": -122.4297952}, {"type": "node", "id": 3832289016, "lat": 48.9531375, "lon": -122.4296919}, {"type": "node", "id": 3832289047, "lat": 48.9476372, "lon": -122.4427736}, {"type": "node", "id": 3832289048, "lat": 48.9478433, "lon": -122.4429131}, {"type": "node", "id": 3832289049, "lat": 48.9477482, "lon": -122.4432564}, {"type": "node", "id": 3832289050, "lat": 48.947653, "lon": -122.443192}, {"type": "node", "id": 3832289051, "lat": 48.9476742, "lon": -122.4431143}, {"type": "node", "id": 3832289052, "lat": 48.9475544, "lon": -122.4430392}, {"type": "node", "id": 3832480589, "lat": 48.949948, "lon": -122.4485466}, {"type": "node", "id": 3832480607, "lat": 48.9481166, "lon": -122.4475395}, {"type": "node", "id": 3832480608, "lat": 48.9479669, "lon": -122.4475422}, {"type": "node", "id": 3832480609, "lat": 48.9479916, "lon": -122.4483629}, {"type": "node", "id": 3832480610, "lat": 48.9480391, "lon": -122.4483254}, {"type": "node", "id": 3832480611, "lat": 48.9480743, "lon": -122.4484648}, {"type": "node", "id": 3832480612, "lat": 48.948143, "lon": -122.4484595}, {"type": "node", "id": 3832480613, "lat": 48.9478453, "lon": -122.4481943}, {"type": "node", "id": 3832480614, "lat": 48.9478363, "lon": -122.447745}, {"type": "node", "id": 3832480615, "lat": 48.9476565, "lon": -122.4477533}, {"type": "node", "id": 3832480616, "lat": 48.9476542, "lon": -122.4476386}, {"type": "node", "id": 3832480617, "lat": 48.9475693, "lon": -122.4476425}, {"type": "node", "id": 3832480618, "lat": 48.9475716, "lon": -122.4477587}, {"type": "node", "id": 3832480619, "lat": 48.947539, "lon": -122.4477602}, {"type": "node", "id": 3832480620, "lat": 48.9475407, "lon": -122.447843}, {"type": "node", "id": 3832480621, "lat": 48.9474361, "lon": -122.4478478}, {"type": "node", "id": 3832480622, "lat": 48.9474462, "lon": -122.4483531}, {"type": "node", "id": 3832480623, "lat": 48.9475639, "lon": -122.4483476}, {"type": "node", "id": 3832480624, "lat": 48.9475629, "lon": -122.4482952}, {"type": "node", "id": 3832480625, "lat": 48.9477194, "lon": -122.4482879}, {"type": "node", "id": 3832480626, "lat": 48.94772, "lon": -122.4483192}, {"type": "node", "id": 3832480627, "lat": 48.9478204, "lon": -122.4483146}, {"type": "node", "id": 3832480628, "lat": 48.947818, "lon": -122.4481956}, {"type": "node", "id": 3832480629, "lat": 48.9479281, "lon": -122.4483415}, {"type": "node", "id": 3832480630, "lat": 48.9479722, "lon": -122.4482985}, {"type": "node", "id": 3832480631, "lat": 48.9479493, "lon": -122.4474912}, {"type": "node", "id": 3832480632, "lat": 48.9479052, "lon": -122.4475287}, {"type": "node", "id": 3832480763, "lat": 48.9483747, "lon": -122.4506066}, {"type": "node", "id": 3832480764, "lat": 48.9483359, "lon": -122.4489651}, {"type": "node", "id": 3832480765, "lat": 48.9483007, "lon": -122.4489007}, {"type": "node", "id": 3832480766, "lat": 48.948195, "lon": -122.448949}, {"type": "node", "id": 3832480767, "lat": 48.9481625, "lon": -122.4489746}, {"type": "node", "id": 3832480768, "lat": 48.9481862, "lon": -122.4501667}, {"type": "node", "id": 3832480769, "lat": 48.9482408, "lon": -122.4502177}, {"type": "node", "id": 3832480770, "lat": 48.9483342, "lon": -122.4505583}, {"type": "node", "id": 3832480800, "lat": 48.9452406, "lon": -122.4520147}, {"type": "node", "id": 3832480801, "lat": 48.9451772, "lon": -122.4522535}, {"type": "node", "id": 3832480802, "lat": 48.9448795, "lon": -122.4520469}, {"type": "node", "id": 3832480803, "lat": 48.9449006, "lon": -122.4519691}, {"type": "node", "id": 3832480804, "lat": 48.9448725, "lon": -122.4519531}, {"type": "node", "id": 3832480805, "lat": 48.9448848, "lon": -122.4517572}, {"type": "node", "id": 3832480809, "lat": 48.9452098, "lon": -122.4521308}, {"type": "node", "id": 3832480855, "lat": 48.9444181, "lon": -122.4518689}, {"type": "node", "id": 3832480856, "lat": 48.9443415, "lon": -122.4521278}, {"type": "node", "id": 3832480957, "lat": 48.9446253, "lon": -122.4523224}, {"type": "node", "id": 3832480958, "lat": 48.9447019, "lon": -122.4520635}, {"type": "node", "id": 3832480959, "lat": 48.9446433, "lon": -122.4518813}, {"type": "node", "id": 3832480960, "lat": 48.9447135, "lon": -122.4516388}, {"type": "node", "id": 3832480961, "lat": 48.9448606, "lon": -122.4517383}, {"type": "node", "id": 3832480962, "lat": 48.9447896, "lon": -122.4519801}, {"type": "node", "id": 3832480964, "lat": 48.9443855, "lon": -122.4519793}, {"type": "node", "id": 3832480966, "lat": 48.944714, "lon": -122.4519287}, {"type": "node", "id": 3832480967, "lat": 48.9447837, "lon": -122.4516859}, {"type": "node", "id": 3832480978, "lat": 48.9448445, "lon": -122.4520599}, {"type": "node", "id": 3832480979, "lat": 48.9448934, "lon": -122.4520948}, {"type": "node", "id": 3832480980, "lat": 48.9448497, "lon": -122.4522405}, {"type": "node", "id": 3832480981, "lat": 48.9448008, "lon": -122.4522072}, {"type": "node", "id": 3832481018, "lat": 48.9561223, "lon": -122.4277945}, {"type": "node", "id": 3832481019, "lat": 48.9564375, "lon": -122.4277919}, {"type": "node", "id": 3832481020, "lat": 48.9564411, "lon": -122.4288058}, {"type": "node", "id": 3832481021, "lat": 48.9561259, "lon": -122.4288084}, {"type": "node", "id": 3832481039, "lat": 48.9561801, "lon": -122.4292432}, {"type": "node", "id": 3832481043, "lat": 48.9561753, "lon": -122.4289231}, {"type": "node", "id": 3832481044, "lat": 48.9562338, "lon": -122.4289621}, {"type": "node", "id": 3832481045, "lat": 48.9562384, "lon": -122.4292719}, {"type": "node", "id": 3832481046, "lat": 48.9561806, "lon": -122.4292739}, {"type": "node", "id": 3832481161, "lat": 48.9567415, "lon": -122.4289342}, {"type": "node", "id": 3832481162, "lat": 48.9568201, "lon": -122.4289318}, {"type": "node", "id": 3832481163, "lat": 48.956829, "lon": -122.4296074}, {"type": "node", "id": 3832481164, "lat": 48.9567684, "lon": -122.4296093}, {"type": "node", "id": 3832481165, "lat": 48.9567653, "lon": -122.4293671}, {"type": "node", "id": 3832481166, "lat": 48.9567472, "lon": -122.4293676}, {"type": "node", "id": 3832481207, "lat": 48.9590378, "lon": -122.4272525}, {"type": "node", "id": 3832481208, "lat": 48.9590339, "lon": -122.4278205}, {"type": "node", "id": 3832481209, "lat": 48.9583378, "lon": -122.4278096}, {"type": "node", "id": 3832481210, "lat": 48.9583416, "lon": -122.4272416}, {"type": "node", "id": 3832481211, "lat": 48.9583402, "lon": -122.4290597}, {"type": "node", "id": 3833442532, "lat": 48.9449064, "lon": -122.4502157}, {"type": "node", "id": 3833614625, "lat": 48.9451512, "lon": -122.4503832}, {"type": "node", "id": 3833614626, "lat": 48.9450805, "lon": -122.4506228}, {"type": "node", "id": 3833614627, "lat": 48.9448357, "lon": -122.4504553}, {"type": "node", "id": 3833614628, "lat": 48.9442571, "lon": -122.4509362}, {"type": "node", "id": 3833614629, "lat": 48.944421, "lon": -122.4510462}, {"type": "node", "id": 3833614630, "lat": 48.9444914, "lon": -122.4508034}, {"type": "node", "id": 3833614631, "lat": 48.9444844, "lon": -122.4506639}, {"type": "node", "id": 3833614632, "lat": 48.9443611, "lon": -122.4505795}, {"type": "node", "id": 3833614633, "lat": 48.9442192, "lon": -122.4504346}, {"type": "node", "id": 3833614634, "lat": 48.9442122, "lon": -122.4504588}, {"type": "node", "id": 3833614635, "lat": 48.944221, "lon": -122.4504695}, {"type": "node", "id": 3833614636, "lat": 48.9441267, "lon": -122.4507929}, {"type": "node", "id": 3833614637, "lat": 48.944081, "lon": -122.450762}, {"type": "node", "id": 3833614638, "lat": 48.9441835, "lon": -122.4504105}, {"type": "node", "id": 3833614640, "lat": 48.9454342, "lon": -122.4490488}, {"type": "node", "id": 3833614641, "lat": 48.9453417, "lon": -122.4490524}, {"type": "node", "id": 3833614642, "lat": 48.9453429, "lon": -122.4491194}, {"type": "node", "id": 3833614643, "lat": 48.9454353, "lon": -122.4491157}, {"type": "node", "id": 3833671023, "lat": 48.9453336, "lon": -122.4468675}, {"type": "node", "id": 3833671024, "lat": 48.9452901, "lon": -122.4470161}, {"type": "node", "id": 3833671025, "lat": 48.9452388, "lon": -122.4469813}, {"type": "node", "id": 3833671026, "lat": 48.9452177, "lon": -122.4470531}, {"type": "node", "id": 3833671027, "lat": 48.9455527, "lon": -122.4472804}, {"type": "node", "id": 3833671028, "lat": 48.9456172, "lon": -122.44706}, {"type": "node", "id": 3833671039, "lat": 48.9456323, "lon": -122.4458495}, {"type": "node", "id": 3833671040, "lat": 48.9458937, "lon": -122.4460276}, {"type": "node", "id": 3833671041, "lat": 48.9458703, "lon": -122.4461072}, {"type": "node", "id": 3833671042, "lat": 48.9456089, "lon": -122.4459291}, {"type": "node", "id": 3833671048, "lat": 48.9455855, "lon": -122.4471681}, {"type": "node", "id": 3833671049, "lat": 48.9452997, "lon": -122.4469832}, {"type": "node", "id": 3833671261, "lat": 48.9480731, "lon": -122.4475035}, {"type": "node", "id": 3833671262, "lat": 48.948011, "lon": -122.4475022}, {"type": "node", "id": 3833843861, "lat": 48.9627391, "lon": -122.4517262}, {"type": "node", "id": 3833843862, "lat": 48.9627391, "lon": -122.4514705}, {"type": "node", "id": 3833843863, "lat": 48.9623992, "lon": -122.4514705}, {"type": "node", "id": 3833843864, "lat": 48.9623992, "lon": -122.4517262}, {"type": "node", "id": 3833843872, "lat": 48.962259, "lon": -122.4517232}, {"type": "node", "id": 3833843873, "lat": 48.9622578, "lon": -122.4515395}, {"type": "node", "id": 3833843874, "lat": 48.9616224, "lon": -122.4515486}, {"type": "node", "id": 3833843875, "lat": 48.9616235, "lon": -122.4517322}, {"type": "node", "id": 3833843883, "lat": 48.9614691, "lon": -122.4517559}, {"type": "node", "id": 3833843884, "lat": 48.9614691, "lon": -122.452003}, {"type": "node", "id": 3833843885, "lat": 48.9608554, "lon": -122.4520031}, {"type": "node", "id": 3833843886, "lat": 48.9608554, "lon": -122.4517559}, {"type": "node", "id": 3833843887, "lat": 48.9625902, "lon": -122.451078}, {"type": "node", "id": 3833843888, "lat": 48.9626202, "lon": -122.4509424}, {"type": "node", "id": 3833843889, "lat": 48.9625735, "lon": -122.4509184}, {"type": "node", "id": 3833843890, "lat": 48.9625435, "lon": -122.451054}, {"type": "node", "id": 3833843891, "lat": 48.9622899, "lon": -122.4513467}, {"type": "node", "id": 3833843892, "lat": 48.9623539, "lon": -122.4512276}, {"type": "node", "id": 3833843893, "lat": 48.9623948, "lon": -122.4512786}, {"type": "node", "id": 3833843894, "lat": 48.9623308, "lon": -122.4513977}, {"type": "node", "id": 3833843931, "lat": 48.9609117, "lon": -122.4512991}, {"type": "node", "id": 3833843932, "lat": 48.9607466, "lon": -122.451778}, {"type": "node", "id": 3833843933, "lat": 48.9606366, "lon": -122.4518693}, {"type": "node", "id": 3833843934, "lat": 48.9605733, "lon": -122.4520571}, {"type": "node", "id": 3833843935, "lat": 48.9598602, "lon": -122.4520393}, {"type": "node", "id": 3833843936, "lat": 48.9597378, "lon": -122.4519301}, {"type": "node", "id": 3833843937, "lat": 48.9599702, "lon": -122.4513263}, {"type": "node", "id": 3833843938, "lat": 48.9597719, "lon": -122.4509355}, {"type": "node", "id": 3833843939, "lat": 48.9597877, "lon": -122.4507237}, {"type": "node", "id": 3833843940, "lat": 48.9598842, "lon": -122.450804}, {"type": "node", "id": 3833843941, "lat": 48.9599099, "lon": -122.4507324}, {"type": "node", "id": 3833843942, "lat": 48.9602301, "lon": -122.450999}, {"type": "node", "id": 3833843943, "lat": 48.9604966, "lon": -122.4510116}, {"type": "node", "id": 3833843944, "lat": 48.960575, "lon": -122.4511766}, {"type": "node", "id": 3833843945, "lat": 48.9607299, "lon": -122.4511538}, {"type": "node", "id": 3833843946, "lat": 48.9597636, "lon": -122.4507909}, {"type": "node", "id": 3833944060, "lat": 48.9584199, "lon": -122.4538067}, {"type": "node", "id": 3833944061, "lat": 48.9583114, "lon": -122.453964}, {"type": "node", "id": 3833944062, "lat": 48.9581227, "lon": -122.4536622}, {"type": "node", "id": 3833944063, "lat": 48.9580931, "lon": -122.4535638}, {"type": "node", "id": 3833944064, "lat": 48.9580937, "lon": -122.4532065}, {"type": "node", "id": 3833944065, "lat": 48.9581426, "lon": -122.4532067}, {"type": "node", "id": 3833944066, "lat": 48.9581438, "lon": -122.4526591}, {"type": "node", "id": 3833944067, "lat": 48.9582777, "lon": -122.4524526}, {"type": "node", "id": 3833944068, "lat": 48.958415, "lon": -122.4525357}, {"type": "node", "id": 3833944069, "lat": 48.9584327, "lon": -122.4525974}, {"type": "node", "id": 3833944070, "lat": 48.9582356, "lon": -122.4528893}, {"type": "node", "id": 3833944071, "lat": 48.9581914, "lon": -122.45282}, {"type": "node", "id": 3833944072, "lat": 48.9581738, "lon": -122.4528361}, {"type": "node", "id": 3833944073, "lat": 48.9581702, "lon": -122.452871}, {"type": "node", "id": 3833944074, "lat": 48.9582037, "lon": -122.4529407}, {"type": "node", "id": 3833944075, "lat": 48.9582108, "lon": -122.4534664}, {"type": "node", "id": 3833944076, "lat": 48.9581949, "lon": -122.4534906}, {"type": "node", "id": 3833944077, "lat": 48.9582037, "lon": -122.4535684}, {"type": "node", "id": 3833944078, "lat": 48.9582389, "lon": -122.4535173}, {"type": "node", "id": 3833944079, "lat": 48.9585116, "lon": -122.4525758}, {"type": "node", "id": 3833944080, "lat": 48.9585611, "lon": -122.4525068}, {"type": "node", "id": 3833944081, "lat": 48.9586479, "lon": -122.4526512}, {"type": "node", "id": 3833944082, "lat": 48.9585983, "lon": -122.4527202}, {"type": "node", "id": 3833944083, "lat": 48.9595031, "lon": -122.4534289}, {"type": "node", "id": 3833944084, "lat": 48.959329, "lon": -122.4534256}, {"type": "node", "id": 3833944085, "lat": 48.9593326, "lon": -122.4529836}, {"type": "node", "id": 3833944091, "lat": 48.9593256, "lon": -122.4529419}, {"type": "node", "id": 3833944092, "lat": 48.9591165, "lon": -122.4526108}, {"type": "node", "id": 3833944093, "lat": 48.9592429, "lon": -122.4524255}, {"type": "node", "id": 3833944094, "lat": 48.9594467, "lon": -122.4527476}, {"type": "node", "id": 3833944095, "lat": 48.9594083, "lon": -122.4528039}, {"type": "node", "id": 3833944096, "lat": 48.9594506, "lon": -122.4529112}, {"type": "node", "id": 3833944097, "lat": 48.9594488, "lon": -122.4530748}, {"type": "node", "id": 3833944098, "lat": 48.9594615, "lon": -122.4530865}, {"type": "node", "id": 3833944099, "lat": 48.9595059, "lon": -122.4530873}, {"type": "node", "id": 3833944100, "lat": 48.9590755, "lon": -122.4525477}, {"type": "node", "id": 3833944101, "lat": 48.9588949, "lon": -122.4528227}, {"type": "node", "id": 3833944102, "lat": 48.9589363, "lon": -122.4528858}, {"type": "node", "id": 3833944146, "lat": 48.9533222, "lon": -122.4532474}, {"type": "node", "id": 3833944147, "lat": 48.953324, "lon": -122.4534776}, {"type": "node", "id": 3833944148, "lat": 48.952809, "lon": -122.4534869}, {"type": "node", "id": 3833944149, "lat": 48.9528083, "lon": -122.453398}, {"type": "node", "id": 3833944150, "lat": 48.9527772, "lon": -122.4533986}, {"type": "node", "id": 3833944151, "lat": 48.9527596, "lon": -122.4534146}, {"type": "node", "id": 3833944152, "lat": 48.9526808, "lon": -122.4533127}, {"type": "node", "id": 3833944153, "lat": 48.952823, "lon": -122.4530579}, {"type": "node", "id": 3833944154, "lat": 48.9528178, "lon": -122.4523978}, {"type": "node", "id": 3833944155, "lat": 48.9529679, "lon": -122.452395}, {"type": "node", "id": 3833944156, "lat": 48.9529746, "lon": -122.4532537}, {"type": "node", "id": 3833944158, "lat": 48.952897, "lon": -122.4523963}, {"type": "node", "id": 3833944161, "lat": 48.9533231, "lon": -122.4533609}, {"type": "node", "id": 3833944163, "lat": 48.9519712, "lon": -122.4546684}, {"type": "node", "id": 3833944164, "lat": 48.9519806, "lon": -122.4550275}, {"type": "node", "id": 3833944165, "lat": 48.9526963, "lon": -122.4549851}, {"type": "node", "id": 3833944166, "lat": 48.9526664, "lon": -122.4537405}, {"type": "node", "id": 3833944167, "lat": 48.9526206, "lon": -122.4537383}, {"type": "node", "id": 3833944168, "lat": 48.9526187, "lon": -122.4536635}, {"type": "node", "id": 3833944169, "lat": 48.9523419, "lon": -122.4536801}, {"type": "node", "id": 3833944170, "lat": 48.9523489, "lon": -122.4539494}, {"type": "node", "id": 3833944171, "lat": 48.9524882, "lon": -122.4539411}, {"type": "node", "id": 3833944172, "lat": 48.9525042, "lon": -122.4545655}, {"type": "node", "id": 3833944173, "lat": 48.9525245, "lon": -122.4545643}, {"type": "node", "id": 3833944174, "lat": 48.9525279, "lon": -122.4546979}, {"type": "node", "id": 3833944175, "lat": 48.9522735, "lon": -122.4547128}, {"type": "node", "id": 3833944176, "lat": 48.9522101, "lon": -122.4546538}, {"type": "node", "id": 3833944194, "lat": 48.9514822, "lon": -122.4537832}, {"type": "node", "id": 3833944195, "lat": 48.951475, "lon": -122.4533923}, {"type": "node", "id": 3833944196, "lat": 48.9513975, "lon": -122.4533956}, {"type": "node", "id": 3833944197, "lat": 48.9513967, "lon": -122.4533525}, {"type": "node", "id": 3833944198, "lat": 48.9513573, "lon": -122.4532899}, {"type": "node", "id": 3833944199, "lat": 48.9513556, "lon": -122.453136}, {"type": "node", "id": 3833944200, "lat": 48.9514087, "lon": -122.4530551}, {"type": "node", "id": 3833944201, "lat": 48.9517454, "lon": -122.4530406}, {"type": "node", "id": 3833944202, "lat": 48.9517434, "lon": -122.4529313}, {"type": "node", "id": 3833944203, "lat": 48.9511158, "lon": -122.4529583}, {"type": "node", "id": 3833944204, "lat": 48.9511314, "lon": -122.4537982}, {"type": "node", "id": 3833944275, "lat": 48.9513916, "lon": -122.453786}, {"type": "node", "id": 3833944276, "lat": 48.9512133, "lon": -122.4537947}, {"type": "node", "id": 3833944314, "lat": 48.9580276, "lon": -122.450046}, {"type": "node", "id": 3833944315, "lat": 48.9579892, "lon": -122.4500676}, {"type": "node", "id": 3833944316, "lat": 48.9578638, "lon": -122.4495777}, {"type": "node", "id": 3833944317, "lat": 48.9579083, "lon": -122.4495561}, {"type": "node", "id": 3833944318, "lat": 48.9581328, "lon": -122.4502802}, {"type": "node", "id": 3833944319, "lat": 48.9580276, "lon": -122.4504034}, {"type": "node", "id": 3833944320, "lat": 48.957976, "lon": -122.4504237}, {"type": "node", "id": 3833944321, "lat": 48.9580114, "lon": -122.4506334}, {"type": "node", "id": 3833944322, "lat": 48.9580478, "lon": -122.4506191}, {"type": "node", "id": 3833944323, "lat": 48.9581733, "lon": -122.4507023}, {"type": "node", "id": 3833944324, "lat": 48.9582114, "lon": -122.4506851}, {"type": "node", "id": 3833944325, "lat": 48.9581551, "lon": -122.4508841}, {"type": "node", "id": 3833944326, "lat": 48.9581025, "lon": -122.4508902}, {"type": "node", "id": 3833944327, "lat": 48.9581146, "lon": -122.4513123}, {"type": "node", "id": 3833944328, "lat": 48.9582886, "lon": -122.4513123}, {"type": "node", "id": 3833944329, "lat": 48.9582825, "lon": -122.4510073}, {"type": "node", "id": 3833944330, "lat": 48.9582259, "lon": -122.4510104}, {"type": "node", "id": 3833944331, "lat": 48.9584727, "lon": -122.4516389}, {"type": "node", "id": 3833944332, "lat": 48.9584752, "lon": -122.4517293}, {"type": "node", "id": 3833944333, "lat": 48.9583741, "lon": -122.451736}, {"type": "node", "id": 3833944334, "lat": 48.9583719, "lon": -122.4516593}, {"type": "node", "id": 3833944335, "lat": 48.9583149, "lon": -122.4516631}, {"type": "node", "id": 3833944336, "lat": 48.9583106, "lon": -122.451509}, {"type": "node", "id": 3833944337, "lat": 48.9583493, "lon": -122.4515064}, {"type": "node", "id": 3833944338, "lat": 48.95798, "lon": -122.451348}, {"type": "node", "id": 3833944339, "lat": 48.9579783, "lon": -122.4512709}, {"type": "node", "id": 3833944340, "lat": 48.9580743, "lon": -122.4512659}, {"type": "node", "id": 3833944341, "lat": 48.9580761, "lon": -122.451343}, {"type": "node", "id": 3833944345, "lat": 48.9579103, "lon": -122.4502018}, {"type": "node", "id": 3833944346, "lat": 48.9579566, "lon": -122.4503395}, {"type": "node", "id": 3833944347, "lat": 48.9580017, "lon": -122.4503043}, {"type": "node", "id": 3833944348, "lat": 48.9579554, "lon": -122.4501666}, {"type": "node", "id": 3833944351, "lat": 48.9580591, "lon": -122.4503665}, {"type": "node", "id": 3833944352, "lat": 48.9581177, "lon": -122.4506654}, {"type": "node", "id": 3833944356, "lat": 48.9581941, "lon": -122.4509537}, {"type": "node", "id": 3833944557, "lat": 48.9582016, "lon": -122.4513123}, {"type": "node", "id": 3833944566, "lat": 48.9583646, "lon": -122.4538869}, {"type": "node", "id": 3833944582, "lat": 48.9591766, "lon": -122.4525228}, {"type": "node", "id": 3834015639, "lat": 48.960165, "lon": -122.4532371}, {"type": "node", "id": 3834015640, "lat": 48.9601578, "lon": -122.4523552}, {"type": "node", "id": 3834015641, "lat": 48.9602153, "lon": -122.4523541}, {"type": "node", "id": 3834015642, "lat": 48.9602226, "lon": -122.453236}, {"type": "node", "id": 3834015645, "lat": 48.9597347, "lon": -122.4528288}, {"type": "node", "id": 3834015646, "lat": 48.9597544, "lon": -122.4531049}, {"type": "node", "id": 3834015647, "lat": 48.9599526, "lon": -122.453053}, {"type": "node", "id": 3834015648, "lat": 48.9599487, "lon": -122.452979}, {"type": "node", "id": 3834015649, "lat": 48.959808, "lon": -122.4528796}, {"type": "node", "id": 3834015650, "lat": 48.9598049, "lon": -122.4528203}, {"type": "node", "id": 3834015760, "lat": 48.9609841, "lon": -122.4561925}, {"type": "node", "id": 3834015761, "lat": 48.9609788, "lon": -122.4559774}, {"type": "node", "id": 3834015762, "lat": 48.961034, "lon": -122.4559742}, {"type": "node", "id": 3834015763, "lat": 48.9610393, "lon": -122.4561894}, {"type": "node", "id": 3834015764, "lat": 48.960976, "lon": -122.4559204}, {"type": "node", "id": 3834015765, "lat": 48.960944, "lon": -122.4557339}, {"type": "node", "id": 3834015766, "lat": 48.9609929, "lon": -122.4557145}, {"type": "node", "id": 3834015767, "lat": 48.9610249, "lon": -122.4559009}, {"type": "node", "id": 3835074418, "lat": 48.9494584, "lon": -122.4425643}, {"type": "node", "id": 3838640155, "lat": 48.9603444, "lon": -122.4534486}, {"type": "node", "id": 3838640156, "lat": 48.9603328, "lon": -122.4534044}, {"type": "node", "id": 3838640157, "lat": 48.9603343, "lon": -122.4533426}, {"type": "node", "id": 3838640158, "lat": 48.9602705, "lon": -122.4533448}, {"type": "node", "id": 3838640159, "lat": 48.9602763, "lon": -122.4534066}, {"type": "node", "id": 3838640160, "lat": 48.9602908, "lon": -122.4534773}, {"type": "node", "id": 3840380891, "lat": 48.963086, "lon": -122.4394567}, {"type": "node", "id": 3840380892, "lat": 48.9630871, "lon": -122.4395365}, {"type": "node", "id": 3840380893, "lat": 48.9628009, "lon": -122.439545}, {"type": "node", "id": 3840380894, "lat": 48.9627999, "lon": -122.4394652}, {"type": "node", "id": 3840380895, "lat": 48.9635331, "lon": -122.4392744}, {"type": "node", "id": 3840380896, "lat": 48.9634794, "lon": -122.4392746}, {"type": "node", "id": 3840380897, "lat": 48.9634787, "lon": -122.4389152}, {"type": "node", "id": 3840380898, "lat": 48.9635324, "lon": -122.4389149}, {"type": "node", "id": 3840380899, "lat": 48.9633425, "lon": -122.4387024}, {"type": "node", "id": 3840380900, "lat": 48.9633423, "lon": -122.4386114}, {"type": "node", "id": 3840380901, "lat": 48.9628074, "lon": -122.4386142}, {"type": "node", "id": 3840380902, "lat": 48.9628076, "lon": -122.4387052}, {"type": "node", "id": 3840380925, "lat": 48.9627474, "lon": -122.4380564}, {"type": "node", "id": 3840380926, "lat": 48.9627474, "lon": -122.4374894}, {"type": "node", "id": 3840380927, "lat": 48.9625654, "lon": -122.4374925}, {"type": "node", "id": 3840380928, "lat": 48.9625675, "lon": -122.4381562}, {"type": "node", "id": 3840380929, "lat": 48.9626923, "lon": -122.4380577}, {"type": "node", "id": 3840380936, "lat": 48.9625642, "lon": -122.4372175}, {"type": "node", "id": 3840380937, "lat": 48.9626161, "lon": -122.4372176}, {"type": "node", "id": 3840380938, "lat": 48.9626157, "lon": -122.4374515}, {"type": "node", "id": 3840380939, "lat": 48.9625639, "lon": -122.4374513}, {"type": "node", "id": 4293926643, "lat": 48.9433247, "lon": -122.4508621}, {"type": "node", "id": 4293926644, "lat": 48.9431143, "lon": -122.4507114}, {"type": "node", "id": 4293926646, "lat": 48.9434448, "lon": -122.4504738}, {"type": "node", "id": 4293926647, "lat": 48.9431562, "lon": -122.450267}, {"type": "node", "id": 4293926648, "lat": 48.9431192, "lon": -122.4503869}, {"type": "node", "id": 4293926649, "lat": 48.9430749, "lon": -122.4503552}, {"type": "node", "id": 4293926650, "lat": 48.9429919, "lon": -122.4506236}, {"type": "node", "id": 4293926709, "lat": 48.9434594, "lon": -122.4511944}, {"type": "node", "id": 4293926713, "lat": 48.943425, "lon": -122.451312}, {"type": "node", "id": 4293926714, "lat": 48.9435407, "lon": -122.4513888}, {"type": "node", "id": 4293926715, "lat": 48.9435606, "lon": -122.4513194}, {"type": "node", "id": 4293926716, "lat": 48.943685, "lon": -122.4514018}, {"type": "node", "id": 4293926717, "lat": 48.9436973, "lon": -122.4513616}, {"type": "node", "id": 4293926718, "lat": 48.9434022, "lon": -122.4513897}, {"type": "node", "id": 4293926719, "lat": 48.9435897, "lon": -122.4515113}, {"type": "node", "id": 4293926720, "lat": 48.9436059, "lon": -122.4514544}, {"type": "node", "id": 4293926721, "lat": 48.9435796, "lon": -122.451437}, {"type": "node", "id": 4293926722, "lat": 48.943585, "lon": -122.4514181}, {"type": "node", "id": 4293926723, "lat": 48.9433753, "lon": -122.4514815}, {"type": "node", "id": 4293926724, "lat": 48.9435924, "lon": -122.4516289}, {"type": "node", "id": 4293926725, "lat": 48.9436201, "lon": -122.4515314}, {"type": "node", "id": 4293926726, "lat": 48.9433233, "lon": -122.451659}, {"type": "node", "id": 4293926727, "lat": 48.9434585, "lon": -122.4517508}, {"type": "node", "id": 4293926728, "lat": 48.9434349, "lon": -122.4518313}, {"type": "node", "id": 4293926729, "lat": 48.9436358, "lon": -122.4519676}, {"type": "node", "id": 4293926730, "lat": 48.9436822, "lon": -122.4518969}, {"type": "node", "id": 4293926731, "lat": 48.9437332, "lon": -122.4517265}, {"type": "node", "id": 4293926732, "lat": 48.94334, "lon": -122.4516021}, {"type": "node", "id": 4293926733, "lat": 48.9436973, "lon": -122.4518464}, {"type": "node", "id": 4293926734, "lat": 48.9437921, "lon": -122.4514711}, {"type": "node", "id": 4293926735, "lat": 48.9437516, "lon": -122.4516165}, {"type": "node", "id": 4293926747, "lat": 48.944165, "lon": -122.4517216}, {"type": "node", "id": 4293926748, "lat": 48.9441292, "lon": -122.4518561}, {"type": "node", "id": 4293926749, "lat": 48.9440677, "lon": -122.4518182}, {"type": "node", "id": 4293926750, "lat": 48.9441035, "lon": -122.4516836}, {"type": "node", "id": 4293926759, "lat": 48.9439196, "lon": -122.4509536}, {"type": "node", "id": 4293926760, "lat": 48.9438398, "lon": -122.4510022}, {"type": "node", "id": 4293926761, "lat": 48.943628, "lon": -122.450852}, {"type": "node", "id": 4293926762, "lat": 48.9436613, "lon": -122.4507703}, {"type": "node", "id": 4293926764, "lat": 48.9434838, "lon": -122.4508301}, {"type": "node", "id": 4293926765, "lat": 48.9433012, "lon": -122.4514626}, {"type": "node", "id": 4293926771, "lat": 48.9432971, "lon": -122.4510685}, {"type": "node", "id": 4293926772, "lat": 48.9433189, "lon": -122.4511458}, {"type": "node", "id": 4293926773, "lat": 48.9434451, "lon": -122.4507106}, {"type": "node", "id": 4293926774, "lat": 48.9434195, "lon": -122.4506542}, {"type": "node", "id": 4294007151, "lat": 48.9456246, "lon": -122.453401, "tags": {"highway": "crossing"}}, {"type": "node", "id": 4295502192, "lat": 48.943796, "lon": -122.450999, "tags": {"addr:city": "Lynden", "addr:housenumber": "105", "addr:postcode": "98264", "addr:street": "3rd Street", "name": "Heroes Resource", "opening_hours": "Mo-Th 11:00-21:00; Fr 12:00-21:00; Sa 10:00-21:00; Su 13:00-20:00", "phone": "+1-360-318-0304", "shop": "video_games"}}, {"type": "node", "id": 4295515889, "lat": 48.943539, "lon": -122.450972, "tags": {"addr:city": "Lynden", "addr:housenumber": "304", "addr:postcode": "98264", "addr:street": "Front Street", "fax": "+1-360-354-4632", "name": "Boice-Raplee-Ross Accounting & Tax Service, Inc.", "office": "accountant", "phone": "+1-360-354-4565", "source": "Local knowledge "}}, {"type": "node", "id": 4295516390, "lat": 48.94421, "lon": -122.451317, "tags": {"addr:city": "Lynden", "addr:housenumber": "113", "addr:postcode": "98264", "addr:street": "3rd Street", "name": "Lamphere Insurance Financial & Estate Planning", "office": "insurance", "opening_hours": "Mo-Fr 9:00-16:00", "phone": "+1-360-354-5333", "source": "Local knowledge"}}, {"type": "node", "id": 4295516589, "lat": 48.943599, "lon": -122.450927, "tags": {"addr:city": "Lynden", "addr:housenumber": "300", "addr:postcode": "98264", "addr:street": "Front Street", "atm": "no", "name": "Mane Styles", "phone": "+1-360-318-8867", "shop": "beauty", "source": "Local knowledge", "website": "http://manestylesalon.com/Home.html", "wheelchair": "yes"}}, {"type": "node", "id": 4295521089, "lat": 48.94406, "lon": -122.451185, "tags": {"addr:city": "Lynden", "addr:housenumber": "111", "addr:postcode": "98264", "addr:street": "3rd Street", "amenity": "driving_school", "name": "EXCELeration Driving, LLC.", "opening_hours": "Mo 12:00-16:00; Tu 16:00-18:00; Th 16:00-18:00", "phone": "+1-360-303-7208", "source": "Local knowledge", "website": "http://excelerationdrivingschool.com"}}, {"type": "node", "id": 4295521189, "lat": 48.943985, "lon": -122.451141, "tags": {"addr:city": "Lynden", "addr:postcode": "98264", "addr:street": "3rd Street", "amenity": "dojo", "name": "Master Na's Black Belt Academy", "phone": "+1-206-429-3813", "website": "http://federalwaymartialarts.net", "wheelchair": "no"}}, {"type": "node", "id": 4489534728, "lat": 48.9487063, "lon": -122.4470092}, {"type": "node", "id": 4933671886, "lat": 48.9602726, "lon": -122.4186603}, {"type": "node", "id": 4933671887, "lat": 48.9585765, "lon": -122.4186661}, {"type": "node", "id": 4933671888, "lat": 48.9585708, "lon": -122.4173972}, {"type": "node", "id": 4933671889, "lat": 48.9582631, "lon": -122.4174006}, {"type": "node", "id": 4933671891, "lat": 48.9603532, "lon": -122.4132113}, {"type": "node", "id": 5920756996, "lat": 48.9586148, "lon": -122.4377685, "tags": {"amenity": "waste_basket", "collection_times": "Th 10:00", "waste": "dog_excrement"}}, {"type": "node", "id": 6230976883, "lat": 48.9431029, "lon": -122.4516537}, {"type": "node", "id": 6230976884, "lat": 48.9429356, "lon": -122.4515336}, {"type": "node", "id": 6230977585, "lat": 48.94297, "lon": -122.4514226}, {"type": "node", "id": 6230977586, "lat": 48.9429165, "lon": -122.4513843}, {"type": "node", "id": 6230977587, "lat": 48.9430021, "lon": -122.4511076}, {"type": "node", "id": 6230977588, "lat": 48.9432057, "lon": -122.4512538}, {"type": "node", "id": 6230977589, "lat": 48.9431794, "lon": -122.4513386}, {"type": "node", "id": 6230977590, "lat": 48.9431967, "lon": -122.451351}, {"type": "node", "id": 6230977592, "lat": 48.9429453, "lon": -122.4512916}, {"type": "node", "id": 6230977593, "lat": 48.942972, "lon": -122.4512047}, {"type": "node", "id": 6447096610, "lat": 48.9449441, "lon": -122.4513413}, {"type": "node", "id": 6447096611, "lat": 48.9450015, "lon": -122.4511416}, {"type": "node", "id": 6447096612, "lat": 48.9449271, "lon": -122.451092}, {"type": "node", "id": 6447096613, "lat": 48.9449183, "lon": -122.4511226}, {"type": "node", "id": 6447096614, "lat": 48.9448929, "lon": -122.4511057}, {"type": "node", "id": 6447096615, "lat": 48.9448442, "lon": -122.4512747}, {"type": "node", "id": 6447096672, "lat": 48.9476241, "lon": -122.4431986}, {"type": "node", "id": 6447096673, "lat": 48.9475978, "lon": -122.443285}, {"type": "node", "id": 6447096674, "lat": 48.9478441, "lon": -122.4434587}, {"type": "node", "id": 6447096675, "lat": 48.9480095, "lon": -122.442915}, {"type": "node", "id": 6447096676, "lat": 48.9479297, "lon": -122.4428587}, {"type": "node", "id": 6447096677, "lat": 48.9479428, "lon": -122.4428157}, {"type": "node", "id": 6447096678, "lat": 48.9476889, "lon": -122.4426365}, {"type": "node", "id": 6447096679, "lat": 48.9476676, "lon": -122.4427064}, {"type": "node", "id": 6447096680, "lat": 48.947888, "lon": -122.442862}, {"type": "node", "id": 6447096681, "lat": 48.947757, "lon": -122.4432923}, {"type": "node", "id": 6447096703, "lat": 48.946688, "lon": -122.4476378}, {"type": "node", "id": 6447096704, "lat": 48.9464802, "lon": -122.4476566}, {"type": "node", "id": 6447096705, "lat": 48.9464608, "lon": -122.4471617}, {"type": "node", "id": 6447096706, "lat": 48.9466096, "lon": -122.447155}, {"type": "node", "id": 6447096707, "lat": 48.9466211, "lon": -122.4473884}, {"type": "node", "id": 6447096708, "lat": 48.9466898, "lon": -122.447387}, {"type": "node", "id": 6467104674, "lat": 48.9582363, "lon": -122.4132656}, {"type": "node", "id": 6467206758, "lat": 48.958932, "lon": -122.416148}, {"type": "node", "id": 6467206759, "lat": 48.9589331, "lon": -122.4164065}, {"type": "node", "id": 6887806027, "lat": 48.9569793, "lon": -122.4193787, "tags": {"amenity": "bench", "backrest": "no", "direction": "W", "material": "wood"}}, {"type": "node", "id": 8069501692, "lat": 48.9432543, "lon": -122.4509298, "tags": {"amenity": "restaurant", "cuisine": "greek;italian", "name": "Syros"}}, {"type": "node", "id": 8177827322, "lat": 48.94941, "lon": -122.4505542}, {"type": "node", "id": 8177827323, "lat": 48.9493793, "lon": -122.4503577}, {"type": "node", "id": 8177827324, "lat": 48.9494241, "lon": -122.4500097}, {"type": "node", "id": 8177827325, "lat": 48.9495003, "lon": -122.4498145}, {"type": "node", "id": 8177827326, "lat": 48.9496541, "lon": -122.4498361}, {"type": "node", "id": 8177827327, "lat": 48.9495977, "lon": -122.4503547}, {"type": "node", "id": 8177827328, "lat": 48.9495312, "lon": -122.450581}, {"type": "node", "id": 8177853838, "lat": 48.9603615, "lon": -122.4153252}, {"type": "node", "id": 8177853839, "lat": 48.960374, "lon": -122.4181967}, {"type": "node", "id": 8177853840, "lat": 48.9603078, "lon": -122.4184436}, {"type": "node", "id": 8177940083, "lat": 48.9602264, "lon": -122.4132142}, {"type": "node", "id": 8177952532, "lat": 48.9507811, "lon": -122.4300376}, {"type": "node", "id": 8177984956, "lat": 48.9487589, "lon": -122.4508214}, {"type": "node", "id": 8178301483, "lat": 48.9502168, "lon": -122.449343}, {"type": "node", "id": 8262835424, "lat": 48.958588, "lon": -122.4187862}, {"type": "node", "id": 8813610643, "lat": 48.9433303, "lon": -122.4515389}, {"type": "node", "id": 8813610644, "lat": 48.9435124, "lon": -122.4509177}, {"type": "node", "id": 9509601039, "lat": 48.9458953, "lon": -122.4529336}, {"type": "node", "id": 9509601040, "lat": 48.9458196, "lon": -122.45288}, {"type": "node", "id": 9509601041, "lat": 48.9458442, "lon": -122.4528015}, {"type": "node", "id": 9509601042, "lat": 48.9459197, "lon": -122.4528524}, {"type": "node", "id": 9509601043, "lat": 48.9457889, "lon": -122.4523806}, {"type": "node", "id": 9509601044, "lat": 48.9455199, "lon": -122.4521733}, {"type": "node", "id": 9509601045, "lat": 48.9453663, "lon": -122.4526584}, {"type": "node", "id": 9509601046, "lat": 48.9457153, "lon": -122.4529018}, {"type": "node", "id": 9509601047, "lat": 48.9457302, "lon": -122.4528617}, {"type": "node", "id": 9509601048, "lat": 48.9457394, "lon": -122.4528695}, {"type": "node", "id": 9509601049, "lat": 48.9457434, "lon": -122.4528826}, {"type": "node", "id": 9509601050, "lat": 48.9457405, "lon": -122.4529062}, {"type": "node", "id": 9509601051, "lat": 48.9455948, "lon": -122.4533785}, {"type": "node", "id": 9509601052, "lat": 48.945652, "lon": -122.4534209}, {"type": "node", "id": 9509601069, "lat": 48.9457692, "lon": -122.4524337}, {"type": "node", "id": 9509601070, "lat": 48.9458517, "lon": -122.4524966}, {"type": "node", "id": 9509601071, "lat": 48.9458892, "lon": -122.4525482}, {"type": "node", "id": 9509601072, "lat": 48.9458979, "lon": -122.4525823}, {"type": "node", "id": 9509601073, "lat": 48.9458972, "lon": -122.4526373}, {"type": "node", "id": 9509601074, "lat": 48.945895, "lon": -122.4526889}, {"type": "node", "id": 9509601075, "lat": 48.9459535, "lon": -122.4527395}, {"type": "node", "id": 9509601076, "lat": 48.9457319, "lon": -122.4534792}, {"type": "node", "id": 9667992771, "lat": 48.9493793, "lon": -122.4502307}, {"type": "node", "id": 9667992772, "lat": 48.9493318, "lon": -122.450218}, {"type": "node", "id": 9667992773, "lat": 48.9493106, "lon": -122.4504024}, {"type": "node", "id": 9667992774, "lat": 48.9493582, "lon": -122.4504151}, {"type": "node", "id": 9667992775, "lat": 48.9489999, "lon": -122.4508183}, {"type": "node", "id": 9667992776, "lat": 48.9490093, "lon": -122.450363}, {"type": "node", "id": 11160218047, "lat": 48.9623838, "lon": -122.4025649}, {"type": "node", "id": 11160218053, "lat": 48.9624093, "lon": -122.4037045}, {"type": "node", "id": 11160218070, "lat": 48.9625616, "lon": -122.4037205}, {"type": "node", "id": 11160218071, "lat": 48.9625884, "lon": -122.4037347}, {"type": "node", "id": 11160218072, "lat": 48.9630956, "lon": -122.4037186}, {"type": "node", "id": 11160218075, "lat": 48.962452, "lon": -122.4038732}, {"type": "node", "id": 11160218076, "lat": 48.9622195, "lon": -122.403884}, {"type": "node", "id": 11160218077, "lat": 48.9622158, "lon": -122.4037114}, {"type": "node", "id": 11160218078, "lat": 48.9624502, "lon": -122.4037418}, {"type": "node", "id": 11160218079, "lat": 48.9625314, "lon": -122.4033533}, {"type": "node", "id": 11160218080, "lat": 48.9624057, "lon": -122.4033587}, {"type": "node", "id": 11160218081, "lat": 48.9623952, "lon": -122.4027941}, {"type": "node", "id": 11160218082, "lat": 48.9625236, "lon": -122.4027886}, {"type": "node", "id": 11160218083, "lat": 48.9623533, "lon": -122.4027264}, {"type": "node", "id": 11160218084, "lat": 48.9622062, "lon": -122.4027299}, {"type": "node", "id": 11160218085, "lat": 48.9622039, "lon": -122.4024054}, {"type": "node", "id": 11160218086, "lat": 48.9623786, "lon": -122.4024019}, {"type": "node", "id": 11160218087, "lat": 48.9624055, "lon": -122.4024019}, {"type": "node", "id": 11160218088, "lat": 48.9624246, "lon": -122.4024112}, {"type": "node", "id": 11160218089, "lat": 48.9624691, "lon": -122.4024346}, {"type": "node", "id": 11160218090, "lat": 48.9624358, "lon": -122.4025902}, {"type": "node", "id": 11160218091, "lat": 48.9623525, "lon": -122.4025667}, {"type": "node", "id": 11160218092, "lat": 48.963011, "lon": -122.4038457}, {"type": "node", "id": 11160218093, "lat": 48.9625461, "lon": -122.4038591}, {"type": "node", "id": 11160218094, "lat": 48.9625426, "lon": -122.4037653}, {"type": "node", "id": 11160218095, "lat": 48.9626711, "lon": -122.403732}, {"type": "node", "id": 11160218096, "lat": 48.9626685, "lon": -122.4035896}, {"type": "node", "id": 11160218097, "lat": 48.9629828, "lon": -122.4035829}, {"type": "node", "id": 11160218098, "lat": 48.9629828, "lon": -122.4037222}, {"type": "node", "id": 11160218099, "lat": 48.963011, "lon": -122.4037213}, {"type": "node", "id": 11160218100, "lat": 48.9631748, "lon": -122.4035599}, {"type": "node", "id": 11160218101, "lat": 48.9630922, "lon": -122.4035634}, {"type": "node", "id": 11160218102, "lat": 48.9630912, "lon": -122.403521}, {"type": "node", "id": 11160218103, "lat": 48.9630031, "lon": -122.4035237}, {"type": "node", "id": 11160218104, "lat": 48.9629978, "lon": -122.4032662}, {"type": "node", "id": 11160223705, "lat": 48.963087, "lon": -122.4032624}, {"type": "node", "id": 11160223706, "lat": 48.9631695, "lon": -122.4032595}, {"type": "node", "id": 11160223707, "lat": 48.9631974, "lon": -122.4047257}, {"type": "node", "id": 11160223708, "lat": 48.9631145, "lon": -122.4047275}, {"type": "node", "id": 11160223709, "lat": 48.9630952, "lon": -122.4036876}, {"type": "node", "id": 11160223710, "lat": 48.9631789, "lon": -122.4036837}, {"type": "node", "id": 11177756435, "lat": 48.9583031, "lon": -122.4158862}, {"type": "node", "id": 11177756436, "lat": 48.9583074, "lon": -122.4168567}, {"type": "node", "id": 11177857337, "lat": 48.9591114, "lon": -122.4168484}, {"type": "node", "id": 11177857338, "lat": 48.9591094, "lon": -122.4164046}, {"type": "node", "id": 11177857339, "lat": 48.9589307, "lon": -122.4158797}, {"type": "node", "id": 11711202045, "lat": 48.947321, "lon": -122.4444284}, {"type": "node", "id": 11711202046, "lat": 48.9468947, "lon": -122.4441307}, {"type": "node", "id": 11711202047, "lat": 48.9469458, "lon": -122.4440958}, {"type": "node", "id": 11711202048, "lat": 48.9473474, "lon": -122.4443855}, {"type": "node", "id": 12335449439, "lat": 48.963494, "lon": -122.4308147}, {"type": "node", "id": 12335449440, "lat": 48.9633602, "lon": -122.430733}, {"type": "node", "id": 12335449441, "lat": 48.9633119, "lon": -122.4309162}, {"type": "node", "id": 12335449442, "lat": 48.9634457, "lon": -122.430998}, {"type": "node", "id": 13201289524, "lat": 48.9634723, "lon": -122.430897}, {"type": "node", "id": 13336674240, "lat": 48.9622722, "lon": -122.4373849, "tags": {"access": "yes", "amenity": "bicycle_parking", "bicycle_parking": "stands", "capacity": "6", "covered": "no"}}, {"type": "node", "id": 13336674241, "lat": 48.9622809, "lon": -122.4373044}, {"type": "node", "id": 13336674242, "lat": 48.9622816, "lon": -122.4371863}, {"type": "node", "id": 13336674243, "lat": 48.962204, "lon": -122.4371853}, {"type": "node", "id": 13336674244, "lat": 48.9622033, "lon": -122.4373035}, {"type": "node", "id": 13336774736, "lat": 48.9637989, "lon": -122.4381625, "tags": {"amenity": "bench"}}, {"type": "node", "id": 13336774737, "lat": 48.9631822, "lon": -122.4382537, "tags": {"amenity": "bench"}}, {"type": "way", "id": 264539640, "nodes": [2702045665, 2702045667, 2702045668, 2702045670, 2702045665], "tags": {"amenity": "toilets", "building": "yes"}}, {"type": "way", "id": 307233385, "nodes": [3123272673, 3123272674, 3123272675, 3123272706, 3123272676, 3832481211, 3123272673], "tags": {"addr:city": "Lynden", "addr:housenumber": "1301", "addr:postcode": "98264", "addr:street": "Bridgeview Drive", "amenity": "school", "contact:email": "midboeb@lynden.wednet.edu", "fax": "+1-360-318-8318", "internet_access": "wlan", "mascot": "Lions", "name": "Bernice Vossbeck Elementary School", "name:etymology:wikidata": "Q137179097", "opening_hours": "Mo-Fr 7:30-16:00", "operator": "Lynden School District", "operator:type": "public", "phone": "+1-360-354-0488", "website": "https://lynden.wednet.edu/domain/165", "wheelchair": "yes"}}, {"type": "way", "id": 307234200, "nodes": [3123283498, 3830124000, 3123283499, 3123283500, 3123283501, 3123283502, 3123283503, 3123283498], "tags": {"amenity": "parking", "covered": "no", "fee": "no", "operator": "Lynden High School", "park_ride": "no", "parking": "surface", "source": "Local knowledge", "supervised": "yes", "surface": "asphalt"}}, {"type": "way", "id": 307234400, "nodes": [3123280687, 3830137037, 3123280688, 3123280689, 3123280690, 3830134484, 3830134481, 3832289016, 3832289015, 3832289014, 3123280692, 3123280693, 3123280694, 8177952532, 3832289013, 3123280695, 3123280696, 3123280687], "tags": {"addr:city": "Lynden", "addr:housenumber": "1201", "addr:postcode": "98264", "addr:state": "WA", "addr:street": "Bradley Road", "amenity": "school", "contact:fax": "+1-360-354-0991", "grades": "9-12", "level": "1", "mascot": "Lions", "name": "Lynden High School", "operator": "Lynden School District", "operator:type": "public", "phone": "+1-360-354-4401", "source": "local knowledge", "website": "https://hs.lynden.wednet.edu/", "wikidata": "Q6708641", "wikipedia": "en:Lynden High School"}}, {"type": "way", "id": 307242620, "nodes": [3123359224, 3832289004, 3832289005, 3832289006, 3832289007, 3832288859, 3832288860, 3123359225, 3832288858, 3832288903, 3123359226, 3832289008, 3123359227, 3123359228, 3123363829, 3123363830, 3832288964, 3123363831, 3123363832, 3832288988, 4489534728, 2622911326, 3832480589, 3832288989, 8178301483, 3832288991, 3832288992, 3123363835, 3123363836, 3832288993, 3832288994, 3832288995, 3123363837, 3832288996, 3832288997, 3832288998, 3123363838, 3832288999, 3832289000, 3832289001, 3832289002, 3832289003, 3123359224], "tags": {"addr:city": "Lynden", "addr:housenumber": "417", "addr:postcode": "98264", "addr:state": "WA", "addr:street": "Lyncs Drive", "amenity": "school", "name": "Lynden Christian Schools", "operator": "Lynden Christian Schools", "operator:type": "religious", "phone": "+1-360-318-9525", "religion": "christian", "website": "https://www.lyncs.org/", "wikidata": "Q6708634", "wikipedia": "en:Lynden Christian Schools"}}, {"type": "way", "id": 363498236, "nodes": [3676645872, 3676646343, 3676646238, 3676646230, 3676646361, 3676646081, 3676646104, 3676646253, 3676646059, 3676645864, 3676645922, 3676645830, 3676645872], "tags": {"amenity": "parking"}}, {"type": "way", "id": 363498238, "nodes": [3676646337, 3676645908, 3676646300, 3676646363, 3676645835, 3676646074, 3676646337], "tags": {"amenity": "parking"}}, {"type": "way", "id": 363498241, "nodes": [3676645868, 3676645833, 3676646250, 3676646334, 3676646391, 3676646231, 3676646066, 3676646229, 3676646376, 3676646249, 3676646281, 3676646089, 3676645868], "tags": {"access": "permissive", "amenity": "parking", "fee": "no", "parking": "surface", "supervised": "no"}}, {"type": "way", "id": 363498244, "nodes": [3676646272, 3676646328, 3676645907, 3676645848, 3676646078, 3676646336, 3676646272], "tags": {"amenity": "parking"}}, {"type": "way", "id": 363498246, "nodes": [3676645924, 3676646247, 3676646344, 3676646103, 3676645829, 3676646315, 3676646097, 3676645911, 3676645917, 3676646320, 3676646110, 3676645870, 3676646065, 3676645896, 3676646331, 3676646030, 3676646285, 3676646273, 3676646353, 3676645855, 3676646382, 3676646367, 3676646335, 3676646366, 3676645924], "tags": {"addr:city": "Lynden", "addr:housenumber": "8800", "addr:postcode": "98264", "addr:state": "WA", "addr:street": "Bender Road", "amenity": "place_of_worship", "building": "church", "building:levels": "2", "contact:email": "rvelasco@sonlightchurch.com", "denomination": "protestant", "name": "Sonlight Community Christian Reformed Church", "phone": "+1-360-354-3434", "religion": "christian", "source": "Local knowledge, official website", "website": "https://www.sonlightchurch.com/"}}, {"type": "way", "id": 379487919, "nodes": [3827847272, 3827847273, 3827847274, 3827847275, 3827847272], "tags": {"amenity": "toilets", "building": "yes", "fee": "no", "name": "Restrooms and Concession Stand", "source": "geometry=Bing", "toilets:disposal": "flush", "unisex": "yes"}}, {"type": "way", "id": 379499798, "nodes": [3828002843, 3828002844, 3828002845, 3828002846, 3828002843], "tags": {"access": "yes", "amenity": "toilets", "building": "yes", "fee": "no", "source": "geometry=Bing", "toilets:disposal": "flush", "unisex": "yes"}}, {"type": "way", "id": 379680759, "nodes": [3830084376, 3830084377, 3830084378, 3830084379, 3830084376], "tags": {"access": "private", "amenity": "parking", "fee": "no", "operator": "Hope Lutheran Church", "park_ride": "no", "parking": "surface", "supervised": "no"}}, {"type": "way", "id": 379680760, "nodes": [3830084380, 3830084381, 3830084382, 3830084383, 3830084380], "tags": {"access": "private", "amenity": "parking", "fee": "no", "operator": "Hope Lutheran Church", "park_ride": "no", "parking": "surface", "source": "geometry=Bing", "supervised": "no"}}, {"type": "way", "id": 379684929, "nodes": [3830134477, 3830134478, 3830134495, 3830134494, 3830134479, 3830134484, 3830134481, 3830134482, 3830134483, 3830134477], "tags": {"access": "permissive", "amenity": "parking", "fee": "no", "operator": "Lynden High School", "park_ride": "no", "source": "geometry=Bing", "supervised": "no"}}, {"type": "way", "id": 379880175, "nodes": [3832288961, 3832288962, 3832288963, 3835074418, 3832288964, 3832288965, 3832288966, 3832288967, 3832288968, 3832288961], "tags": {"access": "private", "amenity": "parking", "fee": "no", "operator": "Lynden Christian Schools", "park_ride": "no", "parking": "surface", "source": "geometry=Bing"}}, {"type": "way", "id": 379880176, "nodes": [3832288969, 3832288970, 3832288971, 3832288972, 3832288973, 3832288974, 3832288975, 3832288976, 3832288977, 3123359219, 3123359218, 3832288969], "tags": {"access": "private", "amenity": "parking", "operator": "Lynden Christian Schools", "park_ride": "no", "parking": "surface", "source": "geometry=Bing"}}, {"type": "way", "id": 379880187, "nodes": [3832289047, 3832289048, 3832289049, 3832289050, 3832289051, 3832289052, 3832289047], "tags": {"access": "customers", "amenity": "parking", "operator": "Soccer City", "park_ride": "no", "parking": "surface", "source": "geometry=Bing"}}, {"type": "way", "id": 379896805, "nodes": [3832480607, 3833671261, 3833671262, 3832480608, 3832480609, 3832480610, 3832480611, 3832480612, 3832480607], "tags": {"access": "customers", "amenity": "parking", "fee": "no", "operator": "Lynden Christian Schools", "park_ride": "no", "parking": "surface", "supervised": "no"}}, {"type": "way", "id": 379896806, "nodes": [3832480613, 3832480614, 3832480615, 3832480616, 3832480617, 3832480618, 3832480619, 3832480620, 3832480621, 3832480622, 3832480623, 3832480624, 3832480625, 3832480626, 3832480627, 3832480628, 3832480613], "tags": {"addr:city": "Lynden", "addr:housenumber": "408", "addr:postcode": "98264", "addr:state": "WA", "addr:street": "1st Street", "building": "commercial", "building:levels": "1", "name": "Second Chance Thrift Store", "opening_hours": "Mo-Sa 10:00-15:00", "operator": "Lynden Christian Schools", "phone": "+1-360-318-9333", "shop": "second_hand", "smoking": "no", "source": "geometry=Bing", "website": "https://lyncs.org/support-us/school-stores"}}, {"type": "way", "id": 379896807, "nodes": [3832480629, 3832480630, 3832480631, 3832480632, 3832480629], "tags": {"access": "customers", "amenity": "parking", "fee": "no", "operator": "Lynden Christian Schools", "park_ride": "no", "parking": "surface", "supervised": "no"}}, {"type": "way", "id": 379896815, "nodes": [3832480763, 3832480764, 3832480765, 3832480766, 3832480767, 3832480768, 3832480769, 3832480770, 3832480763], "tags": {"access": "customers", "amenity": "parking", "fee": "no", "park_ride": "no", "parking": "surface", "supervised": "no"}}, {"type": "way", "id": 379896819, "nodes": [3832480800, 3832480809, 3832480801, 3832480802, 3832480803, 3832480804, 3832480805, 3832480800], "tags": {"access": "customers", "amenity": "parking", "fee": "no", "operator": "Lynden Public Library", "parking": "surface", "source": "geometry=Bing", "supervised": "no"}}, {"type": "way", "id": 379896831, "nodes": [3832480855, 3832480964, 3832480856, 3832480957, 3832480958, 3832480855], "tags": {"access": "customers", "amenity": "parking", "fee": "no", "operator": "Washington Federal Bank", "park_ride": "no", "parking": "surface", "source": "geometry=Bing"}}, {"type": "way", "id": 379896832, "nodes": [3832480959, 3832480960, 3832480967, 3832480961, 3832480962, 3832480966, 3832480959], "tags": {"access": "customers", "amenity": "parking", "fee": "no", "operator": "Washington Federal Bank", "park_ride": "no", "parking": "surface", "source": "geometry=Bing"}}, {"type": "way", "id": 379896842, "nodes": [3832480978, 3832480979, 3832480980, 3832480981, 3832480978], "tags": {"access": "customers", "amenity": "parking", "fee": "no", "operator": "Lynden Public Library", "park_ride": "no", "parking": "surface", "source": "geometry=Bing"}}, {"type": "way", "id": 379896851, "nodes": [3832481018, 3832481019, 3832481020, 3832481021, 3832481018], "tags": {"access": "private", "amenity": "parking", "fee": "no", "operator": "Crosspoint Church", "park_ride": "no", "parking": "surface", "supervised": "no"}}, {"type": "way", "id": 379896862, "nodes": [3832481043, 3832481044, 3832481045, 3832481046, 3832481039, 3832481043], "tags": {"access": "private", "amenity": "parking", "fee": "no", "operator": "Crosspoint Church", "park_ride": "no", "parking": "surface", "source": "geometry=Bing", "supervised": "no"}}, {"type": "way", "id": 379896864, "nodes": [3832481161, 3832481162, 3832481163, 3832481164, 3832481165, 3832481166, 3832481161], "tags": {"access": "private", "amenity": "parking", "fee": "no", "operator": "Crosspoint Church", "park_ride": "no", "parking": "surface", "supervised": "no"}}, {"type": "way", "id": 379896878, "nodes": [3832481207, 3832481208, 3832481209, 3832481210, 3832481207], "tags": {"access": "permissive", "amenity": "parking", "fee": "no", "operator": "Bernice Vossbeck Elementary", "park_ride": "no", "parking": "surface"}}, {"type": "way", "id": 380012902, "nodes": [3833442532, 3833614625, 3833614626, 3833614627, 3833442532], "tags": {"amenity": "parking", "source": "geometry=Bing"}}, {"type": "way", "id": 380012903, "nodes": [3833614628, 3833614629, 3833614630, 3833614631, 3833614632, 3833614628], "tags": {"access": "permissive", "amenity": "parking", "fee": "no", "park_ride": "no", "parking": "surface", "source": "geometry=Bing", "supervised": "no"}}, {"type": "way", "id": 380012904, "nodes": [3833614633, 3833614634, 3833614635, 3833614636, 3833614637, 3833614638, 3833614633], "tags": {"access": "permissive", "amenity": "parking", "park_ride": "no", "parking": "surface", "supervised": "no"}}, {"type": "way", "id": 380012906, "nodes": [3833614640, 3833614641, 3833614642, 3833614643, 3833614640], "tags": {"addr:city": "Lynden", "addr:housenumber": "100", "addr:postcode": "98264", "addr:state": "WA", "addr:street": "Grover Street", "amenity": "cafe", "atm": "no", "building": "commercial", "building:levels": "1", "cuisine": "coffee_shop", "drive_through": "yes", "internet_access": "no", "name": "Muddy Waters Espresso", "outdoor_seating": "no", "phone": "+1-360-318-9306", "smoking": "no", "source": "geometry=Bing, local knowledge ", "takeaway": "yes", "website": "https://www.facebook.com/Muddy-Waters-Espresso-113699265356636/"}}, {"type": "way", "id": 380018489, "nodes": [3833671023, 3833671049, 3833671024, 3833671025, 3833671026, 3833671027, 3833671048, 3833671028, 3833671023], "tags": {"access": "private", "amenity": "parking", "parking": "surface", "source": "geometry=Bing"}}, {"type": "way", "id": 380018491, "nodes": [3833671039, 3833671040, 3833671041, 3833671042, 3833671039], "tags": {"access": "private", "amenity": "parking", "parking": "surface", "source": "geometry=Bing"}}, {"type": "way", "id": 380037902, "nodes": [3833843861, 3833843862, 3833843863, 3833843864, 3833843861], "tags": {"access": "private", "amenity": "parking", "parking": "surface"}}, {"type": "way", "id": 380037903, "nodes": [3833843872, 3833843873, 3833843874, 3833843875, 3833843872], "tags": {"access": "private", "amenity": "parking", "parking": "surface"}}, {"type": "way", "id": 380037908, "nodes": [3833843883, 3833843884, 3833843885, 3833843886, 3833843883], "tags": {"access": "customers", "amenity": "parking", "fee": "no", "parking": "surface"}}, {"type": "way", "id": 380037909, "nodes": [3833843887, 3833843888, 3833843889, 3833843890, 3833843887], "tags": {"amenity": "parking"}}, {"type": "way", "id": 380037910, "nodes": [3833843891, 3833843892, 3833843893, 3833843894, 3833843891], "tags": {"access": "private", "amenity": "parking", "parking": "surface"}}, {"type": "way", "id": 380037923, "nodes": [3833843931, 3833843932, 3833843933, 3833843934, 3833843935, 3833843936, 3833843937, 3833843938, 3833843946, 3833843939, 3833843940, 3833843941, 3833843942, 3833843943, 3833843944, 3833843945, 3833843931], "tags": {"access": "customers", "amenity": "parking", "operator": "Homestead Golf & Country Club", "parking": "surface"}}, {"type": "way", "id": 380048245, "nodes": [3833944060, 3833944566, 3833944061, 3833944062, 3833944063, 3833944064, 3833944065, 3833944066, 3833944067, 3833944068, 3833944069, 3833944070, 3833944071, 3833944072, 3833944073, 3833944074, 3833944075, 3833944076, 3833944077, 3833944078, 3833944060], "tags": {"access": "customers", "amenity": "parking", "operator": "Meadow Greens", "parking": "surface", "source": "geometry=Bing"}}, {"type": "way", "id": 380048248, "nodes": [3833944079, 3833944080, 3833944081, 3833944082, 3833944079], "tags": {"access": "customers", "amenity": "parking", "operator": "Meadow Greens", "parking": "surface", "source": "geometry=Bing"}}, {"type": "way", "id": 380048251, "nodes": [3833944083, 3833944084, 3833944085, 3833944091, 3833944092, 3833944582, 3833944093, 3833944094, 3833944095, 3833944096, 3833944097, 3833944098, 3833944099, 3833944083], "tags": {"access": "customers", "amenity": "parking", "operator": "Meadow Greens", "parking": "surface", "source": "geometry=Bing"}}, {"type": "way", "id": 380048252, "nodes": [3833944092, 3833944100, 3833944101, 3833944102, 3833944092], "tags": {"access": "customers", "amenity": "parking", "operator": "Meadow Greens", "parking": "surface"}}, {"type": "way", "id": 380048255, "nodes": [3833944146, 3833944161, 3833944147, 3833944148, 3833944149, 3833944150, 3833944151, 3833944152, 3833944153, 3833944154, 3833944158, 3833944155, 3833944156, 3833944146], "tags": {"access": "permissive", "amenity": "parking", "operator": "Nethrlands Reformed", "parking": "surface", "source": "geometry=Bing"}}, {"type": "way", "id": 380048259, "nodes": [3833944163, 3833944164, 3833944165, 3833944166, 3833944167, 3833944168, 3833944169, 3833944170, 3833944171, 3833944172, 3833944173, 3833944174, 3833944175, 3833944176, 3833944163], "tags": {"access": "permissive", "amenity": "parking", "operator": "Grace Baptist", "parking": "surface", "source": "geometry=Bing"}}, {"type": "way", "id": 380048266, "nodes": [3833944194, 3833944195, 3833944196, 3833944197, 3833944198, 3833944199, 3833944200, 3833944201, 3833944202, 3833944203, 3833944204, 3833944276, 3833944275, 3833944194], "tags": {"access": "customers", "amenity": "parking", "operator": "Lynden Protestant Reformed Church", "parking": "surface", "source": "geometry=Bing"}}, {"type": "way", "id": 380048286, "nodes": [3833944314, 3833944315, 3833944316, 3833944317, 3833944314], "tags": {"access": "customers", "amenity": "parking", "parking": "surface", "source": "geometry=Bing"}}, {"type": "way", "id": 380048287, "nodes": [3833944318, 3833944351, 3833944319, 3833944320, 3833944321, 3833944322, 3833944352, 3833944323, 3833944324, 3833944318], "tags": {"access": "customers", "amenity": "parking", "parking": "surface", "source": "geometry=Bing"}}, {"type": "way", "id": 380048288, "nodes": [3833944325, 3833944326, 3833944327, 3833944557, 3833944328, 3833944329, 3833944330, 3833944356, 3833944325], "tags": {"access": "customers", "amenity": "parking", "parking": "surface"}}, {"type": "way", "id": 380048289, "nodes": [3833944331, 3833944332, 3833944333, 3833944334, 3833944335, 3833944336, 3833944337, 3833944331], "tags": {"access": "customers", "amenity": "parking", "parking": "surface", "source": "geometry=Bing"}}, {"type": "way", "id": 380048290, "nodes": [3833944338, 3833944339, 3833944340, 3833944341, 3833944338], "tags": {"access": "customers", "amenity": "parking", "parking": "surface", "source": "geometry=Bing"}}, {"type": "way", "id": 380048293, "nodes": [3833944345, 3833944346, 3833944347, 3833944348, 3833944345], "tags": {"access": "customers", "amenity": "parking", "parking": "surface", "source": "geometry=Bing"}}, {"type": "way", "id": 380053966, "nodes": [3834015639, 3834015640, 3834015641, 3834015642, 3834015639], "tags": {"access": "private", "amenity": "parking", "parking": "surface", "source": "geometry=Bing"}}, {"type": "way", "id": 380053968, "nodes": [3834015645, 3834015646, 3834015647, 3834015648, 3834015649, 3834015650, 3834015645], "tags": {"access": "private", "amenity": "parking", "parking": "surface", "source": "geometry=Bing"}}, {"type": "way", "id": 380053972, "nodes": [3834015760, 3834015761, 3834015762, 3834015763, 3834015760], "tags": {"amenity": "parking", "parking": "surface", "source": "geometry=Bing"}}, {"type": "way", "id": 380053973, "nodes": [3834015764, 3834015765, 3834015766, 3834015767, 3834015764], "tags": {"amenity": "parking", "parking": "surface", "source": "geometry=Bing"}}, {"type": "way", "id": 380542781, "nodes": [3838640155, 3838640156, 3838640157, 3838640158, 3838640159, 3838640160, 3838640155], "tags": {"access": "private", "amenity": "parking", "parking": "surface", "source": "geometry=Bing"}}, {"type": "way", "id": 380714551, "nodes": [3840380891, 3840380892, 3840380893, 3840380894, 3840380891], "tags": {"access": "private", "amenity": "parking", "parking": "surface", "source": "geometry=Bing"}}, {"type": "way", "id": 380714552, "nodes": [3840380895, 3840380896, 3840380897, 3840380898, 3840380895], "tags": {"access": "private", "amenity": "parking", "parking": "surface", "source": "geometry=Bing"}}, {"type": "way", "id": 380714553, "nodes": [3840380899, 3840380900, 3840380901, 3840380902, 3840380899], "tags": {"access": "private", "amenity": "parking", "parking": "surface", "source": "geometry=Bing"}}, {"type": "way", "id": 380714559, "nodes": [3840380925, 3840380926, 3840380927, 3840380928, 3840380929, 3840380925], "tags": {"access": "customers", "amenity": "parking", "operator": "Christian Health Care Center", "parking": "surface"}}, {"type": "way", "id": 380714561, "nodes": [3840380936, 3840380937, 3840380938, 3840380939, 3840380936], "tags": {"access": "customers", "amenity": "parking", "operator": "Christian Health Care Center", "parking": "surface", "source": "geometry=Bing"}}, {"type": "way", "id": 430128901, "nodes": [4293926643, 4293926646, 4293926647, 4293926648, 4293926649, 4293926650, 4293926644, 4293926643], "tags": {"addr:city": "Lynden", "addr:housenumber": "303", "addr:postcode": "98264", "addr:street": "Front Street", "atm": "no", "building": "commercial", "building:levels": "1", "name": "Colony House Furniture", "shop": "furniture", "source": "Local knowledge "}}, {"type": "way", "id": 430128915, "nodes": [4293926709, 4293926713, 4293926714, 4293926715, 4293926716, 4293926717, 4293926709], "tags": {"addr:city": "Lynden", "addr:housenumber": "308", "addr:postcode": "98264", "addr:street": "Front Street", "atm": "no", "building": "commercial", "building:levels": "1", "internet_access": "no", "name": "Creative Design Salon", "phone": "+1-360-354-8022", "shop": "hairdresser", "source": "geometry=Bing"}}, {"type": "way", "id": 430128916, "nodes": [4293926713, 4293926718, 4293926719, 4293926720, 4293926721, 4293926722, 4293926714, 4293926713], "tags": {"addr:city": "Lynden", "addr:housenumber": "310", "addr:postcode": "98264", "addr:street": "Front Street", "atm": "no", "building": "commercial", "building:levels": "1", "internet_access": "wlan", "name": "Rustic Cottage", "opening_hours": "Mo-Sa unknown", "shop": "antiques", "source": "geometry=Bing"}}, {"type": "way", "id": 430128917, "nodes": [4293926718, 4293926723, 4293926724, 4293926725, 4293926719, 4293926718], "tags": {"addr:city": "Lynden", "addr:postcode": "98264", "addr:street": "Front Street", "amenity": "restaurant", "building": "commercial", "building:levels": "1", "cuisine": "fish", "delivery": "no", "name": "JoFish", "opening_hours": "Mo-Sa 11:00-20:00", "outdoor_seating": "yes", "smoking": "no", "source": "geometry=Bing", "takeaway": "yes"}}, {"type": "way", "id": 430128918, "nodes": [4293926723, 4293926732, 4293926726, 4293926727, 4293926728, 4293926729, 4293926730, 4293926733, 4293926731, 4293926724, 4293926723], "tags": {"access": "customers", "amenity": "parking", "fee": "no", "park_ride": "no", "parking": "surface", "source": "geometry=Bing", "supervised": "no", "surface": "asphalt"}}, {"type": "way", "id": 430128920, "nodes": [4293926714, 4293926715, 4293926716, 4293926734, 4293926735, 4293926725, 4293926719, 4293926720, 4293926721, 4293926722, 4293926714], "tags": {"access": "private", "amenity": "parking", "parking": "surface", "source": "geometry=Bing"}}, {"type": "way", "id": 430128924, "nodes": [4293926747, 4293926748, 4293926749, 4293926750, 4293926747], "tags": {"addr:city": "Lynden", "addr:housenumber": "309", "addr:postcode": "98264", "addr:state": "WA", "addr:street": "Grover Street", "building": "house", "name": "City Hair", "phone": "+1-360-354-0538", "shop": "hairdresser"}}, {"type": "way", "id": 430128927, "nodes": [4293926759, 4293926760, 4293926761, 4293926762, 4293926759], "tags": {"access": "customers", "addr:city": "Lynden", "addr:postcode": "98264", "addr:state": "WA", "addr:street": "3rd Street", "amenity": "parking", "parking": "surface", "source": "geometry=Bing", "surface": "asphalt"}}, {"type": "way", "id": 430128928, "nodes": [8813610644, 4293926764, 4293926765, 8813610643, 8813610644], "tags": {"access": "customers", "addr:city": "Lynden", "addr:postcode": "98264", "addr:state": "WA", "addr:street": "Front Street", "amenity": "parking", "park_ride": "yes", "source": "geometry=Bing", "surface": "asphalt"}}, {"type": "way", "id": 430128930, "nodes": [4293926771, 4293926772, 4293926773, 4293926774, 4293926771], "tags": {"addr:city": "Lynden", "addr:postcode": "98264", "addr:state": "WA", "addr:street": "Front Street", "amenity": "parking", "surface": "asphalt"}}, {"type": "way", "id": 503015208, "nodes": [4933671886, 8262835424, 4933671887, 4933671888, 4933671889, 6467104674, 8177940083, 4933671891, 8177853838, 8177853839, 8177853840, 4933671886], "tags": {"addr:city": "Lynden", "addr:housenumber": "8750", "addr:postcode": "98264", "addr:state": "WA", "addr:street": "Line Road", "amenity": "school", "grades": "6-8", "mascot": "Lions", "name": "Lynden Middle School", "operator": "Lynden School District", "operator:type": "public", "website": "https://ms.lynden.wednet.edu"}}, {"type": "way", "id": 665675183, "nodes": [6230976883, 6230976884, 6230977585, 6230977586, 6230977592, 6230977593, 6230977587, 6230977588, 6230977589, 6230977590, 6230976883], "tags": {"addr:city": "Lynden", "addr:housenumber": "321", "addr:state": "WA", "addr:street": "Front Street", "amenity": "arts_centre", "building": "yes", "name": "Jansen Art Centre", "opening_hours": "Tu-We 11:00-19:00; Th 11:00-21:00; Fr-Sa 11:00-17:00; Su-Mo off", "phone": "+1-360-354-3600", "website": "https://jansenartcenter.org/", "wheelchair": "yes"}}, {"type": "way", "id": 687715602, "nodes": [6447096610, 6447096611, 6447096612, 6447096613, 6447096614, 6447096615, 6447096610], "tags": {"amenity": "restaurant", "building": "yes"}}, {"type": "way", "id": 687715606, "nodes": [6447096672, 6447096673, 6447096674, 6447096675, 6447096676, 6447096677, 6447096678, 6447096679, 6447096680, 6447096681, 6447096672], "tags": {"addr:city": "Lynden", "addr:state": "WA", "building": "yes", "shop": "sports"}}, {"type": "way", "id": 687715611, "nodes": [6447096703, 6447096704, 6447096705, 6447096706, 6447096707, 6447096708, 6447096703], "tags": {"building": "yes", "shop": "pet"}}, {"type": "way", "id": 879056962, "nodes": [8177827322, 8177827323, 8177827324, 8177827325, 8177827326, 8177827327, 8177827328, 8177827322], "tags": {"access": "yes", "amenity": "parking", "parking": "surface", "surface": "gravel"}}, {"type": "way", "id": 1031892466, "nodes": [9509601052, 4294007151, 9509601051, 9509601050, 9509601049, 9509601048, 9509601047, 9509601046, 9509601045, 9509601044, 9509601043, 9509601069, 9509601070, 9509601071, 9509601072, 9509601073, 9509601074, 9509601075, 9509601042, 9509601041, 9509601040, 9509601039, 9509601076, 9509601052], "tags": {"amenity": "parking", "parking": "surface", "surface": "asphalt"}}, {"type": "way", "id": 1052040230, "nodes": [9667992771, 9667992772, 9667992773, 9667992774, 9667992771], "tags": {"amenity": "shelter", "bin": "yes", "building": "roof", "shelter_type": "picnic_shelter"}}, {"type": "way", "id": 1052040231, "nodes": [9667992775, 8177984956, 2622911328, 9667992776, 9667992775], "tags": {"access": "yes", "amenity": "parking", "parking": "surface", "surface": "gravel"}}, {"type": "way", "id": 1204084637, "nodes": [11160218075, 11160218076, 11160218077, 11160218053, 11160218078, 11160218075], "tags": {"amenity": "parking", "capacity": "9", "parking": "surface", "surface": "asphalt"}}, {"type": "way", "id": 1204084638, "nodes": [11160218079, 11160218080, 11160218081, 11160218082, 11160218079], "tags": {"amenity": "parking", "capacity": "11", "surface": "asphalt"}}, {"type": "way", "id": 1204084639, "nodes": [11160218083, 11160218084, 11160218085, 11160218086, 11160218087, 11160218088, 11160218089, 11160218090, 11160218047, 11160218091, 11160218083], "tags": {"amenity": "parking", "capacity": "13", "parking": "surface", "surface": "asphalt"}}, {"type": "way", "id": 1204084640, "nodes": [11160218092, 11160218093, 11160218094, 11160218070, 11160218071, 11160218095, 11160218096, 11160218097, 11160218098, 11160218099, 11160218092], "tags": {"amenity": "parking", "capacity": "29", "parking": "surface", "surface": "asphalt"}}, {"type": "way", "id": 1204084641, "nodes": [11160218100, 11160218101, 11160218102, 11160218103, 11160218104, 11160223705, 11160223706, 11160218100], "tags": {"amenity": "parking", "capacity": "15", "parking": "surface", "surface": "asphalt"}}, {"type": "way", "id": 1204084642, "nodes": [11160223707, 11160223708, 11160218072, 11160223709, 11160223710, 11160223707], "tags": {"amenity": "parking", "capacity": "25", "parking": "surface", "surface": "asphalt"}}, {"type": "way", "id": 1206277077, "nodes": [11177756435, 11177756436, 11177857337, 11177857338, 6467206759, 6467206758, 11177857339, 11177756435], "tags": {"amenity": "parking"}}, {"type": "way", "id": 1259696062, "nodes": [11711202045, 11711202046, 11711202047, 11711202048, 11711202045], "tags": {"amenity": "parking", "parking": "street_side"}}, {"type": "way", "id": 1333304913, "nodes": [12335449439, 12335449440, 12335449441, 12335449442, 13201289524, 12335449439], "tags": {"amenity": "community_centre", "building": "yes", "name": "Children's Community Center"}}, {"type": "way", "id": 1454229969, "nodes": [13336674241, 13336674242, 13336674243, 13336674244, 13336674241], "tags": {"access": "yes", "amenity": "toilets", "building": "yes"}}]}