{"version": 0.6, "generator": "Overpass API 0.7.62.8 e802775f", "osm3s": {"timestamp_osm_base": "2025-12-06T22:34:36Z", "copyright": "The data included in this document is from www.openstreetmap.org. The data is made available under ODbL."}, "elements": [{"type": "node", "id": 865177857, "lat": 46.7618304, "lon": -122.040307}, {"type": "node", "id": 865178064, "lat": 46.7619706, "lon": -122.0406966}, {"type": "node", "id": 1916640346, "lat": 46.7593361, "lon": -122.040009}, {"type": "node", "id": 1916640347, "lat": 46.7593469, "lon": -122.0397045}, {"type": "node", "id": 1916640348, "lat": 46.7595104, "lon": -122.0400222}, {"type": "node", "id": 1916640349, "lat": 46.7595212, "lon": -122.0397177}, {"type": "node", "id": 1916640350, "lat": 46.7596406, "lon": -122.0399035, "tags": {"amenity": "fuel", "compressed_air": "yes", "name": "Flying K"}}, {"type": "node", "id": 3761529322, "lat": 46.7603897, "lon": -122.0351093, "tags": {"addr:city": "Ashford", "addr:country": "US", "addr:postcode": "98304", "addr:state": "WA", "addr:street": "State Route 706 East", "amenity": "fast_food", "cuisine": "regional;burger;pizza;beer", "delivery": "no", "diet:vegetarian": "yes", "drive_through": "no", "internet_access": "wlan", "internet_access:fee": "no", "name": "Rainier Basecamp Bar and Grill", "note": "Open Summer Only", "opening_hours": "11:00-20:00", "outdoor_seating": "yes", "phone": "+1-360-569-2727", "takeaway": "yes", "website": "http://www.rainierbasecampgrill.com", "website:menu": "http://www.rainierbasecampgrill.com", "wheelchair": "yes"}}, {"type": "node", "id": 4279356791, "lat": 46.7576448, "lon": -121.9826561, "tags": {"name": "Rainier Guest Services", "office": "company"}}, {"type": "node", "id": 4280761587, "lat": 46.7585182, "lon": -122.0295614}, {"type": "node", "id": 4339367989, "lat": 46.7582518, "lon": -122.0298739}, {"type": "node", "id": 4365938837, "lat": 46.7591872, "lon": -122.0323555}, {"type": "node", "id": 4365938838, "lat": 46.7593071, "lon": -122.0325788}, {"type": "node", "id": 4365938839, "lat": 46.7594027, "lon": -122.0325839}, {"type": "node", "id": 4365938840, "lat": 46.7593975, "lon": -122.0320764}, {"type": "node", "id": 4365938841, "lat": 46.7591663, "lon": -122.0321119}, {"type": "node", "id": 4365938854, "lat": 46.7594013, "lon": -122.0324421}, {"type": "node", "id": 4365954072, "lat": 46.7587195, "lon": -122.0313472}, {"type": "node", "id": 4365954074, "lat": 46.7585509, "lon": -122.0311391}, {"type": "node", "id": 4365954075, "lat": 46.7586691, "lon": -122.0311416}, {"type": "node", "id": 4365954076, "lat": 46.7587938, "lon": -122.0317341}, {"type": "node", "id": 4365954077, "lat": 46.7586176, "lon": -122.0318238}, {"type": "node", "id": 4365954078, "lat": 46.758586, "lon": -122.0316914}, {"type": "node", "id": 4365954079, "lat": 46.7587622, "lon": -122.0316018}, {"type": "node", "id": 4365954120, "lat": 46.7579293, "lon": -122.0221029}, {"type": "node", "id": 4365954124, "lat": 46.7572434, "lon": -122.0150363}, {"type": "node", "id": 4365954137, "lat": 46.7572897, "lon": -122.0150356}, {"type": "node", "id": 4365954138, "lat": 46.7572961, "lon": -122.0158691}, {"type": "node", "id": 4365954139, "lat": 46.7571057, "lon": -122.0158722}, {"type": "node", "id": 4365954140, "lat": 46.7570993, "lon": -122.0150386}, {"type": "node", "id": 4419218668, "lat": 46.7603513, "lon": -122.0349147, "tags": {"name": "RMI Rentals", "shop": "outdoor"}}, {"type": "node", "id": 4419218669, "lat": 46.7602111, "lon": -122.0347781, "tags": {"amenity": "toilets"}}, {"type": "node", "id": 4419219991, "lat": 46.7591767, "lon": -122.0322312}, {"type": "node", "id": 4774229652, "lat": 46.7590583, "lon": -122.0395194}, {"type": "node", "id": 5078243118, "lat": 46.7600443, "lon": -122.0354247, "tags": {"addr:city": "Ashford", "addr:housenumber": "30027", "addr:postcode": "98304", "addr:state": "WA", "addr:street": "National Park Highway", "clothes": "sports;outdoor_clothing;women;men;unisex;outdoor_gear;camping_gear;snow_shoes;snowshoes;sporting_goodes;sporting_equipment_rental;gear_rental", "name": "Whittaker Mountaineering", "phone": "+1-360-569-2142", "shop": "outdoor", "website": "https://www.whittakermountaineering.com", "wheelchair": "yes"}}, {"type": "node", "id": 5078243119, "lat": 46.7599469, "lon": -122.0354743, "tags": {"addr:city": "Ashford", "addr:housenumber": "30027", "addr:postcode": "98304", "addr:state": "WA", "addr:street": "National Park Highway", "name": "RMI Expeditions - Mountaineering Class", "phone": "+1-888-892-5462", "shop": "outdoor", "website": "https://www.rmiguides.com"}}, {"type": "node", "id": 5724484136, "lat": 46.7576602, "lon": -122.0133189}, {"type": "node", "id": 5724484137, "lat": 46.7576596, "lon": -122.0131185}, {"type": "node", "id": 5724484138, "lat": 46.7573571, "lon": -122.0131205}, {"type": "node", "id": 5724484139, "lat": 46.7573577, "lon": -122.013321}, {"type": "node", "id": 5724484140, "lat": 46.7572948, "lon": -122.0127541}, {"type": "node", "id": 5724484141, "lat": 46.7572965, "lon": -122.012514}, {"type": "node", "id": 5724484142, "lat": 46.7572387, "lon": -122.0125131}, {"type": "node", "id": 5724484143, "lat": 46.757237, "lon": -122.0127532}, {"type": "node", "id": 5724484144, "lat": 46.7574729, "lon": -122.0129637}, {"type": "node", "id": 5724484145, "lat": 46.7573582, "lon": -122.0129626}, {"type": "node", "id": 5724484146, "lat": 46.7573589, "lon": -122.0128113}, {"type": "node", "id": 5724484147, "lat": 46.7574735, "lon": -122.0128124}, {"type": "node", "id": 5724484148, "lat": 46.7574733, "lon": -122.0128718}, {"type": "node", "id": 5724484149, "lat": 46.7572658, "lon": -122.0129617}, {"type": "node", "id": 5724484150, "lat": 46.7572665, "lon": -122.0128104}, {"type": "node", "id": 6417057695, "lat": 46.7620211, "lon": -122.0406946}, {"type": "node", "id": 6417057696, "lat": 46.7620223, "lon": -122.0407583}, {"type": "node", "id": 6417057697, "lat": 46.7619718, "lon": -122.0407603}, {"type": "node", "id": 6417057698, "lat": 46.7612645, "lon": -122.0401702}, {"type": "node", "id": 6417057699, "lat": 46.7617687, "lon": -122.0408508}, {"type": "node", "id": 6417057700, "lat": 46.7612028, "lon": -122.040714}, {"type": "node", "id": 7172928043, "lat": 46.7621164, "lon": -122.037448}, {"type": "node", "id": 7172928044, "lat": 46.7622921, "lon": -122.0374143}, {"type": "node", "id": 7172928045, "lat": 46.7623609, "lon": -122.0381771}, {"type": "node", "id": 7172928046, "lat": 46.7621852, "lon": -122.0382108}, {"type": "node", "id": 7172928047, "lat": 46.7618092, "lon": -122.0376214}, {"type": "node", "id": 7172928048, "lat": 46.7619635, "lon": -122.0375517}, {"type": "node", "id": 7172928049, "lat": 46.7620829, "lon": -122.0381686}, {"type": "node", "id": 7172928050, "lat": 46.7619323, "lon": -122.0382357}, {"type": "node", "id": 7172928051, "lat": 46.7616732, "lon": -122.0383161}, {"type": "node", "id": 7172928052, "lat": 46.7616015, "lon": -122.0381847}, {"type": "node", "id": 7172928053, "lat": 46.7615409, "lon": -122.0380399}, {"type": "node", "id": 7172928054, "lat": 46.7614986, "lon": -122.0377985}, {"type": "node", "id": 7172928055, "lat": 46.7616732, "lon": -122.0377716}, {"type": "node", "id": 7172928056, "lat": 46.7616971, "lon": -122.0379245}, {"type": "node", "id": 7172928057, "lat": 46.7617577, "lon": -122.0380801}, {"type": "node", "id": 7172928058, "lat": 46.7618588, "lon": -122.0382276}, {"type": "node", "id": 7172928059, "lat": 46.7617724, "lon": -122.0384207}, {"type": "node", "id": 7172930325, "lat": 46.7579262, "lon": -122.0211707}, {"type": "node", "id": 7172930326, "lat": 46.7578439, "lon": -122.0211768}, {"type": "node", "id": 7172930327, "lat": 46.757854, "lon": -122.0214303}, {"type": "node", "id": 7172930329, "lat": 46.7578624, "lon": -122.0218175}, {"type": "node", "id": 7172930330, "lat": 46.7579946, "lon": -122.0217495}, {"type": "node", "id": 7172930331, "lat": 46.7579312, "lon": -122.0218863}, {"type": "node", "id": 7172930332, "lat": 46.7578283, "lon": -122.0216789}, {"type": "node", "id": 7172930333, "lat": 46.7578199, "lon": -122.0214495}, {"type": "node", "id": 7172930334, "lat": 46.7576596, "lon": -122.021462}, {"type": "node", "id": 7172930335, "lat": 46.7576681, "lon": -122.0216914}, {"type": "node", "id": 7172930336, "lat": 46.7579615, "lon": -122.0220633}, {"type": "node", "id": 7172930337, "lat": 46.7579569, "lon": -122.0219506}, {"type": "node", "id": 7172930338, "lat": 46.7580074, "lon": -122.0218152}, {"type": "node", "id": 7172930339, "lat": 46.7580901, "lon": -122.0218138}, {"type": "node", "id": 7172930340, "lat": 46.7580993, "lon": -122.0223074}, {"type": "node", "id": 7172930341, "lat": 46.7579698, "lon": -122.02231}, {"type": "node", "id": 7172930342, "lat": 46.7579532, "lon": -122.0221666}, {"type": "node", "id": 7172930344, "lat": 46.7579137, "lon": -122.0216784}, {"type": "node", "id": 7172930346, "lat": 46.757944, "lon": -122.0214289}, {"type": "node", "id": 7640949188, "lat": 46.7595348, "lon": -122.04106, "tags": {"addr:city": "Ashford", "addr:housenumber": "29508", "addr:postcode": "98304", "addr:state": "WA", "addr:street": "National Park Highway", "amenity": "cafe", "cuisine": "coffee_shop", "diet:gluten_free": "yes", "diet:vegetarian": "no", "internet_access": "no", "name": "Rise & Grind", "opening_hours": "Mo-Fr 05:30-18:00; Sa,Su 06:00-16:00"}}, {"type": "node", "id": 7641692601, "lat": 46.7587457, "lon": -122.0300612}, {"type": "node", "id": 7729721687, "lat": 46.7576089, "lon": -121.9836996, "tags": {"name": "Jacob's Barber Shop", "shop": "hairdresser"}}, {"type": "node", "id": 7729721688, "lat": 46.7593642, "lon": -122.0326339, "tags": {"addr:city": "Ashford", "addr:housenumber": "30319", "addr:postcode": "98304", "addr:state": "WA", "addr:street": "National Park Highway", "name": "Laundromat", "shop": "laundry"}}, {"type": "node", "id": 8143375413, "lat": 46.758648, "lon": -122.0296664}, {"type": "node", "id": 8143375414, "lat": 46.7586726, "lon": -122.0296663}, {"type": "node", "id": 8143375415, "lat": 46.7586723, "lon": -122.0295913}, {"type": "node", "id": 8143375416, "lat": 46.7586432, "lon": -122.0295915}, {"type": "node", "id": 8143402417, "lat": 46.758643, "lon": -122.0295247}, {"type": "node", "id": 8143402418, "lat": 46.7584925, "lon": -122.0295256}, {"type": "node", "id": 8143402419, "lat": 46.7585185, "lon": -122.0296784}, {"type": "node", "id": 8143402420, "lat": 46.7586481, "lon": -122.0296775}, {"type": "node", "id": 11014924605, "lat": 46.757547, "lon": -121.9839597, "tags": {"amenity": "vending_machine", "name": "Firewood Bundles", "vending": "firewood"}}, {"type": "node", "id": 11014924705, "lat": 46.7597728, "lon": -122.034021, "tags": {"amenity": "restaurant", "name": "Whittaker's Bunkhouse Restaurant"}}, {"type": "node", "id": 11512950530, "lat": 46.7587815, "lon": -122.0302069}, {"type": "node", "id": 11512950531, "lat": 46.7586981, "lon": -122.0302508}, {"type": "node", "id": 11512950532, "lat": 46.7586622, "lon": -122.030105}, {"type": "node", "id": 12158728719, "lat": 46.7601522, "lon": -122.0387593, "tags": {"amenity": "polling_station", "location": "outdoor", "polling_station": "ballot_box"}}, {"type": "node", "id": 12532287029, "lat": 46.7622586, "lon": -122.0385363}, {"type": "node", "id": 12532287030, "lat": 46.7622286, "lon": -122.0384761}, {"type": "node", "id": 12532287031, "lat": 46.7622051, "lon": -122.038501}, {"type": "node", "id": 12532287032, "lat": 46.7622351, "lon": -122.0385612}, {"type": "node", "id": 12731754131, "lat": 46.7600613, "lon": -122.0390128}, {"type": "node", "id": 12731754132, "lat": 46.7600995, "lon": -122.0378686}, {"type": "node", "id": 12731754133, "lat": 46.7606592, "lon": -122.0379272}, {"type": "node", "id": 12731754134, "lat": 46.760601, "lon": -122.0390714}, {"type": "node", "id": 12731754151, "lat": 46.7598361, "lon": -122.0397062}, {"type": "node", "id": 12731754152, "lat": 46.7590522, "lon": -122.0396311}, {"type": "node", "id": 12844869989, "lat": 46.7584926, "lon": -122.0295615}, {"type": "node", "id": 12844869990, "lat": 46.7583738, "lon": -122.0299791}, {"type": "node", "id": 12844869991, "lat": 46.7583334, "lon": -122.0298275}, {"type": "node", "id": 12844869992, "lat": 46.7582923, "lon": -122.0300254}, {"type": "node", "id": 12844869993, "lat": 46.7584511, "lon": -122.0312287}, {"type": "node", "id": 12844869994, "lat": 46.7584493, "lon": -122.0313308}, {"type": "node", "id": 12844869995, "lat": 46.7585493, "lon": -122.0312324}, {"type": "node", "id": 12844880709, "lat": 46.7603915, "lon": -122.0359447}, {"type": "node", "id": 12844880710, "lat": 46.7605397, "lon": -122.0358836}, {"type": "node", "id": 12844880711, "lat": 46.7605553, "lon": -122.0359644}, {"type": "node", "id": 12844880712, "lat": 46.7604072, "lon": -122.0360255}, {"type": "node", "id": 12844880713, "lat": 46.7601085, "lon": -122.0349938}, {"type": "node", "id": 12844880714, "lat": 46.7601976, "lon": -122.0349522}, {"type": "node", "id": 12844880715, "lat": 46.7602179, "lon": -122.0350452}, {"type": "node", "id": 12844880716, "lat": 46.7601288, "lon": -122.0350868}, {"type": "node", "id": 13199527951, "lat": 46.7604181, "lon": -122.0356621}, {"type": "node", "id": 13199527952, "lat": 46.7604346, "lon": -122.0357382}, {"type": "node", "id": 13199527953, "lat": 46.7603318, "lon": -122.0357855}, {"type": "node", "id": 13199527954, "lat": 46.7603154, "lon": -122.0357094}, {"type": "node", "id": 13199987884, "lat": 46.7595459, "lon": -122.0346536}, {"type": "node", "id": 13199987885, "lat": 46.7596915, "lon": -122.0352713}, {"type": "node", "id": 13199987886, "lat": 46.759439, "lon": -122.0353982}, {"type": "node", "id": 13199987887, "lat": 46.7592933, "lon": -122.0347806}, {"type": "node", "id": 13199987891, "lat": 46.7594606, "lon": -122.0322897, "tags": {"addr:city": "Ashford", "addr:housenumber": "30319", "addr:postcode": "98304", "addr:state": "WA", "addr:street": "National Park Highway", "amenity": "restaurant", "contact:facebook": "https://www.facebook.com/pages/The-Highlander/147552108623560", "cuisine": "sandwich;american;burger", "diet:vegetarian": "yes", "name": "Highlander", "phone": "+1-360-596-0633", "website:menu": "https://places.singleplatform.com/highlander-steak-house/menu#menu_978923"}}, {"type": "node", "id": 13201003325, "lat": 46.7598521, "lon": -122.0395382}, {"type": "way", "id": 181219344, "nodes": [1916640348, 1916640346, 1916640347, 1916640349, 1916640348], "tags": {"addr:city": "Ashford", "addr:housenumber": "29716", "addr:postcode": "98304", "addr:state": "WA", "addr:street": "National Park Highway", "building": "yes", "diet:gluten_free": "yes", "name": "Ashford Valley Grocery", "opening_hours": "Mo-Su 05:00-22:00", "shop": "convenience"}}, {"type": "way", "id": 438956917, "nodes": [4419219991, 4365938837, 4365938838, 4365938839, 4365938854, 4365938840, 4365938841, 4419219991], "tags": {"amenity": "parking"}}, {"type": "way", "id": 438957899, "nodes": [4365954072, 12844869994, 12844869993, 12844869995, 4365954074, 4365954075, 4365954072], "tags": {"building": "yes", "name": "Ashford General Store", "shop": "convenience"}}, {"type": "way", "id": 438957900, "nodes": [4365954076, 4365954077, 4365954078, 4365954079, 4365954076], "tags": {"addr:city": "Ashford", "addr:country": "US", "addr:housenumber": "30312", "addr:postcode": "98304", "addr:state": "WA", "addr:street": "National Park Highway", "amenity": "post_office", "building": "public", "name": "United States Post Office Ashford", "operator": "United States Postal Service", "operator:short": "USPS", "operator:type": "public", "operator:website": "https://www.usps.com", "operator:wikidata": "Q668687", "operator:wikipedia": "en:United States Postal Service", "short_name": "USPS"}}, {"type": "way", "id": 438957912, "nodes": [4365954124, 4365954137, 4365954138, 4365954139, 4365954140, 4365954124], "tags": {"amenity": "parking"}}, {"type": "way", "id": 602786390, "nodes": [5724484136, 5724484137, 5724484138, 5724484139, 5724484136], "tags": {"access": "customers", "amenity": "parking", "fee": "no", "parking": "surface", "surface": "gravel"}}, {"type": "way", "id": 602786391, "nodes": [5724484140, 5724484141, 5724484142, 5724484143, 5724484140], "tags": {"access": "customers", "amenity": "parking", "parking": "surface", "surface": "gravel"}}, {"type": "way", "id": 602786392, "nodes": [5724484144, 5724484145, 5724484146, 5724484147, 5724484148, 5724484144], "tags": {"amenity": "restaurant", "building": "yes", "check_date": "2023-06-29", "cuisine": "ukrainian", "delivery": "no", "name": "Ukrainian Cuisine Restaurant", "smoking": "no", "website": "https://paradisevillagelodge.com/"}}, {"type": "way", "id": 602786393, "nodes": [5724484145, 5724484149, 5724484150, 5724484146, 5724484145], "tags": {"building": "yes", "name": "Paradise Village", "shop": "bakery"}}, {"type": "way", "id": 684882121, "nodes": [6417057697, 6417057696, 6417057695, 865178064, 6417057697], "tags": {"amenity": "toilets", "building": "yes"}}, {"type": "way", "id": 684882122, "nodes": [6417057700, 6417057699, 865177857, 6417057698, 6417057700], "tags": {"amenity": "parking"}}, {"type": "way", "id": 768281583, "nodes": [7172928046, 7172928045, 7172928044, 7172928043, 7172928046], "tags": {"amenity": "parking", "parking": "surface"}}, {"type": "way", "id": 768281584, "nodes": [7172928050, 7172928049, 7172928048, 7172928047, 7172928050], "tags": {"amenity": "parking", "parking": "surface"}}, {"type": "way", "id": 768281585, "nodes": [7172928059, 7172928058, 7172928057, 7172928056, 7172928055, 7172928054, 7172928053, 7172928052, 7172928051, 7172928059], "tags": {"amenity": "parking", "parking": "surface"}}, {"type": "way", "id": 768281595, "nodes": [7172930346, 7172930327, 7172930326, 7172930325, 7172930346], "tags": {"amenity": "parking", "parking": "surface"}}, {"type": "way", "id": 768281597, "nodes": [7172930331, 7172930330, 7172930344, 7172930329, 7172930331], "tags": {"amenity": "parking", "parking": "surface"}}, {"type": "way", "id": 768281598, "nodes": [7172930335, 7172930334, 7172930333, 7172930332, 7172930335], "tags": {"amenity": "parking", "parking": "surface"}}, {"type": "way", "id": 768281599, "nodes": [7172930341, 7172930340, 7172930339, 7172930338, 7172930337, 7172930336, 4365954120, 7172930342, 7172930341], "tags": {"amenity": "parking", "parking": "surface"}}, {"type": "way", "id": 874822159, "nodes": [8143402420, 8143402419, 4280761587, 12844869989, 8143402418, 8143402417, 8143375416, 8143375415, 8143375414, 8143375413, 8143402420], "tags": {"addr:city": "Ashford", "addr:country": "US", "addr:housenumber": "30517", "addr:state": "WA", "addr:street": "National Park Highway", "building": "house", "name": "Joan Painter Art Gallery", "shop": "art"}}, {"type": "way", "id": 1239278296, "nodes": [7641692601, 11512950530, 11512950531, 11512950532, 7641692601], "tags": {"building": "yes", "name": "Ashford Water District Maintenance", "office": "government", "source": "microsoft/BuildingFootprints"}}, {"type": "way", "id": 1354242686, "nodes": [12532287032, 12532287029, 12532287030, 12532287031, 12532287032], "tags": {"amenity": "toilets", "building": "yes"}}, {"type": "way", "id": 1375077482, "nodes": [12731754131, 12731754132, 12731754133, 12731754134, 12731754131], "tags": {"amenity": "fire_station", "name": "Ashford Fire Station 23", "operator": "District 23"}}, {"type": "way", "id": 1387616811, "nodes": [12844869992, 12844869990, 12844869991, 4339367989, 12844869992], "tags": {"addr:housenumber": "30510", "addr:street": "State Route 706 East", "artwork_type": "photography", "building": "yes", "name": "Ashford Creek Pottery", "phone": "+1-360-569-1000", "shop": "art", "website": "https://www.ashfordcreekgallery.com/"}}, {"type": "way", "id": 1387616821, "nodes": [12844880712, 12844880711, 12844880710, 12844880709, 12844880712], "tags": {"addr:city": "Ashford", "addr:postcode": "98304", "addr:state": "WA", "addr:street": "National Park Highway", "building": "yes", "name": "Mountain Time Wellness @ Rainier Basecamp", "shop": "massage"}}, {"type": "way", "id": 1387616822, "nodes": [12844880716, 12844880715, 12844880714, 12844880713, 12844880716], "tags": {"access": "yes", "amenity": "toilets", "building": "yes", "wheelchair": "yes"}}, {"type": "way", "id": 1436076010, "nodes": [13199527951, 13199527952, 13199527953, 13199527954, 13199527951], "tags": {"amenity": "shelter", "building": "yes"}}, {"type": "way", "id": 1436096777, "nodes": [13199987884, 13199987885, 13199987886, 13199987887, 13199987884], "tags": {"amenity": "parking", "capacity": "18", "operator": "Rainier Basecamp Day Use Parking", "parking": "surface", "surface": "grass"}}, {"type": "way", "id": 1436216439, "nodes": [12731754152, 4774229652, 13201003325, 12731754151, 12731754152], "tags": {"name": "Ashford Valley Mini Storage", "shop": "storage_rental"}}]}