{"version": 0.6, "generator": "Overpass API 0.7.62.8 e802775f", "osm3s": {"timestamp_osm_base": "2025-12-06T04:31:30Z", "copyright": "The data included in this document is from www.openstreetmap.org. The data is made available under ODbL."}, "elements": [{"type": "node", "id": 2407517654, "lat": 45.2588848, "lon": -111.3104917}, {"type": "node", "id": 2407517655, "lat": 45.2589123, "lon": -111.3107016}, {"type": "node", "id": 2407517656, "lat": 45.2589667, "lon": -111.3106872}, {"type": "node", "id": 2407517657, "lat": 45.2589706, "lon": -111.3107166}, {"type": "node", "id": 2407517658, "lat": 45.2590676, "lon": -111.3106618}, {"type": "node", "id": 2407517659, "lat": 45.2590713, "lon": -111.31069}, {"type": "node", "id": 2407517660, "lat": 45.2590812, "lon": -111.3104396}, {"type": "node", "id": 2407517661, "lat": 45.2590898, "lon": -111.3105048}, {"type": "node", "id": 2407517662, "lat": 45.2590966, "lon": -111.310503}, {"type": "node", "id": 2407517663, "lat": 45.2591158, "lon": -111.310649}, {"type": "node", "id": 2411088156, "lat": 45.2597142, "lon": -111.3134543, "tags": {"addr:city": "Big Sky", "addr:country": "US", "addr:housenumber": "120", "addr:postcode": "59716", "addr:state": "MT", "addr:street": "Big Pine Drive", "addr:unit": "1", "amenity": "restaurant", "cuisine": "pizza;coffee_shop", "name": "Blue Moon Bakery", "shop": "bakery"}}, {"type": "node", "id": 2411088172, "lat": 45.2595365, "lon": -111.3128416, "tags": {"addr:city": "Big Sky", "addr:country": "US", "addr:state": "MT", "amenity": "bar", "name": "Broken Spoke"}}, {"type": "node", "id": 2411088178, "lat": 45.2602641, "lon": -111.3072835, "tags": {"addr:city": "Big Sky", "addr:country": "US", "addr:housenumber": "47", "addr:postcode": "59716", "addr:state": "MT", "addr:street": "Town Center Avenue", "amenity": "restaurant", "cuisine": "thai", "name": "Lotus Pad"}}, {"type": "node", "id": 2411102225, "lat": 45.2597617, "lon": -111.3094926, "tags": {"addr:city": "Big Sky", "addr:country": "US", "addr:housenumber": "112", "addr:postcode": "59716", "addr:state": "MT", "addr:street": "Ousel Falls Road", "amenity": "restaurant", "cuisine": "chinese", "name": "China Cafe"}}, {"type": "node", "id": 2411102226, "lat": 45.259642, "lon": -111.3097496, "tags": {"addr:city": "Big Sky", "addr:country": "US", "addr:housenumber": "118", "addr:postcode": "59716", "addr:state": "MT", "addr:street": "Ousel Falls Road", "amenity": "restaurant", "cuisine": "mexican", "name": "Alberto's Mexican Cuisine"}}, {"type": "node", "id": 2411102258, "lat": 45.2596197, "lon": -111.3107785}, {"type": "node", "id": 2411102259, "lat": 45.2596292, "lon": -111.3108676}, {"type": "node", "id": 2411102260, "lat": 45.2596358, "lon": -111.3109339}, {"type": "node", "id": 2411102261, "lat": 45.2596416, "lon": -111.3108649}, {"type": "node", "id": 2411102262, "lat": 45.2596453, "lon": -111.3110223}, {"type": "node", "id": 2411102263, "lat": 45.2596487, "lon": -111.3109311}, {"type": "node", "id": 2411102264, "lat": 45.2597075, "lon": -111.3107464}, {"type": "node", "id": 2411102265, "lat": 45.2597089, "lon": -111.3107592}, {"type": "node", "id": 2411102266, "lat": 45.2597104, "lon": -111.3109932}, {"type": "node", "id": 2411102267, "lat": 45.259712, "lon": -111.3110078}, {"type": "node", "id": 2411102268, "lat": 45.2597347, "lon": -111.3109879}, {"type": "node", "id": 2411102269, "lat": 45.2597373, "lon": -111.3110121}, {"type": "node", "id": 2411102270, "lat": 45.2598001, "lon": -111.3107263}, {"type": "node", "id": 2411102271, "lat": 45.2598012, "lon": -111.310736}, {"type": "node", "id": 2411102272, "lat": 45.2598298, "lon": -111.3109656}, {"type": "node", "id": 2411102273, "lat": 45.2598326, "lon": -111.3109915}, {"type": "node", "id": 2411102274, "lat": 45.2598549, "lon": -111.3109601}, {"type": "node", "id": 2411102275, "lat": 45.2598565, "lon": -111.3109746}, {"type": "node", "id": 2411102276, "lat": 45.2598924, "lon": -111.3107162}, {"type": "node", "id": 2411102277, "lat": 45.2598939, "lon": -111.3108006}, {"type": "node", "id": 2411102278, "lat": 45.2599013, "lon": -111.310799}, {"type": "node", "id": 2411102279, "lat": 45.2599023, "lon": -111.3108789}, {"type": "node", "id": 2411102280, "lat": 45.2599139, "lon": -111.3108764}, {"type": "node", "id": 2411102282, "lat": 45.2599229, "lon": -111.3109602}, {"type": "node", "id": 2412751715, "lat": 45.2603409, "lon": -111.3094657, "tags": {"name": "Grizzly Outfitters", "shop": "outdoor"}}, {"type": "node", "id": 2412751716, "lat": 45.2602734, "lon": -111.30998, "tags": {"addr:city": "Big Sky", "addr:housenumber": "33", "addr:postcode": "59716", "addr:state": "MT", "addr:street": "Lone Peak Drive", "amenity": "bar", "name": "The Rocks"}}, {"type": "node", "id": 4630844928, "lat": 45.2607174, "lon": -111.3026219, "tags": {"name": "Roxy's Market", "shop": "supermarket"}}, {"type": "node", "id": 7541711653, "lat": 45.2600729, "lon": -111.3062001}, {"type": "node", "id": 7541711667, "lat": 45.2601183, "lon": -111.3062359}, {"type": "node", "id": 7541711668, "lat": 45.2601043, "lon": -111.3061449}, {"type": "node", "id": 7541711669, "lat": 45.2600662, "lon": -111.3061568}, {"type": "node", "id": 7541711670, "lat": 45.2600802, "lon": -111.3062477}, {"type": "node", "id": 8638957206, "lat": 45.2591844, "lon": -111.3126426, "tags": {"addr:city": "Big Sky", "addr:housenumber": "115", "addr:postcode": "59716", "addr:state": "MT", "addr:street": "Aspen Leaf Drive", "name": "Chewy's Chop Shop", "shop": "hairdresser"}}, {"type": "node", "id": 8639047393, "lat": 45.2590938, "lon": -111.3126426, "tags": {"addr:city": "Big Sky", "addr:housenumber": "115", "addr:postcode": "59716", "addr:state": "MT", "addr:street": "Aspen Leaf Drive", "amenity": "bar", "name": "Brothel Bikes"}}, {"type": "node", "id": 8639093288, "lat": 45.2592033, "lon": -111.3136753, "tags": {"amenity": "restaurant", "cuisine": "burger;sandwich;regional", "name": "By Word of Mouth"}}, {"type": "node", "id": 8639095461, "lat": 45.2603719, "lon": -111.3080641, "tags": {"addr:city": "Big Sky", "addr:housenumber": "25", "addr:postcode": "59716", "addr:state": "MT", "addr:street": "Town Center Avenue", "amenity": "restaurant", "cuisine": "coffee_shop;breakfast;bar;dinner", "diet:gluten_free": "yes", "diet:lactose_free": "yes", "diet:meat": "yes", "diet:vegetarian": "yes", "name": "ACRE Kitchen"}}, {"type": "node", "id": 8639098560, "lat": 45.2590862, "lon": -111.312825, "tags": {"addr:city": "Big Sky", "addr:housenumber": "115", "addr:postcode": "59716", "addr:state": "MT", "addr:street": "Aspen Leaf Drive", "addr:unit": "1F", "name": "Sit and Spin", "self_service": "yes", "shop": "laundry"}}, {"type": "node", "id": 8639130963, "lat": 45.2602241, "lon": -111.3036501}, {"type": "node", "id": 8639130964, "lat": 45.2602034, "lon": -111.3033574}, {"type": "node", "id": 8639130965, "lat": 45.2598146, "lon": -111.3034582}, {"type": "node", "id": 8639130966, "lat": 45.2598517, "lon": -111.3037466}, {"type": "node", "id": 8639130967, "lat": 45.2599364, "lon": -111.3068888, "tags": {"amenity": "restaurant", "cuisine": "chicken;bar;burger", "name": "Tips Up"}}, {"type": "node", "id": 8639135785, "lat": 45.2603134, "lon": -111.3077683, "tags": {"addr:city": "Big Sky", "addr:housenumber": "47", "addr:state": "MT", "addr:street": "Town Center Avenue", "amenity": "restaurant", "cuisine": "pizza", "diet:local": "yes", "name": "Pinky G's", "opening_hours": "12:00-21:00", "phone": "+1 406-995-7492", "website": "https://pinkygs.com/bigsky/"}}, {"type": "node", "id": 9356917976, "lat": 45.260349, "lon": -111.3097872, "tags": {"office": "estate_agent"}}, {"type": "node", "id": 9356917977, "lat": 45.2602027, "lon": -111.3066718, "tags": {"amenity": "restaurant", "cuisine": "sushi", "name": "Blue Buddha Sushi Lounge"}}, {"type": "node", "id": 9356917978, "lat": 45.260383, "lon": -111.3061515, "tags": {"shop": "interior_decoration"}}, {"type": "node", "id": 9356917979, "lat": 45.2603736, "lon": -111.3059932, "tags": {"shop": "boutique"}}, {"type": "node", "id": 9356917980, "lat": 45.260349, "lon": -111.3056231, "tags": {"amenity": "restaurant"}}, {"type": "node", "id": 9356917981, "lat": 45.2600988, "lon": -111.3081526, "tags": {"name": "Rhinestone Cowgirl", "shop": "boutique"}}, {"type": "node", "id": 9356917982, "lat": 45.260055, "lon": -111.3077645, "tags": {"name": "East Slope Outdoors", "shop": "clothes"}}, {"type": "node", "id": 9356917983, "lat": 45.2604105, "lon": -111.3083317, "tags": {"addr:city": "Big Sky", "addr:housenumber": "25", "addr:postcode": "59716", "addr:state": "MT", "addr:street": "Town Center Avenue", "addr:unit": "161195", "clothes": "women;men;outdoor", "name": "Montana Supply Company", "opening_hours": "10:00-18:00", "phone": "+1 406-995-3490", "shop": "clothes"}}, {"type": "node", "id": 11786936080, "lat": 45.2602208, "lon": -111.3036248}, {"type": "node", "id": 11786936081, "lat": 45.260272, "lon": -111.3036115}, {"type": "node", "id": 11786936082, "lat": 45.2602541, "lon": -111.3034723}, {"type": "node", "id": 11786936083, "lat": 45.2602193, "lon": -111.3034813}, {"type": "node", "id": 12177328094, "lat": 45.2769881, "lon": -111.324653, "tags": {"addr:city": "Gallatin Gateway", "addr:housenumber": "750", "addr:postcode": "59730", "addr:state": "MT", "addr:street": "Lone Mountain Ranch Road", "amenity": "restaurant", "cuisine": "steak_house", "name": "Horn and Cantle", "opening_hours": "Mo-Su 07:00-21:00", "phone": "+14069952782", "website": "https://lonemountainranch.com"}}, {"type": "way", "id": 232400741, "nodes": [2407517663, 2407517658, 2407517659, 2407517657, 2407517656, 2407517655, 2407517654, 2407517660, 2407517661, 2407517662, 2407517663], "tags": {"addr:city": "Big Sky", "addr:country": "US", "addr:state": "MT", "building": "yes", "name": "Hungry Moose", "shop": "greengrocer", "source": "Bing 2011"}}, {"type": "way", "id": 232789945, "nodes": [2411102282, 2411102280, 2411102279, 2411102277, 2411102278, 2411102276, 2411102271, 2411102270, 2411102264, 2411102265, 2411102258, 2411102259, 2411102261, 2411102263, 2411102260, 2411102262, 2411102267, 2411102266, 2411102268, 2411102269, 2411102273, 2411102272, 2411102274, 2411102275, 2411102282], "tags": {"addr:city": "Big Sky", "addr:country": "US", "addr:state": "MT", "amenity": "bar", "building": "yes", "name": "Choppers", "source": "Bing 2011"}}, {"type": "way", "id": 806466234, "nodes": [7541711667, 7541711668, 7541711669, 7541711653, 7541711670, 7541711667], "tags": {"amenity": "cafe", "building": "yes", "name": "The Juice Box"}}, {"type": "way", "id": 931881851, "nodes": [8639130963, 11786936080, 11786936081, 11786936082, 11786936083, 8639130964, 8639130965, 8639130966, 8639130963], "tags": {"building": "yes", "name": "The Cave", "shop": "beverages;gift"}}]}