{"version": 0.6, "generator": "Overpass API 0.7.62.8 e802775f", "osm3s": {"timestamp_osm_base": "2025-12-06T05:55:56Z", "copyright": "The data included in this document is from www.openstreetmap.org. The data is made available under ODbL."}, "elements": [{"type": "node", "id": 1571099261, "lat": 43.5639392, "lon": -116.5726513, "tags": {"amenity": "bar", "name": "The Getaway Bar and Grill"}}, {"type": "node", "id": 2349948465, "lat": 43.5480893, "lon": -116.5739742, "tags": {"amenity": "restaurant", "cuisine": "mexican", "delivery": "no", "internet_access": "no", "name": "Chapala Mexican Restaurant", "outdoor_seating": "no", "smoking": "outside", "takeaway": "yes", "wheelchair": "yes"}}, {"type": "node", "id": 2399002616, "lat": 43.5556593, "lon": -116.573707, "tags": {"addr:city": "Nampa", "addr:housenumber": "1311", "addr:postcode": "83686", "addr:state": "ID", "addr:street": "12th Avenue Road", "drive_through": "no", "name": "State Liquor Store", "opening_hours": "12:00-18:00", "shop": "alcohol"}}, {"type": "node", "id": 2399002617, "lat": 43.555444, "lon": -116.5737107, "tags": {"addr:city": "Nampa", "addr:housenumber": "1323", "addr:postcode": "83686", "addr:state": "ID", "addr:street": "12th Avenue Road", "brand": "Dollar Tree", "brand:wikidata": "Q5289230", "check_date": "2024-07-11", "name": "Dollar Tree", "opening_hours": "10:00-19:00", "shop": "variety_store", "website": "https://www.dollartree.com/locations/id/nampa/3181/"}}, {"type": "node", "id": 2399002618, "lat": 43.5545674, "lon": -116.573225, "tags": {"addr:city": "Nampa", "addr:housenumber": "104", "addr:postcode": "83686", "addr:state": "ID", "addr:street": "West Iowa Avenue", "amenity": "restaurant", "cuisine": "pizza", "name": "Idaho Pizza"}}, {"type": "node", "id": 2399002624, "lat": 43.5497764, "lon": -116.5706432}, {"type": "node", "id": 2399714302, "lat": 43.561981, "lon": -116.573441}, {"type": "node", "id": 2399755222, "lat": 43.5628806, "lon": -116.5727257}, {"type": "node", "id": 2399755225, "lat": 43.5637163, "lon": -116.5722892}, {"type": "node", "id": 2399755227, "lat": 43.5652747, "lon": -116.5725662, "tags": {"name": "Chevron Service Station", "shop": "car_repair"}}, {"type": "node", "id": 2399755228, "lat": 43.564186, "lon": -116.572722}, {"type": "node", "id": 2399755230, "lat": 43.5647094, "lon": -116.574009, "tags": {"addr:city": "Nampa", "addr:housenumber": "421", "addr:postcode": "83686-9999", "addr:state": "ID", "addr:street": "12th Avenue Road", "brand": "True Value", "brand:wikidata": "Q7847545", "name": "True Value Hardware", "phone": "+1 208-461-6077", "ref": "18745", "shop": "hardware", "website": "https://www.truevalue.com/nampatruevalue"}}, {"type": "node", "id": 2399755231, "lat": 43.5641103, "lon": -116.5736234, "tags": {"amenity": "restaurant", "name": "Sunrise Inn"}}, {"type": "node", "id": 2399755232, "lat": 43.5638216, "lon": -116.5734792, "tags": {"amenity": "restaurant", "cuisine": "pizza", "name": "Chicago Connection"}}, {"type": "node", "id": 2399755233, "lat": 43.5639318, "lon": -116.573513, "tags": {"name": "Glamour & Co.", "shop": "hairdresser"}}, {"type": "node", "id": 2399755234, "lat": 43.5640132, "lon": -116.57355, "tags": {"amenity": "restaurant", "name": "King Pho", "not:brand:wikidata": "Q839466"}}, {"type": "node", "id": 2399755235, "lat": 43.564219, "lon": -116.573714, "tags": {"name": "Idaho Dry Cleaning", "shop": "dry_cleaning"}}, {"type": "node", "id": 2399755236, "lat": 43.5743731, "lon": -116.5669066, "tags": {"addr:city": "Nampa", "addr:housenumber": "715", "addr:postcode": "83651", "addr:state": "ID", "addr:street": "12th Avenue South", "brand": "Albertsons", "brand:wikidata": "Q2831861", "name": "Albertsons", "opening_hours": "Mo-Fr 07:00-23:00; Sa 07:00-23:00; Su 07:00-23:00", "phone": "+1 208-466-2481", "shop": "supermarket", "website": "https://local.albertsons.com/id/nampa/715-12th-ave-s.html"}}, {"type": "node", "id": 2399755239, "lat": 43.5734111, "lon": -116.5660721, "tags": {"name": "Pawn One", "shop": "pawnbroker"}}, {"type": "node", "id": 2400997000, "lat": 43.562716, "lon": -116.5786334, "tags": {"addr:city": "Nampa", "addr:housenumber": "619", "addr:postcode": "83686", "addr:state": "ID", "addr:street": "South Canyon Street", "government": "ministry", "name": "Nampa School District 131", "office": "government", "phone": "+1-208-468-4600", "website": "https://www.nsd131.org/"}}, {"type": "node", "id": 2400997001, "lat": 43.5623713, "lon": -116.57342, "tags": {"addr:city": "Nampa", "addr:housenumber": "705", "addr:postcode": "83686", "addr:state": "ID", "addr:street": "12th Avenue Road", "brand": "AAMCO", "brand:wikidata": "Q4649902", "name": "AAMCO", "phone": "+1-208-468-3100", "service:vehicle:transmission": "yes", "shop": "car_repair"}}, {"type": "node", "id": 2400997064, "lat": 43.562241, "lon": -116.5656933}, {"type": "node", "id": 2400997093, "lat": 43.5642917, "lon": -116.5648985}, {"type": "node", "id": 2401069297, "lat": 43.5704861, "lon": -116.571845, "tags": {"brand": "Grocery Outlet", "brand:wikidata": "Q5609934", "name": "Grocery Outlet", "official_name": "Grocery Outlet Bargain Market", "shop": "supermarket"}}, {"type": "node", "id": 2401069298, "lat": 43.5695393, "lon": -116.572277, "tags": {"beauty": "spa", "name": "Charisma Salon and Spa", "shop": "beauty"}}, {"type": "node", "id": 2401069300, "lat": 43.568872, "lon": -116.5732181, "tags": {"name": "Hasbrouck House", "shop": "beauty"}}, {"type": "node", "id": 2401069307, "lat": 43.570162, "lon": -116.570653}, {"type": "node", "id": 2401069311, "lat": 43.5708387, "lon": -116.569703, "tags": {"brand": "Avon", "brand:wikidata": "Q791285", "name": "Avon", "shop": "cosmetics"}}, {"type": "node", "id": 2401069312, "lat": 43.570902, "lon": -116.5695938, "tags": {"name": "Bent Corners Used Books", "shop": "books"}}, {"type": "node", "id": 2401069313, "lat": 43.5716543, "lon": -116.569766, "tags": {"addr:city": "Nampa", "addr:housenumber": "1021", "addr:postcode": "83651", "addr:state": "ID", "addr:street": "12th Avenue South", "amenity": "restaurant", "cuisine": "pizza", "name": "Flying Pie Pizzaria"}}, {"type": "node", "id": 2401069315, "lat": 43.5710883, "lon": -116.57032, "tags": {"name": "Nampa Total Car Care", "phone": "+1-208-466-9754", "shop": "car_repair"}}, {"type": "node", "id": 2401069317, "lat": 43.5712193, "lon": -116.569305, "tags": {"name": "The Chrome Comb", "shop": "hairdresser"}}, {"type": "node", "id": 2401069322, "lat": 43.571652, "lon": -116.568456}, {"type": "node", "id": 2401069324, "lat": 43.5721312, "lon": -116.5679804, "tags": {"name": "12th Avenue Cleaners", "shop": "dry_cleaning"}}, {"type": "node", "id": 2401069326, "lat": 43.5723744, "lon": -116.5676982, "tags": {"name": "Henry Insurance Agency", "office": "insurance"}}, {"type": "node", "id": 2401069327, "lat": 43.5727182, "lon": -116.567277, "tags": {"shop": "weapons"}}, {"type": "node", "id": 2401069329, "lat": 43.5729203, "lon": -116.5670915, "tags": {"name": "The Laundromat", "shop": "laundry"}}, {"type": "node", "id": 2401069330, "lat": 43.5730429, "lon": -116.5669542, "tags": {"name": "Bailey and Company Accounting", "office": "accountant"}}, {"type": "node", "id": 2401069332, "lat": 43.574229, "lon": -116.5649725, "tags": {"addr:city": "Nampa", "addr:housenumber": "624", "addr:postcode": "83651", "addr:state": "ID", "addr:street": "12th Avenue South", "amenity": "restaurant", "cuisine": "sushi", "delivery": "no", "name": "Pacific Sushi", "opening_hours": "Mo-Th 11:00-14:30,16:30-21:30, Fr-Sa 11:00-21:00", "phone": "+12084675737", "website:menu": "https://places.singleplatform.com/pacific-sushi/menu"}}, {"type": "node", "id": 2401069335, "lat": 43.5743288, "lon": -116.5648433, "tags": {"addr:city": "Nampa", "addr:housenumber": "624", "addr:postcode": "83651", "addr:state": "ID", "addr:street": "12th Avenue South", "brand": "Cricket Wireless", "brand:wikidata": "Q5184987", "name": "Cricket Wireless", "opening_hours": "Mo-Fr 10:00-19:00, Sa 10:00-18:00, Su 12:00-17:00", "phone": "+12084752694", "shop": "mobile_phone", "short_name": "Cricket", "website": "https://www.cricketwireless.com/stores/ll/US/ID/Nampa/620-12th-Ave-S"}}, {"type": "node", "id": 2401069336, "lat": 43.5745261, "lon": -116.564787, "tags": {"addr:city": "Nampa", "addr:housenumber": "608", "addr:postcode": "83651", "addr:state": "ID", "addr:street": "12th Avenue South", "name": "Ken's Pawn and Jewelry", "opening_hours": "Mo-Sa 09:30-19:00", "phone": "+12084669647", "shop": "pawnbroker", "website": "https://kenspawn.com/"}}, {"type": "node", "id": 2401069337, "lat": 43.5745512, "lon": -116.5644966, "tags": {"addr:city": "Nampa", "addr:housenumber": "604", "addr:postcode": "83651", "addr:state": "ID", "addr:street": "6th Street South", "addr:unit": "108", "name": "Xtreme Fit Nutrition", "shop": "nutrition_supplements"}}, {"type": "node", "id": 2401069340, "lat": 43.5757719, "lon": -116.564214, "tags": {"addr:city": "Nampa", "addr:housenumber": "503", "addr:postcode": "83651", "addr:state": "ID", "addr:street": "12th Avenue South", "name": "Extreme Sound", "phone": "+1-208-461-6242", "shop": "car_repair"}}, {"type": "node", "id": 2401069341, "lat": 43.5762524, "lon": -116.5636251, "tags": {"name": "Nampa Funeral Home", "shop": "funeral_directors"}}, {"type": "node", "id": 2401069342, "lat": 43.575849, "lon": -116.5631336}, {"type": "node", "id": 2401069343, "lat": 43.575971, "lon": -116.5632063}, {"type": "node", "id": 2401069345, "lat": 43.5764431, "lon": -116.563319, "tags": {"addr:city": "Nampa", "addr:housenumber": "403", "addr:postcode": "83651", "addr:state": "ID", "addr:street": "12th Avenue South", "brand": "The Salvation Army", "brand:wikidata": "Q188307", "name": "The Salvation Army", "shop": "charity"}}, {"type": "node", "id": 2401069346, "lat": 43.5768188, "lon": -116.562877, "tags": {"addr:city": "Nampa", "addr:housenumber": "323", "addr:postcode": "83651", "addr:state": "ID", "addr:street": "12th Avenue South", "name": "Dillabaugh's Flooring America", "shop": "doityourself"}}, {"type": "node", "id": 2401069349, "lat": 43.5768654, "lon": -116.5620393, "tags": {"name": "Downtown Printing and Copy Center", "shop": "copyshop"}}, {"type": "node", "id": 2401069350, "lat": 43.577471, "lon": -116.563046}, {"type": "node", "id": 2401069351, "lat": 43.5769334, "lon": -116.5619332, "tags": {"name": "The Rose Petal Florist", "shop": "florist"}}, {"type": "node", "id": 2401069354, "lat": 43.5773838, "lon": -116.5613818, "tags": {"name": "Cafferty's Cycling", "shop": "bicycle"}}, {"type": "node", "id": 2401069357, "lat": 43.5774829, "lon": -116.5612392, "tags": {"name": "Spencer Scott's Bridal", "shop": "clothes"}}, {"type": "node", "id": 2401069359, "lat": 43.5786376, "lon": -116.5610301}, {"type": "node", "id": 2401069360, "lat": 43.5782365, "lon": -116.5600256}, {"type": "node", "id": 2401069362, "lat": 43.5785401, "lon": -116.5603565}, {"type": "node", "id": 2401069364, "lat": 43.5791301, "lon": -116.5605076}, {"type": "node", "id": 2401069365, "lat": 43.5797834, "lon": -116.560839, "tags": {"brand": "True Value", "brand:wikidata": "Q7847545", "name": "True Value Hardware", "shop": "hardware"}}, {"type": "node", "id": 2401376906, "lat": 43.5505259, "lon": -116.573427, "tags": {"addr:city": "Nampa", "addr:housenumber": "1807", "addr:postcode": "83686", "addr:state": "ID", "addr:street": "12th Avenue Road", "amenity": "restaurant", "brand": "Dickey's Barbecue Pit", "brand:wikidata": "Q19880747", "cuisine": "barbecue", "name": "Dickey's Barbecue Pit"}}, {"type": "node", "id": 2401377006, "lat": 43.5485852, "lon": -116.5733253, "tags": {"alt_name": "Verizon Wireless", "brand": "Verizon", "brand:wikidata": "Q919641", "name": "Verizon", "operator": "Victra", "operator:website": "https://victra.com/stores/id-nampa-12th-ave/", "operator:wikidata": "Q118402656", "shop": "mobile_phone"}}, {"type": "node", "id": 2401377011, "lat": 43.5485248, "lon": -116.5733269, "tags": {"brand": "GameStop", "brand:wikidata": "Q202210", "name": "GameStop", "shop": "video_games", "website": "https://www.gamestop.com/store/us/id/nampa/6946/12th-avenue-rd-nampa-gamestop"}}, {"type": "node", "id": 2408379521, "lat": 43.5601983, "lon": -116.5843336, "tags": {"addr:city": "Nampa", "addr:country": "US", "addr:housenumber": "916", "addr:postcode": "83686", "addr:state": "ID", "addr:street": "Arrowhead Street", "name": "All-Tech Auto Repair", "shop": "car_repair"}}, {"type": "node", "id": 2408379537, "lat": 43.5571262, "lon": -116.573785, "tags": {"addr:city": "Nampa", "addr:country": "US", "addr:housenumber": "1123", "addr:postcode": "83686", "addr:state": "ID", "addr:street": "12th Avenue Road", "amenity": "post_office", "brand": "The UPS Store", "brand:wikidata": "Q7771029", "name": "The UPS Store", "phone": "+1-208-468-0800", "reference": "3067", "shop": "copyshop", "short_name": "UPS", "survey:date": "2013-08-05", "website": "http://www.TheUPSStore.com/3067.htm"}}, {"type": "node", "id": 2966628986, "lat": 43.5762335, "lon": -116.5586271, "tags": {"addr:city": "Nampa", "addr:housenumber": "1407", "addr:postcode": "83651", "addr:state": "ID", "addr:street": "2nd Street South", "name": "Idaho Thrift Store", "phone": "+1-208-546-4151", "shop": "second_hand"}}, {"type": "node", "id": 3485428113, "lat": 43.5577215, "lon": -116.572418}, {"type": "node", "id": 5062350265, "lat": 43.5782822, "lon": -116.558711, "tags": {"name": "Curious Media", "office": "graphic_design", "website": "https://curiousmedia.com/", "wheelchair": "no"}}, {"type": "node", "id": 5062350271, "lat": 43.578403, "lon": -116.5581638}, {"type": "node", "id": 5062350272, "lat": 43.5783221, "lon": -116.5587889, "tags": {"name": "Savage Bakery", "shop": "bakery", "wheelchair": "yes"}}, {"type": "node", "id": 5062350276, "lat": 43.5792044, "lon": -116.559093}, {"type": "node", "id": 5062350283, "lat": 43.5783687, "lon": -116.5588555, "tags": {"amenity": "restaurant", "cuisine": "pizza", "name": "Messenger's Pizza", "wheelchair": "yes"}}, {"type": "node", "id": 5062350290, "lat": 43.5793215, "lon": -116.5593789, "tags": {"amenity": "bar", "name": "Pete's Tavern"}}, {"type": "node", "id": 5062350292, "lat": 43.5781076, "lon": -116.558979, "tags": {"name": "Phoenix Fire Games", "shop": "games", "wheelchair": "yes"}}, {"type": "node", "id": 5870136161, "lat": 43.5733429, "lon": -116.5655}, {"type": "node", "id": 5870136162, "lat": 43.573305, "lon": -116.5655514}, {"type": "node", "id": 5870136163, "lat": 43.5732537, "lon": -116.5654758}, {"type": "node", "id": 5870136164, "lat": 43.5732926, "lon": -116.5654269}, {"type": "node", "id": 5870136165, "lat": 43.5732751, "lon": -116.5654027}, {"type": "node", "id": 5870136166, "lat": 43.5735015, "lon": -116.5651131}, {"type": "node", "id": 5870136167, "lat": 43.5736132, "lon": -116.5652767}, {"type": "node", "id": 5870136168, "lat": 43.5736239, "lon": -116.5652646}, {"type": "node", "id": 5870136169, "lat": 43.5737337, "lon": -116.5654336}, {"type": "node", "id": 5870136170, "lat": 43.5737425, "lon": -116.5654242}, {"type": "node", "id": 5870136171, "lat": 43.5737609, "lon": -116.565451}, {"type": "node", "id": 5870136172, "lat": 43.5737609, "lon": -116.5655221}, {"type": "node", "id": 5870136173, "lat": 43.5737405, "lon": -116.5655489}, {"type": "node", "id": 5870136174, "lat": 43.5737337, "lon": -116.5655382}, {"type": "node", "id": 5870136175, "lat": 43.5736103, "lon": -116.5657005}, {"type": "node", "id": 5870136176, "lat": 43.5736016, "lon": -116.565683}, {"type": "node", "id": 5870136177, "lat": 43.5735326, "lon": -116.5657769}, {"type": "node", "id": 6750679825, "lat": 43.563833, "lon": -116.5722885}, {"type": "node", "id": 6750679826, "lat": 43.563834, "lon": -116.5725855}, {"type": "node", "id": 6750679827, "lat": 43.5637402, "lon": -116.5725861}, {"type": "node", "id": 6750679828, "lat": 43.5637172, "lon": -116.5725524}, {"type": "node", "id": 6750867162, "lat": 43.5642924, "lon": -116.5647424}, {"type": "node", "id": 6750867163, "lat": 43.5642118, "lon": -116.5647422}, {"type": "node", "id": 6750867164, "lat": 43.564212, "lon": -116.5645298}, {"type": "node", "id": 6750867165, "lat": 43.5641043, "lon": -116.5645295}, {"type": "node", "id": 6750867166, "lat": 43.5641039, "lon": -116.564854}, {"type": "node", "id": 6750867167, "lat": 43.5641727, "lon": -116.5648542}, {"type": "node", "id": 6750867168, "lat": 43.5641727, "lon": -116.5648976}, {"type": "node", "id": 6750867171, "lat": 43.5642917, "lon": -116.5648071}, {"type": "node", "id": 6750900002, "lat": 43.5622413, "lon": -116.5658898}, {"type": "node", "id": 6750900003, "lat": 43.5623381, "lon": -116.5658895}, {"type": "node", "id": 6750900004, "lat": 43.5623385, "lon": -116.5661466}, {"type": "node", "id": 6750900005, "lat": 43.5624611, "lon": -116.5661462}, {"type": "node", "id": 6750900006, "lat": 43.5624607, "lon": -116.5658931}, {"type": "node", "id": 6750900007, "lat": 43.5625545, "lon": -116.5658928}, {"type": "node", "id": 6750900008, "lat": 43.5625541, "lon": -116.5656895}, {"type": "node", "id": 6750900009, "lat": 43.562423, "lon": -116.5656899}, {"type": "node", "id": 6750900010, "lat": 43.5624229, "lon": -116.5656295}, {"type": "node", "id": 6750900011, "lat": 43.562369, "lon": -116.5656297}, {"type": "node", "id": 6750900012, "lat": 43.5623691, "lon": -116.565693}, {"type": "node", "id": 7126728662, "lat": 43.57292, "lon": -116.567692}, {"type": "node", "id": 7126738964, "lat": 43.572454, "lon": -116.568334}, {"type": "node", "id": 7126739054, "lat": 43.5767249, "lon": -116.5583589}, {"type": "node", "id": 7126775649, "lat": 43.575826, "lon": -116.568255}, {"type": "node", "id": 7126782249, "lat": 43.580431, "lon": -116.564964}, {"type": "node", "id": 7126782268, "lat": 43.578818, "lon": -116.562411}, {"type": "node", "id": 7126782276, "lat": 43.5758633, "lon": -116.563055}, {"type": "node", "id": 7126786329, "lat": 43.573322, "lon": -116.567409}, {"type": "node", "id": 7126798667, "lat": 43.572384, "lon": -116.568673}, {"type": "node", "id": 7126798851, "lat": 43.572265, "lon": -116.567807}, {"type": "node", "id": 7126800554, "lat": 43.5781367, "lon": -116.560147}, {"type": "node", "id": 7126800768, "lat": 43.569804, "lon": -116.570504}, {"type": "node", "id": 7126803855, "lat": 43.573649, "lon": -116.567177}, {"type": "node", "id": 7126806327, "lat": 43.57577, "lon": -116.568176}, {"type": "node", "id": 7126809638, "lat": 43.580143, "lon": -116.566999}, {"type": "node", "id": 7126810848, "lat": 43.583618, "lon": -116.556047}, {"type": "node", "id": 7126810866, "lat": 43.580788, "lon": -116.567531}, {"type": "node", "id": 7126810882, "lat": 43.58233, "lon": -116.558053}, {"type": "node", "id": 7126810907, "lat": 43.5784557, "lon": -116.558091}, {"type": "node", "id": 7126810952, "lat": 43.579942, "lon": -116.567254}, {"type": "node", "id": 7126810978, "lat": 43.583296, "lon": -116.555452}, {"type": "node", "id": 7126811020, "lat": 43.5762647, "lon": -116.5577432}, {"type": "node", "id": 7126811086, "lat": 43.579835, "lon": -116.564952}, {"type": "node", "id": 7126811088, "lat": 43.580271, "lon": -116.565488}, {"type": "node", "id": 7126811144, "lat": 43.582117, "lon": -116.557999}, {"type": "node", "id": 7126811188, "lat": 43.582664, "lon": -116.569169}, {"type": "node", "id": 7126811216, "lat": 43.57956, "lon": -116.565667}, {"type": "node", "id": 7126811257, "lat": 43.581647, "lon": -116.565451}, {"type": "node", "id": 7126811261, "lat": 43.576947, "lon": -116.5590017}, {"type": "node", "id": 7126811417, "lat": 43.580104, "lon": -116.565602}, {"type": "node", "id": 7126811432, "lat": 43.583002, "lon": -116.5561}, {"type": "node", "id": 7126811660, "lat": 43.58205, "lon": -116.567203}, {"type": "node", "id": 7126811685, "lat": 43.580741, "lon": -116.566065}, {"type": "node", "id": 7126811689, "lat": 43.582165, "lon": -116.558367}, {"type": "node", "id": 7126811691, "lat": 43.575091, "lon": -116.564106}, {"type": "node", "id": 7126811699, "lat": 43.577884, "lon": -116.563488}, {"type": "node", "id": 7126811707, "lat": 43.575261, "lon": -116.567526}, {"type": "node", "id": 7126811832, "lat": 43.581973, "lon": -116.565765}, {"type": "node", "id": 7126811836, "lat": 43.584142, "lon": -116.555455}, {"type": "node", "id": 7126811859, "lat": 43.581466, "lon": -116.563149}, {"type": "node", "id": 7126811970, "lat": 43.5773756, "lon": -116.5579265, "tags": {"entrance": "main"}}, {"type": "node", "id": 7126811981, "lat": 43.583326, "lon": -116.568216}, {"type": "node", "id": 7126812094, "lat": 43.580317, "lon": -116.564791}, {"type": "node", "id": 7126812115, "lat": 43.578784, "lon": -116.56236}, {"type": "node", "id": 7126812123, "lat": 43.575924, "lon": -116.5629727}, {"type": "node", "id": 7126812125, "lat": 43.580217, "lon": -116.565559}, {"type": "node", "id": 7126812141, "lat": 43.578055, "lon": -116.557872}, {"type": "node", "id": 7126812243, "lat": 43.583296, "lon": -116.55553}, {"type": "node", "id": 7126812328, "lat": 43.577664, "lon": -116.562799}, {"type": "node", "id": 7126812337, "lat": 43.58176, "lon": -116.568564}, {"type": "node", "id": 7126812345, "lat": 43.581986, "lon": -116.567118}, {"type": "node", "id": 7126812376, "lat": 43.580403, "lon": -116.56739}, {"type": "node", "id": 7126812409, "lat": 43.58191, "lon": -116.558268}, {"type": "node", "id": 7126812501, "lat": 43.579618, "lon": -116.563626}, {"type": "node", "id": 7126812504, "lat": 43.581518, "lon": -116.565622}, {"type": "node", "id": 7126812541, "lat": 43.582134, "lon": -116.566287}, {"type": "node", "id": 7126812547, "lat": 43.583959, "lon": -116.555491}, {"type": "node", "id": 7126812682, "lat": 43.572293, "lon": -116.568545}, {"type": "node", "id": 7126813152, "lat": 43.583586, "lon": -116.567887}, {"type": "node", "id": 7126813221, "lat": 43.5774322, "lon": -116.5594015}, {"type": "node", "id": 7126813323, "lat": 43.578813, "lon": -116.562181}, {"type": "node", "id": 7126813633, "lat": 43.582107, "lon": -116.558361}, {"type": "node", "id": 7126813710, "lat": 43.579366, "lon": -116.565549}, {"type": "node", "id": 7126813775, "lat": 43.582095, "lon": -116.565713}, {"type": "node", "id": 7126813780, "lat": 43.584029, "lon": -116.555513}, {"type": "node", "id": 7126813836, "lat": 43.579002, "lon": -116.56242}, {"type": "node", "id": 7126813886, "lat": 43.579718, "lon": -116.565573}, {"type": "node", "id": 7126813911, "lat": 43.583811, "lon": -116.568226}, {"type": "node", "id": 7126813913, "lat": 43.583057, "lon": -116.556085}, {"type": "node", "id": 7126813919, "lat": 43.5791046, "lon": -116.560742}, {"type": "node", "id": 7126814051, "lat": 43.578647, "lon": -116.56239}, {"type": "node", "id": 7126814070, "lat": 43.583556, "lon": -116.555957}, {"type": "node", "id": 7126814088, "lat": 43.580859, "lon": -116.567443}, {"type": "node", "id": 7126814108, "lat": 43.582366, "lon": -116.558106}, {"type": "node", "id": 7126814113, "lat": 43.575638, "lon": -116.568173}, {"type": "node", "id": 7126814164, "lat": 43.583459, "lon": -116.555452}, {"type": "node", "id": 7126814196, "lat": 43.5763297, "lon": -116.5576605}, {"type": "node", "id": 7126814267, "lat": 43.5784799, "lon": -116.5619854}, {"type": "node", "id": 7126814310, "lat": 43.582161, "lon": -116.558064}, {"type": "node", "id": 7126814314, "lat": 43.5759081, "lon": -116.563217}, {"type": "node", "id": 7126814335, "lat": 43.582796, "lon": -116.569351}, {"type": "node", "id": 7126814364, "lat": 43.579435, "lon": -116.565467}, {"type": "node", "id": 7126814399, "lat": 43.581762, "lon": -116.565616}, {"type": "node", "id": 7126814407, "lat": 43.5770707, "lon": -116.5588407}, {"type": "node", "id": 7126814452, "lat": 43.5773281, "lon": -116.5595318}, {"type": "node", "id": 7126814497, "lat": 43.581031, "lon": -116.567706}, {"type": "node", "id": 7126814806, "lat": 43.5782922, "lon": -116.558011}, {"type": "node", "id": 7126814864, "lat": 43.58063, "lon": -116.565901}, {"type": "node", "id": 7126814867, "lat": 43.582136, "lon": -116.558324}, {"type": "node", "id": 7126814871, "lat": 43.57506, "lon": -116.564144}, {"type": "node", "id": 7126814884, "lat": 43.575284, "lon": -116.567497}, {"type": "node", "id": 7126814997, "lat": 43.584064, "lon": -116.555562}, {"type": "node", "id": 7126815295, "lat": 43.5760317, "lon": -116.563124}, {"type": "node", "id": 7126815296, "lat": 43.580255, "lon": -116.565613}, {"type": "node", "id": 7126815309, "lat": 43.582839, "lon": -116.556146}, {"type": "node", "id": 7126815315, "lat": 43.579136, "lon": -116.5610148}, {"type": "node", "id": 7126815351, "lat": 43.575761, "lon": -116.568344}, {"type": "node", "id": 7126815496, "lat": 43.5785963, "lon": -116.5604411}, {"type": "node", "id": 7126815528, "lat": 43.581821, "lon": -116.568663}, {"type": "node", "id": 7126815533, "lat": 43.582051, "lon": -116.567026}, {"type": "node", "id": 7126815603, "lat": 43.577845, "lon": -116.563249}, {"type": "node", "id": 7126815720, "lat": 43.57945, "lon": -116.563396}, {"type": "node", "id": 7126815754, "lat": 43.582097, "lon": -116.566236}, {"type": "node", "id": 7126815757, "lat": 43.583966, "lon": -116.555425}, {"type": "node", "id": 7126815812, "lat": 43.582612, "lon": -116.569241}, {"type": "node", "id": 7126815871, "lat": 43.5770507, "lon": -116.5585627}, {"type": "node", "id": 7126816007, "lat": 43.578898, "lon": -116.562311}, {"type": "node", "id": 7126816069, "lat": 43.575813, "lon": -116.56819}, {"type": "node", "id": 7126816133, "lat": 43.582229, "lon": -116.566087}, {"type": "node", "id": 7126816235, "lat": 43.5784849, "lon": -116.5612257}, {"type": "node", "id": 7126816258, "lat": 43.577295, "lon": -116.562784}, {"type": "node", "id": 7126816271, "lat": 43.579718, "lon": -116.56479}, {"type": "node", "id": 7126816318, "lat": 43.582073, "lon": -116.558312}, {"type": "node", "id": 7126816319, "lat": 43.575037, "lon": -116.564039}, {"type": "node", "id": 7126816332, "lat": 43.5765937, "lon": -116.5581659}, {"type": "node", "id": 7126816333, "lat": 43.575271, "lon": -116.5677}, {"type": "node", "id": 7126816389, "lat": 43.57924, "lon": -116.565347}, {"type": "node", "id": 7126816432, "lat": 43.5771651, "lon": -116.5587252}, {"type": "node", "id": 7126816460, "lat": 43.582054, "lon": -116.56577}, {"type": "node", "id": 7126816462, "lat": 43.583952, "lon": -116.555619}, {"type": "node", "id": 7126816513, "lat": 43.578807, "lon": -116.562678}, {"type": "node", "id": 7126816564, "lat": 43.579814, "lon": -116.565714}, {"type": "node", "id": 7126816593, "lat": 43.582917, "lon": -116.556263}, {"type": "node", "id": 7126816599, "lat": 43.5792178, "lon": -116.560909}, {"type": "node", "id": 7126816667, "lat": 43.570085, "lon": -116.570546}, {"type": "node", "id": 7126816689, "lat": 43.583627, "lon": -116.555864}, {"type": "node", "id": 7126816736, "lat": 43.575703, "lon": -116.568084}, {"type": "node", "id": 7126816833, "lat": 43.575328, "lon": -116.563515}, {"type": "node", "id": 7126816841, "lat": 43.577779, "lon": -116.563339}, {"type": "node", "id": 7126816871, "lat": 43.5764646, "lon": -116.5578626}, {"type": "node", "id": 7126816926, "lat": 43.58167, "lon": -116.568669}, {"type": "node", "id": 7126816968, "lat": 43.579756, "lon": -116.565789}, {"type": "node", "id": 7126816981, "lat": 43.582284, "lon": -116.557904}, {"type": "node", "id": 7126816982, "lat": 43.581334, "lon": -116.563307}, {"type": "node", "id": 7126816984, "lat": 43.575844, "lon": -116.5633034}, {"type": "node", "id": 7126817013, "lat": 43.582744, "lon": -116.569423}, {"type": "node", "id": 7126817071, "lat": 43.579733, "lon": -116.563467}, {"type": "node", "id": 7126817079, "lat": 43.5769607, "lon": -116.5586798}, {"type": "node", "id": 7126817150, "lat": 43.579901, "lon": -116.564861}, {"type": "node", "id": 7126817152, "lat": 43.580232, "lon": -116.565432}, {"type": "node", "id": 7126817223, "lat": 43.578741, "lon": -116.562583}, {"type": "node", "id": 7126817247, "lat": 43.583901, "lon": -116.555411}, {"type": "node", "id": 7126817253, "lat": 43.580483, "lon": -116.564584}, {"type": "node", "id": 7126817267, "lat": 43.579789, "lon": -116.566205}, {"type": "node", "id": 7126817299, "lat": 43.577835, "lon": -116.558167}, {"type": "node", "id": 7126817335, "lat": 43.575787, "lon": -116.568153}, {"type": "node", "id": 7126817482, "lat": 43.58096, "lon": -116.567794}, {"type": "node", "id": 7126817525, "lat": 43.578345, "lon": -116.5579381}, {"type": "node", "id": 7126817566, "lat": 43.580203, "lon": -116.567644}, {"type": "node", "id": 7126817591, "lat": 43.575012, "lon": -116.564071}, {"type": "node", "id": 7126817607, "lat": 43.575352, "lon": -116.5676}, {"type": "node", "id": 7126817756, "lat": 43.579679, "lon": -116.565525}, {"type": "node", "id": 7126817803, "lat": 43.5770224, "lon": -116.559112}, {"type": "node", "id": 7126817952, "lat": 43.58018, "lon": -116.565712}, {"type": "node", "id": 7126817969, "lat": 43.582944, "lon": -116.556012}, {"type": "node", "id": 7126817979, "lat": 43.5789469, "lon": -116.5607359}, {"type": "node", "id": 7126819248, "lat": 43.5785574, "lon": -116.5604904}, {"type": "node", "id": 7126819280, "lat": 43.581731, "lon": -116.568769}, {"type": "node", "id": 7126819287, "lat": 43.582115, "lon": -116.567112}, {"type": "node", "id": 7126819341, "lat": 43.580922, "lon": -116.565831}, {"type": "node", "id": 7126819347, "lat": 43.575153, "lon": -116.5642}, {"type": "node", "id": 7126819349, "lat": 43.57795, "lon": -116.563398}, {"type": "node", "id": 7126819357, "lat": 43.575209, "lon": -116.567447}, {"type": "node", "id": 7126819451, "lat": 43.579565, "lon": -116.563236}, {"type": "node", "id": 7126819460, "lat": 43.5785995, "lon": -116.5618328}, {"type": "node", "id": 7126819481, "lat": 43.582205, "lon": -116.56609}, {"type": "node", "id": 7126819484, "lat": 43.584044, "lon": -116.555318}, {"type": "node", "id": 7126819509, "lat": 43.581245, "lon": -116.562795}, {"type": "node", "id": 7126819609, "lat": 43.583551, "lon": -116.568555}, {"type": "node", "id": 7126819693, "lat": 43.578006, "lon": -116.557802}, {"type": "node", "id": 7126819732, "lat": 43.575795, "lon": -116.568214}, {"type": "node", "id": 7126819798, "lat": 43.582255, "lon": -116.566123}, {"type": "node", "id": 7126819824, "lat": 43.583459, "lon": -116.55553}, {"type": "node", "id": 7126819891, "lat": 43.5781946, "lon": -116.5607939}, {"type": "node", "id": 7126819910, "lat": 43.577489, "lon": -116.562537}, {"type": "node", "id": 7126819928, "lat": 43.579784, "lon": -116.564699}, {"type": "node", "id": 7126819978, "lat": 43.582002, "lon": -116.558404}, {"type": "node", "id": 7126819981, "lat": 43.574981, "lon": -116.563955}, {"type": "node", "id": 7126820032, "lat": 43.579429, "lon": -116.565123}, {"type": "node", "id": 7126820068, "lat": 43.581633, "lon": -116.565787}, {"type": "node", "id": 7126820072, "lat": 43.5772378, "lon": -116.5588317}, {"type": "node", "id": 7126820099, "lat": 43.582255, "lon": -116.566052}, {"type": "node", "id": 7126820102, "lat": 43.583909, "lon": -116.55556}, {"type": "node", "id": 7126820240, "lat": 43.578245, "lon": -116.5603167}, {"type": "node", "id": 7126820303, "lat": 43.5771752, "lon": -116.5590101}, {"type": "node", "id": 7126820431, "lat": 43.583689, "lon": -116.555954}, {"type": "node", "id": 7126820559, "lat": 43.58081, "lon": -116.565667}, {"type": "node", "id": 7126820563, "lat": 43.575495, "lon": -116.563768}, {"type": "node", "id": 7126820576, "lat": 43.575152, "lon": -116.567519}, {"type": "node", "id": 7126820598, "lat": 43.5763996, "lon": -116.5579453}, {"type": "node", "id": 7126820620, "lat": 43.5784704, "lon": -116.5607813}, {"type": "node", "id": 7126820790, "lat": 43.579922, "lon": -116.566031}, {"type": "node", "id": 7126820803, "lat": 43.582359, "lon": -116.558016}, {"type": "node", "id": 7126820804, "lat": 43.581112, "lon": -116.562953}, {"type": "node", "id": 7126820806, "lat": 43.5757849, "lon": -116.56322}, {"type": "node", "id": 7126820943, "lat": 43.582053, "lon": -116.565655}, {"type": "node", "id": 7126821010, "lat": 43.578936, "lon": -116.562325}, {"type": "node", "id": 7126821037, "lat": 43.583929, "lon": -116.555374}, {"type": "node", "id": 7126821045, "lat": 43.580596, "lon": -116.564757}, {"type": "node", "id": 7126821057, "lat": 43.579526, "lon": -116.565822}, {"type": "node", "id": 7126821088, "lat": 43.583038, "lon": -116.556055}, {"type": "node", "id": 7126821090, "lat": 43.577786, "lon": -116.558097}, {"type": "node", "id": 7126821091, "lat": 43.5792038, "lon": -116.5606139}, {"type": "node", "id": 7126821217, "lat": 43.578698, "lon": -116.562468}, {"type": "node", "id": 7126821302, "lat": 43.57239, "lon": -116.568426}, {"type": "node", "id": 7126821357, "lat": 43.5721721, "lon": -116.5686529}, {"type": "node", "id": 7126821487, "lat": 43.570346, "lon": -116.570162}, {"type": "node", "id": 7126821493, "lat": 43.569936, "lon": -116.570935}, {"type": "node", "id": 7126821531, "lat": 43.571736, "lon": -116.568573}, {"type": "node", "id": 7126821650, "lat": 43.569898, "lon": -116.570633}, {"type": "node", "id": 7126821850, "lat": 43.570469, "lon": -116.570189}, {"type": "node", "id": 7126822038, "lat": 43.573719, "lon": -116.567274}, {"type": "node", "id": 7126822213, "lat": 43.569681, "lon": -116.571895}, {"type": "node", "id": 7126822557, "lat": 43.569721, "lon": -116.572095}, {"type": "node", "id": 7126822567, "lat": 43.571951, "lon": -116.568062}, {"type": "node", "id": 7126822635, "lat": 43.573237, "lon": -116.567292}, {"type": "node", "id": 7126822656, "lat": 43.572126, "lon": -116.567602}, {"type": "node", "id": 7126822944, "lat": 43.569745, "lon": -116.570586}, {"type": "node", "id": 7126822988, "lat": 43.572035, "lon": -116.568053}, {"type": "node", "id": 7126823054, "lat": 43.573094, "lon": -116.567752}, {"type": "node", "id": 7126823143, "lat": 43.570327, "lon": -116.570187}, {"type": "node", "id": 7126823151, "lat": 43.572568, "lon": -116.568485}, {"type": "node", "id": 7126823203, "lat": 43.5723075, "lon": -116.5686676}, {"type": "node", "id": 7126823225, "lat": 43.571389, "lon": -116.569068}, {"type": "node", "id": 7126823293, "lat": 43.570874, "lon": -116.570704}, {"type": "node", "id": 7126823310, "lat": 43.569761, "lon": -116.570878}, {"type": "node", "id": 7126823345, "lat": 43.57192, "lon": -116.56814}, {"type": "node", "id": 7126823347, "lat": 43.57158, "lon": -116.568556}, {"type": "node", "id": 7126823371, "lat": 43.573029, "lon": -116.567842}, {"type": "node", "id": 7126823444, "lat": 43.572439, "lon": -116.5686}, {"type": "node", "id": 7126823478, "lat": 43.572442, "lon": -116.568495}, {"type": "node", "id": 7126823537, "lat": 43.5722175, "lon": -116.5687487}, {"type": "node", "id": 7126823681, "lat": 43.569834, "lon": -116.570784}, {"type": "node", "id": 7126823796, "lat": 43.571948, "lon": -116.568351}, {"type": "node", "id": 7126823909, "lat": 43.572055, "lon": -116.568026}, {"type": "node", "id": 7126823977, "lat": 43.573382, "lon": -116.567326}, {"type": "node", "id": 7126824054, "lat": 43.570371, "lon": -116.570045}, {"type": "node", "id": 7126824417, "lat": 43.569629, "lon": -116.571967}, {"type": "node", "id": 7126824498, "lat": 43.571359, "lon": -116.568857}, {"type": "node", "id": 7126824544, "lat": 43.572199, "lon": -116.567893}, {"type": "node", "id": 7126824607, "lat": 43.571007, "lon": -116.570692}, {"type": "node", "id": 7126824613, "lat": 43.570249, "lon": -116.570534}, {"type": "node", "id": 7126824792, "lat": 43.569773, "lon": -116.572022}, {"type": "node", "id": 7126824798, "lat": 43.572047, "lon": -116.568195}, {"type": "node", "id": 7126824816, "lat": 43.5722512, "lon": -116.5685813}, {"type": "node", "id": 7126824891, "lat": 43.572059, "lon": -116.567688}, {"type": "node", "id": 7126824956, "lat": 43.570315, "lon": -116.570116}, {"type": "node", "id": 7126824999, "lat": 43.571664, "lon": -116.568672}, {"type": "node", "id": 7126825064, "lat": 43.571449, "lon": -116.568991}, {"type": "node", "id": 7126825114, "lat": 43.569838, "lon": -116.570715}, {"type": "node", "id": 7126825220, "lat": 43.572986, "lon": -116.567602}, {"type": "node", "id": 7126825307, "lat": 43.570394, "lon": -116.570286}, {"type": "node", "id": 7126825482, "lat": 43.570936, "lon": -116.57079}, {"type": "node", "id": 7126825492, "lat": 43.573621, "lon": -116.567409}, {"type": "node", "id": 7126825496, "lat": 43.569863, "lon": -116.571028}, {"type": "node", "id": 7126825539, "lat": 43.571859, "lon": -116.568217}, {"type": "node", "id": 7126825630, "lat": 43.572348, "lon": -116.568471}, {"type": "node", "id": 7126825666, "lat": 43.572456, "lon": -116.568476}, {"type": "node", "id": 7126825846, "lat": 43.573551, "lon": -116.567312}, {"type": "node", "id": 7126825938, "lat": 43.572009, "lon": -116.568274}, {"type": "node", "id": 7126826066, "lat": 43.572016, "lon": -116.567972}, {"type": "node", "id": 7126826133, "lat": 43.573297, "lon": -116.56721}, {"type": "node", "id": 7126826507, "lat": 43.572093, "lon": -116.568132}, {"type": "node", "id": 7126826671, "lat": 43.572517, "lon": -116.568558}, {"type": "node", "id": 7126826740, "lat": 43.571299, "lon": -116.568935}, {"type": "node", "id": 7126826819, "lat": 43.570945, "lon": -116.570606}, {"type": "node", "id": 7126826825, "lat": 43.570172, "lon": -116.570427}, {"type": "node", "id": 7187043309, "lat": 43.5783465, "lon": -116.5601909}, {"type": "node", "id": 7187043313, "lat": 43.5785012, "lon": -116.5604058}, {"type": "node", "id": 7187043317, "lat": 43.5782813, "lon": -116.5606829}, {"type": "node", "id": 7187043318, "lat": 43.5784044, "lon": -116.560866}, {"type": "node", "id": 7187043333, "lat": 43.5791602, "lon": -116.5591482}, {"type": "node", "id": 7187043334, "lat": 43.5790802, "lon": -116.5589011}, {"type": "node", "id": 7187043335, "lat": 43.5790344, "lon": -116.5589586}, {"type": "node", "id": 7251669269, "lat": 43.5773878, "lon": -116.5594571}, {"type": "node", "id": 7251669270, "lat": 43.5773162, "lon": -116.5593522}, {"type": "node", "id": 7251669271, "lat": 43.577259, "lon": -116.5594266}, {"type": "node", "id": 7251952955, "lat": 43.5772737, "lon": -116.5588881}, {"type": "node", "id": 7251952956, "lat": 43.577537, "lon": -116.559269}, {"type": "node", "id": 7251952957, "lat": 43.5773302, "lon": -116.558966}, {"type": "node", "id": 7354064284, "lat": 43.5496502, "lon": -116.569253}, {"type": "node", "id": 7354064285, "lat": 43.5482744, "lon": -116.5692248}, {"type": "node", "id": 7354064286, "lat": 43.5479594, "lon": -116.5704123}, {"type": "node", "id": 7354140507, "lat": 43.5505902, "lon": -116.5735245}, {"type": "node", "id": 7354140508, "lat": 43.5505887, "lon": -116.5732807}, {"type": "node", "id": 7354140509, "lat": 43.5505467, "lon": -116.5732781}, {"type": "node", "id": 7354140510, "lat": 43.550525, "lon": -116.5732471}, {"type": "node", "id": 7354140511, "lat": 43.5505095, "lon": -116.57324}, {"type": "node", "id": 7354140512, "lat": 43.5504849, "lon": -116.5732446}, {"type": "node", "id": 7354140513, "lat": 43.5504668, "lon": -116.5732715}, {"type": "node", "id": 7354140514, "lat": 43.5504591, "lon": -116.5733127}, {"type": "node", "id": 7354140515, "lat": 43.5504679, "lon": -116.5733447}, {"type": "node", "id": 7354140516, "lat": 43.5504797, "lon": -116.5733538}, {"type": "node", "id": 7354140517, "lat": 43.5504801, "lon": -116.5735225}, {"type": "node", "id": 8875064326, "lat": 43.5751457, "lon": -116.5558729, "tags": {"brand": "ExtraMile", "brand:wikidata": "Q64224605", "name": "ExtraMile", "shop": "convenience"}}, {"type": "node", "id": 9298256817, "lat": 43.555377, "lon": -116.5724485}, {"type": "node", "id": 9299015959, "lat": 43.5553055, "lon": -116.5724487}, {"type": "node", "id": 9299015960, "lat": 43.555305, "lon": -116.5721875}, {"type": "node", "id": 9299015961, "lat": 43.5553765, "lon": -116.5721873}, {"type": "node", "id": 9299701855, "lat": 43.5715918, "lon": -116.569847, "tags": {"addr:city": "Nampa", "addr:housenumber": "1023", "addr:postcode": "83651", "addr:state": "ID", "addr:street": "12th Avenue South", "name": "Vape", "shop": "e-cigarette"}}, {"type": "node", "id": 9299701856, "lat": 43.5712125, "lon": -116.570162, "tags": {"addr:city": "Nampa", "addr:housenumber": "1107", "addr:postcode": "83651", "addr:state": "ID", "addr:street": "12th Avenue South", "name": "Tobacco Connection", "shop": "tobacco"}}, {"type": "node", "id": 9473480059, "lat": 43.5806576, "lon": -116.5628215, "tags": {"addr:city": "Nampa", "addr:housenumber": "104", "addr:postcode": "83651", "addr:state": "ID", "addr:street": "9th Avenue South", "addr:unit": "B5", "description": "Surface repair and refinishing company serving Nampa and Caldwell Idaho. Services include Bathtub repair, bathtub refinishing, bathtub reglazing, bathtub resurfacing, bathtub finishing, countertop repair.", "name": "Refinish First in Nampa", "opening_hours": "Mo-Fr 08:00-17:00", "phone": "+1-208-505-6635", "shop": "bathroom_furnishing", "website": "https://www.refinishfirst.net/locations/nampa-bathtub-repair-refinishing"}}, {"type": "node", "id": 9553252094, "lat": 43.548272, "lon": -116.5695137}, {"type": "node", "id": 9553252095, "lat": 43.5479721, "lon": -116.5697599}, {"type": "node", "id": 9553252096, "lat": 43.5479782, "lon": -116.5695507}, {"type": "node", "id": 9553252097, "lat": 43.5481829, "lon": -116.5695558}, {"type": "node", "id": 9553252098, "lat": 43.5481829, "lon": -116.5695091}, {"type": "node", "id": 9553252099, "lat": 43.5481754, "lon": -116.5701065}, {"type": "node", "id": 9553252100, "lat": 43.5479604, "lon": -116.5700973}, {"type": "node", "id": 9553252101, "lat": 43.5481767, "lon": -116.5697666}, {"type": "node", "id": 9553252102, "lat": 43.5481677, "lon": -116.5704809}, {"type": "node", "id": 9553252103, "lat": 43.5481663, "lon": -116.5704216}, {"type": "node", "id": 9553252104, "lat": 43.5484779, "lon": -116.5706731}, {"type": "node", "id": 9553252105, "lat": 43.5484804, "lon": -116.5704888}, {"type": "node", "id": 9553252106, "lat": 43.5486576, "lon": -116.5706749}, {"type": "node", "id": 9553252107, "lat": 43.5485587, "lon": -116.570729}, {"type": "node", "id": 9553252108, "lat": 43.5485594, "lon": -116.5706751}, {"type": "node", "id": 9553252109, "lat": 43.5486568, "lon": -116.5707315}, {"type": "node", "id": 9553252110, "lat": 43.5494461, "lon": -116.5706586}, {"type": "node", "id": 9553252111, "lat": 43.5494453, "lon": -116.5705065}, {"type": "node", "id": 9553252112, "lat": 43.5493034, "lon": -116.57066}, {"type": "node", "id": 9553252113, "lat": 43.5491989, "lon": -116.5706884}, {"type": "node", "id": 9553252114, "lat": 43.5493018, "lon": -116.5707465}, {"type": "node", "id": 9553252115, "lat": 43.5491982, "lon": -116.5707428}, {"type": "node", "id": 9556929177, "lat": 43.56925, "lon": -116.57156}, {"type": "node", "id": 9556929178, "lat": 43.569288, "lon": -116.57162}, {"type": "node", "id": 9556929179, "lat": 43.569259, "lon": -116.571656}, {"type": "node", "id": 9556929180, "lat": 43.569221, "lon": -116.571596}, {"type": "node", "id": 9556929203, "lat": 43.568006, "lon": -116.5732}, {"type": "node", "id": 9556929204, "lat": 43.568007, "lon": -116.573391}, {"type": "node", "id": 9556929205, "lat": 43.567846, "lon": -116.573392}, {"type": "node", "id": 9556929206, "lat": 43.567846, "lon": -116.573319}, {"type": "node", "id": 9556929207, "lat": 43.567818, "lon": -116.573319}, {"type": "node", "id": 9556929208, "lat": 43.567818, "lon": -116.573401}, {"type": "node", "id": 9556929209, "lat": 43.567769, "lon": -116.573401}, {"type": "node", "id": 9556929210, "lat": 43.567768, "lon": -116.573216}, {"type": "node", "id": 9556929211, "lat": 43.567856, "lon": -116.573215}, {"type": "node", "id": 9556929212, "lat": 43.567856, "lon": -116.573247}, {"type": "node", "id": 9556929213, "lat": 43.567956, "lon": -116.573247}, {"type": "node", "id": 9556929214, "lat": 43.567955, "lon": -116.5732}, {"type": "node", "id": 9556972639, "lat": 43.566822, "lon": -116.573237}, {"type": "node", "id": 9556972640, "lat": 43.566821, "lon": -116.573383}, {"type": "node", "id": 9556972641, "lat": 43.56672, "lon": -116.573382}, {"type": "node", "id": 9556972642, "lat": 43.566721, "lon": -116.573235}, {"type": "node", "id": 9556972683, "lat": 43.565863, "lon": -116.573368}, {"type": "node", "id": 9556972684, "lat": 43.56591, "lon": -116.573368}, {"type": "node", "id": 9556972685, "lat": 43.565909, "lon": -116.573286}, {"type": "node", "id": 9556972686, "lat": 43.565955, "lon": -116.573285}, {"type": "node", "id": 9556972687, "lat": 43.565955, "lon": -116.573265}, {"type": "node", "id": 9556972688, "lat": 43.56602, "lon": -116.573264}, {"type": "node", "id": 9556972689, "lat": 43.566021, "lon": -116.573392}, {"type": "node", "id": 9556972690, "lat": 43.565921, "lon": -116.573393}, {"type": "node", "id": 9556972691, "lat": 43.565921, "lon": -116.573458}, {"type": "node", "id": 9556972692, "lat": 43.565864, "lon": -116.573458}, {"type": "node", "id": 9556972757, "lat": 43.562744, "lon": -116.573202}, {"type": "node", "id": 9556972758, "lat": 43.562832, "lon": -116.5732}, {"type": "node", "id": 9556972759, "lat": 43.562834, "lon": -116.573382}, {"type": "node", "id": 9556972760, "lat": 43.562798, "lon": -116.573383}, {"type": "node", "id": 9556972761, "lat": 43.562799, "lon": -116.573406}, {"type": "node", "id": 9556972762, "lat": 43.562746, "lon": -116.573407}, {"type": "node", "id": 9556972763, "lat": 43.56198, "lon": -116.573618}, {"type": "node", "id": 9556972764, "lat": 43.561803, "lon": -116.573616}, {"type": "node", "id": 9556972765, "lat": 43.561804, "lon": -116.573439}, {"type": "node", "id": 9556972770, "lat": 43.564183, "lon": -116.572395}, {"type": "node", "id": 9556972771, "lat": 43.56439, "lon": -116.572392}, {"type": "node", "id": 9556972772, "lat": 43.564393, "lon": -116.572719}, {"type": "node", "id": 10030823787, "lat": 43.5482788, "lon": -116.5702635, "tags": {"addr:city": "Nampa", "addr:country": "US", "addr:housenumber": "2101", "addr:postcode": "83686", "addr:state": "ID", "addr:street": "South Locust Street", "brand": "Walmart", "brand:wikidata": "Q483551", "name": "Walmart Garden Center", "opening_hours": "Mo 05:00-18:00;Tu-Su 05:00-24:00", "operator": "Walmart", "operator:wikidata": "Q483551", "operator:wikipedia": "en:Walmart", "phone": "+1-208-467-5047", "ref:walmart": "2781", "shop": "garden_centre", "website": "https://www.walmart.com/store/2781/nampa-id/whats-new"}}, {"type": "node", "id": 10274778821, "lat": 43.5486485, "lon": -116.5733235, "tags": {"amenity": "restaurant", "cuisine": "thai", "name": "Thailand Express"}}, {"type": "node", "id": 10274778824, "lat": 43.5516035, "lon": -116.573222, "tags": {"addr:city": "Nampa", "addr:housenumber": "1713", "addr:postcode": "83686", "addr:state": "ID", "addr:street": "12th Avenue Road", "name": "W. Waters Insurance", "office": "insurance"}}, {"type": "node", "id": 10274778825, "lat": 43.5523136, "lon": -116.573254, "tags": {"addr:city": "Nampa", "addr:housenumber": "1621", "addr:postcode": "83686", "addr:state": "ID", "addr:street": "12th Avenue Road", "brand": "State Farm", "brand:wikidata": "Q2007336", "name": "State Farm", "office": "insurance", "phone": "+1-208-461-4411"}}, {"type": "node", "id": 10274778827, "lat": 43.5664141, "lon": -116.5733453, "tags": {"name": "Fine Line Tattoo", "shop": "tattoo"}}, {"type": "node", "id": 10274778828, "lat": 43.5668927, "lon": -116.5726126, "tags": {"name": "Barrier Pest Control", "office": "company"}}, {"type": "node", "id": 10274778829, "lat": 43.5668951, "lon": -116.572436, "tags": {"name": "Wellman Law", "office": "lawyer"}}, {"type": "node", "id": 10274778830, "lat": 43.5833721, "lon": -116.5571604, "tags": {"name": "Good Life Motors", "second_hand": "only", "shop": "car"}}, {"type": "node", "id": 10274778831, "lat": 43.5831788, "lon": -116.5572741, "tags": {"name": "8-Bitplus Gaming", "shop": "video_games"}}, {"type": "node", "id": 10274778834, "lat": 43.5825712, "lon": -116.5575555, "tags": {"name": "All for U Home Care", "office": "company"}}, {"type": "node", "id": 10274778835, "lat": 43.5820497, "lon": -116.5571101}, {"type": "node", "id": 10274778836, "lat": 43.5818997, "lon": -116.5568881}, {"type": "node", "id": 10274778837, "lat": 43.5821013, "lon": -116.5566287}, {"type": "node", "id": 10274778838, "lat": 43.5822512, "lon": -116.5568507}, {"type": "node", "id": 11001866634, "lat": 43.5784981, "lon": -116.5619622, "tags": {"door": "yes", "emergency:exit": "yes"}}, {"type": "node", "id": 11001866635, "lat": 43.578546, "lon": -116.561753, "tags": {"door": "double", "entrance": "main"}}, {"type": "node", "id": 11001866643, "lat": 43.5779629, "lon": -116.5611554, "tags": {"entrance": "main"}}, {"type": "node", "id": 11001866654, "lat": 43.5783802, "lon": -116.5618366}, {"type": "node", "id": 11001866655, "lat": 43.5784997, "lon": -116.5616839}, {"type": "node", "id": 11001866660, "lat": 43.5780424, "lon": -116.5612758}, {"type": "node", "id": 11001866661, "lat": 43.5781378, "lon": -116.5611563}, {"type": "node", "id": 11001873634, "lat": 43.5773217, "lon": -116.5614033, "tags": {"addr:city": "Nampa", "addr:housenumber": "224", "addr:postcode": "83651", "addr:state": "ID", "addr:street": "12th Avenue South", "amenity": "restaurant", "cuisine": "burger", "name": "Boise Fry Company", "outdoor_seating": "yes", "phone": "+1-208-965-8696", "website": "https://www.facebook.com/BoiseFryCoNampa"}}, {"type": "node", "id": 11001873679, "lat": 43.5779429, "lon": -116.5611252}, {"type": "node", "id": 11001873680, "lat": 43.5780382, "lon": -116.5610052}, {"type": "node", "id": 11020610728, "lat": 43.5780148, "lon": -116.5604873, "tags": {"amenity": "restaurant", "cuisine": "breakfast", "name": "Le Baron's Cafe"}}, {"type": "node", "id": 11092721401, "lat": 43.5773662, "lon": -116.5584206}, {"type": "node", "id": 11092721402, "lat": 43.5775501, "lon": -116.5581819}, {"type": "node", "id": 11092721403, "lat": 43.5773391, "lon": -116.5582145}, {"type": "node", "id": 11092721404, "lat": 43.5772525, "lon": -116.5580868}, {"type": "node", "id": 11092778405, "lat": 43.5772793, "lon": -116.5582918}, {"type": "node", "id": 11092778408, "lat": 43.5770195, "lon": -116.5584432, "tags": {"addr:city": "Nampa", "addr:housenumber": "117", "addr:postcode": "83651", "addr:state": "ID", "addr:street": "14th Avenue South", "email": "info@DilleCPA.com", "name": "Dille & Associates", "office": "accountant", "opening_hours": "Mo-Fr 8:30-17:30", "phone": "+1-208-467-1603", "website": "http://www.dillecpa.com"}}, {"type": "node", "id": 11092778414, "lat": 43.5771319, "lon": -116.5582606, "tags": {"addr:city": "Nampa", "addr:housenumber": "111", "addr:postcode": "83651", "addr:state": "ID", "addr:street": "14th Avenue South", "name": "CanAm Logistics", "office": "yes", "phone": "+1-208-454-1002", "website": "https://canamidaho.com"}}, {"type": "node", "id": 11092778415, "lat": 43.5771447, "lon": -116.5582413, "tags": {"addr:city": "Nampa", "addr:housenumber": "111", "addr:postcode": "83651", "addr:state": "ID", "addr:street": "14th Avenue South", "name": "Scott Fulcher Trucking", "office": "yes", "phone": "+1-208-454-1001", "website": "https://scottfulchertrucking.com"}}, {"type": "node", "id": 11092778420, "lat": 43.5769755, "lon": -116.5586606, "tags": {"entrance": "yes"}}, {"type": "node", "id": 11092778421, "lat": 43.5770231, "lon": -116.5589026, "tags": {"entrance": "main"}}, {"type": "node", "id": 11092778428, "lat": 43.5764609, "lon": -116.557972}, {"type": "node", "id": 11092778429, "lat": 43.5766753, "lon": -116.5584227}, {"type": "node", "id": 11092778430, "lat": 43.5765448, "lon": -116.5582292}, {"type": "node", "id": 11092778431, "lat": 43.5764952, "lon": -116.5582929}, {"type": "node", "id": 11092778432, "lat": 43.5763633, "lon": -116.5580973}, {"type": "node", "id": 11092778433, "lat": 43.5764781, "lon": -116.5582676, "tags": {"entrance": "main"}}, {"type": "node", "id": 11092778434, "lat": 43.5767062, "lon": -116.5583829, "tags": {"entrance": "main"}}, {"type": "node", "id": 11092778435, "lat": 43.5766128, "lon": -116.5583299, "tags": {"entrance": "main"}}, {"type": "node", "id": 11147032068, "lat": 43.5616561, "lon": -116.5726766}, {"type": "node", "id": 11147032069, "lat": 43.5615659, "lon": -116.5726762}, {"type": "node", "id": 11147032070, "lat": 43.5615659, "lon": -116.5726856}, {"type": "node", "id": 11147032071, "lat": 43.5615113, "lon": -116.5726854}, {"type": "node", "id": 11147032072, "lat": 43.5615117, "lon": -116.5725418}, {"type": "node", "id": 11147032073, "lat": 43.5616565, "lon": -116.5725425}, {"type": "node", "id": 11147032086, "lat": 43.562671, "lon": -116.5726872}, {"type": "node", "id": 11147032087, "lat": 43.5626282, "lon": -116.5727281}, {"type": "node", "id": 11147032088, "lat": 43.5625179, "lon": -116.5727248}, {"type": "node", "id": 11147032089, "lat": 43.5625174, "lon": -116.5725538}, {"type": "node", "id": 11147032090, "lat": 43.5626253, "lon": -116.5725504}, {"type": "node", "id": 11147032091, "lat": 43.5626258, "lon": -116.5726329}, {"type": "node", "id": 11147032092, "lat": 43.5626724, "lon": -116.5726342}, {"type": "node", "id": 11147032093, "lat": 43.5555541, "lon": -116.5737111, "tags": {"addr:city": "Nampa", "addr:housenumber": "1317", "addr:postcode": "83686", "addr:state": "ID", "addr:street": "12th Avenue Road", "name": "Breeze, Better Laundry", "shop": "laundry"}}, {"type": "node", "id": 11147032095, "lat": 43.5508334, "lon": -116.5711711, "tags": {"addr:city": "Nampa", "addr:housenumber": "178", "addr:postcode": "83686", "addr:state": "ID", "addr:street": "East Maine Avenue", "name": "Canyon Vapors", "opening_hours": "Mo-Fr 09:00-21:00,Su 10:00-19:00", "phone": "+12087039018", "shop": "e-cigarette"}}, {"type": "node", "id": 11147032096, "lat": 43.5508421, "lon": -116.5710222, "tags": {"addr:city": "Nampa", "addr:housenumber": "178", "addr:postcode": "83686", "addr:state": "ID", "addr:street": "East Maine Avenue", "name": "Classic Cuts Pet Grooming", "opening_hours": "Tu-Fr 09:00-17:00,Sa 09:00-18:00", "phone": "+12085057442", "shop": "pet_grooming", "website": "https://www.classiccutspetgrooming.com/"}}, {"type": "node", "id": 11199525761, "lat": 43.5506028, "lon": -116.5712205, "tags": {"addr:city": "Nampa", "addr:housenumber": "181", "addr:postcode": "83686", "addr:state": "ID", "addr:street": "East Maine Avenue", "brand": "Great Clips", "brand:wikidata": "Q5598967", "name": "Great Clips", "opening_hours": "Mo-Fr 08:00-19:00, Sa 09:00-18:00, Su 10:00-17:00", "phone": "+12084425431", "shop": "hairdresser", "website": "https://salons.greatclips.com/us/id/nampa/181-e-maine-ave"}}, {"type": "node", "id": 11199525762, "lat": 43.5505416, "lon": -116.5712219, "tags": {"addr:city": "Nampa", "addr:housenumber": "183", "addr:postcode": "83686", "addr:state": "ID", "addr:street": "East Maine Avenue", "brand": "Cash Store", "brand:wikidata": "Q61943411", "name": "Cash Store", "opening_hours": "Mo-Fr 10:00-18:00, Sa 10:00-14:00", "phone": "+12084429100", "shop": "money_lender"}}, {"type": "node", "id": 11199525763, "lat": 43.5503927, "lon": -116.5712239, "tags": {"addr:city": "Nampa", "addr:housenumber": "189", "addr:postcode": "83686", "addr:state": "ID", "addr:street": "East Maine Avenue", "alt_name": "Sally Beauty Supply", "brand": "Sally Beauty", "brand:wikidata": "Q7405065", "name": "Sally Beauty", "opening_hours": "Mo-Sa 10:00-20:00, Su 10:00-18:00", "phone": "+12084420065", "shop": "hairdresser_supply", "website": "https://stores.sallybeauty.com/id/nampa/beauty-supply-nampa-id-10066.html"}}, {"type": "node", "id": 11199525764, "lat": 43.5502974, "lon": -116.5712119, "tags": {"addr:city": "Nampa", "addr:housenumber": "193", "addr:postcode": "83686", "addr:state": "ID", "addr:street": "East Maine Avenue", "name": "Vape", "opening_hours": "Su-Sa 10:00-22:00", "phone": "+12084753771", "shop": "e-cigarette", "website": "https://boisevape.com"}}, {"type": "node", "id": 11199525766, "lat": 43.5491452, "lon": -116.5705958, "tags": {"brand": "Build-A-Bear Workshop", "brand:wikidata": "Q1002992", "name": "Build-A-Bear Workshop", "shop": "toys"}}, {"type": "node", "id": 11201397673, "lat": 43.5743837, "lon": -116.5647591, "tags": {"addr:city": "Nampa", "addr:housenumber": "618", "addr:postcode": "83651", "addr:state": "ID", "addr:street": "12th Avenue South", "alt_name": "Liberty Tax Service", "brand": "Liberty Tax", "brand:wikidata": "Q6541978", "name": "Liberty Tax", "office": "tax_advisor", "phone": "+12084429494", "website": "https://www.libertytax.com/10942"}}, {"type": "node", "id": 11201397674, "lat": 43.5742894, "lon": -116.564904, "tags": {"addr:city": "Nampa", "addr:housenumber": "622", "addr:postcode": "83651", "addr:state": "ID", "addr:street": "12th Avenue South", "amenity": "cafe", "cuisine": "bubble_tea", "name": "Boba Stop", "opening_hours": "Su-Th 11:30-20:00, Fr-Sa 11:30-21:00", "outdoor_seating": "yes", "phone": "+12088315401", "website": "https://www.bobastopnampa.com/"}}, {"type": "node", "id": 11201397677, "lat": 43.5746052, "lon": -116.5645834, "tags": {"addr:city": "Nampa", "addr:housenumber": "604", "addr:postcode": "83651", "addr:state": "ID", "addr:street": "6th Street South", "addr:unit": "104", "name": "The Works Salon", "opening_hours": "Tu-Sa 09:00-18:00", "phone": "+12084614204", "shop": "hairdresser"}}, {"type": "node", "id": 11209154680, "lat": 43.5651849, "lon": -116.5741682, "tags": {"addr:city": "Nampa", "addr:housenumber": "407", "addr:postcode": "83686", "addr:state": "ID", "addr:street": "12th Avenue Road", "brand": "Bi-Mart", "brand:wikidata": "Q4902331", "check_date": "2024-10-03", "name": "Bi-Mart", "shop": "department_store"}}, {"type": "node", "id": 11254398826, "lat": 43.5606393, "lon": -116.572666}, {"type": "node", "id": 11254398827, "lat": 43.5605009, "lon": -116.5726664}, {"type": "node", "id": 11254398828, "lat": 43.5605007, "lon": -116.5725216}, {"type": "node", "id": 11254398829, "lat": 43.5606391, "lon": -116.5725212}, {"type": "node", "id": 11254421566, "lat": 43.5540198, "lon": -116.5736664, "tags": {"addr:city": "Nampa", "addr:housenumber": "1509", "addr:postcode": "83686", "addr:state": "ID", "addr:street": "12th Avenue Road", "name": "Drea's Pro Grooming", "phone": "+12084610627", "shop": "pet_grooming"}}, {"type": "node", "id": 11327935869, "lat": 43.5782873, "lon": -116.5587503, "tags": {"addr:housenumber": "1226", "addr:postcode": "83651", "addr:state": "ID", "addr:street": "1st Street South", "amenity": "restaurant", "cuisine": "burger", "name": "Holy Cow Idaho!", "opening_hours": "Mo-Su 11:00-21:00", "phone": "+1 208-965-8015", "website": "https://www.holycowidaho.com/"}}, {"type": "node", "id": 11423764462, "lat": 43.582534, "lon": -116.5576034, "tags": {"name": "Ana's Beauty Salon", "shop": "hairdresser"}}, {"type": "node", "id": 11423764463, "lat": 43.5827202, "lon": -116.5573632, "tags": {"amenity": "restaurant", "cuisine": "barbecue", "name": "Idaho Barbecue Catering", "website": "https://www.idahobarbecuecatering.com/"}}, {"type": "node", "id": 11423764464, "lat": 43.5824264, "lon": -116.5565158}, {"type": "node", "id": 11423764465, "lat": 43.5823219, "lon": -116.5563613}, {"type": "node", "id": 11423764466, "lat": 43.582379, "lon": -116.5562876}, {"type": "node", "id": 11423764467, "lat": 43.5824836, "lon": -116.5564422}, {"type": "node", "id": 11423764468, "lat": 43.5836138, "lon": -116.555095, "tags": {"name": "Lend Nation", "shop": "money_lender"}}, {"type": "node", "id": 11424969999, "lat": 43.5795608, "lon": -116.5612241, "tags": {"amenity": "cafe", "cuisine": "coffee_shop", "name": "One11 Press"}}, {"type": "node", "id": 11424970000, "lat": 43.5794873, "lon": -116.5611972, "tags": {"government": "yes", "name": "Nampa Chamber of Commerce", "office": "government"}}, {"type": "node", "id": 11424970001, "lat": 43.5793477, "lon": -116.5614436, "tags": {"name": "CenturyLink", "office": "company"}}, {"type": "node", "id": 11424970003, "lat": 43.5776786, "lon": -116.560911, "tags": {"name": "12th Avenue Tattoo", "shop": "tattoo"}}, {"type": "node", "id": 11424970004, "lat": 43.5776564, "lon": -116.5609362, "tags": {"name": "Purely Hair Spa", "shop": "hairdresser"}}, {"type": "node", "id": 11424970005, "lat": 43.5769494, "lon": -116.5616326, "tags": {"name": "Garrity Appliance", "phone": "+1-208-442-0896", "shop": "appliance"}}, {"type": "node", "id": 11424970006, "lat": 43.5768523, "lon": -116.5620522, "tags": {"shop": "pet_grooming"}}, {"type": "node", "id": 11424970008, "lat": 43.5765127, "lon": -116.5622781, "tags": {"addr:city": "Nampa", "addr:housenumber": "324", "addr:postcode": "83651", "addr:state": "ID", "addr:street": "12th Avenue South", "name": "Ballenger Insurance", "office": "insurance"}}, {"type": "node", "id": 11424970010, "lat": 43.5768854, "lon": -116.5625972, "tags": {"addr:city": "Nampa", "addr:housenumber": "317", "addr:postcode": "83651", "addr:state": "ID", "addr:street": "12th Avenue South", "name": "DeFord Law", "office": "lawyer"}}, {"type": "node", "id": 11424970011, "lat": 43.5768195, "lon": -116.562685, "tags": {"name": "Little Antique Shop", "shop": "antiques"}}, {"type": "node", "id": 11424970013, "lat": 43.5712043, "lon": -116.5692811, "tags": {"craft": "clockmaker", "name": "Sands of Time", "shop": "antiques"}}, {"type": "node", "id": 11424970015, "lat": 43.5707158, "lon": -116.570658, "tags": {"name": "Silvercreek Realty Group", "office": "estate_agent"}}, {"type": "node", "id": 11424970016, "lat": 43.5707498, "lon": -116.5707023, "tags": {"name": "Integrity Insurance", "office": "insurance"}}, {"type": "node", "id": 11424970017, "lat": 43.5706284, "lon": -116.5699432, "tags": {"name": "Idaho Tools and Hardware", "shop": "hardware"}}, {"type": "node", "id": 11424970018, "lat": 43.5697549, "lon": -116.5710904, "tags": {"name": "Earth Treasures", "phone": "+1-208-989-2925", "shop": "jewelry"}}, {"type": "node", "id": 11424970019, "lat": 43.5697349, "lon": -116.5710578, "tags": {"name": "Heather's House of Hair", "phone": "+1-208-695-3709", "shop": "hairdresser"}}, {"type": "node", "id": 11424970020, "lat": 43.569714, "lon": -116.5710239, "tags": {"name": "Sherri's Styles", "phone": "+1-208-919-2867", "shop": "beauty"}}, {"type": "node", "id": 11424970021, "lat": 43.5692826, "lon": -116.5712695, "tags": {"name": "Bullock & Company", "office": "estate_agent"}}, {"type": "node", "id": 11424970022, "lat": 43.5692467, "lon": -116.5713253, "tags": {"name": "American National", "office": "insurance"}}, {"type": "node", "id": 11424970024, "lat": 43.5689669, "lon": -116.5718597, "tags": {"name": "Heritage Insurance", "office": "insurance"}}, {"type": "node", "id": 11424970029, "lat": 43.5688948, "lon": -116.5717452, "tags": {"brand": "UBS", "brand:wikidata": "Q193199", "name": "UBS Financial Services", "office": "financial_advisor"}}, {"type": "node", "id": 11424970030, "lat": 43.5689296, "lon": -116.5718005, "tags": {"brand": "John L. Scott", "brand:wikidata": "Q6243687", "name": "John L. Scott", "office": "estate_agent"}}, {"type": "node", "id": 11427685872, "lat": 43.5678519, "lon": -116.5726239, "tags": {"healthcare": "psychotherapist", "name": "Renewal Mental Health Services", "office": "therapist"}}, {"type": "node", "id": 11427685874, "lat": 43.5673769, "lon": -116.5723889, "tags": {"name": "Telford Law & AP Consultants", "office": "lawyer"}}, {"type": "node", "id": 11427685875, "lat": 43.5674424, "lon": -116.5723894, "tags": {"name": "Gunnell Law", "office": "lawyer"}}, {"type": "node", "id": 11427685876, "lat": 43.5670168, "lon": -116.5733079, "tags": {"name": "Patty Bell & Company", "office": "estate_agent", "phone": "+1-208-880-1440"}}, {"type": "node", "id": 11427685877, "lat": 43.5670529, "lon": -116.5733079, "tags": {"beauty": "spa", "name": "The Executive's Spa", "phone": "+1-208-466-8806", "shop": "beauty"}}, {"type": "node", "id": 11427685878, "lat": 43.5670249, "lon": -116.5725081, "tags": {"name": "Barrera Legal Group", "office": "lawyer"}}, {"type": "node", "id": 11427685880, "lat": 43.5671759, "lon": -116.5724115, "tags": {"name": "Idaho Legal Aid", "office": "lawyer"}}, {"type": "node", "id": 11427685881, "lat": 43.5670234, "lon": -116.5726371, "tags": {"name": "Cornerstone Financial Planning", "office": "accountant"}}, {"type": "node", "id": 11427685882, "lat": 43.5664203, "lon": -116.5723825, "tags": {"name": "Academy Mortgage Corporation", "office": "mortgage"}}, {"type": "node", "id": 11427685883, "lat": 43.5663172, "lon": -116.5723834, "tags": {"name": "Eric Lofthus Insurance", "office": "insurance"}}, {"type": "node", "id": 11427685884, "lat": 43.5659843, "lon": -116.5723865, "tags": {"name": "Brighter Future Health, Inc.", "office": "therapist", "phone": "+1-208-461-1300"}}, {"type": "node", "id": 11427685886, "lat": 43.5661876, "lon": -116.5723846, "tags": {"name": "Val's Tax Service", "office": "tax_advisor"}}, {"type": "node", "id": 11427685887, "lat": 43.5664151, "lon": -116.5733913, "tags": {"name": "Vape Kastle", "shop": "e-cigarette"}}, {"type": "node", "id": 11427685889, "lat": 43.5644352, "lon": -116.5738642, "tags": {"name": "Owyhee Barber Shop", "shop": "hairdresser"}}, {"type": "node", "id": 11427685890, "lat": 43.5643005, "lon": -116.5737704, "tags": {"amenity": "restaurant", "name": "Sarah's Bagel Cafe"}}, {"type": "node", "id": 11427685891, "lat": 43.5643681, "lon": -116.5738175, "tags": {"beauty": "nails", "name": "Shiny Nails", "shop": "beauty"}}, {"type": "node", "id": 11427685895, "lat": 43.5627109, "lon": -116.5727226}, {"type": "node", "id": 11427685896, "lat": 43.5627129, "lon": -116.5725122}, {"type": "node", "id": 11427685897, "lat": 43.5627666, "lon": -116.5725132}, {"type": "node", "id": 11427685898, "lat": 43.5627669, "lon": -116.5724911}, {"type": "node", "id": 11427685899, "lat": 43.5628452, "lon": -116.5724925}, {"type": "node", "id": 11427685900, "lat": 43.562882, "lon": -116.5725759}, {"type": "node", "id": 11427685901, "lat": 43.5625443, "lon": -116.5733559, "tags": {"addr:city": "Nampa", "addr:housenumber": "623", "addr:postcode": "83686", "addr:state": "ID", "addr:street": "12th Avenue Road", "name": "Thorne Printing & Copy Center", "shop": "copyshop"}}, {"type": "node", "id": 11427685938, "lat": 43.5577191, "lon": -116.5719871}, {"type": "node", "id": 11427685939, "lat": 43.5575436, "lon": -116.571989}, {"type": "node", "id": 11427685940, "lat": 43.5574968, "lon": -116.5724204}, {"type": "node", "id": 11427685952, "lat": 43.5559661, "lon": -116.5734347, "tags": {"office": "lawyer"}}, {"type": "node", "id": 11427685966, "lat": 43.5489921, "lon": -116.5735251, "tags": {"brand": "H&R Block", "brand:wikidata": "Q5627799", "name": "H&R Block", "office": "tax_advisor"}}, {"type": "node", "id": 11428051529, "lat": 43.5707762, "lon": -116.5616115, "tags": {"brand": "Farmers Insurance", "brand:wikidata": "Q1396863", "name": "Farmers Insurance", "office": "insurance"}}, {"type": "node", "id": 11428051531, "lat": 43.5790138, "lon": -116.5646656, "tags": {"name": "Parkview Motors", "second_hand": "only", "shop": "car"}}, {"type": "node", "id": 11428051532, "lat": 43.579997, "lon": -116.5652868, "tags": {"name": "La Sierra", "shop": "tyres"}}, {"type": "node", "id": 11428051533, "lat": 43.5799891, "lon": -116.5667088, "tags": {"name": "Corwin", "second_hand": "only", "shop": "car"}}, {"type": "node", "id": 11428051535, "lat": 43.5818218, "lon": -116.5680276, "tags": {"name": "Copies Plus", "shop": "copyshop"}}, {"type": "node", "id": 11428051537, "lat": 43.5836421, "lon": -116.5705212, "tags": {"name": "Quilting Bliss", "shop": "fabric"}}, {"type": "node", "id": 11428051540, "lat": 43.5838193, "lon": -116.5695931, "tags": {"name": "Sellman Insurance", "office": "insurance", "phone": "+1-208-467-3300"}}, {"type": "node", "id": 11428051542, "lat": 43.5829052, "lon": -116.5673804, "tags": {"brand": "Byrider", "brand:wikidata": "Q6105214", "name": "Byrider", "shop": "car"}}, {"type": "node", "id": 11428051544, "lat": 43.5812477, "lon": -116.5650229, "tags": {"name": "Uria Auto Body", "shop": "car_repair"}}, {"type": "node", "id": 11428051546, "lat": 43.5790502, "lon": -116.5626345, "tags": {"name": "Pioneer Health Resources", "office": "yes"}}, {"type": "node", "id": 11428051547, "lat": 43.5799051, "lon": -116.5618201, "tags": {"name": "Pioneer Title Co", "office": "financial"}}, {"type": "node", "id": 11428051548, "lat": 43.5819303, "lon": -116.5650321, "tags": {"name": "Perfect Fit", "shop": "car_repair"}}, {"type": "node", "id": 11833875069, "lat": 43.5680964, "lon": -116.5921023, "tags": {"addr:housenumber": "138", "addr:postcode": "83686", "addr:street": "South Midland Boulevard", "name": "Harvesters Coffee Co", "opening_hours": "Mo-Fr 06:30-15:00; Sa 07:30-15:00", "phone": "+1 208-475-3282", "shop": "coffee", "website": "http://harvesterscoffeeco.com"}}, {"type": "node", "id": 12083300368, "lat": 43.5575455, "lon": -116.5723226}, {"type": "node", "id": 12083363805, "lat": 43.5495178, "lon": -116.5705099}, {"type": "node", "id": 12083363806, "lat": 43.5495169, "lon": -116.5706397}, {"type": "node", "id": 12083363807, "lat": 43.5497843, "lon": -116.5701734}, {"type": "node", "id": 12083363808, "lat": 43.5496403, "lon": -116.5701717}, {"type": "node", "id": 12096191001, "lat": 43.5758667, "lon": -116.5751975, "tags": {"addr:housenumber": "135", "addr:postcode": "83651-2501", "addr:street": "Lone Star Road", "amenity": "restaurant", "contact:facebook": "camposlonestar", "contact:instagram": "camposonlonestar", "cuisine": "mexican", "name": "Campos On Lonestar", "opening_hours": "Tu-Sa 09:00-19:00; Su-Mo 09:00-16:00", "phone": "+1 208-466-1101", "website:menu": "https://order.online/store/campos-on-lonestar-nampa-428078/"}}, {"type": "way", "id": 621381653, "nodes": [5870136177, 5870136176, 5870136175, 5870136174, 5870136173, 5870136172, 5870136171, 5870136170, 5870136169, 5870136168, 5870136167, 5870136166, 5870136165, 5870136164, 5870136163, 5870136162, 5870136161, 5870136177], "tags": {"brand": "Walgreens", "brand:wikidata": "Q1591889", "building": "yes", "name": "Walgreens", "shop": "chemist", "website": "https://www.walgreens.com/locator/walgreens-700+12th+ave+s-nampa-id-83651/id=5648"}}, {"type": "way", "id": 718980317, "nodes": [2399755225, 6750679825, 6750679826, 6750679827, 6750679828, 2399755225], "tags": {"brand": "Stinker", "brand:wikidata": "Q95990164", "building": "yes", "name": "Stinker", "shop": "convenience"}}, {"type": "way", "id": 719004809, "nodes": [2400997093, 6750867171, 6750867162, 6750867163, 6750867164, 6750867165, 6750867166, 6750867167, 6750867168, 2400997093], "tags": {"building": "yes", "name": "Admissions Welcome Center", "office": "educational_institution"}}, {"type": "way", "id": 719006254, "nodes": [2400997064, 6750900002, 6750900003, 6750900004, 6750900005, 6750900006, 6750900007, 6750900008, 6750900009, 6750900010, 6750900011, 6750900012, 2400997064], "tags": {"building": "yes", "name": "Emerson Administrative Building", "office": "educational_institution", "operator": "Northwest Nazarene University", "source": "http://www.nnu.edu/campusmap/"}}, {"type": "way", "id": 762710620, "nodes": [7126813323, 7126816007, 7126782268, 7126812115, 7126821217, 7126814051, 7126813323], "tags": {"building": "yes", "building:levels": "1", "name": "Brandt Agency", "office": "estate_agent", "source": "microsoft/BuildingFootprints"}}, {"type": "way", "id": 762710637, "nodes": [7126811689, 7126814867, 7126813633, 7126816318, 7126819978, 7126812409, 7126811144, 7126814310, 7126816981, 7126820803, 7126810882, 7126814108, 7126811689], "tags": {"addr:city": "Nampa", "addr:housenumber": "127", "addr:postcode": "83651", "addr:state": "ID", "addr:street": "11th Avenue North", "brand": "Commercial Tire", "brand:wikidata": "Q28403810", "building": "yes", "name": "Commercial Tire", "opening_hours": "Mo-Fr 07:30-18:00; Sa 07:30-16:00", "phone": "+1 208-466-9241", "shop": "tyres", "source": "microsoft/BuildingFootprints", "website": "https://commercialtire.com/"}}, {"type": "way", "id": 762710789, "nodes": [7126813710, 7126816389, 7126820032, 7126817756, 7126811216, 7126814364, 7126813710], "tags": {"brand": "Caliber Collision", "brand:wikidata": "Q109329782", "building": "yes", "name": "Caliber Collision", "shop": "car_repair", "source": "microsoft/BuildingFootprints"}}, {"type": "way", "id": 762710871, "nodes": [7126819609, 7126811981, 7126813152, 7126813911, 7126819609], "tags": {"building": "yes", "name": "Sunpro", "shop": "hardware", "source": "microsoft/BuildingFootprints"}}, {"type": "way", "id": 762710914, "nodes": [7126816841, 7126815603, 7126819349, 7126811699, 7126816841], "tags": {"beauty": "spa", "building": "yes", "name": "Bella Mer", "shop": "beauty", "source": "microsoft/BuildingFootprints"}}, {"type": "way", "id": 762711052, "nodes": [7126812125, 7126815296, 7126817952, 7126811417, 7126817152, 7126811088, 7126812125], "tags": {"brand": "State Farm", "brand:wikidata": "Q2007336", "building": "yes", "name": "State Farm", "office": "insurance", "source": "microsoft/BuildingFootprints"}}, {"type": "way", "id": 762711102, "nodes": [7126812337, 7126815528, 7126819280, 7126816926, 7126812337], "tags": {"amenity": "restaurant", "building": "yes", "cuisine": "mexican", "name": "Alondra's Tienda y Taqueria", "source": "microsoft/BuildingFootprints"}}, {"type": "way", "id": 762711188, "nodes": [7126812345, 7126815533, 7126819287, 7126811660, 7126812345], "tags": {"building": "yes", "name": "Bella Salon", "shop": "hairdresser", "source": "microsoft/BuildingFootprints"}}, {"type": "way", "id": 762711204, "nodes": [2401069343, 7126782276, 7126812123, 7126815295, 2401069343], "tags": {"building": "yes", "name": "Blackbird Studios Tattoo", "phone": "+1-208-899-4617", "shop": "tattoo", "source": "microsoft/BuildingFootprints"}}, {"type": "way", "id": 762711208, "nodes": [7126820068, 7126812504, 7126811257, 7126814399, 7126820068], "tags": {"building": "yes", "name": "Larry's Sporting Goods", "shop": "sports", "source": "microsoft/BuildingFootprints"}}, {"type": "way", "id": 762711252, "nodes": [7126814164, 7126819824, 7126812243, 7126810978, 7126814164], "tags": {"amenity": "restaurant", "building": "yes", "cuisine": "mexican", "name": "Tacos Aguililla", "source": "microsoft/BuildingFootprints"}}, {"type": "way", "id": 762711265, "nodes": [7126811020, 7126814196, 7126816871, 7126820598, 7126811020], "tags": {"addr:city": "Nampa", "addr:housenumber": "1424", "addr:postcode": "83651", "addr:state": "ID", "addr:street": "2nd Street South", "building": "yes", "name": "Nueva Vida Bakery", "phone": "+1-208-466-9491", "shop": "bakery", "source": "microsoft/BuildingFootprints"}}, {"type": "way", "id": 762711431, "nodes": [7126816833, 7126820563, 7126819347, 7126811691, 7126814871, 7126817591, 7126816319, 7126819981, 7126816833], "tags": {"addr:city": "Nampa", "addr:housenumber": "500", "addr:postcode": "83651", "addr:state": "ID", "addr:street": "12th Avenue South", "building": "yes", "name": "City of Nampa Development Services Center", "office": "yes", "opening_hours": "Mo-Fr 08:00-17:00", "website": "https://cityofnampa.us/"}}, {"type": "way", "id": 762711466, "nodes": [7126817253, 7126821045, 7126782249, 7126812094, 7126817253], "tags": {"building": "yes", "name": "Tona Transformations", "shop": "furniture", "source": "microsoft/BuildingFootprints"}}, {"type": "way", "id": 762711554, "nodes": [7126817267, 7126821057, 7126813886, 7126816564, 7126816968, 7126820790, 7126817267], "tags": {"building": "yes", "name": "Whits Auto Repair", "shop": "car_repair", "source": "microsoft/BuildingFootprints"}}, {"type": "way", "id": 762711692, "nodes": [7126816982, 7126820804, 7126819509, 7126811859, 7126816982], "tags": {"amenity": "restaurant", "building": "yes", "cuisine": "mexican", "name": "El Rinconcito", "source": "microsoft/BuildingFootprints"}}, {"type": "way", "id": 762711726, "nodes": [7126817223, 7126821010, 7126813836, 7126816513, 7126817223], "tags": {"building": "yes", "name": "Old Country Sausage", "shop": "deli", "source": "microsoft/BuildingFootprints"}}, {"type": "way", "id": 762711746, "nodes": [7126811188, 7126814335, 7126817013, 7126815812, 7126811188], "tags": {"building": "yes", "name": "VSB Auto Paint & Supply", "shop": "paint", "source": "microsoft/BuildingFootprints"}}, {"type": "way", "id": 762711778, "nodes": [7126816271, 7126819928, 7126817150, 7126811086, 7126816271], "tags": {"building": "yes", "name": "Tax Express", "office": "tax_advisor", "source": "microsoft/BuildingFootprints"}}, {"type": "way", "id": 762711780, "nodes": [5062350271, 7126814806, 7126817525, 7126810907, 5062350271], "tags": {"amenity": "bar", "building": "yes", "name": "The 1918", "source": "microsoft/BuildingFootprints"}}, {"type": "way", "id": 762711797, "nodes": [7126820576, 7126819357, 7126811707, 7126814884, 7126817607, 7126816333, 7126820576], "tags": {"building": "yes", "name": "Farm Bureau Insurance", "office": "insurance", "source": "microsoft/BuildingFootprints"}}, {"type": "way", "id": 762711888, "nodes": [7126810848, 7126814070, 7126816689, 7126820431, 7126810848], "tags": {"building": "yes", "name": "Tobacco Connection", "shop": "tobacco", "source": "microsoft/BuildingFootprints"}}, {"type": "way", "id": 762712001, "nodes": [7126812541, 7126815754, 7126819481, 7126811832, 7126820943, 7126813775, 7126816460, 7126820099, 7126816133, 7126819798, 7126812541], "tags": {"building": "yes", "name": "Mission Manor Realty", "office": "estate_agent", "phone": "+1-208-467-9490", "source": "microsoft/BuildingFootprints"}}, {"type": "way", "id": 762712010, "nodes": [7126806327, 7126817335, 7126816069, 7126819732, 7126775649, 7126815351, 7126814113, 7126816736, 7126806327], "tags": {"building": "yes", "name": "Coffel Law", "office": "lawyer", "source": "microsoft/BuildingFootprints"}}, {"type": "way", "id": 762712016, "nodes": [7126817299, 7126821090, 7126819693, 7126812141, 7126817299], "tags": {"addr:city": "Nampa", "addr:housenumber": "1314", "addr:postcode": "83651", "addr:state": "ID", "addr:street": "1st Street South", "building": "yes", "building:levels": "1", "name": "Rolling H Cycles", "opening_hours": "Mo-Sa 09:30-18:00", "payment:cash": "yes", "payment:credit_cards": "yes", "payment:debit_cards": "yes", "phone": "+1 208 466 7655", "shop": "bicycle", "source": "microsoft/BuildingFootprints", "website": "https://rollinghcycles.com/"}}, {"type": "way", "id": 762712164, "nodes": [7126821088, 7126813913, 7126816593, 7126815309, 7126817969, 7126811432, 7126821088], "tags": {"building": "yes", "name": "Gears Automotive LLC", "shop": "car_repair", "source": "microsoft/BuildingFootprints"}}, {"type": "way", "id": 762712312, "nodes": [7126817482, 7126810866, 7126814088, 7126814497, 7126817482], "tags": {"building": "yes", "name": "Canyon Pools & Spas", "shop": "swimming_pool", "source": "microsoft/BuildingFootprints"}}, {"type": "way", "id": 762712321, "nodes": [7126817566, 7126810952, 7126809638, 7126812376, 7126817566], "tags": {"brand": "NAPA Auto Parts", "brand:wikidata": "Q6970842", "building": "yes", "name": "NAPA Auto Parts", "shop": "car_parts", "source": "microsoft/BuildingFootprints"}}, {"type": "way", "id": 762712327, "nodes": [7126812501, 7126815720, 7126819451, 7126817071, 7126812501], "tags": {"building": "yes", "name": "Deal Insurance", "office": "insurance", "phone": "+1-208-466-2465", "source": "microsoft/BuildingFootprints"}}, {"type": "way", "id": 762712351, "nodes": [2401069350, 7126816258, 7126819910, 7126812328, 2401069350], "tags": {"brand": "O'Reilly Auto Parts", "brand:wikidata": "Q7071951", "building": "yes", "building:levels": "1", "name": "O'Reilly Auto Parts", "shop": "car_parts", "source": "microsoft/BuildingFootprints", "website": "https://locations.oreillyauto.com/id/nampa/autoparts-2663.html"}}, {"type": "way", "id": 762712389, "nodes": [7126820559, 7126819341, 7126811685, 7126814864, 7126820559], "tags": {"brand": "AutoZone", "brand:wikidata": "Q4826087", "building": "yes", "name": "AutoZone", "shop": "car_parts", "source": "microsoft/BuildingFootprints"}}, {"type": "way", "id": 762712451, "nodes": [7126815757, 7126819484, 7126811836, 7126814997, 7126813780, 7126816462, 7126820102, 7126812547, 7126817247, 7126821037, 7126815757], "tags": {"building": "yes", "name": "Arredondo Auto Detail", "opening_hours": "Mo-Fr 08:00-18:00; Sa \"by appointment\"", "phone": "+1-208-713-5095", "service:vehicle:detailing": "yes", "shop": "car_repair", "source": "microsoft/BuildingFootprints"}}, {"type": "way", "id": 762712491, "nodes": [2401069342, 7126814314, 7126816984, 7126820806, 2401069342], "tags": {"addr:city": "Nampa", "addr:housenumber": "420", "addr:postcode": "83651", "addr:state": "ID", "addr:street": "12th Avenue South", "building": "yes", "name": "Sister Sue's Boutique", "shop": "clothes", "source": "microsoft/BuildingFootprints", "website": "https://sistersuesboutique.com/"}}, {"type": "way", "id": 762712492, "nodes": [7126822635, 7126826133, 7126823977, 7126786329, 7126822635], "tags": {"building": "yes", "name": "Temptation Tattoo & Body Piercing", "shop": "tattoo", "source": "microsoft/BuildingFootprints"}}, {"type": "way", "id": 762712504, "nodes": [2401069307, 7126816667, 7126826825, 7126824613, 2401069307], "tags": {"amenity": "restaurant", "building": "yes", "cuisine": "mexican", "name": "Pollos & Mariscos El Guero", "source": "microsoft/BuildingFootprints"}}, {"type": "way", "id": 762712519, "nodes": [7126800768, 7126821650, 7126825114, 7126822944, 7126800768], "tags": {"building": "yes", "name": "Merit Office Suites", "office": "yes", "source": "microsoft/BuildingFootprints"}}, {"type": "way", "id": 762712817, "nodes": [7126822988, 7126826507, 7126824798, 7126822567, 7126826066, 7126823909, 7126822988], "tags": {"addr:city": "Nampa", "addr:housenumber": "920", "addr:postcode": "83651", "addr:state": "ID", "addr:street": "12th Avenue South", "building": "yes", "name": "Munster's Ink Tattoo", "shop": "tattoo", "source": "microsoft/BuildingFootprints"}}, {"type": "way", "id": 762712838, "nodes": [7126825666, 7126823478, 7126821302, 7126738964, 7126823151, 7126826671, 7126825666], "tags": {"building": "yes", "name": "Property Investments, LLC", "office": "accountant", "phone": "+1-208-230-4059", "source": "microsoft/BuildingFootprints"}}, {"type": "way", "id": 762712846, "nodes": [7126824792, 7126822557, 7126824417, 7126822213, 7126824792], "tags": {"addr:city": "Nampa", "addr:housenumber": "1303", "addr:postcode": "83651", "addr:state": "ID", "addr:street": "12th Avenue South", "building": "yes", "name": "Team One Real Estate", "office": "estate_agent", "source": "microsoft/BuildingFootprints"}}, {"type": "way", "id": 762712931, "nodes": [7126823371, 7126728662, 7126825220, 7126823054, 7126823371], "tags": {"building": "yes", "name": "Randolph E. Farber", "office": "lawyer", "source": "microsoft/BuildingFootprints"}}, {"type": "way", "id": 762712959, "nodes": [7126823537, 7126821357, 7126824816, 7126823203, 7126823537], "tags": {"addr:city": "Nampa", "addr:housenumber": "923", "addr:postcode": "83651", "addr:state": "ID", "addr:street": "12th Avenue South", "building": "yes", "name": "Benconnected", "office": "it", "phone": "+1-208-442-1757", "website": "https://benconnected.com"}}, {"type": "way", "id": 762713009, "nodes": [7126823225, 7126826740, 7126824498, 7126825064, 7126823225], "tags": {"addr:city": "Nampa", "addr:housenumber": "1016", "addr:postcode": "83651", "addr:state": "ID", "addr:street": "12th Avenue South", "building": "yes", "name": "Lucky Dog Salon", "phone": "+1-208-466-3374", "shop": "pet_grooming", "source": "microsoft/BuildingFootprints"}}, {"type": "way", "id": 762713083, "nodes": [7126825938, 7126823796, 7126825539, 7126823345, 7126825938], "tags": {"addr:city": "Nampa", "addr:housenumber": "924", "addr:postcode": "83651", "addr:state": "ID", "addr:street": "12th Avenue South", "building": "yes", "name": "Mystikal Misfits", "opening_hours": "Mo-Sa 11:00-19:00", "shop": "esoteric", "source": "microsoft/BuildingFootprints"}}, {"type": "way", "id": 762713155, "nodes": [7126825846, 7126803855, 7126822038, 7126825492, 7126825846], "tags": {"brand": "Stinker", "brand:wikidata": "Q95990164", "building": "yes", "name": "Stinker", "shop": "convenience", "source": "microsoft/BuildingFootprints"}}, {"type": "way", "id": 762713342, "nodes": [2401069322, 7126821531, 7126824999, 7126823347, 2401069322], "tags": {"addr:city": "Nampa", "addr:housenumber": "1004", "addr:postcode": "83651", "addr:state": "ID", "addr:street": "12th Avenue South", "building": "yes", "name": "Backcountry Barber Shop", "shop": "hairdresser", "source": "microsoft/BuildingFootprints"}}, {"type": "way", "id": 762713457, "nodes": [7126824054, 7126821850, 7126825307, 7126823143, 7126821487, 7126824956, 7126824054], "tags": {"building": "yes", "name": "Nissy Styles Salon", "phone": "+1-208-697-3066", "shop": "hairdresser", "source": "microsoft/BuildingFootprints"}}, {"type": "way", "id": 762713478, "nodes": [7126825482, 7126823293, 7126826819, 7126824607, 7126825482], "tags": {"addr:city": "Nampa", "addr:housenumber": "1016", "addr:postcode": "83651", "addr:state": "ID", "addr:street": "12th Avenue South", "building": "yes", "name": "Munster's Barber Shop", "shop": "hairdresser", "source": "microsoft/BuildingFootprints"}}, {"type": "way", "id": 762713530, "nodes": [7126825630, 7126823444, 7126798667, 7126812682, 7126825630], "tags": {"building": "yes", "name": "Peterson & Associates Realtors", "office": "estate_agent", "source": "microsoft/BuildingFootprints"}}, {"type": "way", "id": 762713608, "nodes": [7126824891, 7126822656, 7126798851, 7126824544, 7126824891], "tags": {"addr:city": "Nampa", "addr:housenumber": "912", "addr:postcode": "83651", "addr:state": "ID", "addr:street": "12th Avenue South", "building": "yes", "name": "Pine Rock Business Center", "office": "yes", "source": "microsoft/BuildingFootprints"}}, {"type": "way", "id": 762713711, "nodes": [7126823681, 7126821493, 7126825496, 7126823310, 7126823681], "tags": {"addr:city": "Nampa", "addr:housenumber": "1216", "addr:postcode": "83651", "addr:state": "ID", "addr:street": "12th Avenue South", "alt_name": "Edward Jones Investments", "brand": "Edward Jones", "brand:wikidata": "Q5343830", "building": "retail", "name": "Edward Jones", "office": "financial_advisor", "source": "microsoft/BuildingFootprints"}}, {"type": "way", "id": 769863470, "nodes": [2401069364, 7126821091, 7126813919, 7126816599, 7126815315, 7126817979, 2401069364], "tags": {"building": "yes", "building:levels": "1", "name": "King's Pro Tire Center", "shop": "tyres"}}, {"type": "way", "id": 769863471, "nodes": [2401069360, 7187043309, 7126820240, 7126800554, 2401069360], "tags": {"building": "yes", "building:levels": "1", "name": "Neil Alan Fine Jewelry", "shop": "jewelry"}}, {"type": "way", "id": 769863473, "nodes": [7126819248, 7187043313, 2401069362, 7126815496, 7126819248], "tags": {"building": "yes", "name": "Ron's Clip Shop", "shop": "hairdresser"}}, {"type": "way", "id": 769863474, "nodes": [7187043318, 7126820620, 2401069359, 7126816235, 7126819891, 7187043317, 7187043318], "tags": {"amenity": "restaurant", "building": "yes", "building:levels": "1", "cuisine": "chinese", "name": "Hong Kong Restaurant"}}, {"type": "way", "id": 769863483, "nodes": [7187043333, 5062350276, 7187043334, 7187043335, 7187043333], "tags": {"amenity": "bar", "building": "yes", "building:levels": "1", "name": "Tiny's Cocktail Bar"}}, {"type": "way", "id": 777171450, "nodes": [7251669269, 7251669270, 7251669271, 7126814452, 7251669269], "tags": {"addr:city": "Nampa", "addr:housenumber": "124", "addr:postcode": "83651", "addr:state": "ID", "addr:street": "13th Avenue South", "building:part": "yes", "name": "Inhale Bliss", "opening_hours": "Mo-Su 11:00-20:00", "payment:apple_pay": "yes", "payment:cash": "yes", "payment:coins": "yes", "payment:contactless": "yes", "payment:credit_cards": "yes", "payment:cryptocurrencies": "yes", "payment:debit_cards": "yes", "payment:mastercard": "yes", "payment:visa": "yes", "phone": "+1-208-999-6667", "shop": "cannabis", "smoking": "yes", "website": "https://www.inhalebliss.com"}}, {"type": "way", "id": 777193064, "nodes": [7126820303, 7251952955, 7251952957, 7251952956, 7126813221, 7126820303], "tags": {"addr:city": "Nampa", "addr:housenumber": "114", "addr:postcode": "83651", "addr:state": "ID", "addr:street": "13th Avenue South", "building": "yes", "contact:facebook": "https://www.facebook.com/swirlaglass", "name": "Swirl Wine Shop & Lounge", "phone": "+1 208-310-0782", "shop": "wine"}}, {"type": "way", "id": 786500135, "nodes": [2399002624, 12083363807, 12083363808, 7354064284, 7354064285, 9553252094, 9553252098, 9553252097, 9553252096, 9553252095, 9553252101, 9553252099, 9553252100, 7354064286, 9553252103, 9553252102, 9553252105, 9553252104, 9553252108, 9553252107, 9553252109, 9553252106, 9553252113, 9553252115, 9553252114, 9553252112, 9553252110, 9553252111, 12083363805, 12083363806, 2399002624], "tags": {"addr:city": "Nampa", "addr:country": "US", "addr:housenumber": "2101", "addr:postcode": "83686", "addr:state": "ID", "addr:street": "South Locust Street", "brand": "Walmart", "brand:wikidata": "Q483551", "building": "yes", "name": "Walmart Supercenter", "opening_hours": "Mo 05:00-18:00; Tu-Su 05:00-24:00", "operator": "Walmart", "operator:wikidata": "Q483551", "payment:app:walmart": "yes", "payment:apple_pay": "no", "payment:google_pay": "no", "payment:samsung_pay": "no", "phone": "+1 208-467-5047", "ref": "2781", "ref:walmart": "2781", "sensory_friendly:accommodation": "dimmed_light;static_screens;no_pa", "sensory_friendly:conditional": "yes @ 08:00-10:00", "shop": "supermarket", "website": "https://www.walmart.com/store/2781-nampa-id"}}, {"type": "way", "id": 786508223, "nodes": [7354140507, 7354140508, 7354140509, 7354140510, 7354140511, 7354140512, 7354140513, 7354140514, 7354140515, 7354140516, 7354140517, 7354140507], "tags": {"amenity": "restaurant", "brand": "Dickey's Barbecue Pit", "brand:wikidata": "Q19880747", "building": "yes", "cuisine": "barbecue", "name": "Dickey's Barbecue Pit"}}, {"type": "way", "id": 1007987656, "nodes": [9298256817, 9299015959, 9299015960, 9299015961, 9298256817], "tags": {"addr:city": "Nampa", "addr:housenumber": "1324", "addr:postcode": "83686", "addr:state": "ID", "addr:street": "12th Avenue Road", "amenity": "cafe", "branch": "12th Avenue Road & East Hawaii Avenue", "brand": "Starbucks", "brand:wikidata": "Q37158", "building": "yes", "cuisine": "coffee_shop", "internet_access": "wlan", "internet_access:fee": "yes", "name": "Starbucks", "official_name": "Starbucks Coffee", "opening_hours": "Mo-Su 05:00-20:00", "outdoor_seating": "yes", "phone": "+1 208-442-7256", "takeaway": "yes", "website": "https://www.starbucks.com/store-locator/store/1006628/12-th-ave-rd-e-hawaii-ave-1324-12-th-ave-rd-nampa-id-836866004-us"}}, {"type": "way", "id": 1037447683, "nodes": [9556929177, 9556929178, 9556929179, 9556929180, 9556929177], "tags": {"amenity": "cafe", "building": "yes", "cuisine": "coffee_shop", "drive_through": "yes", "name": "Hot Shots Brew Crew", "outdoor_seating": "yes", "source": "microsoft/BuildingFootprints"}}, {"type": "way", "id": 1037447687, "nodes": [9556929203, 9556929204, 9556929205, 9556929206, 9556929207, 9556929208, 9556929209, 9556929210, 9556929211, 9556929212, 9556929213, 9556929214, 9556929203], "tags": {"building": "yes", "name": "Half Price Title Loans", "shop": "money_lender", "source": "microsoft/BuildingFootprints"}}, {"type": "way", "id": 1037447693, "nodes": [9556972639, 9556972640, 9556972641, 9556972642, 9556972639], "tags": {"addr:city": "Nampa", "addr:housenumber": "223", "addr:postcode": "83686", "addr:state": "ID", "addr:street": "12th Avenue Road", "building": "yes", "clothes": "wedding", "name": "Jeannie's Bridal Lace & Fabric", "shop": "clothes", "source": "microsoft/BuildingFootprints"}}, {"type": "way", "id": 1037447703, "nodes": [9556972683, 9556972684, 9556972685, 9556972686, 9556972687, 9556972688, 9556972689, 9556972690, 9556972691, 9556972692, 9556972683], "tags": {"building": "yes", "name": "Tienda Morelia", "shop": "variety_store", "source": "microsoft/BuildingFootprints"}}, {"type": "way", "id": 1037447711, "nodes": [9556972757, 9556972758, 9556972759, 9556972760, 9556972761, 9556972762, 9556972757], "tags": {"addr:city": "Nampa", "addr:housenumber": "619", "addr:postcode": "83686", "addr:state": "ID", "addr:street": "12th Avenue Road", "brand": "Boost Mobile", "brand:wikidata": "Q4943790", "building": "yes", "name": "Boost Mobile", "shop": "mobile_phone", "source": "microsoft/BuildingFootprints"}}, {"type": "way", "id": 1037447712, "nodes": [2399714302, 9556972763, 9556972764, 9556972765, 2399714302], "tags": {"brand": "Maverik", "brand:wikidata": "Q64149010", "building": "yes", "name": "Maverik", "shop": "convenience", "source": "microsoft/BuildingFootprints"}}, {"type": "way", "id": 1037447714, "nodes": [2399755228, 9556972770, 9556972771, 9556972772, 2399755228], "tags": {"brand": "O'Reilly Auto Parts", "brand:wikidata": "Q7071951", "building": "yes", "name": "O'Reilly Auto Parts", "shop": "car_parts", "source": "microsoft/BuildingFootprints", "website": "https://locations.oreillyauto.com/id/nampa/autoparts-3830.html"}}, {"type": "way", "id": 1123517628, "nodes": [10274778835, 10274778836, 10274778837, 10274778838, 10274778835], "tags": {"brand": "Family Dollar", "brand:wikidata": "Q5433101", "building": "yes", "name": "Family Dollar", "shop": "variety_store"}}, {"type": "way", "id": 1184486557, "nodes": [11001866655, 11001866654, 7126814267, 11001866634, 7126819460, 11001866635, 11001866655], "tags": {"addr:city": "Nampa", "addr:housenumber": "1105", "addr:postcode": "83651", "addr:state": "ID", "addr:street": "2nd Street South", "building": "retail", "building:levels": "1", "height": "7", "name": "Silvercreek Realty Group", "office": "estate_agent"}}, {"type": "way", "id": 1184486560, "nodes": [11001866661, 11001866660, 11001866643, 11001873679, 11001873680, 11001866661], "tags": {"addr:city": "Nampa", "addr:housenumber": "1125", "addr:postcode": "83651", "addr:state": "ID", "addr:street": "2nd Street South", "addr:unit": "100", "building": "retail", "building:levels": "1", "name": "First American Title", "office": "insurance", "website": "https://www.firstam.com"}}, {"type": "way", "id": 1195162975, "nodes": [11092721401, 11092778405, 11092721403, 11092721404, 7126811970, 11092721402, 11092721401], "tags": {"addr:city": "Nampa", "addr:housenumber": "1323", "addr:postcode": "83651", "addr:state": "ID", "addr:street": "1st Street South", "building": "retail", "building:levels": "1", "email": "racks@qwestoffice.net", "name": "Farm Store", "opening_hours": "Tu-Fr 9:00-17:30; Sa 09:00-16:30", "phone": "+1-208-466-8320", "shop": "clothes", "website": "https://www.storefixturesofidaho.com/"}}, {"type": "way", "id": 1195162979, "nodes": [7126820072, 7126816432, 7126815871, 11092778420, 7126817079, 7126814407, 11092778421, 7126811261, 7126817803, 7126820072], "tags": {"addr:city": "Nampa", "addr:housenumber": "1314", "addr:postcode": "83651", "addr:state": "ID", "addr:street": "2nd Street South", "air_conditioning": "yes", "amenity": "cafe", "building": "yes", "building:levels": "2", "cuisine": "coffee_shop", "drive_through": "no", "internet_access": "wlan", "internet_access:fee": "no", "name": "Flying M Coffee Garage", "opening_hours": "Mo-Fr 06:30-23:00; Sa 07:30-23:00; Su 07:30-18:00", "outdoor_seating": "yes", "phone": "+1-208-467-5533", "toilets": "yes", "website": "https://www.flyingmcoffee.com"}}, {"type": "way", "id": 1195162982, "nodes": [7126739054, 7126816332, 11092778430, 11092778435, 11092778429, 11092778434, 7126739054], "tags": {"addr:city": "Nampa", "addr:housenumber": "124", "addr:postcode": "83651", "addr:state": "ID", "addr:street": "14th Avenue South", "building": "yes", "contact:facebook": "RetroWorld2022", "email": "cardshack1@gmail.com", "name": "Retro World", "opening_hours": "Mo 10:00-20:00; Tu-Th 11:00-20:00; Fr-Sa 11:00-21:00; Su 10:00-17:00", "phone": "+1-208-316-1353", "shop": "video_games"}}, {"type": "way", "id": 1195162983, "nodes": [7126816332, 11092778428, 11092778432, 11092778433, 11092778431, 11092778430, 7126816332], "tags": {"addr:city": "Nampa", "addr:housenumber": "1408", "addr:postcode": "83651", "addr:state": "ID", "addr:street": "2nd Street South", "building": "yes", "building:levels": "1.5", "email": "lori@asquetaglass.com", "name": "Asqueta Glass", "phone": "+1-208-466-2476", "service:vehicle:glass": "yes", "service:vehicle:glass_repair": "yes", "shop": "car_repair", "website": "http://asquetaglass.com"}}, {"type": "way", "id": 1202406140, "nodes": [11147032068, 11147032069, 11147032070, 11147032071, 11147032072, 11147032073, 11147032068], "tags": {"addr:city": "Nampa", "addr:housenumber": "720", "addr:postcode": "83686", "addr:state": "ID", "addr:street": "12th Avenue Road", "brand": "Valvoline", "brand:wikidata": "Q7912852", "building": "yes", "name": "Valvoline", "official_name": "Valvoline Instant Oil Change", "shop": "car_repair", "website": "https://store.vioc.com/id/nampa/oil-change-090139.html"}}, {"type": "way", "id": 1202406142, "nodes": [11147032086, 11147032087, 11147032088, 11147032089, 11147032090, 11147032091, 11147032092, 11147032086], "tags": {"addr:city": "Nampa", "addr:housenumber": "624", "addr:postcode": "83686", "addr:state": "ID", "addr:street": "12th Avenue Road", "amenity": "cafe", "brand": "Dutch Bros. Coffee", "brand:wikidata": "Q5317253", "building": "yes", "cuisine": "coffee_shop", "name": "Dutch Bros. Coffee", "opening_hours": "05:00-23:00", "ref": "DB245", "takeaway": "only", "website": "https://locations.dutchbros.com/dutch-bros-coffee-4cc69ce04540"}}, {"type": "way", "id": 1214710607, "nodes": [11254398826, 11254398827, 11254398828, 11254398829, 11254398826], "tags": {"addr:city": "Nampa", "addr:housenumber": "824", "addr:postcode": "83686", "addr:state": "ID", "addr:street": "12th Avenue Road", "brand": "Jiffy Lube", "brand:wikidata": "Q6192247", "building": "yes", "name": "Jiffy Lube", "opening_hours": "Mo-Sa 08:00-18:00", "phone": "+12084654431", "service:vehicle:air_conditioning": "yes", "service:vehicle:brakes": "yes", "service:vehicle:oil_change": "yes", "shop": "car_repair"}}, {"type": "way", "id": 1231780084, "nodes": [11423764464, 11423764465, 11423764466, 11423764467, 11423764464], "tags": {"building": "yes", "name": "Get The Funk Out", "second_hand": "only", "shop": "car"}}, {"type": "way", "id": 1232052732, "nodes": [2399755222, 11427685895, 11427685896, 11427685897, 11427685898, 11427685899, 11427685900, 2399755222], "tags": {"building": "yes", "name": "Real Deals", "shop": "clothes"}}, {"type": "way", "id": 1232052737, "nodes": [3485428113, 11427685938, 11427685939, 12083300368, 11427685940, 3485428113], "tags": {"addr:city": "Nampa", "addr:housenumber": "1118", "addr:postcode": "83686", "addr:state": "ID", "addr:street": "12th Avenue Road", "brand": "AutoZone", "brand:wikidata": "Q4826087", "building": "yes", "name": "AutoZone", "opening_hours": "Mo-Sa 07:30-23:00; Su 08:00-20:00", "phone": "+1-208-800-6018", "shop": "car_parts", "website": "https://www.autozone.com/locations/id/nampa/1118-12th-ave-rd.html"}}]}