{"version": 0.6, "generator": "Overpass API 0.7.62.8 e802775f", "osm3s": {"timestamp_osm_base": "2025-12-06T06:00:01Z", "copyright": "The data included in this document is from www.openstreetmap.org. The data is made available under ODbL."}, "elements": [{"type": "node", "id": 5037189727, "lat": 44.1111331, "lon": -115.9703138}, {"type": "node", "id": 5037189728, "lat": 44.1111864, "lon": -115.9701644}, {"type": "node", "id": 5037189729, "lat": 44.1112468, "lon": -115.9702062}, {"type": "node", "id": 5037189730, "lat": 44.111304, "lon": -115.9700458}, {"type": "node", "id": 5037189731, "lat": 44.1110598, "lon": -115.969877}, {"type": "node", "id": 5037189732, "lat": 44.1110074, "lon": -115.970024}, {"type": "node", "id": 5037189733, "lat": 44.1110627, "lon": -115.9700623}, {"type": "node", "id": 5037189734, "lat": 44.1110047, "lon": -115.970225}, {"type": "node", "id": 11775096382, "lat": 44.0988248, "lon": -115.9929422}, {"type": "node", "id": 11775096383, "lat": 44.0990159, "lon": -115.9930252}, {"type": "node", "id": 11775096384, "lat": 44.0990763, "lon": -115.9927555}, {"type": "node", "id": 11775096385, "lat": 44.0989713, "lon": -115.9927098}, {"type": "node", "id": 11775096386, "lat": 44.0989518, "lon": -115.992797}, {"type": "node", "id": 11775096387, "lat": 44.0988912, "lon": -115.9927707}, {"type": "node", "id": 11775096388, "lat": 44.0988866, "lon": -115.9927913}, {"type": "node", "id": 11775096389, "lat": 44.0988611, "lon": -115.9927803}, {"type": "node", "id": 11775096390, "lat": 44.1039026, "lon": -115.9923101}, {"type": "node", "id": 11775096391, "lat": 44.1039816, "lon": -115.992382}, {"type": "node", "id": 11775096392, "lat": 44.1039083, "lon": -115.9925379}, {"type": "node", "id": 11775096393, "lat": 44.1038846, "lon": -115.9925163}, {"type": "node", "id": 11775096394, "lat": 44.1038693, "lon": -115.992549}, {"type": "node", "id": 11775096395, "lat": 44.1038349, "lon": -115.9925177}, {"type": "node", "id": 11775096396, "lat": 44.1038483, "lon": -115.9924893}, {"type": "node", "id": 11775096397, "lat": 44.1038273, "lon": -115.9924702}, {"type": "node", "id": 11775096398, "lat": 44.1043788, "lon": -115.9930792}, {"type": "node", "id": 11775096399, "lat": 44.1044533, "lon": -115.9930876}, {"type": "node", "id": 11775096400, "lat": 44.1044615, "lon": -115.9929463}, {"type": "node", "id": 11775096401, "lat": 44.104387, "lon": -115.9929379}, {"type": "node", "id": 11775096462, "lat": 44.1061784, "lon": -115.9781054}, {"type": "node", "id": 11775096463, "lat": 44.1061836, "lon": -115.9780329}, {"type": "node", "id": 11775096464, "lat": 44.1063238, "lon": -115.9780526}, {"type": "node", "id": 11775096465, "lat": 44.1063186, "lon": -115.978125}, {"type": "node", "id": 11775096466, "lat": 44.1070334, "lon": -115.9800982}, {"type": "node", "id": 11775096467, "lat": 44.1070946, "lon": -115.9802346}, {"type": "node", "id": 11775096468, "lat": 44.1072514, "lon": -115.980098}, {"type": "node", "id": 11775096469, "lat": 44.1071901, "lon": -115.9799617}, {"type": "node", "id": 11775096474, "lat": 44.1099062, "lon": -115.9870813}, {"type": "node", "id": 11775096475, "lat": 44.1098078, "lon": -115.9870287}, {"type": "node", "id": 11775096476, "lat": 44.1097827, "lon": -115.9869483}, {"type": "node", "id": 11775096477, "lat": 44.1098123, "lon": -115.98684}, {"type": "node", "id": 11775096478, "lat": 44.1098693, "lon": -115.9868152}, {"type": "node", "id": 11775096479, "lat": 44.1099653, "lon": -115.9868666}, {"type": "node", "id": 11775096480, "lat": 44.109413, "lon": -115.9878713}, {"type": "node", "id": 11775096481, "lat": 44.1093331, "lon": -115.9881715}, {"type": "node", "id": 11775096482, "lat": 44.1094742, "lon": -115.9882443}, {"type": "node", "id": 11775096483, "lat": 44.109554, "lon": -115.9879441}, {"type": "node", "id": 11775096484, "lat": 44.1065974, "lon": -115.9907103}, {"type": "node", "id": 11775096485, "lat": 44.1066869, "lon": -115.9906939}, {"type": "node", "id": 11775096486, "lat": 44.106677, "lon": -115.9905895}, {"type": "node", "id": 11775096487, "lat": 44.1066935, "lon": -115.9905865}, {"type": "node", "id": 11775096488, "lat": 44.10669, "lon": -115.9905489}, {"type": "node", "id": 11775096489, "lat": 44.106674, "lon": -115.9905518}, {"type": "node", "id": 11775096490, "lat": 44.1066703, "lon": -115.9905132}, {"type": "node", "id": 11775096491, "lat": 44.1065804, "lon": -115.9905297}, {"type": "node", "id": 11775096493, "lat": 44.1107266, "lon": -115.9879693}, {"type": "node", "id": 11775096494, "lat": 44.1107912, "lon": -115.9879916}, {"type": "node", "id": 11775096495, "lat": 44.1107947, "lon": -115.9879723}, {"type": "node", "id": 11775096496, "lat": 44.1108302, "lon": -115.9879846}, {"type": "node", "id": 11775096497, "lat": 44.1108409, "lon": -115.9879244}, {"type": "node", "id": 11775096498, "lat": 44.1108635, "lon": -115.9879322}, {"type": "node", "id": 11775096499, "lat": 44.1108752, "lon": -115.9878662}, {"type": "node", "id": 11775096500, "lat": 44.1108467, "lon": -115.9878564}, {"type": "node", "id": 11775096501, "lat": 44.1108609, "lon": -115.9877769}, {"type": "node", "id": 11775096518, "lat": 44.1042295, "lon": -115.9886791}, {"type": "node", "id": 11775096519, "lat": 44.1043076, "lon": -115.9887146}, {"type": "node", "id": 11775096520, "lat": 44.104315, "lon": -115.9886832}, {"type": "node", "id": 11775096521, "lat": 44.1043638, "lon": -115.9887054}, {"type": "node", "id": 11775096522, "lat": 44.1043855, "lon": -115.9886129}, {"type": "node", "id": 11775096523, "lat": 44.1042586, "lon": -115.9885552}, {"type": "node", "id": 11775096524, "lat": 44.1041195, "lon": -115.9738613}, {"type": "node", "id": 11775096525, "lat": 44.104176, "lon": -115.9739532}, {"type": "node", "id": 11775096526, "lat": 44.1041955, "lon": -115.97393}, {"type": "node", "id": 11775096527, "lat": 44.1042202, "lon": -115.9739703}, {"type": "node", "id": 11775096528, "lat": 44.1043863, "lon": -115.9737721}, {"type": "node", "id": 11775096529, "lat": 44.104305, "lon": -115.97364}, {"type": "node", "id": 11775096534, "lat": 44.104468, "lon": -115.9726992}, {"type": "node", "id": 11775096535, "lat": 44.1045111, "lon": -115.9727766}, {"type": "node", "id": 11775096536, "lat": 44.10453, "lon": -115.9727562}, {"type": "node", "id": 11775096537, "lat": 44.1045436, "lon": -115.9727807}, {"type": "node", "id": 11775096538, "lat": 44.1045658, "lon": -115.9727568}, {"type": "node", "id": 11775096539, "lat": 44.1045503, "lon": -115.9727289}, {"type": "node", "id": 11775096540, "lat": 44.1046163, "lon": -115.9726577}, {"type": "node", "id": 11775096541, "lat": 44.1045751, "lon": -115.9725836}, {"type": "node", "id": 11775096542, "lat": 44.1047725, "lon": -115.970675}, {"type": "node", "id": 11775096543, "lat": 44.1047545, "lon": -115.9707899}, {"type": "node", "id": 11775096544, "lat": 44.1048623, "lon": -115.9708225}, {"type": "node", "id": 11775096545, "lat": 44.1049183, "lon": -115.9704637}, {"type": "node", "id": 11775096546, "lat": 44.1048327, "lon": -115.9704378}, {"type": "node", "id": 11775096547, "lat": 44.1048252, "lon": -115.9704861}, {"type": "node", "id": 11775096548, "lat": 44.1048059, "lon": -115.9704803}, {"type": "node", "id": 11775096549, "lat": 44.1047927, "lon": -115.9705649}, {"type": "node", "id": 11775096550, "lat": 44.1048123, "lon": -115.9705708}, {"type": "node", "id": 11775096551, "lat": 44.1047949, "lon": -115.9706818}, {"type": "node", "id": 11775096583, "lat": 44.0816347, "lon": -115.9604696}, {"type": "node", "id": 11775096584, "lat": 44.0817164, "lon": -115.9606968}, {"type": "node", "id": 11775096585, "lat": 44.0817484, "lon": -115.9606745}, {"type": "node", "id": 11775096586, "lat": 44.0817576, "lon": -115.9607001}, {"type": "node", "id": 11775096587, "lat": 44.081854, "lon": -115.9606329}, {"type": "node", "id": 11775096588, "lat": 44.0817875, "lon": -115.9604482}, {"type": "node", "id": 11775096589, "lat": 44.0817939, "lon": -115.9604437}, {"type": "node", "id": 11775096590, "lat": 44.0817749, "lon": -115.960391}, {"type": "node", "id": 11775096591, "lat": 44.0817709, "lon": -115.9603937}, {"type": "node", "id": 11775096592, "lat": 44.0817655, "lon": -115.9603785}, {"type": "node", "id": 12411491280, "lat": 44.1107666, "lon": -115.9877443}, {"type": "node", "id": 12876195689, "lat": 44.1126117, "lon": -115.9694986}, {"type": "node", "id": 12876195690, "lat": 44.1127538, "lon": -115.9695466}, {"type": "node", "id": 12876195691, "lat": 44.1127123, "lon": -115.9697844}, {"type": "node", "id": 12876195692, "lat": 44.1125703, "lon": -115.9697364}, {"type": "way", "id": 515893366, "nodes": [5037189727, 5037189728, 5037189729, 5037189730, 5037189731, 5037189732, 5037189733, 5037189734, 5037189727], "tags": {"addr:city": "Crouch", "addr:housenumber": "85", "addr:postcode": "83622", "addr:state": "ID", "addr:street": "Old Crouch Road", "amenity": "library", "building": "yes", "internet_access": "yes", "name": "Garden Valley District Library", "opening_hours": "Mo-Su 10:00-22:00"}}, {"type": "way", "id": 1267866627, "nodes": [11775096382, 11775096383, 11775096384, 11775096385, 11775096386, 11775096387, 11775096388, 11775096389, 11775096382], "tags": {"addr:city": "Garden Valley", "addr:housenumber": "32", "addr:postcode": "83622", "addr:state": "ID", "addr:street": "Coyote Lane", "building": "detached"}}, {"type": "way", "id": 1267866628, "nodes": [11775096390, 11775096391, 11775096392, 11775096393, 11775096394, 11775096395, 11775096396, 11775096397, 11775096390], "tags": {"addr:city": "Garden Valley", "addr:housenumber": "35", "addr:postcode": "83622", "addr:state": "ID", "addr:street": "Circle Drive", "building": "detached"}}, {"type": "way", "id": 1267866629, "nodes": [11775096398, 11775096399, 11775096400, 11775096401, 11775096398], "tags": {"addr:city": "Garden Valley", "addr:housenumber": "29", "addr:postcode": "83622", "addr:state": "ID", "addr:street": "Circle Drive", "building": "detached"}}, {"type": "way", "id": 1267866642, "nodes": [11775096462, 11775096463, 11775096464, 11775096465, 11775096462], "tags": {"addr:city": "Garden Valley", "addr:housenumber": "95", "addr:postcode": "83622", "addr:state": "ID", "addr:street": "Banks Lowman Road", "building": "yes"}}, {"type": "way", "id": 1267866643, "nodes": [11775096466, 11775096467, 11775096468, 11775096469, 11775096466], "tags": {"addr:city": "Garden Valley", "addr:housenumber": "863", "addr:postcode": "83622", "addr:state": "ID", "addr:street": "Banks Lowman Road", "building": "detached"}}, {"type": "way", "id": 1267866645, "nodes": [11775096474, 11775096475, 11775096476, 11775096477, 11775096478, 11775096479, 11775096474], "tags": {"addr:city": "Garden Valley", "addr:housenumber": "856", "addr:postcode": "83622", "addr:state": "ID", "addr:street": "Banks Lowman Road", "building": "yes"}}, {"type": "way", "id": 1267866646, "nodes": [11775096480, 11775096481, 11775096482, 11775096483, 11775096480], "tags": {"addr:city": "Garden Valley", "addr:housenumber": "854", "addr:postcode": "83622", "addr:state": "ID", "addr:street": "Banks Lowman Road", "amenity": "fire_station", "building": "yes", "manned": "no", "name": "Station 2", "operator": "Garden Valley Fire Protection District"}}, {"type": "way", "id": 1267866647, "nodes": [11775096484, 11775096485, 11775096486, 11775096487, 11775096488, 11775096489, 11775096490, 11775096491, 11775096484], "tags": {"addr:city": "Garden Valley", "addr:housenumber": "15", "addr:postcode": "83622", "addr:state": "ID", "addr:street": "Timber Lane", "building": "detached"}}, {"type": "way", "id": 1267866648, "nodes": [12411491280, 11775096493, 11775096494, 11775096495, 11775096496, 11775096497, 11775096498, 11775096499, 11775096500, 11775096501, 12411491280], "tags": {"addr:city": "Garden Valley", "addr:housenumber": "10", "addr:postcode": "83622", "addr:state": "ID", "addr:street": "Fair Meadow Drive", "building": "detached"}}, {"type": "way", "id": 1267866653, "nodes": [11775096518, 11775096519, 11775096520, 11775096521, 11775096522, 11775096523, 11775096518], "tags": {"addr:city": "Garden Valley", "addr:housenumber": "125", "addr:postcode": "83622", "addr:state": "ID", "addr:street": "Rock Pit Road", "building": "detached"}}, {"type": "way", "id": 1267866654, "nodes": [11775096524, 11775096525, 11775096526, 11775096527, 11775096528, 11775096529, 11775096524], "tags": {"addr:city": "Garden Valley", "addr:housenumber": "946", "addr:postcode": "83622", "addr:state": "ID", "addr:street": "Banks Lowman Road", "building": "detached"}}, {"type": "way", "id": 1267866656, "nodes": [11775096534, 11775096535, 11775096536, 11775096537, 11775096538, 11775096539, 11775096540, 11775096541, 11775096534], "tags": {"addr:city": "Garden Valley", "addr:housenumber": "948", "addr:postcode": "83622", "addr:state": "ID", "addr:street": "Banks Lowman Road", "building": "detached"}}, {"type": "way", "id": 1267866657, "nodes": [11775096542, 11775096543, 11775096544, 11775096545, 11775096546, 11775096547, 11775096548, 11775096549, 11775096550, 11775096551, 11775096542], "tags": {"addr:city": "Garden Valley", "addr:housenumber": "49", "addr:postcode": "83622", "addr:state": "ID", "addr:street": "Old Crouch Road", "building": "detached"}}, {"type": "way", "id": 1267866661, "nodes": [11775096583, 11775096584, 11775096585, 11775096586, 11775096587, 11775096588, 11775096589, 11775096590, 11775096591, 11775096592, 11775096583], "tags": {"addr:city": "Garden Valley", "addr:housenumber": "97", "addr:postcode": "83622", "addr:state": "ID", "addr:street": "Severance Road", "building": "detached"}}, {"type": "way", "id": 1391056864, "nodes": [12876195689, 12876195690, 12876195691, 12876195692, 12876195689], "tags": {"building": "yes"}}]}