{"version": 0.6, "generator": "Overpass API 0.7.62.8 e802775f", "osm3s": {"timestamp_osm_base": "2025-12-06T05:19:53Z", "copyright": "The data included in this document is from www.openstreetmap.org. The data is made available under ODbL."}, "elements": [{"type": "node", "id": 3283380163, "lat": 43.6626717, "lon": -116.355719}, {"type": "node", "id": 3283380164, "lat": 43.6626018, "lon": -116.3557173}, {"type": "node", "id": 3283380166, "lat": 43.6623235, "lon": -116.3556517}, {"type": "node", "id": 3283380167, "lat": 43.6623309, "lon": -116.3550411}, {"type": "node", "id": 3283380168, "lat": 43.6626797, "lon": -116.3550491}, {"type": "node", "id": 3283380170, "lat": 43.662437, "lon": -116.3566081}, {"type": "node", "id": 3283380171, "lat": 43.6624419, "lon": -116.3561979}, {"type": "node", "id": 3283380172, "lat": 43.6626107, "lon": -116.3562018}, {"type": "node", "id": 7012540395, "lat": 43.6698054, "lon": -116.3522158}, {"type": "node", "id": 7012540396, "lat": 43.669806, "lon": -116.3521191}, {"type": "node", "id": 7012540397, "lat": 43.6698245, "lon": -116.352216}, {"type": "node", "id": 7012540398, "lat": 43.6698253, "lon": -116.3521193}, {"type": "node", "id": 7012540399, "lat": 43.6700575, "lon": -116.3524865}, {"type": "node", "id": 7012540400, "lat": 43.6700577, "lon": -116.3524651}, {"type": "node", "id": 7012540401, "lat": 43.669957, "lon": -116.3524617}, {"type": "node", "id": 7012540402, "lat": 43.6699569, "lon": -116.3524853}, {"type": "node", "id": 7012540403, "lat": 43.6701703, "lon": -116.3523583}, {"type": "node", "id": 7012540404, "lat": 43.6701932, "lon": -116.3523586}, {"type": "node", "id": 7012540405, "lat": 43.6701961, "lon": -116.3518762}, {"type": "node", "id": 7012540406, "lat": 43.6701749, "lon": -116.351876}, {"type": "node", "id": 7012540407, "lat": 43.6701756, "lon": -116.3517694}, {"type": "node", "id": 7012540408, "lat": 43.6700664, "lon": -116.3517681}, {"type": "node", "id": 7012540409, "lat": 43.6700666, "lon": -116.3517452}, {"type": "node", "id": 7012540410, "lat": 43.6699805, "lon": -116.3517443}, {"type": "node", "id": 7012540411, "lat": 43.6699803, "lon": -116.3517684}, {"type": "node", "id": 7012540412, "lat": 43.6698501, "lon": -116.3517669}, {"type": "node", "id": 7012540413, "lat": 43.6698495, "lon": -116.3518729}, {"type": "node", "id": 7012540414, "lat": 43.6698268, "lon": -116.3518726}, {"type": "node", "id": 7012540415, "lat": 43.6698236, "lon": -116.3523561}, {"type": "node", "id": 7012540416, "lat": 43.6698449, "lon": -116.3523563}, {"type": "node", "id": 7012540417, "lat": 43.6698442, "lon": -116.3524604}, {"type": "node", "id": 7942977054, "lat": 43.6712458, "lon": -116.352352}, {"type": "node", "id": 7942977055, "lat": 43.6711745, "lon": -116.3523531}, {"type": "node", "id": 7942977056, "lat": 43.6711733, "lon": -116.3524729}, {"type": "node", "id": 7942977057, "lat": 43.6711136, "lon": -116.3525525}, {"type": "node", "id": 7942977058, "lat": 43.6711351, "lon": -116.3525829}, {"type": "node", "id": 7942977059, "lat": 43.6710771, "lon": -116.3526614}, {"type": "node", "id": 7942977060, "lat": 43.6711496, "lon": -116.3527662}, {"type": "node", "id": 7942977061, "lat": 43.6711098, "lon": -116.3528206}, {"type": "node", "id": 7942977062, "lat": 43.6711509, "lon": -116.3528825}, {"type": "node", "id": 7942977063, "lat": 43.6713046, "lon": -116.3528854}, {"type": "node", "id": 7942977064, "lat": 43.6713044, "lon": -116.352879}, {"type": "node", "id": 7942977065, "lat": 43.6713176, "lon": -116.3528642}, {"type": "node", "id": 7942977066, "lat": 43.671305, "lon": -116.3528477}, {"type": "node", "id": 7942977067, "lat": 43.6713179, "lon": -116.3528316}, {"type": "node", "id": 7942977068, "lat": 43.6713059, "lon": -116.3528137}, {"type": "node", "id": 7942977069, "lat": 43.6713182, "lon": -116.3527968}, {"type": "node", "id": 7942977070, "lat": 43.6713057, "lon": -116.352778}, {"type": "node", "id": 7942977071, "lat": 43.6713196, "lon": -116.3527601}, {"type": "node", "id": 7942977072, "lat": 43.6713067, "lon": -116.3527416}, {"type": "node", "id": 7942977073, "lat": 43.6713208, "lon": -116.3527238}, {"type": "node", "id": 7942977074, "lat": 43.6713067, "lon": -116.3527055}, {"type": "node", "id": 7942977075, "lat": 43.6713065, "lon": -116.3526837}, {"type": "node", "id": 7942977076, "lat": 43.6713108, "lon": -116.3526837}, {"type": "node", "id": 7942977077, "lat": 43.6713108, "lon": -116.3525393}, {"type": "node", "id": 7942977078, "lat": 43.6713063, "lon": -116.3525393}, {"type": "node", "id": 7942977079, "lat": 43.6713071, "lon": -116.3523875}, {"type": "node", "id": 8304072256, "lat": 43.685595, "lon": -116.397923}, {"type": "node", "id": 8304072452, "lat": 43.6857346, "lon": -116.3978471}, {"type": "node", "id": 8304072739, "lat": 43.685595, "lon": -116.397848}, {"type": "node", "id": 8304073972, "lat": 43.6857339, "lon": -116.397923}, {"type": "node", "id": 8331512392, "lat": 43.6712458, "lon": -116.352386}, {"type": "node", "id": 8331512395, "lat": 43.6701697, "lon": -116.352466}, {"type": "node", "id": 8331535886, "lat": 43.6623646, "lon": -116.3527975}, {"type": "node", "id": 8331567059, "lat": 43.6626057, "lon": -116.356612}, {"type": "node", "id": 8331567061, "lat": 43.6626025, "lon": -116.3556582}, {"type": "node", "id": 8672352715, "lat": 43.6689885, "lon": -116.3535537, "tags": {"addr:city": "Eagle", "addr:housenumber": "2826", "addr:postcode": "83616", "addr:state": "ID", "addr:street": "South Eagle Road", "addr:unit": "100", "amenity": "restaurant", "cuisine": "pizza", "name": "Red Bench Pizza"}}, {"type": "node", "id": 8672352722, "lat": 43.6695158, "lon": -116.3535576, "tags": {"addr:city": "Eagle", "addr:housenumber": "2794", "addr:postcode": "83616", "addr:state": "ID", "addr:street": "South Eagle Road", "addr:unit": "110", "name": "Bolder Barbershop", "shop": "hairdresser"}}, {"type": "node", "id": 8672356519, "lat": 43.6727942, "lon": -116.355002, "tags": {"addr:city": "Eagle", "addr:housenumber": "45", "addr:postcode": "83616", "addr:state": "ID", "addr:street": "West Cottonwood Court", "addr:unit": "140", "name": "All Saints Presbyterian Church", "office": "religion"}}, {"type": "node", "id": 8672356520, "lat": 43.6732193, "lon": -116.3556856, "tags": {"addr:city": "Eagle", "addr:housenumber": "90", "addr:postcode": "83616", "addr:state": "ID", "addr:street": "West Cottonwood Court", "addr:unit": "100", "beauty": "skin_care", "name": "Elite Medical Aesthetics", "shop": "beauty"}}, {"type": "node", "id": 8672356524, "lat": 43.6738855, "lon": -116.355296, "tags": {"addr:city": "Eagle", "addr:housenumber": "80", "addr:postcode": "83616", "addr:state": "ID", "addr:street": "West Cottonwood Court", "addr:unit": "100", "name": "Clearwater Benefits", "office": "company"}}, {"type": "node", "id": 8672381382, "lat": 43.662667, "lon": -116.351122, "tags": {"addr:city": "Boise", "addr:housenumber": "13371", "addr:postcode": "83713", "addr:state": "ID", "addr:street": "West Chinden Boulevard", "addr:unit": "101", "name": "Baird's Dry Cleaners", "opening_hours": "Mo-Th 10:00-20:00; Sa 09:00-16:00", "shop": "dry_cleaning", "wheelchair": "limited"}}, {"type": "node", "id": 8754791830, "lat": 43.6626279, "lon": -116.352916}, {"type": "node", "id": 8754791831, "lat": 43.6626279, "lon": -116.3527975}, {"type": "node", "id": 8754791832, "lat": 43.6623646, "lon": -116.352916}, {"type": "node", "id": 8936792794, "lat": 43.6642604, "lon": -116.3537675, "tags": {"addr:city": "Eagle", "addr:housenumber": "3210", "addr:postcode": "83616", "addr:state": "ID", "addr:street": "East Chinden Boulevard", "addr:unit": "100", "amenity": "restaurant", "cuisine": "mexican", "name": "Fiesta Guadalajara"}}, {"type": "node", "id": 8936792795, "lat": 43.6642591, "lon": -116.3534096, "tags": {"addr:city": "Eagle", "addr:housenumber": "3210", "addr:postcode": "83616", "addr:state": "ID", "addr:street": "East Chinden Boulevard", "addr:unit": "105", "name": "Family Pool and Spa", "shop": "swimming_pool"}}, {"type": "node", "id": 8936792796, "lat": 43.6642611, "lon": -116.3536436, "tags": {"addr:city": "Eagle", "addr:housenumber": "3210", "addr:postcode": "83616", "addr:state": "ID", "addr:street": "East Chinden Boulevard", "addr:unit": "102", "beauty": "nails", "name": "Star Nails and Spa", "shop": "beauty"}}, {"type": "node", "id": 8936792797, "lat": 43.6642591, "lon": -116.353527, "tags": {"addr:city": "Eagle", "addr:housenumber": "3210", "addr:postcode": "83616", "addr:state": "ID", "addr:street": "East Chinden Boulevard", "addr:unit": "103", "beauty": "nails", "name": "The Studio Salon and Spa", "shop": "beauty"}}, {"type": "node", "id": 8936792798, "lat": 43.6642564, "lon": -116.3530276, "tags": {"addr:city": "Eagle", "addr:housenumber": "3210", "addr:postcode": "83616", "addr:state": "ID", "addr:street": "East Chinden Boulevard", "addr:unit": "111", "name": "Silverline", "shop": "furniture"}}, {"type": "node", "id": 8936792800, "lat": 43.6642571, "lon": -116.353195, "tags": {"addr:city": "Eagle", "addr:housenumber": "3210", "addr:postcode": "83616", "addr:state": "ID", "addr:street": "East Chinden Boulevard", "addr:unit": "108", "brand": "State Farm", "brand:wikidata": "Q2007336", "name": "State Farm", "office": "insurance"}}, {"type": "node", "id": 8936792802, "lat": 43.6642551, "lon": -116.3526456, "tags": {"addr:city": "Eagle", "addr:housenumber": "3210", "addr:postcode": "83616", "addr:state": "ID", "addr:street": "East Chinden Boulevard", "addr:unit": "118", "name": "Sweet Cheeks Beauty Bar", "shop": "beauty"}}, {"type": "node", "id": 8936792803, "lat": 43.6642537, "lon": -116.3528389, "tags": {"addr:city": "Eagle", "addr:housenumber": "3210", "addr:postcode": "83616", "addr:state": "ID", "addr:street": "East Chinden Boulevard", "addr:unit": "114", "name": "Natural Foot Spa", "shop": "massage"}}, {"type": "node", "id": 8936792807, "lat": 43.6640702, "lon": -116.3520949, "tags": {"addr:city": "Eagle", "addr:housenumber": "3210", "addr:postcode": "83616", "addr:state": "ID", "addr:street": "East Chinden Boulevard", "addr:unit": "126", "amenity": "cafe", "cuisine": "bubble_tea", "name": "Boise Boba"}}, {"type": "node", "id": 8936792808, "lat": 43.6634728, "lon": -116.3520116, "tags": {"addr:city": "Eagle", "addr:housenumber": "3210", "addr:postcode": "83616", "addr:state": "ID", "addr:street": "East Chinden Boulevard", "addr:unit": "138", "amenity": "restaurant", "cuisine": "sushi", "name": "Sakura Sushi"}}, {"type": "node", "id": 8936792809, "lat": 43.66358, "lon": -116.3521039, "tags": {"addr:city": "Eagle", "addr:housenumber": "3210", "addr:postcode": "83616", "addr:state": "ID", "addr:street": "East Chinden Boulevard", "addr:unit": "133", "name": "Nest", "shop": "furniture"}}, {"type": "node", "id": 9380612734, "lat": 43.6624885, "lon": -116.3815183, "tags": {"amenity": "cafe", "cuisine": "coffee_shop", "name": "Bright Eyes"}}, {"type": "node", "id": 9622715670, "lat": 43.6732325, "lon": -116.3559029, "tags": {"name": "Sager & Associates", "office": "accountant"}}, {"type": "node", "id": 9622715671, "lat": 43.6739402, "lon": -116.3552963, "tags": {"addr:city": "Eagle", "addr:housenumber": "80", "addr:postcode": "83616", "addr:state": "ID", "addr:street": "West Cottonwood Court", "addr:unit": "100", "name": "Bitterroot Holdings", "office": "company"}}, {"type": "node", "id": 10573137225, "lat": 43.6858977, "lon": -116.3979262}, {"type": "node", "id": 10573137226, "lat": 43.6858382, "lon": -116.3979236}, {"type": "node", "id": 10573137227, "lat": 43.6858382, "lon": -116.3978475}, {"type": "node", "id": 10573137228, "lat": 43.6858977, "lon": -116.3978493}, {"type": "way", "id": 321577953, "nodes": [3283380163, 3283380164, 8331567061, 3283380166, 3283380167, 3283380168, 3283380163], "tags": {"addr:city": "Boise", "addr:housenumber": "13853", "addr:postcode": "83713", "addr:state": "ID", "addr:street": "West Chinden Boulevard", "brand": "Staples", "brand:wikidata": "Q785943", "building": "yes", "name": "Staples", "opening_hours": "Mo-Sa 08:00-21:00; Su 10:00-18:00", "shop": "stationery", "website": "https://stores.staples.com/id/boise-(meridian)/6299-eagle-road"}}, {"type": "way", "id": 321577954, "nodes": [8331567059, 3283380170, 3283380171, 3283380172, 8331567059], "tags": {"addr:city": "Boise", "addr:housenumber": "13965", "addr:postcode": "83713", "addr:state": "ID", "addr:street": "West Chinden Boulevard", "building": "yes", "building:levels": "3", "office": "yes"}}, {"type": "way", "id": 749929670, "nodes": [8331512395, 7012540400, 7012540399, 7012540402, 7012540401, 7012540417, 7012540416, 7012540415, 7012540397, 7012540395, 7012540396, 7012540398, 7012540414, 7012540413, 7012540412, 7012540411, 7012540410, 7012540409, 7012540408, 7012540407, 7012540406, 7012540405, 7012540404, 7012540403, 8331512395], "tags": {"addr:city": "Eagle", "addr:housenumber": "235", "addr:postcode": "83616", "addr:state": "ID", "addr:street": "East Colchester Drive", "building": "yes", "building:levels": "3", "office": "yes"}}, {"type": "way", "id": 851618458, "nodes": [8331512392, 7942977054, 7942977055, 7942977056, 7942977057, 7942977058, 7942977059, 7942977060, 7942977061, 7942977062, 7942977063, 7942977064, 7942977065, 7942977066, 7942977067, 7942977068, 7942977069, 7942977070, 7942977071, 7942977072, 7942977073, 7942977074, 7942977075, 7942977076, 7942977077, 7942977078, 7942977079, 8331512392], "tags": {"addr:city": "Eagle", "addr:housenumber": "165", "addr:postcode": "83616", "addr:state": "ID", "addr:street": "East Colchester Drive", "amenity": "restaurant", "building": "yes", "cuisine": "american", "name": "Crave Kitchen & Bar"}}, {"type": "way", "id": 893468418, "nodes": [8304072739, 8304072452, 8304073972, 8304072256, 8304072739], "tags": {"building": "yes", "name": "ZipBoise Office", "office": "guide", "source": "microsoft/BuildingFootprints"}}, {"type": "way", "id": 945680992, "nodes": [8754791830, 8754791831, 8331535886, 8754791832, 8754791830], "tags": {"addr:city": "Boise", "addr:housenumber": "13681", "addr:postcode": "83713", "addr:state": "ID", "addr:street": "West Chinden Boulevard", "amenity": "cafe", "branch": "Eagle and Chinden", "brand": "Starbucks", "brand:wikidata": "Q37158", "building": "yes", "cuisine": "coffee_shop", "name": "Starbucks", "official_name": "Starbucks Coffee", "phone": "+1 208-938-3270", "ref": "1021345", "takeaway": "yes", "website": "https://www.starbucks.com/store-locator/store/1021345/eagle-and-chinden-13681-w-chinden-blvd-boise-id-837131019-us"}}, {"type": "way", "id": 1134092580, "nodes": [10573137225, 10573137226, 10573137227, 10573137228, 10573137225], "tags": {"building": "yes", "name": "Paddleboard Idaho Office", "office": "guide", "website": "https://www.supboise.com/"}}, {"type": "way", "id": 1134092581, "nodes": [10573137226, 8304073972, 8304072452, 10573137227, 10573137226], "tags": {"building": "yes", "name": "Waterslide Office & Tickets", "shop": "ticket"}}]}