{"version": 0.6, "generator": "Overpass API 0.7.62.8 e802775f", "osm3s": {"timestamp_osm_base": "2025-12-06T05:14:51Z", "copyright": "The data included in this document is from www.openstreetmap.org. The data is made available under ODbL."}, "elements": [{"type": "node", "id": 2566856528, "lat": 42.5633921, "lon": -114.452107, "tags": {"addr:city": "Twin Falls", "addr:housenumber": "1733", "addr:postcode": "83301", "addr:state": "ID", "addr:street": "Addison Avenue East", "amenity": "restaurant", "brand": "Pizza Hut", "brand:wikidata": "Q191615", "cuisine": "pizza", "name": "Pizza Hut", "phone": "+1 208-734-6170", "website": "https://locations.pizzahut.com/id/twin-falls/1733-addison-ave-e"}}, {"type": "node", "id": 2566859754, "lat": 42.5642847, "lon": -114.4469715}, {"type": "node", "id": 2566866130, "lat": 42.5642443, "lon": -114.4589207}, {"type": "node", "id": 2566867666, "lat": 42.5678092, "lon": -114.4599498, "tags": {"addr:city": "Twin Falls", "addr:housenumber": "334", "addr:postcode": "83301", "addr:state": "ID", "addr:street": "Blue Lakes Boulevard North", "amenity": "restaurant", "cuisine": "american", "name": "Anchor Bistro", "phone": "+1-208-733-6566", "website": "https://anchorbistro.com/"}}, {"type": "node", "id": 2566867960, "lat": 42.5691999, "lon": -114.459912, "tags": {"addr:city": "Twin Falls", "addr:postcode": "83301", "addr:state": "ID", "name": "Country Auto", "second_hand": "only", "shop": "car"}}, {"type": "node", "id": 2566870284, "lat": 42.5699623, "lon": -114.4608295, "tags": {"brand": "O'Reilly Auto Parts", "brand:wikidata": "Q7071951", "name": "O'Reilly Auto Parts", "shop": "car_parts", "website": "https://locations.oreillyauto.com/id/twinfalls/autoparts-2963.html"}}, {"type": "node", "id": 2566876774, "lat": 42.5689707, "lon": -114.460851, "tags": {"addr:city": "Twin Falls", "addr:postcode": "83301", "addr:state": "ID", "brand": "Les Schwab Tire Center", "brand:wikidata": "Q6529977", "name": "Les Schwab Tire Center", "shop": "tyres"}}, {"type": "node", "id": 2566883909, "lat": 42.5739524, "lon": -114.4597244, "tags": {"brand": "AutoZone", "brand:wikidata": "Q4826087", "name": "AutoZone", "opening_hours": "Mo-Sa 07:30-22:00; Su 08:00-21:00", "shop": "car_parts", "website": "https://www.autozone.com/locations/id/twin-falls/688-blue-lakes-blvd.html"}}, {"type": "node", "id": 2566885188, "lat": 42.574515, "lon": -114.4609359}, {"type": "node", "id": 2566889290, "lat": 42.5757303, "lon": -114.4641489}, {"type": "node", "id": 2566895123, "lat": 42.5752639, "lon": -114.4613981, "tags": {"name": "Great Harvest Bread Co.", "shop": "bakery"}}, {"type": "node", "id": 2566903905, "lat": 42.5765635, "lon": -114.4608295, "tags": {"amenity": "restaurant", "brand": "Cafe Rio", "brand:wikidata": "Q5017108", "cuisine": "mexican", "name": "Cafe Rio"}}, {"type": "node", "id": 2566909099, "lat": 42.5771876, "lon": -114.4586033, "tags": {"addr:city": "Twin Falls", "addr:postcode": "83301", "addr:state": "ID", "name": "Hastings", "shop": "music"}}, {"type": "node", "id": 2566913889, "lat": 42.5784285, "lon": -114.4608282, "tags": {"brand": "Jiffy Lube", "brand:wikidata": "Q6192247", "name": "Jiffy Lube", "shop": "car_repair"}}, {"type": "node", "id": 2566934617, "lat": 42.5796291, "lon": -114.4596601, "tags": {"brand": "Big 5 Sporting Goods", "brand:wikidata": "Q4904902", "designation": "Sporting Goods", "name": "Big 5 Sporting Goods", "shop": "sports", "source": "City of Twin Falls"}}, {"type": "node", "id": 2566944600, "lat": 42.5792693, "lon": -114.4606713, "tags": {"amenity": "restaurant", "cuisine": "chinese", "name": "Tse"}}, {"type": "node", "id": 2567145047, "lat": 42.571385, "lon": -114.4595651}, {"type": "node", "id": 2567146011, "lat": 42.5490018, "lon": -114.4447678, "tags": {"addr:city": "Twin Falls", "addr:housenumber": "1901", "addr:postcode": "83301", "addr:state": "ID", "addr:street": "Kimberly Road", "name": "State Liquor Store", "shop": "alcohol"}}, {"type": "node", "id": 2567159050, "lat": 42.5483177, "lon": -114.4421573, "tags": {"addr:city": "Twin Falls", "addr:housenumber": "2128", "addr:postcode": "83301", "addr:state": "ID", "addr:street": "Kimberly Road", "amenity": "restaurant", "cuisine": "burger", "name": "Ground Round"}}, {"type": "node", "id": 2567162313, "lat": 42.548792, "lon": -114.4432784, "tags": {"name": "OK Tire Sales", "shop": "car_repair", "wheelchair": "yes"}}, {"type": "node", "id": 2567165800, "lat": 42.5481004, "lon": -114.4440885, "tags": {"addr:city": "Twin Falls", "addr:housenumber": "2064", "addr:postcode": "83301", "addr:state": "ID", "addr:street": "Kimberly Road", "name": "Epic Ride Cyclery", "shop": "bicycle"}}, {"type": "node", "id": 2567166038, "lat": 42.5480688, "lon": -114.4446142, "tags": {"addr:city": "Twin Falls", "addr:housenumber": "2030", "addr:postcode": "83301", "addr:state": "ID", "addr:street": "Kimberly Road", "name": "Commercial Tire", "shop": "car_repair"}}, {"type": "node", "id": 2567170470, "lat": 42.5480055, "lon": -114.4479562, "tags": {"name": "Napa Auto & Truck Parts", "shop": "car_repair"}}, {"type": "node", "id": 2567170737, "lat": 42.5488433, "lon": -114.4486858, "tags": {"addr:city": "Twin Falls", "addr:housenumber": "1859", "addr:postcode": "83301", "addr:state": "ID", "addr:street": "Kimberly Road", "amenity": "restaurant", "cuisine": "pizza", "name": "Idaho Pizza"}}, {"type": "node", "id": 2567184302, "lat": 42.5480016, "lon": -114.449796, "tags": {"brand": "Carquest", "brand:wikidata": "Q5045948", "name": "Carquest", "official_name": "Carquest Auto Parts", "shop": "car_parts"}}, {"type": "node", "id": 2567195811, "lat": 42.5488908, "lon": -114.4516201, "tags": {"addr:city": "Twin Falls", "addr:housenumber": "1749", "addr:postcode": "83301", "addr:state": "ID", "addr:street": "Kimberly Road", "amenity": "bar", "name": "The Pressbox"}}, {"type": "node", "id": 2567196267, "lat": 42.5488829, "lon": -114.4523121, "tags": {"addr:city": "Twin Falls", "addr:housenumber": "1719", "addr:postcode": "83301", "addr:state": "ID", "addr:street": "Kimberly Road", "amenity": "restaurant", "cuisine": "chinese", "name": "Loong Hing", "website": "https://www.loonghingrestaurant.com/"}}, {"type": "node", "id": 2567226791, "lat": 42.5487999, "lon": -114.454651, "tags": {"amenity": "bar", "name": "Pioneer Club"}}, {"type": "node", "id": 2567227096, "lat": 42.5481438, "lon": -114.4546456, "tags": {"amenity": "bar", "name": "The Pocket"}}, {"type": "node", "id": 2567232059, "lat": 42.5484402, "lon": -114.4592161, "tags": {"addr:city": "Twin Falls", "addr:housenumber": "1186", "addr:postcode": "83301", "addr:state": "ID", "addr:street": "Kimberly Road", "amenity": "restaurant", "cuisine": "burger", "name": "Shake Out"}}, {"type": "node", "id": 2567233356, "lat": 42.5477377, "lon": -114.4597787, "tags": {"name": "S & D Automotive", "shop": "car_repair"}}, {"type": "node", "id": 4221984009, "lat": 42.574286, "lon": -114.4609347}, {"type": "node", "id": 4221984010, "lat": 42.5742869, "lon": -114.4606292}, {"type": "node", "id": 4221984012, "lat": 42.5745159, "lon": -114.4606304}, {"type": "node", "id": 4221984019, "lat": 42.5749649, "lon": -114.4616996}, {"type": "node", "id": 4221984020, "lat": 42.574986, "lon": -114.4638471}, {"type": "node", "id": 4221984023, "lat": 42.575051, "lon": -114.461627}, {"type": "node", "id": 4221984024, "lat": 42.5750519, "lon": -114.4616975}, {"type": "node", "id": 4221984027, "lat": 42.575069, "lon": -114.4614127}, {"type": "node", "id": 4221984028, "lat": 42.5750736, "lon": -114.4616265}, {"type": "node", "id": 4221984035, "lat": 42.575263, "lon": -114.4638598}, {"type": "node", "id": 4221984036, "lat": 42.5752674, "lon": -114.4639827}, {"type": "node", "id": 4221984045, "lat": 42.575387, "lon": -114.4639807}, {"type": "node", "id": 4221984046, "lat": 42.5753859, "lon": -114.4641412}, {"type": "node", "id": 4221984049, "lat": 42.5757058, "lon": -114.4613866}, {"type": "node", "id": 4221984052, "lat": 42.5757323, "lon": -114.4638653}, {"type": "node", "id": 4221984053, "lat": 42.5757354, "lon": -114.463549}, {"type": "node", "id": 4221984055, "lat": 42.5758189, "lon": -114.4635443}, {"type": "node", "id": 4221984056, "lat": 42.575818, "lon": -114.4638496}, {"type": "node", "id": 4573219842, "lat": 42.5489183, "lon": -114.455703, "tags": {"addr:city": "Twin Falls", "addr:housenumber": "1431", "addr:postcode": "83301", "addr:state": "ID", "addr:street": "Kimberly Road", "name": "A-1 Towing & Repair", "office": "towing", "phone": "+1-208-733-1302", "website": "http://a-1towingandrepair.com"}}, {"type": "node", "id": 4705433889, "lat": 42.5763371, "lon": -114.4591546, "tags": {"addr:city": "Twin Falls", "addr:postcode": "83301", "addr:state": "ID", "amenity": "restaurant", "diet:gluten_free": "yes", "diet:vegetarian": "yes", "name": "Peking Restaurant", "name:en": "Peking Restaurant", "opening_hours": "Tu-Sa 11:00-21:00; Su 12:00-20:30; Mo off"}}, {"type": "node", "id": 5001404221, "lat": 42.5768458, "lon": -114.462952, "tags": {"addr:city": "Twin Falls", "addr:housenumber": "1725", "addr:postcode": "83301", "addr:state": "ID", "addr:street": "Parkview Dr", "brand": "Subaru", "brand:wikidata": "Q172741", "email": "Paul@subaruoftinfalls.com", "name": "Twin Falls Subaru", "opening_hours": "Mo-Fr 08:00-19:00; Sa 08:00-12:00", "phone": "+1-208-734-8860", "shop": "car", "website": "http://www.subaruoftwinfalls.com"}}, {"type": "node", "id": 5264038904, "lat": 42.5715802, "lon": -114.4594707, "tags": {"amenity": "restaurant", "cuisine": "japanese", "name": "Sakura Japanese Steak House", "smoking": "no"}}, {"type": "node", "id": 5264046101, "lat": 42.5722321, "lon": -114.4599267}, {"type": "node", "id": 5264046102, "lat": 42.5723388, "lon": -114.4597389}, {"type": "node", "id": 5264046103, "lat": 42.5721057, "lon": -114.45946}, {"type": "node", "id": 5264046104, "lat": 42.572003, "lon": -114.4596531}, {"type": "node", "id": 5264057189, "lat": 42.571017, "lon": -114.4595705}, {"type": "node", "id": 5264057190, "lat": 42.5710081, "lon": -114.458897}, {"type": "node", "id": 5264057191, "lat": 42.5713472, "lon": -114.4590791}, {"type": "node", "id": 5264057192, "lat": 42.5713482, "lon": -114.4589004}, {"type": "node", "id": 5264057194, "lat": 42.5713808, "lon": -114.4590938}, {"type": "node", "id": 5264057195, "lat": 42.570962, "lon": -114.4592387}, {"type": "node", "id": 5264057196, "lat": 42.5710158, "lon": -114.4594301}, {"type": "node", "id": 5264057197, "lat": 42.5709634, "lon": -114.4594309}, {"type": "node", "id": 5264057198, "lat": 42.5710075, "lon": -114.4590238}, {"type": "node", "id": 5264057199, "lat": 42.570963, "lon": -114.4590234}, {"type": "node", "id": 5264106923, "lat": 42.5717397, "lon": -114.4595073, "tags": {"addr:city": "Twin Falls", "addr:housenumber": "570", "addr:postcode": "83301", "addr:state": "ID", "addr:street": "Blue Lakes Boulevard North", "amenity": "restaurant", "delivery": "no", "name": "New China Buffet", "opening_hours": "Mo-Su 10:00-22:00", "outdoor_seating": "no", "smoking": "no", "takeaway": "yes"}}, {"type": "node", "id": 5264106946, "lat": 42.570625, "lon": -114.4610838}, {"type": "node", "id": 5264106947, "lat": 42.5707078, "lon": -114.4608138}, {"type": "node", "id": 5264106948, "lat": 42.5708078, "lon": -114.4608109}, {"type": "node", "id": 5264106949, "lat": 42.570812, "lon": -114.4610784}, {"type": "node", "id": 5264106950, "lat": 42.5707102, "lon": -114.4609643}, {"type": "node", "id": 5264112677, "lat": 42.5716812, "lon": -114.459074, "tags": {"addr:city": "Twin Falls", "addr:housenumber": "566", "addr:postcode": "83301", "addr:state": "ID", "addr:street": "Blue Lakes Boulevard North", "beauty": "cosmetics", "name": "Salon Centric", "opening_hours": "Mo-Fr 09:00-17:00", "shop": "beauty"}}, {"type": "node", "id": 5270425334, "lat": 42.5639697, "lon": -114.459724, "tags": {"addr:city": "Twin Falls", "addr:housenumber": "142", "addr:postcode": "83301", "addr:state": "ID", "addr:street": "Blue Lakes Boulevard North", "brand": "T-Mobile", "brand:wikidata": "Q3511885", "name": "T-Mobile", "shop": "mobile_phone", "website": "https://www.t-mobile.com/stores/bd/t-mobile-twin-falls-id-83301-1hsc"}}, {"type": "node", "id": 5270430530, "lat": 42.5641672, "lon": -114.4593812, "tags": {"addr:city": "Twin Falls", "addr:housenumber": "176", "addr:postcode": "83301", "addr:state": "ID", "addr:street": "Blue Lakes Boulevard North", "clothes": "memrobilia", "name": "The Bronco Shop", "opening_hours": "Mo-Su 11:00-18:00", "shop": "clothes"}}, {"type": "node", "id": 5270434707, "lat": 42.5637648, "lon": -114.4589256}, {"type": "node", "id": 5270434708, "lat": 42.5637566, "lon": -114.4581022}, {"type": "node", "id": 5270434709, "lat": 42.5642479, "lon": -114.4581024}, {"type": "node", "id": 5365215182, "lat": 42.5638333, "lon": -114.4469741}, {"type": "node", "id": 5365215184, "lat": 42.5642817, "lon": -114.4459556}, {"type": "node", "id": 5365215185, "lat": 42.5638303, "lon": -114.4459581}, {"type": "node", "id": 5507234943, "lat": 42.5638947, "lon": -114.450224}, {"type": "node", "id": 5507234944, "lat": 42.5638955, "lon": -114.4500609}, {"type": "node", "id": 5507234945, "lat": 42.5634019, "lon": -114.4500721}, {"type": "node", "id": 5507234946, "lat": 42.563404, "lon": -114.4502241}, {"type": "node", "id": 5583067114, "lat": 42.5622179, "lon": -114.4609254}, {"type": "node", "id": 5583067115, "lat": 42.5622179, "lon": -114.4609965}, {"type": "node", "id": 5583067116, "lat": 42.5623098, "lon": -114.4608007}, {"type": "node", "id": 5583067117, "lat": 42.5624017, "lon": -114.4609254}, {"type": "node", "id": 5583067118, "lat": 42.5624017, "lon": -114.4609965}, {"type": "node", "id": 5596966120, "lat": 42.5638317, "lon": -114.446442}, {"type": "node", "id": 5596977237, "lat": 42.5633482, "lon": -114.4477146}, {"type": "node", "id": 5596977238, "lat": 42.5633482, "lon": -114.4475601}, {"type": "node", "id": 5596977239, "lat": 42.563423, "lon": -114.4474869}, {"type": "node", "id": 5596977240, "lat": 42.563459, "lon": -114.4475113}, {"type": "node", "id": 5596977241, "lat": 42.563459, "lon": -114.4477227}, {"type": "node", "id": 5596982647, "lat": 42.5635507, "lon": -114.4498502}, {"type": "node", "id": 5596982648, "lat": 42.5635507, "lon": -114.4495607}, {"type": "node", "id": 5596982649, "lat": 42.5633611, "lon": -114.4495607}, {"type": "node", "id": 5596982650, "lat": 42.5633611, "lon": -114.4497751}, {"type": "node", "id": 5596982651, "lat": 42.5634164, "lon": -114.4498502}, {"type": "node", "id": 5596982660, "lat": 42.5629418, "lon": -114.4496374}, {"type": "node", "id": 5596982661, "lat": 42.5629403, "lon": -114.4495179}, {"type": "node", "id": 5596982662, "lat": 42.5627475, "lon": -114.4495225}, {"type": "node", "id": 5596982663, "lat": 42.562749, "lon": -114.449642}, {"type": "node", "id": 5596982664, "lat": 42.5628556, "lon": -114.4493497}, {"type": "node", "id": 5596982665, "lat": 42.5628542, "lon": -114.4491644}, {"type": "node", "id": 5596982666, "lat": 42.562769, "lon": -114.4491656}, {"type": "node", "id": 5596982667, "lat": 42.5627705, "lon": -114.4493509}, {"type": "node", "id": 5862758067, "lat": 42.5774287, "lon": -114.4647985}, {"type": "node", "id": 5862758068, "lat": 42.5774302, "lon": -114.4645011}, {"type": "node", "id": 5862758069, "lat": 42.5772029, "lon": -114.4645124}, {"type": "node", "id": 5862758070, "lat": 42.5771983, "lon": -114.4648149}, {"type": "node", "id": 5862758071, "lat": 42.5768064, "lon": -114.4637656, "tags": {"addr:city": "Twin Falls", "addr:housenumber": "756", "addr:postcode": "83301", "addr:state": "ID", "addr:street": "Falls Avenue", "air_conditioning": "yes", "name": "Black Dragon Games", "opening_hours": "Mo-Su 10:00-23:00", "operator": "Jon & Nettie Page", "phone": "+1 208-969-9837", "second_hand": "yes", "shop": "games", "toilets": "yes", "website": "https://blackdragongames.net"}}, {"type": "node", "id": 5862768848, "lat": 42.5773721, "lon": -114.4637512, "tags": {"addr:city": "Twin Falls", "addr:housenumber": "778", "addr:postcode": "83301", "addr:state": "ID", "addr:street": "Falls Avenue", "amenity": "restaurant", "cuisine": "mexican", "name": "El Toro Mexican Restaurant", "opening_hours": "Tu-Sa 12:00-21:00", "phone": "+1 208-734-8652", "website": "https://eltoromexicanrestaurantid.com"}}, {"type": "node", "id": 5862768849, "lat": 42.5769644, "lon": -114.4637924, "tags": {"addr:city": "Twin Falls", "addr:housenumber": "758", "addr:postcode": "83301", "addr:state": "ID", "addr:street": "Falls Avenue", "name": "Disk Golf Distribution Center, LLC", "shop": "sports"}}, {"type": "node", "id": 6270676439, "lat": 42.5706232, "lon": -114.4609668}, {"type": "node", "id": 7305225992, "lat": 42.5670319, "lon": -114.4597822}, {"type": "node", "id": 7305225993, "lat": 42.5670724, "lon": -114.4598424}, {"type": "node", "id": 7305225994, "lat": 42.5673304, "lon": -114.4598353}, {"type": "node", "id": 7305225995, "lat": 42.5673278, "lon": -114.4593451}, {"type": "node", "id": 7305225996, "lat": 42.5672913, "lon": -114.4593432}, {"type": "node", "id": 7305225997, "lat": 42.5672913, "lon": -114.4592797}, {"type": "node", "id": 7305225998, "lat": 42.5672105, "lon": -114.459276}, {"type": "node", "id": 7305225999, "lat": 42.5672105, "lon": -114.4593308}, {"type": "node", "id": 7305226000, "lat": 42.567028, "lon": -114.4593221}, {"type": "node", "id": 7755041950, "lat": 42.5736429, "lon": -114.45889, "tags": {"addr:city": "Twin Falls", "addr:housenumber": "690", "addr:postcode": "83301", "addr:state": "ID", "addr:street": "Blue Lakes Boulevard North", "air_conditioning": "yes", "brand": "SunMed", "description": "CBD Hemp Supplement Store Pet Products, Oils, Water Solubles, Edibles, Vapes, Skin Care, Capsules, Topical Cream", "email": "twinfalls398@cbdrx4u.com", "name": "Your CBD Store", "opening_hours": "Mo-Sa 10:30-18:30", "operator": "Audreyana Vanderwey", "payment:american_express": "yes", "payment:cash": "yes", "payment:credit_cards": "yes", "payment:debit_cards": "yes", "payment:discover_card": "yes", "payment:mastercard": "yes", "payment:visa": "yes", "phone": "+1-208-595-1198", "shop": "nutrition_supplements", "stroller": "yes", "website": "https://sunflora.org/", "wheelchair": "yes"}}, {"type": "node", "id": 8217861520, "lat": 42.5693472, "lon": -114.4594054, "tags": {"addr:city": "Twin Falls", "addr:housenumber": "430", "addr:postcode": "83301", "addr:state": "ID", "addr:street": "Blue Lakes Boulevard North", "addr:unit": "Suite C", "beauty": "skin_care;waxing;spa;eyebrow;aesthetic;esthetics;microneedling;chemical_peels;facials;high_frequency_treatments;skin_treatments;brow_henna;brow_lamination;full_body_waxing;facial_waxing;brazilian_waxing;bikini_waxing;manzilian_waxing;body_treatments", "name": "Renewed Aesthetics", "opening_hours": "Mo,Tu,Fr,Sa 09:00-16:00", "operator": "Shania Enochs", "payment:cash": "yes", "payment:credit_card": "yes", "payment:debit_cards": "yes", "payment:gift_certificate": "yes", "phone": "+1-208-595-8074", "shop": "beauty", "website": "https://square.site/book/0TWYZFH8RV683/renewed-aethetics-twin-falls-id"}}, {"type": "node", "id": 8891092895, "lat": 42.5750581, "lon": -114.462609, "tags": {"branch": "Jewelers", "brand": "Fred Meyer Jewelers", "brand:wikidata": "Q5495935", "name": "Fred Meyer Jewelers", "shop": "jewelry"}}, {"type": "node", "id": 9201451934, "lat": 42.5789066, "lon": -114.45775, "tags": {"addr:city": "Twin Falls", "addr:housenumber": "1411", "addr:postcode": "83301", "addr:state": "ID", "addr:street": "Falls Ave East", "addr:unit": "209", "email": "info@venturetel.net", "name": "VentureTel", "office": "telecommunication", "opening_hours": "Mo-Fr 09:00-17:00; Sa,Su closed", "phone": "+1-208-735-8999", "website": "https://www.venturetel.net/"}}, {"type": "node", "id": 10138925653, "lat": 42.5627057, "lon": -114.440066}, {"type": "node", "id": 10138925654, "lat": 42.5627051, "lon": -114.4401158}, {"type": "node", "id": 10138925655, "lat": 42.5627367, "lon": -114.4401164}, {"type": "node", "id": 10138925656, "lat": 42.5627345, "lon": -114.4403229}, {"type": "node", "id": 10138925657, "lat": 42.5627048, "lon": -114.4403223}, {"type": "node", "id": 10138925658, "lat": 42.5627044, "lon": -114.4403572}, {"type": "node", "id": 10138925659, "lat": 42.5625908, "lon": -114.4403549}, {"type": "node", "id": 10138925660, "lat": 42.562594, "lon": -114.4400637}, {"type": "node", "id": 10804129829, "lat": 42.5498036, "lon": -114.4601023}, {"type": "node", "id": 10804129830, "lat": 42.5498045, "lon": -114.4598139}, {"type": "node", "id": 10804129831, "lat": 42.5499781, "lon": -114.459815}, {"type": "node", "id": 10804129832, "lat": 42.5499771, "lon": -114.4601034}, {"type": "node", "id": 10805804386, "lat": 42.5628855, "lon": -114.4587279}, {"type": "node", "id": 10805804387, "lat": 42.5630049, "lon": -114.4587288}, {"type": "node", "id": 10805804388, "lat": 42.5630045, "lon": -114.458834}, {"type": "node", "id": 10805804389, "lat": 42.562885, "lon": -114.458833}, {"type": "node", "id": 10807241816, "lat": 42.5627194, "lon": -114.4596375}, {"type": "node", "id": 10807241817, "lat": 42.5627187, "lon": -114.4600121}, {"type": "node", "id": 10807241818, "lat": 42.562899, "lon": -114.4600127}, {"type": "node", "id": 10807241819, "lat": 42.5628997, "lon": -114.4596381}, {"type": "node", "id": 10807241828, "lat": 42.5625978, "lon": -114.4515241}, {"type": "node", "id": 10807241829, "lat": 42.5623153, "lon": -114.4515201}, {"type": "node", "id": 10807241830, "lat": 42.5623128, "lon": -114.4518502}, {"type": "node", "id": 10807241831, "lat": 42.5625953, "lon": -114.4518542}, {"type": "node", "id": 10807428553, "lat": 42.5628956, "lon": -114.4476394}, {"type": "node", "id": 10807428554, "lat": 42.5628963, "lon": -114.4474981}, {"type": "node", "id": 10807428555, "lat": 42.5629807, "lon": -114.4474989}, {"type": "node", "id": 10807428556, "lat": 42.56298, "lon": -114.4476402}, {"type": "node", "id": 11164133909, "lat": 42.5629175, "lon": -114.4490082}, {"type": "node", "id": 11164133910, "lat": 42.5629196, "lon": -114.4491277}, {"type": "node", "id": 11164133911, "lat": 42.56283, "lon": -114.4490109}, {"type": "node", "id": 11164133912, "lat": 42.562832, "lon": -114.4491304}, {"type": "node", "id": 11164133919, "lat": 42.562834, "lon": -114.451412}, {"type": "node", "id": 11164133920, "lat": 42.562834, "lon": -114.451245}, {"type": "node", "id": 11164133921, "lat": 42.562935, "lon": -114.451245}, {"type": "node", "id": 11164133922, "lat": 42.562935, "lon": -114.451412}, {"type": "node", "id": 11164133937, "lat": 42.562839, "lon": -114.45255}, {"type": "node", "id": 11164133938, "lat": 42.562839, "lon": -114.452599}, {"type": "node", "id": 11164133939, "lat": 42.562941, "lon": -114.452599}, {"type": "node", "id": 11164133940, "lat": 42.562941, "lon": -114.452741}, {"type": "node", "id": 11164133941, "lat": 42.56281, "lon": -114.452741}, {"type": "node", "id": 11164133942, "lat": 42.56281, "lon": -114.452693}, {"type": "node", "id": 11164133943, "lat": 42.562707, "lon": -114.452692}, {"type": "node", "id": 11164133944, "lat": 42.562707, "lon": -114.452728}, {"type": "node", "id": 11164133945, "lat": 42.562607, "lon": -114.452728}, {"type": "node", "id": 11164133946, "lat": 42.562607, "lon": -114.45255}, {"type": "node", "id": 11164208238, "lat": 42.562809, "lon": -114.4458883, "tags": {"amenity": "restaurant", "cuisine": "mexican", "name": "Jalisco"}}, {"type": "node", "id": 11168507294, "lat": 42.563768, "lon": -114.454767}, {"type": "node", "id": 11168507295, "lat": 42.56377, "lon": -114.455085}, {"type": "node", "id": 11168507296, "lat": 42.563451, "lon": -114.455088}, {"type": "node", "id": 11168507297, "lat": 42.563451, "lon": -114.455224}, {"type": "node", "id": 11168507298, "lat": 42.563358, "lon": -114.455225}, {"type": "node", "id": 11168507299, "lat": 42.563355, "lon": -114.454622}, {"type": "node", "id": 11168507300, "lat": 42.563585, "lon": -114.45462}, {"type": "node", "id": 11168507301, "lat": 42.563585, "lon": -114.454769}, {"type": "node", "id": 11168507330, "lat": 42.563378, "lon": -114.456988}, {"type": "node", "id": 11168507331, "lat": 42.563378, "lon": -114.456798}, {"type": "node", "id": 11168507332, "lat": 42.563546, "lon": -114.456798}, {"type": "node", "id": 11168507333, "lat": 42.563546, "lon": -114.456988}, {"type": "node", "id": 11168545676, "lat": 42.5642102, "lon": -114.459719, "tags": {"name": "Idaho State Liquor Store", "operator": "Idaho State Liquor Division", "operator:wikidata": "Q5987462", "shop": "alcohol"}}, {"type": "node", "id": 11170901042, "lat": 42.562723, "lon": -114.457146}, {"type": "node", "id": 11170901043, "lat": 42.562885, "lon": -114.457149}, {"type": "node", "id": 11170901044, "lat": 42.562882, "lon": -114.457363}, {"type": "node", "id": 11170901045, "lat": 42.56272, "lon": -114.45736}, {"type": "node", "id": 11291000413, "lat": 42.5481093, "lon": -114.4472708, "tags": {"addr:housenumber": "1920", "addr:state": "ID", "addr:street": "Kimberly road", "name": "Six States Distributors", "shop": "car_parts"}}, {"type": "node", "id": 12096196465, "lat": 42.5773925, "lon": -114.4636099, "tags": {"addr:city": "Twin Falls", "addr:housenumber": "780", "addr:postcode": "83301", "addr:state": "ID", "addr:street": "Falls Avenue", "air_conditioning": "yes", "name": "CJ's Vape House & CBD", "opening_hours": "Mo-Fr 10:00-19:00, Sa 10:00-18:00", "phone": "+1 208-490-0769", "shop": "e-cigarette"}}, {"type": "node", "id": 12105302850, "lat": 42.5619653, "lon": -114.4382402}, {"type": "node", "id": 12105302851, "lat": 42.56141, "lon": -114.4382556}, {"type": "node", "id": 12105302852, "lat": 42.56141, "lon": -114.4381521}, {"type": "node", "id": 12105302853, "lat": 42.5615195, "lon": -114.4381468}, {"type": "node", "id": 12105302854, "lat": 42.5615117, "lon": -114.4377964}, {"type": "node", "id": 12105302855, "lat": 42.5619568, "lon": -114.4377893}, {"type": "node", "id": 12105302856, "lat": 42.5619597, "lon": -114.437926}, {"type": "node", "id": 12105302857, "lat": 42.5620015, "lon": -114.4379266}, {"type": "node", "id": 12105302858, "lat": 42.5620042, "lon": -114.4380977}, {"type": "node", "id": 12105302859, "lat": 42.5619632, "lon": -114.438099}, {"type": "node", "id": 12105302860, "lat": 42.5619658, "lon": -114.4383349}, {"type": "node", "id": 12105302861, "lat": 42.5620075, "lon": -114.438334}, {"type": "node", "id": 12105302862, "lat": 42.5620177, "lon": -114.4389124}, {"type": "node", "id": 12105302863, "lat": 42.5620258, "lon": -114.4389118}, {"type": "node", "id": 12105302864, "lat": 42.5620306, "lon": -114.4392084}, {"type": "node", "id": 12105302865, "lat": 42.562023, "lon": -114.4392087}, {"type": "node", "id": 12105302866, "lat": 42.562031, "lon": -114.4397869}, {"type": "node", "id": 12105302867, "lat": 42.561988, "lon": -114.4397869}, {"type": "node", "id": 12105302868, "lat": 42.5619897, "lon": -114.4398651}, {"type": "node", "id": 12105302869, "lat": 42.5619532, "lon": -114.4398661}, {"type": "node", "id": 12105302870, "lat": 42.561954, "lon": -114.439913}, {"type": "node", "id": 12105302871, "lat": 42.5618517, "lon": -114.4399141}, {"type": "node", "id": 12105302872, "lat": 42.5618509, "lon": -114.4398669}, {"type": "node", "id": 12105302873, "lat": 42.5616647, "lon": -114.4398768}, {"type": "node", "id": 12105302874, "lat": 42.5616655, "lon": -114.4399457}, {"type": "node", "id": 12105302875, "lat": 42.5614308, "lon": -114.4399509}, {"type": "node", "id": 12249125536, "lat": 42.5499013, "lon": -114.4599636, "tags": {"addr:city": "Twin Falls", "addr:housenumber": "170", "addr:postcode": "83301", "addr:state": "ID", "addr:street": "Blue Lakes Boulevard", "amenity": "restaurant", "cuisine": "mexican;tacos", "name": "Antojos Eatery and Caf\u00e9", "phone": "+12085954431", "takeaway": "yes", "website": "https://antojostf.com/", "website:menu": "https://qrco.de/bda1Sf"}}, {"type": "node", "id": 12249125537, "lat": 42.548945, "lon": -114.4598975, "tags": {"addr:city": "Twin Falls", "addr:housenumber": "1105", "addr:postcode": "83301", "addr:state": "ID", "addr:street": "Kimberly Road", "name": "Idaho Flower Company", "phone": "+12086441140", "shop": "florist", "website": "https://www.flowers-idaho.com/"}}, {"type": "node", "id": 12360499894, "lat": 42.5639642, "lon": -114.4296074}, {"type": "node", "id": 12360499895, "lat": 42.5631389, "lon": -114.4295849}, {"type": "node", "id": 12360499896, "lat": 42.5630984, "lon": -114.4283096}, {"type": "node", "id": 12360499897, "lat": 42.5640542, "lon": -114.4282947}, {"type": "node", "id": 12360499898, "lat": 42.5640579, "lon": -114.4291282}, {"type": "node", "id": 12360499899, "lat": 42.5639679, "lon": -114.4291656}, {"type": "node", "id": 12360675510, "lat": 42.5749654, "lon": -114.4617528}, {"type": "node", "id": 12360675511, "lat": 42.5750023, "lon": -114.4616987}, {"type": "node", "id": 12591792320, "lat": 42.5771924, "lon": -114.4612321, "tags": {"name": "Maverik", "shop": "convenience"}}, {"type": "node", "id": 13286431957, "lat": 42.5672105, "lon": -114.4593011}, {"type": "node", "id": 13286431958, "lat": 42.5672913, "lon": -114.459302}, {"type": "way", "id": 422446492, "nodes": [2566889290, 4221984046, 4221984045, 4221984036, 4221984035, 4221984020, 12360675510, 4221984019, 12360675511, 4221984024, 4221984023, 4221984028, 4221984027, 4221984049, 4221984053, 4221984055, 4221984056, 4221984052, 2566889290], "tags": {"addr:city": "Twin Falls", "addr:housenumber": "705", "addr:postcode": "83301", "addr:state": "ID", "addr:street": "Blue Lakes Boulevard North", "branch": "Twin Falls", "brand": "Fred Meyer", "brand:wikidata": "Q5495932", "building": "yes", "name": "Fred Meyer", "opening_hours": "Mo-Fr 09:00-20:00;Sa 09:00-18:00;Su 10:00-17:00", "phone": "+1 208-736-5340", "ref": "70100383", "shop": "supermarket", "website": "https://www.fredmeyer.com/stores/grocery/id/twin-falls/twin-falls/701/00383"}}, {"type": "way", "id": 422446494, "nodes": [2566885188, 4221984009, 4221984010, 4221984012, 2566885188], "tags": {"amenity": "restaurant", "brand": "Sizzler", "brand:wikidata": "Q1848822", "building": "yes", "cuisine": "steak_house", "name": "Sizzler", "website": "https://sizzler.com/locations/sizzler-twin-falls/"}}, {"type": "way", "id": 544577631, "nodes": [5264046101, 5264046102, 5264046103, 5264046104, 5264046101], "tags": {"addr:city": "Twin Falls", "addr:housenumber": "598", "addr:postcode": "83301", "addr:state": "ID", "addr:street": "Blue Lakes Boulevard North", "amenity": "restaurant", "building": "yes", "cuisine": "american", "delivery": "no", "name": "Idaho Joes", "outdoor_seating": "no", "smoking": "no", "takeaway": "yes"}}, {"type": "way", "id": 544579208, "nodes": [2567145047, 5264057189, 5264057196, 5264057197, 5264057195, 5264057199, 5264057198, 5264057190, 5264057192, 5264057191, 5264057194, 2567145047], "tags": {"addr:city": "Twin Falls", "addr:housenumber": "1147", "addr:postcode": "83301", "addr:state": "ID", "addr:street": "Filer Avenue East", "brand": "Dollar Tree", "brand:wikidata": "Q5289230", "building": "commercial", "building:levels": "1", "check_date": "2024-07-11", "check_date:opening_hours": "2024-07-11", "name": "Dollar Tree", "opening_hours": "Mo-Sa 08:00-22:00; Su 09:00-21:00", "shop": "variety_store", "smoking": "no", "website": "https://www.dollartree.com/locations/id/twin-falls/2744/"}}, {"type": "way", "id": 544585922, "nodes": [5264106946, 6270676439, 5264106950, 5264106947, 5264106948, 5264106949, 5264106946], "tags": {"addr:city": "Twin Falls", "addr:housenumber": "509", "addr:postcode": "83301", "addr:state": "ID", "addr:street": "Blue Lakes Boulevard North", "amenity": "cafe", "branch": "Blue Lake Boulevard North & Filer Avenue", "brand": "Starbucks", "brand:wikidata": "Q37158", "building": "yes", "cuisine": "coffee_shop", "internet_access": "yes", "internet_access:fee": "no", "name": "Starbucks", "official_name": "Starbucks Coffee", "opening_hours": "sunrise-sunset", "outdoor_seating": "yes", "phone": "+1 208-733-2389", "ref": "6522", "smoking": "no", "takeaway": "yes", "website": "https://www.starbucks.com/store-locator/store/6522/blue-lake-blvd-n-filer-ave-509-blue-lakes-blvd-n-twin-falls-id-833014034-us"}}, {"type": "way", "id": 545304469, "nodes": [2566866130, 5270434707, 5270434708, 5270434709, 2566866130], "tags": {"addr:city": "Twin Falls", "addr:housenumber": "1221", "addr:postcode": "83301", "addr:state": "ID", "addr:street": "Addison Avenue", "brand": "Albertsons", "brand:wikidata": "Q2831861", "building": "yes", "name": "Albertsons", "opening_hours": "Mo-Su 06:00-24:00", "phone": "+1 208-733-3573", "shop": "supermarket", "website": "https://local.albertsons.com/id/twin-falls/1221-addison-ave-e.html"}}, {"type": "way", "id": 556172464, "nodes": [5365215182, 2566859754, 5365215184, 5365215185, 5596966120, 5365215182], "tags": {"addr:city": "Twin Falls", "addr:housenumber": "1913", "addr:postcode": "83301", "addr:state": "ID", "addr:street": "Addison Avenue East", "branch": "Food & Drug", "brand": "Smith's", "brand:wikidata": "Q7544856", "building": "yes", "name": "Smith's", "official_name": "Smith's Food and Drug", "opening_hours": "Mo-Su 06:00-24:00", "operator": "Kroger", "phone": "+1 208-734-4581", "ref": "7060003509", "shop": "supermarket", "website": "https://www.smithsfoodanddrug.com/stores/grocery/id/twin-falls/1913-addison-ave-e-twin-falls-id-83301/706/00035"}}, {"type": "way", "id": 573398627, "nodes": [5507234943, 5507234944, 5507234945, 5507234946, 5507234943], "tags": {"addr:city": "Twin Falls", "addr:housenumber": "1811", "addr:postcode": "83301", "addr:state": "ID", "addr:street": "Addison Ave East", "building": "apartments", "building:levels": "1", "name": "Palmer's Automotive", "phone": "+1-208-735-8810", "shop": "car_repair"}}, {"type": "way", "id": 584014744, "nodes": [5583067118, 5583067117, 5583067116, 5583067114, 5583067115, 5583067118], "tags": {"addr:city": "Twin Falls", "addr:housenumber": "1879", "addr:postcode": "83301", "addr:state": "ID", "addr:street": "Addison Avenue East", "amenity": "cafe", "building": "yes", "name": "Burnt Lemon Grill", "phone": "+1-208-735-0220"}}, {"type": "way", "id": 585741783, "nodes": [5596977237, 5596977238, 5596977239, 5596977240, 5596977241, 5596977237], "tags": {"building": "yes", "shop": "convenience"}}, {"type": "way", "id": 585742178, "nodes": [5596982647, 5596982648, 5596982649, 5596982650, 5596982651, 5596982647], "tags": {"brand": "State Farm", "brand:wikidata": "Q2007336", "building": "yes", "name": "State Farm Insurance", "office": "insurance"}}, {"type": "way", "id": 585742181, "nodes": [5596982660, 5596982661, 5596982662, 5596982663, 5596982660], "tags": {"addr:housenumber": "1838", "addr:state": "ID", "addr:street": "Addison Ave East", "building": "yes", "name": "Boyer Jewelry", "shop": "jewelry"}}, {"type": "way", "id": 585742182, "nodes": [5596982664, 5596982665, 5596982666, 5596982667, 5596982664], "tags": {"addr:housenumber": "1848", "addr:state": "ID", "addr:street": "Addison Ave East", "building": "yes", "name": "A Happy Camper", "shop": "outdoor"}}, {"type": "way", "id": 620545943, "nodes": [5862758067, 5862758068, 5862758069, 5862758070, 5862758067], "tags": {"addr:city": "Twin Falls", "addr:housenumber": "734", "addr:postcode": "83301", "addr:state": "ID", "addr:street": "Falls Avenue", "amenity": "bar", "building": "yes", "name": "Turf Club", "phone": "+1-208-733-2417", "website": "https://turfclubtwinfalls.com/"}}, {"type": "way", "id": 782317651, "nodes": [7305225992, 7305225993, 7305225994, 7305225995, 7305225996, 13286431958, 7305225997, 7305225998, 13286431957, 7305225999, 7305226000, 7305225992], "tags": {"addr:city": "Twin Falls", "addr:country": "US", "addr:housenumber": "306", "addr:postcode": "83301", "addr:state": "ID", "addr:street": "Blue Lakes Boulevard North", "brand": "Walgreens", "brand:wikidata": "Q1591889", "building": "yes", "dispensing": "yes", "name": "Walgreens", "post_office": "post_partner", "post_office:brand": "FedEx OnSite", "post_office:website": "https://local.fedex.com/en-us/id/twin-falls/mnhu3", "shop": "chemist"}}, {"type": "way", "id": 1108076655, "nodes": [10138925653, 10138925654, 10138925655, 10138925656, 10138925657, 10138925658, 10138925659, 10138925660, 10138925653], "tags": {"building": "yes", "shop": "convenience", "source": "microsoft/BuildingFootprints"}}, {"type": "way", "id": 1161640182, "nodes": [10804129832, 10804129831, 10804129830, 10804129829, 10804129832], "tags": {"amenity": "restaurant", "building": "yes"}}, {"type": "way", "id": 1161835572, "nodes": [10805804389, 10805804388, 10805804387, 10805804386, 10805804389], "tags": {"addr:city": "Twin Falls", "addr:housenumber": "1210", "addr:postcode": "83301", "addr:state": "ID", "addr:street": "Addison Ave East", "building": "yes", "name": "Haffner's Lock & Key", "shop": "locksmith"}}, {"type": "way", "id": 1162032289, "nodes": [10807241819, 10807241816, 10807241817, 10807241818, 10807241819], "tags": {"addr:city": "Twin Falls", "addr:housenumber": "1122", "addr:postcode": "83301", "addr:state": "ID", "addr:street": "Addison Ave East", "building": "yes", "name": "Pawn 1", "shop": "pawnbroker"}}, {"type": "way", "id": 1162032292, "nodes": [10807241831, 10807241828, 10807241829, 10807241830, 10807241831], "tags": {"addr:housenumber": "1746", "addr:state": "ID", "addr:street": "Addison Ave East", "brand": "Family Dollar", "brand:wikidata": "Q5433101", "building": "yes", "name": "Family Dollar", "shop": "variety_store"}}, {"type": "way", "id": 1162056272, "nodes": [10807428556, 10807428555, 10807428554, 10807428553, 10807428556], "tags": {"addr:city": "Twin Falls", "addr:housenumber": "1914", "addr:postcode": "83301", "addr:state": "ID", "addr:street": "Addison Ave East", "building": "retail", "name": "Paperback Bookworm", "shop": "books"}}, {"type": "way", "id": 1204559378, "nodes": [11164133910, 11164133909, 11164133911, 11164133912, 11164133910], "tags": {"addr:housenumber": "1862", "addr:state": "ID", "addr:street": "Addison Ave East", "building": "yes", "name": "Ascension Tattoo", "shop": "tattoo"}}, {"type": "way", "id": 1204559380, "nodes": [11164133919, 11164133920, 11164133921, 11164133922, 11164133919], "tags": {"addr:housenumber": "1766", "addr:state": "ID", "addr:street": "Addison Ave East", "building": "yes", "name": "Robert Jones Realty", "office": "estate_agent", "phone": "+1-208-733-0404", "source": "microsoft/BuildingFootprints"}}, {"type": "way", "id": 1204559384, "nodes": [11164133937, 11164133938, 11164133939, 11164133940, 11164133941, 11164133942, 11164133943, 11164133944, 11164133945, 11164133946, 11164133937], "tags": {"addr:city": "Twin Falls", "addr:housenumber": "1704", "addr:postcode": "83301", "addr:state": "ID", "addr:street": "Maurice Street", "building": "yes", "name": "J&J Enterprises", "shop": "trade", "source": "microsoft/BuildingFootprints", "trade": "agricultural_equipment"}}, {"type": "way", "id": 1205098861, "nodes": [11168507294, 11168507295, 11168507296, 11168507297, 11168507298, 11168507299, 11168507300, 11168507301, 11168507294], "tags": {"addr:city": "Twin Falls", "addr:housenumber": "1525", "addr:postcode": "83301", "addr:state": "ID", "addr:street": "Addison Ave East", "building": "yes", "office": "yes", "source": "microsoft/BuildingFootprints"}}, {"type": "way", "id": 1205098866, "nodes": [11168507330, 11168507331, 11168507332, 11168507333, 11168507330], "tags": {"addr:city": "Twin Falls", "addr:housenumber": "1335", "addr:postcode": "83301", "addr:state": "ID", "addr:street": "Addison Ave East", "amenity": "restaurant", "building": "yes", "cuisine": "burger", "name": "Burger Stop", "source": "microsoft/BuildingFootprints"}}, {"type": "way", "id": 1205368217, "nodes": [11170901042, 11170901043, 11170901044, 11170901045, 11170901042], "tags": {"addr:city": "Twin Falls", "addr:housenumber": "1310", "addr:postcode": "83301", "addr:state": "ID", "addr:street": "Addison Ave East", "building": "yes", "name": "Oasis Stop 'N Go", "shop": "convenience", "source": "microsoft/BuildingFootprints"}}, {"type": "way", "id": 1307141903, "nodes": [12105302850, 12105302851, 12105302852, 12105302853, 12105302854, 12105302855, 12105302856, 12105302857, 12105302858, 12105302859, 12105302850], "tags": {"addr:city": "Twin Falls", "addr:housenumber": "2318", "addr:postcode": "83301", "addr:state": "ID", "addr:street": "Addison Avenue East", "brand": "Grocery Outlet", "brand:wikidata": "Q5609934", "building": "yes", "name": "Grocery Outlet", "official_name": "Grocery Outlet Bargain Market", "opening_hours": "09:00-22:00", "phone": "+1 208-734-0293", "shop": "supermarket"}}, {"type": "way", "id": 1307141904, "nodes": [12105302850, 12105302860, 12105302861, 12105302862, 12105302863, 12105302864, 12105302865, 12105302866, 12105302867, 12105302868, 12105302869, 12105302870, 12105302871, 12105302872, 12105302873, 12105302874, 12105302875, 12105302851, 12105302850], "tags": {"addr:city": "Twin Falls", "addr:housenumber": "2258", "addr:postcode": "83301", "addr:state": "ID", "addr:street": "Addison Avenue East", "building": "yes", "name": "D&B Supply Twin Falls", "shop": "yes"}}, {"type": "way", "id": 1336349870, "nodes": [12360499894, 12360499895, 12360499896, 12360499897, 12360499898, 12360499899, 12360499894], "tags": {"name": "Spring Creek Storage", "shop": "storage_rental"}}]}