{"version": 0.6, "generator": "Overpass API 0.7.62.8 e802775f", "osm3s": {"timestamp_osm_base": "2025-12-06T04:19:16Z", "copyright": "The data included in this document is from www.openstreetmap.org. The data is made available under ODbL."}, "elements": [{"type": "node", "id": 1573003147, "lat": 45.6722947, "lon": -111.074045, "tags": {"addr:city": "Bozeman", "addr:housenumber": "2740", "addr:postcode": "59718", "addr:state": "MT", "addr:street": "West Main Street", "check_date": "2023-07-23", "currency:XBT": "yes", "name": "Rook's Comics and Games", "opening_hours": "12:00-22:00", "payment:onchain": "yes", "phone": "+1 406-556-2153", "shop": "games"}}, {"type": "node", "id": 4032036135, "lat": 45.67073, "lon": -111.0772449, "tags": {"name": "Barkenhowell's", "shop": "pet"}}, {"type": "node", "id": 4032036136, "lat": 45.6738923, "lon": -111.075561, "tags": {"brand": "Barnes & Noble", "brand:wikidata": "Q795454", "name": "Barnes & Noble", "shop": "books"}}, {"type": "node", "id": 4032036139, "lat": 45.6707816, "lon": -111.0772495, "tags": {"name": "Craft Beer Cellar", "shop": "alcohol"}}, {"type": "node", "id": 4032036143, "lat": 45.6737488, "lon": -111.0798227, "tags": {"brand": "Macy's", "brand:wikidata": "Q629269", "name": "Macy's", "shop": "department_store", "website": "https://www.macys.com/stores/mt/bozeman/gallatin-valley-mall_420.html"}}, {"type": "node", "id": 4032036144, "lat": 45.6708674, "lon": -111.0772522, "tags": {"brand": "Massage Envy", "brand:wikidata": "Q10327170", "name": "Massage Envy", "shop": "massage"}}, {"type": "node", "id": 4032036151, "lat": 45.670916, "lon": -111.077073, "tags": {"alt_name": "Verizon Wireless", "brand": "Verizon", "brand:wikidata": "Q919641", "name": "Verizon", "shop": "mobile_phone"}}, {"type": "node", "id": 4032038804, "lat": 45.6692673, "lon": -111.0758704}, {"type": "node", "id": 4032038805, "lat": 45.6692695, "lon": -111.0768301}, {"type": "node", "id": 4032038818, "lat": 45.6696415, "lon": -111.0768284}, {"type": "node", "id": 4032038819, "lat": 45.6696419, "lon": -111.0770215}, {"type": "node", "id": 4032038821, "lat": 45.6696821, "lon": -111.0825859}, {"type": "node", "id": 4032038826, "lat": 45.6697913, "lon": -111.081842}, {"type": "node", "id": 4032038829, "lat": 45.6698619, "lon": -111.075867}, {"type": "node", "id": 4032038830, "lat": 45.6698646, "lon": -111.0770268}, {"type": "node", "id": 4032038847, "lat": 45.6703882, "lon": -111.0748416}, {"type": "node", "id": 4032038852, "lat": 45.6704496, "lon": -111.0741219}, {"type": "node", "id": 4032038854, "lat": 45.6704775, "lon": -111.0739353}, {"type": "node", "id": 4032038857, "lat": 45.6704937, "lon": -111.0741354}, {"type": "node", "id": 4032038860, "lat": 45.6705628, "lon": -111.0828506}, {"type": "node", "id": 4032038865, "lat": 45.6705905, "lon": -111.0739699}, {"type": "node", "id": 4032038873, "lat": 45.6706686, "lon": -111.0734474}, {"type": "node", "id": 4032038874, "lat": 45.6706719, "lon": -111.0821067}, {"type": "node", "id": 4032038880, "lat": 45.6707174, "lon": -111.0749423}, {"type": "node", "id": 4032038888, "lat": 45.6708235, "lon": -111.0742317}, {"type": "node", "id": 4032038989, "lat": 45.6708341, "lon": -111.073498}, {"type": "node", "id": 4032039029, "lat": 45.6716361, "lon": -111.0811525}, {"type": "node", "id": 4032039030, "lat": 45.6716365, "lon": -111.0818023}, {"type": "node", "id": 4032039045, "lat": 45.6720295, "lon": -111.0811519}, {"type": "node", "id": 4032039047, "lat": 45.67203, "lon": -111.0818018}, {"type": "node", "id": 4032039052, "lat": 45.6724011, "lon": -111.0803913}, {"type": "node", "id": 4032039053, "lat": 45.6726282, "lon": -111.0800406}, {"type": "node", "id": 4032039054, "lat": 45.6726323, "lon": -111.0803856}, {"type": "node", "id": 4032157443, "lat": 45.6721381, "lon": -111.0731639, "tags": {"name": "Davis Business Machines", "shop": "electronics"}}, {"type": "node", "id": 4032157452, "lat": 45.6720821, "lon": -111.0742848, "tags": {"name": "Mountain Hot Tub", "shop": "swimming_pool"}}, {"type": "node", "id": 4032157457, "lat": 45.6721373, "lon": -111.0734189, "tags": {"name": "Rethink Thrift", "shop": "second_hand"}}, {"type": "node", "id": 4032157459, "lat": 45.6721653, "lon": -111.0741501, "tags": {"name": "Smokin Smitty's", "shop": "tobacco"}}, {"type": "node", "id": 4032157463, "lat": 45.6721368, "lon": -111.0736057, "tags": {"name": "The Paint Factory", "shop": "paint"}}, {"type": "node", "id": 4032157469, "lat": 45.6714908, "lon": -111.07434}, {"type": "node", "id": 4032157470, "lat": 45.6714994, "lon": -111.074064}, {"type": "node", "id": 4032157482, "lat": 45.6716512, "lon": -111.0743503}, {"type": "node", "id": 4032157485, "lat": 45.6716599, "lon": -111.0740743}, {"type": "node", "id": 4317793853, "lat": 45.6706192, "lon": -111.0968741}, {"type": "node", "id": 4317793854, "lat": 45.6706208, "lon": -111.0967407}, {"type": "node", "id": 4317793855, "lat": 45.6708272, "lon": -111.0968792}, {"type": "node", "id": 4317793856, "lat": 45.6708288, "lon": -111.0967458}, {"type": "node", "id": 4317793886, "lat": 45.6719163, "lon": -111.1057794}, {"type": "node", "id": 4317794293, "lat": 45.671998, "lon": -111.1054817}, {"type": "node", "id": 4317794294, "lat": 45.6720972, "lon": -111.1054229}, {"type": "node", "id": 4317794299, "lat": 45.6722112, "lon": -111.1059451}, {"type": "node", "id": 4317794301, "lat": 45.6722325, "lon": -111.1058676}, {"type": "node", "id": 4317794302, "lat": 45.6722616, "lon": -111.1055988}, {"type": "node", "id": 4317794305, "lat": 45.6722815, "lon": -111.1055265}, {"type": "node", "id": 4317794322, "lat": 45.6726608, "lon": -111.1061083}, {"type": "node", "id": 4317794329, "lat": 45.6727286, "lon": -111.1058612}, {"type": "node", "id": 4317794363, "lat": 45.6732705, "lon": -111.1046039}, {"type": "node", "id": 4317794364, "lat": 45.6732708, "lon": -111.1049999}, {"type": "node", "id": 4317794380, "lat": 45.6734885, "lon": -111.1048968}, {"type": "node", "id": 4317794381, "lat": 45.6734885, "lon": -111.1049996}, {"type": "node", "id": 4317794398, "lat": 45.6738211, "lon": -111.1046031}, {"type": "node", "id": 4317794399, "lat": 45.6738212, "lon": -111.1047121}, {"type": "node", "id": 4317794404, "lat": 45.6738947, "lon": -111.104712}, {"type": "node", "id": 4317794405, "lat": 45.6738948, "lon": -111.1048962}, {"type": "node", "id": 4317794428, "lat": 45.6744279, "lon": -111.1057223}, {"type": "node", "id": 4317794429, "lat": 45.6744298, "lon": -111.1055654}, {"type": "node", "id": 4317794442, "lat": 45.6746224, "lon": -111.105727}, {"type": "node", "id": 4317794443, "lat": 45.6746242, "lon": -111.1055701}, {"type": "node", "id": 4317794450, "lat": 45.67528, "lon": -111.1064569}, {"type": "node", "id": 4317794451, "lat": 45.6752823, "lon": -111.1071191}, {"type": "node", "id": 4317794452, "lat": 45.6753391, "lon": -111.1050228}, {"type": "node", "id": 4317794453, "lat": 45.6753441, "lon": -111.1046467}, {"type": "node", "id": 4317794455, "lat": 45.6753682, "lon": -111.1064564}, {"type": "node", "id": 4317794456, "lat": 45.6753678, "lon": -111.1063543}, {"type": "node", "id": 4317794460, "lat": 45.6755133, "lon": -111.1050756}, {"type": "node", "id": 4317794461, "lat": 45.6756023, "lon": -111.1048375}, {"type": "node", "id": 4317794462, "lat": 45.6756585, "lon": -111.1062396}, {"type": "node", "id": 4317794463, "lat": 45.6756048, "lon": -111.1046538}, {"type": "node", "id": 4317794467, "lat": 45.6757801, "lon": -111.1063887}, {"type": "node", "id": 4317794468, "lat": 45.6757815, "lon": -111.1067238}, {"type": "node", "id": 4317794471, "lat": 45.6763762, "lon": -111.1047728}, {"type": "node", "id": 4317794472, "lat": 45.6763565, "lon": -111.1054483}, {"type": "node", "id": 4317794473, "lat": 45.6765713, "lon": -111.105449}, {"type": "node", "id": 4317794474, "lat": 45.6765704, "lon": -111.1059823}, {"type": "node", "id": 4317794476, "lat": 45.6769195, "lon": -111.10485}, {"type": "node", "id": 4317794477, "lat": 45.6767707, "lon": -111.1059829}, {"type": "node", "id": 5202927091, "lat": 45.6706965, "lon": -111.0772463, "tags": {"addr:city": "Bozeman", "addr:housenumber": "867", "addr:postcode": "59718", "addr:state": "MT", "addr:street": "South 29th Avenue", "addr:unit": "#107", "amenity": "restaurant", "cuisine": "brazilian;health_food", "delivery": "yes", "name": "Oba! Brazilian Cafe", "opening_hours": "Mo-Sa 09:30-20:00", "outdoor_seating": "yes", "phone": "+1 406-577-2552", "takeaway": "yes"}}, {"type": "node", "id": 7188175576, "lat": 45.6761808, "lon": -111.1069958}, {"type": "node", "id": 7188175577, "lat": 45.6760531, "lon": -111.106997}, {"type": "node", "id": 7188175578, "lat": 45.6760536, "lon": -111.107105}, {"type": "node", "id": 7188175579, "lat": 45.6757859, "lon": -111.1071078}, {"type": "node", "id": 7188175580, "lat": 45.6761795, "lon": -111.1067198}, {"type": "node", "id": 7188175581, "lat": 45.6757863, "lon": -111.1071928}, {"type": "node", "id": 7188175582, "lat": 45.675378, "lon": -111.1071192}, {"type": "node", "id": 7188175583, "lat": 45.6753783, "lon": -111.1071952}, {"type": "node", "id": 7188175584, "lat": 45.6754582, "lon": -111.1063417}, {"type": "node", "id": 7188207785, "lat": 45.675453, "lon": -111.1062369}, {"type": "node", "id": 7188207786, "lat": 45.676238, "lon": -111.1052668}, {"type": "node", "id": 7188207787, "lat": 45.6762407, "lon": -111.1049934}, {"type": "node", "id": 7188207788, "lat": 45.6762973, "lon": -111.1049946}, {"type": "node", "id": 7188207789, "lat": 45.676771, "lon": -111.1058137}, {"type": "node", "id": 7188207790, "lat": 45.6768419, "lon": -111.1058139}, {"type": "node", "id": 7188207791, "lat": 45.6768425, "lon": -111.1054174}, {"type": "node", "id": 7188207792, "lat": 45.6769187, "lon": -111.1054177}, {"type": "node", "id": 7188207793, "lat": 45.6768614, "lon": -111.1048498}, {"type": "node", "id": 7188207794, "lat": 45.6768617, "lon": -111.1046905}, {"type": "node", "id": 7188207795, "lat": 45.6765921, "lon": -111.1046896}, {"type": "node", "id": 7188207796, "lat": 45.6765919, "lon": -111.1047736}, {"type": "node", "id": 7386375905, "lat": 45.6727549, "lon": -111.1012905}, {"type": "node", "id": 7386375906, "lat": 45.6727537, "lon": -111.1002006}, {"type": "node", "id": 7386375907, "lat": 45.6724985, "lon": -111.1002011}, {"type": "node", "id": 7386375908, "lat": 45.6724998, "lon": -111.1012911}, {"type": "node", "id": 8140231374, "lat": 45.670803, "lon": -111.103647, "tags": {"name": "Town Pump", "shop": "convenience"}}, {"type": "node", "id": 8140242428, "lat": 45.6689968, "lon": -111.082289, "tags": {"amenity": "restaurant", "brand": "Dickey's Barbecue Pit", "brand:wikidata": "Q19880747", "cuisine": "barbecue", "name": "Dickey's Barbecue Pit"}}, {"type": "node", "id": 8336714644, "lat": 45.6714189, "lon": -111.079705}, {"type": "node", "id": 8336714645, "lat": 45.6713775, "lon": -111.0792897}, {"type": "node", "id": 8336714646, "lat": 45.6717249, "lon": -111.0792189}, {"type": "node", "id": 8336714650, "lat": 45.6717663, "lon": -111.0796341}, {"type": "node", "id": 8495368259, "lat": 45.6696857, "lon": -111.0770276}, {"type": "node", "id": 8495368300, "lat": 45.6705669, "lon": -111.0828223}, {"type": "node", "id": 8495368301, "lat": 45.6706364, "lon": -111.0823484}, {"type": "node", "id": 8495368534, "lat": 45.6704611, "lon": -111.0748634}, {"type": "node", "id": 8495398530, "lat": 45.6682734, "lon": -111.081248, "tags": {"name": "Muse Salon Studios", "shop": "beauty"}}, {"type": "node", "id": 8495398531, "lat": 45.6686202, "lon": -111.082259, "tags": {"brand": "Crumbl Cookies", "brand:wikidata": "Q106924414", "name": "Crumbl Cookies", "shop": "pastry", "short_name": "Crumbl"}}, {"type": "node", "id": 8495398534, "lat": 45.6687733, "lon": -111.0761561, "tags": {"name": "Advanced Electronic Designs", "shop": "electronics"}}, {"type": "node", "id": 8495398535, "lat": 45.6739125, "lon": -111.0783013, "tags": {"brand": "GameStop", "brand:wikidata": "Q202210", "name": "GameStop", "shop": "video_games"}}, {"type": "node", "id": 8495398536, "lat": 45.6735495, "lon": -111.0791672, "tags": {"amenity": "restaurant", "name": "The Bay Bar & Grille"}}, {"type": "node", "id": 8495398537, "lat": 45.6735826, "lon": -111.0784497, "tags": {"name": "Nights Delight", "shop": "furniture"}}, {"type": "node", "id": 8495398538, "lat": 45.6735941, "lon": -111.0781116, "tags": {"brand": "Hot Topic", "brand:wikidata": "Q9294032", "name": "Hot Topic", "shop": "clothes"}}, {"type": "node", "id": 8495398540, "lat": 45.6735452, "lon": -111.0775859, "tags": {"amenity": "restaurant", "name": "El Rodeo"}}, {"type": "node", "id": 8495398541, "lat": 45.6739817, "lon": -111.0775219, "tags": {"brand": "Spencer Gifts", "brand:wikidata": "Q7576055", "name": "Spencer's", "official_name": "Spencer Gifts", "shop": "gift"}}, {"type": "node", "id": 8495398542, "lat": 45.6736647, "lon": -111.0772663, "tags": {"brand": "Zumiez", "brand:wikidata": "Q8075252", "name": "Zumiez", "shop": "clothes"}}, {"type": "node", "id": 8495398543, "lat": 45.6738736, "lon": -111.0771962, "tags": {"brand": "H&R Block", "brand:wikidata": "Q5627799", "name": "H&R Block", "office": "tax_advisor"}}, {"type": "node", "id": 8495398544, "lat": 45.674022, "lon": -111.0769343, "tags": {"brand": "Bath & Body Works", "brand:wikidata": "Q810773", "name": "Bath & Body Works", "shop": "cosmetics"}}, {"type": "node", "id": 8495398545, "lat": 45.6737022, "lon": -111.0768828, "tags": {"name": "Apricot Lane", "shop": "clothes"}}, {"type": "node", "id": 8495398546, "lat": 45.6737252, "lon": -111.0766849, "tags": {"brand": "Victoria's Secret", "brand:wikidata": "Q332477", "clothes": "underwear;women", "name": "Victoria's Secret", "shop": "clothes"}}, {"type": "node", "id": 8495398547, "lat": 45.6741125, "lon": -111.0765036, "tags": {"brand": "claire's", "brand:wikidata": "Q2974996", "name": "claire's", "shop": "fashion_accessories"}}, {"type": "node", "id": 8495398548, "lat": 45.6737367, "lon": -111.0763521, "tags": {"brand": "Simply Mac", "brand:wikidata": "Q105180470", "name": "Simply Mac", "shop": "electronics"}}, {"type": "node", "id": 8495398551, "lat": 45.6737493, "lon": -111.0785465, "tags": {"brand": "Sunglass Hut", "brand:wikidata": "Q136311", "name": "Sunglass Hut", "shop": "optician"}}, {"type": "node", "id": 8495398552, "lat": 45.6738444, "lon": -111.0793609, "tags": {"beauty": "nails", "name": "Le Nails", "shop": "beauty"}}, {"type": "node", "id": 8502458192, "lat": 45.6718137, "lon": -111.0894018, "tags": {"brand": "State Farm", "brand:wikidata": "Q2007336", "name": "State Farm", "office": "insurance"}}, {"type": "node", "id": 8502458193, "lat": 45.6726046, "lon": -111.0889207, "tags": {"name": "Rudd & Co PLLC", "office": "accountant"}}, {"type": "node", "id": 8502458194, "lat": 45.6728035, "lon": -111.089138, "tags": {"name": "McKenna Realty", "office": "estate_agent"}}, {"type": "node", "id": 8502458195, "lat": 45.6725627, "lon": -111.0898647, "tags": {"name": "FrontierHome Health", "office": "yes"}}, {"type": "node", "id": 8502458197, "lat": 45.6718063, "lon": -111.0908311, "tags": {"name": "Delger Real Estate", "office": "estate_agent"}}, {"type": "node", "id": 8502458198, "lat": 45.6721177, "lon": -111.0914117, "tags": {"alt_name": "Edward Jones Investments", "brand": "Edward Jones", "brand:wikidata": "Q5343830", "name": "Edward Jones", "office": "financial_advisor"}}, {"type": "node", "id": 8502458200, "lat": 45.6727381, "lon": -111.092337, "tags": {"name": "Pro Techs Computer Solutions", "office": "it"}}, {"type": "node", "id": 8502458202, "lat": 45.6716841, "lon": -111.0860276, "tags": {"name": "Gallatin Creeks to Peaks", "office": "yes"}}, {"type": "node", "id": 8518688409, "lat": 45.6753997, "lon": -111.1050245}, {"type": "node", "id": 8518688410, "lat": 45.675399, "lon": -111.1050725}, {"type": "node", "id": 8961122681, "lat": 45.6726259, "lon": -111.1004203, "tags": {"amenity": "restaurant", "name": "Tanglewood Grill & Tap"}}, {"type": "node", "id": 9459092572, "lat": 45.6708044, "lon": -111.076059, "tags": {"amenity": "cafe", "cuisine": "coffee_shop", "name": "City Brew Coffee"}}, {"type": "node", "id": 10211316200, "lat": 45.6717686, "lon": -111.0785691, "tags": {"addr:city": "Bozeman", "addr:housenumber": "2905", "addr:postcode": "59718", "addr:state": "MT", "addr:street": "West Main Street", "branch": "Bozeman", "brand": "Whole Foods Market", "brand:wikidata": "Q1809448", "check_date": "2024-10-03", "check_date:opening_hours": "2024-10-03", "name": "Whole Foods Market", "opening_hours": "Mo-Su 08:00-21:00", "phone": "+1 406-602-8249", "ref": "bozeman", "shop": "supermarket", "website": "https://www.wholefoodsmarket.com/stores/bozeman"}}, {"type": "node", "id": 10613531279, "lat": 45.6678141, "lon": -111.075326, "tags": {"name": "Security Title Co of Montana", "office": "yes"}}, {"type": "node", "id": 10613531280, "lat": 45.6686822, "lon": -111.0752167, "tags": {"addr:city": "Bozeman", "addr:housenumber": "2880", "addr:state": "MT", "addr:street": "South 29th Avenue", "name": "Morrison-Maierle, Inc.", "office": "yes"}}, {"type": "node", "id": 10613531281, "lat": 45.6687011, "lon": -111.0767531, "tags": {"name": "OZ", "office": "yes"}}, {"type": "node", "id": 10613531282, "lat": 45.6681536, "lon": -111.0812521, "tags": {"name": "Lisa Wild Hair Studio", "shop": "hairdresser"}}, {"type": "node", "id": 10613531284, "lat": 45.6706552, "lon": -111.077056, "tags": {"amenity": "restaurant", "cuisine": "noodle", "name": "Hokkaido Ramen House"}}, {"type": "node", "id": 10613531285, "lat": 45.6705867, "lon": -111.076003, "tags": {"brand": "Red Wing", "brand:wikidata": "Q934096", "name": "Red Wing", "shop": "shoes"}}, {"type": "node", "id": 10613531286, "lat": 45.6736522, "lon": -111.0779466, "tags": {"amenity": "restaurant", "cuisine": "chinese", "name": "Famous Wok"}}, {"type": "node", "id": 10613531287, "lat": 45.6738942, "lon": -111.0787306, "tags": {"brand": "Eddie Bauer", "brand:wikidata": "Q842174", "name": "Eddie Bauer", "shop": "clothes"}}, {"type": "node", "id": 10613531288, "lat": 45.6716667, "lon": -111.0789106, "tags": {"amenity": "cafe", "cuisine": "coffee_shop", "name": "Treeline Coffee"}}, {"type": "node", "id": 10655843360, "lat": 45.6727002, "lon": -111.088349, "tags": {"addr:city": "Bozeman", "addr:state": "MT", "name": "USDA Service Center", "office": "government"}}, {"type": "node", "id": 10655843361, "lat": 45.6720117, "lon": -111.0880613, "tags": {"addr:city": "Bozeman", "addr:housenumber": "3710", "addr:state": "MT", "addr:street": "Fallon Street", "name": "US Forest Service Bozeman Ranger District", "office": "government"}}, {"type": "node", "id": 10655843365, "lat": 45.6751878, "lon": -111.0942679, "tags": {"name": "Bozeman Real Estate Group", "office": "estate_agent"}}, {"type": "node", "id": 10655843366, "lat": 45.6754782, "lon": -111.09427, "tags": {"name": "Wild Embers Medical Spa", "shop": "beauty"}}, {"type": "node", "id": 10655843367, "lat": 45.6755964, "lon": -111.0942679, "tags": {"name": "Cornerstone Home Lending", "office": "estate_agent"}}, {"type": "node", "id": 10655843370, "lat": 45.6726858, "lon": -111.1008598, "tags": {"name": "Garden Barn at The Market", "shop": "garden_centre"}}, {"type": "node", "id": 10655843372, "lat": 45.6730393, "lon": -111.1012208, "tags": {"name": "Single Barrel Liquor and Bar", "shop": "alcohol"}}, {"type": "node", "id": 10655843373, "lat": 45.6730113, "lon": -111.1003559, "tags": {"beauty": "nails", "name": "Chi Nail Bar", "shop": "beauty"}}, {"type": "node", "id": 10655843376, "lat": 45.673583, "lon": -111.1011763, "tags": {"brand": "Charles Schwab", "brand:wikidata": "Q1066028", "name": "Charles Schwab", "office": "financial_advisor"}}, {"type": "node", "id": 10655843377, "lat": 45.6735199, "lon": -111.1011798, "tags": {"name": "Renew", "shop": "massage"}}, {"type": "node", "id": 10655843378, "lat": 45.6730438, "lon": -111.1018611, "tags": {"name": "Schedulicity", "office": "it"}}, {"type": "node", "id": 10655843379, "lat": 45.6730638, "lon": -111.102698, "tags": {"amenity": "cafe", "name": "The Well Juicery"}}, {"type": "node", "id": 10655843380, "lat": 45.6725728, "lon": -111.1009063, "tags": {"name": "The Viv Bioactive", "shop": "pet"}}, {"type": "node", "id": 10655843381, "lat": 45.6716623, "lon": -111.1010575, "tags": {"amenity": "restaurant", "cuisine": "burger;steak_house;sandwich;barbecue", "name": "Sidewinders"}}, {"type": "node", "id": 10655878814, "lat": 45.672397, "lon": -111.0800463}, {"type": "node", "id": 11160932721, "lat": 45.672703, "lon": -111.1011981, "tags": {"addr:city": "Bozeman", "addr:housenumber": "730", "addr:postcode": "59718", "addr:state": "MT", "addr:street": "Boardwalk Avenue", "amenity": "cafe", "name": "Cats Show Cat Caf\u00e9", "theme": "cat", "website": "https://catshowcatcafe.com/"}}, {"type": "node", "id": 11182391009, "lat": 45.6707787, "lon": -111.0784093}, {"type": "node", "id": 11612609559, "lat": 45.6707136, "lon": -111.0784096}, {"type": "node", "id": 11612609560, "lat": 45.6707137, "lon": -111.0784405}, {"type": "node", "id": 11612609561, "lat": 45.6706421, "lon": -111.0784408}, {"type": "node", "id": 11612609562, "lat": 45.670642, "lon": -111.0784061}, {"type": "node", "id": 11612609563, "lat": 45.6705267, "lon": -111.0784066}, {"type": "node", "id": 11612609564, "lat": 45.670526, "lon": -111.0780837}, {"type": "node", "id": 11612609565, "lat": 45.6705801, "lon": -111.0780835}, {"type": "node", "id": 11612609566, "lat": 45.67058, "lon": -111.0780538}, {"type": "node", "id": 11612609567, "lat": 45.6707026, "lon": -111.0780533}, {"type": "node", "id": 11612609568, "lat": 45.6707026, "lon": -111.078076}, {"type": "node", "id": 11612611669, "lat": 45.670759, "lon": -111.0780757}, {"type": "node", "id": 11612611670, "lat": 45.6707593, "lon": -111.07821}, {"type": "node", "id": 11612611671, "lat": 45.6707998, "lon": -111.0782098}, {"type": "node", "id": 11612611672, "lat": 45.6707999, "lon": -111.0782696}, {"type": "node", "id": 11612611673, "lat": 45.6707784, "lon": -111.0782697}, {"type": "node", "id": 12041056674, "lat": 45.6743836, "lon": -111.10214, "tags": {"name": "Town and Country Foods", "opening_hours": "Mo-Su 07:00-22:00", "shop": "supermarket"}}, {"type": "node", "id": 12517801181, "lat": 45.6733752, "lon": -111.0741632, "tags": {"brand": "Town Pump", "brand:wikidata": "Q7830004", "name": "Town Pump", "shop": "convenience"}}, {"type": "node", "id": 12517801183, "lat": 45.6757491, "lon": -111.094827, "tags": {"name": "Montana Accounting Group", "office": "accountant"}}, {"type": "node", "id": 12517801184, "lat": 45.6757516, "lon": -111.0945477, "tags": {"name": "45 Architecture & Interiors", "office": "architect"}}, {"type": "node", "id": 12517801185, "lat": 45.6744797, "lon": -111.0971774, "tags": {"name": "Waypoint Wealth Management", "office": "financial_advisor"}}, {"type": "node", "id": 12740676224, "lat": 45.6933056, "lon": -111.1054995, "tags": {"name": "Providence Development", "office": "estate_agent"}}, {"type": "node", "id": 13337299979, "lat": 45.672679, "lon": -111.0766859, "tags": {"brand": "Lululemon", "brand:wikidata": "Q6702957", "clothes": "men;women", "name": "Lululemon", "official_name": "Lululemon Athletica", "shop": "clothes"}}, {"type": "way", "id": 400668836, "nodes": [4032038857, 4032038847, 8495368534, 4032038880, 4032038888, 4032038989, 4032038873, 4032038865, 4032038854, 4032038852, 4032038857], "tags": {"addr:city": "Bozeman", "addr:housenumber": "2820", "addr:state": "MT", "addr:street": "West College Park", "building": "yes", "check_date": "2024-11-21", "name": "Bozeman Daily Chronicle", "office": "newspaper"}}, {"type": "way", "id": 400668848, "nodes": [4032038804, 4032038805, 4032038818, 4032038819, 8495368259, 4032038830, 4032038829, 4032038804], "tags": {"addr:city": "Bozeman", "addr:housenumber": "981", "addr:postcode": "59718", "addr:state": "MT", "addr:street": "South 29th Avenue", "branch": "Bozeman", "brand": "Kohl's", "brand:wikidata": "Q967265", "building": "retail", "name": "Kohl's", "opening_hours": "Mo-Th 09:00-20:00; Fr-Sa 09:00-21:00; Su 09:00-20:00", "phone": "+1 406-587-0021", "ref": "1419", "shop": "department_store", "toilets": "yes", "website": "https://www.kohls.com/stores/mt/bozeman-1419.shtml"}}, {"type": "way", "id": 400668856, "nodes": [4032039029, 4032039030, 4032039047, 4032039045, 4032039029], "tags": {"addr:city": "Bozeman", "addr:housenumber": "8695", "addr:postcode": "59718-9097", "addr:state": "MT", "addr:street": "Huffine Lane", "brand": "Ace Hardware", "brand:wikidata": "Q4672981", "building": "yes", "name": "Owenhouse Ace Hardware", "opening_hours": "Mo-Fr 07:30-20:00; Sa 08:00-19:00; Su 09:00-18:00", "phone": "+1 406-582-7330", "ref": "14733", "shop": "doityourself"}}, {"type": "way", "id": 400668861, "nodes": [4032038826, 4032038821, 4032038860, 8495368300, 8495368301, 4032038874, 4032038826], "tags": {"addr:city": "Bozeman", "addr:housenumber": "3255", "addr:state": "MT", "addr:street": "Huffine Lane", "brand": "Rosauers", "brand:wikidata": "Q7367458", "building": "yes", "name": "Rosauers", "shop": "supermarket"}}, {"type": "way", "id": 400668867, "nodes": [10655878814, 4032039052, 4032039054, 4032039053, 10655878814], "tags": {"addr:city": "Bozeman", "addr:state": "MT", "building": "yes", "name": "Tire Rama", "shop": "tyres"}}, {"type": "way", "id": 400680015, "nodes": [4032157470, 4032157469, 4032157482, 4032157485, 4032157470], "tags": {"addr:city": "Bozeman", "addr:housenumber": "2711", "addr:state": "MT", "addr:street": "West College Street", "amenity": "cafe", "building": "commercial", "name": "Cafe Zydeco"}}, {"type": "way", "id": 432827336, "nodes": [4317793854, 4317793853, 4317793855, 4317793856, 4317793854], "tags": {"addr:city": "Bozeman", "addr:state": "MT", "building": "yes", "name": "Big Sky Consignment", "shop": "second_hand"}}, {"type": "way", "id": 432827338, "nodes": [4317794363, 4317794364, 4317794381, 4317794380, 4317794405, 4317794404, 4317794399, 4317794398, 4317794363], "tags": {"addr:city": "Bozeman", "addr:state": "MT", "building": "yes", "name": "Billion Auto Body", "shop": "car"}}, {"type": "way", "id": 432827339, "nodes": [4317794450, 4317794451, 7188175582, 7188175583, 7188175581, 7188175579, 7188175578, 7188175577, 7188175576, 7188175580, 4317794468, 4317794467, 4317794462, 7188207785, 7188175584, 4317794456, 4317794455, 4317794450], "tags": {"addr:city": "Bozeman", "addr:state": "MT", "building": "yes", "name": "Billion Auto Plaza II", "shop": "car"}}, {"type": "way", "id": 432827340, "nodes": [4317793886, 4317794299, 4317794301, 4317794322, 4317794329, 4317794302, 4317794305, 4317794294, 4317794293, 4317793886], "tags": {"addr:city": "Bozeman", "addr:state": "MT", "building": "yes", "name": "Billion Used Superstore", "shop": "car"}}, {"type": "way", "id": 432827348, "nodes": [4317794429, 4317794428, 4317794442, 4317794443, 4317794429], "tags": {"addr:city": "Bozeman", "addr:state": "MT", "building": "yes", "name": "Executive Auto Detail", "shop": "car_parts"}}, {"type": "way", "id": 432827366, "nodes": [4317794453, 4317794452, 8518688409, 8518688410, 4317794460, 4317794461, 4317794463, 4317794453], "tags": {"addr:city": "Bozeman", "addr:state": "MT", "building": "yes", "name": "JC Billion", "shop": "car"}}, {"type": "way", "id": 432827367, "nodes": [4317794471, 7188207788, 7188207787, 7188207786, 4317794472, 4317794473, 4317794474, 4317794477, 7188207789, 7188207790, 7188207791, 7188207792, 4317794476, 7188207793, 7188207794, 7188207795, 7188207796, 4317794471], "tags": {"addr:city": "Bozeman", "addr:state": "MT", "building": "yes", "name": "JC Billion", "shop": "car"}}, {"type": "way", "id": 790041406, "nodes": [7386375905, 7386375906, 7386375907, 7386375908, 7386375905], "tags": {"building": "yes", "name": "The Market", "shop": "mall"}}, {"type": "way", "id": 896878830, "nodes": [8336714650, 8336714644, 8336714645, 8336714646, 8336714650], "tags": {"addr:city": "Bozeman", "addr:housenumber": "2911", "addr:postcode": "59718", "addr:state": "MT", "addr:street": "West Main Street", "branch": "Bozeman", "brand": "Petco", "brand:wikidata": "Q7171798", "building": "yes", "name": "Petco", "opening_hours": "Mo-We 09:00-20:00; Th 09:00-19:00; Fr-Sa 09:00-20:00; Su 10:00-19:00", "phone": "+1 406-585-1780", "ref": "1268", "shop": "pet", "website": "https://stores.petco.com/mt/bozeman/pet-supplies-bozeman-mt-1268.html"}}, {"type": "way", "id": 1249382768, "nodes": [11182391009, 11612609559, 11612609560, 11612609561, 11612609562, 11612609563, 11612609564, 11612609565, 11612609566, 11612609567, 11612609568, 11612611669, 11612611670, 11612611671, 11612611672, 11612611673, 11182391009], "tags": {"amenity": "restaurant", "brand": "Texas Roadhouse", "brand:wikidata": "Q7707945", "building": "yes", "cuisine": "steak_house", "name": "Texas Roadhouse", "opening_hours": "Mo-Th 16:00-22:00; Fr 15:00-22:00; Sa 10:00-22:00; Su 11:00-22:00"}}]}