{"version": 0.6, "generator": "Overpass API 0.7.62.8 e802775f", "osm3s": {"timestamp_osm_base": "2025-12-06T05:28:07Z", "copyright": "The data included in this document is from www.openstreetmap.org. The data is made available under ODbL."}, "elements": [{"type": "node", "id": 4583399969, "lat": 43.6487263, "lon": -116.3737296}, {"type": "node", "id": 4583399970, "lat": 43.6487271, "lon": -116.3736442}, {"type": "node", "id": 4583399971, "lat": 43.6487754, "lon": -116.373645}, {"type": "node", "id": 4583399972, "lat": 43.6487761, "lon": -116.373568}, {"type": "node", "id": 4583399973, "lat": 43.6489813, "lon": -116.3735716}, {"type": "node", "id": 5636369773, "lat": 43.6487759, "lon": -116.3737305}, {"type": "node", "id": 5636369774, "lat": 43.6489476, "lon": -116.3737388}, {"type": "node", "id": 5636369775, "lat": 43.6489475, "lon": -116.3737493}, {"type": "node", "id": 5636369776, "lat": 43.6488057, "lon": -116.3737468}, {"type": "node", "id": 5636369777, "lat": 43.6488058, "lon": -116.373738}, {"type": "node", "id": 5636369778, "lat": 43.6487758, "lon": -116.3737375}, {"type": "node", "id": 8258593948, "lat": 43.6491285, "lon": -116.3727576, "tags": {"addr:city": "Meridian", "addr:housenumber": "1728", "addr:postcode": "83646", "addr:state": "ID", "addr:street": "East McMillan Road", "addr:unit": "160", "amenity": "bar", "name": "Good Apple Taphouse"}}, {"type": "node", "id": 8331489935, "lat": 43.6489798, "lon": -116.373739}, {"type": "node", "id": 8672344890, "lat": 43.6480128, "lon": -116.374841, "tags": {"addr:city": "Meridian", "addr:housenumber": "4736", "addr:postcode": "83646", "addr:state": "ID", "addr:street": "North Park Crossing Avenue", "addr:unit": "100", "name": "Precision Floors and Design", "shop": "flooring"}}, {"type": "node", "id": 8672348159, "lat": 43.6491278, "lon": -116.3729974, "tags": {"addr:city": "Meridian", "addr:housenumber": "1728", "addr:postcode": "83646", "addr:state": "ID", "addr:street": "East McMillan Road", "addr:unit": "130", "name": "Burn The Boats Tattoo", "opening_hours": "Su-Th 11:00-20:00; Fr-Sa 11:00-21:00", "phone": "+1-208-550-8091", "shop": "tattoo", "website": "https://burntheboatstattoo.com/"}}, {"type": "node", "id": 8672348161, "lat": 43.6491265, "lon": -116.37316, "tags": {"addr:city": "Meridian", "addr:housenumber": "1728", "addr:postcode": "83646", "addr:state": "ID", "addr:street": "East McMillan Road", "addr:unit": "110", "amenity": "restaurant", "cuisine": "pizza", "name": "Uncle Bob's Pizza", "opening_hours": "Mo-Th 11:30-21:00; Fr 11:30-22:00; Sa 09:00-22:00; Su 09:00-21:00"}}, {"type": "node", "id": 9380612734, "lat": 43.6624885, "lon": -116.3815183, "tags": {"amenity": "cafe", "cuisine": "coffee_shop", "name": "Bright Eyes"}}, {"type": "way", "id": 463021257, "nodes": [8331489935, 5636369774, 5636369775, 5636369776, 5636369777, 5636369778, 5636369773, 4583399969, 4583399970, 4583399971, 4583399972, 4583399973, 8331489935], "tags": {"addr:city": "Meridian", "addr:housenumber": "1630", "addr:postcode": "83646", "addr:state": "ID", "addr:street": "East McMillan Road", "brand": "Maverik", "brand:wikidata": "Q64149010", "building": "yes", "fuel:diesel": "yes", "name": "Maverik", "operator": "Maverick", "shop": "convenience"}}]}