{"version": 0.6, "generator": "Overpass API 0.7.62.8 e802775f", "osm3s": {"timestamp_osm_base": "2025-12-13T01:09:56Z", "copyright": "The data included in this document is from www.openstreetmap.org. The data is made available under ODbL."}, "elements": [{"type": "node", "id": 366395983, "lat": 39.717936, "lon": -104.219478, "tags": {"addr:state": "CO", "amenity": "police", "ele": "1581", "gnis:feature_id": "2369939", "name": "Arapahoe County Sheriff's Office Byers Substation"}}, {"type": "node", "id": 5121157815, "lat": 39.7171832, "lon": -104.2198742}, {"type": "node", "id": 5121157816, "lat": 39.7173483, "lon": -104.2197642}, {"type": "node", "id": 5121157817, "lat": 39.7174072, "lon": -104.2199136}, {"type": "node", "id": 5222715732, "lat": 39.7180739, "lon": -104.2195634}, {"type": "node", "id": 5222715737, "lat": 39.7181947, "lon": -104.2194887}, {"type": "node", "id": 5222715740, "lat": 39.7180466, "lon": -104.2189975, "tags": {"addr:city": "Byers", "addr:housenumber": "568", "addr:postcode": "80103", "addr:state": "CO", "addr:street": "North US Highway 36", "amenity": "pharmacy", "dispensing": "yes", "drive_through": "no", "healthcare": "pharmacy", "name": "Byers Pharmacy", "opening_hours": "Mo-Fr 09:00-18:00; Sa 09:00-15:00", "phone": "+1-303-822-9371", "website": "https://byerspharmacy.com/"}}, {"type": "node", "id": 5222715769, "lat": 39.7180355, "lon": -104.2191361}, {"type": "node", "id": 5222715770, "lat": 39.7180505, "lon": -104.218879}, {"type": "node", "id": 5222715771, "lat": 39.7180141, "lon": -104.218773}, {"type": "node", "id": 5222715772, "lat": 39.7181952, "lon": -104.2187145}, {"type": "node", "id": 5222715773, "lat": 39.7181105, "lon": -104.2187636}, {"type": "node", "id": 5222715774, "lat": 39.7180972, "lon": -104.2187248}, {"type": "node", "id": 5222715775, "lat": 39.7181815, "lon": -104.2186748}, {"type": "node", "id": 5222715776, "lat": 39.718313, "lon": -104.2185985}, {"type": "node", "id": 5222715777, "lat": 39.7179644, "lon": -104.2189289}, {"type": "node", "id": 5222715778, "lat": 39.7184208, "lon": -104.2189127}, {"type": "node", "id": 10865506008, "lat": 39.7180974, "lon": -104.2206547}, {"type": "node", "id": 10865506009, "lat": 39.71817, "lon": -104.2206048}, {"type": "node", "id": 10865506010, "lat": 39.7181272, "lon": -104.2204997}, {"type": "node", "id": 10865506011, "lat": 39.7180546, "lon": -104.2205496}, {"type": "node", "id": 12601942355, "lat": 39.7172421, "lon": -104.2200235}, {"type": "node", "id": 12601942367, "lat": 39.7180967, "lon": -104.2192208}, {"type": "node", "id": 12601942368, "lat": 39.7180827, "lon": -104.2193955, "tags": {"addr:city": "Byers", "addr:housenumber": "538", "addr:postcode": "80103", "addr:state": "CO", "addr:street": "North US Highway 36", "amenity": "bank", "atm": "yes", "drive_through": "no", "name": "Independent Financial", "opening_hours": "Mo-Fr 09:00-17:00", "phone": "+1-303-622-2538", "source": "esri/USA_NAD_Addresses", "website": "https://locations.ifinancial.com/co/byers/538-us-hwy-36"}}, {"type": "node", "id": 12601942369, "lat": 39.7179446, "lon": -104.2198742}, {"type": "node", "id": 12601942370, "lat": 39.7178757, "lon": -104.219686}, {"type": "node", "id": 12601942371, "lat": 39.7181639, "lon": -104.2191793}, {"type": "node", "id": 12601942372, "lat": 39.7181393, "lon": -104.2191122}, {"type": "node", "id": 12601942373, "lat": 39.7184691, "lon": -104.2189084}, {"type": "node", "id": 12601942374, "lat": 39.718628, "lon": -104.2193429}, {"type": "node", "id": 12601942375, "lat": 39.7182979, "lon": -104.2195469}, {"type": "node", "id": 12601942376, "lat": 39.7183304, "lon": -104.2196357}, {"type": "node", "id": 12601942377, "lat": 39.7180005, "lon": -104.2195612, "tags": {"amenity": "atm", "currency:USD": "yes", "drive_through": "no", "operator": "Independent Financial"}}, {"type": "node", "id": 12601942622, "lat": 39.7304935, "lon": -104.2122328}, {"type": "node", "id": 12601942623, "lat": 39.7304931, "lon": -104.2096994}, {"type": "node", "id": 12601942624, "lat": 39.7313143, "lon": -104.2096976}, {"type": "node", "id": 12601942625, "lat": 39.7313115, "lon": -104.2116941}, {"type": "node", "id": 12601942626, "lat": 39.7318343, "lon": -104.2097023}, {"type": "node", "id": 12601942627, "lat": 39.7318343, "lon": -104.2113731}, {"type": "way", "id": 526651778, "nodes": [12601942355, 5121157817, 5121157816, 5121157815, 12601942355], "tags": {"addr:city": "Byers", "addr:housenumber": "486", "addr:postcode": "80103", "addr:state": "CO", "addr:street": "US Highway 36", "amenity": "restaurant", "building": "commercial", "cuisine": "mexican", "name": "Los 3 Garcia's Mexican Restaurant", "opening_hours": "Su-Th 11:00-21:00; Fr-Sa 11:00-22:00", "phone": "+1-303-822-5050", "source": "esri/USA_NAD_Addresses", "website": "https://www.los3garciasrestaurants.com/"}}, {"type": "way", "id": 539781584, "nodes": [5222715769, 5222715777, 5222715770, 5222715771, 5222715774, 5222715773, 5222715772, 5222715775, 5222715776, 5222715778, 5222715769], "tags": {"addr:city": "Byers", "addr:housenumber": "568", "addr:postcode": "80103", "addr:state": "CO", "addr:street": "North US Highway 36", "building": "commercial", "name": "Byers General Store", "opening_hours": "Mo-Sa 06:00-20:00; Su 06:00-19:00", "phone": "+1-303-822-5325", "shop": "supermarket", "source": "esri/USA_NAD_Addresses", "website": "https://www.byersgrocery.com/"}}, {"type": "way", "id": 1168322966, "nodes": [10865506008, 10865506009, 10865506010, 10865506011, 10865506008], "tags": {"addr:city": "Byers", "addr:housenumber": "527", "addr:postcode": "80103", "addr:state": "CO", "addr:street": "North Main Street", "amenity": "fuel", "brand": "Sinclair", "brand:wikidata": "Q1290900", "building": "roof", "name": "Sinclair", "self_service": "yes"}}, {"type": "way", "id": 1361265490, "nodes": [12601942369, 12601942370, 5222715732, 5222715737, 12601942367, 12601942371, 12601942372, 12601942373, 12601942374, 12601942375, 12601942376, 12601942369], "tags": {"amenity": "parking"}}, {"type": "way", "id": 1361265526, "nodes": [12601942622, 12601942623, 12601942624, 12601942625, 12601942622], "tags": {"addr:city": "Byers", "addr:housenumber": "990", "addr:postcode": "80103", "addr:state": "CO", "addr:street": "North Main Street", "amenity": "waste_transfer_station", "industrial": "waste_transfer", "landuse": "industrial", "name": "Swim's Disposal Service"}}, {"type": "way", "id": 1361265527, "nodes": [12601942625, 12601942624, 12601942626, 12601942627, 12601942625], "tags": {"addr:city": "Byers", "addr:housenumber": "1070", "addr:postcode": "80103", "addr:state": "CO", "addr:street": "North US Highway 36", "industrial": "telecommunication", "landuse": "industrial", "name": "Bijou Telephone Co-Op", "office": "telecommunication", "opening_hours": "Mo-Fr 07:30-18:00", "phone": "+1-303-822-5400", "website": "https://www.netecin.net/"}}]}