{"version": 0.6, "generator": "Overpass API 0.7.62.8 e802775f", "osm3s": {"timestamp_osm_base": "2025-12-07T02:47:35Z", "copyright": "The data included in this document is from www.openstreetmap.org. The data is made available under ODbL."}, "elements": [{"type": "node", "id": 659694942, "lat": 47.0763657, "lon": -122.4245747}, {"type": "node", "id": 659694943, "lat": 47.0765752, "lon": -122.4246036}, {"type": "node", "id": 659694945, "lat": 47.076452, "lon": -122.4244362}, {"type": "node", "id": 659694946, "lat": 47.0764891, "lon": -122.4247423}, {"type": "node", "id": 4218645845, "lat": 47.0734837, "lon": -122.4223613}, {"type": "node", "id": 4218645846, "lat": 47.0734859, "lon": -122.4225966}, {"type": "node", "id": 4218645847, "lat": 47.0736259, "lon": -122.4223584}, {"type": "node", "id": 4218645848, "lat": 47.0736282, "lon": -122.4225937}, {"type": "node", "id": 4419776344, "lat": 47.0728736, "lon": -122.4210286, "tags": {"brand": "GameStop", "brand:wikidata": "Q202210", "name": "GameStop", "shop": "video_games", "website": "https://www.gamestop.com/store/us/wa/spanaway/6298/spanaway-center-gamestop"}}, {"type": "node", "id": 4419776345, "lat": 47.0685419, "lon": -122.4139458, "tags": {"amenity": "restaurant", "brand": "Round Table Pizza", "brand:wikidata": "Q7371139", "cuisine": "pizza", "name": "Round Table Pizza"}}, {"type": "node", "id": 4816796500, "lat": 47.0733778, "lon": -122.4206894}, {"type": "node", "id": 4816796501, "lat": 47.0734843, "lon": -122.4208299}, {"type": "node", "id": 4816796502, "lat": 47.0736304, "lon": -122.4205913}, {"type": "node", "id": 4816796503, "lat": 47.0736584, "lon": -122.4206282}, {"type": "node", "id": 4816796504, "lat": 47.0737222, "lon": -122.420524}, {"type": "node", "id": 4816796505, "lat": 47.0738383, "lon": -122.4206773}, {"type": "node", "id": 4816796506, "lat": 47.0739846, "lon": -122.4204384}, {"type": "node", "id": 4816796507, "lat": 47.0740772, "lon": -122.4205606}, {"type": "node", "id": 4816796508, "lat": 47.0743126, "lon": -122.420176}, {"type": "node", "id": 4816796509, "lat": 47.0742305, "lon": -122.4200676}, {"type": "node", "id": 4816796510, "lat": 47.074623, "lon": -122.4194266}, {"type": "node", "id": 4816796511, "lat": 47.0747348, "lon": -122.4195741}, {"type": "node", "id": 4816796512, "lat": 47.0748793, "lon": -122.4193381}, {"type": "node", "id": 4816796513, "lat": 47.074722, "lon": -122.4191305}, {"type": "node", "id": 4816796514, "lat": 47.0748211, "lon": -122.4189686}, {"type": "node", "id": 4816796515, "lat": 47.0741201, "lon": -122.4180432}, {"type": "node", "id": 4816796516, "lat": 47.0732436, "lon": -122.4193339}, {"type": "node", "id": 4816796517, "lat": 47.0733829, "lon": -122.4195178}, {"type": "node", "id": 4816796518, "lat": 47.0731941, "lon": -122.4198261}, {"type": "node", "id": 4816796519, "lat": 47.0732415, "lon": -122.4198887}, {"type": "node", "id": 4816796520, "lat": 47.073103, "lon": -122.420115}, {"type": "node", "id": 4816796721, "lat": 47.0732415, "lon": -122.4202979}, {"type": "node", "id": 4816796722, "lat": 47.0733822, "lon": -122.4200681}, {"type": "node", "id": 4818516893, "lat": 47.0741926, "lon": -122.4177151}, {"type": "node", "id": 4818516894, "lat": 47.0732791, "lon": -122.416431}, {"type": "node", "id": 4818516895, "lat": 47.0731941, "lon": -122.4166129}, {"type": "node", "id": 4818516896, "lat": 47.0731304, "lon": -122.4165714}, {"type": "node", "id": 4818516897, "lat": 47.0722912, "lon": -122.4179595}, {"type": "node", "id": 4818516898, "lat": 47.0722452, "lon": -122.4183754}, {"type": "node", "id": 4818516899, "lat": 47.0729675, "lon": -122.41941}, {"type": "node", "id": 4818516900, "lat": 47.0730667, "lon": -122.4195244}, {"type": "node", "id": 4818516901, "lat": 47.072493, "lon": -122.4173512}, {"type": "node", "id": 4818516902, "lat": 47.0731587, "lon": -122.4162646}, {"type": "node", "id": 4818516903, "lat": 47.072578, "lon": -122.4155056}, {"type": "node", "id": 4818516904, "lat": 47.0725426, "lon": -122.4154744}, {"type": "node", "id": 4818516905, "lat": 47.0725143, "lon": -122.4154744}, {"type": "node", "id": 4818516906, "lat": 47.072493, "lon": -122.4155056}, {"type": "node", "id": 4818516907, "lat": 47.0724612, "lon": -122.415542}, {"type": "node", "id": 4818516908, "lat": 47.071884, "lon": -122.4164622}, {"type": "node", "id": 4818516909, "lat": 47.0719088, "lon": -122.4165973}, {"type": "node", "id": 4818516910, "lat": 47.0718805, "lon": -122.4166649}, {"type": "node", "id": 4818516911, "lat": 47.0723974, "lon": -122.4173824}, {"type": "node", "id": 4818516912, "lat": 47.0724364, "lon": -122.417294}, {"type": "node", "id": 4818516913, "lat": 47.0723418, "lon": -122.4192131}, {"type": "node", "id": 4818516914, "lat": 47.0724463, "lon": -122.4190522}, {"type": "node", "id": 4818516915, "lat": 47.0722882, "lon": -122.4188307}, {"type": "node", "id": 4818516916, "lat": 47.072248, "lon": -122.4188925}, {"type": "node", "id": 4818516917, "lat": 47.0722188, "lon": -122.4188516}, {"type": "node", "id": 4818516918, "lat": 47.0721691, "lon": -122.418928}, {"type": "node", "id": 4818516919, "lat": 47.0722153, "lon": -122.4189927}, {"type": "node", "id": 4818516920, "lat": 47.0722006, "lon": -122.4190154}, {"type": "node", "id": 5315598875, "lat": 47.0740276, "lon": -122.4204952, "tags": {"access": "private", "amenity": "loading_dock", "entrance": "service"}}, {"type": "node", "id": 5860039477, "lat": 47.0734928, "lon": -122.4228316}, {"type": "node", "id": 5864895871, "lat": 47.0633986, "lon": -122.4081284, "tags": {"shop": "storage_rental"}}, {"type": "node", "id": 5864895883, "lat": 47.0696518, "lon": -122.4165555}, {"type": "node", "id": 5864896574, "lat": 47.071204, "lon": -122.4174451}, {"type": "node", "id": 6335917817, "lat": 47.0721717, "lon": -122.4206105, "tags": {"shop": "car"}}, {"type": "node", "id": 6335917818, "lat": 47.0733564, "lon": -122.421708, "tags": {"amenity": "atm", "brand": "Chase", "brand:wikidata": "Q524629", "cash_in": "yes", "name": "Chase", "operator": "Chase", "operator:wikidata": "Q524629", "operator:wikipedia": "en:Chase Bank"}}, {"type": "node", "id": 6335917828, "lat": 47.0728299, "lon": -122.421177, "tags": {"beauty": "tanning", "name": "Desert Sun Tanning", "shop": "beauty"}}, {"type": "node", "id": 6335917829, "lat": 47.0727851, "lon": -122.421313, "tags": {"brand": "H&R Block", "brand:wikidata": "Q5627799", "name": "H&R Block", "office": "tax_advisor"}}, {"type": "node", "id": 6335917830, "lat": 47.0727434, "lon": -122.421437, "tags": {"alt_name": "Verizon Wireless", "brand": "Verizon", "brand:wikidata": "Q919641", "name": "Verizon", "operator": "Victra", "operator:website": "https://victra.com/stores/wa-spanaway/", "operator:wikidata": "Q118402656", "shop": "mobile_phone"}}, {"type": "node", "id": 6335917831, "lat": 47.074647, "lon": -122.4275283, "tags": {"shop": "storage_rental"}}, {"type": "node", "id": 6418861379, "lat": 47.0740155, "lon": -122.418214}, {"type": "node", "id": 6418861380, "lat": 47.0739724, "lon": -122.4181571}, {"type": "node", "id": 6418861381, "lat": 47.0738431, "lon": -122.4183682, "tags": {"entrance": "main"}}, {"type": "node", "id": 6418861382, "lat": 47.0737034, "lon": -122.4185963}, {"type": "node", "id": 6418861383, "lat": 47.0737413, "lon": -122.4186463}, {"type": "node", "id": 6418861384, "lat": 47.0735195, "lon": -122.4190086}, {"type": "node", "id": 6418861985, "lat": 47.0734771, "lon": -122.4189526}, {"type": "node", "id": 6418861986, "lat": 47.0733657, "lon": -122.4191346, "tags": {"entrance": "main"}}, {"type": "node", "id": 6418861987, "lat": 47.0746686, "lon": -122.4194868, "tags": {"access": "private", "amenity": "loading_dock", "entrance": "service"}}, {"type": "node", "id": 7165554272, "lat": 47.0709311, "lon": -122.4170711}, {"type": "node", "id": 7165554273, "lat": 47.0708597, "lon": -122.4171844}, {"type": "node", "id": 7165554274, "lat": 47.0707204, "lon": -122.4169954}, {"type": "node", "id": 7165554275, "lat": 47.0707917, "lon": -122.416882}, {"type": "node", "id": 7165554276, "lat": 47.0713508, "lon": -122.4175503}, {"type": "node", "id": 7165554277, "lat": 47.0715572, "lon": -122.4178075}, {"type": "node", "id": 7165554278, "lat": 47.0714534, "lon": -122.4179872}, {"type": "node", "id": 7165554279, "lat": 47.0712525, "lon": -122.4177204}, {"type": "node", "id": 7361655036, "lat": 47.0711329, "lon": -122.4175539}, {"type": "node", "id": 7361655037, "lat": 47.0710642, "lon": -122.4174571}, {"type": "node", "id": 7361655038, "lat": 47.0710746, "lon": -122.4174412}, {"type": "node", "id": 7361655039, "lat": 47.0709878, "lon": -122.417319}, {"type": "node", "id": 7361655040, "lat": 47.0710299, "lon": -122.4172546}, {"type": "node", "id": 7361655041, "lat": 47.0710456, "lon": -122.4172768}, {"type": "node", "id": 7361655042, "lat": 47.071057, "lon": -122.4172594}, {"type": "node", "id": 7361655043, "lat": 47.0711269, "lon": -122.4173579}, {"type": "node", "id": 7361655044, "lat": 47.0711342, "lon": -122.4173468}, {"type": "node", "id": 7361655054, "lat": 47.0712628, "lon": -122.4177332}, {"type": "node", "id": 7361655055, "lat": 47.0712477, "lon": -122.4177593}, {"type": "node", "id": 7361655056, "lat": 47.0712972, "lon": -122.4178208}, {"type": "node", "id": 7361655057, "lat": 47.0713039, "lon": -122.4178092}, {"type": "node", "id": 7361655058, "lat": 47.0713703, "lon": -122.417892}, {"type": "node", "id": 7361655059, "lat": 47.0713621, "lon": -122.4179062}, {"type": "node", "id": 7361655060, "lat": 47.0714068, "lon": -122.4179619}, {"type": "node", "id": 7361655061, "lat": 47.0714178, "lon": -122.4179428}, {"type": "node", "id": 7361655062, "lat": 47.0735901, "lon": -122.4203426}, {"type": "node", "id": 7361655063, "lat": 47.0734413, "lon": -122.4195782, "tags": {"addr:city": "Spanaway", "addr:country": "US", "addr:housenumber": "20307", "addr:postcode": "98387", "addr:state": "WA", "addr:street": "Mountain Highway East", "amenity": "pharmacy", "brand": "Walmart", "brand:wikidata": "Q483551", "dispensing": "yes", "healthcare": "pharmacy", "name": "Walmart Pharmacy", "opening_hours": "24/7", "operator": "Walmart", "operator:wikidata": "Q483551", "operator:wikipedia": "en:Walmart", "phone": "+1-253-846-6008", "ref:walmart": "3218", "website": "https://www.walmart.com/store/3218-spanaway-wa/pharmacy", "wheelchair": "yes"}}, {"type": "node", "id": 7361655064, "lat": 47.0738222, "lon": -122.4185349, "tags": {"addr:city": "Spanaway", "addr:housenumber": "20307", "addr:postcode": "98387", "addr:state": "WA", "addr:street": "Mountain Highway East", "air_conditioning": "yes", "amenity": "fast_food", "brand": "Subway", "brand:wikidata": "Q244457", "changing_table": "no", "cuisine": "sandwich", "indoor_seating": "yes", "name": "Subway", "opening_hours": "08:30-21:30", "outdoor_seating": "no", "phone": "+1-253-847-4595", "takeaway": "yes", "website": "https://restaurants.subway.com/united-states/wa/spanaway/20307-mountain-hwy-east", "wheelchair": "yes"}}, {"type": "node", "id": 7361655065, "lat": 47.0734305, "lon": -122.4193944, "tags": {"brand": "FedEx Office", "brand:wikidata": "Q474379", "name": "FedEx Office", "shop": "copyshop"}}, {"type": "node", "id": 7361655066, "lat": 47.0763752, "lon": -122.42462, "tags": {"amenity": "vending_machine", "brand": "Redbox", "brand:wikidata": "Q7305489", "name": "Redbox", "vending": "movies"}}, {"type": "node", "id": 9385102152, "lat": 47.0738909, "lon": -122.4184335, "tags": {"amenity": "payment_terminal", "brand": "Coinstar", "brand:wikidata": "Q5141641", "name": "Coinstar", "website": "https://coinstar.com/kiosk-info?KioskId=25214"}}, {"type": "node", "id": 12010784485, "lat": 47.0704958, "lon": -122.4167848}, {"type": "node", "id": 12010784486, "lat": 47.0706533, "lon": -122.4165238}, {"type": "node", "id": 12010784487, "lat": 47.070712, "lon": -122.4166002}, {"type": "node", "id": 12010784488, "lat": 47.070551, "lon": -122.416859}, {"type": "node", "id": 12011057941, "lat": 47.0716175, "lon": -122.4197681}, {"type": "node", "id": 12011057942, "lat": 47.0716122, "lon": -122.4197611}, {"type": "node", "id": 12011057943, "lat": 47.0716295, "lon": -122.41973}, {"type": "node", "id": 12011057944, "lat": 47.0715984, "lon": -122.4196912}, {"type": "node", "id": 12011057945, "lat": 47.0715815, "lon": -122.4197189}, {"type": "node", "id": 12011057946, "lat": 47.0715104, "lon": -122.4196252}, {"type": "node", "id": 12011057947, "lat": 47.0715621, "lon": -122.4195417}, {"type": "node", "id": 12011057948, "lat": 47.071492, "lon": -122.419448}, {"type": "node", "id": 12011057949, "lat": 47.0713809, "lon": -122.4196275}, {"type": "node", "id": 12011057950, "lat": 47.0713911, "lon": -122.4196439}, {"type": "node", "id": 12011057951, "lat": 47.0713493, "lon": -122.4197096}, {"type": "node", "id": 12011057952, "lat": 47.0715155, "lon": -122.4199326}, {"type": "node", "id": 12011702685, "lat": 47.0725018, "lon": -122.4194066}, {"type": "node", "id": 12011702686, "lat": 47.072616, "lon": -122.4192228}, {"type": "node", "id": 12011702687, "lat": 47.0727031, "lon": -122.4193395}, {"type": "node", "id": 12011702688, "lat": 47.0725889, "lon": -122.4195233}, {"type": "node", "id": 12249018168, "lat": 47.0735819, "lon": -122.4189574, "tags": {"addr:city": "Spanaway", "addr:housenumber": "20307", "addr:postcode": "98387", "addr:state": "WA", "addr:street": "Mountain Highway East", "brand": "Walmart Vision Center", "brand:wikidata": "Q483551", "fax": "+1-253-846-7986", "name": "Walmart Vision Center", "opening_hours": "Mo-Sa 09:00-19:00; Su 12:30-17:00", "operator": "Walmart", "payment:app": "yes", "payment:cash": "yes", "payment:credit_cards": "yes", "payment:debit_cards": "yes", "payment:mastercard": "yes", "payment:visa": "yes", "phone": "+1-253-846-6503", "shop": "optician", "wheelchair": "yes"}}, {"type": "node", "id": 12516188656, "lat": 47.0747384, "lon": -122.4235802}, {"type": "node", "id": 12516188657, "lat": 47.0745302, "lon": -122.4239153}, {"type": "node", "id": 12516188664, "lat": 47.0746288, "lon": -122.4235801}, {"type": "node", "id": 12516188665, "lat": 47.0746705, "lon": -122.4235152}, {"type": "node", "id": 12516188666, "lat": 47.0747785, "lon": -122.4236619}, {"type": "node", "id": 12516188667, "lat": 47.0747315, "lon": -122.4237352}, {"type": "node", "id": 12516188668, "lat": 47.0746303, "lon": -122.423887}, {"type": "node", "id": 12516188669, "lat": 47.0745833, "lon": -122.4239601}, {"type": "node", "id": 12516188670, "lat": 47.0745752, "lon": -122.4239489}, {"type": "node", "id": 12516188671, "lat": 47.0746222, "lon": -122.4238758}, {"type": "node", "id": 12516188672, "lat": 47.0747685, "lon": -122.423648}, {"type": "node", "id": 12516188673, "lat": 47.0747215, "lon": -122.4237213}, {"type": "node", "id": 12516188674, "lat": 47.0746636, "lon": -122.4236283}, {"type": "node", "id": 12516188675, "lat": 47.0747053, "lon": -122.4235634}, {"type": "node", "id": 12516188676, "lat": 47.0745033, "lon": -122.423878}, {"type": "node", "id": 12516188677, "lat": 47.0747152, "lon": -122.4235481}, {"type": "node", "id": 12516188678, "lat": 47.0747774, "lon": -122.4236342}, {"type": "node", "id": 12516188679, "lat": 47.0745655, "lon": -122.4239641}, {"type": "node", "id": 12516362312, "lat": 47.0689526, "lon": -122.422033, "tags": {"shop": "storage_rental"}}, {"type": "node", "id": 12516362336, "lat": 47.0735525, "lon": -122.4227369}, {"type": "node", "id": 12516362337, "lat": 47.0735887, "lon": -122.4227323}, {"type": "node", "id": 12516362808, "lat": 47.073581, "lon": -122.4230307}, {"type": "node", "id": 12516362809, "lat": 47.0736858, "lon": -122.4228644}, {"type": "node", "id": 12516362810, "lat": 47.0734794, "lon": -122.4228135}, {"type": "node", "id": 12516362811, "lat": 47.0734525, "lon": -122.4228561}, {"type": "node", "id": 12892487254, "lat": 47.0759004, "lon": -122.4267602, "tags": {"shop": "storage_rental"}}, {"type": "node", "id": 13150319754, "lat": 47.0688384, "lon": -122.4163762}, {"type": "node", "id": 13150319755, "lat": 47.0686612, "lon": -122.4164459}, {"type": "node", "id": 13150319756, "lat": 47.0685096, "lon": -122.4166739}, {"type": "node", "id": 13150319757, "lat": 47.0687042, "lon": -122.4169394}, {"type": "node", "id": 13150319758, "lat": 47.0690421, "lon": -122.4164164}, {"type": "node", "id": 13150319759, "lat": 47.0689188, "lon": -122.4162515}, {"type": "node", "id": 13150319787, "lat": 47.0683187, "lon": -122.4166229}, {"type": "node", "id": 13150319788, "lat": 47.0687744, "lon": -122.4178087}, {"type": "node", "id": 13150319789, "lat": 47.0689678, "lon": -122.4156029}, {"type": "way", "id": 51676153, "nodes": [659694943, 659694945, 659694942, 659694946, 659694943], "tags": {"addr:city": "Spanaway", "addr:country": "US", "addr:housenumber": "19825", "addr:postcode": "98387-8412", "addr:state": "WA", "addr:street": "Mountain Highway E", "addr:unit": "E", "atm": "yes", "brand": "7-Eleven", "brand:wikidata": "Q259340", "building": "yes", "contact:website": "https://www.7-eleven.com/locations/wa/spanaway/19825-mountain-hwy-e-20872", "delivery": "yes", "fuel:propane": "yes", "name": "7-Eleven", "opening_hours": "24/7", "phone": "+1-253-847-1208", "ref": "20872", "shop": "convenience", "website": "https://www.7-eleven.com/locations/wa/spanaway/19825-mountain-hwy-20872"}}, {"type": "way", "id": 422139957, "nodes": [4218645848, 4218645847, 4218645845, 4218645846, 4218645848], "tags": {"amenity": "fuel", "brand": "Arco", "brand:wikidata": "Q304769", "building": "roof", "name": "Arco"}}, {"type": "way", "id": 489446190, "nodes": [7361655062, 4816796500, 4816796501, 4816796502, 4816796503, 4816796504, 4816796505, 4816796506, 5315598875, 4816796507, 4816796508, 4816796509, 4816796510, 6418861987, 4816796511, 4816796512, 4816796513, 4816796514, 4816796515, 6418861379, 6418861380, 6418861381, 6418861382, 6418861383, 6418861384, 6418861985, 6418861986, 4816796516, 4816796517, 4816796518, 4816796519, 4816796520, 4816796721, 4816796722, 7361655062], "tags": {"addr:city": "Spanaway", "addr:country": "US", "addr:housenumber": "20307", "addr:postcode": "98387", "addr:state": "WA", "addr:street": "Mountain Highway East", "branch": "#3218", "brand": "Walmart", "brand:wikidata": "Q483551", "building": "retail", "name": "Walmart Supercenter", "opening_hours": "Mo-Su 06:00-23:00", "operator": "Walmart", "operator:wikidata": "Q483551", "payment:app:walmart": "yes", "payment:apple_pay": "no", "payment:google_pay": "no", "payment:samsung_pay": "no", "phone": "+1-253-846-6008", "ref": "3218", "ref:walmart": "3218", "sensory_friendly:accommodation": "dimmed_light;static_screens;no_pa", "sensory_friendly:conditional": "yes @ 08:00-10:00", "shop": "supermarket", "website": "https://www.walmart.com/store/3218-spanaway-wa", "wheelchair": "yes"}}, {"type": "way", "id": 489626230, "nodes": [4818516893, 4818516894, 4818516895, 4818516896, 4818516897, 4818516898, 4818516899, 4818516900, 4818516893], "tags": {"access": "yes", "amenity": "parking", "fee": "no", "parking": "surface"}}, {"type": "way", "id": 489626231, "nodes": [4818516901, 4818516902, 4818516903, 4818516904, 4818516905, 4818516906, 4818516907, 4818516908, 4818516909, 4818516910, 4818516911, 4818516912, 4818516901], "tags": {"access": "yes", "amenity": "parking", "fee": "no", "parking": "surface"}}, {"type": "way", "id": 489626232, "nodes": [4818516913, 4818516914, 4818516915, 4818516916, 4818516917, 4818516918, 4818516919, 4818516920, 4818516913], "tags": {"addr:city": "Spanaway", "addr:housenumber": "20315", "addr:postcode": "98387", "addr:state": "WA", "addr:street": "Mountain Highway", "addr:unit": "E", "air_conditioning": "yes", "amenity": "fast_food", "brand": "McDonald's", "brand:wikidata": "Q38076", "building": "yes", "cuisine": "burger", "drive_through": "yes", "internet_access": "wlan", "name": "McDonald's", "opening_hours": "05:00-23:00", "phone": "+1-253-847-3392", "takeaway": "yes", "website": "https://www.mcdonalds.com/us/en-us/location/18478.html", "wheelchair": "yes"}}, {"type": "way", "id": 767446417, "nodes": [7165554272, 7165554273, 7165554274, 7165554275, 7165554272], "tags": {"addr:city": "Spanaway", "addr:housenumber": "20517", "addr:postcode": "98387", "addr:state": "WA", "addr:street": "Mountain Highway East", "amenity": "fast_food", "brand": "Arby's", "brand:wikidata": "Q630866", "building": "yes", "check_date": "2024-06-21", "cuisine": "sandwich", "drive_through": "yes", "name": "Arby's", "opening_hours": "10:00-24:00", "phone": "+1-253-271-7090", "takeaway": "yes", "website": "https://www.arbys.com/locations/us/wa/spanaway/20517-mountain-hwy-east/store-8656/"}}, {"type": "way", "id": 767446418, "nodes": [7165554276, 7165554277, 7165554278, 7361655061, 7361655060, 7361655059, 7361655058, 7361655057, 7361655056, 7361655055, 7361655054, 7165554279, 7165554276], "tags": {"addr:city": "Spanaway", "addr:housenumber": "20401", "addr:postcode": "98387", "addr:state": "WA", "addr:street": "Mountain Highway", "addr:unit": "E", "amenity": "cafe", "branch": "204th & Highway 7 - Spanaway", "brand": "Starbucks", "brand:wikidata": "Q37158", "building": "yes", "cuisine": "coffee_shop", "internet_access": "yes", "internet_access:fee": "no", "name": "Starbucks", "official_name": "Starbucks Coffee", "outdoor_seating": "yes", "phone": "+1-253-847-7021", "ref": "1008751", "takeaway": "yes", "website": "https://www.starbucks.com/store-locator/store/1008751/204th-hwy-7-spanaway-20401-mountain-hwy-e-spanaway-wa-983878176-us"}}, {"type": "way", "id": 787352372, "nodes": [5864896574, 7361655036, 7361655037, 7361655038, 7361655039, 7361655040, 7361655041, 7361655042, 7361655043, 7361655044, 5864896574], "tags": {"addr:city": "Spanaway", "addr:housenumber": "20505", "addr:postcode": "98387", "addr:state": "WA", "addr:street": "Mountain Highway", "addr:unit": "E", "amenity": "fast_food", "brand": "Jack in the Box", "brand:wikidata": "Q1538507", "building": "yes", "cuisine": "burger", "drive_through": "yes", "name": "Jack in the Box", "phone": "+1-253-847-2891", "takeaway": "yes", "website": "https://locations.jackinthebox.com/us/wa/spanaway/20505-mountain-hwy-e"}}, {"type": "way", "id": 1296183956, "nodes": [12010784485, 12010784486, 12010784487, 12010784488, 12010784485], "tags": {"addr:city": "Spanaway", "addr:housenumber": "20527", "addr:postcode": "98387", "addr:state": "WA", "addr:street": "Mountain Highway East", "amenity": "fast_food", "brand": "Taco Bell", "brand:wikidata": "Q752941", "building": "yes", "cuisine": "tex-mex", "drive_through": "yes", "name": "Taco Bell", "phone": "+1-206-635-4499", "takeaway": "yes", "website": "https://locations.tacobell.com/wa/spanaway/20527-mountain-highway-e.html?utm_source=yext&utm_campaign=googlelistings&utm_medium=referral&utm_term=037113&utm_content=website&y_source=1_Mjc5NzkyNDctNzE1LWxvY2F0aW9uLndlYnNpdGU%3D"}}, {"type": "way", "id": 1296204740, "nodes": [12011057941, 12011057942, 12011057943, 12011057944, 12011057945, 12011057946, 12011057947, 12011057948, 12011057949, 12011057950, 12011057951, 12011057952, 12011057941], "tags": {"addr:city": "Spanaway", "addr:housenumber": "20420", "addr:postcode": "98387", "addr:state": "WA", "addr:street": "Mountain Highway East", "air_conditioning": "yes", "amenity": "restaurant", "brand": "Denny's", "brand:wikidata": "Q1189695", "building": "yes", "cuisine": "american", "name": "Denny's", "opening_hours": "24/7", "phone": "+1-253-271-6370", "website": "https://locations.dennys.com/WA/SPANAWAY/248803?utm_source=yext&utm_medium=local-listing&utm_campaign=yext-listing&y_source=1_MjIyODI0My03MTUtbG9jYXRpb24ud2Vic2l0ZQ%3D%3D", "wheelchair": "yes"}}, {"type": "way", "id": 1296268878, "nodes": [12011702685, 12011702686, 12011702687, 12011702688, 12011702685], "tags": {"addr:city": "Spanaway", "addr:housenumber": "20315", "addr:postcode": "98387", "addr:state": "WA", "addr:street": "Mountain Highway East", "amenity": "fuel", "brand": "Shell", "brand:wikidata": "Q110716465", "building": "roof", "compressed_air": "yes", "layer": "1", "name": "Shell", "opening_hours": "24/7", "wheelchair": "yes"}}, {"type": "way", "id": 1352714407, "nodes": [12516188679, 12516188670, 12516188669, 12516188668, 12516188671, 12516188673, 12516188667, 12516188666, 12516188672, 12516188678, 12516188656, 12516188677, 12516188675, 12516188665, 12516188664, 12516188674, 12516188676, 12516188657, 12516188679], "tags": {"amenity": "car_wash", "building": "yes"}}, {"type": "way", "id": 1352714501, "nodes": [12516362811, 12516362810, 5860039477, 12516362336, 12516362337, 12516362809, 12516362808, 12516362811], "tags": {"building": "yes", "shop": "convenience", "source": "microsoft/BuildingFootprints"}}, {"type": "way", "id": 1430650714, "nodes": [13150319759, 13150319758, 13150319757, 13150319756, 13150319755, 13150319754, 13150319759], "tags": {"amenity": "parking", "capacity": "40", "park_ride": "yes", "parking": "surface", "surface": "asphalt"}}, {"type": "way", "id": 1430650721, "nodes": [13150319788, 5864895883, 13150319789, 13150319787, 13150319788], "tags": {"addr:housenumber": "20712", "addr:street": "Mountain Highway East", "amenity": "bus_station", "name": "Spanaway Transit Center", "public_transport": "station"}}]}