{"version": 0.6, "generator": "Overpass API 0.7.62.8 e802775f", "osm3s": {"timestamp_osm_base": "2025-12-06T20:18:45Z", "copyright": "The data included in this document is from www.openstreetmap.org. The data is made available under ODbL."}, "elements": [{"type": "node", "id": 441510194, "lat": 47.5786654, "lon": -122.4116777, "tags": {"addr:city": "Seattle", "addr:housenumber": "2768", "addr:postcode": "98116", "addr:state": "WA", "addr:street": "Alki Avenue Southwest", "amenity": "restaurant", "check_date": "2024-06-01", "cuisine": "thai", "name": "Lotus on the Beach"}}, {"type": "node", "id": 441510758, "lat": 47.5788221, "lon": -122.4112033, "tags": {"addr:city": "Seattle", "addr:housenumber": "2742", "addr:postcode": "98116", "addr:state": "WA", "addr:street": "Alki Avenue Southwest", "addr:unit": "100", "amenity": "cafe", "cuisine": "coffee_shop", "name": "Alki Coffee Co.", "website": "https://alkicoffeeco.com"}}, {"type": "node", "id": 638867939, "lat": 47.5790955, "lon": -122.4074626}, {"type": "node", "id": 638867940, "lat": 47.5790938, "lon": -122.4072536}, {"type": "node", "id": 638867941, "lat": 47.5790399, "lon": -122.4074636}, {"type": "node", "id": 638867942, "lat": 47.5790382, "lon": -122.4072546}, {"type": "node", "id": 639359556, "lat": 47.5744255, "lon": -122.4154447}, {"type": "node", "id": 639359560, "lat": 47.5744285, "lon": -122.4156469}, {"type": "node", "id": 639359573, "lat": 47.5757987, "lon": -122.4154654}, {"type": "node", "id": 639359577, "lat": 47.5757978, "lon": -122.4153999}, {"type": "node", "id": 639359579, "lat": 47.5758008, "lon": -122.4156021}, {"type": "node", "id": 927614317, "lat": 47.578463, "lon": -122.4109592}, {"type": "node", "id": 927614329, "lat": 47.5775704, "lon": -122.4070101, "tags": {"addr:city": "Seattle", "addr:housenumber": "5817", "addr:postcode": "98116", "addr:state": "WA", "addr:street": "Southwest Stevens Street", "amenity": "community_centre", "name": "Alki Community Center", "source": "King County GIS;data.seattle.gov"}}, {"type": "node", "id": 1187730810, "lat": 47.5782717, "lon": -122.4130535, "tags": {"addr:housenumber": "2820", "addr:state": "WA", "addr:street": "Alki Avenue Southwest", "amenity": "restaurant", "check_date": "2024-06-01", "cuisine": "mexican", "name": "Cactus - Alki Beach", "opening_hours": "Mo-Th 11:00-22:00; Fr 11:00-23:00; Sa 10:00-23:00; Su 10:00-22:00", "phone": "+1-206-933-6000", "website": "https://cactusrestaurants.com/location/alki-beach/", "wheelchair": "yes"}}, {"type": "node", "id": 1769027260, "lat": 47.5783716, "lon": -122.4130538, "tags": {"amenity": "bicycle_parking", "bicycle_parking": "stands", "capacity": "2", "covered": "no", "fee": "no", "mapillary": "1942378992817946", "note": "ALKI AVE SW 0280 BLOCK S SIDE ( 288) 40 FT E/O 63RD AVE SW", "operator": "SDOT", "sdot:bike_rack:id": "BKR-111", "start_date": "2004-09-17", "survey:date": "2022-07-10"}}, {"type": "node", "id": 1769027261, "lat": 47.5783933, "lon": -122.4129796, "tags": {"amenity": "bicycle_parking", "bicycle_parking": "stands", "capacity": "2", "covered": "no", "fee": "no", "mapillary": "1942378992817946", "note": "ALKI AVE SW 0280 BLOCK S SIDE ( 268) 60 FT E/O 63RD AVE SW", "operator": "SDOT", "sdot:bike_rack:id": "BKR-180", "start_date": "2004-09-17", "survey:date": "2022-07-10"}}, {"type": "node", "id": 1769027264, "lat": 47.5786877, "lon": -122.4118972, "tags": {"amenity": "bicycle_parking", "bicycle_parking": "stands", "capacity": "2", "fee": "no", "mapillary": "1098419783988196", "note": "62ND AVE SW 0270 BLOCK E SIDE ( 6) 6 FT S/O ALKI AVE SW", "operator": "SDOT", "sdot:bike_rack:id": "BKR-1739", "start_date": "2007-12-05", "survey:date": "2020-03-22"}}, {"type": "node", "id": 1769027265, "lat": 47.5789263, "lon": -122.4107224, "tags": {"amenity": "bicycle_parking", "bicycle_parking": "stands", "capacity": "2", "check_date": "2023-07-23", "covered": "no", "fee": "no", "note": "61ST AVE SW 0270 BLOCK W SIDE ( 60) 60 FT S/O ALKI AVE SW", "operator": "SDOT", "sdot:bike_rack:id": "BKR-2591"}}, {"type": "node", "id": 1769027269, "lat": 47.5796151, "lon": -122.408911, "tags": {"amenity": "bicycle_parking", "bicycle_parking": "stands", "capacity": "2", "check_date": "2023-07-09", "covered": "no", "fee": "no", "note": "ALKI AVE SW 0265 BLOCK SE SIDE ( 263) 95 FT NE/O 60TH AVE SW", "operator": "SDOT", "sdot:bike_rack:id": "BKR-2590"}}, {"type": "node", "id": 1769027275, "lat": 47.5801433, "lon": -122.4080157, "tags": {"amenity": "bicycle_parking", "bicycle_parking": "stands", "capacity": "2", "fee": "no", "mapillary": "409757331187295", "note": "ALKI TRL 0400 BLOCK SE SIDE (8214) 1063 FT NE/O 62ND AVE SW", "operator": "SDOT", "sdot:bike_rack:id": "BKR-2589", "survey:date": "2022-07-10"}}, {"type": "node", "id": 1769027276, "lat": 47.5801567, "lon": -122.407985, "tags": {"amenity": "bicycle_parking", "bicycle_parking": "stands", "capacity": "2", "fee": "no", "mapillary": "581858746891153", "note": "ALKI TRL 0400 BLOCK SE SIDE (8205) 1072 FT NE/O 62ND AVE SW", "operator": "SDOT", "sdot:bike_rack:id": "BKR-2588", "survey:date": "2022-07-10"}}, {"type": "node", "id": 1769027277, "lat": 47.58017, "lon": -122.4079544, "tags": {"amenity": "bicycle_parking", "bicycle_parking": "stands", "capacity": "2", "fee": "no", "mapillary": "409757331187295", "note": "ALKI TRL 0400 BLOCK SE SIDE (8196) 1081 FT NE/O 62ND AVE SW", "operator": "SDOT", "sdot:bike_rack:id": "BKR-2587", "survey:date": "2022-07-10"}}, {"type": "node", "id": 1837939358, "lat": 47.5776868, "lon": -122.4075909}, {"type": "node", "id": 1837939379, "lat": 47.5777538, "lon": -122.4079319}, {"type": "node", "id": 1837939391, "lat": 47.5776827, "lon": -122.4072659}, {"type": "node", "id": 1837939612, "lat": 47.5775642, "lon": -122.4075943}, {"type": "node", "id": 1837939618, "lat": 47.5775685, "lon": -122.4079371}, {"type": "node", "id": 1837939678, "lat": 47.5777454, "lon": -122.4072641}, {"type": "node", "id": 1839398163, "lat": 47.5789344, "lon": -122.4118701}, {"type": "node", "id": 1839398206, "lat": 47.5795494, "lon": -122.4087986, "tags": {"addr:city": "Seattle", "addr:housenumber": "2666", "addr:postcode": "98116", "addr:state": "WA", "addr:street": "Alki Avenue Southwest", "amenity": "fast_food", "check_date": "2024-06-01", "cuisine": "fish_and_chips", "name": "Spud Fish and Chips", "note": "Takes cash only", "opening_hours": "Mo-Su 11:00-09:00", "source": "King County GIS;data.seattle.gov", "website": "https://spudfishandchips.com", "wheelchair": "yes"}}, {"type": "node", "id": 1839398216, "lat": 47.5796345, "lon": -122.409712, "tags": {"amenity": "toilets", "wheelchair": "yes"}}, {"type": "node", "id": 1839398240, "lat": 47.5789795, "lon": -122.4118989}, {"type": "node", "id": 1839398241, "lat": 47.5789642, "lon": -122.4117677}, {"type": "node", "id": 1839399855, "lat": 47.5793266, "lon": -122.4109685, "tags": {"amenity": "bench", "backrest": "yes"}}, {"type": "node", "id": 1839399861, "lat": 47.5795317, "lon": -122.4102235, "tags": {"amenity": "bench", "backrest": "yes"}}, {"type": "node", "id": 1839399868, "lat": 47.578452, "lon": -122.4139242, "tags": {"amenity": "bench", "backrest": "yes"}}, {"type": "node", "id": 1839399870, "lat": 47.5791239, "lon": -122.4116699, "tags": {"amenity": "bench", "backrest": "yes"}}, {"type": "node", "id": 1839399871, "lat": 47.5784355, "lon": -122.4139793, "tags": {"amenity": "bench", "backrest": "yes"}}, {"type": "node", "id": 1839399874, "lat": 47.5792063, "lon": -122.4113681, "tags": {"amenity": "bench", "backrest": "yes"}}, {"type": "node", "id": 1839399877, "lat": 47.579104, "lon": -122.4117262, "tags": {"amenity": "bench", "backrest": "yes"}}, {"type": "node", "id": 1839399879, "lat": 47.5790093, "lon": -122.4117965}, {"type": "node", "id": 1839399883, "lat": 47.5793148, "lon": -122.4110195, "tags": {"amenity": "bench", "backrest": "yes"}}, {"type": "node", "id": 1839399884, "lat": 47.5795175, "lon": -122.4102708, "tags": {"amenity": "bench", "backrest": "yes"}}, {"type": "node", "id": 1839399888, "lat": 47.5793501, "lon": -122.410833, "tags": {"amenity": "waste_basket", "check_date": "2023-07-23"}}, {"type": "node", "id": 1839399892, "lat": 47.5788824, "lon": -122.4124869, "tags": {"amenity": "bench", "backrest": "yes"}}, {"type": "node", "id": 1839399893, "lat": 47.5788966, "lon": -122.4124383, "tags": {"amenity": "bench", "backrest": "yes"}}, {"type": "node", "id": 1839402333, "lat": 47.5796568, "lon": -122.4089971}, {"type": "node", "id": 1839402334, "lat": 47.5783831, "lon": -122.4132629}, {"type": "node", "id": 1839402335, "lat": 47.579779, "lon": -122.4087721}, {"type": "node", "id": 1839402339, "lat": 47.5776792, "lon": -122.4158447}, {"type": "node", "id": 1839402341, "lat": 47.5777009, "lon": -122.4158555}, {"type": "node", "id": 1839402342, "lat": 47.5796894, "lon": -122.4089783}, {"type": "node", "id": 1839402345, "lat": 47.5788101, "lon": -122.4118902}, {"type": "node", "id": 1839402346, "lat": 47.5795202, "lon": -122.4093753}, {"type": "node", "id": 1839402349, "lat": 47.5787955, "lon": -122.4118469}, {"type": "node", "id": 1839402359, "lat": 47.5787549, "lon": -122.4119881}, {"type": "node", "id": 1839402365, "lat": 47.5789882, "lon": -122.4112769}, {"type": "node", "id": 1839402369, "lat": 47.5781406, "lon": -122.4142384}, {"type": "node", "id": 1839402371, "lat": 47.5789882, "lon": -122.4111871}, {"type": "node", "id": 1839402375, "lat": 47.5795048, "lon": -122.4095161}, {"type": "node", "id": 1839402379, "lat": 47.578592, "lon": -122.4126328}, {"type": "node", "id": 1839402383, "lat": 47.5795998, "lon": -122.4091875}, {"type": "node", "id": 1839402384, "lat": 47.5792281, "lon": -122.4104565}, {"type": "node", "id": 1839402388, "lat": 47.5797193, "lon": -122.4088499}, {"type": "node", "id": 1839402389, "lat": 47.5792026, "lon": -122.4104575}, {"type": "node", "id": 1839402392, "lat": 47.5783595, "lon": -122.4134294}, {"type": "node", "id": 1839402399, "lat": 47.5784201, "lon": -122.4132215}, {"type": "node", "id": 1839402404, "lat": 47.5786509, "lon": -122.4123408}, {"type": "node", "id": 1839402406, "lat": 47.5795782, "lon": -122.4091825}, {"type": "node", "id": 1886260350, "lat": 47.5674149, "lon": -122.4093461, "tags": {"amenity": "restaurant", "cuisine": "italian", "name": "La Rustica"}}, {"type": "node", "id": 1978697155, "lat": 47.5790584, "lon": -122.4103152, "tags": {"addr:city": "Seattle", "addr:housenumber": "2722", "addr:postcode": "98116", "addr:state": "WA", "addr:street": "Alki Avenue Southwest", "amenity": "pub", "check_date": "2023-12-29", "name": "Driftwood", "source": "King County GIS;data.seattle.gov", "website": "https://driftwoodseattle.com"}}, {"type": "node", "id": 1978697162, "lat": 47.5791383, "lon": -122.4100684, "tags": {"addr:city": "Seattle", "addr:housenumber": "2716", "addr:postcode": "98116", "addr:state": "WA", "addr:street": "Alki Avenue Southwest", "amenity": "restaurant", "check_date": "2024-06-01", "cuisine": "greek", "name": "Gyros on Alki", "source": "King County GIS;data.seattle.gov"}}, {"type": "node", "id": 1978697166, "lat": 47.5784839, "lon": -122.4122171, "tags": {"addr:city": "Seattle", "addr:housenumber": "2800", "addr:postcode": "98116", "addr:state": "WA", "addr:street": "Alki Avenue Southwest", "amenity": "fast_food", "check_date": "2024-06-01", "cuisine": "fish_and_chips", "name": "Sunfish", "source": "King County GIS;data.seattle.gov"}}, {"type": "node", "id": 1978697167, "lat": 47.5793974, "lon": -122.4091509, "tags": {"addr:city": "Seattle", "addr:housenumber": "2676", "addr:postcode": "98116", "addr:state": "WA", "addr:street": "Alki Avenue Southwest", "amenity": "restaurant", "check_date": "2023-12-29", "cuisine": "american", "name": "Harry\u2019s Beach House", "outdoor_seating": "yes", "reservation": "yes", "source": "King County GIS;data.seattle.gov", "wheelchair": "yes"}}, {"type": "node", "id": 2196326600, "lat": 47.5789825, "lon": -122.410829, "tags": {"amenity": "post_box", "collection_times": "Mo-Sa 11:30", "operator": "United States Postal Service", "operator:short": "USPS", "operator:type": "public", "operator:website": "https://www.usps.com", "operator:wikidata": "Q668687", "operator:wikipedia": "en:United States Postal Service", "ref": "9811600599", "short_name": "USPS", "wheelchair": "yes"}}, {"type": "node", "id": 2334748474, "lat": 47.578361, "lon": -122.4127632, "tags": {"addr:city": "Seattle", "addr:housenumber": "2820", "addr:state": "WA", "addr:street": "Alki Avenue Southwest", "addr:unit": "3", "amenity": "restaurant", "name": "Seaside Grill"}}, {"type": "node", "id": 2334748475, "lat": 47.5787855, "lon": -122.4108204, "tags": {"addr:city": "Seattle", "addr:housenumber": "2738", "addr:state": "WA", "addr:street": "Alki Avenue Southwest", "check_date": "2024-06-01", "name": "Alki Hair Design", "shop": "hairdresser", "wheelchair": "no"}}, {"type": "node", "id": 2416359200, "lat": 47.5799786, "lon": -122.4078118, "tags": {"addr:city": "Seattle", "addr:housenumber": "2634", "addr:postcode": "98116", "addr:state": "WA", "addr:street": "Alki Avenue Southwest", "amenity": "kindergarten", "check_date": "2024-06-01", "name": "Seattle Early Learning Center", "source": "King County GIS;data.seattle.gov", "website": "https://www.seattle-elc.com/"}}, {"type": "node", "id": 2416632708, "lat": 47.5788445, "lon": -122.4111142, "tags": {"addr:city": "Seattle", "addr:housenumber": "2742", "addr:postcode": "98116", "addr:state": "WA", "addr:street": "Alki Avenue Southwest", "amenity": "ice_cream", "brand": "Ben & Jerry's", "brand:wikidata": "Q816412", "cuisine": "ice_cream", "name": "Ben & Jerry's", "source": "King County GIS;data.seattle.gov"}}, {"type": "node", "id": 2416634615, "lat": 47.5784221, "lon": -122.41105}, {"type": "node", "id": 2416634617, "lat": 47.578425, "lon": -122.4111787}, {"type": "node", "id": 2416634624, "lat": 47.578429, "lon": -122.4111785}, {"type": "node", "id": 2416634626, "lat": 47.5784292, "lon": -122.4111881}, {"type": "node", "id": 2416634653, "lat": 47.5784649, "lon": -122.411048}, {"type": "node", "id": 2416634656, "lat": 47.5784667, "lon": -122.4111863}, {"type": "node", "id": 2416634658, "lat": 47.5784683, "lon": -122.4112604}, {"type": "node", "id": 2416634687, "lat": 47.5785255, "lon": -122.4112422}, {"type": "node", "id": 2416634688, "lat": 47.5785258, "lon": -122.4112577}, {"type": "node", "id": 2416634693, "lat": 47.5785353, "lon": -122.4111906}, {"type": "node", "id": 2416634694, "lat": 47.5785364, "lon": -122.4112416}, {"type": "node", "id": 2416634714, "lat": 47.5786181, "lon": -122.4109518}, {"type": "node", "id": 2416634718, "lat": 47.5786233, "lon": -122.4111863}, {"type": "node", "id": 2416635083, "lat": 47.5796125, "lon": -122.4097261, "tags": {"amenity": "drinking_water", "wheelchair": "yes"}}, {"type": "node", "id": 2416642576, "lat": 47.5761165, "lon": -122.4194012}, {"type": "node", "id": 2416642669, "lat": 47.5761568, "lon": -122.4193622}, {"type": "node", "id": 2416642696, "lat": 47.5761859, "lon": -122.4192942}, {"type": "node", "id": 2416642891, "lat": 47.5763077, "lon": -122.4195352}, {"type": "node", "id": 2416643033, "lat": 47.5763902, "lon": -122.4196302}, {"type": "node", "id": 2416643042, "lat": 47.5763939, "lon": -122.4196362}, {"type": "node", "id": 2416643085, "lat": 47.5764351, "lon": -122.4192802}, {"type": "node", "id": 2416643123, "lat": 47.5764645, "lon": -122.4193092}, {"type": "node", "id": 2416643136, "lat": 47.576473, "lon": -122.4192912}, {"type": "node", "id": 2416643170, "lat": 47.576504, "lon": -122.4193452}, {"type": "node", "id": 2416643184, "lat": 47.5765119, "lon": -122.4193312}, {"type": "node", "id": 2416643199, "lat": 47.5765228, "lon": -122.4193642}, {"type": "node", "id": 2416645377, "lat": 47.57829, "lon": -122.4123695}, {"type": "node", "id": 2416645378, "lat": 47.5782911, "lon": -122.4124485}, {"type": "node", "id": 2416645379, "lat": 47.5783038, "lon": -122.4123135}, {"type": "node", "id": 2416645380, "lat": 47.5783045, "lon": -122.4123695}, {"type": "node", "id": 2416645381, "lat": 47.57831, "lon": -122.4122735}, {"type": "node", "id": 2416645382, "lat": 47.5783102, "lon": -122.4122915}, {"type": "node", "id": 2416645389, "lat": 47.5783573, "lon": -122.4121145}, {"type": "node", "id": 2416645390, "lat": 47.578384, "lon": -122.4121145}, {"type": "node", "id": 2416645391, "lat": 47.5783845, "lon": -122.4121495}, {"type": "node", "id": 2416645401, "lat": 47.5784607, "lon": -122.4123885}, {"type": "node", "id": 2416645402, "lat": 47.5784614, "lon": -122.4124415}, {"type": "node", "id": 2416645403, "lat": 47.5784768, "lon": -122.4123085}, {"type": "node", "id": 2416645404, "lat": 47.5784779, "lon": -122.4123875}, {"type": "node", "id": 2416645405, "lat": 47.5785311, "lon": -122.4122855}, {"type": "node", "id": 2416645406, "lat": 47.5785572, "lon": -122.4121455}, {"type": "node", "id": 2416645407, "lat": 47.5785647, "lon": -122.4130844}, {"type": "node", "id": 2416645408, "lat": 47.5785665, "lon": -122.4121615}, {"type": "node", "id": 2416645409, "lat": 47.5785868, "lon": -122.4130085}, {"type": "node", "id": 2416645410, "lat": 47.5785896, "lon": -122.4131004}, {"type": "node", "id": 2416645411, "lat": 47.5786117, "lon": -122.4130244}, {"type": "node", "id": 3167592361, "lat": 47.5800242, "lon": -122.4074769, "tags": {"addr:housenumber": "2622", "addr:street": "Alki Avenue Southwest", "addr:unit": "102", "name": "Alki Smoke Shop & Grocery Store", "shop": "convenience"}}, {"type": "node", "id": 3446056368, "lat": 47.5769871, "lon": -122.4068133}, {"type": "node", "id": 3446056369, "lat": 47.5769995, "lon": -122.4079914}, {"type": "node", "id": 3446056371, "lat": 47.5777532, "lon": -122.4067956}, {"type": "node", "id": 3446056372, "lat": 47.5777656, "lon": -122.4079737}, {"type": "node", "id": 3603430725, "lat": 47.5757208, "lon": -122.4182478}, {"type": "node", "id": 3603430726, "lat": 47.5755092, "lon": -122.4182481}, {"type": "node", "id": 3603430727, "lat": 47.5755093, "lon": -122.4183752}, {"type": "node", "id": 3603430728, "lat": 47.5757208, "lon": -122.418375}, {"type": "node", "id": 3622683580, "lat": 47.578278, "lon": -122.4107893}, {"type": "node", "id": 3622683581, "lat": 47.5782884, "lon": -122.4112842}, {"type": "node", "id": 3622683584, "lat": 47.5784049, "lon": -122.4107834}, {"type": "node", "id": 3622683585, "lat": 47.5784153, "lon": -122.4112783}, {"type": "node", "id": 4088843462, "lat": 47.5744266, "lon": -122.4155228}, {"type": "node", "id": 4330170860, "lat": 47.5768303, "lon": -122.4189836, "tags": {"amenity": "public_bookcase"}}, {"type": "node", "id": 5590816051, "lat": 47.5761224, "lon": -122.4191972}, {"type": "node", "id": 5590816052, "lat": 47.5765376, "lon": -122.4191865}, {"type": "node", "id": 5590816053, "lat": 47.5766055, "lon": -122.4191677}, {"type": "node", "id": 5590816054, "lat": 47.5766272, "lon": -122.4191918}, {"type": "node", "id": 5590816055, "lat": 47.5765563, "lon": -122.4193666}, {"type": "node", "id": 5590816056, "lat": 47.5761411, "lon": -122.4193722}, {"type": "node", "id": 5590816057, "lat": 47.5761524, "lon": -122.4193472}, {"type": "node", "id": 5828034831, "lat": 47.5790535, "lon": -122.4115227, "tags": {"amenity": "bbq", "covered": "no", "wheelchair": "no"}}, {"type": "node", "id": 5828034832, "lat": 47.5790998, "lon": -122.4115721, "tags": {"amenity": "bbq", "covered": "no", "wheelchair": "no"}}, {"type": "node", "id": 5828034833, "lat": 47.5791866, "lon": -122.4111838, "tags": {"amenity": "bbq", "covered": "no", "wheelchair": "no"}}, {"type": "node", "id": 6489368247, "lat": 47.5785646, "lon": -122.4110022, "tags": {"addr:housenumber": "2717", "addr:street": "61st Avenue Southwest", "amenity": "restaurant", "cuisine": "italian", "name": "Il Nido", "website": "https://ilnidoseattle.com"}}, {"type": "node", "id": 6558950351, "lat": 47.5786381, "lon": -122.4117955, "tags": {"addr:city": "Seattle", "addr:housenumber": "2770", "addr:postcode": "98116", "addr:state": "WA", "addr:street": "Alki Avenue Southwest", "name": "Alki Property Management", "office": "yes", "source": "King County GIS;data.seattle.gov", "wheelchair": "yes"}}, {"type": "node", "id": 8192685322, "lat": 47.5751801, "lon": -122.4156219}, {"type": "node", "id": 8355877617, "lat": 47.5776149, "lon": -122.4080113, "tags": {"amenity": "bicycle_parking"}}, {"type": "node", "id": 8356139217, "lat": 47.5791939, "lon": -122.4105353, "tags": {"amenity": "bicycle_parking", "bicycle_parking": "stands", "capacity": "6", "covered": "no", "mapillary": "413682870555917", "survey:date": "2022-07-10"}}, {"type": "node", "id": 8402346357, "lat": 47.5789225, "lon": -122.4108294, "tags": {"addr:city": "Seattle", "addr:housenumber": "2738", "addr:postcode": "98116", "addr:state": "WA", "addr:street": "Alki Avenue Southwest", "addr:unit": "D", "amenity": "restaurant", "check_date": "2024-06-01", "cuisine": "mexican", "name": "Fire Tacos de Birria", "toilets:wheelchair": "yes", "wheelchair": "yes"}}, {"type": "node", "id": 8726547953, "lat": 47.5711005, "lon": -122.4113239, "tags": {"amenity": "bench", "backrest": "no", "material": "wood"}}, {"type": "node", "id": 8726984712, "lat": 47.5727041, "lon": -122.4140195, "tags": {"amenity": "bench", "backrest": "yes"}}, {"type": "node", "id": 8726984713, "lat": 47.5727418, "lon": -122.4141241, "tags": {"amenity": "bench", "backrest": "yes"}}, {"type": "node", "id": 8726984714, "lat": 47.57279, "lon": -122.4144115, "tags": {"amenity": "bench", "backrest": "yes"}}, {"type": "node", "id": 8726984715, "lat": 47.5728669, "lon": -122.4145744, "tags": {"amenity": "bench", "backrest": "yes"}}, {"type": "node", "id": 8727000617, "lat": 47.5737235, "lon": -122.4166176, "tags": {"amenity": "bench"}}, {"type": "node", "id": 8727000618, "lat": 47.5737072, "lon": -122.4165872, "tags": {"amenity": "bench"}}, {"type": "node", "id": 8727000623, "lat": 47.5743089, "lon": -122.41773, "tags": {"amenity": "bench"}}, {"type": "node", "id": 8727000624, "lat": 47.5743499, "lon": -122.4178083, "tags": {"amenity": "bench"}}, {"type": "node", "id": 8727000630, "lat": 47.5746231, "lon": -122.4182551, "tags": {"amenity": "bicycle_parking", "bicycle_parking": "stands"}}, {"type": "node", "id": 8727000637, "lat": 47.5725079, "lon": -122.4134586, "tags": {"amenity": "bicycle_rental", "bicycle_rental": "dropoff_point", "covered": "no"}}, {"type": "node", "id": 8729761154, "lat": 47.5777308, "lon": -122.4156984, "tags": {"amenity": "bicycle_parking", "bicycle_parking": "stands", "capacity": "3", "covered": "no"}}, {"type": "node", "id": 8729761155, "lat": 47.5784421, "lon": -122.4131102, "tags": {"amenity": "bicycle_parking", "bicycle_parking": "stands", "capacity": "6", "covered": "no"}}, {"type": "node", "id": 8729761170, "lat": 47.5793998, "lon": -122.410591}, {"type": "node", "id": 8729761171, "lat": 47.579411, "lon": -122.4106071}, {"type": "node", "id": 8729761172, "lat": 47.5793857, "lon": -122.4105831}, {"type": "node", "id": 8729761173, "lat": 47.5794185, "lon": -122.4106264}, {"type": "node", "id": 8729761174, "lat": 47.5794848, "lon": -122.4104186}, {"type": "node", "id": 8729761175, "lat": 47.5793963, "lon": -122.4104906}, {"type": "node", "id": 8729761176, "lat": 47.5793241, "lon": -122.4105642}, {"type": "node", "id": 8729761177, "lat": 47.5793688, "lon": -122.4106875}, {"type": "node", "id": 8729761178, "lat": 47.5793873, "lon": -122.4107117}, {"type": "node", "id": 8729761179, "lat": 47.5793865, "lon": -122.4107426}, {"type": "node", "id": 8729761180, "lat": 47.579382, "lon": -122.4107721}, {"type": "node", "id": 8729761181, "lat": 47.5793839, "lon": -122.4106833}, {"type": "node", "id": 8729761182, "lat": 47.5794421, "lon": -122.4104751}, {"type": "node", "id": 8729761183, "lat": 47.5794162, "lon": -122.4104867}, {"type": "node", "id": 8729761184, "lat": 47.5793811, "lon": -122.4104946}, {"type": "node", "id": 8729761185, "lat": 47.5793605, "lon": -122.4105057}, {"type": "node", "id": 8729761186, "lat": 47.5793542, "lon": -122.4106864}, {"type": "node", "id": 8729761187, "lat": 47.5793391, "lon": -122.410532}, {"type": "node", "id": 8729761188, "lat": 47.5793171, "lon": -122.4106242}, {"type": "node", "id": 8729761189, "lat": 47.5793217, "lon": -122.4106455}, {"type": "node", "id": 8729761190, "lat": 47.5793302, "lon": -122.410663}, {"type": "node", "id": 8729761191, "lat": 47.5793407, "lon": -122.4106748}, {"type": "node", "id": 8729774217, "lat": 47.5800633, "lon": -122.408113, "tags": {"amenity": "bicycle_parking", "bicycle_parking": "stands"}}, {"type": "node", "id": 8729774218, "lat": 47.5800187, "lon": -122.4082122, "tags": {"amenity": "bicycle_parking", "bicycle_parking": "stands"}}, {"type": "node", "id": 8729774246, "lat": 47.5783566, "lon": -122.4142328, "tags": {"amenity": "waste_basket"}}, {"type": "node", "id": 8729774249, "lat": 47.5794621, "lon": -122.410455}, {"type": "node", "id": 8729774253, "lat": 47.5795021, "lon": -122.4103335, "tags": {"amenity": "waste_basket"}}, {"type": "node", "id": 8729774254, "lat": 47.5792601, "lon": -122.410823, "tags": {"amenity": "bbq", "covered": "no", "wheelchair": "no"}}, {"type": "node", "id": 8729774256, "lat": 47.5791421, "lon": -122.4115653, "tags": {"amenity": "waste_basket"}}, {"type": "node", "id": 8729774257, "lat": 47.5788598, "lon": -122.4125235, "tags": {"amenity": "waste_basket"}}, {"type": "node", "id": 8729774258, "lat": 47.5789435, "lon": -122.4122295, "tags": {"amenity": "waste_basket"}}, {"type": "node", "id": 8729774259, "lat": 47.5787723, "lon": -122.4128233, "tags": {"amenity": "bench", "backrest": "yes"}}, {"type": "node", "id": 8729774260, "lat": 47.5787596, "lon": -122.4128621, "tags": {"amenity": "bench", "backrest": "yes"}}, {"type": "node", "id": 8729774261, "lat": 47.5785701, "lon": -122.4135223, "tags": {"amenity": "bench", "backrest": "yes"}}, {"type": "node", "id": 8729774352, "lat": 47.5795708, "lon": -122.410094, "tags": {"amenity": "bench", "backrest": "yes"}}, {"type": "node", "id": 8729774353, "lat": 47.5795855, "lon": -122.4100436, "tags": {"amenity": "bench", "backrest": "yes"}}, {"type": "node", "id": 8729774381, "lat": 47.579992, "lon": -122.4089961, "tags": {"amenity": "bbq", "covered": "no", "wheelchair": "yes"}}, {"type": "node", "id": 9175831552, "lat": 47.5764203, "lon": -122.4196662}, {"type": "node", "id": 9175831553, "lat": 47.5764833, "lon": -122.4194432}, {"type": "node", "id": 9175831554, "lat": 47.5763791, "lon": -122.4196622}, {"type": "node", "id": 9216496853, "lat": 47.5776991, "lon": -122.4067234}, {"type": "node", "id": 9216496854, "lat": 47.5776182, "lon": -122.4067348}, {"type": "node", "id": 9216496855, "lat": 47.5776126, "lon": -122.4065209}, {"type": "node", "id": 9216496856, "lat": 47.5776774, "lon": -122.4065163}, {"type": "node", "id": 9270672863, "lat": 47.5789459, "lon": -122.4109587, "tags": {"amenity": "waste_basket"}}, {"type": "node", "id": 9415857647, "lat": 47.5738287, "lon": -122.4115871, "tags": {"addr:city": "Seattle", "addr:housenumber": "3400", "addr:postcode": "98116", "addr:state": "WA", "addr:street": "62nd Avenue Southwest", "amenity": "place_of_worship", "name": "Kol HaNeshamah", "religion": "jewish", "source": "King County GIS;data.seattle.gov"}}, {"type": "node", "id": 9415857648, "lat": 47.5738459, "lon": -122.4118097, "tags": {"addr:city": "Seattle", "addr:housenumber": "3400", "addr:postcode": "98116", "addr:state": "WA", "addr:street": "62nd Avenue Southwest", "amenity": "place_of_worship", "name": "Alki United Church of Christ", "religion": "christian", "source": "King County GIS;data.seattle.gov"}}, {"type": "node", "id": 9472758129, "lat": 47.5776831, "lon": -122.4079749}, {"type": "node", "id": 9472758130, "lat": 47.5777078, "lon": -122.4072646}, {"type": "node", "id": 9983681175, "lat": 47.5759667, "lon": -122.4195726, "tags": {"access": "private", "amenity": "parking", "operator": "U.S. Coast Guard", "operator:type": "military"}}, {"type": "node", "id": 9983698435, "lat": 47.5761781, "lon": -122.4197907, "tags": {"access": "private", "amenity": "parking", "operator": "U.S. Coast Guard", "operator:type": "military"}}, {"type": "node", "id": 10157246895, "lat": 47.5796124, "lon": -122.4097354, "tags": {"amenity": "shower", "indoor": "no"}}, {"type": "node", "id": 12104332426, "lat": 47.5784552, "lon": -122.4115923}, {"type": "node", "id": 12104332427, "lat": 47.5785424, "lon": -122.4113585}, {"type": "node", "id": 12104332429, "lat": 47.5784529, "lon": -122.4113605}, {"type": "node", "id": 12104332432, "lat": 47.5785448, "lon": -122.4115903}, {"type": "node", "id": 12104336415, "lat": 47.5785735, "lon": -122.4109539, "tags": {"entrance": "main"}}, {"type": "node", "id": 12104336528, "lat": 47.5787414, "lon": -122.4107924}, {"type": "node", "id": 12104336530, "lat": 47.578045, "lon": -122.4112143}, {"type": "node", "id": 12104336531, "lat": 47.5782075, "lon": -122.4118467}, {"type": "node", "id": 12104336532, "lat": 47.5781529, "lon": -122.4114636, "tags": {"barrier": "gate"}}, {"type": "node", "id": 12104336533, "lat": 47.5786189, "lon": -122.4107983}, {"type": "node", "id": 12104336534, "lat": 47.5787445, "lon": -122.4109315}, {"type": "node", "id": 12104336535, "lat": 47.5782637, "lon": -122.4113017}, {"type": "node", "id": 12104336536, "lat": 47.5781597, "lon": -122.4118486, "tags": {"barrier": "gate"}}, {"type": "node", "id": 12104336537, "lat": 47.5782006, "lon": -122.4114617}, {"type": "node", "id": 12104336538, "lat": 47.5782626, "lon": -122.4112083}, {"type": "node", "id": 12104336539, "lat": 47.5786857, "lon": -122.4112873}, {"type": "node", "id": 12104336541, "lat": 47.5781291, "lon": -122.4114645}, {"type": "node", "id": 12104336542, "lat": 47.5780462, "lon": -122.4113077}, {"type": "node", "id": 12104336543, "lat": 47.5786297, "lon": -122.41129}, {"type": "node", "id": 12104336544, "lat": 47.578136, "lon": -122.4118495}, {"type": "node", "id": 12104336546, "lat": 47.5787246, "lon": -122.4112113}, {"type": "node", "id": 12104336547, "lat": 47.5787184, "lon": -122.4109327}, {"type": "node", "id": 12104336548, "lat": 47.5786841, "lon": -122.4112133}, {"type": "node", "id": 12206021132, "lat": 47.5769875, "lon": -122.4068486}, {"type": "node", "id": 12206021135, "lat": 47.5777622, "lon": -122.4076503}, {"type": "node", "id": 12783426771, "lat": 47.5789896, "lon": -122.4087348}, {"type": "node", "id": 12783426772, "lat": 47.5791049, "lon": -122.4089396}, {"type": "node", "id": 12783426773, "lat": 47.5792282, "lon": -122.4090256}, {"type": "node", "id": 12783426774, "lat": 47.5793659, "lon": -122.4087197}, {"type": "node", "id": 12783426775, "lat": 47.5791019, "lon": -122.4087313}, {"type": "node", "id": 12783426776, "lat": 47.5792142, "lon": -122.4087227}, {"type": "node", "id": 12783426777, "lat": 47.5793654, "lon": -122.4087629}, {"type": "node", "id": 12783426778, "lat": 47.5792191, "lon": -122.4089945}, {"type": "node", "id": 12783426779, "lat": 47.5789926, "lon": -122.4089431}, {"type": "node", "id": 12783426780, "lat": 47.5794594, "lon": -122.408853}, {"type": "node", "id": 12783426781, "lat": 47.5793718, "lon": -122.4090179}, {"type": "way", "id": 50275551, "nodes": [638867939, 638867941, 638867942, 638867940, 638867939], "tags": {"amenity": "toilets", "building": "yes", "fee": "no", "wheelchair": "yes"}}, {"type": "way", "id": 50329126, "nodes": [639359579, 639359573, 639359577, 639359556, 4088843462, 639359560, 8192685322, 639359579], "tags": {"access": "yes", "amenity": "parking", "fee": "no", "parking": "surface"}}, {"type": "way", "id": 172965176, "nodes": [1837939379, 1837939618, 1837939612, 1837939358, 1837939391, 9472758130, 1837939678, 1837939379], "tags": {"amenity": "parking", "parking": "surface"}}, {"type": "way", "id": 173107830, "nodes": [1839398240, 1839399879, 1839398241, 1839398163, 1839398240], "tags": {"amenity": "shelter", "building": "roof", "shelter_type": "picnic_shelter", "wheelchair": "yes"}}, {"type": "way", "id": 173108264, "nodes": [1839402335, 1839402388, 1839402333, 1839402406, 1839402346, 1839402389, 1839402371, 1839402349, 1839402359, 1839402404, 1839402334, 1839402339, 1839402341, 1839402369, 1839402392, 1839402399, 1839402379, 1839402345, 1839402365, 1839402384, 1839402375, 1839402383, 1839402342, 1839402335], "tags": {"amenity": "parking"}}, {"type": "way", "id": 233293290, "nodes": [2416634714, 12104336415, 927614317, 2416634653, 2416634615, 2416634617, 2416634624, 2416634626, 2416634656, 2416634658, 2416634688, 2416634687, 2416634694, 2416634693, 2416634718, 2416634714], "tags": {"addr:city": "Seattle", "addr:housenumber": "2717", "addr:postcode": "98116", "addr:state": "WA", "addr:street": "61st Avenue Southwest", "amenity": "restaurant", "building": "yes", "cuisine": "italian", "historic": "building", "name": "Alki Homestead", "old_name": "Fir Lodge", "source": "King County GIS;data.seattle.gov", "start_date": "1904", "website": "https://ilnidoseattle.com", "wikidata": "Q105038388"}}, {"type": "way", "id": 233295432, "nodes": [2416645407, 2416645410, 2416645411, 2416645409, 2416645407], "tags": {"addr:city": "Seattle", "addr:housenumber": "2801", "addr:postcode": "98116", "addr:state": "WA", "addr:street": "Alki Avenue Southwest", "amenity": "toilets", "building": "yes", "source": "King County GIS;data.seattle.gov", "wheelchair": "yes"}}, {"type": "way", "id": 233295433, "nodes": [2416645379, 2416645380, 2416645377, 2416645378, 2416645402, 2416645401, 2416645404, 2416645403, 2416645379], "tags": {"addr:city": "Seattle", "addr:housenumber": "2808", "addr:postcode": "98116", "addr:state": "WA", "addr:street": "Alki Avenue Southwest", "amenity": "restaurant", "building": "yes", "check_date": "2024-06-01", "cuisine": "vietnamese", "name": "Alki Ph\u1edf & Bar", "source": "King County GIS;data.seattle.gov"}}, {"type": "way", "id": 233295817, "nodes": [2416645405, 2416645408, 2416645406, 2416645391, 2416645390, 2416645389, 2416645381, 2416645382, 2416645405], "tags": {"addr:city": "Seattle", "addr:housenumber": "2800", "addr:postcode": "98116", "addr:state": "WA", "addr:street": "Alki Avenue Southwest", "amenity": "fast_food", "building": "yes", "check_date": "2024-06-01", "cuisine": "fish_and_chips", "name": "Sunfish", "source": "data.seattle.gov"}}, {"type": "way", "id": 337530622, "nodes": [3446056369, 12206021132, 3446056368, 3446056371, 12206021135, 3446056372, 9472758129, 3446056369], "tags": {"addr:city": "Seattle", "addr:housenumber": "3010", "addr:postcode": "98116", "addr:state": "WA", "addr:street": "59th Avenue Southwest", "amenity": "school", "education": "school", "ele": "7", "gnis:feature_id": "1515609", "mascot": "Seagulls", "name": "Alki Elementary School", "operator": "Seattle Public Schools", "operator:short": "SPS", "operator:type": "public", "operator:wikidata": "Q3236113", "website": "https://www.seattleschools.org/schools/alki/"}}, {"type": "way", "id": 354662764, "nodes": [3603430725, 3603430726, 3603430727, 3603430728, 3603430725], "tags": {"amenity": "parking", "parking": "surface"}}, {"type": "way", "id": 356867025, "nodes": [3622683585, 3622683584, 3622683580, 3622683581, 3622683585], "tags": {"amenity": "parking", "parking": "surface"}}, {"type": "way", "id": 584952866, "nodes": [2416642576, 5590816051, 5590816052, 5590816053, 5590816054, 5590816055, 9175831552, 9175831554, 2416643042, 2416643033, 9175831553, 2416643199, 2416643170, 2416643184, 2416643136, 2416643123, 2416643085, 2416642891, 2416642696, 5590816057, 2416642669, 5590816056, 2416642576], "tags": {"amenity": "parking", "parking": "surface"}}, {"type": "way", "id": 942729910, "nodes": [8729761173, 8729761171, 8729761170, 8729761172], "tags": {"amenity": "bench", "backrest": "no", "material": "wood"}}, {"type": "way", "id": 942729911, "nodes": [8729761184, 8729761185, 8729761187, 8729761176], "tags": {"amenity": "bench", "backrest": "no", "material": "wood"}}, {"type": "way", "id": 942729912, "nodes": [8729761188, 8729761189, 8729761190, 8729761191], "tags": {"amenity": "bench", "backrest": "no", "material": "wood"}}, {"type": "way", "id": 942729913, "nodes": [8729761186, 8729761177, 8729761181, 8729761178, 8729761179, 8729761180], "tags": {"amenity": "bench", "backrest": "no", "material": "wood"}}, {"type": "way", "id": 942729914, "nodes": [8729761174, 8729774249, 8729761182, 8729761183, 8729761175], "tags": {"amenity": "bench", "backrest": "no", "material": "wood"}}, {"type": "way", "id": 998176866, "nodes": [9216496853, 9216496854, 9216496855, 9216496856, 9216496853], "tags": {"amenity": "parking", "parking": "surface"}}, {"type": "way", "id": 1307043092, "nodes": [12104332429, 12104332427, 12104332432, 12104332426, 12104332429], "tags": {"amenity": "parking"}}, {"type": "way", "id": 1307043794, "nodes": [12104336544, 12104336541, 12104336532, 12104336537, 12104336531, 12104336536, 12104336544], "tags": {"amenity": "parking", "barrier": "fence"}}, {"type": "way", "id": 1307043796, "nodes": [12104336543, 12104336533, 12104336528, 12104336534, 12104336547, 12104336546, 12104336548, 12104336539, 12104336543], "tags": {"amenity": "parking"}}, {"type": "way", "id": 1307043797, "nodes": [12104336542, 12104336530, 12104336538, 12104336535, 12104336542], "tags": {"amenity": "parking"}}, {"type": "way", "id": 1380813151, "nodes": [12783426779, 12783426771, 12783426775, 12783426772, 12783426779], "tags": {"access": "private", "amenity": "parking"}}, {"type": "way", "id": 1380813152, "nodes": [12783426781, 12783426773, 12783426778, 12783426776, 12783426774, 12783426777, 12783426780, 12783426781], "tags": {"access": "private", "amenity": "parking"}}]}