{"version": 0.6, "generator": "Overpass API 0.7.62.8 e802775f", "osm3s": {"timestamp_osm_base": "2025-12-12T22:17:19Z", "copyright": "The data included in this document is from www.openstreetmap.org. The data is made available under ODbL."}, "elements": [{"type": "node", "id": 358914772, "lat": 39.2908335, "lon": -106.0781869, "tags": {"amenity": "grave_yard", "ele": "3253", "gnis:feature_id": "179995", "name": "Buckskin Cemetery"}}, {"type": "node", "id": 1449089673, "lat": 39.2841295, "lon": -106.0618988}, {"type": "node", "id": 1449089714, "lat": 39.2839529, "lon": -106.0618065}, {"type": "node", "id": 1449089729, "lat": 39.2841025, "lon": -106.0619852}, {"type": "node", "id": 1449089737, "lat": 39.2839259, "lon": -106.0618929}, {"type": "node", "id": 1449092287, "lat": 39.2851256, "lon": -106.0630746}, {"type": "node", "id": 1449092304, "lat": 39.2852384, "lon": -106.0631325}, {"type": "node", "id": 1449092307, "lat": 39.2851867, "lon": -106.0632573}, {"type": "node", "id": 1449092308, "lat": 39.2856364, "lon": -106.063811}, {"type": "node", "id": 1449092318, "lat": 39.2850413, "lon": -106.0635126}, {"type": "node", "id": 1449092319, "lat": 39.2857243, "lon": -106.0636962}, {"type": "node", "id": 1449092328, "lat": 39.2856462, "lon": -106.0636426}, {"type": "node", "id": 1449092337, "lat": 39.2850183, "lon": -106.0633206}, {"type": "node", "id": 1449092350, "lat": 39.2850804, "lon": -106.0631839}, {"type": "node", "id": 1449092352, "lat": 39.2849633, "lon": -106.0634619}, {"type": "node", "id": 1449092354, "lat": 39.2855676, "lon": -106.0638337}, {"type": "node", "id": 1449092363, "lat": 39.2850963, "lon": -106.0633714}, {"type": "node", "id": 1449095744, "lat": 39.2834903, "lon": -106.0625926}, {"type": "node", "id": 1449095760, "lat": 39.2833471, "lon": -106.0627146}, {"type": "node", "id": 1449095812, "lat": 39.2833177, "lon": -106.0627786}, {"type": "node", "id": 1449095835, "lat": 39.2849552, "lon": -106.063895}, {"type": "node", "id": 1449095858, "lat": 39.2834115, "lon": -106.0627641}, {"type": "node", "id": 1449095885, "lat": 39.28327, "lon": -106.062742}, {"type": "node", "id": 1449095903, "lat": 39.28492, "lon": -106.0637532}, {"type": "node", "id": 1449095925, "lat": 39.2833782, "lon": -106.0625066}, {"type": "node", "id": 1449095952, "lat": 39.2836239, "lon": -106.0633359}, {"type": "node", "id": 1449095953, "lat": 39.2836511, "lon": -106.0631937}, {"type": "node", "id": 1449096046, "lat": 39.284993, "lon": -106.0638036}, {"type": "node", "id": 1449096049, "lat": 39.2848822, "lon": -106.0638446}, {"type": "node", "id": 1449096085, "lat": 39.2838689, "lon": -106.0632632}, {"type": "node", "id": 1449096131, "lat": 39.2838417, "lon": -106.0634055}, {"type": "node", "id": 2380182794, "lat": 39.2894554, "lon": -106.0672063}, {"type": "node", "id": 2380182802, "lat": 39.2895538, "lon": -106.0666952}, {"type": "node", "id": 2380182817, "lat": 39.2900721, "lon": -106.067601}, {"type": "node", "id": 2380182820, "lat": 39.2902464, "lon": -106.0668399}, {"type": "node", "id": 3766589842, "lat": 39.289628, "lon": -106.0667146}, {"type": "node", "id": 3766589848, "lat": 39.289825, "lon": -106.0667595}, {"type": "node", "id": 3766589849, "lat": 39.289971, "lon": -106.0667952}, {"type": "node", "id": 3766589851, "lat": 39.2898702, "lon": -106.0674718}, {"type": "node", "id": 3766682290, "lat": 39.2868387, "lon": -106.0647423}, {"type": "node", "id": 3766735419, "lat": 39.2848375, "lon": -106.0616015}, {"type": "node", "id": 3766735422, "lat": 39.285298, "lon": -106.0618902}, {"type": "node", "id": 3766735449, "lat": 39.2847538, "lon": -106.0616073}, {"type": "node", "id": 3766735456, "lat": 39.2852601, "lon": -106.0618134}, {"type": "node", "id": 3766735657, "lat": 39.2853025, "lon": -106.0617785}, {"type": "node", "id": 3766735692, "lat": 39.2853404, "lon": -106.0618553}, {"type": "node", "id": 3766735693, "lat": 39.2847727, "lon": -106.06159}, {"type": "node", "id": 3766735707, "lat": 39.2848782, "lon": -106.0616752}, {"type": "node", "id": 3766735726, "lat": 39.2847987, "lon": -106.0616372}, {"type": "node", "id": 3766735727, "lat": 39.2846418, "lon": -106.0614041}, {"type": "node", "id": 3766735730, "lat": 39.2847391, "lon": -106.0618032}, {"type": "node", "id": 3766735731, "lat": 39.2845604, "lon": -106.061479}, {"type": "node", "id": 3766761159, "lat": 39.2844908, "lon": -106.0619362, "tags": {"amenity": "parking", "source": "Bing"}}, {"type": "node", "id": 3766761197, "lat": 39.2847296, "lon": -106.0614126, "tags": {"amenity": "parking", "source": "Bing"}}, {"type": "node", "id": 3768284468, "lat": 39.2863591, "lon": -106.0644344}, {"type": "node", "id": 3768284497, "lat": 39.2856682, "lon": -106.0638328}, {"type": "node", "id": 3768284503, "lat": 39.285614, "lon": -106.0638656}, {"type": "node", "id": 3768284506, "lat": 39.287055, "lon": -106.0642536}, {"type": "node", "id": 3768284521, "lat": 39.286566, "lon": -106.0639081}, {"type": "node", "id": 3768284525, "lat": 39.2868679, "lon": -106.0647612}, {"type": "node", "id": 3768322523, "lat": 39.2836458, "lon": -106.0622938}, {"type": "node", "id": 3768322524, "lat": 39.2836379, "lon": -106.0624463}, {"type": "node", "id": 3768322525, "lat": 39.2835909, "lon": -106.0624087}, {"type": "node", "id": 3768322527, "lat": 39.2836929, "lon": -106.0623315}, {"type": "node", "id": 3768326853, "lat": 39.2849375, "lon": -106.0634463, "tags": {"amenity": "bench"}}, {"type": "node", "id": 3768326854, "lat": 39.2852273, "lon": -106.0630949}, {"type": "node", "id": 3768326855, "lat": 39.2851788, "lon": -106.0630615}, {"type": "node", "id": 3768326856, "lat": 39.2851628, "lon": -106.0631003}, {"type": "node", "id": 3768328859, "lat": 39.2852177, "lon": -106.0631182}, {"type": "node", "id": 3768330539, "lat": 39.2843005, "lon": -106.0626173}, {"type": "node", "id": 3768330543, "lat": 39.2841927, "lon": -106.0628361}, {"type": "node", "id": 3768330552, "lat": 39.2842368, "lon": -106.0625835}, {"type": "node", "id": 3768334782, "lat": 39.2842233, "lon": -106.0628596}, {"type": "node", "id": 3768334788, "lat": 39.2842378, "lon": -106.0628964, "tags": {"amenity": "bicycle_parking", "bicycle_parking": "stands", "covered": "no"}}, {"type": "node", "id": 3768334796, "lat": 39.2841636, "lon": -106.0628147}, {"type": "node", "id": 3768340942, "lat": 39.2840614, "lon": -106.063156, "tags": {"addr:city": "Alma", "addr:housenumber": "21", "addr:postcode": "80420", "addr:state": "CO", "addr:street": "North Main Street", "alt_name": "MotherLode", "name": "Mother Lode", "phone": "+1-719-836-0401", "shop": "clothes", "source": "Bing"}}, {"type": "node", "id": 3768340943, "lat": 39.2839534, "lon": -106.0629501, "tags": {"amenity": "bench"}}, {"type": "node", "id": 3768340952, "lat": 39.2840904, "lon": -106.063052, "tags": {"amenity": "bench"}}, {"type": "node", "id": 3768360234, "lat": 39.2836753, "lon": -106.0624232, "tags": {"addr:city": "Alma", "addr:housenumber": "8", "addr:postcode": "80420", "addr:state": "CO", "addr:street": "South Main Street", "name": "weedtees", "phone": "+1-719-836-4863", "shop": "clothes", "website": "http://weedtees.com/"}}, {"type": "node", "id": 3768360246, "lat": 39.2834074, "lon": -106.0625075, "tags": {"amenity": "bench"}}, {"type": "node", "id": 3768360252, "lat": 39.2832458, "lon": -106.0627232}, {"type": "node", "id": 3768360254, "lat": 39.283478, "lon": -106.0625611, "tags": {"amenity": "bicycle_parking", "bicycle_parking": "stands", "covered": "no"}}, {"type": "node", "id": 3768360262, "lat": 39.2831643, "lon": -106.0626601}, {"type": "node", "id": 3768360267, "lat": 39.2831873, "lon": -106.0623385, "tags": {"amenity": "bench"}}, {"type": "node", "id": 3768360285, "lat": 39.2832715, "lon": -106.0624245}, {"type": "node", "id": 3768360288, "lat": 39.2831292, "lon": -106.062553, "tags": {"addr:city": "Alma", "addr:housenumber": "15", "addr:postcode": "80420", "addr:state": "CO", "addr:street": "South Main Street", "name": "Hoosier Daddy Liquors", "phone": "+1-719-836-3004", "shop": "alcohol"}}, {"type": "node", "id": 3768360294, "lat": 39.2832351, "lon": -106.0624458, "tags": {"addr:city": "Alma", "addr:housenumber": "15", "addr:postcode": "80420", "addr:state": "CO", "addr:street": "South Main Street", "name": "Hairy Situations", "shop": "hairdresser"}}, {"type": "node", "id": 3768360303, "lat": 39.2835091, "lon": -106.0626121, "tags": {"amenity": "vending_machine", "name": "Ice", "operator": "Al-Mart General Store", "vending": "ice"}}, {"type": "node", "id": 3768366425, "lat": 39.2827291, "lon": -106.0617125}, {"type": "node", "id": 3768366427, "lat": 39.2827599, "lon": -106.0615349}, {"type": "node", "id": 3768366430, "lat": 39.2828621, "lon": -106.061518}, {"type": "node", "id": 3768366432, "lat": 39.282691, "lon": -106.0616828}, {"type": "node", "id": 3768366434, "lat": 39.2828161, "lon": -106.0614822}, {"type": "node", "id": 3768366436, "lat": 39.2827751, "lon": -106.0617047}, {"type": "node", "id": 3768366450, "lat": 39.282744, "lon": -106.0616805}, {"type": "node", "id": 3768366455, "lat": 39.2827852, "lon": -106.0616829}, {"type": "node", "id": 3768366459, "lat": 39.2827831, "lon": -106.061553}, {"type": "node", "id": 3768381745, "lat": 39.2828303, "lon": -106.061, "tags": {"addr:city": "Alma", "addr:housenumber": "44", "addr:postcode": "80420", "addr:state": "CO", "addr:street": "Robeson Street", "name": "Alma & Fairplay Storage", "phone": "+1-719-836-3146", "shop": "doityourself", "website": "https://www.almafairplaystorage.com/"}}, {"type": "node", "id": 11285119260, "lat": 39.2846044, "lon": -106.0612481}, {"type": "node", "id": 11285119261, "lat": 39.2848258, "lon": -106.0614352}, {"type": "node", "id": 11285119262, "lat": 39.2849488, "lon": -106.0611924}, {"type": "node", "id": 11285119263, "lat": 39.2847274, "lon": -106.0610052}, {"type": "way", "id": 131692667, "nodes": [1449089737, 1449089714, 1449089673, 1449089729, 1449089737], "tags": {"addr:city": "Alma", "addr:housenumber": "30", "addr:postcode": "80420", "addr:state": "CO", "addr:street": "East Buckskin Street", "amenity": "post_office", "building": "public", "name": "Alma Post Office", "operator": "United States Postal Service", "operator:short": "USPS", "operator:type": "public", "operator:website": "https://www.usps.com", "operator:wikidata": "Q668687", "operator:wikipedia": "en:United States Postal Service", "phone": "+1-719-836-2265", "phone:tollfree": "+1-800-275-8777", "ref": "80420", "short_name": "USPS", "source": "Bing", "website": "http://www.uspspostoffices.com/co/alma/alma"}}, {"type": "way", "id": 131692917, "nodes": [1449092352, 1449092337, 1449092363, 1449092318, 1449092352], "tags": {"addr:city": "Alma", "addr:housenumber": "112", "addr:postcode": "80420", "addr:state": "CO", "addr:street": "North Main Street", "building": "retail", "name": "The Sheepherder", "phone": "+1-719-836-3383", "shop": "clothes", "source": "Bing", "website": "https://customsheepskinjackets.com/"}}, {"type": "way", "id": 131692919, "nodes": [1449092307, 1449092304, 3768328859, 3768326854, 3768326855, 3768326856, 1449092287, 1449092350, 1449092307], "tags": {"addr:city": "Alma", "addr:housenumber": "112", "addr:postcode": "80420", "addr:state": "CO", "addr:street": "North Main Street", "amenity": "veterinary", "building": "office", "name": "Alma Animal Clinic", "phone": "+1-719-836-3127", "source": "Bing"}}, {"type": "way", "id": 131692920, "nodes": [1449092308, 3768284503, 1449092354, 1449092328, 1449092319, 3768284497, 1449092308], "tags": {"addr:city": "Alma", "addr:housenumber": "160", "addr:postcode": "80420", "addr:state": "CO", "addr:street": "North Main Street", "alt_name": "River's Edge Gallery & Gifts", "building": "retail", "name": "River's Edge Gallery and Gifts", "opening_hours": "Th-Su 1000-1700 + by appointment", "phone": "+1-719-836-3600", "shop": "gift", "source": "Bing", "website": "http://www.riversedgeg.com/"}}, {"type": "way", "id": 131693411, "nodes": [1449095835, 1449096046, 1449095903, 1449096049, 1449095835], "tags": {"addr:city": "Alma", "addr:housenumber": "131", "addr:postcode": "80420", "addr:state": "CO", "addr:street": "North Main Street", "amenity": "cafe", "building": "retail", "cuisine": "coffee_shop", "indoor_seating": "yes", "internet_access": "wlan", "internet_access:fee": "no", "name": "Alma Coffee House", "opening_hours": "Mo-Th 07:00-15:00; Fr-Su 07:00-18:00", "outdoor_seating": "no", "phone": "+1-719-836-1480", "source": "Bing", "website": "https://www.facebook.com/almacoffeehouse"}}, {"type": "way", "id": 131693424, "nodes": [1449096131, 1449095952, 1449095953, 1449096085, 1449096131], "tags": {"amenity": "fire_station", "building": "public", "name": "Park County Northwest Fire Protection District", "source": "Bing"}}, {"type": "way", "id": 131693463, "nodes": [1449095858, 1449095744, 1449095925, 1449095885, 1449095812, 1449095760, 1449095858], "tags": {"addr:city": "Alma", "addr:housename": "Silver Heels Building", "addr:housenumber": "11", "addr:postbox": "PO Box 220", "addr:postcode": "80420", "addr:state": "CO", "addr:street": "South Main Street", "alt_name": "Almart", "building": "yes", "fax": "+1-719-836-9979", "name": "Al-Mart General Store", "phone": "+1-719-836-9977", "shop": "department_store", "website": "https://almartcolorado.com/"}}, {"type": "way", "id": 229416212, "nodes": [2380182817, 2380182820, 3766589849, 3766589848, 3766589842, 2380182802, 2380182794, 3766589851, 2380182817], "tags": {"addr:city": "Alma", "addr:housenumber": "92", "addr:postcode": "80420", "addr:state": "CO", "addr:street": "Edgewood Road", "landuse": "commercial", "name": "Mountain Grown Gardens", "phone": "+1-970-485-3784", "shop": "garden_centre", "source": "Bing", "website": "https://www.facebook.com/pages/Mountain-Grown-Gardens/404055032949912"}}, {"type": "way", "id": 373167073, "nodes": [3766735707, 3766735730, 3766735731, 3766735727, 3766735449, 3766735693, 3766735726, 3766735419, 3766735707], "tags": {"addr:city": "Alma", "addr:housenumber": "59", "addr:postbox": "PO Box 1050", "addr:postcode": "80420", "addr:state": "CO", "addr:street": "East Buckskin Street", "amenity": "townhall", "building": "public", "email": "info@townofalma.com", "fax": "+1-719-836-3435", "name": "Alma Town Hall", "phone": "+1-719-836-2712", "source": "Bing", "website": "http://townofalma.com/"}}, {"type": "way", "id": 373167074, "nodes": [3766735692, 3766735422, 3766735456, 3766735657, 3766735692], "tags": {"amenity": "stage", "building": "public", "source": "Bing"}}, {"type": "way", "id": 373349850, "nodes": [3768284521, 3768284506, 3768284525, 3766682290, 3768284468, 3768284521], "tags": {"addr:city": "Alma", "addr:housenumber": "272", "addr:postbox": "PO Box 236", "addr:postcode": "80420", "addr:state": "CO", "addr:street": "North Main Street", "amenity": "school", "name": "Bristlecone Montessori School", "pedagogy": "montessori", "phone": "+1-719-836-2552", "website": "http://bristleconemontessori.org/"}}, {"type": "way", "id": 373354917, "nodes": [3768330552, 3768334796, 3768330543, 3768334782, 3768330539, 3768330552], "tags": {"addr:city": "Alma", "addr:housenumber": "24", "addr:postcode": "80420", "addr:state": "CO", "addr:street": "North Main Street", "amenity": "bar", "building": "retail", "check_date": "2025-01-25", "name": "South Park Saloon", "phone": "+1-719-836-2762", "source": "Bing", "website": "https://southparksaloon.com/"}}, {"type": "way", "id": 373355538, "nodes": [3768322524, 3768322525, 3768322523, 3768322527, 3768322524], "tags": {"addr:city": "Alma", "addr:housenumber": "8", "addr:postcode": "80420", "addr:state": "CO", "addr:street": "South Main Street", "building": "retail", "name": "The Smoke Shack", "phone": "+1-719-836-4863", "shop": "gift", "source": "Bing", "website": "https://www.facebook.com/thesmokeshack80420"}}, {"type": "way", "id": 373357076, "nodes": [1449095885, 3768360252, 3768360262, 3768360285, 1449095925, 1449095885], "tags": {"addr:city": "Alma", "addr:housenumber": "13", "addr:postbox": "PO Box 443", "addr:postcode": "80420", "addr:state": "CO", "addr:street": "South Main Street", "building": "retail", "email": "southparkhydro@yahoo.com", "fax": "+1-719-836-1533", "name": "South Park Hydroponics", "opening_hours": "Mo-Sa 10:00-18:00; Su 10:00-16:00", "phone": "+1 719-836-1533", "shop": "garden_centre", "source": "Bing", "website": "http://www.southparkhydroponics.com/"}}, {"type": "way", "id": 373357690, "nodes": [3768366436, 3768366450, 3768366425, 3768366432, 3768366427, 3768366459, 3768366434, 3768366430, 3768366455, 3768366436], "tags": {"addr:city": "Alma", "addr:housenumber": "40", "addr:postcode": "80420", "addr:state": "CO", "addr:street": "South Main Street", "building": "retail", "name": "High Country Healing", "phone": "+1-719-836-9000", "shop": "cannabis", "source": "Bing"}}, {"type": "way", "id": 1217910157, "nodes": [11285119260, 11285119261, 11285119262, 11285119263, 11285119260], "tags": {"addr:city": "Alma", "addr:housenumber": "59", "addr:postcode": "80420", "addr:state": "CO", "addr:street": "East Buckskin Street", "amenity": "library", "building": "yes", "name": "Alma Library", "phone": "+1-719-836-2712"}}]}