{"version": 0.6, "generator": "Overpass API 0.7.62.8 e802775f", "osm3s": {"timestamp_osm_base": "2025-12-06T04:24:23Z", "copyright": "The data included in this document is from www.openstreetmap.org. The data is made available under ODbL."}, "elements": [{"type": "node", "id": 2552891891, "lat": 45.7852041, "lon": -108.510978, "tags": {"addr:city": "Billings", "addr:housename": "Elichai Fine Jewlery Design Studio", "addr:housenumber": "512", "addr:postcode": "59101", "addr:street": "North 29th Street", "check_date": "2018-12-13", "description": "Custom jewelry, gold and silver bullion, diamonds, sapphires", "name": "Elichai Fine Jewelry", "opening_hours": "\"by appointment\"", "shop": "jewelry"}}, {"type": "node", "id": 2908315801, "lat": 45.7822158, "lon": -108.506074, "tags": {"check_date": "2024-02-25", "name": "D. James", "shop": "fashion_accessories"}}, {"type": "node", "id": 2908315901, "lat": 45.782766, "lon": -108.506662, "tags": {"amenity": "cafe", "cuisine": "coffee_shop", "dog": "yes", "internet_access": "wlan", "internet_access:fee": "no", "name": "Rock Creek Coffee Roasters", "outdoor_seating": "no", "pets_allowed": "yes", "smoking": "no"}}, {"type": "node", "id": 2908316001, "lat": 45.7823376, "lon": -108.5062021, "tags": {"check_date": "2024-02-25", "name": "Bishops Cuts/Color", "shop": "hairdresser"}}, {"type": "node", "id": 3037277139, "lat": 45.7809369, "lon": -108.5149569}, {"type": "node", "id": 3037277140, "lat": 45.7809997, "lon": -108.5150386}, {"type": "node", "id": 3037277141, "lat": 45.7810275, "lon": -108.5148139}, {"type": "node", "id": 3037277142, "lat": 45.7810903, "lon": -108.5148957}, {"type": "node", "id": 3037277143, "lat": 45.7815197, "lon": -108.5138666}, {"type": "node", "id": 3037277144, "lat": 45.7816037, "lon": -108.5136886}, {"type": "node", "id": 3037277145, "lat": 45.7816624, "lon": -108.5140051}, {"type": "node", "id": 3037277146, "lat": 45.7816827, "lon": -108.5137652}, {"type": "node", "id": 3037277147, "lat": 45.7817201, "lon": -108.5136859}, {"type": "node", "id": 3037277148, "lat": 45.7817838, "lon": -108.5137477}, {"type": "node", "id": 3401237574, "lat": 45.7840039, "lon": -108.4986294}, {"type": "node", "id": 3401237577, "lat": 45.7841112, "lon": -108.4987369}, {"type": "node", "id": 3401237578, "lat": 45.7841598, "lon": -108.4983096}, {"type": "node", "id": 3401237579, "lat": 45.7842671, "lon": -108.4984171}, {"type": "node", "id": 3401238017, "lat": 45.7854968, "lon": -108.4963972}, {"type": "node", "id": 3401238023, "lat": 45.7857052, "lon": -108.4959553}, {"type": "node", "id": 3401238025, "lat": 45.7857956, "lon": -108.4966834}, {"type": "node", "id": 3401238029, "lat": 45.7860012, "lon": -108.4962424}, {"type": "node", "id": 3993256987, "lat": 45.7879041, "lon": -108.5084545, "tags": {"addr:city": "Billings", "addr:housenumber": "611", "addr:postcode": "59101", "addr:state": "MT", "addr:street": "North 26th Street", "brand": "Albertsons", "brand:wikidata": "Q2831861", "name": "Albertsons", "opening_hours": "Mo-Fr 08:00-20:00; Sa 08:00-21:00; Su 08:00-21:00", "phone": "+1 406-248-7474", "shop": "supermarket", "website": "https://local.albertsons.com/mt/billings/611-n-27th-st.html"}}, {"type": "node", "id": 4172474420, "lat": 45.7913657, "lon": -108.4911778}, {"type": "node", "id": 4172474422, "lat": 45.7914753, "lon": -108.491287}, {"type": "node", "id": 4172474423, "lat": 45.7915826, "lon": -108.4907299}, {"type": "node", "id": 4172474424, "lat": 45.7916922, "lon": -108.4908391}, {"type": "node", "id": 4358578210, "lat": 45.7921928, "lon": -108.514631, "tags": {"name": "Cenex Zip Trip", "shop": "convenience", "source": "Bing"}}, {"type": "node", "id": 4358578238, "lat": 45.7870585, "lon": -108.509383, "tags": {"brand": "Conoco", "brand:wikidata": "Q109341187", "name": "Conoco", "payment:cash": "yes", "payment:credit_cards": "yes", "shop": "convenience", "source": "mapillary"}}, {"type": "node", "id": 4358578239, "lat": 45.7869204, "lon": -108.508134, "tags": {"brand": "Holiday", "brand:wikidata": "Q5880490", "name": "Holiday", "shop": "convenience", "source": "Bing"}}, {"type": "node", "id": 4910977309, "lat": 45.7832456, "lon": -108.5089834, "tags": {"addr:city": "Billings", "addr:housenumber": "302", "addr:state": "MT", "addr:street": "North 29th Street", "beauty": "hair", "name": "New Attitude Salon", "shop": "beauty"}}, {"type": "node", "id": 4911757865, "lat": 45.7842944, "lon": -108.507622, "tags": {"addr:city": "Billings", "addr:postcode": "59102", "amenity": "restaurant", "cuisine": "international", "name": "Spitz", "phone": "+1 406-200-7926", "smoking": "no", "wheelchair": "yes"}}, {"type": "node", "id": 4919829346, "lat": 45.7835543, "lon": -108.4996554, "tags": {"amenity": "bar", "name": "Trailhead Spirits"}}, {"type": "node", "id": 4919829347, "lat": 45.783303, "lon": -108.5010139, "tags": {"amenity": "cafe", "cuisine": "regional", "internet_access": "wlan", "name": "McCormick Cafe"}}, {"type": "node", "id": 4919829348, "lat": 45.7830494, "lon": -108.501525, "tags": {"addr:city": "Billings", "addr:housenumber": "2501", "addr:postcode": "59101", "addr:state": "MT", "addr:street": "Montana Avenue", "amenity": "cafe", "contact:email": "MOAVCOFFEE@GMAIL.COM", "cuisine": "coffee_shop", "internet_access": "wlan", "name": "Legacy Coffee Roasters", "opening_hours": "Mo-Fr 07:00-15:00; Sa 08:00-16:00", "outdoor_seating": "yes", "smoking": "outside", "website": "https://legacycoffeeroasters.co/"}}, {"type": "node", "id": 5009480821, "lat": 45.784869, "lon": -108.5117085, "tags": {"addr:city": "Billings", "addr:housenumber": "511", "addr:postcode": "59101", "addr:state": "MT", "addr:street": "North 30th Street", "email": "info@billingsmassagetherapists.com", "name": "The Massage Company - Billings Massage Therapists", "opening_hours": "Mo 09:00-15:00; Tu,We,Fr 09:00-18:00; Th 12:30-18:30; Sa 09:30-15:00", "payment:cash": "yes", "payment:cheque": "yes", "payment:credit_cards": "yes", "phone": "+1-406-318-0752", "shop": "massage", "website": "https://billingsmassagetherapists.com/"}}, {"type": "node", "id": 5425634796, "lat": 45.7818151, "lon": -108.5034834}, {"type": "node", "id": 5425634797, "lat": 45.7816459, "lon": -108.5033158}, {"type": "node", "id": 5425634798, "lat": 45.7818804, "lon": -108.5028291}, {"type": "node", "id": 5425634799, "lat": 45.7820496, "lon": -108.5029967}, {"type": "node", "id": 5626363378, "lat": 45.7816085, "lon": -108.503814, "tags": {"addr:city": "Billings", "addr:housenumber": "2702", "addr:postcode": "59101", "addr:state": "MT", "addr:street": "Montana Avenue", "addr:unit": "201B", "name": "Gerstner Law", "office": "lawyer", "opening_hours": "Mo-Th 08:00-17:00; Fr 08:00-15:00", "phone": "+1-406-969-3100", "website": "https://www.gerstnerlawoffice.com"}}, {"type": "node", "id": 5740394537, "lat": 45.7825929, "lon": -108.5069307, "tags": {"addr:city": "Billings", "addr:housenumber": "2810", "addr:postcode": "59101", "addr:state": "MT", "addr:street": "2nd Avenue North", "name": "Montague's Jewelers", "opening_hours": "Mo-Fr 10:00-17:30; Sa 10:00-15:30", "operator": "Chris Montague", "payment:american_express": "yes", "payment:cash": "yes", "payment:cheque": "yes", "payment:discover_card": "yes", "payment:mastercard": "yes", "payment:visa": "yes", "phone": "+1-406-294-9370", "shop": "jewelry", "website": "https://montaguesjewelers.com/"}}, {"type": "node", "id": 5766595819, "lat": 45.7849326, "lon": -108.4993139}, {"type": "node", "id": 5766595820, "lat": 45.7847092, "lon": -108.4990947}, {"type": "node", "id": 5766595821, "lat": 45.7849359, "lon": -108.4986198}, {"type": "node", "id": 5766595822, "lat": 45.785159, "lon": -108.4988388}, {"type": "node", "id": 5766595823, "lat": 45.7845739, "lon": -108.498853, "tags": {"addr:city": "Billings", "addr:housenumber": "2223", "addr:postcode": "59101", "addr:state": "MT", "addr:street": "Montana Avenue", "addr:unit": "201", "name": "Stahly Engineering & Associates", "office": "surveyor"}}, {"type": "node", "id": 5767426137, "lat": 45.7838851, "lon": -108.5390255}, {"type": "node", "id": 5767426138, "lat": 45.7837838, "lon": -108.5390179}, {"type": "node", "id": 5767426139, "lat": 45.7837837, "lon": -108.5387591}, {"type": "node", "id": 5767426140, "lat": 45.7838849, "lon": -108.538759}, {"type": "node", "id": 5767426141, "lat": 45.7844474, "lon": -108.5371054}, {"type": "node", "id": 5767426142, "lat": 45.7842593, "lon": -108.5371041}, {"type": "node", "id": 5767426143, "lat": 45.7842599, "lon": -108.5369401}, {"type": "node", "id": 5767426144, "lat": 45.784448, "lon": -108.5369414}, {"type": "node", "id": 5978374515, "lat": 45.7823389, "lon": -108.5119961, "tags": {"addr:city": "Billings", "addr:housenumber": "3203", "addr:postcode": "59101", "addr:state": "MT", "addr:street": "3rd Ave N", "addr:unit": "200", "fax": "+1 406-248-4446", "name": "Spectrum Group Architects", "office": "architect", "opening_hours": "Mo-Fr 08:00-17:00", "phone": "+1 406-248-4443", "website": "https://www.sgapc.com/"}}, {"type": "node", "id": 5994393562, "lat": 45.784111, "lon": -108.4994538, "tags": {"addr:city": "Billings", "addr:housenumber": "2305", "addr:state": "MT", "addr:street": "Montana Avenue", "amenity": "restaurant", "cuisine": "international", "delivery": "no", "name": "\u00dcberbrew", "opening_hours": "Mo-Su 11:00-21:00", "outdoor_seating": "no", "phone": "+1 406-534-6960", "smoking": "no", "takeaway": "yes", "website": "https://uberbrewmt.com", "wheelchair": "yes"}}, {"type": "node", "id": 5994415071, "lat": 45.784241, "lon": -108.4991412, "tags": {"amenity": "restaurant", "cuisine": "italian", "name": "Ciao Mambo"}}, {"type": "node", "id": 5994439216, "lat": 45.7846183, "lon": -108.498778, "tags": {"name": "Mountain West Commercial Real Estate", "office": "estate_agent"}}, {"type": "node", "id": 5994439218, "lat": 45.7845151, "lon": -108.4988203, "tags": {"name": "Griffin Development", "office": "architect"}}, {"type": "node", "id": 5994443772, "lat": 45.7838705, "lon": -108.5015708, "tags": {"office": "lawyer"}}, {"type": "node", "id": 5994451864, "lat": 45.783653, "lon": -108.5002861, "tags": {"amenity": "bar", "brewery": "yes", "name": "Rainbow Bar", "outdoor_seating": "no", "smoking": "no", "wheelchair": "yes"}}, {"type": "node", "id": 5994453696, "lat": 45.7856821, "lon": -108.502359, "tags": {"office": "lawyer"}}, {"type": "node", "id": 5996091778, "lat": 45.7875742, "lon": -108.4952489}, {"type": "node", "id": 5996091779, "lat": 45.7875228, "lon": -108.4951953}, {"type": "node", "id": 5996091780, "lat": 45.7873601, "lon": -108.4951671}, {"type": "node", "id": 5996091781, "lat": 45.7873451, "lon": -108.4952006}, {"type": "node", "id": 5996091782, "lat": 45.7874489, "lon": -108.4953361}, {"type": "node", "id": 5996091783, "lat": 45.787506, "lon": -108.4953911}, {"type": "node", "id": 5996091988, "lat": 45.7876846, "lon": -108.4951725}, {"type": "node", "id": 5996091989, "lat": 45.7874714, "lon": -108.4956217}, {"type": "node", "id": 5996091990, "lat": 45.7872609, "lon": -108.4954246}, {"type": "node", "id": 5996091992, "lat": 45.7874654, "lon": -108.4951857}, {"type": "node", "id": 5996091993, "lat": 45.7874124, "lon": -108.4952881}, {"type": "node", "id": 5996091996, "lat": 45.7874657, "lon": -108.4949552}, {"type": "node", "id": 5996091997, "lat": 45.7875477, "lon": -108.4950262}, {"type": "node", "id": 5996091998, "lat": 45.7873028, "lon": -108.4953285}, {"type": "node", "id": 5996092422, "lat": 45.7860005, "lon": -108.4972178, "tags": {"name": "Hitch Haul", "shop": "gas"}}, {"type": "node", "id": 5996092424, "lat": 45.7859409, "lon": -108.4963703}, {"type": "node", "id": 5996092425, "lat": 45.7859933, "lon": -108.4962591}, {"type": "node", "id": 5996092429, "lat": 45.7855092, "lon": -108.4964084}, {"type": "node", "id": 5996092590, "lat": 45.7856601, "lon": -108.4965534}, {"type": "node", "id": 5996092883, "lat": 45.7851228, "lon": -108.4989148}, {"type": "node", "id": 5996092884, "lat": 45.7851417, "lon": -108.4989334}, {"type": "node", "id": 5996092985, "lat": 45.7849439, "lon": -108.4992901}, {"type": "node", "id": 5996092986, "lat": 45.7849627, "lon": -108.4993086}, {"type": "node", "id": 5996092989, "lat": 45.784969, "lon": -108.4992954, "tags": {"entrance": "yes"}}, {"type": "node", "id": 5996093034, "lat": 45.7849854, "lon": -108.4975097, "tags": {"addr:city": "Billings", "addr:housenumber": "2121", "addr:state": "MT", "addr:street": "Montana Avenue", "name": "B&B Tire Co", "shop": "tyres"}}, {"type": "node", "id": 5996093381, "lat": 45.7839894, "lon": -108.5006448, "tags": {"office": "lawyer"}}, {"type": "node", "id": 5996093708, "lat": 45.7837129, "lon": -108.5021727}, {"type": "node", "id": 5996093709, "lat": 45.7837182, "lon": -108.5021548}, {"type": "node", "id": 5996093710, "lat": 45.7837173, "lon": -108.5021292}, {"type": "node", "id": 5996093711, "lat": 45.7837048, "lon": -108.5021125}, {"type": "node", "id": 5996093712, "lat": 45.783695, "lon": -108.5021061}, {"type": "node", "id": 5996093713, "lat": 45.783695, "lon": -108.5020946}, {"type": "node", "id": 5996093714, "lat": 45.7835058, "lon": -108.5019084}, {"type": "node", "id": 5996093715, "lat": 45.7833798, "lon": -108.5021714}, {"type": "node", "id": 5996093716, "lat": 45.7833943, "lon": -108.5023092}, {"type": "node", "id": 5996093717, "lat": 45.783495, "lon": -108.5022854}, {"type": "node", "id": 5996093718, "lat": 45.7835905, "lon": -108.5023776}, {"type": "node", "id": 5996093719, "lat": 45.7836155, "lon": -108.502375}, {"type": "node", "id": 5996093720, "lat": 45.7837057, "lon": -108.502184}, {"type": "node", "id": 5996121233, "lat": 45.7818278, "lon": -108.5017564, "tags": {"amenity": "cafe", "cuisine": "coffee_shop", "internet_access": "wlan", "name": "The Annex", "outdoor_seating": "yes", "smoking": "no"}}, {"type": "node", "id": 5996121234, "lat": 45.7817429, "lon": -108.5019406, "tags": {"amenity": "restaurant", "cuisine": "american", "name": "The Field House", "outdoor_seating": "yes", "smoking": "no"}}, {"type": "node", "id": 5996122445, "lat": 45.7819468, "lon": -108.5015063, "tags": {"shop": "interior_decoration"}}, {"type": "node", "id": 5996270134, "lat": 45.7830111, "lon": -108.5016064, "tags": {"amenity": "restaurant", "cuisine": "cajun", "name": "Cafe Zydeco", "outdoor_seating": "no", "smoking": "no"}}, {"type": "node", "id": 5996270135, "lat": 45.7829735, "lon": -108.5016857, "tags": {"name": "Toucan", "shop": "art"}}, {"type": "node", "id": 5996270175, "lat": 45.7835115, "lon": -108.5032443, "tags": {"amenity": "cafe", "cuisine": "breakfast;regional", "name": "Stella's Bakery"}}, {"type": "node", "id": 5996423334, "lat": 45.7822831, "lon": -108.5057227, "tags": {"amenity": "bar", "name": "Crystal Lounge"}}, {"type": "node", "id": 5996423364, "lat": 45.7827851, "lon": -108.5061985, "tags": {"amenity": "restaurant", "cuisine": "regional", "name": "Bin 119", "outdoor_seating": "yes", "smoking": "no"}}, {"type": "node", "id": 5996522437, "lat": 45.782292, "lon": -108.509342, "tags": {"mapillary": "473487277263984", "name": "Peter Yegen, Jr. Realtors", "office": "insurance", "source": "mapillary"}}, {"type": "node", "id": 5996548763, "lat": 45.7870949, "lon": -108.5082209}, {"type": "node", "id": 5996548764, "lat": 45.7870247, "lon": -108.5081542}, {"type": "node", "id": 5996548765, "lat": 45.7869497, "lon": -108.5083165}, {"type": "node", "id": 5996548766, "lat": 45.7870199, "lon": -108.5083832}, {"type": "node", "id": 5996588908, "lat": 45.7852022, "lon": -108.506609, "tags": {"name": "Masterlube", "service:vehicle:inspection": "yes", "service:vehicle:oil_change": "yes", "shop": "car_repair"}}, {"type": "node", "id": 5996818886, "lat": 45.7808844, "lon": -108.5086705, "tags": {"amenity": "restaurant", "cuisine": "pizza", "name": "Guido\u2019s", "outdoor_seating": "no", "smoking": "no"}}, {"type": "node", "id": 5998631652, "lat": 45.7822676, "lon": -108.5061358, "tags": {"amenity": "restaurant", "cuisine": "american", "name": "Stacked"}}, {"type": "node", "id": 5998631654, "lat": 45.7823681, "lon": -108.5055662, "tags": {"name": "Stogie\u2019s", "shop": "tobacco"}}, {"type": "node", "id": 5998631655, "lat": 45.7820039, "lon": -108.5063531, "tags": {"amenity": "restaurant", "cuisine": "sandwich", "delivery": "no", "name": "Rocket", "outdoor_seating": "no", "smoking": "no", "takeaway": "yes", "wheelchair": "yes"}}, {"type": "node", "id": 5998631656, "lat": 45.7814367, "lon": -108.5084838, "tags": {"amenity": "restaurant", "check_date": "2025-06-27", "cuisine": "mexican", "name": "La Tinga", "payment:cash": "yes", "payment:credit_cards": "yes", "payment:debit_cards": "yes", "wheelchair": "yes"}}, {"type": "node", "id": 5998631659, "lat": 45.7820693, "lon": -108.506197, "tags": {"addr:city": "Billings", "addr:housenumber": "2805", "addr:postcode": "59101", "addr:state": "MT", "addr:street": "1st Avenue North", "email": "lefournil@icloud.com", "name": "Le Fournil", "opening_hours": "Tu-Fr 11:00-18:00; Sa 09:00-14:00", "payment:cash": "yes", "payment:credit_cards": "yes", "payment:debit_cards": "yes", "payment:mastercard": "yes", "payment:visa": "yes", "phone": "+1-406-850-8586", "shop": "bakery", "website": "https://www.facebook.com/LeFournilBillings/", "wheelchair": "yes"}}, {"type": "node", "id": 5999149220, "lat": 45.7833416, "lon": -108.5009337, "tags": {"amenity": "restaurant", "cuisine": "italian", "name": "Cafe Italia"}}, {"type": "node", "id": 5999149222, "lat": 45.7834408, "lon": -108.5007274, "tags": {"name": "Oxford Antiques", "shop": "antiques"}}, {"type": "node", "id": 5999149223, "lat": 45.783505, "lon": -108.5005939, "tags": {"name": "Computers Unlimited", "shop": "computer"}}, {"type": "node", "id": 6010980763, "lat": 45.7828227, "lon": -108.5020038, "tags": {"cuisine": "russian", "name": "Veronika\u2019s Pastry Shop", "shop": "bakery"}}, {"type": "node", "id": 6010980764, "lat": 45.7828402, "lon": -108.5019669, "tags": {"name": "JP\u2019s Hair Studio", "shop": "hairdresser"}}, {"type": "node", "id": 6010980768, "lat": 45.7827419, "lon": -108.5021744, "tags": {"name": "Penelope Strong", "office": "lawyer"}}, {"type": "node", "id": 6010980769, "lat": 45.7827968, "lon": -108.5020585, "tags": {"amenity": "restaurant", "name": "Lilac"}}, {"type": "node", "id": 6010980770, "lat": 45.7828612, "lon": -108.5019227, "tags": {"name": "Mann Mortgage", "office": "financial"}}, {"type": "node", "id": 6010980772, "lat": 45.7827111, "lon": -108.5022393, "tags": {"amenity": "restaurant", "brand": "Dickey's Barbecue Pit", "brand:wikidata": "Q19880747", "cuisine": "barbecue", "name": "Dickey's Barbecue Pit", "outdoor_seating": "no", "smoking": "no"}}, {"type": "node", "id": 6011285408, "lat": 45.7842087, "lon": -108.4992258, "tags": {"shop": "photo"}}, {"type": "node", "id": 6011285410, "lat": 45.7842402, "lon": -108.4992543, "tags": {"office": "lawyer"}}, {"type": "node", "id": 6011349848, "lat": 45.78397, "lon": -108.5027359, "tags": {"name": "Edam\u2019s", "shop": "tyres"}}, {"type": "node", "id": 6011349849, "lat": 45.7865874, "lon": -108.4996391, "tags": {"amenity": "cafe", "cuisine": "regional", "name": "Hog Wild Cafe"}}, {"type": "node", "id": 6011349850, "lat": 45.7892203, "lon": -108.49674, "tags": {"addr:city": "Billings", "addr:housenumber": "304", "addr:state": "MT", "addr:street": "North 19th Street", "amenity": "restaurant", "cuisine": "indian", "diet:vegan": "yes", "diet:vegetarian": "yes", "name": "Mirch Masala", "opening_hours": "Tu-Sa 11:00-14:00,17:00-19:30", "outdoor_seating": "no", "phone": "+1 406-589-4289", "smoking": "no", "takeaway": "yes", "website": "https://mirchmasalabillings.com/", "wheelchair": "yes"}}, {"type": "node", "id": 6011349853, "lat": 45.7916551, "lon": -108.4894142, "tags": {"name": "Mr. Thrifty Foods", "shop": "supermarket"}}, {"type": "node", "id": 6011349854, "lat": 45.7916682, "lon": -108.4902065, "tags": {"name": "Shipton\u2019s Big R", "shop": "agrarian", "wheelchair": "yes"}}, {"type": "node", "id": 6021382390, "lat": 45.7809878, "lon": -108.506998, "tags": {"addr:city": "Billings", "addr:housenumber": "14", "addr:postcode": "59101", "addr:state": "MT", "addr:street": "N 29th St", "addr:unit": "#101", "name": "Beartooth Computers", "office": "it", "opening_hours": "Mo-Fr 09:00-17:00", "payment:cash": "yes", "payment:cheque": "yes", "payment:discover_card": "yes", "payment:mastercard": "yes", "payment:visa": "yes", "phone": "+1 406-256-9353", "website": "http://www.beartoothcomputers.com"}}, {"type": "node", "id": 6025949426, "lat": 45.7818863, "lon": -108.5040034, "tags": {"amenity": "restaurant", "cuisine": "asian", "name": "Wild Ginger", "outdoor_seating": "yes", "smoking": "no"}}, {"type": "node", "id": 6026230607, "lat": 45.783202, "lon": -108.5070787, "tags": {"name": "D.A. Davidson", "office": "financial"}}, {"type": "node", "id": 6026230608, "lat": 45.7833897, "lon": -108.5072625, "tags": {"amenity": "restaurant", "cuisine": "thai", "name": "Imperial Thai"}}, {"type": "node", "id": 6026230609, "lat": 45.7834809, "lon": -108.5073772, "tags": {"amenity": "bar", "brewery": "yes", "name": "Daisy Duke's", "outdoor_seating": "yes", "smoking": "outside"}}, {"type": "node", "id": 6026230610, "lat": 45.7835986, "lon": -108.5075002, "tags": {"amenity": "cafe", "cuisine": "coffee_shop", "name": "House of Books"}}, {"type": "node", "id": 6032130402, "lat": 45.7843343, "lon": -108.540009, "tags": {"brand": "Sherwin-Williams", "brand:wikidata": "Q48881", "name": "Sherwin-Williams", "shop": "paint"}}, {"type": "node", "id": 6032130409, "lat": 45.7837195, "lon": -108.5396983, "tags": {"name": "Eckroth Music", "shop": "musical_instrument"}}, {"type": "node", "id": 6032130410, "lat": 45.7838488, "lon": -108.5390255}, {"type": "node", "id": 6032130411, "lat": 45.7838488, "lon": -108.5390497}, {"type": "node", "id": 6032130412, "lat": 45.7838219, "lon": -108.5390497}, {"type": "node", "id": 6032130413, "lat": 45.7838219, "lon": -108.5390178}, {"type": "node", "id": 6032130524, "lat": 45.7843269, "lon": -108.5371046}, {"type": "node", "id": 6032130525, "lat": 45.7843268, "lon": -108.5371248}, {"type": "node", "id": 6032130526, "lat": 45.7843879, "lon": -108.5371252}, {"type": "node", "id": 6032130527, "lat": 45.784388, "lon": -108.537105}, {"type": "node", "id": 6032130528, "lat": 45.7842598, "lon": -108.536952}, {"type": "node", "id": 6032130534, "lat": 45.7842594, "lon": -108.5370883}, {"type": "node", "id": 6032130554, "lat": 45.7842908, "lon": -108.5392376, "tags": {"name": "A & L Floral", "shop": "florist"}}, {"type": "node", "id": 6032130555, "lat": 45.7843954, "lon": -108.5393247, "tags": {"name": "Treasure State Aquariums", "shop": "pet"}}, {"type": "node", "id": 6032130561, "lat": 45.7845061, "lon": -108.5351393}, {"type": "node", "id": 6032130562, "lat": 45.7845056, "lon": -108.5355208}, {"type": "node", "id": 6032130563, "lat": 45.7844107, "lon": -108.5355206}, {"type": "node", "id": 6032130564, "lat": 45.7844111, "lon": -108.5352315}, {"type": "node", "id": 6032130565, "lat": 45.7844771, "lon": -108.5352317}, {"type": "node", "id": 6032130566, "lat": 45.7844773, "lon": -108.535139}, {"type": "node", "id": 6032130722, "lat": 45.7843323, "lon": -108.5333421}, {"type": "node", "id": 6032130723, "lat": 45.7843321, "lon": -108.5333658}, {"type": "node", "id": 6032130724, "lat": 45.7842587, "lon": -108.5333648}, {"type": "node", "id": 6032130725, "lat": 45.7842571, "lon": -108.5336087}, {"type": "node", "id": 6032130726, "lat": 45.7843734, "lon": -108.5336103}, {"type": "node", "id": 6032130727, "lat": 45.7843739, "lon": -108.5335203}, {"type": "node", "id": 6032130728, "lat": 45.7843151, "lon": -108.5335195}, {"type": "node", "id": 6032130729, "lat": 45.7843155, "lon": -108.5334627}, {"type": "node", "id": 6032130730, "lat": 45.7843717, "lon": -108.5334635}, {"type": "node", "id": 6032130731, "lat": 45.7843724, "lon": -108.533342}, {"type": "node", "id": 6032130744, "lat": 45.7843608, "lon": -108.532567, "tags": {"name": "Shear Blessings Salon", "shop": "hairdresser"}}, {"type": "node", "id": 6042583694, "lat": 45.7814015, "lon": -108.5042241, "tags": {"addr:housenumber": "2718", "addr:street": "Montana Avenue", "name": "Rabo AgriFinance", "office": "financial"}}, {"type": "node", "id": 6042583695, "lat": 45.7815174, "lon": -108.5040133, "tags": {"name": "PacificSource Health Plans", "office": "insurance"}}, {"type": "node", "id": 6042583696, "lat": 45.7815015, "lon": -108.5047885, "tags": {"addr:housenumber": "2737", "addr:street": "Montana Avenue", "name": "First Montana Title", "office": "financial"}}, {"type": "node", "id": 6042583697, "lat": 45.7816296, "lon": -108.5045453, "tags": {"addr:housenumber": "2725", "addr:street": "Montana Avenue", "name": "American Real Estate", "office": "estate_agent"}}, {"type": "node", "id": 6042583698, "lat": 45.7817668, "lon": -108.5042456, "tags": {"addr:housenumber": "2719", "addr:street": "Montana Avenue", "name": "Barbiere", "shop": "hairdresser"}}, {"type": "node", "id": 6042583700, "lat": 45.7813275, "lon": -108.5043613, "tags": {"addr:housenumber": "2718", "addr:street": "Montana Avenue", "name": "Stewart Title", "office": "financial"}}, {"type": "node", "id": 6042584114, "lat": 45.7811026, "lon": -108.5068224, "tags": {"amenity": "restaurant", "cuisine": "greek", "name": "The Athenian"}}, {"type": "node", "id": 6042584115, "lat": 45.7809142, "lon": -108.5066614, "tags": {"name": "Billings Army Navy Surplus", "shop": "outdoor"}}, {"type": "node", "id": 6042584118, "lat": 45.7810198, "lon": -108.5076951, "tags": {"name": "Billings Best Barbers", "shop": "hairdresser"}}, {"type": "node", "id": 6042584120, "lat": 45.7810536, "lon": -108.5076268, "tags": {"amenity": "restaurant", "cuisine": "thai", "name": "Cham Thai Cuisine"}}, {"type": "node", "id": 6042584122, "lat": 45.7815083, "lon": -108.5073521, "tags": {"name": "Yesteryears Antique Mall", "shop": "antiques"}}, {"type": "node", "id": 6042584124, "lat": 45.7820598, "lon": -108.5073022, "tags": {"addr:housenumber": "115", "addr:street": "North 29th Street", "amenity": "restaurant", "brewery": "yes", "check_date": "2023-01-15", "cuisine": "breakfast;brunch;coffee;sandwich", "internet_access": "wlan", "internet_access:fee": "no", "microbrewery": "no", "name": "The Sassy Biscuit Co.", "outdoor_seating": "no", "payment:discover_card": "yes", "payment:mastercard": "yes", "payment:visa": "yes", "phone": "+1 406-672-5199", "reservation": "no", "smoking": "no", "source": "survey;local knowledge", "takeaway": "yes", "website": "https://thesassybiscuit.com", "wheelchair": "yes"}}, {"type": "node", "id": 6042584125, "lat": 45.7811496, "lon": -108.5068796, "tags": {"office": "lawyer"}}, {"type": "node", "id": 6042584126, "lat": 45.7810372, "lon": -108.5067573, "tags": {"name": "Beartooth Computers", "shop": "computer"}}, {"type": "node", "id": 6042584127, "lat": 45.7812435, "lon": -108.508776, "tags": {"name": "Creative Solutions", "shop": "photo"}}, {"type": "node", "id": 6042584128, "lat": 45.7809153, "lon": -108.5059498, "tags": {"name": "Western Pawn", "shop": "pawnbroker"}}, {"type": "node", "id": 6042584129, "lat": 45.7813292, "lon": -108.5081301, "tags": {"name": "Swank Enterprises", "office": "yes"}}, {"type": "node", "id": 6042584131, "lat": 45.7810797, "lon": -108.5075749, "tags": {"name": "Black Dagger", "shop": "tattoo"}}, {"type": "node", "id": 6042584133, "lat": 45.7811276, "lon": -108.5074342, "tags": {"amenity": "restaurant", "cuisine": "sandwich", "name": "Lisa\u2019s Sandwich Den"}}, {"type": "node", "id": 6042584134, "lat": 45.7813069, "lon": -108.5070478, "tags": {"name": "Guccion\u00e9", "shop": "hairdresser"}}, {"type": "node", "id": 6042584135, "lat": 45.7821197, "lon": -108.5073584, "tags": {"name": "Brockel\u2019s Chocolates", "shop": "chocolate"}}, {"type": "node", "id": 6042584136, "lat": 45.7813641, "lon": -108.5066194, "tags": {"amenity": "restaurant", "cuisine": "mexican", "name": "Guadalajara"}}, {"type": "node", "id": 6042614942, "lat": 45.7818217, "lon": -108.5057525, "tags": {"amenity": "restaurant", "cuisine": "burger", "name": "The Burger Dive"}}, {"type": "node", "id": 6043066638, "lat": 45.7822242, "lon": -108.5025724, "tags": {"name": "Clark Marten Photography", "shop": "photo"}}, {"type": "node", "id": 6043440468, "lat": 45.7853423, "lon": -108.5019767, "tags": {"name": "Firehouse Bakery", "shop": "bakery"}}, {"type": "node", "id": 6044847860, "lat": 45.7853577, "lon": -108.5075277, "tags": {"name": "Billings Gazette", "office": "newspaper"}}, {"type": "node", "id": 6044849697, "lat": 45.7849155, "lon": -108.5070438}, {"type": "node", "id": 6044849698, "lat": 45.7849987, "lon": -108.5071243}, {"type": "node", "id": 6044849699, "lat": 45.7848564, "lon": -108.5074271}, {"type": "node", "id": 6044849700, "lat": 45.7847719, "lon": -108.5073454}, {"type": "node", "id": 6138385051, "lat": 45.7893276, "lon": -108.5105255, "tags": {"name": "The Mail Drop", "shop": "copyshop"}}, {"type": "node", "id": 6138385054, "lat": 45.7889344, "lon": -108.5104281, "tags": {"name": "Home Oxygen & Medical Equipment", "shop": "medical_supply"}}, {"type": "node", "id": 6138385055, "lat": 45.7891757, "lon": -108.510433, "tags": {"brand": "FedEx Office", "brand:wikidata": "Q474379", "name": "FedEx Office", "shop": "copyshop"}}, {"type": "node", "id": 6138385056, "lat": 45.789778, "lon": -108.5104032, "tags": {"amenity": "restaurant", "brand": "Perkins", "brand:wikidata": "Q7169056", "cuisine": "american", "name": "Perkins", "official_name": "Perkins Restaurant and Bakery"}}, {"type": "node", "id": 6138449970, "lat": 45.7830217, "lon": -108.5028165, "tags": {"amenity": "restaurant", "cuisine": "mexican", "name": "Don Luis"}}, {"type": "node", "id": 6160651887, "lat": 45.7820949, "lon": -108.505497, "tags": {"amenity": "restaurant", "cuisine": "breakfast", "name": "Bernie's Diner", "opening_hours": "Mo-Su 06:00-15:00"}}, {"type": "node", "id": 6160651888, "lat": 45.7824468, "lon": -108.505873, "tags": {"name": "Aspinwall", "shop": "outdoor"}}, {"type": "node", "id": 6160651889, "lat": 45.7822299, "lon": -108.5052137, "tags": {"amenity": "restaurant", "cuisine": "american", "name": "TEN"}}, {"type": "node", "id": 6160651890, "lat": 45.782337, "lon": -108.5049878, "tags": {"amenity": "restaurant", "cuisine": "international", "name": "Well Pared"}}, {"type": "node", "id": 6160651891, "lat": 45.7825315, "lon": -108.5046009, "tags": {"amenity": "restaurant", "cuisine": "american", "name": "Walkers Grill"}}, {"type": "node", "id": 6160651892, "lat": 45.7827489, "lon": -108.5048133, "tags": {"addr:city": "Billings", "addr:housenumber": "2701", "addr:postcode": "59101", "addr:street": "1st Avenue North", "amenity": "restaurant", "cuisine": "steak_house", "name": "Jake's Saloon", "phone": "+1-406-259-9375", "toilets:wheelchair": "no", "website": "https://www.jakesbillings.com/", "wheelchair": "no", "wheelchair:description": "Toilet is either up or down a flight of stairs (Women's and Men's);Bar is all hi-top seating"}}, {"type": "node", "id": 6160651894, "lat": 45.7826603, "lon": -108.5042234, "tags": {"amenity": "cafe", "brand": "Starbucks", "brand:wikidata": "Q37158", "cuisine": "coffee_shop", "internet_access": "wlan", "name": "Starbucks", "official_name": "Starbucks Coffee", "takeaway": "yes"}}, {"type": "node", "id": 6160651895, "lat": 45.7831863, "lon": -108.5057867, "tags": {"amenity": "cafe", "cuisine": "coffee_shop", "name": "Ebon Coffee Collective"}}, {"type": "node", "id": 6160651897, "lat": 45.7829095, "lon": -108.50632, "tags": {"clothes": "workwear;denim;hats;traditional;women;men", "name": "Lou Taubert Ranch Outfitters", "shop": "clothes"}}, {"type": "node", "id": 6279363712, "lat": 45.7884881, "lon": -108.4929102, "tags": {"amenity": "cafe", "cuisine": "american", "name": "Lewis and Clark Inn Cafe"}}, {"type": "node", "id": 6279363714, "lat": 45.7886037, "lon": -108.4914652, "tags": {"name": "Auto Acres", "shop": "car"}}, {"type": "node", "id": 6463084325, "lat": 45.7838683, "lon": -108.5069699, "tags": {"addr:city": "Billings", "addr:housenumber": "2720", "addr:postcode": "59101", "addr:state": "MT", "addr:street": "3rd Avenue North", "name": "Global Village", "opening_hours": "Mo-Fr 10:00-17:30, Sa 10:00-17:00", "operator": "Global Village Billings", "phone": "+1 406-259-3024", "shop": "gift", "website": "https://globalvillagebillings.org/"}}, {"type": "node", "id": 6701128085, "lat": 45.788494, "lon": -108.5185556, "tags": {"addr:housenumber": "3115", "addr:street": "10th Avenue North", "amenity": "cafe", "name": "Harper & Madison"}}, {"type": "node", "id": 6860655720, "lat": 45.7919237, "lon": -108.5133161}, {"type": "node", "id": 6860655721, "lat": 45.7918596, "lon": -108.5132543}, {"type": "node", "id": 6860655722, "lat": 45.7919712, "lon": -108.5130164}, {"type": "node", "id": 6860655723, "lat": 45.7920308, "lon": -108.5130739}, {"type": "node", "id": 6860655724, "lat": 45.7919755, "lon": -108.5131916}, {"type": "node", "id": 6860655725, "lat": 45.7919934, "lon": -108.5132089}, {"type": "node", "id": 6860655726, "lat": 45.7919776, "lon": -108.5132426}, {"type": "node", "id": 6860655727, "lat": 45.7919642, "lon": -108.5132297}, {"type": "node", "id": 7451048462, "lat": 45.7953298, "lon": -108.5166278, "tags": {"addr:city": "Billings", "addr:housenumber": "1233", "addr:postcode": "59101", "addr:state": "MT", "addr:street": "North 27th Street", "amenity": "restaurant", "bar": "yes", "cuisine": "pub", "name": "406 KItchen and Taproom", "opening_hours": "10:00-24:00", "phone": "+1 406-969-2560"}}, {"type": "node", "id": 7859573722, "lat": 45.7861554, "lon": -108.5124064}, {"type": "node", "id": 7859573723, "lat": 45.7861924, "lon": -108.5123114}, {"type": "node", "id": 7859573724, "lat": 45.7862914, "lon": -108.5123914}, {"type": "node", "id": 7859573725, "lat": 45.7862544, "lon": -108.5124864}, {"type": "node", "id": 7859690389, "lat": 45.795328, "lon": -108.5167709}, {"type": "node", "id": 7859690390, "lat": 45.795207, "lon": -108.5166532}, {"type": "node", "id": 7859690391, "lat": 45.795404, "lon": -108.5162363}, {"type": "node", "id": 7859690392, "lat": 45.7955251, "lon": -108.516354}, {"type": "node", "id": 7863033988, "lat": 45.794419, "lon": -108.493046}, {"type": "node", "id": 7863033989, "lat": 45.7943702, "lon": -108.4930041}, {"type": "node", "id": 7863033990, "lat": 45.7943579, "lon": -108.4930335}, {"type": "node", "id": 7863033991, "lat": 45.7941956, "lon": -108.4928942}, {"type": "node", "id": 7863033992, "lat": 45.7942531, "lon": -108.4927565}, {"type": "node", "id": 7863033993, "lat": 45.7944642, "lon": -108.4929377}, {"type": "node", "id": 7874551254, "lat": 45.783243, "lon": -108.5108677, "tags": {"amenity": "restaurant", "capacity": "75-90", "cuisine": "asian", "name": "Mia's Wok", "opening_hours": "Mo-Fr 10:00-13:00,17:00-20:00"}}, {"type": "node", "id": 7874551255, "lat": 45.7830975, "lon": -108.5107953, "tags": {"name": "Acme Salon & Spa", "shop": "beauty"}}, {"type": "node", "id": 7874551256, "lat": 45.7837688, "lon": -108.5096768, "tags": {"name": "US Bureau of Reclamation", "office": "government"}}, {"type": "node", "id": 7874551257, "lat": 45.78358, "lon": -108.5095209, "tags": {"name": "US Social Security Administration", "office": "government"}}, {"type": "node", "id": 7874564602, "lat": 45.7851996, "lon": -108.5080493, "tags": {"name": "Billings Gazette", "office": "newspaper"}}, {"type": "node", "id": 7874564603, "lat": 45.7859665, "lon": -108.5104155, "tags": {"amenity": "cafe", "name": "Mountain Mud Espresso"}}, {"type": "node", "id": 7874564605, "lat": 45.7841725, "lon": -108.5137365, "tags": {"name": "Merrill Lynch Wealth Management", "office": "financial"}}, {"type": "node", "id": 7874564606, "lat": 45.7835988, "lon": -108.5131161, "tags": {"name": "Crowley Fleck", "office": "lawyer"}}, {"type": "node", "id": 7874564607, "lat": 45.782884, "lon": -108.5126711, "tags": {"name": "Pearson Professional Center", "office": "yes"}}, {"type": "node", "id": 7874564609, "lat": 45.7826145, "lon": -108.5077193, "tags": {"name": "Desmonds Inc", "shop": "clothes"}}, {"type": "node", "id": 7874564610, "lat": 45.7824176, "lon": -108.5081744, "tags": {"name": "Gypsy Wind", "shop": "clothes"}}, {"type": "node", "id": 7874564611, "lat": 45.7817559, "lon": -108.5087241, "tags": {"amenity": "restaurant", "cuisine": "asian", "name": "Shanghai Village Downtown"}}, {"type": "node", "id": 7874564612, "lat": 45.7833025, "lon": -108.5066622, "tags": {"name": "Lil Market Groceries", "shop": "supermarket"}}, {"type": "node", "id": 7874564613, "lat": 45.7839528, "lon": -108.5068044, "tags": {"amenity": "restaurant", "name": "Soup and Such"}}, {"type": "node", "id": 7874564614, "lat": 45.7837755, "lon": -108.5071544, "tags": {"amenity": "restaurant", "name": "Velvet"}}, {"type": "node", "id": 7951641198, "lat": 45.783083, "lon": -108.509338, "tags": {"addr:city": "Billings", "addr:housenumber": "2913", "addr:postcode": "59101", "addr:state": "MT", "addr:street": "3rd Avenue North", "name": "Eisle's Custom Footwear", "opening_hours": "Mo-Fr 08:00-17:00", "operator": "Kevin Eisle", "shop": "shoe_repair"}}, {"type": "node", "id": 7951641199, "lat": 45.7831644, "lon": -108.5091621, "tags": {"name": "Hagen Printing Co.", "shop": "copyshop"}}, {"type": "node", "id": 8073555329, "lat": 45.7946967, "lon": -108.5157798}, {"type": "node", "id": 8073555330, "lat": 45.7945446, "lon": -108.5156307}, {"type": "node", "id": 8073555331, "lat": 45.7946054, "lon": -108.5155033}, {"type": "node", "id": 8073555332, "lat": 45.7947574, "lon": -108.5156524}, {"type": "node", "id": 9254689713, "lat": 45.786311, "lon": -108.4976863, "tags": {"name": "DeMint Motor Co.", "shop": "car"}}, {"type": "node", "id": 9254796934, "lat": 45.7782599, "lon": -108.5389105, "tags": {"name": "YWCA Billings", "office": "association"}}, {"type": "node", "id": 9255043303, "lat": 45.7838215, "lon": -108.5284611, "tags": {"name": "Studio 406 Hair & Nail Salon", "shop": "beauty"}}, {"type": "node", "id": 9511097893, "lat": 45.7859988, "lon": -108.4980368, "tags": {"name": "discontent", "shop": "e-cigarette"}}, {"type": "node", "id": 9707656105, "lat": 45.7842691, "lon": -108.5154289, "tags": {"addr:city": "Billings", "addr:housenumber": "3", "addr:postcode": "59101", "addr:state": "MT", "addr:street": "Grand Avenue", "amenity": "restaurant", "cuisine": "soup;salad", "name": "Entree Soup", "phone": "+1 406-702-1747"}}, {"type": "node", "id": 9756180133, "lat": 45.7921974, "lon": -108.485289, "tags": {"addr:city": "Billings", "addr:housenumber": "300", "addr:postcode": "59102", "addr:state": "MT", "addr:street": "S 24th St W", "addr:unit": "E09", "name": "Better Body Fitness", "opening_hours": "Mo-Sa 10:00-21:00,Su 12:00-18:00", "phone": "+1 406-652-4233", "shop": "sports", "sport": "exercise_equipment;treadmills;elliptical;fitness_equipments;personal_trainer", "website": "https://betterbodymontana.com"}}, {"type": "node", "id": 10107514549, "lat": 45.7878718, "lon": -108.4944332, "tags": {"amenity": "bar", "name": "Andy's Bar & Lounge", "not:brand:wikidata": "Q4760327"}}, {"type": "node", "id": 10569200419, "lat": 45.7941018, "lon": -108.5340199, "tags": {"amenity": "restaurant", "check_date": "2023-01-19", "cuisine": "american;regional;sandwich;seafood;salad", "internet_access": "wlan", "internet_access:fee": "customers", "name": "Holanda Clubhouse", "payment:mastercard": "yes", "payment:visa": "yes", "wheelchair": "yes"}}, {"type": "node", "id": 11402082167, "lat": 45.795583, "lon": -108.4915455}, {"type": "node", "id": 11402082168, "lat": 45.7955519, "lon": -108.4915145}, {"type": "node", "id": 11402360369, "lat": 45.7955813, "lon": -108.4914525}, {"type": "node", "id": 11402360370, "lat": 45.7956107, "lon": -108.4914798}, {"type": "node", "id": 11599216327, "lat": 45.7896948, "lon": -108.503489, "tags": {"addr:city": "Billings", "addr:housenumber": "2215", "addr:postcode": "59101", "addr:state": "MT", "addr:street": "6th Avenue North", "contact:facebook": "https://facebook.com/406KEYS", "name": "406 Keys", "opening_hours": "Mo-Fr 09:00-17:00", "operator": "406 Keys", "payment:cash": "yes", "payment:cheque": "yes", "payment:contactless": "yes", "payment:credit_cards": "yes", "phone": "+1-406-252-8800", "shop": "locksmith", "website": "http://406KEYS.com"}}, {"type": "node", "id": 11663388827, "lat": 45.7827031, "lon": -108.5074688, "tags": {"addr:housenumber": "2815", "addr:street": "2nd Avenue North", "check_date": "2024-02-25", "name": "The Global Village", "shop": "clothes"}}, {"type": "node", "id": 11663460091, "lat": 45.7825217, "lon": -108.506411, "tags": {"amenity": "bar", "check_date": "2024-02-25", "name": "Doc Harper's"}}, {"type": "node", "id": 11663460092, "lat": 45.7824697, "lon": -108.5063541, "tags": {"check_date": "2024-02-25", "name": "Belle En Blanc", "shop": "clothes"}}, {"type": "node", "id": 11663460093, "lat": 45.7824104, "lon": -108.506303, "tags": {"check_date": "2024-02-25", "name": "Le Macaron", "shop": "pastry"}}, {"type": "node", "id": 11663466760, "lat": 45.7826272, "lon": -108.5064876, "tags": {"check_date": "2024-02-25", "name": "Paris Montana", "shop": "clothes"}}, {"type": "node", "id": 11663466761, "lat": 45.7825892, "lon": -108.5064534, "tags": {"check_date": "2024-02-25", "name": "Rebels & Razors", "shop": "hairdresser"}}, {"type": "node", "id": 12691456203, "lat": 45.7816593, "lon": -108.5063655, "tags": {"addr:city": "Billings", "addr:housenumber": "2816", "addr:postcode": "59101", "addr:state": "MT", "addr:street": "1st Avenue North", "name": "406 Glass & Vape Downtown", "opening_hours": "Mo-Sa 10:00-20:00; Su off", "phone": "+1 406-647-8389", "shop": "e-cigarette"}}, {"type": "node", "id": 12957232476, "lat": 45.7811156, "lon": -108.5094774, "tags": {"amenity": "cafe", "check_date": "2025-06-27", "name": "Bearded Bean Coffee"}}, {"type": "node", "id": 12957252333, "lat": 45.7820136, "lon": -108.5090241, "tags": {"check_date": "2025-06-27", "name": "Rebel River Creative", "office": "consulting"}}, {"type": "node", "id": 13081363472, "lat": 45.7923401, "lon": -108.4902079, "tags": {"contact:phone": "+1 406 896-1814", "contact:website": "https://shiptonsbigr.com/power-equipment-service-center", "description": "Provides after-sales service for the products they sell. Performs repairs and tune-ups on most ride-on and handheld power equipment. Shipton\u2019s Big R Service Center also offers other small engine repairs and tune-ups.", "description:fr": "Assure le service apr\u00e8s-vente des produits qu'il vend. Effectue des r\u00e9parations et des r\u00e9glages sur la plupart des \u00e9quipements motoris\u00e9s autoport\u00e9s et portatifs. Le centre de service Shipton's Big R propose \u00e9galement d'autres services de r\u00e9paration et de", "name": "Shipton's Big R", "repair": "yes", "shop": "garden_machinery"}}, {"type": "node", "id": 13226781335, "lat": 45.782039, "lon": -108.5062583, "tags": {"addr:city": "Billings", "addr:housenumber": "2807", "addr:postcode": "59101-2072", "addr:state": "MT", "addr:street": "1st Avenue North", "contact:facebook": "https://www.facebook.com/KiblerandKirch/", "contact:instagram": "https://www.instagram.com/kiblerandkirch/", "name": "Kibler & Kirch", "phone": "+14064462226", "shop": "interior_decoration", "website": "https://kiblerandkirch.com/"}}, {"type": "node", "id": 13307479998, "lat": 45.783429, "lon": -108.506505, "tags": {"addr:city": "Billings", "addr:housenumber": "207", "addr:postcode": "59101", "addr:state": "MT", "addr:street": "North 28th Street", "addr:unit": "CO", "amenity": "cafe", "check_date": "2025-11-16", "currency:XBT": "yes", "name": "Earthbound Cafe", "payment:lightning": "yes", "payment:lightning:operator": "square", "payment:lightning_contactless": "no", "payment:onchain": "no"}}, {"type": "node", "id": 13346997279, "lat": 45.792164, "lon": -108.4897192, "tags": {"addr:housenumber": "216", "addr:street": "North 14th Street", "name": "Shipton's Big R", "shop": "country_store"}}, {"type": "way", "id": 299685296, "nodes": [3037277145, 3037277148, 3037277147, 3037277146, 3037277144, 3037277143, 3037277145], "tags": {"addr:housenumber": "3220", "addr:state": "MT", "addr:street": "4th Avenue North", "building": "commercial", "name": "American Automobile Association (AAA)", "office": "motor_club", "opening_hours": "Mo-Fr 08:30-17:30", "phone": "+1 406 2487738", "website": "https://www.mountainwest.aaa.com/membership/offices/billings"}}, {"type": "way", "id": 299685307, "nodes": [3037277140, 3037277142, 3037277141, 3037277139, 3037277140], "tags": {"addr:housenumber": "3330", "addr:state": "MT", "addr:street": "4th Avenue North", "building": "retail", "name": "La Mer", "phone": "+1 406 6331131", "shop": "clothes"}}, {"type": "way", "id": 333009418, "nodes": [3401238029, 3401238023, 3401238017, 5996092429, 5996092590, 3401238025, 5996092424, 5996092425, 3401238029], "tags": {"building": "yes", "name": "Liberty and Vine", "shop": "country_store"}}, {"type": "way", "id": 333009419, "nodes": [3401237577, 3401237579, 3401237578, 3401237574, 3401237577], "tags": {"building": "yes", "name": "Public Works Department", "office": "yes"}}, {"type": "way", "id": 416503522, "nodes": [4172474422, 4172474424, 4172474423, 4172474420, 4172474422], "tags": {"addr:city": "Billings", "addr:housenumber": "221", "addr:postcode": "59101", "addr:state": "MT", "addr:street": "North 15th Street", "building": "yes", "name": "Buckaroo Businesses", "phone": "+1-888-955-7673", "shop": "tack"}}, {"type": "way", "id": 562900897, "nodes": [5425634799, 5425634798, 5425634797, 5425634796, 5425634799], "tags": {"brand": "Saint Vincent de Paul Thrift Store", "brand:wikidata": "Q66581837", "building": "yes", "name": "Saint Vincent de Paul Thrift Store", "shop": "charity", "short_name": "SVdP"}}, {"type": "way", "id": 608726455, "nodes": [5766595819, 5766595820, 5766595821, 5766595822, 5996092883, 5996092884, 5996092989, 5996092986, 5996092985, 5766595819], "tags": {"building": "yes", "name": "CTA Architects", "office": "architect"}}, {"type": "way", "id": 608836142, "nodes": [5767426137, 6032130410, 6032130411, 6032130412, 6032130413, 5767426138, 5767426139, 5767426140, 5767426137], "tags": {"addr:city": "Billings", "addr:housenumber": "910", "addr:postcode": "59102", "addr:state": "MT", "addr:street": "Grand Avenue", "amenity": "cafe", "branch": "Billings - Grand and 9th", "brand": "Starbucks", "brand:wikidata": "Q37158", "building": "yes", "cuisine": "coffee_shop", "drive_through": "yes", "name": "Starbucks", "official_name": "Starbucks Coffee", "phone": "+1 406-248-9026", "ref": "1008777", "takeaway": "yes", "website": "https://www.starbucks.com/store-locator/store/1008777/billings-grand-and-9th-910-grand-ave-billings-mt-591023302-us"}}, {"type": "way", "id": 608836143, "nodes": [5767426141, 6032130527, 6032130526, 6032130525, 6032130524, 5767426142, 6032130534, 6032130528, 5767426143, 5767426144, 5767426141], "tags": {"addr:city": "Billings", "addr:housenumber": "819", "addr:postcode": "59102", "addr:state": "MT", "addr:street": "Grand Avenue", "amenity": "cafe", "building": "yes", "cuisine": "coffee_shop", "internet_access": "wlan", "name": "Mazevo", "outdoor_seating": "yes", "smoking": "no", "source": "esri_USDOT_Montana"}}, {"type": "way", "id": 635738448, "nodes": [5996091780, 5996091996, 5996091997, 5996091988, 5996091989, 5996091990, 5996091998, 5996091781, 5996091993, 5996091782, 5996091783, 5996091778, 5996091779, 5996091992, 5996091780], "tags": {"building": "yes", "name": "Ernie's Auto", "shop": "car"}}, {"type": "way", "id": 635738622, "nodes": [5996093720, 5996093708, 5996093709, 5996093710, 5996093711, 5996093712, 5996093713, 5996093714, 5996093715, 5996093716, 5996093717, 5996093718, 5996093719, 5996093720], "tags": {"addr:city": "Billings", "addr:housenumber": "2502", "addr:postcode": "59101", "addr:state": "MT", "addr:street": "1st Avenue North", "amenity": "bar", "building": "yes", "name": "The Pub Station", "outdoor_seating": "no", "smoking": "no"}}, {"type": "way", "id": 635798057, "nodes": [5996548763, 5996548764, 5996548765, 5996548766, 5996548763], "tags": {"addr:city": "Billings", "addr:housenumber": "2620", "addr:postcode": "59101", "addr:state": "MT", "addr:street": "6th Avenue North", "building": "yes", "name": "Holiday Stationstores", "shop": "convenience"}}, {"type": "way", "id": 640310289, "nodes": [6032130566, 6032130561, 6032130562, 6032130563, 6032130564, 6032130565, 6032130566], "tags": {"addr:city": "Billings", "addr:housenumber": "745", "addr:postcode": "59101", "addr:state": "MT", "addr:street": "Grand Avenue", "brand": "Holiday", "brand:wikidata": "Q5880490", "building": "yes", "name": "Holiday", "operator": "Holiday", "shop": "convenience", "source": "esri_USDOT_Montana"}}, {"type": "way", "id": 640310298, "nodes": [6032130731, 6032130722, 6032130723, 6032130724, 6032130725, 6032130726, 6032130727, 6032130728, 6032130729, 6032130730, 6032130731], "tags": {"building": "yes", "name": "Camera Cottage", "shop": "photo"}}, {"type": "way", "id": 641983329, "nodes": [6044849697, 6044849698, 6044849699, 6044849700, 6044849697], "tags": {"brand": "Midas", "brand:wikidata": "Q3312613", "building": "yes", "name": "Midas", "shop": "car_repair"}}, {"type": "way", "id": 732654491, "nodes": [6860655720, 6860655721, 6860655722, 6860655723, 6860655724, 6860655725, 6860655726, 6860655727, 6860655720], "tags": {"addr:city": "Billings", "addr:housenumber": "1017", "addr:postcode": "59101", "addr:state": "MT", "addr:street": "North 27th Street", "amenity": "cafe", "branch": "10th Avenue and 27th St - Billing", "brand": "Starbucks", "brand:wikidata": "Q37158", "building": "yes", "cuisine": "coffee_shop", "name": "Starbucks", "official_name": "Starbucks Coffee", "outdoor_seating": "yes", "phone": "+1 406-245-6800", "ref": "1025666", "takeaway": "yes", "website": "https://www.starbucks.com/store-locator/store/1025666/10th-ave-and-27th-st-billing-1017-n-27th-st-billings-mt-591010711-us"}}, {"type": "way", "id": 842488512, "nodes": [7859573722, 7859573723, 7859573724, 7859573725, 7859573722], "tags": {"amenity": "restaurant", "building": "yes", "name": "Juliano\u2019s Restaurant", "reservation": "yes", "source": "microsoft/BuildingFootprints"}}, {"type": "way", "id": 842498913, "nodes": [7859690389, 7859690390, 7859690391, 7859690392, 7859690389], "tags": {"amenity": "restaurant", "building": "yes", "source": "microsoft/BuildingFootprints"}}, {"type": "way", "id": 842872550, "nodes": [7863033988, 7863033989, 7863033990, 7863033991, 7863033992, 7863033993, 7863033988], "tags": {"addr:city": "Billings", "addr:housenumber": "1321", "addr:postcode": "59101", "addr:state": "MT", "addr:street": "6th Ave N", "amenity": "restaurant", "building": "yes", "name": "Crazy Mary's", "source": "microsoft/BuildingFootprints"}}, {"type": "way", "id": 866171810, "nodes": [8073555329, 8073555330, 8073555331, 8073555332, 8073555329], "tags": {"addr:city": "Billings", "addr:housenumber": "1211", "addr:postcode": "59101", "addr:state": "MT", "addr:street": "North 27th Street", "air_conditioning": "yes", "amenity": "cafe", "building": "yes", "building:levels": "1", "cuisine": "coffee_shop;pastry", "internet_access": "wlan", "internet_access:fee": "customers", "name": "City Brew", "outdoor_seating": "yes", "phone": "+1 406-294-9353", "website": "https://citybrew.com"}}, {"type": "way", "id": 1229582477, "nodes": [11402082167, 11402082168, 11402360369, 11402360370, 11402082167], "tags": {"amenity": "cafe", "building": "yes"}}]}