{"version": 0.6, "generator": "Overpass API 0.7.62.8 e802775f", "osm3s": {"timestamp_osm_base": "2025-12-06T06:10:09Z", "copyright": "The data included in this document is from www.openstreetmap.org. The data is made available under ODbL."}, "elements": [{"type": "node", "id": 4058278408, "lat": 43.5416143, "lon": -116.1544373}, {"type": "node", "id": 4058278412, "lat": 43.5417587, "lon": -116.1543691}, {"type": "node", "id": 4058278414, "lat": 43.5417928, "lon": -116.1545066}, {"type": "node", "id": 4058278425, "lat": 43.542492, "lon": -116.1536913}, {"type": "node", "id": 4058278426, "lat": 43.5424959, "lon": -116.153674}, {"type": "node", "id": 4058278427, "lat": 43.542548, "lon": -116.1534245}, {"type": "node", "id": 4058278428, "lat": 43.5425786, "lon": -116.1572155}, {"type": "node", "id": 4058278429, "lat": 43.5425802, "lon": -116.1579467}, {"type": "node", "id": 4058278430, "lat": 43.5426411, "lon": -116.1529688}, {"type": "node", "id": 4058278431, "lat": 43.5427915, "lon": -116.153878}, {"type": "node", "id": 4058278432, "lat": 43.5428041, "lon": -116.1538193}, {"type": "node", "id": 4058278433, "lat": 43.5428291, "lon": -116.1572145}, {"type": "node", "id": 4058278435, "lat": 43.5429436, "lon": -116.1530864}, {"type": "node", "id": 4058278436, "lat": 43.5429607, "lon": -116.1530028}, {"type": "node", "id": 4058278437, "lat": 43.5430967, "lon": -116.1531169}, {"type": "node", "id": 4058278438, "lat": 43.5431075, "lon": -116.1540011}, {"type": "node", "id": 4058278439, "lat": 43.5431083, "lon": -116.1530602}, {"type": "node", "id": 4058278440, "lat": 43.5431199, "lon": -116.1539474}, {"type": "node", "id": 4058278441, "lat": 43.5431418, "lon": -116.1531709}, {"type": "node", "id": 4058278442, "lat": 43.5431487, "lon": -116.1531371}, {"type": "node", "id": 4058278443, "lat": 43.5431941, "lon": -116.1539771}, {"type": "node", "id": 4058278444, "lat": 43.5432707, "lon": -116.1535835}, {"type": "node", "id": 6328466084, "lat": 43.538699, "lon": -116.1572892}, {"type": "node", "id": 6328466089, "lat": 43.5386956, "lon": -116.155058}, {"type": "node", "id": 6381140127, "lat": 43.5607195, "lon": -116.1897664}, {"type": "node", "id": 6381140128, "lat": 43.5607216, "lon": -116.1893749}, {"type": "node", "id": 6381140129, "lat": 43.561468, "lon": -116.1893826}, {"type": "node", "id": 6381140153, "lat": 43.5609294, "lon": -116.1909798}, {"type": "node", "id": 6381140154, "lat": 43.560929, "lon": -116.1910945}, {"type": "node", "id": 6381140155, "lat": 43.5607676, "lon": -116.1910933}, {"type": "node", "id": 6381140156, "lat": 43.5607691, "lon": -116.1907076}, {"type": "node", "id": 6381140157, "lat": 43.5614189, "lon": -116.1907124}, {"type": "node", "id": 7118365651, "lat": 43.545196, "lon": -116.156496}, {"type": "node", "id": 7118374855, "lat": 43.545224, "lon": -116.156463}, {"type": "node", "id": 7118375561, "lat": 43.545735, "lon": -116.156249}, {"type": "node", "id": 7118376398, "lat": 43.545154, "lon": -116.155836}, {"type": "node", "id": 7118377357, "lat": 43.544964, "lon": -116.15606}, {"type": "node", "id": 7118378018, "lat": 43.54553, "lon": -116.156482}, {"type": "node", "id": 7118378220, "lat": 43.54536, "lon": -116.156682}, {"type": "node", "id": 7118378758, "lat": 43.545235, "lon": -116.155747}, {"type": "node", "id": 7118380641, "lat": 43.545113, "lon": -116.156301}, {"type": "node", "id": 7118381457, "lat": 43.545555, "lon": -116.156522}, {"type": "node", "id": 7118381672, "lat": 43.545091, "lon": -116.156327}, {"type": "node", "id": 7118382094, "lat": 43.54521, "lon": -116.155707}, {"type": "node", "id": 7118382283, "lat": 43.545622, "lon": -116.156443}, {"type": "node", "id": 7118384126, "lat": 43.545132, "lon": -116.155799}, {"type": "node", "id": 7118385770, "lat": 43.5456, "lon": -116.156407}, {"type": "node", "id": 7383352816, "lat": 43.5433413, "lon": -116.1656414}, {"type": "node", "id": 7383352817, "lat": 43.5432867, "lon": -116.1653488}, {"type": "node", "id": 7383352818, "lat": 43.5434638, "lon": -116.1654453}, {"type": "node", "id": 7383352824, "lat": 43.5429729, "lon": -116.1637319}, {"type": "node", "id": 7383352825, "lat": 43.5429096, "lon": -116.1637533}, {"type": "node", "id": 7383352826, "lat": 43.5429874, "lon": -116.1641948}, {"type": "node", "id": 8192391103, "lat": 43.5350753, "lon": -116.1553504}, {"type": "node", "id": 8192391106, "lat": 43.5351004, "lon": -116.1533359}, {"type": "node", "id": 8192391107, "lat": 43.5370358, "lon": -116.1541892}, {"type": "node", "id": 8192391108, "lat": 43.5370876, "lon": -116.1564923}, {"type": "node", "id": 8192391109, "lat": 43.5385419, "lon": -116.1574656}, {"type": "node", "id": 8192405727, "lat": 43.548362, "lon": -116.1591673}, {"type": "node", "id": 8192405728, "lat": 43.5487185, "lon": -116.157871}, {"type": "node", "id": 8192405729, "lat": 43.5486885, "lon": -116.1576783}, {"type": "node", "id": 8331536913, "lat": 43.543051, "lon": -116.1641733}, {"type": "node", "id": 8331575458, "lat": 43.560151, "lon": -116.1666935}, {"type": "node", "id": 8331577803, "lat": 43.5614179, "lon": -116.190983}, {"type": "node", "id": 8331577804, "lat": 43.5608751, "lon": -116.1885672, "tags": {"addr:city": "Boise", "addr:housenumber": "4525", "addr:postcode": "83705", "addr:state": "ID", "addr:street": "South Market Street", "name": "American Construction Supply", "shop": "trade", "trade": "construction", "website": "https://www.americanconstructionsupply.com/location/boise-id/"}}, {"type": "node", "id": 8331577806, "lat": 43.5614659, "lon": -116.189774}, {"type": "node", "id": 8331577807, "lat": 43.5608408, "lon": -116.1916631, "tags": {"addr:city": "Boise", "addr:housenumber": "880", "addr:postcode": "83705", "addr:state": "ID", "addr:street": "West Amity Road", "name": "The Blower Shop", "shop": "car_parts", "website": "https://theblowershop.com/"}}, {"type": "node", "id": 8331642063, "lat": 43.542236, "lon": -116.179415}, {"type": "node", "id": 8331642137, "lat": 43.5423612, "lon": -116.153519, "tags": {"addr:city": "Boise", "addr:housenumber": "6568", "addr:postcode": "83716", "addr:state": "ID", "addr:street": "South Federal Way", "amenity": "post_office", "brand": "The UPS Store", "brand:wikidata": "Q7771029", "name": "The UPS Store", "shop": "copyshop", "short_name": "UPS", "website": "https://locations.theupsstore.com/id/boise/6568-s-federal-way"}}, {"type": "node", "id": 8331642155, "lat": 43.5416484, "lon": -116.154574}, {"type": "node", "id": 8331642165, "lat": 43.5438933, "lon": -116.164321}, {"type": "node", "id": 8331642168, "lat": 43.545345, "lon": -116.155618}, {"type": "node", "id": 8331642171, "lat": 43.5428308, "lon": -116.157948}, {"type": "node", "id": 8331642254, "lat": 43.539073, "lon": -116.160194, "tags": {"addr:city": "Boise", "addr:housenumber": "6954", "addr:postcode": "83716", "addr:state": "ID", "addr:street": "South Eisenman Road", "brand": "Eddie Bauer", "brand:wikidata": "Q842174", "name": "Eddie Bauer", "shop": "clothes"}}, {"type": "node", "id": 8331642259, "lat": 43.5401652, "lon": -116.163082, "tags": {"addr:city": "Boise", "addr:housenumber": "6802", "addr:postcode": "83716", "addr:state": "ID", "addr:street": "South Eisenman Road", "brand": "Pendleton", "brand:wikidata": "Q7162488", "name": "Pendleton", "official_name": "Pendleton Woolen Mills", "shop": "clothes"}}, {"type": "node", "id": 8444280336, "lat": 43.5439479, "lon": -116.1641679}, {"type": "node", "id": 8444280337, "lat": 43.543958, "lon": -116.164172}, {"type": "node", "id": 8444280338, "lat": 43.5439713, "lon": -116.1641348}, {"type": "node", "id": 8444280339, "lat": 43.5440671, "lon": -116.1642007}, {"type": "node", "id": 8444280340, "lat": 43.5440506, "lon": -116.1642466}, {"type": "node", "id": 8444280341, "lat": 43.5441183, "lon": -116.164293}, {"type": "node", "id": 8444280342, "lat": 43.5440676, "lon": -116.1644385}, {"type": "node", "id": 8444280366, "lat": 43.5429109, "lon": -116.1637608}, {"type": "node", "id": 8444280367, "lat": 43.5428935, "lon": -116.1637667}, {"type": "node", "id": 8444280368, "lat": 43.5429108, "lon": -116.1638641}, {"type": "node", "id": 8444280369, "lat": 43.5429852, "lon": -116.1641828}, {"type": "node", "id": 8444280370, "lat": 43.5429667, "lon": -116.1641891}, {"type": "node", "id": 8444280371, "lat": 43.5429256, "lon": -116.1640305}, {"type": "node", "id": 8444280372, "lat": 43.5429381, "lon": -116.1641008}, {"type": "node", "id": 8444280373, "lat": 43.5429503, "lon": -116.1640967}, {"type": "node", "id": 8444280374, "lat": 43.5429393, "lon": -116.1640259}, {"type": "node", "id": 8444280375, "lat": 43.5429231, "lon": -116.1639347}, {"type": "node", "id": 8444280376, "lat": 43.5429106, "lon": -116.1639389}, {"type": "node", "id": 8444280377, "lat": 43.5428981, "lon": -116.1638683}, {"type": "node", "id": 8500552655, "lat": 43.542782, "lon": -116.178805}, {"type": "node", "id": 8500552671, "lat": 43.542448, "lon": -116.178651}, {"type": "node", "id": 8500552702, "lat": 43.54219, "lon": -116.179275}, {"type": "node", "id": 8500552749, "lat": 43.542236, "lon": -116.179085}, {"type": "node", "id": 8500552787, "lat": 43.542595, "lon": -116.17958}, {"type": "node", "id": 8500552819, "lat": 43.542332, "lon": -116.17913}, {"type": "node", "id": 8500552842, "lat": 43.542262, "lon": -116.179308}, {"type": "node", "id": 8672382594, "lat": 43.5433411, "lon": -116.153248}, {"type": "node", "id": 8672382597, "lat": 43.5434878, "lon": -116.165584}, {"type": "node", "id": 9419377647, "lat": 43.5472146, "lon": -116.1567457}, {"type": "node", "id": 9419377648, "lat": 43.5479003, "lon": -116.1564726}, {"type": "node", "id": 9419377649, "lat": 43.5473188, "lon": -116.1579917}, {"type": "node", "id": 9419377650, "lat": 43.547363, "lon": -116.1577357}, {"type": "node", "id": 9419377651, "lat": 43.5473604, "lon": -116.1575162}, {"type": "node", "id": 9419377652, "lat": 43.5473356, "lon": -116.1573284}, {"type": "node", "id": 9419377653, "lat": 43.548062, "lon": -116.1565469}, {"type": "node", "id": 9419377654, "lat": 43.5472278, "lon": -116.1586293}, {"type": "node", "id": 9419377655, "lat": 43.5471801, "lon": -116.1585293}, {"type": "node", "id": 9554272663, "lat": 43.560103, "lon": -116.1666111}, {"type": "node", "id": 9554272664, "lat": 43.560088, "lon": -116.1666277}, {"type": "node", "id": 9554272665, "lat": 43.5599799, "lon": -116.166442}, {"type": "node", "id": 9554272666, "lat": 43.560072, "lon": -116.1663399}, {"type": "node", "id": 9554272667, "lat": 43.5602281, "lon": -116.166608}, {"type": "node", "id": 9659381430, "lat": 43.5428325, "lon": -116.1537053, "tags": {"addr:city": "Boise", "addr:housenumber": "6560", "addr:postcode": "83716", "addr:state": "ID", "addr:street": "South Federal Way", "amenity": "cafe", "branch": "Albertsons Boise 184", "brand": "Starbucks", "brand:wikidata": "Q37158", "cuisine": "coffee_shop", "name": "Starbucks", "official_name": "Starbucks Coffee", "phone": "+1 208-429-1084", "ref": "1009748", "takeaway": "yes", "website": "https://www.starbucks.com/store-locator/store/1009748/albertsons-boise-184-6560-s-federal-wy-boise-id-83716-us"}}, {"type": "node", "id": 12785079977, "lat": 43.5364222, "lon": -116.1560726}, {"type": "node", "id": 12785079978, "lat": 43.5370448, "lon": -116.1560533}, {"type": "node", "id": 12785079979, "lat": 43.5350666, "lon": -116.1535295}, {"type": "node", "id": 12785079980, "lat": 43.535097, "lon": -116.1535312}, {"type": "node", "id": 12785080005, "lat": 43.5634944, "lon": -116.1835472}, {"type": "node", "id": 12785080007, "lat": 43.5649195, "lon": -116.1835476}, {"type": "node", "id": 12785080008, "lat": 43.5649173, "lon": -116.1853714}, {"type": "node", "id": 12785080009, "lat": 43.5639796, "lon": -116.185362}, {"type": "way", "id": 403480093, "nodes": [4058278444, 8672382594, 4058278441, 4058278442, 4058278437, 4058278439, 4058278436, 4058278435, 4058278430, 4058278427, 4058278426, 4058278425, 4058278432, 4058278431, 4058278438, 4058278440, 4058278443, 4058278444], "tags": {"addr:city": "Boise", "addr:housenumber": "6560", "addr:postcode": "83716", "addr:state": "ID", "addr:street": "South Federal Way", "brand": "Albertsons", "brand:wikidata": "Q2831861", "building": "yes", "name": "Albertsons", "opening_hours": "Mo-Fr 06:00-23:00; Sa 06:00-23:00; Su 06:00-23:00", "phone": "+1 208-429-1084", "ref": "184", "shop": "supermarket", "website": "https://local.albertsons.com/id/boise/6560-s-federal-way.html"}}, {"type": "way", "id": 403480095, "nodes": [8331642171, 4058278429, 4058278428, 4058278433, 8331642171], "tags": {"addr:city": "Boise", "addr:housenumber": "6633", "addr:postcode": "83716", "addr:state": "ID", "addr:street": "South Federal Way", "brand": "Peterbilt", "brand:wikidata": "Q944640", "building": "yes", "name": "Jackson Group Peterbilt", "shop": "truck"}}, {"type": "way", "id": 403480097, "nodes": [8331642155, 4058278408, 4058278412, 4058278414, 8331642155], "tags": {"addr:city": "Boise", "addr:housenumber": "6658", "addr:postcode": "83716", "addr:state": "ID", "addr:street": "South Federal Way", "brand": "Stinker", "brand:wikidata": "Q95990164", "building": "yes", "name": "Stinker", "opening_hours": "Mo-Su 06:00-22:00", "shop": "convenience"}}, {"type": "way", "id": 681407780, "nodes": [8331577806, 6381140127, 6381140128, 6381140129, 8331577806], "tags": {"addr:city": "Boise", "addr:housenumber": "696", "addr:postcode": "83705", "addr:state": "ID", "addr:street": "West Amity Road", "building": "yes", "name": "Beltservice Corporation", "shop": "trade", "trade": "conveyor_belt", "website": "https://www.beltservice.com/locations/boise"}}, {"type": "way", "id": 681407786, "nodes": [8331577803, 6381140153, 6381140154, 6381140155, 6381140156, 6381140157, 8331577803], "tags": {"addr:city": "Boise", "addr:housenumber": "770", "addr:postcode": "83705", "addr:state": "ID", "addr:street": "West Amity Road", "brand": "Rush Truck Centers", "brand:wikidata": "Q120637525", "building": "yes", "name": "Rush Truck Centers", "shop": "truck_repair", "website": "https://www.rushtruckcenters.com/locations/22010000-boise"}}, {"type": "way", "id": 761877443, "nodes": [8331642168, 7118375561, 7118385770, 7118382283, 7118381457, 7118378018, 7118378220, 7118374855, 7118365651, 7118381672, 7118380641, 7118377357, 7118376398, 7118384126, 7118382094, 7118378758, 8331642168], "tags": {"addr:city": "Boise", "addr:housenumber": "6360", "addr:postcode": "83716", "addr:state": "ID", "addr:street": "South Federal Way", "building": "yes", "building:levels": "2", "name": "Micron North", "office": "company", "source": "microsoft/BuildingFootprints"}}, {"type": "way", "id": 789697995, "nodes": [8672382597, 7383352816, 7383352817, 7383352818, 8672382597], "tags": {"addr:city": "Boise", "addr:housenumber": "6455", "addr:postcode": "83716", "addr:state": "ID", "addr:street": "South Eisenman Road", "amenity": "bar", "building": "yes", "name": "The Tk Bar"}}, {"type": "way", "id": 789697997, "nodes": [8331536913, 7383352824, 7383352825, 8444280366, 8444280367, 8444280368, 8444280377, 8444280376, 8444280375, 8444280374, 8444280371, 8444280372, 8444280373, 8444280370, 8444280369, 7383352826, 8331536913], "tags": {"addr:city": "Boise", "addr:housenumber": "6520", "addr:postcode": "83716", "addr:state": "ID", "addr:street": "South Eisenman Road", "amenity": "cafe", "building": "yes", "name": "Beans & Brew"}}, {"type": "way", "id": 909470747, "nodes": [8331642165, 8444280336, 8444280337, 8444280338, 8444280339, 8444280340, 8444280341, 8444280342, 8331642165], "tags": {"addr:city": "Boise", "addr:housenumber": "6450", "addr:postcode": "83716", "addr:state": "ID", "addr:street": "South Eisenman Road", "brand": "Chevron", "brand:wikidata": "Q319642", "building": "yes", "name": "Chevron", "shop": "convenience"}}, {"type": "way", "id": 915105460, "nodes": [8331642063, 8500552842, 8500552702, 8500552749, 8500552819, 8500552671, 8500552655, 8500552787, 8331642063], "tags": {"addr:city": "Boise", "addr:housenumber": "6700", "addr:postcode": "83716", "addr:state": "ID", "addr:street": "South Business Way", "brand": "United Rentals", "brand:wikidata": "Q7889101", "building": "yes", "name": "United Rentals", "ref": "601", "shop": "plant_hire", "source": "microsoft/BuildingFootprints", "website": "https://www.unitedrentals.com/locations/id/boise/equipment-tool-rentals/601"}}, {"type": "way", "id": 1021290417, "nodes": [9419377647, 9419377648, 9419377653, 8192405729, 8192405728, 8192405727, 9419377654, 9419377655, 9419377649, 9419377650, 9419377651, 9419377652, 9419377647], "tags": {"shop": "storage_rental"}}, {"type": "way", "id": 1037139928, "nodes": [8331575458, 9554272663, 9554272664, 9554272665, 9554272666, 9554272667, 8331575458], "tags": {"addr:city": "Boise", "addr:housenumber": "4680", "addr:postcode": "83716", "addr:state": "ID", "addr:street": "South Federal Way", "brand": "Maverik", "brand:wikidata": "Q64149010", "building": "yes", "name": "Maverik", "shop": "convenience", "source": "microsoft/BuildingFootprints"}}, {"type": "way", "id": 1381027879, "nodes": [12785079977, 8192391108, 8192391109, 6328466084, 6328466089, 8192391107, 12785079978, 12785079977], "tags": {"shop": "storage_rental"}}, {"type": "way", "id": 1381027880, "nodes": [8192391106, 12785079980, 12785079979, 8192391103, 12785079977, 12785079978, 8192391107, 8192391106], "tags": {"shop": "storage_rental"}}, {"type": "way", "id": 1381027887, "nodes": [12785080009, 12785080005, 12785080007, 12785080008, 12785080009], "tags": {"shop": "storage_rental"}}]}