{"version": 0.6, "generator": "Overpass API 0.7.62.8 e802775f", "osm3s": {"timestamp_osm_base": "2025-12-06T05:14:51Z", "copyright": "The data included in this document is from www.openstreetmap.org. The data is made available under ODbL."}, "elements": [{"type": "node", "id": 2324559280, "lat": 43.723461, "lon": -111.1112316, "tags": {"addr:housenumber": "18 Ste 100", "addr:state": "ID", "addr:street": "N Main St", "amenity": "restaurant", "cuisine": "thai", "name": "Teton Thai", "opening_hours": "Mo-Su 16:30-21:00", "source": "I eat there", "website": "https://www.tetonthai.com/"}}, {"type": "node", "id": 2324561374, "lat": 43.7253025, "lon": -111.1106844, "tags": {"addr:housenumber": "165", "addr:state": "ID", "addr:street": "N Main St", "amenity": "restaurant", "cuisine": "mexican", "name": "Fuego Grill", "website": "http://www.fuegogrilltetonvalley.com"}}, {"type": "node", "id": 4361816831, "lat": 43.7240959, "lon": -111.1159142}, {"type": "node", "id": 4361816832, "lat": 43.7240976, "lon": -111.1157312}, {"type": "node", "id": 4361816835, "lat": 43.7241186, "lon": -111.1161952}, {"type": "node", "id": 4361816836, "lat": 43.7241205, "lon": -111.1159922}, {"type": "node", "id": 4361816837, "lat": 43.724129, "lon": -111.1161952}, {"type": "node", "id": 4361816838, "lat": 43.7241295, "lon": -111.1161482}, {"type": "node", "id": 4361816839, "lat": 43.7241299, "lon": -111.1157972}, {"type": "node", "id": 4361816840, "lat": 43.7241305, "lon": -111.1157322}, {"type": "node", "id": 4361816842, "lat": 43.7241354, "lon": -111.1162792}, {"type": "node", "id": 4361816843, "lat": 43.7241363, "lon": -111.1161852}, {"type": "node", "id": 4361816844, "lat": 43.7241367, "lon": -111.1159922}, {"type": "node", "id": 4361816845, "lat": 43.7241374, "lon": -111.1159152}, {"type": "node", "id": 4361816846, "lat": 43.7241411, "lon": -111.1161852}, {"type": "node", "id": 4361816847, "lat": 43.7241414, "lon": -111.1161492}, {"type": "node", "id": 4361816848, "lat": 43.7241443, "lon": -111.1162802}, {"type": "node", "id": 4361816849, "lat": 43.7241447, "lon": -111.1162402}, {"type": "node", "id": 4361816851, "lat": 43.7241812, "lon": -111.1162682}, {"type": "node", "id": 4361816852, "lat": 43.7241815, "lon": -111.1162402}, {"type": "node", "id": 4361816857, "lat": 43.7242095, "lon": -111.1158672}, {"type": "node", "id": 4361816858, "lat": 43.7242101, "lon": -111.1157992}, {"type": "node", "id": 4361816863, "lat": 43.7242891, "lon": -111.1162702}, {"type": "node", "id": 4361816864, "lat": 43.7242892, "lon": -111.1158932}, {"type": "node", "id": 4361816865, "lat": 43.7242894, "lon": -111.1158682}, {"type": "node", "id": 4361816866, "lat": 43.7242894, "lon": -111.1162342}, {"type": "node", "id": 4361816871, "lat": 43.7243344, "lon": -111.1159772}, {"type": "node", "id": 4361816872, "lat": 43.7243352, "lon": -111.1158942}, {"type": "node", "id": 4361816873, "lat": 43.7243359, "lon": -111.1162352}, {"type": "node", "id": 4361816874, "lat": 43.7243366, "lon": -111.1161582}, {"type": "node", "id": 4361816876, "lat": 43.7243577, "lon": -111.1161582}, {"type": "node", "id": 4361816877, "lat": 43.7243594, "lon": -111.1159782}, {"type": "node", "id": 5909993247, "lat": 43.7285905, "lon": -111.1107624}, {"type": "node", "id": 5909993248, "lat": 43.7284412, "lon": -111.1107641}, {"type": "node", "id": 5909993249, "lat": 43.7284401, "lon": -111.1105792}, {"type": "node", "id": 5909993250, "lat": 43.7283688, "lon": -111.11058}, {"type": "node", "id": 5909993251, "lat": 43.7283683, "lon": -111.1104952}, {"type": "node", "id": 5909993252, "lat": 43.7285616, "lon": -111.110493}, {"type": "node", "id": 5909993253, "lat": 43.7285619, "lon": -111.1105449}, {"type": "node", "id": 5909993254, "lat": 43.7285892, "lon": -111.1105446}, {"type": "node", "id": 5950759215, "lat": 43.7232678, "lon": -111.109773, "tags": {"addr:city": "Driggs", "addr:housenumber": "45", "addr:postcode": "83422", "addr:state": "ID", "addr:street": "E Little Ave", "name": "Stillwater Design Group", "office": "graphic_design", "phone": "+1-208-354-5335", "website": "https://www.stillwaterdesigngroup.com/"}}, {"type": "node", "id": 7623009386, "lat": 43.7218173, "lon": -111.1109242, "tags": {"amenity": "restaurant", "name": "Teton Valley Provisions"}}, {"type": "node", "id": 8398901309, "lat": 43.7369275, "lon": -111.1116904}, {"type": "node", "id": 8398901310, "lat": 43.7367617, "lon": -111.1116845}, {"type": "node", "id": 8398901311, "lat": 43.7367663, "lon": -111.1114394}, {"type": "node", "id": 8398901312, "lat": 43.736932, "lon": -111.1114453}, {"type": "node", "id": 8576270133, "lat": 43.737789, "lon": -111.1102983}, {"type": "node", "id": 8576270134, "lat": 43.7376147, "lon": -111.1103004}, {"type": "node", "id": 8576270135, "lat": 43.7376156, "lon": -111.1104501}, {"type": "node", "id": 8576270140, "lat": 43.7377899, "lon": -111.110448}, {"type": "node", "id": 8645922036, "lat": 43.7258643, "lon": -111.1116764}, {"type": "node", "id": 8645922037, "lat": 43.7258608, "lon": -111.111272}, {"type": "node", "id": 8645922038, "lat": 43.7256653, "lon": -111.1112752}, {"type": "node", "id": 8645922039, "lat": 43.7256689, "lon": -111.1116796}, {"type": "node", "id": 9217615269, "lat": 43.7376448, "lon": -111.1104498}, {"type": "node", "id": 9217615272, "lat": 43.7377552, "lon": -111.1104484}, {"type": "node", "id": 9906837547, "lat": 43.7253838, "lon": -111.1107999, "tags": {"addr:housenumber": "165", "addr:state": "ID", "addr:street": "North Main Street", "amenity": "restaurant", "cuisine": "italian", "description": "Handmade pasta and pizza", "name": "Pizzeria Alpino", "opening_hours": "We-Su 16:00-21:00", "phone": "+1-208-354-8829"}}, {"type": "node", "id": 12045034505, "lat": 43.7202944, "lon": -111.1127932, "tags": {"contact:phone": "+1 208 643-3243", "contact:website": "https://www.broulims.com/locations/driggs", "name": "Broulim's", "opening_hours": "07:00-22:00; Su off", "shop": "supermarket"}}, {"type": "node", "id": 12045034507, "lat": 43.7212345, "lon": -111.1129149, "tags": {"brand": "Family Dollar", "brand:wikidata": "Q5433101", "contact:phone": "+1 208-593-7047", "name": "Family Dollar", "opening_hours": "08:00-22:00", "shop": "variety_store"}}, {"type": "node", "id": 12045034514, "lat": 43.7217197, "lon": -111.1129395, "tags": {"addr:city": "Driggs", "addr:housenumber": "120", "addr:postcode": "83422-5016", "addr:state": "ID", "addr:street": "South Main Street", "brand": "Ace Hardware", "brand:wikidata": "Q4672981", "check_date:opening_hours": "2025-10-01", "contact:website": "https://www.acehardware.com/store-details/15261", "name": "Ace", "opening_hours": "07:30-19:00; Su off", "phone": "+1 208-354-2344", "ref": "15261", "shop": "doityourself"}}, {"type": "node", "id": 12059419758, "lat": 43.7228828, "lon": -111.1107371, "tags": {"addr:city": "Driggs", "addr:housenumber": "65", "addr:postcode": "83422", "addr:state": "ID", "addr:street": "South Main Street", "addr:unit": "2", "description": "Bart Birch is a Teton Valley native. A University of Idaho and School of Law alumni, Bart primarily practices in the areas of real estate, probate and estate planning, family law, criminal law, and corporate and LLC work.", "fax": "+1-208-354-0115", "name": "Law Office of Bart Birch", "office": "lawyer", "opening_hours": "Mo-Th 09:00-17:00; Fr 09:00-12:00", "phone": "+1 208-354-0110", "website": "https://bartbirch.com/"}}, {"type": "way", "id": 438437226, "nodes": [4361816851, 4361816863, 4361816866, 4361816873, 4361816874, 4361816876, 4361816877, 4361816871, 4361816872, 4361816864, 4361816865, 4361816857, 4361816858, 4361816839, 4361816840, 4361816832, 4361816831, 4361816845, 4361816844, 4361816836, 4361816835, 4361816837, 4361816838, 4361816847, 4361816846, 4361816843, 4361816842, 4361816848, 4361816849, 4361816852, 4361816851], "tags": {"addr:city": "Driggs", "addr:housenumber": "150", "addr:postcode": "83422", "addr:state": "ID", "addr:street": "Courthouse Drive", "building": "public", "government": "administrative", "name": "Teton County Courthouse", "office": "government", "opening_hours": "Mo-Fr 09:00-17:00", "phone": "+12087768100", "website": "https://www.tetoncountyidaho.gov"}}, {"type": "way", "id": 625985942, "nodes": [5909993247, 5909993248, 5909993249, 5909993250, 5909993251, 5909993252, 5909993253, 5909993254, 5909993247], "tags": {"building": "commercial", "shop": "convenience"}}, {"type": "way", "id": 904364372, "nodes": [8398901309, 8398901310, 8398901311, 8398901312, 8398901309], "tags": {"access": "private", "amenity": "restaurant", "building": "barn"}}, {"type": "way", "id": 923890528, "nodes": [8576270133, 8576270134, 8576270135, 9217615269, 9217615272, 8576270140, 8576270133], "tags": {"building": "commercial", "shop": "convenience", "source": "esri/Teton_County_ID_Buildings"}}, {"type": "way", "id": 932710084, "nodes": [8645922036, 8645922037, 8645922038, 8645922039, 8645922036], "tags": {"brand": "O'Reilly Auto Parts", "brand:wikidata": "Q7071951", "building": "retail", "name": "O'Reilly Auto Parts", "shop": "car_parts", "website": "https://locations.oreillyauto.com/id/driggs/autoparts-5592.html"}}]}