{"version": 0.6, "generator": "Overpass API 0.7.62.8 e802775f", "osm3s": {"timestamp_osm_base": "2025-12-13T00:24:06Z", "copyright": "The data included in this document is from www.openstreetmap.org. The data is made available under ODbL."}, "elements": [{"type": "node", "id": 4455834389, "lat": 40.4971821, "lon": -107.2617192, "tags": {"addr:city": "Hayden", "addr:housenumber": "100", "addr:postcode": "81639", "addr:state": "CO", "addr:street": "West Iron Horse Road", "name": "West Routt Storage", "shop": "storage_rental"}}, {"type": "node", "id": 4915069123, "lat": 40.4951209, "lon": -107.2576698, "tags": {"addr:postcode": "81639", "addr:street": "South Walnut Street", "amenity": "restaurant", "internet_access": "wlan", "name": "Wolf Mountain Pizza"}}, {"type": "node", "id": 4915069124, "lat": 40.4955561, "lon": -107.2575468, "tags": {"name": "A-1 Liquor", "shop": "alcohol"}}, {"type": "node", "id": 4915077121, "lat": 40.4967623, "lon": -107.2569568, "tags": {"amenity": "cafe", "name": "Wild Goose Cafe", "name:en": "Wild Goose Cafe"}}, {"type": "node", "id": 6556583291, "lat": 40.4953812, "lon": -107.2565017, "tags": {"amenity": "fuel", "brand": "Cenex", "brand:wikidata": "Q62127191", "name": "Cenex"}}, {"type": "node", "id": 11015781559, "lat": 40.4837063, "lon": -107.2620019}, {"type": "node", "id": 11015781560, "lat": 40.4839212, "lon": -107.2614694}, {"type": "node", "id": 11015781561, "lat": 40.4837403, "lon": -107.2613393}, {"type": "node", "id": 11015781562, "lat": 40.4835192, "lon": -107.2618962}, {"type": "node", "id": 11274026028, "lat": 40.4949844, "lon": -107.2601951}, {"type": "node", "id": 11274026029, "lat": 40.4950959, "lon": -107.2598437}, {"type": "node", "id": 11274026030, "lat": 40.4952278, "lon": -107.259916}, {"type": "node", "id": 11274026031, "lat": 40.4951163, "lon": -107.2602675}, {"type": "node", "id": 11462851222, "lat": 40.4946864, "lon": -107.2447293, "tags": {"amenity": "police"}}, {"type": "node", "id": 11462851223, "lat": 40.4945411, "lon": -107.2469775, "tags": {"amenity": "social_facility", "name": "The Haven", "social_facility": "assisted_living", "social_facility:for": "senior"}}, {"type": "node", "id": 11462854913, "lat": 40.4875361, "lon": -107.2631192}, {"type": "node", "id": 11462854914, "lat": 40.4872529, "lon": -107.2631152}, {"type": "node", "id": 11462854915, "lat": 40.4872552, "lon": -107.2628364}, {"type": "node", "id": 11462854916, "lat": 40.4875384, "lon": -107.2628405}, {"type": "node", "id": 11462857966, "lat": 40.487481, "lon": -107.2686532}, {"type": "node", "id": 11462857967, "lat": 40.4873387, "lon": -107.2685556}, {"type": "node", "id": 11462857968, "lat": 40.4872769, "lon": -107.2680393}, {"type": "node", "id": 11462872445, "lat": 40.4938568, "lon": -107.2631177}, {"type": "node", "id": 11462872446, "lat": 40.4924747, "lon": -107.2631248}, {"type": "node", "id": 11462872447, "lat": 40.4924933, "lon": -107.2602123}, {"type": "node", "id": 11462872448, "lat": 40.4927454, "lon": -107.2597944}, {"type": "node", "id": 11462872449, "lat": 40.4942424, "lon": -107.2606747}, {"type": "node", "id": 11462872450, "lat": 40.493873, "lon": -107.2618982}, {"type": "node", "id": 11462890869, "lat": 40.4870202, "lon": -107.2676694}, {"type": "node", "id": 11462890870, "lat": 40.4867605, "lon": -107.2666164}, {"type": "node", "id": 11462890871, "lat": 40.4867389, "lon": -107.2658074}, {"type": "node", "id": 11462890872, "lat": 40.4870388, "lon": -107.265787}, {"type": "node", "id": 11462890873, "lat": 40.4870975, "lon": -107.2632827}, {"type": "node", "id": 11462890874, "lat": 40.4877129, "lon": -107.2632868}, {"type": "node", "id": 11462890875, "lat": 40.4876758, "lon": -107.2626282}, {"type": "node", "id": 11462890876, "lat": 40.4887734, "lon": -107.262681}, {"type": "node", "id": 11462890877, "lat": 40.4887487, "lon": -107.2643072}, {"type": "node", "id": 11462890878, "lat": 40.4886188, "lon": -107.2648926}, {"type": "node", "id": 12372216383, "lat": 40.495177, "lon": -107.260351}, {"type": "node", "id": 12372216384, "lat": 40.4953351, "lon": -107.2598611}, {"type": "node", "id": 12372216385, "lat": 40.4950446, "lon": -107.2596901}, {"type": "node", "id": 12372216386, "lat": 40.4952391, "lon": -107.2590908}, {"type": "node", "id": 12372216387, "lat": 40.4950106, "lon": -107.258963}, {"type": "node", "id": 12372216388, "lat": 40.4946838, "lon": -107.2599951}, {"type": "node", "id": 12372216389, "lat": 40.4948326, "lon": -107.2600783}, {"type": "node", "id": 12372216390, "lat": 40.4948138, "lon": -107.2601445}, {"type": "way", "id": 1185944054, "nodes": [11015781559, 11015781560, 11015781561, 11015781562, 11015781559], "tags": {"access": "private", "amenity": "parking"}}, {"type": "way", "id": 1216743149, "nodes": [11274026028, 11274026029, 11274026030, 11274026031, 11274026028], "tags": {"addr:city": "Hayden", "addr:housenumber": "230", "addr:postcode": "81639", "addr:state": "CO", "addr:street": "West Jefferson Avenue", "brand": "Maverik", "brand:wikidata": "Q64149010", "building": "yes", "name": "Maverik", "shop": "convenience"}}, {"type": "way", "id": 1234916143, "nodes": [11462854913, 11462854914, 11462854915, 11462854916, 11462854913], "tags": {"amenity": "fire_station", "building": "fire_station"}}, {"type": "way", "id": 1234916322, "nodes": [11462857966, 11462857967, 11462857968, 11462890869, 11462890870, 11462890871, 11462890872, 11462890873, 11462890874, 11462890875, 11462890876, 11462890877, 11462890878, 11462857966], "tags": {"amenity": "school", "landuse": "education"}}, {"type": "way", "id": 1234916908, "nodes": [11462872445, 11462872446, 11462872447, 11462872448, 11462872449, 11462872450, 11462872445], "tags": {"amenity": "school", "landuse": "education"}}, {"type": "way", "id": 1337556163, "nodes": [12372216383, 12372216384, 12372216385, 12372216386, 12372216387, 12372216388, 12372216389, 12372216390, 12372216383], "tags": {"amenity": "fuel", "brand": "Maverik", "brand:wikidata": "Q64149010", "name": "Maverik"}}]}