{"version": 0.6, "generator": "Overpass API 0.7.62.8 e802775f", "osm3s": {"timestamp_osm_base": "2025-12-06T05:15:53Z", "copyright": "The data included in this document is from www.openstreetmap.org. The data is made available under ODbL."}, "elements": [{"type": "node", "id": 7936691111, "lat": 42.7782, "lon": -114.6913382}, {"type": "node", "id": 7936691112, "lat": 42.7781999, "lon": -114.6909237}, {"type": "node", "id": 7936691113, "lat": 42.7780027, "lon": -114.6909238}, {"type": "node", "id": 7936691114, "lat": 42.7780026, "lon": -114.6903361}, {"type": "node", "id": 7936691115, "lat": 42.7782236, "lon": -114.6903359}, {"type": "node", "id": 7936691116, "lat": 42.7782236, "lon": -114.6900252}, {"type": "node", "id": 7936691117, "lat": 42.7780058, "lon": -114.6900253}, {"type": "node", "id": 7936691118, "lat": 42.7780057, "lon": -114.6894045}, {"type": "node", "id": 7936691119, "lat": 42.7777902, "lon": -114.6894046}, {"type": "node", "id": 7936691120, "lat": 42.7777904, "lon": -114.6900442}, {"type": "node", "id": 7936691121, "lat": 42.7777488, "lon": -114.6900442}, {"type": "node", "id": 7936691122, "lat": 42.7777488, "lon": -114.690128}, {"type": "node", "id": 7936691123, "lat": 42.7777077, "lon": -114.690128}, {"type": "node", "id": 7936691124, "lat": 42.7777077, "lon": -114.6902329}, {"type": "node", "id": 7936691125, "lat": 42.7777558, "lon": -114.6902329}, {"type": "node", "id": 7936691126, "lat": 42.7777558, "lon": -114.6903331}, {"type": "node", "id": 7936691127, "lat": 42.7778005, "lon": -114.6903332}, {"type": "node", "id": 7936691128, "lat": 42.7778005, "lon": -114.6908588}, {"type": "node", "id": 7936691129, "lat": 42.7777674, "lon": -114.6908588}, {"type": "node", "id": 7936691130, "lat": 42.7777674, "lon": -114.6910544}, {"type": "node", "id": 7936691131, "lat": 42.7777326, "lon": -114.6910544}, {"type": "node", "id": 7936691132, "lat": 42.7777327, "lon": -114.691154}, {"type": "node", "id": 7936691133, "lat": 42.7777669, "lon": -114.691154}, {"type": "node", "id": 7936691134, "lat": 42.777767, "lon": -114.6913384}, {"type": "node", "id": 7936691135, "lat": 42.77633, "lon": -114.6920791}, {"type": "node", "id": 7936691136, "lat": 42.776112, "lon": -114.6920791}, {"type": "node", "id": 7936691137, "lat": 42.776112, "lon": -114.6914386}, {"type": "node", "id": 7936691138, "lat": 42.7759898, "lon": -114.6914386}, {"type": "node", "id": 7936691139, "lat": 42.7759898, "lon": -114.6912615}, {"type": "node", "id": 7936691140, "lat": 42.7760124, "lon": -114.6912615}, {"type": "node", "id": 7936691141, "lat": 42.7760125, "lon": -114.6908179}, {"type": "node", "id": 7936691142, "lat": 42.7760985, "lon": -114.690818}, {"type": "node", "id": 7936691143, "lat": 42.7760985, "lon": -114.6904484}, {"type": "node", "id": 7936691144, "lat": 42.7763346, "lon": -114.6904485}, {"type": "node", "id": 7936691145, "lat": 42.7763346, "lon": -114.6909751}, {"type": "node", "id": 7936691146, "lat": 42.7765899, "lon": -114.6909751}, {"type": "node", "id": 7936691147, "lat": 42.7765899, "lon": -114.6914537}, {"type": "node", "id": 7936691148, "lat": 42.7763299, "lon": -114.6914537}, {"type": "node", "id": 8893829553, "lat": 42.7771005, "lon": -114.6954673}, {"type": "node", "id": 8893829554, "lat": 42.7771005, "lon": -114.695372}, {"type": "node", "id": 8893829555, "lat": 42.7772619, "lon": -114.6953719}, {"type": "node", "id": 8893829556, "lat": 42.7772619, "lon": -114.6952653}, {"type": "node", "id": 8893829557, "lat": 42.7770148, "lon": -114.6952655}, {"type": "node", "id": 8893829558, "lat": 42.7770148, "lon": -114.695549}, {"type": "node", "id": 8893829559, "lat": 42.7771006, "lon": -114.695549}, {"type": "node", "id": 9953820852, "lat": 42.773905, "lon": -114.6899646}, {"type": "node", "id": 9953820853, "lat": 42.7737078, "lon": -114.6902483}, {"type": "node", "id": 9953820854, "lat": 42.7734929, "lon": -114.6899446}, {"type": "node", "id": 9953820855, "lat": 42.7735061, "lon": -114.6899276}, {"type": "node", "id": 9953820856, "lat": 42.7733472, "lon": -114.689699}, {"type": "node", "id": 9953820857, "lat": 42.7735091, "lon": -114.6894825}, {"type": "node", "id": 9953820858, "lat": 42.7735628, "lon": -114.6895436}, {"type": "node", "id": 9953820859, "lat": 42.7736408, "lon": -114.6894334}, {"type": "node", "id": 9953820860, "lat": 42.7737813, "lon": -114.6896168}, {"type": "node", "id": 9953820861, "lat": 42.7737563, "lon": -114.6896499}, {"type": "node", "id": 9953820862, "lat": 42.7737997, "lon": -114.6896499}, {"type": "node", "id": 9953820863, "lat": 42.7737968, "lon": -114.6897672}, {"type": "node", "id": 9953820864, "lat": 42.7737578, "lon": -114.6897682}, {"type": "node", "id": 10699334138, "lat": 42.7757091, "lon": -114.7088331}, {"type": "node", "id": 10699334139, "lat": 42.7757093, "lon": -114.7087128}, {"type": "node", "id": 10699334140, "lat": 42.7757243, "lon": -114.7087129}, {"type": "node", "id": 10699334141, "lat": 42.7757245, "lon": -114.7086049}, {"type": "node", "id": 10699334142, "lat": 42.7758279, "lon": -114.7086052}, {"type": "node", "id": 10699334143, "lat": 42.7758277, "lon": -114.7087122}, {"type": "node", "id": 10699334144, "lat": 42.7758748, "lon": -114.7087123}, {"type": "node", "id": 10699334145, "lat": 42.7758746, "lon": -114.7088459}, {"type": "node", "id": 10699334146, "lat": 42.7758432, "lon": -114.7088458}, {"type": "node", "id": 10699334147, "lat": 42.7758432, "lon": -114.7088335}, {"type": "node", "id": 11851711212, "lat": 42.7818529, "lon": -114.7036109}, {"type": "node", "id": 11851711213, "lat": 42.7820074, "lon": -114.7036103}, {"type": "node", "id": 11851711214, "lat": 42.7820071, "lon": -114.7034509}, {"type": "node", "id": 11851711215, "lat": 42.7820985, "lon": -114.7034505}, {"type": "node", "id": 11851711216, "lat": 42.7820973, "lon": -114.7028209}, {"type": "node", "id": 11851711217, "lat": 42.7819891, "lon": -114.7028213}, {"type": "node", "id": 11851711218, "lat": 42.7819892, "lon": -114.7028807}, {"type": "node", "id": 11851711219, "lat": 42.7818874, "lon": -114.7028811}, {"type": "node", "id": 11851711220, "lat": 42.7818872, "lon": -114.7028167}, {"type": "node", "id": 11851711221, "lat": 42.781764, "lon": -114.7028172}, {"type": "node", "id": 11851711222, "lat": 42.7817654, "lon": -114.7034517}, {"type": "node", "id": 11851711223, "lat": 42.7818526, "lon": -114.7034514}, {"type": "node", "id": 12519247717, "lat": 42.7821185, "lon": -114.7112964, "tags": {"addr:city": "Wendell", "addr:housenumber": "519", "addr:postcode": "83355", "addr:state": "ID", "addr:street": "7th Avenue West", "building": "house"}}, {"type": "node", "id": 12519256190, "lat": 42.7821135, "lon": -114.711739, "tags": {"addr:city": "Wendell", "addr:housenumber": "533", "addr:postcode": "83355", "addr:state": "ID", "addr:street": "7th Avenue West", "building": "house"}}, {"type": "node", "id": 12519296440, "lat": 42.7823621, "lon": -114.711112, "tags": {"addr:city": "Wendell", "addr:housenumber": "750", "addr:postcode": "83355", "addr:state": "ID", "addr:street": "North Lewiston Street", "building": "house"}}, {"type": "node", "id": 12521038448, "lat": 42.7821364, "lon": -114.712142, "tags": {"addr:city": "Wendell", "addr:housenumber": "545", "addr:postcode": "83355", "addr:state": "ID", "addr:street": "7th Avenue West", "building": "house"}}, {"type": "node", "id": 12654166741, "lat": 42.78232, "lon": -114.7117938, "tags": {"addr:city": "Wendell", "addr:housenumber": "540", "addr:postcode": "83355", "addr:state": "ID", "addr:street": "7th Avenue West", "building": "house"}}, {"type": "node", "id": 12680447924, "lat": 42.7751883, "lon": -114.7054492}, {"type": "node", "id": 12680447925, "lat": 42.7751886, "lon": -114.7055431}, {"type": "node", "id": 12680447926, "lat": 42.7750971, "lon": -114.7055436}, {"type": "node", "id": 12680447927, "lat": 42.7750968, "lon": -114.7054497}, {"type": "node", "id": 12680447928, "lat": 42.775319, "lon": -114.7052812}, {"type": "node", "id": 12680447929, "lat": 42.7753195, "lon": -114.7054376}, {"type": "node", "id": 12680447930, "lat": 42.7752384, "lon": -114.705438}, {"type": "node", "id": 12680447931, "lat": 42.7752379, "lon": -114.7052816}, {"type": "node", "id": 12680447932, "lat": 42.7752021, "lon": -114.7051832}, {"type": "node", "id": 12680447933, "lat": 42.7752024, "lon": -114.7053207}, {"type": "node", "id": 12680447934, "lat": 42.7750325, "lon": -114.7053213}, {"type": "node", "id": 12680447935, "lat": 42.7750323, "lon": -114.7051837}, {"type": "node", "id": 12680447936, "lat": 42.7753142, "lon": -114.7048895}, {"type": "node", "id": 12680447937, "lat": 42.775315, "lon": -114.7050745}, {"type": "node", "id": 12680447938, "lat": 42.7751043, "lon": -114.7050761}, {"type": "node", "id": 12680447939, "lat": 42.7751036, "lon": -114.7048912}, {"type": "node", "id": 12680447950, "lat": 42.7751689, "lon": -114.7043514}, {"type": "node", "id": 12680447951, "lat": 42.7751701, "lon": -114.7045178}, {"type": "node", "id": 12680447952, "lat": 42.7749831, "lon": -114.7045202}, {"type": "node", "id": 12680447953, "lat": 42.7749819, "lon": -114.7043538}, {"type": "way", "id": 850760352, "nodes": [7936691111, 7936691112, 7936691113, 7936691114, 7936691115, 7936691116, 7936691117, 7936691118, 7936691119, 7936691120, 7936691121, 7936691122, 7936691123, 7936691124, 7936691125, 7936691126, 7936691127, 7936691128, 7936691129, 7936691130, 7936691131, 7936691132, 7936691133, 7936691134, 7936691111], "tags": {"building": "school", "name": "Wendell Middle School"}}, {"type": "way", "id": 850760353, "nodes": [7936691135, 7936691136, 7936691137, 7936691138, 7936691139, 7936691140, 7936691141, 7936691142, 7936691143, 7936691144, 7936691145, 7936691146, 7936691147, 7936691148, 7936691135], "tags": {"building": "school", "name": "Wendell High School"}}, {"type": "way", "id": 961475495, "nodes": [8893829559, 8893829558, 8893829557, 8893829556, 8893829555, 8893829554, 8893829553, 8893829559], "tags": {"addr:city": "Wendell", "addr:housenumber": "585", "addr:postcode": "83355", "addr:state": "ID", "addr:street": "2nd Avenue East", "amenity": "place_of_worship", "building": "church", "denomination": "roman_catholic", "diocese": "Boise", "name": "Saint Anthony Catholic Church", "religion": "christian", "website": "http://stelizabethgooding.com"}}, {"type": "way", "id": 1086328935, "nodes": [9953820852, 9953820853, 9953820854, 9953820855, 9953820856, 9953820857, 9953820858, 9953820859, 9953820860, 9953820861, 9953820862, 9953820863, 9953820864, 9953820852], "tags": {"amenity": "place_of_worship", "building": "church", "denomination": "presbyterian", "name": "Living Waters Presbyterian Church", "religion": "christian"}}, {"type": "way", "id": 1150143169, "nodes": [10699334138, 10699334139, 10699334140, 10699334141, 10699334142, 10699334143, 10699334144, 10699334145, 10699334146, 10699334147, 10699334138], "tags": {"amenity": "place_of_worship", "building": "yes", "denomination": "jehovahs_witness", "religion": "christian"}}, {"type": "way", "id": 1276594982, "nodes": [11851711212, 11851711213, 11851711214, 11851711215, 11851711216, 11851711217, 11851711218, 11851711219, 11851711220, 11851711221, 11851711222, 11851711223, 11851711212], "tags": {"addr:city": "Wendell", "addr:housenumber": "605", "addr:postcode": "83355", "addr:state": "ID", "addr:street": "North Idaho Street", "amenity": "place_of_worship", "building": "church", "denomination": "mormon", "name": "The Church of Jesus Christ of Latter-day Saints", "religion": "christian"}}, {"type": "way", "id": 1369114362, "nodes": [12680447924, 12680447925, 12680447926, 12680447927, 12680447924], "tags": {"amenity": "fuel", "building": "roof", "layer": "1"}}, {"type": "way", "id": 1369114363, "nodes": [12680447928, 12680447929, 12680447930, 12680447931, 12680447928], "tags": {"amenity": "fuel", "building": "roof", "layer": "1"}}, {"type": "way", "id": 1369114364, "nodes": [12680447932, 12680447933, 12680447934, 12680447935, 12680447932], "tags": {"building": "industrial"}}, {"type": "way", "id": 1369114365, "nodes": [12680447936, 12680447937, 12680447938, 12680447939, 12680447936], "tags": {"addr:city": "Wendell", "addr:country": "US", "addr:housenumber": "175", "addr:postcode": "83355", "addr:street": "West Main Street", "building": "yes", "name": "Valley Wide Country Store", "opening_hours": "Wednesday 7\u202fam\u20137\u202fpm  Thursday 7\u202fam\u20137\u202fpm  Friday 7\u202fam\u20137\u202fpm  Saturday 8\u202fam\u20135\u202fpm  Sunday Closed  Monday 7\u202fam\u20137\u202fpm  Tuesday 7\u202fam\u20137\u202fpm", "phone": "+12085365361", "shop": "convenience", "website": "https://www.valleywidecoop.com/"}}, {"type": "way", "id": 1369114372, "nodes": [12680447950, 12680447951, 12680447952, 12680447953, 12680447950], "tags": {"addr:city": "Wendell", "addr:country": "US", "addr:housenumber": "20", "addr:postcode": "83355", "addr:state": "ID", "addr:street": "South Idaho Street", "branch": "Adventure's First Stop", "brand": "Maverik", "brand:wikidata": "Q64149010", "building": "yes", "name": "Maverik", "opening_hours": "Wednesday 6\u202fam\u201310\u202fpm  Thursday 6\u202fam\u201310\u202fpm  Friday 6\u202fam\u201310\u202fpm  Saturday 6\u202fam\u201310\u202fpm  Sunday 6\u202fam\u201310\u202fpm  Monday 6\u202fam\u201310\u202fpm  Tuesday 6\u202fam\u201310\u202fpm", "phone": "+12085366181", "shop": "convenience", "website": "https://maverik.com/"}}]}