{"version": 0.6, "generator": "Overpass API 0.7.62.8 e802775f", "osm3s": {"timestamp_osm_base": "2025-12-06T04:23:30Z", "copyright": "The data included in this document is from www.openstreetmap.org. The data is made available under ODbL."}, "elements": [{"type": "node", "id": 1354260315, "lat": 46.8701842, "lon": -113.9472283, "tags": {"name": "Moss' Barber Shop", "shop": "hairdresser"}}, {"type": "node", "id": 4465992892, "lat": 46.8683126, "lon": -113.94855}, {"type": "node", "id": 4465992893, "lat": 46.8683812, "lon": -113.9484358}, {"type": "node", "id": 4465992895, "lat": 46.8684794, "lon": -113.9487646}, {"type": "node", "id": 4465992897, "lat": 46.8685481, "lon": -113.9486504}, {"type": "node", "id": 7921106709, "lat": 46.8688016, "lon": -113.9495419}, {"type": "node", "id": 7921106710, "lat": 46.8689369, "lon": -113.949334}, {"type": "node", "id": 7921106711, "lat": 46.86904, "lon": -113.9494804}, {"type": "node", "id": 7921106712, "lat": 46.8689069, "lon": -113.9496888}, {"type": "node", "id": 7921106713, "lat": 46.8679725, "lon": -113.9494849}, {"type": "node", "id": 7921106714, "lat": 46.8680019, "lon": -113.9494846}, {"type": "node", "id": 7921106715, "lat": 46.8680024, "lon": -113.9495983}, {"type": "node", "id": 7921106716, "lat": 46.8679731, "lon": -113.9495986}, {"type": "node", "id": 7921118669, "lat": 46.8717576, "lon": -113.9467009}, {"type": "node", "id": 7921118671, "lat": 46.871907, "lon": -113.9462929}, {"type": "node", "id": 7921118672, "lat": 46.8720381, "lon": -113.9463866}, {"type": "node", "id": 7921118673, "lat": 46.871826, "lon": -113.9467085}, {"type": "node", "id": 7921118674, "lat": 46.8717879, "lon": -113.9466548}, {"type": "node", "id": 7921118689, "lat": 46.8725763, "lon": -113.9460183}, {"type": "node", "id": 7921118690, "lat": 46.8726293, "lon": -113.9461223}, {"type": "node", "id": 7921118691, "lat": 46.8725573, "lon": -113.9461993}, {"type": "node", "id": 7921118692, "lat": 46.8725053, "lon": -113.9460953}, {"type": "node", "id": 11619850004, "lat": 46.8683668, "lon": -113.9486195}, {"type": "node", "id": 12149923808, "lat": 46.8830004, "lon": -113.9172421}, {"type": "node", "id": 12149923809, "lat": 46.8828599, "lon": -113.9173677}, {"type": "node", "id": 12149923834, "lat": 46.8829106, "lon": -113.9171228}, {"type": "node", "id": 12149923835, "lat": 46.8828214, "lon": -113.9172022}, {"type": "node", "id": 12149923836, "lat": 46.8828211, "lon": -113.9173745}, {"type": "node", "id": 12149923837, "lat": 46.8827822, "lon": -113.9172813}, {"type": "node", "id": 12149923838, "lat": 46.8828477, "lon": -113.9173507}, {"type": "node", "id": 12149923839, "lat": 46.882812, "lon": -113.9172547}, {"type": "node", "id": 12149923840, "lat": 46.8829432, "lon": -113.9170936}, {"type": "node", "id": 12149923842, "lat": 46.8828562, "lon": -113.917371}, {"type": "node", "id": 12149923843, "lat": 46.8830039, "lon": -113.9172389}, {"type": "node", "id": 12154455332, "lat": 46.882951, "lon": -113.9172862}, {"type": "node", "id": 12154455333, "lat": 46.8828903, "lon": -113.9171409}, {"type": "node", "id": 12154455334, "lat": 46.8828417, "lon": -113.9171841}, {"type": "node", "id": 12154455335, "lat": 46.8829025, "lon": -113.9173296}, {"type": "node", "id": 12154455336, "lat": 46.8827986, "lon": -113.9172226}, {"type": "node", "id": 12294499464, "lat": 46.8719617, "lon": -113.9462789}, {"type": "node", "id": 12294499465, "lat": 46.8718464, "lon": -113.9464034}, {"type": "node", "id": 12294499466, "lat": 46.87184, "lon": -113.9463944}, {"type": "node", "id": 12294499467, "lat": 46.8719162, "lon": -113.9463058}, {"type": "node", "id": 12294499468, "lat": 46.8719411, "lon": -113.946268}, {"type": "node", "id": 12294499469, "lat": 46.8719555, "lon": -113.9462883}, {"type": "node", "id": 12294499470, "lat": 46.871753, "lon": -113.9465451}, {"type": "node", "id": 12294499471, "lat": 46.8717386, "lon": -113.9465248}, {"type": "node", "id": 12294499472, "lat": 46.8716876, "lon": -113.9466022}, {"type": "node", "id": 12524624028, "lat": 46.8732239, "lon": -113.9439647}, {"type": "node", "id": 12524624059, "lat": 46.8735624, "lon": -113.9444332}, {"type": "node", "id": 12524624060, "lat": 46.8736989, "lon": -113.9443275}, {"type": "node", "id": 12524624061, "lat": 46.8743476, "lon": -113.9437583}, {"type": "node", "id": 12524624062, "lat": 46.8743794, "lon": -113.9421199}, {"type": "node", "id": 12524624063, "lat": 46.8751626, "lon": -113.9431499}, {"type": "node", "id": 12524624067, "lat": 46.8745107, "lon": -113.9436366}, {"type": "way", "id": 449658995, "nodes": [4465992897, 4465992893, 4465992892, 11619850004, 4465992895, 4465992897], "tags": {"building": "yes", "shop": "convenience"}}, {"type": "way", "id": 848977501, "nodes": [7921106709, 7921106710, 7921106711, 7921106712, 7921106709], "tags": {"addr:city": "Missoula", "addr:housenumber": "615", "addr:postcode": "59802", "addr:state": "MT", "addr:street": "Highton Street", "building": "yes", "name": "Liberty Safes of Montana", "not:brand:wikidata": "Q96781174", "phone": "+14065426606", "shop": "hardware", "source": "microsoft/BuildingFootprints"}}, {"type": "way", "id": 848977502, "nodes": [7921106713, 7921106714, 7921106715, 7921106716, 7921106713], "tags": {"addr:city": "Missoula", "addr:housenumber": "3455", "addr:postcode": "59802", "addr:state": "MT", "addr:street": "MT-200", "amenity": "cafe", "building": "yes", "cuisine": "coffee_shop", "name": "Florence Coffee Company", "source": "microsoft/BuildingFootprints"}}, {"type": "way", "id": 848979038, "nodes": [7921118669, 12294499472, 12294499471, 12294499470, 12294499465, 12294499466, 7921118671, 12294499467, 12294499468, 12294499469, 12294499464, 7921118672, 7921118673, 7921118674, 7921118669], "tags": {"addr:city": "Missoula", "addr:housenumber": "3650", "addr:postcode": "59802", "addr:state": "MT", "addr:street": "Old Montana 200", "amenity": "bar", "building": "yes", "name": "The Reno", "source": "microsoft/BuildingFootprints"}}, {"type": "way", "id": 848979042, "nodes": [7921118689, 7921118690, 7921118691, 7921118692, 7921118689], "tags": {"building": "yes", "office": "yes", "source": "microsoft/BuildingFootprints"}}, {"type": "way", "id": 1312622284, "nodes": [12149923809, 12154455335]}, {"type": "way", "id": 1312622291, "nodes": [12149923835, 12154455336, 12149923839, 12149923837, 12149923836, 12149923838, 12149923842, 12149923809]}, {"type": "way", "id": 1313104161, "nodes": [12524624059, 12524624028, 12524624062, 12524624063, 12524624067, 12524624061, 12524624060, 12524624059], "tags": {"addr:city": "Missoula", "addr:housenumber": "730", "addr:postcode": "59802", "addr:state": "MT", "addr:street": "Clyde Street", "landuse": "commercial", "name": "Hellgate Canyon Storage", "shop": "storage_rental"}}, {"type": "way", "id": 1313122231, "nodes": [12154455332, 12149923808]}, {"type": "way", "id": 1313122233, "nodes": [12154455332, 12154455333, 12149923834]}, {"type": "way", "id": 1313122234, "nodes": [12149923808, 12149923843, 12149923840, 12149923834]}, {"type": "way", "id": 1313122236, "nodes": [12154455335, 12154455334, 12149923835]}, {"type": "relation", "id": 18004075, "members": [{"type": "way", "ref": 1313122234, "role": "outer"}, {"type": "way", "ref": 1313122233, "role": "outer"}, {"type": "way", "ref": 1313122231, "role": "outer"}], "tags": {"building:part": "yes", "name": "Canyon River Pro Shop", "opening_hours": "sunrise-sunset", "shop": "sports", "sport": "golf", "type": "multipolygon", "wheelchair": "yes"}}, {"type": "relation", "id": 18004076, "members": [{"type": "way", "ref": 1312622284, "role": "outer"}, {"type": "way", "ref": 1313122236, "role": "outer"}, {"type": "way", "ref": 1312622291, "role": "outer"}], "tags": {"amenity": "restaurant", "building:part": "yes", "cuisine": "american;burger;coffee_shop;regional", "delivery": "no", "name": "The Fox Den", "opening_hours": "sunrise-sunset", "opening_hours:kitchen": "sunrise-sunset", "operator": "Canyon River Golf Club", "outdoor_seating": "yes", "reservation": "no", "smoking": "outside", "takeaway": "yes", "type": "multipolygon", "wheelchair": "yes"}}]}