{"version": 0.6, "generator": "Overpass API 0.7.62.8 e802775f", "osm3s": {"timestamp_osm_base": "2025-12-05T21:49:38Z", "copyright": "The data included in this document is from www.openstreetmap.org. The data is made available under ODbL."}, "elements": [{"type": "node", "id": 5693881667, "lat": 48.2506172, "lon": -114.287491}, {"type": "node", "id": 5693881668, "lat": 48.2481168, "lon": -114.2913105}, {"type": "node", "id": 5693881669, "lat": 48.2474023, "lon": -114.2901947}, {"type": "node", "id": 5693881670, "lat": 48.2475732, "lon": -114.2869465}, {"type": "node", "id": 5693881671, "lat": 48.2495171, "lon": -114.2871262}, {"type": "node", "id": 5693881672, "lat": 48.2505029, "lon": -114.2870619}, {"type": "node", "id": 5694130835, "lat": 48.2374584, "lon": -114.304329}, {"type": "node", "id": 5694130836, "lat": 48.2367522, "lon": -114.3049485}, {"type": "node", "id": 5694130837, "lat": 48.2363175, "lon": -114.3037677}, {"type": "node", "id": 5694130838, "lat": 48.2370491, "lon": -114.3032516}, {"type": "node", "id": 5694130839, "lat": 48.2373472, "lon": -114.3040725}, {"type": "node", "id": 5702764752, "lat": 48.2484316, "lon": -114.2908432}, {"type": "node", "id": 9710109613, "lat": 48.237093, "lon": -114.3046493}, {"type": "node", "id": 11666093334, "lat": 48.2382281, "lon": -114.2745913, "tags": {"leisure": "sports_centre", "name": "The FORT"}}, {"type": "way", "id": 598208432, "nodes": [5693881667, 5702764752, 5693881668, 5693881669, 5693881670, 5693881671, 5693881672, 5693881667], "tags": {"addr:city": "Evergreen", "addr:postcode": "59902", "addr:state": "MT", "addr:street": "Pine Grove", "leisure": "park", "name": "Pine Grove Pond Community Fishing Park"}}, {"type": "way", "id": 598240280, "nodes": [5694130835, 9710109613, 5694130836, 5694130837, 5694130838, 5694130839, 5694130835], "tags": {"addr:city": "Kalispell", "addr:postcode": "59901", "addr:state": "MT", "addr:street": "Mission Trail Road", "leisure": "park", "name": "Mission Trail Park"}}]}