{"version": 0.6, "generator": "Overpass API 0.7.62.8 e802775f", "osm3s": {"timestamp_osm_base": "2025-12-06T17:08:56Z", "copyright": "The data included in this document is from www.openstreetmap.org. The data is made available under ODbL."}, "elements": [{"type": "node", "id": 633116624, "lat": 46.5338681, "lon": -122.4848967, "tags": {"addr:city": "Mossyrock", "addr:housenumber": "748", "addr:postcode": "98564", "addr:state": "WA", "addr:street": "Williams Street", "amenity": "atm, fuel", "name": "Mossy-Mini", "operator": "Shell Oil Co.", "phone": "+1-360-983-3707", "shop": "convenience", "toilets": "yes", "website": "https://find.shell.com/us/fuel/10007383-748-williams-street"}}, {"type": "node", "id": 633116637, "lat": 46.5294054, "lon": -122.482352, "tags": {"addr:city": "Mossyrock", "addr:country": "US", "addr:housenumber": "243", "addr:postcode": "98564", "addr:state": "WA", "addr:street": "East Main Street", "amenity": "post_office", "fax": "+1-360-983-8288", "name": "Mossyrock Post Office", "phone": "+1-360-983-3494", "website": "https://www.postallocations.com/wa/mossyrock/mossyrock"}}, {"type": "node", "id": 633116640, "lat": 46.5290686, "lon": -122.482198, "tags": {"addr:city": "Mossyrock", "addr:country": "US", "addr:housenumber": "254", "addr:postcode": "98564", "addr:state": "WA", "addr:street": "East State Street", "contact:facebook": "https://www.facebook.com/people/Smith-and-Son-Grocery/100063407347121/", "email": "joelentz587@hotmail.com", "name": "Smith & Son Grocery", "opening_hours": "Mo-Su 06:45-21:00", "phone": "+1-360-983-3511", "shop": "supermarket"}}, {"type": "node", "id": 633116645, "lat": 46.5291478, "lon": -122.4837573, "tags": {"addr:city": "Mossyrock", "addr:country": "US", "addr:housenumber": "148", "addr:postcode": "98564", "addr:state": "WA", "addr:street": "East State Street", "amenity": "bar", "contact:facebook": "https://www.facebook.com/people/Pioneer-Bar-Grill/100063750002500/", "name": "Pioneer Bar & Grill", "opening_hours": "Mo-Th 11:00-22:00; Fr 11:00-23:00; Sa 07:00-23:00; Su 08:00-21:00", "outdoor_seating": "yes", "phone": "+1-360-983-3983"}}, {"type": "node", "id": 1247836620, "lat": 46.5338369, "lon": -122.4850795, "tags": {"addr:city": "Mossyrock", "addr:housenumber": "748", "addr:postcode": "98564", "addr:state": "WA", "addr:street": "Williams Street", "amenity": "fuel", "brand": "Shell", "brand:wikidata": "Q110716465", "name": "Shell", "opening_hours": "24/7", "phone": "+1-360-983-3707", "website": "https://find.shell.com/us/fuel/10007383-748-williams-street"}}, {"type": "node", "id": 2717660243, "lat": 46.5294589, "lon": -122.482289}, {"type": "node", "id": 2717660263, "lat": 46.5287388, "lon": -122.4835379, "tags": {"amenity": "fuel", "brand": "Flying K"}}, {"type": "node", "id": 2717660268, "lat": 46.5285101, "lon": -122.4830953}, {"type": "node", "id": 2717660284, "lat": 46.5302177, "lon": -122.4830706}, {"type": "node", "id": 2717660286, "lat": 46.5299121, "lon": -122.4854716}, {"type": "node", "id": 2717660327, "lat": 46.5330785, "lon": -122.4853978}, {"type": "node", "id": 2717660352, "lat": 46.5290211, "lon": -122.4825059}, {"type": "node", "id": 2717660353, "lat": 46.5293455, "lon": -122.4824206}, {"type": "node", "id": 2717660375, "lat": 46.5291063, "lon": -122.4840163, "tags": {"contact:foursquare": "https://foursquare.com/v/soap-n-suds/5306d53e498e71732563792a", "name": "Soap n' Suds Laundromat", "opening_hours": "Mo-Su 07:00-19:00", "phone": "+1-360-749-0949", "shop": "laundry", "toilets": "no"}}, {"type": "node", "id": 2717660391, "lat": 46.5293452, "lon": -122.4822894}, {"type": "node", "id": 2717660405, "lat": 46.5302561, "lon": -122.4834163}, {"type": "node", "id": 2717660410, "lat": 46.5291762, "lon": -122.4825048}, {"type": "node", "id": 2717660430, "lat": 46.5286002, "lon": -122.4835544, "tags": {"addr:city": "Mossyrock", "addr:country": "US", "addr:housenumber": "221", "addr:postcode": "98564", "addr:state": "WA", "addr:street": "East Main Street", "name": "Mossyrock Market", "payment:mastercard": "yes", "payment:visa": "yes", "shop": "convenience"}}, {"type": "node", "id": 2717660445, "lat": 46.5324324, "lon": -122.4844485}, {"type": "node", "id": 2717660470, "lat": 46.5294592, "lon": -122.4824201}, {"type": "node", "id": 2717660495, "lat": 46.530096, "lon": -122.4834124}, {"type": "node", "id": 2717660498, "lat": 46.5300934, "lon": -122.4830726}, {"type": "node", "id": 2717660502, "lat": 46.5291503, "lon": -122.4851661, "tags": {"addr:city": "Mossyrock", "addr:housenumber": "100", "addr:postcode": "98564", "addr:state": "WA", "addr:street": "East State Street", "amenity": "restaurant", "cuisine": "mexican", "name": "Nacho's Mexican Restaurant", "opening_hours": "Tu-Th 11:00-21:00; Fr-Sa 11:00-22:00; Su 11:00-21:00", "phone": "+1-360-983-3562", "website": "http://nachosmexicanrestaurant.com/"}}, {"type": "node", "id": 2717660533, "lat": 46.5286902, "lon": -122.4826731}, {"type": "node", "id": 2717660544, "lat": 46.5282343, "lon": -122.4830978}, {"type": "node", "id": 2717660549, "lat": 46.5324351, "lon": -122.484745}, {"type": "node", "id": 2717749448, "lat": 46.5286165, "lon": -122.482032, "tags": {"addr:city": "Mossyrock", "addr:housenumber": "249", "addr:postcode": "98564", "addr:state": "WA", "addr:street": "East State Street", "brand": "Ace", "brand:wikipedia": "en:Ace Hardware", "email": "mossyrockhardware@gmail.com", "name": "Mossyrock Hardware", "opening_hours": "Mo-Fr 08:00-17:30; Sa-Su 09:00-17:30", "payment:cash": "yes", "payment:mastercard": "yes", "phone": "+1-360-983-3333", "shop": "doityourself", "website": "https://www.acehardware.com"}}, {"type": "node", "id": 5731400240, "lat": 46.5306781, "lon": -122.4848571}, {"type": "node", "id": 5731400241, "lat": 46.5305717, "lon": -122.4848601}, {"type": "node", "id": 5731400242, "lat": 46.5305705, "lon": -122.484772}, {"type": "node", "id": 5731400243, "lat": 46.530505, "lon": -122.4847739}, {"type": "node", "id": 5731400244, "lat": 46.5305007, "lon": -122.4844636}, {"type": "node", "id": 5731400245, "lat": 46.5305611, "lon": -122.4844619}, {"type": "node", "id": 5731400246, "lat": 46.5305602, "lon": -122.4843948}, {"type": "node", "id": 5731400247, "lat": 46.5306702, "lon": -122.4843916}, {"type": "node", "id": 5731400248, "lat": 46.530671, "lon": -122.4844539}, {"type": "node", "id": 5731400249, "lat": 46.5307155, "lon": -122.4844526}, {"type": "node", "id": 5731400250, "lat": 46.5307198, "lon": -122.4847673}, {"type": "node", "id": 5731400251, "lat": 46.5306769, "lon": -122.4847685}, {"type": "node", "id": 5842730612, "lat": 46.5330931, "lon": -122.4865241}, {"type": "node", "id": 5842730613, "lat": 46.5324011, "lon": -122.4865218}, {"type": "node", "id": 5842730614, "lat": 46.5324067, "lon": -122.48666}, {"type": "node", "id": 5842730615, "lat": 46.5309597, "lon": -122.486736}, {"type": "node", "id": 5842730616, "lat": 46.5309637, "lon": -122.4872081}, {"type": "node", "id": 5842730617, "lat": 46.5305944, "lon": -122.4873349}, {"type": "node", "id": 5842730618, "lat": 46.5304377, "lon": -122.4875056}, {"type": "node", "id": 5842730619, "lat": 46.5299389, "lon": -122.4875178}, {"type": "node", "id": 9590927586, "lat": 46.5291446, "lon": -122.4848031, "tags": {"addr:city": "Mossyrock", "addr:housenumber": "122", "addr:postcode": "98564", "addr:state": "WA", "addr:street": "East State Street", "amenity": "cafe", "contact:facebook": "https://www.facebook.com/profile.php?id=100063740854616", "cuisine": "coffee_shop;sandwich", "email": "Lemontreecafe@yahoo.com", "internet_access": "wlan", "name": "Lemon Tree Cafe & Espresso", "opening_hours": "Mo-Fr 06:00-18:00; Sa-Su 07:00-15:00", "outdoor_seating": "yes", "phone": "+1-360-983-3235", "takeaway": "yes"}}, {"type": "node", "id": 9594508076, "lat": 46.5291713, "lon": -122.4855771}, {"type": "node", "id": 9594508077, "lat": 46.5291702, "lon": -122.4858306}, {"type": "node", "id": 10755153730, "lat": 46.5315007, "lon": -122.4851732}, {"type": "node", "id": 10755153731, "lat": 46.5314995, "lon": -122.4850424}, {"type": "node", "id": 10755153732, "lat": 46.5313732, "lon": -122.4850448}, {"type": "node", "id": 10755153733, "lat": 46.5313729, "lon": -122.4850166}, {"type": "node", "id": 10755153734, "lat": 46.5313241, "lon": -122.4850175}, {"type": "node", "id": 10755153735, "lat": 46.5313243, "lon": -122.4850425}, {"type": "node", "id": 10755153736, "lat": 46.5313101, "lon": -122.4850428}, {"type": "node", "id": 10755153737, "lat": 46.5313113, "lon": -122.4851767}, {"type": "node", "id": 10755153738, "lat": 46.5314393, "lon": -122.485152, "tags": {"addr:city": "Mossyrock", "addr:housenumber": "424", "addr:postcode": "98564", "addr:state": "WA", "addr:street": "Williams Street", "amenity": "doctors", "healthcare": "doctor", "healthcare:speciality": "general", "name": "Hugo De Oliveira", "opening_hours": "Tu-Sa 09:00-18:00", "phone": "+1-360-983-3589", "website": "https://rivervalleyhealth.org/"}}, {"type": "node", "id": 10755153741, "lat": 46.5312568, "lon": -122.4848591}, {"type": "node", "id": 10755153742, "lat": 46.5312572, "lon": -122.4849382}, {"type": "node", "id": 10755153743, "lat": 46.5315703, "lon": -122.4849356}, {"type": "node", "id": 10755153744, "lat": 46.53157, "lon": -122.4848564}, {"type": "node", "id": 11035007105, "lat": 46.5340567, "lon": -122.484933, "tags": {"amenity": "charging_station", "brand": "ChargePoint", "brand:wikidata": "Q5176149", "name": "ChargePoint", "operator": "ChargePoint", "operator:wikidata": "Q5176149"}}, {"type": "node", "id": 11185198310, "lat": 46.5290208, "lon": -122.4824172}, {"type": "node", "id": 11185198312, "lat": 46.5291759, "lon": -122.4824161}, {"type": "node", "id": 11185198333, "lat": 46.5290421, "lon": -122.4830006}, {"type": "node", "id": 11185217340, "lat": 46.5292086, "lon": -122.4829017}, {"type": "node", "id": 11185217342, "lat": 46.5292079, "lon": -122.4828541}, {"type": "node", "id": 11185217343, "lat": 46.5290324, "lon": -122.48286}, {"type": "node", "id": 11185217344, "lat": 46.5290346, "lon": -122.4830008}, {"type": "node", "id": 11185217351, "lat": 46.5300817, "lon": -122.483101}, {"type": "node", "id": 11185217352, "lat": 46.5300828, "lon": -122.4832452}, {"type": "node", "id": 11185217353, "lat": 46.5300936, "lon": -122.4831008}, {"type": "node", "id": 11185217354, "lat": 46.5300947, "lon": -122.483245}, {"type": "node", "id": 11185217355, "lat": 46.5302557, "lon": -122.4833649}, {"type": "node", "id": 11185217356, "lat": 46.5302494, "lon": -122.483365}, {"type": "node", "id": 11185217357, "lat": 46.5302199, "lon": -122.4834169}, {"type": "node", "id": 11185217358, "lat": 46.5302198, "lon": -122.4834104}, {"type": "node", "id": 11185217359, "lat": 46.5302487, "lon": -122.4832667}, {"type": "node", "id": 11185217360, "lat": 46.5302192, "lon": -122.4832671}, {"type": "node", "id": 11185217361, "lat": 46.5292482, "lon": -122.4834579}, {"type": "node", "id": 11185217362, "lat": 46.5292292, "lon": -122.4834586}, {"type": "node", "id": 11185217363, "lat": 46.5292478, "lon": -122.4834352}, {"type": "node", "id": 11185217364, "lat": 46.5292289, "lon": -122.4834359}, {"type": "node", "id": 11185217365, "lat": 46.5291518, "lon": -122.4834613}, {"type": "node", "id": 11185217366, "lat": 46.5291514, "lon": -122.4834386}, {"type": "node", "id": 11185217367, "lat": 46.5290435, "lon": -122.4834651}, {"type": "node", "id": 11185217368, "lat": 46.5293218, "lon": -122.4834326}, {"type": "node", "id": 11185217369, "lat": 46.529319, "lon": -122.4832669}, {"type": "node", "id": 11185217370, "lat": 46.5290403, "lon": -122.4832767}, {"type": "node", "id": 11187051534, "lat": 46.5287892, "lon": -122.4817671}, {"type": "node", "id": 11187051535, "lat": 46.5287694, "lon": -122.4813259}, {"type": "node", "id": 11187051536, "lat": 46.528697, "lon": -122.4813212}, {"type": "node", "id": 11187071608, "lat": 46.5272245, "lon": -122.4804813}, {"type": "node", "id": 11187071609, "lat": 46.5270275, "lon": -122.480482}, {"type": "node", "id": 11187071610, "lat": 46.5270277, "lon": -122.4806359}, {"type": "node", "id": 11187071611, "lat": 46.5272247, "lon": -122.4806352}, {"type": "node", "id": 11187071669, "lat": 46.5323903, "lon": -122.4851778}, {"type": "node", "id": 11187071670, "lat": 46.532439, "lon": -122.4851769}, {"type": "node", "id": 11187071671, "lat": 46.5323838, "lon": -122.4844495}, {"type": "node", "id": 11187071807, "lat": 46.5281067, "lon": -122.4857947}, {"type": "node", "id": 11187071808, "lat": 46.5280916, "lon": -122.4853849}, {"type": "node", "id": 11187071809, "lat": 46.5278522, "lon": -122.4854035}, {"type": "node", "id": 11187071810, "lat": 46.5278185, "lon": -122.4854351}, {"type": "node", "id": 11187071811, "lat": 46.5278325, "lon": -122.4858161}, {"type": "node", "id": 11187071943, "lat": 46.5291671, "lon": -122.485899}, {"type": "node", "id": 11187071944, "lat": 46.5291772, "lon": -122.4854826}, {"type": "node", "id": 11187071946, "lat": 46.5290877, "lon": -122.4854839}, {"type": "node", "id": 11187071947, "lat": 46.5290887, "lon": -122.4855229}, {"type": "node", "id": 11187071948, "lat": 46.5290471, "lon": -122.4855738}, {"type": "node", "id": 11187071949, "lat": 46.529048, "lon": -122.4856476}, {"type": "node", "id": 11187071950, "lat": 46.529026, "lon": -122.4856481}, {"type": "node", "id": 11187071951, "lat": 46.529029, "lon": -122.4858991}, {"type": "node", "id": 11187072117, "lat": 46.5291619, "lon": -122.4857475}, {"type": "node", "id": 11187072120, "lat": 46.5291747, "lon": -122.485749}, {"type": "node", "id": 11187072121, "lat": 46.5296636, "lon": -122.4855299}, {"type": "node", "id": 11187072122, "lat": 46.5295244, "lon": -122.4855312}, {"type": "node", "id": 11187072123, "lat": 46.5295052, "lon": -122.4855386}, {"type": "node", "id": 11187072124, "lat": 46.5294822, "lon": -122.4855517}, {"type": "node", "id": 11187072125, "lat": 46.5294713, "lon": -122.4855594}, {"type": "node", "id": 11187072126, "lat": 46.5294607, "lon": -122.4855735}, {"type": "node", "id": 11187072127, "lat": 46.5294388, "lon": -122.4858072}, {"type": "node", "id": 11187072128, "lat": 46.5296641, "lon": -122.4856008}, {"type": "node", "id": 11187072129, "lat": 46.5296777, "lon": -122.4856006}, {"type": "node", "id": 11187072136, "lat": 46.5296791, "lon": -122.4858065}, {"type": "node", "id": 11187072199, "lat": 46.5294134, "lon": -122.4844761}, {"type": "node", "id": 11187072200, "lat": 46.5294005, "lon": -122.4846633}, {"type": "node", "id": 11187072201, "lat": 46.5291131, "lon": -122.4846705}, {"type": "node", "id": 11187072202, "lat": 46.5291122, "lon": -122.4846266}, {"type": "node", "id": 11187072203, "lat": 46.5290745, "lon": -122.4846281}, {"type": "node", "id": 11187072204, "lat": 46.5290718, "lon": -122.4844875}, {"type": "node", "id": 11187072210, "lat": 46.5289304, "lon": -122.4820501}, {"type": "node", "id": 11187072211, "lat": 46.5289817, "lon": -122.4820534}, {"type": "node", "id": 11187072212, "lat": 46.5290071, "lon": -122.4830364}, {"type": "node", "id": 11187072213, "lat": 46.5289904, "lon": -122.4830425}, {"type": "node", "id": 11187072214, "lat": 46.5289918, "lon": -122.4831404}, {"type": "node", "id": 11187072215, "lat": 46.5290099, "lon": -122.4831451}, {"type": "node", "id": 11187072216, "lat": 46.5290172, "lon": -122.4834254}, {"type": "node", "id": 11187072217, "lat": 46.5289733, "lon": -122.4834341}, {"type": "node", "id": 11187072218, "lat": 46.5290246, "lon": -122.4836993}, {"type": "node", "id": 11187072219, "lat": 46.5289758, "lon": -122.4837018}, {"type": "node", "id": 11187072220, "lat": 46.5290129, "lon": -122.4852515}, {"type": "node", "id": 11187072221, "lat": 46.5290617, "lon": -122.4852491}, {"type": "node", "id": 11187072222, "lat": 46.5288824, "lon": -122.4845023}, {"type": "node", "id": 11187072223, "lat": 46.5288594, "lon": -122.4845566}, {"type": "node", "id": 11187072224, "lat": 46.5288704, "lon": -122.4850347}, {"type": "node", "id": 11187072225, "lat": 46.5288967, "lon": -122.4850977}, {"type": "node", "id": 11187072226, "lat": 46.5288933, "lon": -122.4843602}, {"type": "node", "id": 11187072227, "lat": 46.5288817, "lon": -122.483756}, {"type": "node", "id": 11187072228, "lat": 46.5288024, "lon": -122.4837592}, {"type": "node", "id": 11187072229, "lat": 46.528814, "lon": -122.4843634}, {"type": "node", "id": 11187072230, "lat": 46.5288921, "lon": -122.4853051}, {"type": "node", "id": 11187072231, "lat": 46.5288005, "lon": -122.485308}, {"type": "node", "id": 11187072232, "lat": 46.5288013, "lon": -122.4855427}, {"type": "node", "id": 11187072233, "lat": 46.528894, "lon": -122.4855398}, {"type": "node", "id": 11187072308, "lat": 46.5307575, "lon": -122.4848894}, {"type": "node", "id": 11187072309, "lat": 46.5304707, "lon": -122.4848978}, {"type": "node", "id": 11187072310, "lat": 46.5304745, "lon": -122.4851706}, {"type": "node", "id": 11187072311, "lat": 46.5307613, "lon": -122.4851622}, {"type": "node", "id": 11187072437, "lat": 46.5287099, "lon": -122.4813842}, {"type": "node", "id": 11187072438, "lat": 46.5287143, "lon": -122.4816212}, {"type": "node", "id": 11187072439, "lat": 46.5287124, "lon": -122.4816725}, {"type": "node", "id": 11187072440, "lat": 46.5287044, "lon": -122.4817316}, {"type": "node", "id": 11187072441, "lat": 46.528739, "lon": -122.4824759}, {"type": "node", "id": 11187072442, "lat": 46.5287567, "lon": -122.4825828}, {"type": "node", "id": 11187072443, "lat": 46.5288109, "lon": -122.4825815}, {"type": "node", "id": 11187072459, "lat": 46.5285567, "lon": -122.4826807}, {"type": "node", "id": 11187072460, "lat": 46.5287048, "lon": -122.4826804}, {"type": "node", "id": 11187072461, "lat": 46.5287542, "lon": -122.4828587}, {"type": "node", "id": 11187072462, "lat": 46.5287154, "lon": -122.4828976}, {"type": "node", "id": 11187072463, "lat": 46.5287159, "lon": -122.4828675}, {"type": "node", "id": 11187072464, "lat": 46.5287468, "lon": -122.4826784}, {"type": "node", "id": 11187072465, "lat": 46.5285641, "lon": -122.4828963}, {"type": "node", "id": 11187072466, "lat": 46.5287602, "lon": -122.4832814}, {"type": "node", "id": 11187072467, "lat": 46.52881, "lon": -122.4829137}, {"type": "node", "id": 11187072468, "lat": 46.5287805, "lon": -122.4828947}, {"type": "node", "id": 11187072469, "lat": 46.5285307, "lon": -122.4828966}, {"type": "node", "id": 11187072470, "lat": 46.5282244, "lon": -122.4830979}, {"type": "node", "id": 11187072471, "lat": 46.5282252, "lon": -122.483298}, {"type": "node", "id": 11187072472, "lat": 46.5287205, "lon": -122.4817309}, {"type": "node", "id": 11187072477, "lat": 46.5287307, "lon": -122.4822432}, {"type": "node", "id": 11187072481, "lat": 46.5288298, "lon": -122.4832799}, {"type": "node", "id": 11187072501, "lat": 46.5285314, "lon": -122.4830952}, {"type": "node", "id": 11187072502, "lat": 46.5285308, "lon": -122.482913}, {"type": "node", "id": 11192643693, "lat": 46.5291449, "lon": -122.481637, "tags": {"addr:city": "Mossyrock", "addr:country": "US", "addr:housenumber": "306", "addr:postcode": "98564", "addr:state": "WA", "addr:street": "East State Street", "amenity": "restaurant", "contact:facebook": "https://www.facebook.com/profile.php?id=100087633021371", "contact:instagram": "https://www.instagram.com/west.on.wheels_wow/", "contact:yelp": "https://www.yelp.com/biz/west-on-wheels-mossyrock-2", "email": "westonwheels2022@gmail.com", "name": "West On Wheels", "opening_hours": "Tu-Th 12:00-19:00; Fr-Sa 12:00-20:00", "phone": "+1-564-216-9378"}}, {"type": "node", "id": 11192643694, "lat": 46.5287779, "lon": -122.4854183, "tags": {"addr:city": "Mossyrock", "addr:country": "US", "addr:housenumber": "101", "addr:postcode": "98564", "addr:state": "WA", "addr:street": "West State Street", "contact:facebook": "https://www.facebook.com/retrophoenixmercantile/", "email": "6neitz@lewiscounty.com", "name": "Retro Phoenix Mercantile", "opening_hours": "Mo-Fr 09:00-17:00; Sa-Su 09:00-15:00", "shop": "second_hand"}}, {"type": "node", "id": 11192643695, "lat": 46.5287786, "lon": -122.485486, "tags": {"addr:city": "Mossyrock", "addr:country": "US", "addr:housenumber": "101", "addr:postcode": "98564", "addr:state": "WA", "addr:street": "West State Street", "contact:facebook": "https://www.facebook.com/profile.php?id=100023920014531", "contact:yelp": "https://www.yelp.com/biz/4-u-real-estate-mossyrock?osq=4U", "image": "https://d3mqmy22owj503.cloudfront.net/60/500860/images/site_graphics/logo-banner.png", "name": "4U Real Estate", "office": "estate_agent", "opening_hours": "Mo-Sa 09:00-17:00", "phone": "+1-360-983-8500", "website": "https://4-urealestate.com"}}, {"type": "node", "id": 11192643696, "lat": 46.5287772, "lon": -122.4853519, "tags": {"addr:city": "Mossyrock", "addr:country": "US", "addr:housenumber": "101", "addr:postcode": "98564", "addr:state": "WA", "addr:street": "West State Street", "beauty": "tanning", "contact:facebook": "https://www.facebook.com/profile.php?id=100063496696321", "contact:yelp": "https://www.yelp.com/biz/genas-hair-remedy-and-browse-mossyrock", "name": "Hair Remedy and Browse", "opening_hours": "Mo-Fr 08:30-17:30; Sa 08:30-16:00", "phone": "+1-360-983-3760", "shop": "hairdresser"}}, {"type": "node", "id": 11199091555, "lat": 46.5285948, "lon": -122.4829043, "tags": {"amenity": "polling_station", "name": "Lewis County Elections", "phone": "+1-360-740-1164;+1-360-740-1278", "polling_station": "ballot_box"}}, {"type": "node", "id": 11199091556, "lat": 46.5285729, "lon": -122.4826147, "tags": {"addr:city": "Mossyrock", "addr:housenumber": "231", "addr:postcode": "98564", "addr:state": "WA", "addr:street": "East State Street", "amenity": "townhall", "contact:fax": "+1-360-983-8910", "name": "Mossyrock City Hall", "opening_hours": "Mo-Fr 08:00-12:00,13:00-16:45", "operator": "City of Mossyrock, Washington", "phone": "+1-360-983-3300", "website": "https://www.cityofmossyrock.com/city-hall/"}}, {"type": "node", "id": 11199091557, "lat": 46.5286633, "lon": -122.4826133, "tags": {"addr:city": "Mossyrock", "addr:country": "US", "addr:housenumber": "231", "addr:postcode": "98564", "addr:state": "WA", "addr:street": "East State Street", "amenity": "police", "emergency:phone": "911", "name": "Mossyrock Police", "phone": "+1-360-740-1105"}}, {"type": "node", "id": 11199091558, "lat": 46.5290794, "lon": -122.4825684, "tags": {"addr:city": "Mossyrock", "addr:country": "US", "addr:housenumber": "236", "addr:postcode": "98564", "addr:state": "WA", "addr:street": "East State Street", "contact:facebook": "https://www.facebook.com/RedAcesRents", "contact:instagram": "https://www.instagram.com/redacesrents/", "contact:twitter": "https://twitter.com/RedAcesRents", "email": "RedAcesRents@gmail.com", "name": "Red Ace's Customs & Rentals", "phone": "+1-360-880-1608", "shop": "rental", "website": "https://www.redacesrents.com"}}, {"type": "node", "id": 11199091559, "lat": 46.5290421, "lon": -122.4823293, "tags": {"addr:city": "Mossyrock", "addr:country": "US", "addr:housenumber": "241", "addr:postcode": "98564", "addr:state": "WA", "addr:street": "East State Street", "contact:facebook": "https://www.facebook.com/rainrockink/", "name": "Rain Rock Ink", "opening_hours": "We-Sa 11:00-18:00", "phone": "+1-360-523-8124", "piercing": "yes", "shop": "tattoo"}}, {"type": "node", "id": 11199091560, "lat": 46.5290421, "lon": -122.4823813, "tags": {"contact:facebook": "https://www.facebook.com/Backroadstyle", "email": "kelleytjspears@gmail.com", "name": "Backroad Style", "opening_hours": "Tu-Fr 09:00-17:00; Sa 10:00-14:00", "phone": "+1-360-496-1482", "shop": "hairdresser"}}, {"type": "node", "id": 11199091561, "lat": 46.5292101, "lon": -122.4829949}, {"type": "node", "id": 11199091562, "lat": 46.5291053, "lon": -122.4841087, "tags": {"addr:city": "Mossyrock", "addr:country": "US", "addr:housenumber": "144", "addr:postcode": "98564", "addr:state": "WA", "addr:street": "East State Street", "amenity": "restaurant", "contact:facebook": "https://www.facebook.com/profile.php?id=100089809937866", "cuisine": "pizza", "internet_access": "yes", "internet_access:fee": "no", "name": "Uptown Pizza", "opening_hours": "Mo-Su 10:00-20:00", "phone": "+1-360-983-3168", "website": "https://uptown-pizza.square.site"}}, {"type": "node", "id": 11204001104, "lat": 46.5304419, "lon": -122.4854593}, {"type": "node", "id": 11330215941, "lat": 46.529148, "lon": -122.4850226, "tags": {"amenity": "cinema", "description": "Former movie theater", "name": "G Theatre", "wikidata": "Q43305745"}}, {"type": "node", "id": 12816570194, "lat": 46.5299164, "lon": -122.4858029}, {"type": "node", "id": 12871981868, "lat": 46.5322536, "lon": -122.4866723}, {"type": "node", "id": 12871981869, "lat": 46.5322404, "lon": -122.4854174}, {"type": "node", "id": 12871981870, "lat": 46.5309487, "lon": -122.4854475}, {"type": "way", "id": 266176685, "nodes": [2717660495, 11185217354, 11185217352, 11185217351, 11185217353, 2717660498, 2717660284, 11185217360, 11185217359, 11185217356, 11185217355, 2717660405, 11185217357, 11185217358, 2717660495], "tags": {"addr:city": "Mossyrock", "addr:country": "US", "addr:housenumber": "201", "addr:postcode": "98564", "addr:state": "WA", "addr:street": "Mossyrock Avenue", "amenity": "place_of_worship", "building": "yes", "contact:facebook": "https://www.facebook.com/mossyrockcommunitychurch/", "email": "MCCWA2022@outlook.com", "name": "Mossyrock Community Church", "opening_hours": "Tu 09:30-12:00; We 17:45-20:00; Su 09:00-13:00", "phone": "+1-360-983-3747", "religion": "christian", "service_times": "Su 10:45", "wheelchair": "yes"}}, {"type": "way", "id": 266176719, "nodes": [2717660470, 2717660243, 2717660391, 2717660353, 2717660470], "tags": {"amenity": "public_building", "building": "yes"}}, {"type": "way", "id": 603905794, "nodes": [5731400240, 5731400241, 5731400242, 5731400243, 5731400244, 5731400245, 5731400246, 5731400247, 5731400248, 5731400249, 5731400250, 5731400251, 5731400240], "tags": {"addr:city": "Mossyrock", "addr:country": "US", "addr:housenumber": "118", "addr:postcode": "98564", "addr:state": "WA", "addr:street": "Mossyrock Avenue", "amenity": "place_of_worship", "building": "church", "contact:facebook": "https://www.facebook.com/MossyrockAssembly", "contact:instagram": "https://www.instagram.com/mossyrockyouth/", "denomination": "evangelical", "email": "info@mossyrockassembly.com", "name": "Mossyrock Assembly of God", "opening_hours": "Mo-Fr 09:00-15:00", "phone": "+1-360-983-3342", "religion": "christian", "service_times": "Su 10:30", "website": "https://mossyrockassemblyofgod.com"}}, {"type": "way", "id": 1156510587, "nodes": [10755153730, 10755153731, 10755153732, 10755153733, 10755153734, 10755153735, 10755153736, 10755153737, 10755153730], "tags": {"addr:city": "Mossyrock", "addr:housenumber": "424", "addr:postcode": "98564", "addr:state": "WA", "addr:street": "Williams Street", "amenity": "clinic", "building": "yes", "healthcare": "clinic", "healthcare:speciality": "general", "name": "River Valley Community Health", "opening_hours": "Tu-Sa 09:00-18:00", "phone": "+1-360-983-3589", "website": "https://rivervalleyhealth.org/"}}, {"type": "way", "id": 1156510589, "nodes": [10755153741, 10755153742, 10755153743, 10755153744, 10755153741], "tags": {"amenity": "parking", "operator": "River Valley Community Health", "parking": "surface", "surface": "asphalt"}}, {"type": "way", "id": 1207097485, "nodes": [11185198312, 11185198310, 2717660352, 2717660410, 11185198312], "tags": {"addr:city": "Mossyrock", "addr:country": "US", "addr:housenumber": "238", "addr:postcode": "98564", "addr:state": "WA", "addr:street": "East State Street", "amenity": "restaurant", "building": "retail", "cuisine": "mexican", "name": "Deliciousness Mexican Restaurant", "payment:american_express": "yes", "payment:cash": "yes", "payment:credit_cards": "yes", "payment:discover_card": "yes", "payment:mastercard": "yes", "payment:visa": "yes", "payment:visa_debit": "no", "phone": "+1-360-983-3072", "smoking": "no", "takeaway": "yes"}}, {"type": "way", "id": 1207097493, "nodes": [11199091561, 11185217340, 11185217342, 11185217343, 11185217344, 11185198333, 11199091561], "tags": {"addr:city": "Mossyrock", "addr:country": "US", "addr:housenumber": "224", "addr:postcode": "98564", "addr:state": "WA", "addr:street": "East State Street", "amenity": "place_of_worship", "building": "religious", "denomination": "pentecostal", "name": "Iglesia De Dios Pentecostes Puerta Del Cielo", "opening_hours": "Mo 19:00-20:00; We-Th 19:00-22:00; Sa 19:00-22:00; Su 17:00-20:00", "phone": "+1-360-623-3043", "religion": "christian"}}, {"type": "way", "id": 1207097495, "nodes": [11185217370, 11185217367, 11185217365, 11185217366, 11185217364, 11185217362, 11185217361, 11185217363, 11185217368, 11185217369, 11185217370], "tags": {"addr:city": "Mossyrock", "addr:country": "US", "addr:housenumber": "206", "addr:postcode": "98564", "addr:state": "WA", "addr:street": "East State Street", "building": "yes", "contact:facebook": "https://www.facebook.com/profile.php?id=100057718470411", "contact:yelp": "https://www.yelp.com/biz/valley-of-creations-mossyrock-2", "email": "kathyvalleyofcreations@gmail.com", "name": "Valley Of Creations", "opening_hours": "Tu-Sa 09:00-15:00; Dec 25 off; Jan 1 off; Nov Th[4] off", "opening_hours:url": "https://www.valleyofcreations.com/about/", "payment:discover_card": "yes", "payment:mastercard": "yes", "payment:visa": "yes", "phone": "+1-253-303-2938", "shop": "florist", "source:opening_hours": "https://www.valleyofcreations.com/about/", "toilets": "no", "website": "https://www.valleyofcreations.com"}}, {"type": "way", "id": 1207331518, "nodes": [11187071611, 11187071610, 11187071609, 11187071608, 11187071611], "tags": {"amenity": "parking"}}, {"type": "way", "id": 1207331522, "nodes": [11187071671, 2717660445, 2717660549, 11187071670, 11187071669, 11187071671], "tags": {"amenity": "parking", "parking": "street_side"}}, {"type": "way", "id": 1207331538, "nodes": [11187071811, 11187071810, 11187071809, 11187071808, 11187071807, 11187071811], "tags": {"amenity": "parking", "parking": "surface"}}, {"type": "way", "id": 1207331559, "nodes": [11187071951, 11187071950, 11187071949, 11187071948, 11187071947, 11187071946, 11187071944, 9594508076, 11187072117, 11187072120, 9594508077, 11187071943, 11187071951], "tags": {"amenity": "parking", "parking": "surface"}}, {"type": "way", "id": 1207331591, "nodes": [11187072127, 11187072126, 11187072125, 11187072124, 11187072123, 11187072122, 11187072121, 11187072128, 11187072129, 11187072136, 11187072127], "tags": {"amenity": "parking", "parking": "surface"}}, {"type": "way", "id": 1207331607, "nodes": [11187072204, 11187072203, 11187072202, 11187072201, 11187072200, 11187072199, 11187072204], "tags": {"amenity": "parking", "parking": "surface"}}, {"type": "way", "id": 1207331609, "nodes": [11187072217, 11187072216, 11187072215, 11187072214, 11187072213, 11187072212, 11187072211, 11187072210, 11187072217], "tags": {"amenity": "parking", "parking": "street_side"}}, {"type": "way", "id": 1207331610, "nodes": [11187072221, 11187072220, 11187072219, 11187072218, 11187072221], "tags": {"amenity": "parking", "parking": "street_side"}}, {"type": "way", "id": 1207331611, "nodes": [11187072225, 11187072224, 11187072223, 11187072222, 11187072225], "tags": {"amenity": "parking", "parking": "lane"}}, {"type": "way", "id": 1207331612, "nodes": [11187072229, 11187072228, 11187072227, 11187072226, 11187072229], "tags": {"amenity": "parking", "parking": "street_side"}}, {"type": "way", "id": 1207331613, "nodes": [11187072233, 11187072232, 11187072231, 11187072230, 11187072233], "tags": {"amenity": "parking"}}, {"type": "way", "id": 1207331629, "nodes": [11187072311, 11187072310, 11187072309, 11187072308, 11187072311], "tags": {"amenity": "parking"}}, {"type": "way", "id": 1207331654, "nodes": [11187072443, 11187072442, 11187072441, 11187072477, 11187072472, 11187072440, 11187072439, 11187072438, 11187072437, 11187051536, 11187051535, 11187051534, 11187072443], "tags": {"amenity": "parking"}}, {"type": "way", "id": 1207331655, "nodes": [11187072471, 11187072470, 2717660544, 2717660268, 11187072501, 11187072502, 11187072469, 11187072465, 11187072459, 2717660533, 11187072460, 11187072464, 11187072461, 11187072463, 11187072462, 11187072468, 11187072467, 11187072481, 11187072466, 11187072471], "tags": {"amenity": "parking"}}, {"type": "way", "id": 1390563702, "nodes": [12871981869, 2717660327, 5842730612, 5842730613, 5842730614, 12871981868, 12871981869], "tags": {"amenity": "school", "ele": "204", "gnis:feature_id": "1530688", "mascot": "Vikings", "name": "Mossyrock Elementary School"}}, {"type": "way", "id": 1390563703, "nodes": [12871981870, 12871981869, 12871981868, 5842730615, 12871981870], "tags": {"amenity": "school", "ele": "202", "fixme": "Three schools listed in here. What are their borders?", "gnis:feature_id": "1530686", "name": "Mossyrock Middle School"}}, {"type": "way", "id": 1390563704, "nodes": [12871981870, 11204001104, 2717660286, 12816570194, 5842730619, 5842730618, 5842730617, 5842730616, 5842730615, 12871981870], "tags": {"amenity": "school", "ele": "200", "fixme": "Three schools listed in here. What are their borders?", "gnis:feature_id": "1530687", "mascot": "Vikings", "name": "Mossyrock High School"}}]}