{"version": 0.6, "generator": "Overpass API 0.7.62.8 e802775f", "osm3s": {"timestamp_osm_base": "2025-11-30T00:35:59Z", "copyright": "The data included in this document is from www.openstreetmap.org. The data is made available under ODbL."}, "elements": [{"type": "node", "id": 7975360374, "lat": 33.2248126, "lon": -111.6359341}, {"type": "node", "id": 7975360375, "lat": 33.2244803, "lon": -111.6359366}, {"type": "node", "id": 7975360376, "lat": 33.2244764, "lon": -111.6351966}, {"type": "node", "id": 7975360377, "lat": 33.2248221, "lon": -111.635194}, {"type": "node", "id": 7975360378, "lat": 33.2248229, "lon": -111.635347}, {"type": "node", "id": 7975360379, "lat": 33.224814, "lon": -111.635347}, {"type": "node", "id": 7975360380, "lat": 33.2248148, "lon": -111.6354962}, {"type": "node", "id": 7975360381, "lat": 33.2248481, "lon": -111.6354959}, {"type": "node", "id": 7975360382, "lat": 33.2248488, "lon": -111.635637}, {"type": "node", "id": 7975360383, "lat": 33.224811, "lon": -111.6356373}, {"type": "node", "id": 9027014510, "lat": 33.221175, "lon": -111.6363998}, {"type": "node", "id": 9027014511, "lat": 33.2211714, "lon": -111.6356182}, {"type": "node", "id": 9027014512, "lat": 33.2216368, "lon": -111.6356151}, {"type": "node", "id": 10131740527, "lat": 33.2221339, "lon": -111.6331388, "tags": {"leisure": "fitness_centre", "name": "StretchLab"}}, {"type": "node", "id": 10131740533, "lat": 33.2241707, "lon": -111.6351836, "tags": {"brand": "F45 Training", "brand:wikidata": "Q64390973", "leisure": "fitness_centre", "name": "F45 Training", "short_name": "F45"}}, {"type": "node", "id": 12980823101, "lat": 33.2216403, "lon": -111.6363968}, {"type": "way", "id": 855218279, "nodes": [7975360374, 7975360375, 7975360376, 7975360377, 7975360378, 7975360379, 7975360380, 7975360381, 7975360382, 7975360383, 7975360374], "tags": {"addr:city": "Queen Creek", "addr:housenumber": "24648", "addr:postcode": "85142", "addr:state": "AZ", "addr:street": "South Ellsworth Road", "building": "yes", "leisure": "fitness_centre", "name": "USA Youth Fitness Center", "sport": "youth"}}, {"type": "way", "id": 975476532, "nodes": [12980823101, 9027014510, 9027014511, 9027014512, 12980823101], "tags": {"addr:city": "Queen Creek", "addr:housenumber": "20722", "addr:postcode": "85142", "addr:state": "AZ", "addr:street": "East Riggs Road", "building": "yes", "contact:facebook": "EoSFitness", "contact:instagram": "eosfitness", "internet_access": "wlan", "leisure": "fitness_centre", "name": "E\u014dS Fitness", "opening_hours": "24/7", "phone": "+1-480-863-1390", "website": "https://www.eosfitness.com/gym/queen-creek-ellsworth-riggs"}}]}