{"version": 0.6, "generator": "Overpass API 0.7.62.8 e802775f", "osm3s": {"timestamp_osm_base": "2025-12-06T19:36:45Z", "copyright": "The data included in this document is from www.openstreetmap.org. The data is made available under ODbL."}, "elements": [{"type": "node", "id": 356543438, "lat": 46.4483143, "lon": -122.8472329}, {"type": "node", "id": 356543453, "lat": 46.440248, "lon": -122.8497613}, {"type": "node", "id": 356543782, "lat": 46.4379653, "lon": -122.8527035}, {"type": "node", "id": 2421380983, "lat": 46.4388287, "lon": -122.8524484}, {"type": "node", "id": 2421381030, "lat": 46.4387037, "lon": -122.8537725}, {"type": "node", "id": 2421385364, "lat": 46.4461009, "lon": -122.8468515}, {"type": "node", "id": 2421385365, "lat": 46.446384, "lon": -122.8467419}, {"type": "node", "id": 2421385366, "lat": 46.4464171, "lon": -122.8468296}, {"type": "node", "id": 2421385367, "lat": 46.4391745, "lon": -122.8485128}, {"type": "node", "id": 2421385368, "lat": 46.4466798, "lon": -122.8467087}, {"type": "node", "id": 2421385369, "lat": 46.4463994, "lon": -122.8465673}, {"type": "node", "id": 2421385373, "lat": 46.4464307, "lon": -122.8466513}, {"type": "node", "id": 2421385374, "lat": 46.4392866, "lon": -122.8485231}, {"type": "node", "id": 2421385375, "lat": 46.4391342, "lon": -122.8485482}, {"type": "node", "id": 2421385376, "lat": 46.446405, "lon": -122.8466714}, {"type": "node", "id": 2421385377, "lat": 46.4465466, "lon": -122.8464521}, {"type": "node", "id": 2421385402, "lat": 46.4465782, "lon": -122.8465371}, {"type": "node", "id": 2421385409, "lat": 46.4390695, "lon": -122.84832}, {"type": "node", "id": 2421385417, "lat": 46.4391528, "lon": -122.8484321}, {"type": "node", "id": 2421385432, "lat": 46.4396003, "lon": -122.846561, "tags": {"addr:city": "Toledo", "addr:country": "US", "addr:housenumber": "202", "addr:postcode": "98591", "addr:state": "WA", "addr:street": "Cowlitz Street", "amenity": "post_office", "fax": "+1-360-864-2203", "name": "Toledo Post Office", "opening_hours": "Mo-Fr 08:00-16:30", "phone": "+1-360-864-2206", "website": "https://tools.usps.com/find-location.htm?location=1384775"}}, {"type": "node", "id": 2421385434, "lat": 46.4391909, "lon": -122.8467179, "tags": {"addr:city": "Toledo", "addr:country": "US", "addr:housenumber": "101", "addr:postcode": "98591", "addr:state": "WA", "addr:street": "Ramsey Way", "amenity": "bank", "name": "Timberland Bank", "website": "https://www.timberlandbank.com"}}, {"type": "node", "id": 2421385436, "lat": 46.4391068, "lon": -122.8484582}, {"type": "node", "id": 2421385442, "lat": 46.4463513, "lon": -122.846655}, {"type": "node", "id": 2421385444, "lat": 46.4389077, "lon": -122.8459145, "tags": {"addr:city": "Toledo", "addr:country": "US", "addr:housenumber": "115", "addr:postcode": "98591", "addr:state": "WA", "addr:street": "Cowlitz Street", "amenity": "restaurant", "contact:facebook": "https://www.facebook.com/chimismexican/", "cuisine": "mexican", "name": "Chimis", "opening_hours": "Mo-Th 11:00-21:00; Fr-Sa 11:00-22:00; Su 11:00-21:00", "outdoor_seating": "yes", "phone": "+1-360-864-8882", "takeaway": "yes", "website": "http://usplaces.com/Mexican"}}, {"type": "node", "id": 2421385445, "lat": 46.4464328, "lon": -122.8468716}, {"type": "node", "id": 2421385457, "lat": 46.4464825, "lon": -122.846863}, {"type": "node", "id": 2421385466, "lat": 46.4391941, "lon": -122.8482459}, {"type": "node", "id": 2421385468, "lat": 46.4391486, "lon": -122.8486015}, {"type": "node", "id": 2421385470, "lat": 46.4466035, "lon": -122.8465173}, {"type": "node", "id": 2421385477, "lat": 46.4464206, "lon": -122.8467133}, {"type": "node", "id": 2421385478, "lat": 46.4401349, "lon": -122.848468, "tags": {"addr:city": "Toledo", "addr:country": "US", "addr:housenumber": "400", "addr:postcode": "98591", "addr:state": "WA", "addr:street": "Cowlitz Street", "contact:facebook": "https://www.facebook.com/ToledoMarketFreshIga/", "contact:instagram": "https://www.instagram.com/explore/locations/332851608/toledo-market-fresh/", "email": "toledomarketfresh@toledotel.com", "image": "aogecom.s3.amazonaws.com/stores_history/243/Toledo_Market_Fresh%21_243_1674858135.jpg", "name": "Toledo Market Fresh IGA", "opening_hours": "Mo-Su 07:00-22:00", "phone": "+1-360-864-2161", "shop": "supermarket", "website": "https://www.marketfreshonline.com"}}, {"type": "node", "id": 2421385479, "lat": 46.4464582, "lon": -122.8467975}, {"type": "node", "id": 2421385480, "lat": 46.4461801, "lon": -122.8470692}, {"type": "node", "id": 2421396216, "lat": 46.4403369, "lon": -122.8454128}, {"type": "node", "id": 2421396217, "lat": 46.4398984, "lon": -122.8458287, "tags": {"addr:city": "Toledo", "addr:country": "US", "addr:housenumber": "150", "addr:postcode": "98591", "addr:state": "WA", "addr:street": "North 2nd Street", "amenity": "fire_station", "contact:facebook": "https://www.facebook.com/LewisCountyFireDistrict2", "email": "tolfire2@toledotel.com", "emergency:phone": "911", "fax": "+1-360-262-1667", "image": "https://static.wixstatic.com/media/4725be_6b9b37bb132148a7aa36de01bbe24fc3~mv2.jpg/v1/fill/w_1229,h_365,al_c,lg_1,q_85,enc_auto/15844113_1211879588899507_6978935678434644542_o.jpg", "name": "Lewis County Fire District 2", "opening_hours": "24/7", "phone": "+1-360-751-7117;+1-360-864-2366", "website": "https://www.toledofire2.com"}}, {"type": "node", "id": 2421396219, "lat": 46.4402313, "lon": -122.8457151}, {"type": "node", "id": 2421396231, "lat": 46.4393771, "lon": -122.8456034, "tags": {"name": "Flying K Food Mart", "shop": "convenience"}}, {"type": "node", "id": 2421396232, "lat": 46.440394, "lon": -122.845621}, {"type": "node", "id": 2421396242, "lat": 46.4384414, "lon": -122.8453447, "tags": {"amenity": "toilets"}}, {"type": "node", "id": 2421396253, "lat": 46.4392299, "lon": -122.8457725, "tags": {"amenity": "fuel", "name": "Flying K"}}, {"type": "node", "id": 2421396279, "lat": 46.4397773, "lon": -122.8460831}, {"type": "node", "id": 2421396284, "lat": 46.4395998, "lon": -122.846184}, {"type": "node", "id": 2421396286, "lat": 46.4401742, "lon": -122.845507}, {"type": "node", "id": 2421404649, "lat": 46.4426456, "lon": -122.8460038}, {"type": "node", "id": 2421404662, "lat": 46.4423431, "lon": -122.848216}, {"type": "node", "id": 2421404664, "lat": 46.4420064, "lon": -122.848419}, {"type": "node", "id": 2421404686, "lat": 46.4425973, "lon": -122.8460302}, {"type": "node", "id": 2421404712, "lat": 46.4426781, "lon": -122.846129}, {"type": "node", "id": 2421404715, "lat": 46.4443656, "lon": -122.8464642, "tags": {"name": "Short Stop Grocery", "shop": "convenience"}}, {"type": "node", "id": 2421404727, "lat": 46.4422878, "lon": -122.8480227}, {"type": "node", "id": 2421404746, "lat": 46.4425415, "lon": -122.845815}, {"type": "node", "id": 2421404756, "lat": 46.4423804, "lon": -122.8459031}, {"type": "node", "id": 2421404758, "lat": 46.4448368, "lon": -122.8469898, "tags": {"addr:city": "Toledo", "addr:housenumber": "601", "addr:postcode": "98591", "addr:state": "WA", "addr:street": "North 5th Street", "amenity": "fast_food", "cuisine": "burger", "name": "Betty's Place", "outdoor_seating": "yes", "phone": "+1-360-864-4867"}}, {"type": "node", "id": 2421404780, "lat": 46.4419672, "lon": -122.8482161}, {"type": "node", "id": 2421404781, "lat": 46.442458, "lon": -122.8462493}, {"type": "node", "id": 2706189223, "lat": 46.4493603, "lon": -122.8487671}, {"type": "node", "id": 2706189225, "lat": 46.4478386, "lon": -122.8484602}, {"type": "node", "id": 2706189227, "lat": 46.4501561, "lon": -122.8490557}, {"type": "node", "id": 2706189229, "lat": 46.4487542, "lon": -122.8487939}, {"type": "node", "id": 2706189230, "lat": 46.4399615, "lon": -122.8523065}, {"type": "node", "id": 2706189234, "lat": 46.449513, "lon": -122.8496565}, {"type": "node", "id": 2706189236, "lat": 46.4381529, "lon": -122.8553411}, {"type": "node", "id": 2706189238, "lat": 46.4493503, "lon": -122.8496404}, {"type": "node", "id": 2706189240, "lat": 46.452838, "lon": -122.846278}, {"type": "node", "id": 2706189242, "lat": 46.4477895, "lon": -122.8490299}, {"type": "node", "id": 2706189244, "lat": 46.4417946, "lon": -122.8492498}, {"type": "node", "id": 2706189246, "lat": 46.4494121, "lon": -122.8485042}, {"type": "node", "id": 2706189247, "lat": 46.4419543, "lon": -122.8495671}, {"type": "node", "id": 2706189249, "lat": 46.44844, "lon": -122.8496576}, {"type": "node", "id": 2706189256, "lat": 46.4418898, "lon": -122.8488715}, {"type": "node", "id": 2706189257, "lat": 46.4524869, "lon": -122.8469539}, {"type": "node", "id": 2706189260, "lat": 46.4528356, "lon": -122.8464593}, {"type": "node", "id": 2706189262, "lat": 46.4377572, "lon": -122.853933}, {"type": "node", "id": 2706189265, "lat": 46.4487985, "lon": -122.848531}, {"type": "node", "id": 2706189266, "lat": 46.4488761, "lon": -122.8494162}, {"type": "node", "id": 2706189269, "lat": 46.4410656, "lon": -122.8514345}, {"type": "node", "id": 2706189272, "lat": 46.4528393, "lon": -122.846631}, {"type": "node", "id": 2706189275, "lat": 46.4493234, "lon": -122.8482628}, {"type": "node", "id": 2706189277, "lat": 46.4485804, "lon": -122.8495449}, {"type": "node", "id": 2706189280, "lat": 46.4491312, "lon": -122.8483111}, {"type": "node", "id": 2706189283, "lat": 46.4481997, "lon": -122.8497273}, {"type": "node", "id": 2706189286, "lat": 46.441208, "lon": -122.852186}, {"type": "node", "id": 2706189292, "lat": 46.4492864, "lon": -122.849502}, {"type": "node", "id": 2706189295, "lat": 46.4481665, "lon": -122.8482199}, {"type": "node", "id": 2706189297, "lat": 46.4498334, "lon": -122.8454948}, {"type": "node", "id": 2706189300, "lat": 46.4482674, "lon": -122.8477843}, {"type": "node", "id": 2706189305, "lat": 46.4528454, "lon": -122.8447223}, {"type": "node", "id": 2706189307, "lat": 46.4509607, "lon": -122.8483379}, {"type": "node", "id": 2706189310, "lat": 46.4411435, "lon": -122.8492837}, {"type": "node", "id": 2706189313, "lat": 46.4415463, "lon": -122.8521198}, {"type": "node", "id": 2706189320, "lat": 46.4489205, "lon": -122.8492606}, {"type": "node", "id": 2706189323, "lat": 46.4527654, "lon": -122.8460892}, {"type": "node", "id": 2706189326, "lat": 46.4477684, "lon": -122.8486319}, {"type": "node", "id": 2706189328, "lat": 46.4528208, "lon": -122.8454991}, {"type": "node", "id": 2706189334, "lat": 46.4418383, "lon": -122.8487885}, {"type": "node", "id": 2706189336, "lat": 46.4514336, "lon": -122.8480053}, {"type": "node", "id": 2706189339, "lat": 46.4379246, "lon": -122.8528483}, {"type": "node", "id": 2706189342, "lat": 46.4382488, "lon": -122.8554082}, {"type": "node", "id": 2706189345, "lat": 46.4523478, "lon": -122.8470548}, {"type": "node", "id": 2706189347, "lat": 46.4498419, "lon": -122.8494526}, {"type": "node", "id": 2706189353, "lat": 46.441943, "lon": -122.8491144}, {"type": "node", "id": 2706189357, "lat": 46.4377682, "lon": -122.8537077}, {"type": "node", "id": 2706189359, "lat": 46.4412356, "lon": -122.8495964}, {"type": "node", "id": 2706189361, "lat": 46.4527715, "lon": -122.8458917}, {"type": "node", "id": 2706189363, "lat": 46.4409149, "lon": -122.8511095}, {"type": "node", "id": 2706189370, "lat": 46.4492679, "lon": -122.8490514}, {"type": "node", "id": 2706189372, "lat": 46.4486666, "lon": -122.8463735}, {"type": "node", "id": 2706189375, "lat": 46.4377767, "lon": -122.8535242}, {"type": "node", "id": 2706189377, "lat": 46.441893, "lon": -122.8509672}, {"type": "node", "id": 2706189380, "lat": 46.4479939, "lon": -122.848192}, {"type": "node", "id": 2706189382, "lat": 46.4412956, "lon": -122.8522494}, {"type": "node", "id": 2706189388, "lat": 46.4418606, "lon": -122.8515572}, {"type": "node", "id": 2706189391, "lat": 46.4477636, "lon": -122.8488261}, {"type": "node", "id": 2706189396, "lat": 46.4488366, "lon": -122.8489591}, {"type": "node", "id": 2706189399, "lat": 46.4487146, "lon": -122.8486641}, {"type": "node", "id": 2706189402, "lat": 46.4378322, "lon": -122.8531219}, {"type": "node", "id": 2706189404, "lat": 46.4379568, "lon": -122.8522486}, {"type": "node", "id": 2706189407, "lat": 46.4506428, "lon": -122.8485364}, {"type": "node", "id": 2706189410, "lat": 46.4416609, "lon": -122.8518784}, {"type": "node", "id": 2706189412, "lat": 46.4410169, "lon": -122.8511964}, {"type": "node", "id": 2706189415, "lat": 46.4414339, "lon": -122.8522453}, {"type": "node", "id": 2706189418, "lat": 46.4390621, "lon": -122.8544802}, {"type": "node", "id": 2706189421, "lat": 46.4394511, "lon": -122.8536643}, {"type": "node", "id": 2706189423, "lat": 46.4511823, "lon": -122.8482306}, {"type": "node", "id": 2706189428, "lat": 46.4411165, "lon": -122.8519573}, {"type": "node", "id": 2706189430, "lat": 46.4527087, "lon": -122.8467661}, {"type": "node", "id": 2706189432, "lat": 46.4493603, "lon": -122.8483272}, {"type": "node", "id": 2706189433, "lat": 46.4387733, "lon": -122.8548219}, {"type": "node", "id": 2706189435, "lat": 46.4508361, "lon": -122.8483261}, {"type": "node", "id": 2706189438, "lat": 46.4480815, "lon": -122.8496576}, {"type": "node", "id": 2706189440, "lat": 46.4478756, "lon": -122.8493239}, {"type": "node", "id": 2706189443, "lat": 46.4528085, "lon": -122.8461761}, {"type": "node", "id": 2706189446, "lat": 46.4391694, "lon": -122.854265}, {"type": "node", "id": 2706189448, "lat": 46.440501, "lon": -122.8504415}, {"type": "node", "id": 2706189450, "lat": 46.4509053, "lon": -122.8451997}, {"type": "node", "id": 2706189451, "lat": 46.4519523, "lon": -122.8475107}, {"type": "node", "id": 2706189453, "lat": 46.4485065, "lon": -122.8468627}, {"type": "node", "id": 2706189454, "lat": 46.4483809, "lon": -122.8469539}, {"type": "node", "id": 2706189456, "lat": 46.4479495, "lon": -122.8495438}, {"type": "node", "id": 2706189458, "lat": 46.4417026, "lon": -122.8489373}, {"type": "node", "id": 2706189459, "lat": 46.4408101, "lon": -122.850993}, {"type": "node", "id": 2706189461, "lat": 46.4482193, "lon": -122.8481598}, {"type": "node", "id": 2706189466, "lat": 46.4504961, "lon": -122.8485675}, {"type": "node", "id": 2706189467, "lat": 46.4490214, "lon": -122.8458692}, {"type": "node", "id": 2706189469, "lat": 46.4381749, "lon": -122.8553921}, {"type": "node", "id": 4282270245, "lat": 46.4383472, "lon": -122.8524511}, {"type": "node", "id": 4282270246, "lat": 46.4383474, "lon": -122.8525436}, {"type": "node", "id": 4282270251, "lat": 46.4387039, "lon": -122.8538691}, {"type": "node", "id": 4282270253, "lat": 46.4388289, "lon": -122.8525409}, {"type": "node", "id": 4282270257, "lat": 46.4392, "lon": -122.8537701}, {"type": "node", "id": 4282270258, "lat": 46.4392002, "lon": -122.8538665}, {"type": "node", "id": 4501473933, "lat": 46.439936, "lon": -122.8475008}, {"type": "node", "id": 4501473934, "lat": 46.4398955, "lon": -122.847407}, {"type": "node", "id": 4501473935, "lat": 46.4401043, "lon": -122.8472846}, {"type": "node", "id": 4501473936, "lat": 46.4401189, "lon": -122.8473368}, {"type": "node", "id": 4501473937, "lat": 46.4401384, "lon": -122.8473253}, {"type": "node", "id": 4501473938, "lat": 46.4401521, "lon": -122.8473744}, {"type": "node", "id": 4501473947, "lat": 46.4474522, "lon": -122.847298}, {"type": "node", "id": 4501473948, "lat": 46.4472498, "lon": -122.847353}, {"type": "node", "id": 4501473951, "lat": 46.4475218, "lon": -122.8460496}, {"type": "node", "id": 4501473956, "lat": 46.4479788, "lon": -122.8459475}, {"type": "node", "id": 4791844330, "lat": 46.4398328, "lon": -122.8466505}, {"type": "node", "id": 4791844331, "lat": 46.4397518, "lon": -122.8463477}, {"type": "node", "id": 4791844332, "lat": 46.4396992, "lon": -122.8463749}, {"type": "node", "id": 4791844333, "lat": 46.439781, "lon": -122.8466812}, {"type": "node", "id": 4791844336, "lat": 46.4394582, "lon": -122.846864}, {"type": "node", "id": 4791844337, "lat": 46.4394344, "lon": -122.846778}, {"type": "node", "id": 4791844338, "lat": 46.4395119, "lon": -122.8467331}, {"type": "node", "id": 4791844339, "lat": 46.4395355, "lon": -122.846819}, {"type": "node", "id": 4791844340, "lat": 46.4394324, "lon": -122.8467762}, {"type": "node", "id": 4791844341, "lat": 46.4395347, "lon": -122.8467161}, {"type": "node", "id": 4791844342, "lat": 46.4394758, "lon": -122.846505}, {"type": "node", "id": 4791844343, "lat": 46.4393735, "lon": -122.8465652}, {"type": "node", "id": 4791844348, "lat": 46.4386975, "lon": -122.8469729}, {"type": "node", "id": 4791844349, "lat": 46.4387548, "lon": -122.8471862}, {"type": "node", "id": 5247850199, "lat": 46.4386821, "lon": -122.8466687}, {"type": "node", "id": 5247850200, "lat": 46.438776, "lon": -122.8465827}, {"type": "node", "id": 5247850201, "lat": 46.4386154, "lon": -122.8465819}, {"type": "node", "id": 5247850202, "lat": 46.43875, "lon": -122.846507}, {"type": "node", "id": 5247850205, "lat": 46.4386641, "lon": -122.8466913}, {"type": "node", "id": 5247850206, "lat": 46.4387524, "lon": -122.8465557}, {"type": "node", "id": 5247850207, "lat": 46.4387404, "lon": -122.8463764}, {"type": "node", "id": 5247850208, "lat": 46.4387816, "lon": -122.8463544}, {"type": "node", "id": 5247850209, "lat": 46.4387707, "lon": -122.8464959}, {"type": "node", "id": 5247850210, "lat": 46.4386025, "lon": -122.8465888}, {"type": "node", "id": 5247850211, "lat": 46.4385502, "lon": -122.8463824}, {"type": "node", "id": 5247850212, "lat": 46.4387603, "lon": -122.8462703}, {"type": "node", "id": 5521286383, "lat": 46.438947, "lon": -122.8465096, "tags": {"addr:city": "Toledo", "addr:country": "US", "addr:housenumber": "112", "addr:postcode": "98591", "addr:state": "WA", "addr:street": "Ramsey Way", "amenity": "restaurant", "name": "Donna\u2019s Place", "opening_hours": "Tu-Th 11:00-20:00; Fr-Sa 11:00-21:00", "payment:american_express": "yes", "payment:credit_cards": "yes", "payment:discover_card": "yes", "payment:mastercard": "yes", "payment:visa": "yes", "phone": "+1-360-864-2700", "website": "https://www.donnasplacetoledo.com"}}, {"type": "node", "id": 5521286392, "lat": 46.4393248, "lon": -122.8471403, "tags": {"addr:city": "Toledo", "addr:country": "US", "addr:housenumber": "231", "addr:postcode": "98591", "addr:state": "WA", "addr:street": "Cowlitz Street", "contact:facebook": "https://www.facebook.com/SouthwestWashingtonRealty", "contact:linkedin": "https://www.linkedin.com/company/southwest-washington-realty/", "contact:twitter": "https://twitter.com/SW_WA_Realty", "email": "john@SouthwestWashingtonRealty.com", "mobile": "+1-360-349-8281", "name": "Southwest Washington Realty", "office": "estate_agent", "operator": "John Novak", "phone": "+1-360-464-1620", "website": "https://www.southwestwashingtonrealty.com"}}, {"type": "node", "id": 5521286399, "lat": 46.4393505, "lon": -122.847249, "tags": {"addr:city": "Toledo", "addr:country": "US", "addr:housenumber": "241", "addr:postcode": "98591", "addr:state": "WA", "addr:street": "Cowlitz Street", "amenity": "library", "contact:facebook": "https://www.facebook.com/FriendsToledoTimberlandLibrary", "email": "AskLib@trl.org", "name": "Toledo Community Library", "opening_hours": "We-Th 12:00-16:00; Sa 10:00-14:00", "phone": "+1-360-864-4247", "website": "https://www.toledowacommunitylibrary.org; https://www.trl.org/locations/toledo"}}, {"type": "node", "id": 5759068208, "lat": 46.4428312, "lon": -122.848709}, {"type": "node", "id": 5759068210, "lat": 46.4428298, "lon": -122.848614}, {"type": "node", "id": 5759068211, "lat": 46.4427233, "lon": -122.8487123}, {"type": "node", "id": 5759068213, "lat": 46.442762, "lon": -122.8486161}, {"type": "node", "id": 5759068214, "lat": 46.4427246, "lon": -122.8488033}, {"type": "node", "id": 5759068218, "lat": 46.4425098, "lon": -122.8488099}, {"type": "node", "id": 5759068220, "lat": 46.44264, "lon": -122.8486331, "tags": {"addr:city": "Toledo", "addr:country": "US", "addr:housenumber": "351", "addr:postcode": "98591", "addr:state": "WA", "addr:street": "North 5th Street", "name": "Fir Lawn Funeral Chapel", "phone": "+1-360-864-2101", "shop": "funeral_directors", "website": "https://www.firlawnfuneralchapel.com"}}, {"type": "node", "id": 9970883717, "lat": 46.4444424, "lon": -122.8467655, "tags": {"amenity": "fuel", "compressed_air": "yes", "name": "Texaco"}}, {"type": "node", "id": 10058734270, "lat": 46.4451055, "lon": -122.8469082}, {"type": "node", "id": 10058734275, "lat": 46.445144, "lon": -122.8467899}, {"type": "node", "id": 10058734289, "lat": 46.444947, "lon": -122.8470295}, {"type": "node", "id": 10058734292, "lat": 46.4451334, "lon": -122.8468436}, {"type": "node", "id": 10058734306, "lat": 46.4451238, "lon": -122.8466995}, {"type": "node", "id": 10058771625, "lat": 46.4448888, "lon": -122.8468413}, {"type": "node", "id": 10796690059, "lat": 46.4465823, "lon": -122.846785, "tags": {"entrance": "main"}}, {"type": "node", "id": 10796690060, "lat": 46.4466461, "lon": -122.8466178}, {"type": "node", "id": 10796690061, "lat": 46.4466539, "lon": -122.8466117}, {"type": "node", "id": 10796690062, "lat": 46.4466335, "lon": -122.8465568}, {"type": "node", "id": 10796690063, "lat": 46.4466217, "lon": -122.8465661}, {"type": "node", "id": 10796690064, "lat": 46.4461232, "lon": -122.8469116}, {"type": "node", "id": 10796690065, "lat": 46.4461115, "lon": -122.8469207}, {"type": "node", "id": 10796690066, "lat": 46.44615, "lon": -122.8469883}, {"type": "node", "id": 10796690067, "lat": 46.4461396, "lon": -122.8469964}, {"type": "node", "id": 10796690092, "lat": 46.4464107, "lon": -122.846721, "tags": {"entrance": "yes"}}, {"type": "node", "id": 10796690093, "lat": 46.4463766, "lon": -122.8467221, "tags": {"entrance": "yes"}}, {"type": "node", "id": 10796690094, "lat": 46.446126, "lon": -122.8469597, "tags": {"entrance": "yes"}}, {"type": "node", "id": 10796690097, "lat": 46.4464086, "lon": -122.8465601, "tags": {"entrance": "yes"}}, {"type": "node", "id": 10796701608, "lat": 46.4461707, "lon": -122.8472708}, {"type": "node", "id": 10796701609, "lat": 46.4463585, "lon": -122.8471707}, {"type": "node", "id": 10796701610, "lat": 46.4464072, "lon": -122.8471687}, {"type": "node", "id": 10796701611, "lat": 46.4466891, "lon": -122.8470244}, {"type": "node", "id": 10796701612, "lat": 46.4467094, "lon": -122.8470061}, {"type": "node", "id": 10796701613, "lat": 46.4467122, "lon": -122.8469685}, {"type": "node", "id": 10796701614, "lat": 46.446764, "lon": -122.8469532}, {"type": "node", "id": 10796701615, "lat": 46.4467528, "lon": -122.8468694}, {"type": "node", "id": 10796701616, "lat": 46.4466975, "lon": -122.8468872}, {"type": "node", "id": 10796701617, "lat": 46.446695, "lon": -122.8468374}, {"type": "node", "id": 10796701618, "lat": 46.4467161, "lon": -122.846657}, {"type": "node", "id": 10796701619, "lat": 46.4467154, "lon": -122.8466422}, {"type": "node", "id": 10796701620, "lat": 46.446618, "lon": -122.8463612}, {"type": "node", "id": 10796701621, "lat": 46.4468183, "lon": -122.8463042}, {"type": "node", "id": 10796701622, "lat": 46.446854, "lon": -122.8463011}, {"type": "node", "id": 10796701623, "lat": 46.4468778, "lon": -122.8463321}, {"type": "node", "id": 10796701624, "lat": 46.446882, "lon": -122.8463687}, {"type": "node", "id": 10796701625, "lat": 46.4468942, "lon": -122.8463748}, {"type": "node", "id": 10796701626, "lat": 46.4469153, "lon": -122.8463672}, {"type": "node", "id": 10796701628, "lat": 46.4469725, "lon": -122.8475617}, {"type": "node", "id": 10796701629, "lat": 46.4469162, "lon": -122.8477216}, {"type": "node", "id": 10796701630, "lat": 46.4468429, "lon": -122.8477938}, {"type": "node", "id": 10796701631, "lat": 46.4467954, "lon": -122.8478128}, {"type": "node", "id": 10796701632, "lat": 46.4467292, "lon": -122.8478119}, {"type": "node", "id": 10796701633, "lat": 46.4465933, "lon": -122.8476782}, {"type": "node", "id": 10796701634, "lat": 46.4465334, "lon": -122.8475567}, {"type": "node", "id": 10796701635, "lat": 46.4465036, "lon": -122.8474879}, {"type": "node", "id": 10796701636, "lat": 46.4464757, "lon": -122.8474683}, {"type": "node", "id": 10796701637, "lat": 46.4462333, "lon": -122.8475602}, {"type": "node", "id": 10796701638, "lat": 46.446492, "lon": -122.8474732}, {"type": "node", "id": 10796701639, "lat": 46.4466605, "lon": -122.8477796}, {"type": "node", "id": 10796701640, "lat": 46.4466938, "lon": -122.8478016}, {"type": "node", "id": 10796701641, "lat": 46.4469493, "lon": -122.8476442}, {"type": "node", "id": 10796701642, "lat": 46.446881, "lon": -122.8477648}, {"type": "node", "id": 10796701643, "lat": 46.4463306, "lon": -122.8465999}, {"type": "node", "id": 10796701644, "lat": 46.446176, "lon": -122.8467219}, {"type": "node", "id": 10796701645, "lat": 46.4461966, "lon": -122.846777}, {"type": "node", "id": 10797495689, "lat": 46.4392691, "lon": -122.8484585}, {"type": "node", "id": 10797495690, "lat": 46.4392591, "lon": -122.8484642}, {"type": "node", "id": 10797510111, "lat": 46.4387766, "lon": -122.8465529}, {"type": "node", "id": 10797510112, "lat": 46.4387657, "lon": -122.8465837}, {"type": "node", "id": 10797510113, "lat": 46.4387663, "lon": -122.8466349}, {"type": "node", "id": 10797510114, "lat": 46.4387386, "lon": -122.8466363}, {"type": "node", "id": 10797510115, "lat": 46.4386413, "lon": -122.8466519}, {"type": "node", "id": 10797510116, "lat": 46.4386312, "lon": -122.8466628}, {"type": "node", "id": 10797510117, "lat": 46.4386187, "lon": -122.8466404}, {"type": "node", "id": 10797510118, "lat": 46.4386359, "lon": -122.8466209}, {"type": "node", "id": 10797510190, "lat": 46.441958, "lon": -122.8482497}, {"type": "node", "id": 10797510191, "lat": 46.4419741, "lon": -122.84824}, {"type": "node", "id": 11196719064, "lat": 46.4424288, "lon": -122.8461369}, {"type": "node", "id": 11196719065, "lat": 46.4424396, "lon": -122.8461311}, {"type": "node", "id": 11196719090, "lat": 46.4391337, "lon": -122.8464161, "tags": {"addr:city": "Toledo", "addr:country": "US", "addr:housenumber": "121", "addr:postcode": "98591", "addr:state": "WA", "contact:facebook": "https://www.facebook.com/profile.php?id=100054660271242", "name": "Cowlitz Street Salon", "phone": "+1-360-864-6600;+1-360-520-5731", "shop": "hairdresser"}}, {"type": "node", "id": 11196719091, "lat": 46.4391464, "lon": -122.8466994, "tags": {"amenity": "atm", "operator": "Timberland Bank"}}, {"type": "node", "id": 11196719092, "lat": 46.4393934, "lon": -122.8473636, "tags": {"shop": "hairdresser"}}, {"type": "node", "id": 11196719115, "lat": 46.4403408, "lon": -122.8454268}, {"type": "node", "id": 11196719117, "lat": 46.4402828, "lon": -122.8453509}, {"type": "node", "id": 11196719119, "lat": 46.4403051, "lon": -122.8454314}, {"type": "node", "id": 11196719151, "lat": 46.4399103, "lon": -122.8474601}, {"type": "node", "id": 11196719152, "lat": 46.4399227, "lon": -122.8474528}, {"type": "node", "id": 11196719155, "lat": 46.4391991, "lon": -122.8482645}, {"type": "node", "id": 11196719156, "lat": 46.4392045, "lon": -122.8482615}, {"type": "node", "id": 11196719157, "lat": 46.4391444, "lon": -122.8485424}, {"type": "node", "id": 11196719158, "lat": 46.4391414, "lon": -122.8485316}, {"type": "node", "id": 11196719159, "lat": 46.4391123, "lon": -122.8482958}, {"type": "node", "id": 11196719160, "lat": 46.4391115, "lon": -122.8482929}, {"type": "node", "id": 11196719171, "lat": 46.4389038, "lon": -122.846866}, {"type": "node", "id": 11196719172, "lat": 46.4389505, "lon": -122.8470385}, {"type": "node", "id": 11196719193, "lat": 46.4395292, "lon": -122.8467955}, {"type": "node", "id": 11196719194, "lat": 46.4395365, "lon": -122.8457602}, {"type": "node", "id": 11196719195, "lat": 46.4396096, "lon": -122.8457184}, {"type": "node", "id": 11196719196, "lat": 46.4395393, "lon": -122.8457704}, {"type": "node", "id": 11196719197, "lat": 46.4396122, "lon": -122.845728}, {"type": "node", "id": 11196719198, "lat": 46.4394948, "lon": -122.8457959}, {"type": "node", "id": 11196719199, "lat": 46.4396719, "lon": -122.8456938}, {"type": "node", "id": 11196719206, "lat": 46.4387683, "lon": -122.8469271}, {"type": "node", "id": 11196719207, "lat": 46.4388292, "lon": -122.8468927}, {"type": "node", "id": 11196719208, "lat": 46.4387696, "lon": -122.846932}, {"type": "node", "id": 11196719209, "lat": 46.4388306, "lon": -122.846898}, {"type": "node", "id": 11196719210, "lat": 46.4389016, "lon": -122.8468578}, {"type": "node", "id": 11196719211, "lat": 46.4389588, "lon": -122.8470707}, {"type": "node", "id": 11201505331, "lat": 46.439721, "lon": -122.8486913, "tags": {"addr:city": "Toledo", "addr:country": "US", "addr:housenumber": "401", "addr:postcode": "98591", "addr:state": "WA", "contact:facebook": "https://www.facebook.com/AandJBookworks/", "contact:linkedin": "https://www.linkedin.com/company/a-j-bookworks", "contact:twitter": "https://twitter.com/ajbookworks", "description": "Bookkeeping, Payroll & Tax", "email": "info@ajbookworks.com", "fax": "+1-360-295-3351", "name": "A & J Bookworks", "office": "accountant", "opening_hours": "Mo-Fr 09:00-17:00 || \"Saturday and Sunday by appointment\"", "phone": "+1-360-609-4098", "website": "https://www.ajbookworks.com"}}, {"type": "node", "id": 11201529939, "lat": 46.4391623, "lon": -122.8455491, "tags": {"addr:city": "Toledo", "addr:country": "US", "addr:housenumber": "130", "addr:postcode": "98591", "addr:state": "WA", "addr:street": "Cowlitz Street", "contact:facebook": "https://www.facebook.com/toledohardwareandfeed", "contact:yelp": "https://www.yelp.com/biz/toledo-hardware-and-feed-toledo", "description": "Towing , Fueling , Hardware, Feed, Pet Supplies, Lawn Supplies, Garden Supplies , Auto Parts , Gas and Convenience Store , Doorbusters", "email": "rt.lovell@hotmail.com", "name": "Toledo Hardware & Feed", "opening_hours": "Mo-Sa 07:00-20:00; Su 08:00-20:00", "payment:american_express": "yes", "payment:cash": "yes", "payment:coins": "no", "payment:discover_card": "yes", "payment:mastercard": "yes", "payment:visa": "yes", "phone": "+1-360-864-2121", "shop": "hardware", "website": "https://www.toledohardwareandfeed.com"}}, {"type": "node", "id": 11201529940, "lat": 46.4391002, "lon": -122.8462575, "tags": {"contact:facebook": "https://www.facebook.com/RockridgeEngineers/", "contact:linkedin": "https://www.linkedin.com/company/rockridge-general-engineering-excavation", "email": "rockridgeengineering@yahoo.com", "name": "Rockridge General Engineering & Excavation", "office": "construction_company", "opening_hours": "Mo-Fr 07:00-17:00", "phone": "+1-360-515-1492;+1-360-564-5933", "website": "https://rockridgeexcavating.com"}}, {"type": "node", "id": 11201529941, "lat": 46.4387106, "lon": -122.8466523, "tags": {"entrance": "main"}}, {"type": "node", "id": 11201529944, "lat": 46.4392669, "lon": -122.8468604, "tags": {"addr:city": "Toledo", "addr:country": "US", "addr:housenumber": "205", "addr:postcode": "98591", "addr:state": "WA", "addr:street": "Cowlitz Street", "contact:facebook": "https://www.facebook.com/MorganOnlineMedia", "contact:linkedin": "https://www.linkedin.com/company/morgan-online-media", "description": "Web Publishing Services", "email": "editor@morganonlinemedia.com", "image": "https://morganonlinemedia.com/images/momoffice.jpg?crc=3839721357", "name": "Morgan Online Media", "office": "yes", "operator": "Jake Morgan", "phone": "+1-360-864-2789", "website": "https://morganonlinemedia.com"}}, {"type": "node", "id": 11201529945, "lat": 46.4392923, "lon": -122.846963, "tags": {"addr:city": "Toledo", "addr:country": "US", "addr:housenumber": "205", "addr:postcode": "98591", "addr:state": "WA", "addr:street": "Cowlitz Street", "contact:yelp": "https://www.yelp.com/biz/toledo-tax-and-accounting-toledo", "name": "Toledo Tax & Accounting", "office": "accountant"}}, {"type": "node", "id": 11201529946, "lat": 46.4393034, "lon": -122.8470079, "tags": {"addr:city": "Toledo", "addr:country": "US", "addr:housenumber": "205", "addr:postcode": "98591", "addr:state": "WA", "addr:street": "Cowlitz Street", "contact:yelp": "https://www.yelp.com/biz/hair-it-is-styling-and-nail-salon-toledo", "description": "Styling Salon", "name": "Hair-It-Is", "shop": "hairdresser"}}, {"type": "node", "id": 11303676954, "lat": 46.4479142, "lon": -122.8483297}, {"type": "node", "id": 11332969954, "lat": 46.4426603, "lon": -122.8464951}, {"type": "node", "id": 11332969955, "lat": 46.4424889, "lon": -122.8465914}, {"type": "node", "id": 11332969956, "lat": 46.442192, "lon": -122.8455135}, {"type": "node", "id": 11332969957, "lat": 46.4423059, "lon": -122.8454482}, {"type": "node", "id": 11332969958, "lat": 46.4423668, "lon": -122.8454743}, {"type": "node", "id": 11332969959, "lat": 46.442492, "lon": -122.845682}, {"type": "node", "id": 11332969960, "lat": 46.4423496, "lon": -122.8458627}, {"type": "node", "id": 11332969961, "lat": 46.4424639, "lon": -122.8462915}, {"type": "node", "id": 11332969962, "lat": 46.4425875, "lon": -122.8462221}, {"type": "node", "id": 11332969963, "lat": 46.4425715, "lon": -122.8465455}, {"type": "node", "id": 11332969964, "lat": 46.4425294, "lon": -122.8466455}, {"type": "node", "id": 11332970103, "lat": 46.4402934, "lon": -122.8451434}, {"type": "node", "id": 11332970104, "lat": 46.4401346, "lon": -122.8451562}, {"type": "node", "id": 11332970105, "lat": 46.440021, "lon": -122.8452245}, {"type": "node", "id": 11332970106, "lat": 46.4401769, "lon": -122.8458015}, {"type": "node", "id": 11332970107, "lat": 46.4402434, "lon": -122.8457596}, {"type": "node", "id": 11332970108, "lat": 46.4403439, "lon": -122.8453153}, {"type": "node", "id": 11348002613, "lat": 46.4466063, "lon": -122.846766}, {"type": "node", "id": 11348002616, "lat": 46.4465583, "lon": -122.8468034}, {"type": "node", "id": 11348002617, "lat": 46.4470009, "lon": -122.8474107}, {"type": "node", "id": 11348002618, "lat": 46.4469866, "lon": -122.8463645}, {"type": "node", "id": 11348724224, "lat": 46.4392193, "lon": -122.854053}, {"type": "node", "id": 11348724225, "lat": 46.4393567, "lon": -122.853919}, {"type": "node", "id": 11350483982, "lat": 46.4410639, "lon": -122.8517541}, {"type": "node", "id": 11350484000, "lat": 46.4402573, "lon": -122.8480312}, {"type": "node", "id": 11350484001, "lat": 46.4405089, "lon": -122.8480301}, {"type": "node", "id": 11350484002, "lat": 46.4406347, "lon": -122.8480381}, {"type": "node", "id": 11350484003, "lat": 46.4406743, "lon": -122.8480657}, {"type": "node", "id": 11350484004, "lat": 46.4407107, "lon": -122.8481059}, {"type": "node", "id": 11350484005, "lat": 46.440736, "lon": -122.8481621}, {"type": "node", "id": 11350484006, "lat": 46.4407502, "lon": -122.8482391}, {"type": "node", "id": 11350484007, "lat": 46.4407486, "lon": -122.8483344}, {"type": "node", "id": 11350484008, "lat": 46.4407383, "lon": -122.8484147}, {"type": "node", "id": 11350484009, "lat": 46.4407012, "lon": -122.8484963}, {"type": "node", "id": 11350484010, "lat": 46.4405492, "lon": -122.8486478}, {"type": "node", "id": 11350484011, "lat": 46.4404503, "lon": -122.8487133}, {"type": "node", "id": 11350619137, "lat": 46.4425058, "lon": -122.8485342}, {"type": "node", "id": 11350619138, "lat": 46.4423373, "lon": -122.8486792}, {"type": "node", "id": 11350619139, "lat": 46.4424059, "lon": -122.8490495}, {"type": "node", "id": 11350619140, "lat": 46.4429779, "lon": -122.8487064}, {"type": "node", "id": 11350619141, "lat": 46.4428648, "lon": -122.8482161}, {"type": "node", "id": 11350619142, "lat": 46.4428406, "lon": -122.8482568}, {"type": "node", "id": 11350619143, "lat": 46.4427883, "lon": -122.8482772}, {"type": "node", "id": 11350619144, "lat": 46.4427867, "lon": -122.8483757}, {"type": "node", "id": 11350619145, "lat": 46.442807, "lon": -122.8483939}, {"type": "node", "id": 11350619146, "lat": 46.4428094, "lon": -122.848429}, {"type": "node", "id": 11350619147, "lat": 46.4428031, "lon": -122.8484482}, {"type": "node", "id": 11350619148, "lat": 46.4427603, "lon": -122.8484992}, {"type": "node", "id": 12230652416, "lat": 46.453367, "lon": -122.8562021, "tags": {"check_date": "2024-10-06", "name": "Toledo Tel", "office": "telecommunication"}}, {"type": "way", "id": 233809265, "nodes": [2421385374, 10797495689, 10797495690, 11196719156, 11196719155, 2421385466, 11196719160, 11196719159, 2421385409, 2421385436, 2421385417, 2421385367, 11196719158, 11196719157, 2421385375, 2421385468, 2421385374], "tags": {"addr:city": "Toledo", "addr:country": "US", "addr:housenumber": "312", "addr:postcode": "98591", "addr:state": "WA", "addr:street": "Augustus Street", "amenity": "place_of_worship", "building": "yes", "contact:facebook": "https://www.facebook.com/tpctheothertoledo/", "denomination": "presbyterian", "email": "pastor_tpc@icloud.com", "name": "Toledo Presbyterian Church", "phone": "+1-360-864-2479", "religion": "christian", "service_times": "Su 10:30", "website": "https://toledopresbyterian.com"}}, {"type": "way", "id": 233809273, "nodes": [2421385480, 10796690066, 10796690067, 10796690094, 10796690065, 10796690064, 2421385364, 10796701645, 2421385442, 10796690093, 2421385365, 10796690092, 2421385477, 2421385376, 2421385373, 2421385369, 10796690097, 2421385377, 2421385402, 2421385470, 10796690063, 10796690062, 10796690061, 10796690060, 2421385368, 11348002613, 10796690059, 11348002616, 2421385457, 2421385479, 2421385366, 2421385445, 2421385480], "tags": {"addr:city": "Toledo", "addr:housenumber": "1278", "addr:postcode": "98591", "addr:state": "WA", "addr:street": "WA 505", "air_conditioning": "yes", "amenity": "place_of_worship", "building": "yes", "denomination": "baptist", "name": "Toledo First Baptist", "religion": "christian", "service_times": "Su 08:00-11:00; We 06:30-08:00", "source": "https://toledofirstbaptist.com/;survey", "website": "https://toledofirstbaptist.com/"}}, {"type": "way", "id": 233810509, "nodes": [2421396232, 11196719115, 2421396216, 11196719119, 2421396286, 2421396219, 2421396232], "tags": {"amenity": "community_centre", "building": "yes", "name": "Toledo Community Center"}}, {"type": "way", "id": 233810510, "nodes": [11196719198, 2421396284, 2421396279, 11196719199, 11196719197, 11196719195, 11196719194, 11196719196, 11196719198], "tags": {"addr:city": "Toledo", "addr:housenumber": "130", "addr:postcode": "98591", "addr:state": "WA", "addr:street": "North 2nd Street", "amenity": "townhall", "building": "yes", "name": "Toledo City Hall", "operator": "City of Toledo", "phone": "+1-360-864-4564", "website": "https://www.toledowa.us/"}}, {"type": "way", "id": 233811542, "nodes": [2421404712, 2421404649, 2421404686, 2421404746, 2421404756, 11196719065, 11196719064, 2421404781, 2421404712], "tags": {"addr:city": "Toledo", "addr:country": "US", "addr:housenumber": "300", "addr:state": "WA", "addr:street": "Saint Helens Street", "amenity": "place_of_worship", "building": "church", "contact:facebook": "https://www.facebook.com/p/Toledo-WA-church-of-Christ-100064427217093/", "denomination": "nondenominational", "name": "Church of Christ", "opening_hours": "Tu, Su 11:00-12:00", "phone": "+1-360-864-6081", "religion": "christian"}}, {"type": "way", "id": 233811546, "nodes": [2421404662, 2421404664, 10797510190, 10797510191, 2421404780, 2421404727, 2421404662], "tags": {"amenity": "place_of_worship", "building": "church", "name": "Toledo New Life Assembly", "religion": "christian"}}, {"type": "way", "id": 264970151, "nodes": [2706189244, 2706189458, 2706189310, 2706189359, 2706189244], "tags": {"access": "yes", "amenity": "parking", "parking": "surface"}}, {"type": "way", "id": 264970154, "nodes": [2706189342, 2706189433, 2706189418, 2706189446, 11348724224, 11348724225, 2706189421, 2706189230, 2706189404, 356543782, 2706189339, 2706189402, 2706189375, 2706189357, 2706189262, 2706189236, 2706189469, 2706189342], "tags": {"amenity": "school", "ele": "32", "gnis:feature_id": "1515415", "name": "Toledo Elementary School"}}, {"type": "way", "id": 264970155, "nodes": [356543453, 2706189448, 2706189459, 2706189363, 2706189412, 2706189269, 11350483982, 2706189428, 2706189286, 2706189382, 2706189415, 2706189313, 2706189410, 2706189388, 2706189377, 2706189247, 2706189353, 2706189256, 2706189334, 356543453], "tags": {"amenity": "school", "ele": "45", "gnis:feature_id": "1515100", "name": "Toledo Middle School", "website": "https://www.toledoschools.us/"}}, {"type": "way", "id": 264970156, "nodes": [2706189305, 2706189328, 2706189361, 2706189323, 2706189443, 2706189240, 2706189260, 2706189272, 2706189430, 2706189257, 2706189345, 2706189451, 2706189336, 2706189423, 2706189307, 2706189435, 2706189407, 2706189466, 2706189227, 2706189347, 2706189234, 2706189238, 2706189292, 2706189370, 2706189223, 2706189246, 2706189432, 2706189275, 2706189280, 2706189265, 2706189399, 2706189229, 2706189396, 2706189320, 2706189266, 2706189277, 2706189249, 2706189283, 2706189438, 2706189456, 2706189440, 2706189242, 2706189391, 2706189326, 2706189225, 11303676954, 2706189380, 2706189295, 2706189461, 2706189300, 356543438, 2706189454, 2706189453, 2706189372, 2706189467, 2706189297, 2706189450, 2706189305], "tags": {"amenity": "school", "ele": "84", "gnis:feature_id": "1515089", "mascot": "Riverhawk", "name": "Toledo High School", "website": "https://www.toledoschools.us/"}}, {"type": "way", "id": 429109840, "nodes": [4282270258, 4282270251, 2421381030, 4282270257, 4282270258], "tags": {"amenity": "parking"}}, {"type": "way", "id": 429109842, "nodes": [4282270253, 4282270246, 4282270245, 2421380983, 4282270253], "tags": {"amenity": "parking"}}, {"type": "way", "id": 453410783, "nodes": [4501473933, 11196719152, 11196719151, 4501473934, 4501473935, 4501473936, 4501473937, 4501473938, 4501473933], "tags": {"addr:city": "Toledo", "amenity": "restaurant", "branch": "BBQ", "brand": "Bonanza Steakhouse", "brand:wikidata": "Q64045992", "building": "yes", "contact:facebook": "https://www.facebook.com/bonanzabbq", "contact:yelp": "https://www.yelp.com/biz/bonanza-bbq-and-catering-toledo", "cuisine": "american;steak;buffet", "email": "bonanzabbq@aol.com", "name": "Bonanza Steakhouse", "phone": "+1-360-864-2277;+1-253-579-6243", "website": "https://bonanzabbqcatering.com"}}, {"type": "way", "id": 453410786, "nodes": [4501473947, 4501473948, 4501473951, 4501473956, 4501473947], "tags": {"name": "Toledo Storage", "shop": "storage_rental"}}, {"type": "way", "id": 486597936, "nodes": [4791844330, 4791844331, 4791844332, 4791844333, 4791844330], "tags": {"amenity": "parking", "parking": "surface"}}, {"type": "way", "id": 486597938, "nodes": [4791844336, 4791844337, 4791844338, 11196719193, 4791844339, 4791844336], "tags": {"addr:city": "Toledo", "addr:housenumber": "208", "addr:postcode": "98591", "addr:state": "WA", "addr:street": "Cowlitz Street", "brand": "Farmers Insurance", "brand:wikidata": "Q1396863", "building": "yes", "contact:facebook": "https://www.facebook.com/FarmersToledo/", "email": "cphilbrook@farmersagent.com", "fax": "+1-360-633-2395", "name": "Farmers Insurance - Cyndi Philbrook Agency", "office": "insurance", "opening_hours": "Mo-Fr 08:30-17:00", "phone": "+1-360-864-4774", "source": "https://agents.farmers.com/wa/toledo/cyndi-philbrook;Bing Streetside", "website": "https://agents.farmers.com/wa/toledo/cyndi-philbrook"}}, {"type": "way", "id": 486597939, "nodes": [4791844340, 4791844341, 4791844342, 4791844343, 4791844340], "tags": {"amenity": "parking", "parking": "surface"}}, {"type": "way", "id": 486597941, "nodes": [11196719211, 11196719172, 11196719171, 11196719210, 11196719209, 11196719207, 11196719206, 11196719208, 4791844348, 4791844349, 11196719211], "tags": {"amenity": "clinic", "building": "yes", "fax": "+1-360-864-4239", "healthcare": "clinic", "name": "Valley View Health Center", "opening_hours": "Mo-Fr 07:30-18:00; PH off", "phone": "+1-360-864-4400", "website": "https://vvhc.org/location/toledo/"}}, {"type": "way", "id": 542832877, "nodes": [5247850199, 11201529941, 10797510114, 10797510113, 10797510112, 5247850200, 10797510111, 5247850206, 5247850202, 5247850209, 5247850207, 5247850208, 5247850212, 5247850211, 5247850210, 5247850201, 10797510118, 10797510117, 10797510116, 10797510115, 5247850205, 5247850199], "tags": {"addr:city": "Toledo", "addr:country": "US", "addr:housenumber": "116", "addr:postcode": "98591", "addr:state": "WA", "addr:street": "Ramsey Way", "building": "office", "name": "Toledo School District Office", "office": "educational_institution", "opening_hours": "Mo-Th 07:30-16:00; Fr 07:30-15:30"}}, {"type": "way", "id": 1098570894, "nodes": [10058734289, 10058771625, 10058734306, 10058734275, 10058734292, 10058734270, 10058734289], "tags": {"access": "customers", "amenity": "parking"}}, {"type": "way", "id": 1160824823, "nodes": [10796701608, 10796701609, 10796701610, 10796701611, 10796701612, 10796701613, 10796701614, 10796701615, 10796701616, 10796701617, 10796701618, 10796701619, 10796701620, 10796701621, 10796701622, 10796701623, 10796701624, 10796701625, 10796701626, 11348002618, 11348002617, 10796701628, 10796701641, 10796701629, 10796701642, 10796701630, 10796701631, 10796701632, 10796701640, 10796701639, 10796701633, 10796701634, 10796701635, 10796701638, 10796701636, 10796701637, 10796701608], "tags": {"amenity": "parking", "parking": "surface"}}, {"type": "way", "id": 1160824824, "nodes": [2421385442, 10796701643, 10796701644, 10796701645, 2421385442], "tags": {"amenity": "parking", "parking": "street_side"}}, {"type": "way", "id": 1221988060, "nodes": [11332969954, 11332969963, 11332969964, 11332969955, 11332969956, 11332969957, 11332969958, 11332969959, 11332969960, 11332969961, 11332969962, 11332969954], "tags": {"amenity": "parking"}}, {"type": "way", "id": 1221988087, "nodes": [11332970103, 11332970104, 11332970105, 11332970106, 11332970107, 2421396219, 2421396286, 11196719119, 11196719117, 11332970108, 11332970103], "tags": {"amenity": "parking"}}, {"type": "way", "id": 1223707753, "nodes": [11350484000, 11350484001, 11350484002, 11350484003, 11350484004, 11350484005, 11350484006, 11350484007, 11350484008, 11350484009, 11350484010, 11350484011, 11350484000], "tags": {"amenity": "parking", "parking": "surface", "surface": "asphalt"}}, {"type": "way", "id": 1223725399, "nodes": [11350619137, 11350619138, 11350619139, 11350619140, 11350619141, 11350619142, 11350619143, 11350619144, 11350619145, 11350619146, 11350619147, 11350619148, 5759068213, 5759068210, 5759068208, 5759068211, 5759068214, 5759068218, 11350619137], "tags": {"amenity": "parking"}}]}