{"version": 0.6, "generator": "Overpass API 0.7.62.8 e802775f", "osm3s": {"timestamp_osm_base": "2025-12-06T19:12:21Z", "copyright": "The data included in this document is from www.openstreetmap.org. The data is made available under ODbL."}, "elements": [{"type": "node", "id": 659766482, "lat": 47.2427142, "lon": -122.3664964}, {"type": "node", "id": 659766483, "lat": 47.242834, "lon": -122.3664966}, {"type": "node", "id": 659766484, "lat": 47.2428339, "lon": -122.3667043}, {"type": "node", "id": 659766486, "lat": 47.242714, "lon": -122.3667041}, {"type": "node", "id": 1094419016, "lat": 47.2310059, "lon": -122.3579573}, {"type": "node", "id": 1094419668, "lat": 47.2310942, "lon": -122.3577913}, {"type": "node", "id": 1094420021, "lat": 47.230981, "lon": -122.3578666}, {"type": "node", "id": 1094420311, "lat": 47.2310744, "lon": -122.3577684}, {"type": "node", "id": 1094420611, "lat": 47.2311209, "lon": -122.357889}, {"type": "node", "id": 1094420863, "lat": 47.2310826, "lon": -122.3577982}, {"type": "node", "id": 1094421735, "lat": 47.2309823, "lon": -122.3578231}, {"type": "node", "id": 1094423155, "lat": 47.2309924, "lon": -122.3578598}, {"type": "node", "id": 2338719250, "lat": 47.2451585, "lon": -122.3846622}, {"type": "node", "id": 2338719263, "lat": 47.2454063, "lon": -122.3849923}, {"type": "node", "id": 2338719269, "lat": 47.2447279, "lon": -122.3845135}, {"type": "node", "id": 2338719272, "lat": 47.2447291, "lon": -122.3846693}, {"type": "node", "id": 2338719283, "lat": 47.2451573, "lon": -122.3845064}, {"type": "node", "id": 2338719286, "lat": 47.2452649, "lon": -122.3849922}, {"type": "node", "id": 2338719288, "lat": 47.2454063, "lon": -122.385143}, {"type": "node", "id": 2338719294, "lat": 47.2452649, "lon": -122.385143}, {"type": "node", "id": 4172128155, "lat": 47.2443033, "lon": -122.3703093}, {"type": "node", "id": 4172128156, "lat": 47.2439046, "lon": -122.3703066}, {"type": "node", "id": 4172128157, "lat": 47.2438845, "lon": -122.3704515}, {"type": "node", "id": 4172128158, "lat": 47.244296, "lon": -122.3704461}, {"type": "node", "id": 4172129801, "lat": 47.2440247, "lon": -122.3714761}, {"type": "node", "id": 4172129802, "lat": 47.2438882, "lon": -122.371578}, {"type": "node", "id": 4172129803, "lat": 47.2442136, "lon": -122.3706961}, {"type": "node", "id": 4172129804, "lat": 47.2449352, "lon": -122.3707438}, {"type": "node", "id": 4172129805, "lat": 47.2438936, "lon": -122.3719294}, {"type": "node", "id": 4172129806, "lat": 47.2439446, "lon": -122.3719294}, {"type": "node", "id": 4172129807, "lat": 47.2438876, "lon": -122.3714015}, {"type": "node", "id": 4172129808, "lat": 47.2441995, "lon": -122.3714841}, {"type": "node", "id": 4172129809, "lat": 47.2441759, "lon": -122.3718891}, {"type": "node", "id": 4172129810, "lat": 47.2445601, "lon": -122.370666}, {"type": "node", "id": 4172129811, "lat": 47.2448673, "lon": -122.37068}, {"type": "node", "id": 4172129812, "lat": 47.2442815, "lon": -122.3717979}, {"type": "node", "id": 4172129813, "lat": 47.2440247, "lon": -122.3713929}, {"type": "node", "id": 4172130401, "lat": 47.2461824, "lon": -122.3677505}, {"type": "node", "id": 4172130402, "lat": 47.2461806, "lon": -122.3675708}, {"type": "node", "id": 4172130403, "lat": 47.2460367, "lon": -122.3679673}, {"type": "node", "id": 4172130404, "lat": 47.2461806, "lon": -122.3681153}, {"type": "node", "id": 4172130407, "lat": 47.2458032, "lon": -122.3675445}, {"type": "node", "id": 4172130408, "lat": 47.2460568, "lon": -122.3681206}, {"type": "node", "id": 4172130410, "lat": 47.2457728, "lon": -122.3678012}, {"type": "node", "id": 4172130412, "lat": 47.2461824, "lon": -122.3679919}, {"type": "node", "id": 4172130413, "lat": 47.2461824, "lon": -122.3678309}, {"type": "node", "id": 4172130414, "lat": 47.2461824, "lon": -122.3679329}, {"type": "node", "id": 4172130415, "lat": 47.2461824, "lon": -122.3676646}, {"type": "node", "id": 4172130416, "lat": 47.2457727, "lon": -122.3677812}, {"type": "node", "id": 4172130418, "lat": 47.2460331, "lon": -122.3675279}, {"type": "node", "id": 4172130419, "lat": 47.2461018, "lon": -122.3675498}, {"type": "node", "id": 4172130420, "lat": 47.2459968, "lon": -122.3679694}, {"type": "node", "id": 4172130421, "lat": 47.2458636, "lon": -122.3677763}, {"type": "node", "id": 4172130422, "lat": 47.2460368, "lon": -122.3681153}, {"type": "node", "id": 4172130424, "lat": 47.2459446, "lon": -122.3677773}, {"type": "node", "id": 4172130425, "lat": 47.2459448, "lon": -122.3679191}, {"type": "node", "id": 4172130427, "lat": 47.2461788, "lon": -122.3680831}, {"type": "node", "id": 4172130428, "lat": 47.2459957, "lon": -122.3679168}, {"type": "node", "id": 4172135269, "lat": 47.2421026, "lon": -122.375325}, {"type": "node", "id": 4172135270, "lat": 47.2424887, "lon": -122.375337}, {"type": "node", "id": 4172135271, "lat": 47.2420986, "lon": -122.3756086}, {"type": "node", "id": 4172135272, "lat": 47.2424847, "lon": -122.3756206}, {"type": "node", "id": 4172138793, "lat": 47.2425061, "lon": -122.3701806}, {"type": "node", "id": 4172138794, "lat": 47.2409437, "lon": -122.3719133}, {"type": "node", "id": 4172138795, "lat": 47.2410493, "lon": -122.3701966}, {"type": "node", "id": 4172138796, "lat": 47.2425462, "lon": -122.371173}, {"type": "node", "id": 4172138797, "lat": 47.24212, "lon": -122.3727233}, {"type": "node", "id": 4172138798, "lat": 47.2421128, "lon": -122.3728038}, {"type": "node", "id": 4172138799, "lat": 47.2425146, "lon": -122.3706263}, {"type": "node", "id": 4172138800, "lat": 47.2417959, "lon": -122.372793}, {"type": "node", "id": 4172138801, "lat": 47.2413407, "lon": -122.372793}, {"type": "node", "id": 4172138802, "lat": 47.2422743, "lon": -122.3728097}, {"type": "node", "id": 4172138803, "lat": 47.2424842, "lon": -122.3701484}, {"type": "node", "id": 4172138804, "lat": 47.2425462, "lon": -122.3712588}, {"type": "node", "id": 4172138805, "lat": 47.241042, "lon": -122.3703254}, {"type": "node", "id": 4172138806, "lat": 47.2409874, "lon": -122.3728145}, {"type": "node", "id": 4172138807, "lat": 47.2425971, "lon": -122.3728359}, {"type": "node", "id": 4172138808, "lat": 47.2422306, "lon": -122.3727131}, {"type": "node", "id": 4172138809, "lat": 47.2421832, "lon": -122.3727399}, {"type": "node", "id": 4172138810, "lat": 47.2409377, "lon": -122.3703688}, {"type": "node", "id": 4172138811, "lat": 47.2425134, "lon": -122.3703898}, {"type": "node", "id": 4172138812, "lat": 47.2409692, "lon": -122.3703576}, {"type": "node", "id": 4172138813, "lat": 47.2409473, "lon": -122.372734}, {"type": "node", "id": 4172138814, "lat": 47.2424005, "lon": -122.3728091}, {"type": "node", "id": 4172138815, "lat": 47.2424915, "lon": -122.371173}, {"type": "node", "id": 4172139295, "lat": 47.2420618, "lon": -122.3738391}, {"type": "node", "id": 4172139296, "lat": 47.2411744, "lon": -122.3740596}, {"type": "node", "id": 4172139297, "lat": 47.2421419, "lon": -122.373587}, {"type": "node", "id": 4172139298, "lat": 47.240985, "lon": -122.3740542}, {"type": "node", "id": 4172139299, "lat": 47.2421747, "lon": -122.3736996}, {"type": "node", "id": 4172139300, "lat": 47.242619, "lon": -122.3729915}, {"type": "node", "id": 4172139301, "lat": 47.2413533, "lon": -122.3728559}, {"type": "node", "id": 4172139302, "lat": 47.241053, "lon": -122.3728467}, {"type": "node", "id": 4172139304, "lat": 47.2423495, "lon": -122.3735494}, {"type": "node", "id": 4172139305, "lat": 47.242267, "lon": -122.3729706}, {"type": "node", "id": 4172139307, "lat": 47.241581, "lon": -122.3740161}, {"type": "node", "id": 4172139308, "lat": 47.2409619, "lon": -122.3731524}, {"type": "node", "id": 4172139309, "lat": 47.2410457, "lon": -122.3740537}, {"type": "node", "id": 4172139310, "lat": 47.2425862, "lon": -122.3733187}, {"type": "node", "id": 4172139311, "lat": 47.242358, "lon": -122.3729974}, {"type": "node", "id": 4172139312, "lat": 47.2409692, "lon": -122.3728735}, {"type": "node", "id": 4172139314, "lat": 47.2413515, "lon": -122.3729726}, {"type": "node", "id": 4172139315, "lat": 47.2421031, "lon": -122.3729706}, {"type": "node", "id": 4172139316, "lat": 47.2422925, "lon": -122.3734427}, {"type": "node", "id": 4172139317, "lat": 47.2419052, "lon": -122.3739356}, {"type": "node", "id": 4172147643, "lat": 47.2440333, "lon": -122.3747516}, {"type": "node", "id": 4172147644, "lat": 47.2439118, "lon": -122.3749442}, {"type": "node", "id": 4172147645, "lat": 47.243981, "lon": -122.3732436}, {"type": "node", "id": 4172147646, "lat": 47.2444739, "lon": -122.3732656}, {"type": "node", "id": 4172147647, "lat": 47.2439118, "lon": -122.3753733}, {"type": "node", "id": 4172147648, "lat": 47.2439118, "lon": -122.3754377}, {"type": "node", "id": 4172147649, "lat": 47.2444836, "lon": -122.3753948}, {"type": "node", "id": 4172147650, "lat": 47.2444909, "lon": -122.3754377}, {"type": "node", "id": 4172147651, "lat": 47.243941, "lon": -122.374794}, {"type": "node", "id": 4308164601, "lat": 47.2393175, "lon": -122.3637512, "tags": {"check_date": "2025-07-13", "name": "Baydo's RV Center", "shop": "caravan"}}, {"type": "node", "id": 4308164603, "lat": 47.2397135, "lon": -122.371388, "tags": {"brand": "Honda", "brand:wikidata": "Q9584", "name": "Fife Honda", "shop": "car"}}, {"type": "node", "id": 4308164604, "lat": 47.2394859, "lon": -122.3708685, "tags": {"check_date": "2025-07-13", "name": "HercRentals Equipment Rental", "shop": "hardware"}}, {"type": "node", "id": 4308164607, "lat": 47.2402981, "lon": -122.3818025, "tags": {"check_date": "2025-07-13", "name": "South Sound BMW Motorcycles", "shop": "motorcycle"}}, {"type": "node", "id": 4308164610, "lat": 47.2390889, "lon": -122.3676002}, {"type": "node", "id": 4308164611, "lat": 47.2391127, "lon": -122.3688542}, {"type": "node", "id": 4308164612, "lat": 47.2401583, "lon": -122.3688193}, {"type": "node", "id": 4308164613, "lat": 47.2402189, "lon": -122.3675628}, {"type": "node", "id": 4308164614, "lat": 47.2424623, "lon": -122.389595, "tags": {"name": "Poulsbo RV", "shop": "caravan"}}, {"type": "node", "id": 4308164615, "lat": 47.2427154, "lon": -122.371362, "tags": {"shop": "convenience"}}, {"type": "node", "id": 4308164616, "lat": 47.2428675, "lon": -122.3714251, "tags": {"amenity": "fuel", "check_date": "2025-09-05", "name": "Gull"}}, {"type": "node", "id": 4310339587, "lat": 47.2417895, "lon": -122.3714845, "tags": {"brand": "Audi", "brand:wikidata": "Q23317", "check_date": "2025-08-28", "name": "Audi of Tacoma", "shop": "car"}}, {"type": "node", "id": 4310339994, "lat": 47.2427043, "lon": -122.3642625, "tags": {"amenity": "fast_food", "cuisine": "burger", "name": "Herfy's"}}, {"type": "node", "id": 4310339995, "lat": 47.2414499, "lon": -122.363664, "tags": {"brand": "Infiniti", "brand:wikidata": "Q29714", "name": "Infiniti of Tacoma", "shop": "car"}}, {"type": "node", "id": 4310339996, "lat": 47.2426494, "lon": -122.373947, "tags": {"brand": "Jaguar", "brand:wikidata": "Q21170490", "name": "Jaguar of Tacoma", "shop": "car"}}, {"type": "node", "id": 4310339997, "lat": 47.2427315, "lon": -122.3654129, "tags": {"addr:housenumber": "4756", "addr:state": "WA", "addr:street": "Pacific Highway East", "addr:unit": "130", "amenity": "fast_food", "brand": "Jersey Mike's Subs", "brand:wikidata": "Q6184897", "cuisine": "sandwich", "name": "Jersey Mike's Subs", "short_name": "Jersey Mike's", "takeaway": "yes", "website": "https://www.jerseymikes.com/18023/fife-wa"}}, {"type": "node", "id": 4310339999, "lat": 47.2423217, "lon": -122.374409, "tags": {"brand": "Land Rover", "brand:wikidata": "Q26777551", "name": "Land Rover of Tacoma", "shop": "car"}}, {"type": "node", "id": 4310340001, "lat": 47.2417681, "lon": -122.373314, "tags": {"check_date": "2025-02-15", "name": "Larson Vans", "shop": "car"}}, {"type": "node", "id": 4310340002, "lat": 47.2417063, "lon": -122.3722839, "tags": {"brand": "Porsche", "brand:wikidata": "Q40993", "check_date": "2025-08-28", "name": "Larson Porsche", "shop": "car"}}, {"type": "node", "id": 4310340003, "lat": 47.2414439, "lon": -122.375573, "tags": {"brand": "Lexus", "brand:wikidata": "Q35919", "name": "Lexus of Tacoma", "shop": "car"}}, {"type": "node", "id": 4310340004, "lat": 47.2419911, "lon": -122.37065, "tags": {"brand": "Mercedes-Benz", "brand:wikidata": "Q36008", "name": "Mercedes-Benz of Tacoma", "shop": "car"}}, {"type": "node", "id": 4310340005, "lat": 47.2396653, "lon": -122.37459, "tags": {"brand": "BMW", "brand:wikidata": "Q26678", "name": "Northwest BMW", "shop": "car"}}, {"type": "node", "id": 4310340006, "lat": 47.2397782, "lon": -122.376322, "tags": {"brand": "Mini", "brand:wikidata": "Q116232", "name": "Northwest Mini", "shop": "car"}}, {"type": "node", "id": 4310340008, "lat": 47.2428051, "lon": -122.3705969, "tags": {"amenity": "fuel", "brand": "Pacific Pride", "brand:wikidata": "Q7122637", "name": "Pacific Pride"}}, {"type": "node", "id": 4310340009, "lat": 47.2427109, "lon": -122.3661317, "tags": {"addr:city": "Fife", "addr:housenumber": "4716", "addr:postcode": "98424", "addr:state": "WA", "addr:street": "Pacific Highway East", "amenity": "restaurant", "brand": "Pizza Hut", "brand:wikidata": "Q191615", "cuisine": "pizza", "name": "Pizza Hut", "phone": "+1-253-926-8000", "website": "https://locations.pizzahut.com/wa/fife/4716-pacific-highway-e"}}, {"type": "node", "id": 4310340011, "lat": 47.2427547, "lon": -122.3651558, "tags": {"addr:city": "Fife", "addr:housenumber": "4756", "addr:postcode": "98424", "addr:state": "WA", "addr:street": "Pacific Highway East", "addr:unit": "110", "amenity": "cafe", "branch": "Pacific Highway & Willow St-Fi", "brand": "Starbucks", "brand:wikidata": "Q37158", "cuisine": "coffee_shop", "internet_access": "wlan", "internet_access:fee": "no", "name": "Starbucks", "official_name": "Starbucks Coffee", "phone": "+1-253-922-6193", "ref": "9766", "smoking": "no", "takeaway": "yes", "website": "https://www.starbucks.com/store-locator/store/9766/pacific-highway-willow-st-fi-4756-pacific-highway-east-110-fife-wa-984242680-us"}}, {"type": "node", "id": 4310340013, "lat": 47.2423071, "lon": -122.37546, "tags": {"brand": "Volvo", "brand:wikidata": "Q215293", "name": "Volvo of Tacoma", "shop": "car"}}, {"type": "node", "id": 4310340074, "lat": 47.2304081, "lon": -122.3577994}, {"type": "node", "id": 4310340079, "lat": 47.2304354, "lon": -122.3577256}, {"type": "node", "id": 4310340098, "lat": 47.2307687, "lon": -122.3578101}, {"type": "node", "id": 4310340104, "lat": 47.2308033, "lon": -122.357727}, {"type": "node", "id": 4310340188, "lat": 47.2390694, "lon": -122.361509}, {"type": "node", "id": 4310340189, "lat": 47.2390785, "lon": -122.3599446}, {"type": "node", "id": 4310340194, "lat": 47.2391172, "lon": -122.359901}, {"type": "node", "id": 4310340195, "lat": 47.2391198, "lon": -122.3697509}, {"type": "node", "id": 4310340216, "lat": 47.2401656, "lon": -122.3697329}, {"type": "node", "id": 4310340217, "lat": 47.2402886, "lon": -122.3610859}, {"type": "node", "id": 4310340219, "lat": 47.2403205, "lon": -122.3614882}, {"type": "node", "id": 4310340220, "lat": 47.2403341, "lon": -122.3598681}, {"type": "node", "id": 4310340640, "lat": 47.2428871, "lon": -122.3721392, "tags": {"amenity": "fast_food"}}, {"type": "node", "id": 4986767416, "lat": 47.242729, "lon": -122.365963, "tags": {"addr:housenumber": "4716", "addr:state": "WA", "addr:street": "Pacific Highway East", "beauty": "tanning", "name": "Seattle Sun Tan", "shop": "beauty"}}, {"type": "node", "id": 4986767418, "lat": 47.2433569, "lon": -122.366617, "tags": {"name": "Pile Drivers & Divers Local Union 196", "office": "yes"}}, {"type": "node", "id": 4986767419, "lat": 47.2427325, "lon": -122.36583, "tags": {"addr:housenumber": "4716", "addr:state": "WA", "addr:street": "Pacific Highway East", "addr:unit": "110", "brand": "Cricket Wireless", "brand:wikidata": "Q5184987", "name": "Cricket Wireless", "shop": "mobile_phone", "short_name": "Cricket"}}, {"type": "node", "id": 4986767420, "lat": 47.242723, "lon": -122.3652593, "tags": {"addr:housenumber": "4756", "addr:state": "WA", "addr:street": "Pacific Highway East", "addr:unit": "120", "name": "Blossom Nails & Spa", "shop": "beauty"}}, {"type": "node", "id": 4986770821, "lat": 47.2434771, "lon": -122.365245, "tags": {"name": "Urban Custom Bikes", "shop": "bicycle"}}, {"type": "node", "id": 4986770822, "lat": 47.2434672, "lon": -122.3657182, "tags": {"amenity": "clinic", "healthcare": "clinic", "name": "Occupational Medical Clinic of Tacoma"}}, {"type": "node", "id": 4986776125, "lat": 47.2434218, "lon": -122.3643287, "tags": {"name": "Olympic Hot Tub Company", "shop": "hot_tubs"}}, {"type": "node", "id": 4986776210, "lat": 47.2426974, "lon": -122.364439, "tags": {"name": "Fife Grocery", "shop": "convenience"}}, {"type": "node", "id": 4986776211, "lat": 47.2427117, "lon": -122.364094, "tags": {"addr:city": "Fife", "addr:housenumber": "4802", "addr:postcode": "98424", "addr:state": "WA", "addr:street": "Pacific Highway East", "addr:unit": "B", "amenity": "fast_food", "brand": "Jimmy John's", "brand:wikidata": "Q1689380", "cuisine": "sandwich", "name": "Jimmy John's", "official_name": "Jimmy John's Gourmet Sandwiches", "phone": "+1-253-926-6771", "takeaway": "yes", "website": "https://locations.jimmyjohns.com/wa/fife/sandwiches-2717.html"}}, {"type": "node", "id": 5222727157, "lat": 47.2434089, "lon": -122.3852683}, {"type": "node", "id": 5222727158, "lat": 47.2435221, "lon": -122.3851483}, {"type": "node", "id": 5222727159, "lat": 47.2434549, "lon": -122.3850108}, {"type": "node", "id": 5222727160, "lat": 47.2433417, "lon": -122.3851308}, {"type": "node", "id": 5222727161, "lat": 47.243612, "lon": -122.3849409}, {"type": "node", "id": 5222727162, "lat": 47.243631, "lon": -122.3849795}, {"type": "node", "id": 5222727163, "lat": 47.2436805, "lon": -122.3849267}, {"type": "node", "id": 5222727164, "lat": 47.2436165, "lon": -122.3847967}, {"type": "node", "id": 5222727165, "lat": 47.2435735, "lon": -122.3848426}, {"type": "node", "id": 5222727166, "lat": 47.2435884, "lon": -122.3848731}, {"type": "node", "id": 5222727167, "lat": 47.2435451, "lon": -122.3849194}, {"type": "node", "id": 5222727168, "lat": 47.2434995, "lon": -122.3848267}, {"type": "node", "id": 5222727169, "lat": 47.2434193, "lon": -122.3849122}, {"type": "node", "id": 5222727170, "lat": 47.2435105, "lon": -122.3850976}, {"type": "node", "id": 5222727171, "lat": 47.243608, "lon": -122.3849936}, {"type": "node", "id": 5222727172, "lat": 47.2435923, "lon": -122.3849619}, {"type": "node", "id": 5222727173, "lat": 47.2428064, "lon": -122.3834809}, {"type": "node", "id": 5222727174, "lat": 47.2428028, "lon": -122.3831453}, {"type": "node", "id": 5222727175, "lat": 47.2426999, "lon": -122.3831477}, {"type": "node", "id": 5222727176, "lat": 47.2427036, "lon": -122.3834833}, {"type": "node", "id": 5222727177, "lat": 47.2429671, "lon": -122.3826935}, {"type": "node", "id": 5222727178, "lat": 47.2429669, "lon": -122.3824956}, {"type": "node", "id": 5222727179, "lat": 47.2428247, "lon": -122.3824958}, {"type": "node", "id": 5222727180, "lat": 47.2428248, "lon": -122.3826937}, {"type": "node", "id": 5222727181, "lat": 47.2426007, "lon": -122.3827433}, {"type": "node", "id": 5222727182, "lat": 47.2427257, "lon": -122.3825583}, {"type": "node", "id": 5222727183, "lat": 47.2427263, "lon": -122.382455}, {"type": "node", "id": 5222727184, "lat": 47.2424803, "lon": -122.3824481}, {"type": "node", "id": 5222727185, "lat": 47.2424797, "lon": -122.3825557}, {"type": "node", "id": 5222727186, "lat": 47.2454147, "lon": -122.384643, "tags": {"amenity": "fast_food", "brand": "Chester's", "brand:wikidata": "Q5093401", "cuisine": "chicken", "name": "Chester's", "takeaway": "yes"}}, {"type": "node", "id": 5222727187, "lat": 47.2452715, "lon": -122.38464, "tags": {"brand": "Love's", "brand:wikidata": "Q1872496", "name": "Love's", "shop": "convenience", "website": "https://www.loves.com/locations/448"}}, {"type": "node", "id": 5227336723, "lat": 47.2387749, "lon": -122.3838312, "tags": {"amenity": "restaurant", "name": "Joe's Deli"}}, {"type": "node", "id": 5240305609, "lat": 47.2427117, "lon": -122.3691856, "tags": {"amenity": "restaurant", "cuisine": "thai", "name": "Thai in Fife"}}, {"type": "node", "id": 5240305651, "lat": 47.2452926, "lon": -122.3678006}, {"type": "node", "id": 5240305652, "lat": 47.2452916, "lon": -122.367551}, {"type": "node", "id": 5240305653, "lat": 47.2452898, "lon": -122.3678997}, {"type": "node", "id": 5240305665, "lat": 47.2457729, "lon": -122.3678031}, {"type": "node", "id": 5240305666, "lat": 47.2459423, "lon": -122.3679222}, {"type": "node", "id": 5240305667, "lat": 47.2459952, "lon": -122.3679711}, {"type": "node", "id": 5240305668, "lat": 47.2452903, "lon": -122.3680891}, {"type": "node", "id": 5240305669, "lat": 47.2460025, "lon": -122.3681146}, {"type": "node", "id": 5240305670, "lat": 47.2460347, "lon": -122.3681144}, {"type": "node", "id": 5240305671, "lat": 47.2460343, "lon": -122.3679709}, {"type": "node", "id": 5240305672, "lat": 47.2459951, "lon": -122.3679218}, {"type": "node", "id": 5240305673, "lat": 47.2459419, "lon": -122.3677794}, {"type": "node", "id": 5240305674, "lat": 47.2457728, "lon": -122.3677805}, {"type": "node", "id": 5240305675, "lat": 47.2452895, "lon": -122.3678059}, {"type": "node", "id": 5240305676, "lat": 47.2451812, "lon": -122.3683774}, {"type": "node", "id": 5240305677, "lat": 47.2451804, "lon": -122.3680897}, {"type": "node", "id": 5240305678, "lat": 47.2460033, "lon": -122.3683725}, {"type": "node", "id": 5600964222, "lat": 47.2396689, "lon": -122.3620333, "tags": {"name": "UPS Distribution Center", "office": "company"}}, {"type": "node", "id": 5600964325, "lat": 47.2399808, "lon": -122.3807421, "tags": {"brand": "Pap\u00e9 Machinery", "brand:wikidata": "Q109615242", "name": "Pap\u00e9 Machinery", "shop": "trade", "trade": "agricultural_equipment"}}, {"type": "node", "id": 5678313523, "lat": 47.2417265, "lon": -122.3787296, "tags": {"amenity": "clinic", "healthcare": "clinic", "name": "Puyallup Integrative Tribal Medicine"}}, {"type": "node", "id": 5678335422, "lat": 47.2420041, "lon": -122.3653649, "tags": {"check_date": "2025-08-28", "name": "Camping World", "shop": "caravan"}}, {"type": "node", "id": 5678459425, "lat": 47.2417046, "lon": -122.3790637, "tags": {"amenity": "doctors", "healthcare": "doctor", "name": "Salish Cancer Center"}}, {"type": "node", "id": 5678459426, "lat": 47.2394054, "lon": -122.3679569, "tags": {"brand": "U-Haul", "brand:wikidata": "Q7862902", "name": "U-Haul", "shop": "rental"}}, {"type": "node", "id": 5678573024, "lat": 47.2394149, "lon": -122.3834372, "tags": {"name": "South Sound Motors", "shop": "car"}}, {"type": "node", "id": 5678573025, "lat": 47.2384541, "lon": -122.366431, "tags": {"name": "Sportco", "office": "company"}}, {"type": "node", "id": 5678573026, "lat": 47.2386643, "lon": -122.3651802, "tags": {"name": "Stewart", "office": "company"}}, {"type": "node", "id": 5678577721, "lat": 47.2396099, "lon": -122.3826378, "tags": {"addr:city": "Fife", "addr:housenumber": "3443", "addr:postcode": "98424", "addr:state": "WA", "addr:street": "20th Street East", "brand": "Peterbilt", "brand:wikidata": "Q944640", "name": "Western Peterbilt Tacoma", "shop": "truck"}}, {"type": "node", "id": 5680147826, "lat": 47.2415126, "lon": -122.3668148, "tags": {"craft": "plumber", "name": "Acqua Plumbing", "office": "company"}}, {"type": "node", "id": 5680147924, "lat": 47.242911, "lon": -122.39404, "tags": {"brand": "Meineke", "brand:wikidata": "Q6810159", "name": "Meineke", "official_name": "Meineke Car Care Center", "shop": "car_repair"}}, {"type": "node", "id": 5680149321, "lat": 47.2428361, "lon": -122.3929515, "tags": {"amenity": "car_rental", "brand": "Enterprise", "brand:wikidata": "Q17085454", "check_date": "2025-02-15", "name": "Enterprise", "official_name": "Enterprise Rent-A-Car"}}, {"type": "node", "id": 5680524224, "lat": 47.2398162, "lon": -122.3787708, "tags": {"brand": "Tesla", "brand:wikidata": "Q478214", "check_date": "2024-10-06", "name": "Tesla", "shop": "car"}}, {"type": "node", "id": 5680524225, "lat": 47.238483, "lon": -122.3684314, "tags": {"name": "Gensco", "office": "company"}}, {"type": "node", "id": 5910497981, "lat": 47.2452865, "lon": -122.3878267}, {"type": "node", "id": 6230399389, "lat": 47.2454, "lon": -122.3945863}, {"type": "node", "id": 6699437330, "lat": 47.2449406, "lon": -122.3873408}, {"type": "node", "id": 6699437331, "lat": 47.2452802, "lon": -122.3873314}, {"type": "node", "id": 6699437332, "lat": 47.244947, "lon": -122.3878361}, {"type": "node", "id": 6699437345, "lat": 47.2442333, "lon": -122.382806}, {"type": "node", "id": 6699437346, "lat": 47.2444034, "lon": -122.3828003}, {"type": "node", "id": 6699437347, "lat": 47.2444114, "lon": -122.3833203}, {"type": "node", "id": 6699437348, "lat": 47.2442414, "lon": -122.383326}, {"type": "node", "id": 6779792334, "lat": 47.2460604, "lon": -122.3829371, "tags": {"name": "Wescraft", "office": "company"}}, {"type": "node", "id": 6779792335, "lat": 47.2465725, "lon": -122.3945808}, {"type": "node", "id": 7229596801, "lat": 47.243514, "lon": -122.3851568}, {"type": "node", "id": 7229596802, "lat": 47.2434451, "lon": -122.3850212}, {"type": "node", "id": 7317270585, "lat": 47.2399365, "lon": -122.388523, "tags": {"amenity": "fuel", "brand": "Clean Energy", "brand:wikidata": "Q108462506", "fuel:biogas": "yes", "name": "Clean Energy Natural Gas"}}, {"type": "node", "id": 7317270685, "lat": 47.2415342, "lon": -122.366615, "tags": {"name": "Data Supply", "office": "company"}}, {"type": "node", "id": 7317270785, "lat": 47.2415335, "lon": -122.3670562, "tags": {"name": "Bagel Boyz Wholesale", "office": "company"}}, {"type": "node", "id": 7708908587, "lat": 47.2384629, "lon": -122.3767797, "tags": {"name": "Coca-Cola Bottling", "office": "company"}}, {"type": "node", "id": 7708927385, "lat": 47.2384972, "lon": -122.3628229, "tags": {"name": "Continuant", "office": "company"}}, {"type": "node", "id": 8223124217, "lat": 47.241708, "lon": -122.3788759, "tags": {"amenity": "college", "name": "Charter College"}}, {"type": "node", "id": 8262811417, "lat": 47.2434634, "lon": -122.376161, "tags": {"brand": "Caliber Collision", "brand:wikidata": "Q109329782", "name": "Caliber Collision", "shop": "car_repair"}}, {"type": "node", "id": 8389770098, "lat": 47.24381, "lon": -122.3844515}, {"type": "node", "id": 8389770099, "lat": 47.2436895, "lon": -122.3844527}, {"type": "node", "id": 8389770100, "lat": 47.2436866, "lon": -122.3841664}, {"type": "node", "id": 8389770101, "lat": 47.2438055, "lon": -122.3841664}, {"type": "node", "id": 8389770102, "lat": 47.2435136, "lon": -122.3844927}, {"type": "node", "id": 8389770103, "lat": 47.243455, "lon": -122.3844927}, {"type": "node", "id": 8389770104, "lat": 47.2434519, "lon": -122.384126}, {"type": "node", "id": 8389770105, "lat": 47.2435094, "lon": -122.384126}, {"type": "node", "id": 9082879819, "lat": 47.2416575, "lon": -122.3666118, "tags": {"name": "Pacific Refrigeration", "office": "company"}}, {"type": "node", "id": 9501634317, "lat": 47.2435404, "lon": -122.3894659, "tags": {"name": "Parker Store", "shop": "hardware"}}, {"type": "node", "id": 9501827418, "lat": 47.2384055, "lon": -122.3708608, "tags": {"name": "Gensco", "office": "company"}}, {"type": "node", "id": 9501828817, "lat": 47.2389054, "lon": -122.3823097, "tags": {"name": "West Marine", "shop": "outdoor"}}, {"type": "node", "id": 9557147170, "lat": 47.2420644, "lon": -122.3812971, "tags": {"name": "Fife RV Center", "shop": "caravan"}}, {"type": "node", "id": 9991723305, "lat": 47.2429606, "lon": -122.3918403}, {"type": "node", "id": 9991723306, "lat": 47.242958, "lon": -122.3913938}, {"type": "node", "id": 9991723307, "lat": 47.2425703, "lon": -122.3913987}, {"type": "node", "id": 9991723308, "lat": 47.2425693, "lon": -122.3912174}, {"type": "node", "id": 9991723309, "lat": 47.2423948, "lon": -122.3912195}, {"type": "node", "id": 9991723310, "lat": 47.2423983, "lon": -122.3918408}, {"type": "node", "id": 9991723311, "lat": 47.2425683, "lon": -122.3918388}, {"type": "node", "id": 9991723312, "lat": 47.2425679, "lon": -122.3917575}, {"type": "node", "id": 9991723313, "lat": 47.2426478, "lon": -122.3917565}, {"type": "node", "id": 9991723314, "lat": 47.2426483, "lon": -122.3918442}, {"type": "node", "id": 9991723315, "lat": 47.2430569, "lon": -122.3922338}, {"type": "node", "id": 9991723316, "lat": 47.2430555, "lon": -122.391852}, {"type": "node", "id": 9991740117, "lat": 47.2427285, "lon": -122.3918545}, {"type": "node", "id": 9991740118, "lat": 47.2427295, "lon": -122.3921312}, {"type": "node", "id": 9991740119, "lat": 47.2426791, "lon": -122.3921316}, {"type": "node", "id": 9991740120, "lat": 47.2426795, "lon": -122.3922368}, {"type": "node", "id": 10074205784, "lat": 47.2403046, "lon": -122.3606581}, {"type": "node", "id": 10773341654, "lat": 47.2453374, "lon": -122.384992}, {"type": "node", "id": 10773341655, "lat": 47.2453394, "lon": -122.385143}, {"type": "node", "id": 10773341660, "lat": 47.2449508, "lon": -122.3846654}, {"type": "node", "id": 10773341661, "lat": 47.2449473, "lon": -122.3845094}, {"type": "node", "id": 11024069405, "lat": 47.2397419, "lon": -122.3778523, "tags": {"check_date": "2024-10-06", "name": "Collision Center Northwest", "shop": "car_repair"}}, {"type": "node", "id": 11258907340, "lat": 47.2454147, "lon": -122.38457, "tags": {"addr:city": "East Tacoma", "addr:housenumber": "1501", "addr:postcode": "98424", "addr:state": "WA", "addr:street": "33rd Avenue", "amenity": "fast_food", "brand": "Subway", "brand:wikidata": "Q244457", "cuisine": "sandwich", "name": "Subway", "phone": "+1-253-922-8884", "takeaway": "yes", "website": "https://restaurants.subway.com/united-states/wa/east-tacoma/1501-33rd-ave"}}, {"type": "node", "id": 11687470784, "lat": 47.2446966, "lon": -122.38471, "tags": {"amenity": "weighbridge", "brand": "CAT Scale", "brand:wikidata": "Q111631907", "name": "CAT Scale", "operator": "Love's Travel Stop", "operator:phone": "+1 253-922-8884", "operator:website": "https://www.loves.com/locations/448", "operator:wikidata": "Q1872496", "ref": "1523", "website": "https://catscale.com/cat-scale-locator/?single=1523"}}, {"type": "node", "id": 11980089289, "lat": 47.2426324, "lon": -122.36432, "tags": {"addr:city": "Fife", "addr:housenumber": "4802", "addr:postcode": "98424", "addr:state": "WA", "addr:street": "Pacific Highway East", "amenity": "fast_food", "brand": "Domino's", "brand:wikidata": "Q839466", "cuisine": "pizza", "name": "Domino's", "opening_hours": "Mo-Th 10:00-24:00; Fr-Sa 10:00-01:00; Su 10:00-24:00", "phone": "+1-253-235-0854", "ref": "7112", "takeaway": "yes", "website": "https://pizza.dominos.com/washington/fife/4802-pacific-hwy-east"}}, {"type": "node", "id": 12023226192, "lat": 47.238255, "lon": -122.3733563, "tags": {"addr:city": "Fife", "addr:housenumber": "3900", "addr:postcode": "98424-1818", "addr:state": "WA", "addr:street": "20th Street East", "branch": "Fife", "brand": "Costco", "brand:wikidata": "Q715583", "name": "Costco Business Center", "opening_hours": "Mo-Sa 07:00-18:00; Su 08:00-16:00", "phone": "+1-253-719-1950", "ref": "767", "shop": "wholesale", "website": "https://www.costco.com/warehouse-locations/fife-bus-ctr-fife-wa-767.html"}}, {"type": "node", "id": 12223199148, "lat": 47.2454108, "lon": -122.3995497}, {"type": "node", "id": 12223199155, "lat": 47.2465832, "lon": -122.3995442}, {"type": "node", "id": 12542991976, "lat": 47.2426155, "lon": -122.373026}, {"type": "node", "id": 12590975501, "lat": 47.2435771, "lon": -122.3770035, "tags": {"brand": "Sunbelt Rentals", "brand:wikidata": "Q102396721", "check_date": "2025-02-15", "name": "Sunbelt Rentals", "shop": "plant_hire"}}, {"type": "node", "id": 12590975502, "lat": 47.2433664, "lon": -122.3765331, "tags": {"brand": "Caliber Collision", "brand:wikidata": "Q109329782", "check_date": "2025-02-15", "name": "Caliber Collision", "service:vehicle:body_repair": "yes", "shop": "car_repair"}}, {"type": "node", "id": 12997873278, "lat": 47.2427975, "lon": -122.3973254, "tags": {"brand": "Harley-Davidson", "brand:wikidata": "Q192814", "check_date": "2025-07-13", "name": "Harley-Davidson", "shop": "motorcycle"}}, {"type": "node", "id": 13122054828, "lat": 47.2449269, "lon": -122.3652529, "tags": {"check_date": "2025-09-05", "name": "Reality Homes", "office": "company"}}, {"type": "node", "id": 13122054829, "lat": 47.2433329, "lon": -122.3707694, "tags": {"check_date": "2025-09-05", "name": "BJ's", "shop": "convenience"}}, {"type": "node", "id": 13122054830, "lat": 47.2436175, "lon": -122.3863772, "tags": {"amenity": "fuel", "check_date": "2025-09-05", "name": "APP"}}, {"type": "node", "id": 13122054831, "lat": 47.2436106, "lon": -122.38718, "tags": {"brand": "Goodyear", "brand:wikidata": "Q620875", "check_date": "2025-09-05", "name": "Goodyear", "shop": "car_repair"}}, {"type": "way", "id": 51681517, "nodes": [659766482, 659766486, 659766484, 659766483, 659766482], "tags": {"addr:city": "Fife", "addr:country": "US", "addr:housenumber": "4670", "addr:postcode": "98424-2610", "addr:state": "WA", "addr:street": "100th Street SW", "brand": "Jiffy Lube", "brand:wikidata": "Q6192247", "building": "yes", "name": "Jiffy Lube", "phone": "+1-253-922-5098", "shop": "car_repair", "website": "https://www.jiffylube.com/"}}, {"type": "way", "id": 94153220, "nodes": [1094420611, 1094419016, 1094420021, 1094423155, 1094421735, 1094420311, 1094420863, 1094419668, 1094420611], "tags": {"amenity": "toilets", "building": "yes", "source": "bing"}}, {"type": "way", "id": 225046866, "nodes": [2338719272, 2338719269, 10773341661, 2338719283, 2338719250, 10773341660, 2338719272], "tags": {"amenity": "fuel", "brand": "Love's", "brand:wikidata": "Q1872496", "building": "roof", "compressed_air": "yes", "hgv": "yes", "layer": "1", "name": "Love's", "website": "https://www.loves.com/locations/448"}}, {"type": "way", "id": 225046867, "nodes": [2338719294, 2338719286, 10773341654, 2338719263, 2338719288, 10773341655, 2338719294], "tags": {"amenity": "fuel", "brand": "Love's", "brand:wikidata": "Q1872496", "building": "roof", "hgv": "no", "layer": "1", "name": "Love's", "opening_hours": "24/7", "website": "https://www.loves.com/locations/448"}}, {"type": "way", "id": 416470584, "nodes": [4172129804, 4172129812, 4172129809, 4172129806, 4172129805, 4172129802, 4172129807, 4172129813, 4172129801, 4172129808, 4172129803, 4172129810, 4172129811, 4172129804], "tags": {"amenity": "parking", "capacity": "125", "parking": "surface"}}, {"type": "way", "id": 416470638, "nodes": [4172128158, 4172128155, 4172128156, 4172128157, 4172128158], "tags": {"amenity": "parking", "capacity": "22"}}, {"type": "way", "id": 416470794, "nodes": [4172130402, 4172130415, 4172130401, 4172130413, 4172130414, 4172130412, 4172130427, 4172130404, 4172130408, 4172130422, 4172130403, 4172130420, 4172130428, 4172130425, 4172130424, 4172130421, 4172130416, 4172130410, 5240305651, 5240305652, 4172130407, 4172130418, 4172130419, 4172130402], "tags": {"access": "private", "amenity": "parking"}}, {"type": "way", "id": 416471430, "nodes": [4172138807, 4172138804, 4172138796, 4172138815, 4172138799, 4172138811, 4172138793, 4172138803, 4172138795, 4172138805, 4172138812, 4172138810, 4172138794, 4172138813, 4172138806, 4172138801, 4172138800, 4172138798, 4172138797, 4172138809, 4172138808, 4172138802, 4172138814, 4172138807], "tags": {"amenity": "parking", "capacity": "480", "parking": "surface"}}, {"type": "way", "id": 416471583, "nodes": [4172139310, 4172139304, 4172139316, 4172139297, 4172139299, 4172139295, 4172139317, 4172139307, 4172139296, 4172139309, 4172139298, 4172139308, 4172139312, 4172139302, 4172139301, 4172139314, 4172139315, 4172139305, 4172139311, 4172139300, 12542991976, 4172139310], "tags": {"amenity": "parking", "capacity": "200", "parking": "surface"}}, {"type": "way", "id": 416471604, "nodes": [4172135272, 4172135271, 4172135269, 4172135270, 4172135272], "tags": {"addr:city": "Fife", "addr:housenumber": "1602", "addr:postcode": "98424", "addr:state": "WA", "addr:street": "40th Avenue Court East", "brand": "Volvo", "brand:wikidata": "Q215293", "building": "yes", "name": "Volvo Cars Tacoma", "second_hand": "yes", "shop": "car", "website": "https://www.volvocarstacoma.com/"}}, {"type": "way", "id": 416472790, "nodes": [4172147649, 4172147646, 4172147645, 4172147643, 4172147651, 4172147644, 4172147647, 4172147648, 4172147650, 4172147649], "tags": {"amenity": "parking", "capacity": "125", "parking": "surface"}}, {"type": "way", "id": 431589708, "nodes": [4308164612, 4308164611, 4308164610, 4308164613, 4308164612], "tags": {"check_date": "2025-07-13", "landuse": "garages", "name": "Fife You Store It", "shop": "storage_rental"}}, {"type": "way", "id": 431810555, "nodes": [4310340098, 4310340104, 4310340079, 4310340074, 4310340098], "tags": {"amenity": "parking"}}, {"type": "way", "id": 431810557, "nodes": [4310340188, 4310340219, 4310340217, 10074205784, 4310340220, 4310340194, 4310340189, 4310340188], "tags": {"landuse": "retail", "name": "RV Country", "shop": "caravan"}}, {"type": "way", "id": 431810565, "nodes": [4308164611, 4310340195, 4310340216, 4308164612, 4308164611], "tags": {"check_date": "2025-02-15", "landuse": "retail", "name": "Tacoma RV Center", "shop": "caravan"}}, {"type": "way", "id": 539783196, "nodes": [5222727157, 7229596801, 5222727158, 5222727159, 7229596802, 5222727160, 5222727157], "tags": {"amenity": "fuel", "brand": "Arco", "brand:wikidata": "Q304769", "building": "roof", "check_date": "2025-09-05", "compressed_air": "yes", "layer": "1", "name": "Arco"}}, {"type": "way", "id": 539783197, "nodes": [5222727161, 5222727162, 5222727163, 5222727164, 5222727165, 5222727166, 5222727167, 5222727168, 5222727169, 5222727170, 5222727171, 5222727172, 5222727161], "tags": {"building": "yes", "check_date": "2025-09-05", "name": "Food Mart", "shop": "convenience"}}, {"type": "way", "id": 539783198, "nodes": [5222727173, 5222727174, 5222727175, 5222727176, 5222727173], "tags": {"addr:city": "Fife", "addr:housenumber": "3402", "addr:postcode": "98424", "addr:state": "WA", "addr:street": "Pacific Highway", "addr:unit": "E", "amenity": "fast_food", "brand": "Jack in the Box", "brand:wikidata": "Q1538507", "building": "yes", "cuisine": "burger", "name": "Jack in the Box", "phone": "+1-253-922-9439", "takeaway": "yes", "website": "https://locations.jackinthebox.com/us/wa/fife/3402-pacific-hwy-e"}}, {"type": "way", "id": 539783199, "nodes": [5222727177, 5222727178, 5222727179, 5222727180, 5222727177], "tags": {"amenity": "fuel", "brand": "76", "brand:wikidata": "Q1658320", "building": "roof", "check_date": "2025-09-05", "layer": "1", "name": "76"}}, {"type": "way", "id": 539783200, "nodes": [5222727181, 5222727182, 5222727183, 5222727184, 5222727185, 5222727181], "tags": {"building": "yes", "check_date": "2025-09-05", "name": "Tahoma", "shop": "convenience"}}, {"type": "way", "id": 541987611, "nodes": [5240305668, 5240305677, 5240305676, 5240305678, 5240305669, 5240305670, 5240305671, 5240305667, 5240305672, 5240305666, 5240305673, 5240305674, 5240305665, 5240305675, 5240305653, 5240305668], "tags": {"addr:city": "Fife", "addr:housenumber": "1222", "addr:postcode": "98424", "addr:state": "WA", "addr:street": "46th Avenue East", "building": "yes", "name": "Omega Morgan", "office": "company", "website": "https://www.omegamorgan.com/"}}, {"type": "way", "id": 665625238, "nodes": [12223199148, 12223199155, 6779792335, 6230399389, 12223199148], "tags": {"addr:city": "Tacoma", "addr:housenumber": "1930", "addr:postcode": "98424", "addr:state": "WA", "addr:street": "State Route 509", "building": "yes", "building:levels": "1", "name": "Americold", "office": "company"}}, {"type": "way", "id": 712552680, "nodes": [6699437332, 5910497981, 6699437331, 6699437330, 6699437332], "tags": {"building": "yes", "name": "The Fabulich Center", "office": "company"}}, {"type": "way", "id": 712552683, "nodes": [6699437348, 6699437347, 6699437346, 6699437345, 6699437348], "tags": {"building": "yes", "name": "Small Car Performance", "shop": "car_repair"}}, {"type": "way", "id": 903306404, "nodes": [8389770098, 8389770099, 8389770100, 8389770101, 8389770098], "tags": {"addr:city": "Fife", "addr:housenumber": "3309", "addr:postcode": "98424", "addr:state": "WA", "addr:street": "Pacific Highway East", "brand": "7-Eleven", "brand:wikidata": "Q259340", "building": "yes", "contact:website": "https://www.7-eleven.com/locations/wa/fife/3309-pacific-hwy-e-38722", "name": "7-Eleven", "opening_hours": "PH,Mo-Su 00:00-24:00", "self_service": "yes", "shop": "convenience", "wheelchair": "yes"}}, {"type": "way", "id": 903306405, "nodes": [8389770102, 8389770103, 8389770104, 8389770105, 8389770102], "tags": {"amenity": "fuel", "brand": "7-Eleven", "brand:wikidata": "Q259340", "building": "roof", "compressed_air": "yes", "name": "7-Eleven", "opening_hours": "PH,Mo-Su 00:00-24:00", "wheelchair": "yes"}}, {"type": "way", "id": 1090873069, "nodes": [9991723305, 9991723306, 9991723307, 9991723308, 9991723309, 9991723310, 9991723311, 9991723312, 9991723313, 9991723314, 9991723305], "tags": {"brand": "Grainger", "brand:wikidata": "Q1627894", "building": "yes", "check_date": "2024-03-12", "check_date:opening_hours": "2024-03-12", "name": "Grainger", "opening_hours": "Mo-Fr 07:00-16:00", "shop": "trade", "trade": "yes", "website": "https://www.grainger.com/branch/Fife-Branch-755"}}, {"type": "way", "id": 1090873070, "nodes": [9991723315, 9991723316, 9991740117, 9991740118, 9991740119, 9991740120, 9991723315], "tags": {"access": "customers", "amenity": "parking"}}]}