{"version": 0.6, "generator": "Overpass API 0.7.62.8 e802775f", "osm3s": {"timestamp_osm_base": "2025-12-06T04:18:14Z", "copyright": "The data included in this document is from www.openstreetmap.org. The data is made available under ODbL."}, "elements": [{"type": "node", "id": 2833585501, "lat": 47.0028985, "lon": -114.4767315}, {"type": "node", "id": 2833585502, "lat": 47.0038959, "lon": -114.47946}, {"type": "node", "id": 2833585503, "lat": 47.0040409, "lon": -114.48269}, {"type": "node", "id": 2833585504, "lat": 47.0033864, "lon": -114.477794}, {"type": "node", "id": 2833585601, "lat": 47.0030069, "lon": -114.4766727}, {"type": "node", "id": 2833585701, "lat": 47.0029752, "lon": -114.4765472}, {"type": "node", "id": 2833585702, "lat": 47.0039669, "lon": -114.4797191}, {"type": "node", "id": 2833585801, "lat": 47.0028668, "lon": -114.4766059}, {"type": "node", "id": 2833585802, "lat": 47.0028646, "lon": -114.4765654}, {"type": "node", "id": 2833585901, "lat": 47.0030379, "lon": -114.4764737}, {"type": "node", "id": 2833585902, "lat": 47.0028296, "lon": -114.4764229}, {"type": "node", "id": 2833585905, "lat": 47.0031954, "lon": -114.4779046}, {"type": "node", "id": 2833585906, "lat": 47.0037656, "lon": -114.492101}, {"type": "node", "id": 2833586001, "lat": 47.0030028, "lon": -114.4763312}, {"type": "node", "id": 2833586002, "lat": 47.0037323, "lon": -114.4814056}, {"type": "node", "id": 2833586101, "lat": 47.0036976, "lon": -114.4812671}, {"type": "node", "id": 2833586102, "lat": 47.003698, "lon": -114.4798775}, {"type": "node", "id": 2833586103, "lat": 47.0031722, "lon": -114.4778185}, {"type": "node", "id": 2833586104, "lat": 47.0036854, "lon": -114.491917}, {"type": "node", "id": 2833586303, "lat": 47.003627, "lon": -114.4796184}, {"type": "node", "id": 2833586304, "lat": 47.0038968, "lon": -114.4827701}, {"type": "node", "id": 2833586305, "lat": 47.0041064, "lon": -114.4829406}, {"type": "node", "id": 2833586306, "lat": 47.0039632, "lon": -114.4830217}, {"type": "node", "id": 2833586403, "lat": 47.0039353, "lon": -114.4916829}, {"type": "node", "id": 2833586502, "lat": 47.0040155, "lon": -114.4918669}, {"type": "node", "id": 2833586601, "lat": 47.0033632, "lon": -114.4777079}, {"type": "node", "id": 5106727881, "lat": 47.0037764, "lon": -114.4795303}, {"type": "node", "id": 5106728622, "lat": 47.0032205, "lon": -114.4779674}, {"type": "node", "id": 5106728623, "lat": 47.003317, "lon": -114.4779105}, {"type": "node", "id": 5106728624, "lat": 47.0033569, "lon": -114.4780561}, {"type": "node", "id": 5106728625, "lat": 47.0034163, "lon": -114.4780211}, {"type": "node", "id": 5106728626, "lat": 47.0034404, "lon": -114.478109}, {"type": "node", "id": 5106728627, "lat": 47.0032845, "lon": -114.4782009}, {"type": "node", "id": 5106728639, "lat": 47.0036114, "lon": -114.4813135}, {"type": "node", "id": 5106728640, "lat": 47.003646, "lon": -114.481452}, {"type": "node", "id": 5106728659, "lat": 47.0043047, "lon": -114.4840794}, {"type": "node", "id": 5106728660, "lat": 47.0042852, "lon": -114.4840904}, {"type": "node", "id": 5106728661, "lat": 47.0043345, "lon": -114.4842783}, {"type": "node", "id": 5106728662, "lat": 47.0042985, "lon": -114.4840559}, {"type": "node", "id": 5106728663, "lat": 47.0043832, "lon": -114.4840083}, {"type": "node", "id": 5106728664, "lat": 47.0044386, "lon": -114.4842197}, {"type": "way", "id": 279109207, "nodes": [2833585501, 2833585601, 2833585701, 2833585801, 2833585501], "tags": {"addr:city": "Alberton", "addr:housenumber": "612", "addr:postcode": "59820", "addr:state": "MT", "addr:street": "Railroad Avenue", "amenity": "cafe", "building": "retail", "name": "Fat Belly Deli"}}, {"type": "way", "id": 279109208, "nodes": [2833585802, 2833585901, 2833586001, 2833585902, 2833585802], "tags": {"addr:city": "Alberton", "addr:postcode": "59820", "amenity": "bar", "building": "retail", "name": "Sportsman's Tavern", "wikimedia_commons": "File:Sportsman's Tavern, or Sportsman's Bar, Alberton Montana 2017.jpg"}}, {"type": "way", "id": 279109209, "nodes": [2833586002, 2833586101, 5106728639, 5106728640, 2833586002], "tags": {"addr:city": "Alberton", "addr:housenumber": "301", "addr:postcode": "59820", "addr:state": "MT", "addr:street": "Railroad Avenue", "amenity": "cafe", "building": "yes", "name": "Flying R Cafe"}}, {"type": "way", "id": 279109211, "nodes": [2833586102, 2833585702, 2833585502, 5106727881, 2833586303, 2833586102], "tags": {"addr:city": "Alberton", "addr:housenumber": "406", "addr:postcode": "59820", "addr:state": "MT", "addr:street": "Railroad Avenue", "building": "retail", "name": "Valley Grocery", "shop": "convenience"}}, {"type": "way", "id": 279109212, "nodes": [2833586304, 2833585503, 2833586305, 2833586306, 2833586304], "tags": {"addr:city": "Alberton", "addr:housenumber": "201", "addr:postcode": "59820", "addr:state": "MT", "addr:street": "Railroad Avenue", "brand": "Lakeland Feed", "building": "retail", "name": "Lakeland Feed and Supply", "shop": "farm"}}, {"type": "way", "id": 279109214, "nodes": [2833586103, 2833586601, 2833585504, 2833585905, 2833586103], "tags": {"addr:city": "Alberton", "addr:housenumber": "516", "addr:postcode": "59820", "addr:state": "MT", "addr:street": "Railroad Avenue", "amenity": "bar", "building": "yes", "name": "Trax"}}, {"type": "way", "id": 279109216, "nodes": [2833586104, 2833586403, 2833586502, 2833585906, 2833586104], "tags": {"amenity": "restaurant", "building": "yes", "name": "The River's Edge Steakhouse"}}, {"type": "way", "id": 524828704, "nodes": [5106728627, 5106728626, 5106728625, 5106728624, 5106728623, 5106728622, 5106728627], "tags": {"addr:city": "Alberton", "addr:housenumber": "512", "addr:postcode": "59820", "addr:state": "MT", "addr:street": "Railroad Avenue", "building": "retail", "name": "Montana Valley Book Store", "shop": "books", "website": "https://www.montanavalleybookstore.com/"}}, {"type": "way", "id": 524828708, "nodes": [5106728664, 5106728663, 5106728662, 5106728659, 5106728660, 5106728661, 5106728664], "tags": {"building": "retail", "shop": "antiques"}}]}