{"version": 0.6, "generator": "Overpass API 0.7.62.8 e802775f", "osm3s": {"timestamp_osm_base": "2025-12-06T20:51:30Z", "copyright": "The data included in this document is from www.openstreetmap.org. The data is made available under ODbL."}, "elements": [{"type": "node", "id": 53134442, "lat": 47.3905263, "lon": -122.181432}, {"type": "node", "id": 53191067, "lat": 47.3869415, "lon": -122.2074191, "tags": {"highway": "traffic_signals", "traffic_signals": "traffic_lights", "traffic_signals:direction": "both"}}, {"type": "node", "id": 53222721, "lat": 47.385108, "lon": -122.2100778}, {"type": "node", "id": 53239604, "lat": 47.3869128, "lon": -122.2100731}, {"type": "node", "id": 356541748, "lat": 47.4160214, "lon": -122.175887}, {"type": "node", "id": 356548071, "lat": 47.4068162, "lon": -122.170707}, {"type": "node", "id": 356552212, "lat": 47.4101247, "lon": -122.182571}, {"type": "node", "id": 674511315, "lat": 47.4132916, "lon": -122.2187933}, {"type": "node", "id": 674511316, "lat": 47.4132896, "lon": -122.2189502}, {"type": "node", "id": 674511317, "lat": 47.4124495, "lon": -122.2189273}, {"type": "node", "id": 674511318, "lat": 47.4124515, "lon": -122.2187705}, {"type": "node", "id": 674511319, "lat": 47.4132575, "lon": -122.2200759}, {"type": "node", "id": 674511320, "lat": 47.4132644, "lon": -122.2198034}, {"type": "node", "id": 674511321, "lat": 47.4124191, "lon": -122.2197565}, {"type": "node", "id": 674511322, "lat": 47.4124121, "lon": -122.220029}, {"type": "node", "id": 674511323, "lat": 47.4132758, "lon": -122.2184497}, {"type": "node", "id": 674511324, "lat": 47.4132783, "lon": -122.2181104}, {"type": "node", "id": 674511325, "lat": 47.4130561, "lon": -122.2181104}, {"type": "node", "id": 674511326, "lat": 47.4129562, "lon": -122.2181989}, {"type": "node", "id": 674511327, "lat": 47.4123945, "lon": -122.2181952}, {"type": "node", "id": 674511328, "lat": 47.4124045, "lon": -122.2184129}, {"type": "node", "id": 1145861512, "lat": 47.386346, "lon": -122.205325}, {"type": "node", "id": 1145861515, "lat": 47.3860725, "lon": -122.2050503}, {"type": "node", "id": 1145861523, "lat": 47.3859001, "lon": -122.2043253}, {"type": "node", "id": 1145861525, "lat": 47.3858227, "lon": -122.2063472}, {"type": "node", "id": 1145861527, "lat": 47.3863148, "lon": -122.2053749}, {"type": "node", "id": 1145861529, "lat": 47.3853283, "lon": -122.2063481}, {"type": "node", "id": 1145861532, "lat": 47.3853266, "lon": -122.2043264}, {"type": "node", "id": 1145861534, "lat": 47.386342, "lon": -122.2050498}, {"type": "node", "id": 1145861536, "lat": 47.3859005, "lon": -122.2048}, {"type": "node", "id": 1145861539, "lat": 47.3863154, "lon": -122.2061008}, {"type": "node", "id": 1145861541, "lat": 47.385987, "lon": -122.206102}, {"type": "node", "id": 1145865572, "lat": 47.3878742, "lon": -122.1988787}, {"type": "node", "id": 1145865578, "lat": 47.3873511, "lon": -122.1994397}, {"type": "node", "id": 1145865582, "lat": 47.3873347, "lon": -122.1988793}, {"type": "node", "id": 1145865590, "lat": 47.387872, "lon": -122.1994391}, {"type": "node", "id": 1578988251, "lat": 47.4155293, "lon": -122.1952324}, {"type": "node", "id": 1578988252, "lat": 47.4147379, "lon": -122.1952357}, {"type": "node", "id": 1578988253, "lat": 47.4147385, "lon": -122.1955628}, {"type": "node", "id": 1578988255, "lat": 47.4148059, "lon": -122.1955625}, {"type": "node", "id": 1578988257, "lat": 47.4148066, "lon": -122.1959283}, {"type": "node", "id": 1578988259, "lat": 47.4154773, "lon": -122.1958854}, {"type": "node", "id": 1578988261, "lat": 47.4155306, "lon": -122.1958852}, {"type": "node", "id": 1578988263, "lat": 47.4154773, "lon": -122.1959254}, {"type": "node", "id": 2413971148, "lat": 47.3949793, "lon": -122.1814015}, {"type": "node", "id": 3618025286, "lat": 47.3941371, "lon": -122.1811566}, {"type": "node", "id": 3618095588, "lat": 47.3875602, "lon": -122.2045989}, {"type": "node", "id": 3618095589, "lat": 47.3867068, "lon": -122.2044796}, {"type": "node", "id": 3618096314, "lat": 47.3874094, "lon": -122.2031902}, {"type": "node", "id": 3618096315, "lat": 47.3872109, "lon": -122.2017793, "tags": {"addr:city": "Kent", "addr:housenumber": "23920", "addr:postcode": "98031", "addr:state": "WA", "addr:street": "104th Avenue Southeast", "amenity": "fast_food", "brand": "Taco Bell", "brand:wikidata": "Q752941", "check_date": "2025-08-08", "cuisine": "tex-mex", "name": "Taco Bell", "opening_hours": "06:00-04:00", "payment:cash": "yes", "payment:credit_cards": "yes", "payment:debit_cards": "yes", "phone": "+1-253-856-8011", "takeaway": "yes", "website": "https://locations.tacobell.com/wa/kent/23920-104th-avenue-s-e-.html"}}, {"type": "node", "id": 3618096316, "lat": 47.3871718, "lon": -122.2025342}, {"type": "node", "id": 3618096317, "lat": 47.3873334, "lon": -122.2030449}, {"type": "node", "id": 3618096318, "lat": 47.3873198, "lon": -122.2026993, "tags": {"check_date": "2025-08-08", "name": "Food Mart", "shop": "convenience"}}, {"type": "node", "id": 3618096320, "lat": 47.3864917, "lon": -122.2028549, "tags": {"amenity": "atm", "check_date": "2025-08-08", "operator": "TransAct"}}, {"type": "node", "id": 3618096321, "lat": 47.3867071, "lon": -122.2027266}, {"type": "node", "id": 3618096322, "lat": 47.3864314, "lon": -122.2027031}, {"type": "node", "id": 3618096323, "lat": 47.3877917, "lon": -122.2028135}, {"type": "node", "id": 3618096324, "lat": 47.389907, "lon": -122.201938}, {"type": "node", "id": 3618096325, "lat": 47.3885186, "lon": -122.2005439, "tags": {"addr:city": "Kent", "addr:housenumber": "23662", "addr:postcode": "98031", "addr:state": "WA", "addr:street": "104th Avenue Southeast", "check_date": "2025-08-08", "name": "McLendon Hardware", "opening_hours": "Mo-Sa 08:00-20:00; Su 09:00-19:00", "payment:cash": "yes", "payment:contactless": "yes", "payment:credit_cards": "yes", "payment:debit_cards": "yes", "shop": "hardware"}}, {"type": "node", "id": 3618096654, "lat": 47.3851851, "lon": -122.2074063}, {"type": "node", "id": 3618175320, "lat": 47.3863806, "lon": -122.1976534, "tags": {"addr:city": "Kent", "addr:housenumber": "10715", "addr:postcode": "98031-5380", "addr:state": "WA", "addr:street": "Southeast 240th Street", "amenity": "fast_food", "brand": "McDonald's", "brand:wikidata": "Q38076", "check_date": "2025-08-08", "cuisine": "burger", "drive_through": "yes", "internet_access": "wlan", "name": "McDonald's", "opening_hours": "06:00-22:00", "payment:cash": "yes", "payment:credit_cards": "yes", "payment:debit_cards": "yes", "phone": "+1-253-856-1310", "takeaway": "yes", "website": "https://www.mcdonalds.com/us/en-us/location/15721.html"}}, {"type": "node", "id": 3618175321, "lat": 47.3864313, "lon": -122.1979664, "tags": {"brand": "ExtraMile", "brand:wikidata": "Q64224605", "check_date": "2025-08-08", "name": "Food Mart", "payment:cash": "yes", "payment:credit_cards": "yes", "payment:debit_cards": "yes", "shop": "convenience"}}, {"type": "node", "id": 3618175322, "lat": 47.3867246, "lon": -122.1980224}, {"type": "node", "id": 3618175625, "lat": 47.3882229, "lon": -122.1866274}, {"type": "node", "id": 3618175626, "lat": 47.3882205, "lon": -122.1851048}, {"type": "node", "id": 3618175627, "lat": 47.3878238, "lon": -122.184941}, {"type": "node", "id": 3618175628, "lat": 47.3870626, "lon": -122.1849374}, {"type": "node", "id": 3618175629, "lat": 47.3870634, "lon": -122.1864314}, {"type": "node", "id": 3618175630, "lat": 47.3871846, "lon": -122.1865234}, {"type": "node", "id": 3618175631, "lat": 47.3871984, "lon": -122.1865745}, {"type": "node", "id": 3618175632, "lat": 47.387203, "lon": -122.1866221}, {"type": "node", "id": 3618175654, "lat": 47.3867676, "lon": -122.1851848}, {"type": "node", "id": 3618175655, "lat": 47.3867715, "lon": -122.1841333}, {"type": "node", "id": 3618196294, "lat": 47.3950029, "lon": -122.1812627}, {"type": "node", "id": 3618196295, "lat": 47.3949655, "lon": -122.1811546}, {"type": "node", "id": 3618196296, "lat": 47.3950119, "lon": -122.1810528}, {"type": "node", "id": 3618196297, "lat": 47.3941625, "lon": -122.1810616}, {"type": "node", "id": 3618196298, "lat": 47.394173, "lon": -122.1812605}, {"type": "node", "id": 3618196365, "lat": 47.3961184, "lon": -122.1814007}, {"type": "node", "id": 3618196366, "lat": 47.3961175, "lon": -122.178803}, {"type": "node", "id": 3618196367, "lat": 47.3905254, "lon": -122.1788071}, {"type": "node", "id": 3618196369, "lat": 47.3923271, "lon": -122.1813973}, {"type": "node", "id": 3618196370, "lat": 47.392258, "lon": -122.1814307}, {"type": "node", "id": 3618196374, "lat": 47.3867679, "lon": -122.1743385}, {"type": "node", "id": 3618196375, "lat": 47.3866073, "lon": -122.1743323}, {"type": "node", "id": 3618196376, "lat": 47.3866103, "lon": -122.1741613}, {"type": "node", "id": 3618196377, "lat": 47.3866912, "lon": -122.1741644}, {"type": "node", "id": 3618196378, "lat": 47.3866917, "lon": -122.1741357}, {"type": "node", "id": 3618196379, "lat": 47.3867714, "lon": -122.1741388}, {"type": "node", "id": 3618196709, "lat": 47.3873348, "lon": -122.1991844}, {"type": "node", "id": 3618196710, "lat": 47.3873466, "lon": -122.1991844}, {"type": "node", "id": 3618196711, "lat": 47.3873467, "lon": -122.1993572}, {"type": "node", "id": 3618196712, "lat": 47.387351, "lon": -122.1993572}, {"type": "node", "id": 3618196713, "lat": 47.3878767, "lon": -122.1993573}, {"type": "node", "id": 3618196714, "lat": 47.3878743, "lon": -122.199053}, {"type": "node", "id": 3618196715, "lat": 47.3879043, "lon": -122.1990529}, {"type": "node", "id": 3618196716, "lat": 47.3879044, "lon": -122.1992958}, {"type": "node", "id": 3627822658, "lat": 47.3941576, "lon": -122.1945034}, {"type": "node", "id": 3627822659, "lat": 47.3965557, "lon": -122.1944827}, {"type": "node", "id": 3627822660, "lat": 47.3965534, "lon": -122.1926011}, {"type": "node", "id": 3627822661, "lat": 47.3959639, "lon": -122.1926046}, {"type": "node", "id": 3627822662, "lat": 47.3959627, "lon": -122.1921636}, {"type": "node", "id": 3627822663, "lat": 47.3947851, "lon": -122.1921706}, {"type": "node", "id": 3627822664, "lat": 47.3947844, "lon": -122.1919048}, {"type": "node", "id": 3627823011, "lat": 47.4104489, "lon": -122.2057818}, {"type": "node", "id": 3627823013, "lat": 47.4099412, "lon": -122.2035205}, {"type": "node", "id": 3627823028, "lat": 47.4086726, "lon": -122.206043}, {"type": "node", "id": 3627823029, "lat": 47.4104481, "lon": -122.206025}, {"type": "node", "id": 3627823030, "lat": 47.4104563, "lon": -122.2035257}, {"type": "node", "id": 3627823031, "lat": 47.4086658, "lon": -122.2035077}, {"type": "node", "id": 3649743251, "lat": 47.4065812, "lon": -122.2113119}, {"type": "node", "id": 3649743252, "lat": 47.4065815, "lon": -122.2112417}, {"type": "node", "id": 3649743253, "lat": 47.4063447, "lon": -122.2112392}, {"type": "node", "id": 3649743254, "lat": 47.4063444, "lon": -122.2113094}, {"type": "node", "id": 3649743312, "lat": 47.4064699, "lon": -122.2110786, "tags": {"amenity": "bench"}}, {"type": "node", "id": 3649743313, "lat": 47.4064404, "lon": -122.2110727, "tags": {"amenity": "bench"}}, {"type": "node", "id": 3649743431, "lat": 47.4163591, "lon": -122.1975892}, {"type": "node", "id": 3649743432, "lat": 47.4162309, "lon": -122.1973824}, {"type": "node", "id": 3649757549, "lat": 47.4161599, "lon": -122.1965288}, {"type": "node", "id": 3649757550, "lat": 47.4163202, "lon": -122.1968246, "tags": {"amenity": "recycling", "recycling:clothes": "yes", "recycling_type": "container"}}, {"type": "node", "id": 3649757551, "lat": 47.4162769, "lon": -122.1976836, "tags": {"amenity": "atm"}}, {"type": "node", "id": 3649757562, "lat": 47.4160567, "lon": -122.1981426, "tags": {"addr:city": "Kent", "addr:housenumber": "10700", "addr:postcode": "98031", "addr:state": "WA", "addr:street": "Southeast 208th Street", "amenity": "cafe", "brand": "Starbucks", "brand:wikidata": "Q37158", "contact:website": "https://www.starbucks.com/store-locator/store/9056/208th-benson-panther-lk-10700-se-208th-street-kent-wa-980315545-us", "cuisine": "coffee_shop", "name": "Starbucks", "official_name": "Starbucks Coffee", "takeaway": "yes"}}, {"type": "node", "id": 3649757564, "lat": 47.4165947, "lon": -122.1979572, "tags": {"addr:city": "Kent", "addr:housenumber": "10700", "addr:postcode": "98031", "addr:state": "WA", "addr:street": "Southeast 208th Street", "amenity": "pub", "check_date": "2025-01-04", "name": "Sidetrack Eatery & Pub"}}, {"type": "node", "id": 3649757565, "lat": 47.4161179, "lon": -122.1981523, "tags": {"addr:city": "Kent", "addr:housenumber": "10700", "addr:postcode": "98031", "addr:state": "WA", "addr:street": "Southeast 208th Street", "check_date": "2024-11-02", "name": "Wireless Connect", "shop": "mobile_phone"}}, {"type": "node", "id": 3649757566, "lat": 47.4161794, "lon": -122.1981482, "tags": {"addr:city": "Kent", "addr:housenumber": "10700", "addr:postcode": "98031", "addr:state": "WA", "addr:street": "Southeast 208th Street", "beauty": "nails", "check_date": "2024-11-02", "name": "Rose Nails", "shop": "beauty"}}, {"type": "node", "id": 3649757567, "lat": 47.4165932, "lon": -122.1980531, "tags": {"addr:city": "Kent", "addr:housenumber": "10700", "addr:postcode": "98031", "addr:state": "WA", "addr:street": "Southeast 208th Street", "check_date": "2025-01-04", "name": "Kent Vibraclean", "shop": "dry_cleaning"}}, {"type": "node", "id": 3649757568, "lat": 47.4165896, "lon": -122.1976626, "tags": {"addr:city": "Kent", "addr:housenumber": "10700", "addr:postcode": "98031", "addr:state": "WA", "addr:street": "Southeast 208th Street", "amenity": "veterinary", "check_date": "2025-01-04", "name": "Benson Animal Clinic", "phone": "+1-253-852-6330"}}, {"type": "node", "id": 3649757569, "lat": 47.4164405, "lon": -122.1981448, "tags": {"addr:city": "Kent", "addr:housenumber": "10700", "addr:postcode": "98031", "addr:state": "WA", "addr:street": "Southeast 208th Street", "check_date": "2025-01-04", "name": "Benson Eye Clinic", "shop": "optician"}}, {"type": "node", "id": 3649757570, "lat": 47.4164106, "lon": -122.19813, "tags": {"addr:city": "Kent", "addr:housenumber": "10700", "addr:postcode": "98031", "addr:state": "WA", "addr:street": "Southeast 208th Street", "check_date": "2025-01-04", "name": "Cigar Land", "shop": "tobacco"}}, {"type": "node", "id": 3649757581, "lat": 47.4168891, "lon": -122.1955335, "tags": {"addr:city": "Kent", "addr:housenumber": "20618", "addr:postcode": "98031", "addr:state": "WA", "addr:street": "108th Avenue Southeast", "brand": "Dollar Tree", "brand:wikidata": "Q5289230", "check_date": "2024-07-11", "check_date:opening_hours": "2024-07-11", "name": "Dollar Tree", "opening_hours": "Mo-Sa 09:00-21:00; Su 10:00-20:00", "payment:cards": "yes", "payment:cash": "yes", "phone": "+1-253-852-1060", "shop": "variety_store", "website": "https://www.dollartree.com/locations/wa/kent/5255/"}}, {"type": "node", "id": 3649757583, "lat": 47.4161603, "lon": -122.1955594, "tags": {"addr:city": "Kent", "addr:housenumber": "10840", "addr:postcode": "98031", "addr:state": "WA", "addr:street": "Southeast 208th Street", "name": "Ticor Title", "office": "estate_agent"}}, {"type": "node", "id": 3649757585, "lat": 47.4160378, "lon": -122.1955651, "tags": {"addr:city": "Kent", "addr:housenumber": "10844", "addr:postcode": "98031", "addr:state": "WA", "addr:street": "Southeast 208th Street", "amenity": "restaurant", "cuisine": "japanese", "name": "Yummy Teriyaki"}}, {"type": "node", "id": 3675503754, "lat": 47.3868146, "lon": -122.2040316, "tags": {"amenity": "compressed_air"}}, {"type": "node", "id": 3675503763, "lat": 47.3863272, "lon": -122.2019523}, {"type": "node", "id": 3675503764, "lat": 47.3854016, "lon": -122.2017683}, {"type": "node", "id": 3675503805, "lat": 47.3848853, "lon": -122.20126, "tags": {"addr:city": "Kent", "addr:door": "106", "addr:housenumber": "24202", "addr:postcode": "98030", "addr:state": "WA", "addr:street": "104th Avenue Southeast", "amenity": "restaurant", "check_date": "2025-08-08", "cuisine": "indian", "name": "Tasty Indian Cuisine", "opening_hours": "Mo-Th 11:00-20:30; Fr-Sa 11:00-21:30; Su 11:00-20:00"}}, {"type": "node", "id": 3675503808, "lat": 47.3850797, "lon": -122.2012644, "tags": {"addr:city": "Kent", "addr:housenumber": "24202", "addr:postcode": "98030", "addr:state": "WA", "addr:street": "104th Avenue Southeast", "check_date": "2025-08-08", "name": "La Bonita Market", "opening_hours": "09:00-21:00", "shop": "supermarket"}}, {"type": "node", "id": 3675503809, "lat": 47.3847866, "lon": -122.2012644, "tags": {"addr:city": "Kent", "addr:door": "108", "addr:housenumber": "24202", "addr:postcode": "98030", "addr:state": "WA", "addr:street": "104th Avenue Southeast", "amenity": "restaurant", "check_date": "2025-08-08", "cuisine": "vietnamese", "name": "Saigon Soul Vietnamese Restaurant", "opening_hours": "Mo-Sa 10:00-20:30; Su 10:00-19:30"}}, {"type": "node", "id": 3675503810, "lat": 47.3846894, "lon": -122.2012711, "tags": {"addr:city": "Kent", "addr:door": "110", "addr:housenumber": "24202", "addr:postcode": "98030", "addr:state": "WA", "addr:street": "104th Avenue Southeast", "check_date": "2025-08-08", "name": "K Cloud Smoke Shop", "shop": "tobacco"}}, {"type": "node", "id": 3675503823, "lat": 47.3837684, "lon": -122.2020157}, {"type": "node", "id": 3675504930, "lat": 47.3855909, "lon": -122.2024635}, {"type": "node", "id": 3682824492, "lat": 47.3930321, "lon": -122.2069623}, {"type": "node", "id": 3682824493, "lat": 47.3932273, "lon": -122.2069602}, {"type": "node", "id": 3682824494, "lat": 47.3932269, "lon": -122.2068837}, {"type": "node", "id": 3682824495, "lat": 47.3930317, "lon": -122.2068858}, {"type": "node", "id": 3682824561, "lat": 47.3937776, "lon": -122.2053595, "tags": {"amenity": "bench"}}, {"type": "node", "id": 3682824626, "lat": 47.3931766, "lon": -122.2049809, "tags": {"amenity": "bench"}}, {"type": "node", "id": 3682824707, "lat": 47.3941549, "lon": -122.19383}, {"type": "node", "id": 3682824708, "lat": 47.3945834, "lon": -122.1938387}, {"type": "node", "id": 3682824709, "lat": 47.3945834, "lon": -122.1918947}, {"type": "node", "id": 3682846115, "lat": 47.385454, "lon": -122.1870097}, {"type": "node", "id": 3682846116, "lat": 47.3860163, "lon": -122.1870126}, {"type": "node", "id": 3682846117, "lat": 47.3859777, "lon": -122.186948}, {"type": "node", "id": 3682846118, "lat": 47.3854137, "lon": -122.1869465}, {"type": "node", "id": 3710556057, "lat": 47.386344, "lon": -122.20573, "tags": {"amenity": "charging_station", "brand": "Blink", "brand:wikidata": "Q62065645", "capacity": "2", "check_date": "2025-08-08", "fee": "yes", "frequency": "60", "name": "Blink", "operator": "Blink", "operator:wikidata": "Q62065645", "socket:type1": "2"}}, {"type": "node", "id": 3721666744, "lat": 47.414465, "lon": -122.196501, "tags": {"amenity": "restaurant", "name": "Fire Starter Bar & Grill"}}, {"type": "node", "id": 3721666746, "lat": 47.4156229, "lon": -122.1860882, "tags": {"name": "NA Haircut Styling", "shop": "hairdresser"}}, {"type": "node", "id": 3725140958, "lat": 47.3861618, "lon": -122.2032909, "tags": {"addr:housenumber": "24019", "addr:street": "104th Avenue Southeast", "check_date": "2025-08-08", "name": "TLA Nails and Spa", "opening_hours": "Mo-Sa 09:30-19:30; Su off", "phone": "+1-253-520-7598", "shop": "beauty"}}, {"type": "node", "id": 3725140960, "lat": 47.3861638, "lon": -122.2029433, "tags": {"addr:housenumber": "24031", "addr:street": "104th Avenue Southeast", "amenity": "clinic", "check_date": "2025-08-08", "healthcare": "clinic", "name": "Concentra Occupational Therapy", "opening_hours": "Mo-Fr 08:00-17:00", "operator": "Concentra", "operator:type": "private", "operator:wikidata": "Q5158304"}}, {"type": "node", "id": 3725140961, "lat": 47.3872291, "lon": -122.2044114}, {"type": "node", "id": 3725140962, "lat": 47.3875506, "lon": -122.203823}, {"type": "node", "id": 3725140963, "lat": 47.3875732, "lon": -122.203988, "tags": {"addr:city": "Kent", "addr:housenumber": "10214", "addr:postcode": "98031", "addr:state": "WA", "addr:street": "Southeast 240th Street", "check_date": "2025-08-08", "name": "NW Vape Shop", "payment:cash": "yes", "payment:credit_cards": "yes", "payment:debit_cards": "yes", "shop": "tobacco"}}, {"type": "node", "id": 3725140964, "lat": 47.3875745, "lon": -122.2040727, "tags": {"addr:city": "Kent", "addr:housenumber": "10214", "addr:postcode": "98031", "addr:state": "WA", "addr:street": "Southeast 240th Street", "check_date": "2025-08-08", "name": "King Of The Hill Barbershop", "shop": "hairdresser"}}, {"type": "node", "id": 3725140965, "lat": 47.3875762, "lon": -122.203911, "tags": {"addr:city": "Kent", "addr:housenumber": "10214", "addr:postcode": "98031", "addr:state": "WA", "addr:street": "Southeast 240th Street", "check_date": "2025-08-08", "name": "Tienda Mexicana", "opening_hours": "Mo-Fr 09:00-20:30; Sa-Su 09:00-19:00", "payment:cash": "yes", "payment:credit_cards": "yes", "payment:debit_cards": "yes", "shop": "convenience"}}, {"type": "node", "id": 3725140966, "lat": 47.3875749, "lon": -122.2041366, "tags": {"addr:city": "Kent", "addr:housenumber": "10214", "addr:postcode": "98031", "addr:state": "WA", "addr:street": "Southeast 240th Street", "amenity": "fast_food", "check_date": "2025-08-08", "cuisine": "donut", "internet_access": "wlan", "name": "Happy Donuts", "opening_hours": "04:00-14:00", "toilets": "yes"}}, {"type": "node", "id": 3725140967, "lat": 47.3874722, "lon": -122.205581, "tags": {"amenity": "doctors", "check_date": "2025-08-08", "healthcare": "doctor", "name": "Family Care of Kent"}}, {"type": "node", "id": 3725140968, "lat": 47.3874128, "lon": -122.2054947, "tags": {"amenity": "dentist", "check_date": "2025-08-08", "healthcare": "dentist", "name": "H.K. Ahmad Family Dentist"}}, {"type": "node", "id": 3725140969, "lat": 47.3875433, "lon": -122.205587, "tags": {"check_date": "2025-08-08", "name": "I Care Optical", "name:en": "I Care Optical", "shop": "optician"}}, {"type": "node", "id": 3725140970, "lat": 47.3872985, "lon": -122.2063502}, {"type": "node", "id": 3725140971, "lat": 47.3863167, "lon": -122.2053539, "tags": {"amenity": "telephone", "fee": "yes"}}, {"type": "node", "id": 3725140972, "lat": 47.3863143, "lon": -122.205224, "tags": {"addr:city": "Kent", "addr:housenumber": "10201", "addr:postcode": "98031", "addr:state": "WA", "addr:street": "Southeast 240th Street", "amenity": "recycling", "atm": "yes", "branch": "Kent Branch", "brand": "ecoATM", "brand:wikidata": "Q108793413", "drive_through": "no", "name": "ecoATM", "note": "Inside Fred Meyer", "recycling:mobile_phones": "yes", "recycling_type": "vending_machine", "website": "https://www.globalcu.org/branches/kent/"}}, {"type": "node", "id": 3725140975, "lat": 47.3858756, "lon": -122.206149, "tags": {"addr:city": "Renton", "addr:housenumber": "17801", "addr:postcode": "98055", "addr:state": "WA", "addr:street": "108th Avenue SE", "amenity": "pharmacy", "brand": "Fred Meyer", "brand:wikidata": "Q5495932", "check_date": "2025-08-08", "dispensing": "yes", "drive_through": "no", "healthcare": "pharmacy", "name": "Fred Meyer Pharmacy", "opening_hours": "Mo-Fr 09:00-21:00; Sa 09:00-19:00; Su 11:00-18:00", "payment:cash": "yes", "payment:credit_cards": "yes", "payment:debit_cards": "yes", "phone": "+1-425-235-5383"}}, {"type": "node", "id": 3725140976, "lat": 47.3858617, "lon": -122.2046564, "tags": {"addr:city": "Kent", "addr:housenumber": "10201", "addr:postcode": "98031", "addr:state": "WA", "addr:street": "Southeast 240th", "amenity": "cafe", "branch": "Fred Meyer East Hill 172", "brand": "Starbucks", "brand:wikidata": "Q37158", "check_date": "2025-08-08", "cuisine": "coffee_shop", "name": "Starbucks", "official_name": "Starbucks Coffee", "payment:cash": "yes", "payment:credit_cards": "yes", "payment:debit_cards": "yes", "phone": "+1-253-859-5500", "ref": "1016213", "takeaway": "yes", "website": "https://www.starbucks.com/store-locator/store/1016213/fred-meyer-east-hill-172-10201-se-240th-kent-wa-98031-us"}}, {"type": "node", "id": 4127237845, "lat": 47.3852572, "lon": -122.2020012}, {"type": "node", "id": 4127237846, "lat": 47.3852558, "lon": -122.2016563}, {"type": "node", "id": 4127237847, "lat": 47.385401, "lon": -122.201655}, {"type": "node", "id": 4127237848, "lat": 47.385414, "lon": -122.20194}, {"type": "node", "id": 4127237849, "lat": 47.3853856, "lon": -122.2019403}, {"type": "node", "id": 4127237850, "lat": 47.3853858, "lon": -122.202}, {"type": "node", "id": 4127237851, "lat": 47.3855114, "lon": -122.202693}, {"type": "node", "id": 4127237852, "lat": 47.3855114, "lon": -122.2024634}, {"type": "node", "id": 4127237854, "lat": 47.3855908, "lon": -122.202693}, {"type": "node", "id": 4127238199, "lat": 47.3863261, "lon": -122.2017083}, {"type": "node", "id": 4127238200, "lat": 47.386446, "lon": -122.2017064}, {"type": "node", "id": 4127238201, "lat": 47.3864471, "lon": -122.2019512}, {"type": "node", "id": 4127238202, "lat": 47.3864328, "lon": -122.2029677}, {"type": "node", "id": 4127238204, "lat": 47.3865577, "lon": -122.2026934}, {"type": "node", "id": 4127238205, "lat": 47.3865581, "lon": -122.2029735}, {"type": "node", "id": 4127238206, "lat": 47.3867081, "lon": -122.2028803}, {"type": "node", "id": 4127238208, "lat": 47.3867733, "lon": -122.2027257}, {"type": "node", "id": 4127238209, "lat": 47.3867742, "lon": -122.2028794}, {"type": "node", "id": 4127238215, "lat": 47.3865916, "lon": -122.2044779}, {"type": "node", "id": 4127238216, "lat": 47.3865941, "lon": -122.204111}, {"type": "node", "id": 4127238217, "lat": 47.3867093, "lon": -122.2041127}, {"type": "node", "id": 4127243170, "lat": 47.387172, "lon": -122.2026933}, {"type": "node", "id": 4127243172, "lat": 47.3874474, "lon": -122.2025333}, {"type": "node", "id": 4127243173, "lat": 47.3874476, "lon": -122.2026924}, {"type": "node", "id": 4127243174, "lat": 47.38713, "lon": -122.2033118}, {"type": "node", "id": 4127243175, "lat": 47.3871297, "lon": -122.2030897}, {"type": "node", "id": 4127243176, "lat": 47.3874093, "lon": -122.203089}, {"type": "node", "id": 4127243178, "lat": 47.3874686, "lon": -122.2031901}, {"type": "node", "id": 4127243179, "lat": 47.3875674, "lon": -122.203275}, {"type": "node", "id": 4127243180, "lat": 47.3875357, "lon": -122.2033533}, {"type": "node", "id": 4127243181, "lat": 47.3874518, "lon": -122.2032815}, {"type": "node", "id": 4127243182, "lat": 47.3874104, "lon": -122.2032816}, {"type": "node", "id": 4127243183, "lat": 47.3874104, "lon": -122.203311}, {"type": "node", "id": 4127243294, "lat": 47.3879316, "lon": -122.2028128}, {"type": "node", "id": 4127243295, "lat": 47.3879309, "lon": -122.2024958}, {"type": "node", "id": 4127243296, "lat": 47.3877909, "lon": -122.2024965}, {"type": "node", "id": 4127243327, "lat": 47.3867225, "lon": -122.1975132}, {"type": "node", "id": 4127243328, "lat": 47.3866592, "lon": -122.1975138}, {"type": "node", "id": 4127243329, "lat": 47.3866613, "lon": -122.198023}, {"type": "node", "id": 4188362389, "lat": 47.4164703, "lon": -122.1949146, "tags": {"addr:city": "Kent", "addr:housenumber": "10920", "addr:postcode": "98031", "addr:state": "WA", "addr:street": "Southeast 208th Street", "amenity": "dentist", "healthcare": "dentist", "name": "Silas D. Dudley"}}, {"type": "node", "id": 4196672751, "lat": 47.4068863, "lon": -122.1996789}, {"type": "node", "id": 4196672752, "lat": 47.4068788, "lon": -122.1979778}, {"type": "node", "id": 4196672755, "lat": 47.4086875, "lon": -122.1848491}, {"type": "node", "id": 4196672756, "lat": 47.4086894, "lon": -122.1821567}, {"type": "node", "id": 4196672897, "lat": 47.4097689, "lon": -122.1821638}, {"type": "node", "id": 4196672906, "lat": 47.4108592, "lon": -122.1848603}, {"type": "node", "id": 4196672907, "lat": 47.4108666, "lon": -122.1825758}, {"type": "node", "id": 4196672938, "lat": 47.4140849, "lon": -122.1873041}, {"type": "node", "id": 4196672939, "lat": 47.4140874, "lon": -122.1880365}, {"type": "node", "id": 4196672962, "lat": 47.4148989, "lon": -122.1869165}, {"type": "node", "id": 4196672963, "lat": 47.4149006, "lon": -122.1880304}, {"type": "node", "id": 4196673093, "lat": 47.4156756, "lon": -122.1869107}, {"type": "node", "id": 4196673094, "lat": 47.4156794, "lon": -122.1880246}, {"type": "node", "id": 4196673102, "lat": 47.4159655, "lon": -122.1758869}, {"type": "node", "id": 4196673103, "lat": 47.415972, "lon": -122.1692521}, {"type": "node", "id": 4196673104, "lat": 47.4194337, "lon": -122.1758593}, {"type": "node", "id": 4196673105, "lat": 47.4194278, "lon": -122.1706123}, {"type": "node", "id": 4213226190, "lat": 47.4165542, "lon": -122.196525, "tags": {"addr:city": "Kent", "addr:housenumber": "20708", "addr:postcode": "98031", "addr:state": "WA", "addr:street": "108th Avenue Southeast", "amenity": "restaurant", "cuisine": "asian", "name": "San Wok Express", "opening_hours": "Mo 11:00-21:00; Tu closed; We-Su 11:00-21:00", "outdoor_seating": "no", "phone": "+1-253-981-3078", "takeaway": "yes"}}, {"type": "node", "id": 4213226290, "lat": 47.4164314, "lon": -122.1965109, "tags": {"addr:city": "Kent", "addr:housenumber": "20712", "addr:postcode": "98031", "addr:state": "WA", "addr:street": "108th Avenue Southeast", "name": "Benson Mart", "shop": "convenience"}}, {"type": "node", "id": 4213226590, "lat": 47.4166401, "lon": -122.1965345, "tags": {"addr:city": "Kent", "addr:housenumber": "20710", "addr:postcode": "98031", "addr:state": "WA", "addr:street": "108th Avenue Southeast", "name": "Red River Salon", "opening_hours": "Su 10:00-17:00; Mo 10:00-19:00; Tu closed; We-Sa 10:00-19:00", "shop": "hairdresser"}}, {"type": "node", "id": 4214360093, "lat": 47.3872297, "lon": -122.2068053, "tags": {"check_date": "2025-08-08", "name": "Kosnoski Eyecare", "opening_hours": "Mo-Fr 08:30-11:45,12:45-17:00", "shop": "optician"}}, {"type": "node", "id": 4214360211, "lat": 47.3863634, "lon": -122.205317, "tags": {"amenity": "post_box", "operator": "United States Postal Service", "operator:short": "USPS", "operator:type": "public", "operator:website": "https://www.usps.com", "operator:wikidata": "Q668687", "operator:wikipedia": "en:United States Postal Service", "short_name": "USPS"}}, {"type": "node", "id": 4214362713, "lat": 47.3860507, "lon": -122.2052138, "tags": {"branch": "Jewelers", "brand": "Fred Meyer Jewelers", "brand:wikidata": "Q5495935", "check_date": "2025-08-08", "name": "Fred Meyer Jewelers", "opening_hours": "Mo-Sa 09:00-21:00; Su 10:00-18:00", "shop": "jewelry"}}, {"type": "node", "id": 4215736439, "lat": 47.3861961, "lon": -122.205241, "tags": {"amenity": "payment_terminal", "brand": "Coinstar", "brand:wikidata": "Q5141641", "check_date": "2025-08-08", "fee": "9.9 %", "name": "Coinstar", "vending": "coins", "website": "https://coinstar.com/kiosk-info?KioskId=3759"}}, {"type": "node", "id": 4215787259, "lat": 47.4162171, "lon": -122.1933017}, {"type": "node", "id": 4225081854, "lat": 47.3869351, "lon": -122.2080225}, {"type": "node", "id": 4225090595, "lat": 47.4050244, "lon": -122.1707317}, {"type": "node", "id": 4225090596, "lat": 47.4050413, "lon": -122.1734018}, {"type": "node", "id": 4225090655, "lat": 47.4068331, "lon": -122.1733771}, {"type": "node", "id": 4255736362, "lat": 47.3829183, "lon": -122.2091412, "tags": {"amenity": "bench"}}, {"type": "node", "id": 4255736391, "lat": 47.3831054, "lon": -122.2094486, "tags": {"amenity": "bench"}}, {"type": "node", "id": 4255736419, "lat": 47.3832584, "lon": -122.2090704, "tags": {"amenity": "bench"}}, {"type": "node", "id": 4292283073, "lat": 47.38763, "lon": -122.1922541}, {"type": "node", "id": 4388479792, "lat": 47.3866201, "lon": -122.1996406, "tags": {"addr:city": "Kent", "addr:housenumber": "10601", "addr:postcode": "98031", "addr:state": "WA", "addr:street": "Southeast 240th Street", "check_date": "2025-08-08", "name": "Diamond Beauty Salon", "opening_hours": "10:00-19:00", "payment:cash": "yes", "payment:credit_cards": "yes", "payment:debit_cards": "yes", "shop": "hairdresser"}}, {"type": "node", "id": 4388479793, "lat": 47.3879921, "lon": -122.2019087, "tags": {"check_date": "2025-08-08", "name": "Benson Coin Laundry", "opening_hours": "07:00-21:00", "shop": "dry_cleaning"}}, {"type": "node", "id": 4388479893, "lat": 47.3866122, "lon": -122.1990325, "tags": {"addr:city": "Kent", "addr:housenumber": "10615", "addr:postcode": "98031", "addr:state": "WA", "addr:street": "Southeast 240th Street", "amenity": "fast_food", "brand": "Subway", "brand:wikidata": "Q244457", "check_date": "2025-08-08", "cuisine": "sandwich", "name": "Subway", "name:en": "Subway", "opening_hours": "Mo-Fr 08:00-21:30; Sa 09:00-21:30; Su 09:00-21:00", "phone": "+1-253-852-7088", "takeaway": "yes", "website": "https://restaurants.subway.com/united-states/wa/kent/10615-se-240th-st"}}, {"type": "node", "id": 4388479894, "lat": 47.386616, "lon": -122.1993917, "tags": {"addr:city": "Kent", "addr:housenumber": "10607", "addr:postcode": "98031", "addr:state": "WA", "addr:street": "Southeast 240th Street", "amenity": "fast_food", "brand": "Little Caesars", "brand:wikidata": "Q1393809", "check_date": "2025-08-08", "cuisine": "pizza", "name": "Little Caesars", "name:en": "Little Caesars", "opening_hours": "Mo-Th,Su 10:30-21:30; Fr-Sa 10:30-22:00", "payment:cash": "yes", "payment:credit_cards": "yes", "payment:debit_cards": "yes", "takeaway": "yes", "website": "https://littlecaesars.com/en-us/store/7840/"}}, {"type": "node", "id": 4388479895, "lat": 47.386622, "lon": -122.1994842, "tags": {"addr:city": "Kent", "addr:housenumber": "10605", "addr:postcode": "98031", "addr:state": "WA", "addr:street": "Southeast 240th Street", "amenity": "post_office", "check_date": "2025-08-08", "name": "Mail Boxes of Kent", "name:en": "Mail Boxes of Kent", "opening_hours": "Mo-Fr 09:00-19:00; Sa 09:00-15:30; Su off", "payment:cash": "yes", "payment:credit_cards": "yes", "payment:debit_cards": "yes"}}, {"type": "node", "id": 4388479896, "lat": 47.3870543, "lon": -122.199182, "tags": {"amenity": "post_box", "operator": "United States Postal Service", "operator:short": "USPS", "operator:type": "public", "operator:website": "https://www.usps.com", "operator:wikidata": "Q668687", "operator:wikipedia": "en:United States Postal Service", "short_name": "USPS"}}, {"type": "node", "id": 4388479897, "lat": 47.3862384, "lon": -122.2005954}, {"type": "node", "id": 4388479991, "lat": 47.3874146, "lon": -122.1982539}, {"type": "node", "id": 4388479992, "lat": 47.3866261, "lon": -122.2000887, "tags": {"addr:city": "Kent", "addr:housenumber": "10457", "addr:postcode": "98031", "addr:state": "WA", "addr:street": "Southeast 240th Street", "brand:wikidata": "Q30324179", "check_date": "2025-08-08", "name": "Indian Village", "opening_hours": "10:00-20:00", "payment:cash": "yes", "payment:credit_cards": "yes", "payment:debit_cards": "yes", "shop": "supermarket"}}, {"type": "node", "id": 4388484089, "lat": 47.3871353, "lon": -122.203266, "tags": {"amenity": "atm", "brand": "U.S. Bank", "brand:wikidata": "Q739084", "check_date": "2025-08-08", "name": "U.S. Bank", "operator": "U.S. Bank", "operator:wikidata": "Q739084", "operator:wikipedia": "en:U.S. Bancorp"}}, {"type": "node", "id": 4388484090, "lat": 47.3866351, "lon": -122.1990863, "tags": {"check_date": "2025-08-08", "name": "Smoke Vape", "shop": "tobacco"}}, {"type": "node", "id": 4388492989, "lat": 47.3872818, "lon": -122.1986226, "tags": {"addr:city": "Kent", "addr:housenumber": "10618", "addr:postcode": "98031", "addr:state": "WA", "addr:street": "Southeast 240th Street", "amenity": "veterinary", "check_date": "2025-08-08", "name": "Benson Center Veterinary", "name:en": "Benson Center Veterinary"}}, {"type": "node", "id": 4388492990, "lat": 47.3866199, "lon": -122.199575, "tags": {"addr:city": "Kent", "addr:housenumber": "10603", "addr:postcode": "98031", "addr:state": "WA", "addr:street": "Southeast 240th Street", "check_date": "2025-08-08", "cuisine": "middle_eastern", "name": "Al Hamdani Grocery And Sweets", "payment:cash": "yes", "payment:credit_cards": "yes", "payment:debit_cards": "yes", "phone": "+1-253-246-7178", "shop": "supermarket"}}, {"type": "node", "id": 4388492991, "lat": 47.3866421, "lon": -122.1991752, "tags": {"addr:housenumber": "10609", "addr:street": "Southeast 240th Street", "amenity": "restaurant", "check_date": "2025-08-08", "cuisine": "japanese", "name": "Bucks Teriyaki Wok", "name:en": "Bucks Teriyaki Wok", "payment:cash": "yes", "payment:credit_cards": "yes", "payment:debit_cards": "yes", "phone": "+1-253-850-4040"}}, {"type": "node", "id": 4388492993, "lat": 47.3895056, "lon": -122.201511}, {"type": "node", "id": 4388493089, "lat": 47.3866183, "lon": -122.1992875, "tags": {"addr:city": "Kent", "addr:housenumber": "10609", "addr:postcode": "98031", "addr:state": "WA", "addr:street": "Southeast 240th Street", "amenity": "restaurant", "check_date": "2025-08-08", "cuisine": "seafood", "name": "Bag O' Crab", "opening_hours": "11:00-21:00", "payment:cash": "yes", "payment:credit_cards": "yes", "payment:debit_cards": "yes", "phone": "+1-253-277-2667", "website": "https://bagocrabkent.com"}}, {"type": "node", "id": 4388493389, "lat": 47.3866323, "lon": -122.2004532, "tags": {"addr:city": "Kent", "addr:housenumber": "10453", "addr:postcode": "98031", "addr:state": "WA", "addr:street": "Southeast 240th Street", "brand": "O'Reilly Auto Parts", "brand:wikidata": "Q7071951", "check_date": "2025-08-08", "name": "O'Reilly Auto Parts", "name:en": "O'Reilly Auto Parts", "opening_hours": "Mo-Sa 07:30-21:00; Su 08:00-20:00", "payment:cash": "yes", "payment:credit_cards": "yes", "payment:debit_cards": "yes", "shop": "car_parts", "website": "https://locations.oreillyauto.com/wa/kent/autoparts-3700.html"}}, {"type": "node", "id": 4388493689, "lat": 47.3864723, "lon": -122.2004559, "tags": {"addr:city": "Kent", "addr:housenumber": "10445", "addr:postcode": "98031", "addr:state": "WA", "addr:street": "Southeast 240th Street", "amenity": "dojo", "check_date": "2025-08-08", "name": "Lions Way Martial Arts", "opening_hours": "Mo-Th 16:00-21:00; Fr 16:00-19:00", "phone": "+1-253-856-2122"}}, {"type": "node", "id": 4388494589, "lat": 47.3874881, "lon": -122.1975734, "tags": {"addr:city": "Kent", "addr:housenumber": "23839", "addr:postcode": "98031", "addr:state": "WA", "addr:street": "108th Avenue Southeast", "check_date": "2025-08-08", "name": "Best Laundromat", "opening_hours": "Mo-Fr 09:00-22:00; Sa-Su 08:00-22:00", "self_service": "yes", "shop": "laundry"}}, {"type": "node", "id": 4388510389, "lat": 47.3866663, "lon": -122.2012571, "tags": {"addr:city": "Kent", "addr:housenumber": "10423", "addr:postcode": "98031", "addr:state": "WA", "addr:street": "Southeast 240th Street", "amenity": "restaurant", "check_date": "2025-08-08", "cuisine": "japanese", "name": "Soho Teriyaki", "name:en": "Soho Teriyaki", "opening_hours": "Mo-Fr 10:00-21:00; Su off", "outdoor_seating": "no"}}, {"type": "node", "id": 4388512989, "lat": 47.3875619, "lon": -122.1975788, "tags": {"addr:city": "Kent", "addr:housenumber": "23837", "addr:postcode": "98031", "addr:state": "WA", "addr:street": "108th Avenue Southeast", "check_date": "2025-08-08", "name": "Lucky Salon", "opening_hours": "09:00-19:00", "payment:cash": "yes", "payment:credit_cards": "yes", "payment:debit_cards": "yes", "phone": "+1-253-852-0141", "shop": "hairdresser"}}, {"type": "node", "id": 4419856985, "lat": 47.3882365, "lon": -122.2030876}, {"type": "node", "id": 4419856986, "lat": 47.388243, "lon": -122.2028546}, {"type": "node", "id": 4419856987, "lat": 47.3881614, "lon": -122.2028543}, {"type": "node", "id": 4419856988, "lat": 47.3881611, "lon": -122.2030677}, {"type": "node", "id": 4437246283, "lat": 47.4116797, "lon": -122.2228977, "tags": {"name": "Connections Health & Behavior Services", "office": "company"}}, {"type": "node", "id": 4458666391, "lat": 47.3875429, "lon": -122.2055087, "tags": {"amenity": "doctors", "check_date": "2025-08-08", "healthcare": "doctor", "name": "Kent Counseling", "name:en": "Kent Counseling"}}, {"type": "node", "id": 4458670389, "lat": 47.3875362, "lon": -122.2056765, "tags": {"amenity": "doctors", "check_date": "2025-08-08", "healthcare": "doctor", "name": "Northwest Spinal Rehabilitation", "name:en": "Northwest Spinal Rehabilitation", "phone": "+1-253-520-7531"}}, {"type": "node", "id": 4462886715, "lat": 47.3874786, "lon": -122.2056786, "tags": {"check_date": "2025-08-08", "name": "N.P. Central", "office": "company"}}, {"type": "node", "id": 4462886716, "lat": 47.3875885, "lon": -122.2055834, "tags": {"check_date": "2025-08-08", "name": "Staaleson Engineering", "office": "company"}}, {"type": "node", "id": 4471620558, "lat": 47.4117083, "lon": -122.2233899, "tags": {"addr:housenumber": "8633", "addr:state": "WA", "addr:street": "South 212th Street", "name": "Epic", "office": "company"}}, {"type": "node", "id": 4593692890, "lat": 47.3872747, "lon": -122.1976452, "tags": {"addr:city": "Kent", "addr:housenumber": "23847", "addr:postcode": "98031", "addr:state": "WA", "addr:street": "108th Avenue Southeast", "check_date": "2025-08-08", "name": "Food Mart", "opening_hours": "24/7", "payment:cash": "yes", "payment:credit_cards": "yes", "payment:debit_cards": "yes", "shop": "convenience"}}, {"type": "node", "id": 4593828426, "lat": 47.3874001, "lon": -122.1986264, "tags": {"addr:city": "Kent", "addr:floor": "2", "addr:housenumber": "10618", "addr:postcode": "98031", "addr:state": "WA", "addr:street": "Southeast 240th Street", "check_date": "2025-08-08", "name": "Better Properties - Kent", "office": "estate_agent", "phone": "+1-253-797-1365"}}, {"type": "node", "id": 4593828427, "lat": 47.3873411, "lon": -122.1986291, "tags": {"addr:city": "Kent", "addr:floor": "2", "addr:housenumber": "10618", "addr:postcode": "98031", "addr:state": "WA", "addr:street": "Southeast 240th Street", "check_date": "2025-08-08", "name": "PCs Done Right", "phone": "+1-256-397-7148", "shop": "computer"}}, {"type": "node", "id": 4658184149, "lat": 47.3887322, "lon": -122.191867}, {"type": "node", "id": 4658184150, "lat": 47.3871158, "lon": -122.1918559}, {"type": "node", "id": 4658184151, "lat": 47.3870323, "lon": -122.1917272}, {"type": "node", "id": 4658184152, "lat": 47.3870295, "lon": -122.1905858}, {"type": "node", "id": 4658184153, "lat": 47.387835, "lon": -122.1905799}, {"type": "node", "id": 4658184154, "lat": 47.3878336, "lon": -122.1906778}, {"type": "node", "id": 4658184155, "lat": 47.3887312, "lon": -122.190675}, {"type": "node", "id": 4658184156, "lat": 47.3870388, "lon": -122.1917818}, {"type": "node", "id": 4658184157, "lat": 47.3870707, "lon": -122.1918384}, {"type": "node", "id": 4727418534, "lat": 47.3855601, "lon": -122.184124}, {"type": "node", "id": 4727419308, "lat": 47.3883723, "lon": -122.1840509, "tags": {"amenity": "bench"}}, {"type": "node", "id": 4727419312, "lat": 47.3883873, "lon": -122.1839949, "tags": {"amenity": "bench"}}, {"type": "node", "id": 4731528842, "lat": 47.3916549, "lon": -122.1866553}, {"type": "node", "id": 4731528843, "lat": 47.391655, "lon": -122.1866239}, {"type": "node", "id": 4731528844, "lat": 47.3916556, "lon": -122.1857514}, {"type": "node", "id": 4731528855, "lat": 47.3922393, "lon": -122.1866561}, {"type": "node", "id": 4731528856, "lat": 47.3922399, "lon": -122.1857522}, {"type": "node", "id": 4731528982, "lat": 47.3986337, "lon": -122.186652}, {"type": "node", "id": 4731528992, "lat": 47.3995119, "lon": -122.1855142}, {"type": "node", "id": 4731528993, "lat": 47.3995135, "lon": -122.1866091}, {"type": "node", "id": 4731529141, "lat": 47.4076983, "lon": -122.1866665}, {"type": "node", "id": 4731529142, "lat": 47.4076988, "lon": -122.1858514}, {"type": "node", "id": 4731529147, "lat": 47.4085181, "lon": -122.1858527}, {"type": "node", "id": 4731529157, "lat": 47.4097676, "lon": -122.1848509}, {"type": "node", "id": 4731529160, "lat": 47.4108659, "lon": -122.1835218}, {"type": "node", "id": 4731529225, "lat": 47.4135565, "lon": -122.1776797, "tags": {"amenity": "bench"}}, {"type": "node", "id": 4731529292, "lat": 47.414384, "lon": -122.1779342, "tags": {"amenity": "bench"}}, {"type": "node", "id": 4731529299, "lat": 47.4144382, "lon": -122.1779362, "tags": {"amenity": "bench"}}, {"type": "node", "id": 4731529305, "lat": 47.4144604, "lon": -122.1778839, "tags": {"amenity": "bench"}}, {"type": "node", "id": 4733486407, "lat": 47.3851108, "lon": -122.2099804}, {"type": "node", "id": 4761026737, "lat": 47.4151508, "lon": -122.1874514, "tags": {"amenity": "school", "ele": "145", "gnis:feature_id": "2494256", "name": "Cascade Vista Baptist School"}}, {"type": "node", "id": 4782125621, "lat": 47.4152438, "lon": -122.1957382, "tags": {"addr:city": "Kent", "addr:housenumber": "20830", "addr:postcode": "98031", "addr:state": "WA", "addr:street": "108th Avenue Southeast", "amenity": "cafe", "branch": "Safeway Kent 459", "brand": "Starbucks", "brand:wikidata": "Q37158", "cuisine": "coffee_shop", "name": "Starbucks", "name:en": "Starbucks", "official_name": "Starbucks Coffee", "phone": "+1-253-854-2814", "ref": "9901", "takeaway": "yes", "website": "https://www.starbucks.com/store-locator/store/9901/safeway-kent-459-20830-108th-ave-se-kent-wa-980312168-us"}}, {"type": "node", "id": 4796051042, "lat": 47.4143602, "lon": -122.195686, "tags": {"name": "Buddy's Home Furnishings", "shop": "furniture"}}, {"type": "node", "id": 4796051051, "lat": 47.4140825, "lon": -122.1956921, "tags": {"amenity": "restaurant", "cuisine": "indian", "name": "Golden Curry"}}, {"type": "node", "id": 4796051061, "lat": 47.4139354, "lon": -122.1956975, "tags": {"amenity": "restaurant", "cuisine": "japanese", "name": "Teriyaki"}}, {"type": "node", "id": 4796051062, "lat": 47.4138138, "lon": -122.1956975, "tags": {"amenity": "restaurant", "cuisine": "thai", "name": "Thai"}}, {"type": "node", "id": 4816919622, "lat": 47.4149002, "lon": -122.187298}, {"type": "node", "id": 4848587423, "lat": 47.4145498, "lon": -122.196505, "tags": {"amenity": "restaurant", "cuisine": "thai", "internet_access": "wlan", "internet_access:fee": "no", "name": "Ting Tong Thai Cafe", "name:en": "Ting Tong Thai Cafe", "phone": "+1-253-854-0707", "smoking": "no", "website": "https://www.tingtongthaicafe.com/"}}, {"type": "node", "id": 4848599921, "lat": 47.4145602, "lon": -122.196576, "tags": {"addr:housenumber": "20920", "addr:postcode": "98031", "addr:state": "WA", "addr:street": "108th Avenue Southeast", "amenity": "veterinary", "name": "Afford-A-Vet Animal Clinic", "name:en": "Afford-A-Vet", "phone": "+1-253-859-8387", "website": "http://affordavetac.com"}}, {"type": "node", "id": 4868257235, "lat": 47.4164703, "lon": -122.1951373, "tags": {"addr:city": "Kent", "addr:housenumber": "10920", "addr:postcode": "98031", "addr:state": "WA", "addr:street": "Southeast 208th Street", "amenity": "dentist", "healthcare": "dentist", "name": "Philip Rosengren"}}, {"type": "node", "id": 4879724299, "lat": 47.398637, "lon": -122.1853763}, {"type": "node", "id": 4879724300, "lat": 47.3995106, "lon": -122.1853521}, {"type": "node", "id": 4879724301, "lat": 47.4084818, "lon": -122.1866798}, {"type": "node", "id": 4879724302, "lat": 47.4085145, "lon": -122.1866289}, {"type": "node", "id": 4907019103, "lat": 47.3843815, "lon": -122.201841, "tags": {"addr:city": "Kent", "addr:housenumber": "24228", "addr:postcode": "98030", "addr:state": "WA", "addr:street": "104th Avenue Southeast", "check_date": "2025-08-08", "name": "C&G Hair And Beauty Supply", "shop": "hairdresser_supply"}}, {"type": "node", "id": 4907019104, "lat": 47.3843842, "lon": -122.2019637, "tags": {"addr:city": "Kent", "addr:door": "101", "addr:housenumber": "24228", "addr:postcode": "98030", "addr:state": "WA", "addr:street": "104th Avenue Southeast", "brand": "H&R Block", "brand:wikidata": "Q5627799", "check_date": "2025-08-08", "name": "H&R Block", "office": "tax_advisor"}}, {"type": "node", "id": 4907019105, "lat": 47.3835237, "lon": -122.2029576}, {"type": "node", "id": 4918194044, "lat": 47.3867461, "lon": -122.2012575, "tags": {"addr:city": "Kent", "addr:housenumber": "10415", "addr:postcode": "98031", "addr:state": "WA", "addr:street": "Southeast 240th Street", "amenity": "restaurant", "check_date": "2025-08-08", "cuisine": "indian", "name": "Curry & Kabab", "opening_hours": "Mo-Th 11:00-21:30; Fr-Sa 11:00-22:00; Su 12:00-21:00", "outdoor_seating": "no", "payment:cash": "yes", "payment:credit_cards": "yes", "payment:debit_cards": "yes"}}, {"type": "node", "id": 4918194045, "lat": 47.3881973, "lon": -122.191363, "tags": {"amenity": "school", "check_date": "2025-03-18", "name": "Sunbeams Lutheran School", "operator:type": "religious"}}, {"type": "node", "id": 4918194046, "lat": 47.3870709, "lon": -122.1812991}, {"type": "node", "id": 4918194047, "lat": 47.3870718, "lon": -122.179295}, {"type": "node", "id": 4918194048, "lat": 47.3878177, "lon": -122.1792958}, {"type": "node", "id": 4918194049, "lat": 47.3878177, "lon": -122.1793674}, {"type": "node", "id": 4918194050, "lat": 47.3887264, "lon": -122.1793683}, {"type": "node", "id": 4918194051, "lat": 47.3887255, "lon": -122.1813008}, {"type": "node", "id": 4918194052, "lat": 47.3887638, "lon": -122.1734342}, {"type": "node", "id": 4918194053, "lat": 47.3870495, "lon": -122.173453}, {"type": "node", "id": 4918194054, "lat": 47.3870551, "lon": -122.1745589}, {"type": "node", "id": 4918194055, "lat": 47.3887693, "lon": -122.1745402}, {"type": "node", "id": 4927826456, "lat": 47.3941315, "lon": -122.178804}, {"type": "node", "id": 4931779401, "lat": 47.4194324, "lon": -122.17462}, {"type": "node", "id": 4931779570, "lat": 47.3882623, "lon": -122.2108327}, {"type": "node", "id": 4931779612, "lat": 47.3941013, "lon": -122.1935982}, {"type": "node", "id": 4931779613, "lat": 47.3940944, "lon": -122.1920586}, {"type": "node", "id": 4931779614, "lat": 47.3929871, "lon": -122.1920694}, {"type": "node", "id": 4931779617, "lat": 47.3929944, "lon": -122.1936816}, {"type": "node", "id": 4931779618, "lat": 47.3936559, "lon": -122.1936751}, {"type": "node", "id": 4931779619, "lat": 47.3936556, "lon": -122.1936026}, {"type": "node", "id": 4931779689, "lat": 47.3870744, "lon": -122.190587}, {"type": "node", "id": 4945901648, "lat": 47.4111693, "lon": -122.2237587, "tags": {"name": "Neway Packaging Corporation", "office": "company"}}, {"type": "node", "id": 4954139875, "lat": 47.3853342, "lon": -122.1857332}, {"type": "node", "id": 4954139876, "lat": 47.3867655, "lon": -122.1857448}, {"type": "node", "id": 4954139877, "lat": 47.3853402, "lon": -122.184122}, {"type": "node", "id": 4988195440, "lat": 47.4095541, "lon": -122.202212}, {"type": "node", "id": 4988195441, "lat": 47.408705, "lon": -122.2022076}, {"type": "node", "id": 4988195442, "lat": 47.408708, "lon": -122.2009658}, {"type": "node", "id": 4988195443, "lat": 47.4095571, "lon": -122.2009702}, {"type": "node", "id": 5177367022, "lat": 47.4140045, "lon": -122.1957052, "tags": {"amenity": "events_venue", "name": "Party Hall"}}, {"type": "node", "id": 5177367023, "lat": 47.4138961, "lon": -122.1956956, "tags": {"name": "Smoke", "shop": "tobacco"}}, {"type": "node", "id": 5177367024, "lat": 47.4138589, "lon": -122.1956931, "tags": {"brand": "Allstate", "brand:wikidata": "Q2645636", "name": "Allstate", "office": "insurance"}}, {"type": "node", "id": 5177367025, "lat": 47.4151366, "lon": -122.195327, "tags": {"addr:city": "Kent", "addr:housenumber": "20830", "addr:postcode": "98031", "addr:state": "WA", "addr:street": "108th Avenue Southeast", "amenity": "pharmacy", "brand": "Safeway", "brand:wikidata": "Q1508234", "dispensing": "yes", "drive_through": "no", "healthcare": "pharmacy", "name": "Safeway", "website": "https://local.pharmacy.safeway.com/safeway/wa/kent/20830-108th-ave-se.html"}}, {"type": "node", "id": 5177367026, "lat": 47.4137241, "lon": -122.1959773, "tags": {"beauty": "nails", "name": "Elegant Nails", "shop": "beauty"}}, {"type": "node", "id": 5177374221, "lat": 47.4137284, "lon": -122.1962367, "tags": {"amenity": "restaurant", "name": "Chopsticks"}}, {"type": "node", "id": 5177374222, "lat": 47.4137219, "lon": -122.1958476, "tags": {"amenity": "restaurant", "name": "Boiling Crawfish Seafood Restaurant"}}, {"type": "node", "id": 5177374421, "lat": 47.4137263, "lon": -122.196107, "tags": {"name": "Tran Hair Salon", "shop": "hairdresser"}}, {"type": "node", "id": 5177374621, "lat": 47.4139693, "lon": -122.195704, "tags": {"alt_name": "MetroPCS", "brand": "Metro by T-Mobile", "brand:wikidata": "Q1925685", "name": "Metro by T-Mobile", "shop": "mobile_phone"}}, {"type": "node", "id": 5205872305, "lat": 47.3874959, "lon": -122.2033192}, {"type": "node", "id": 5205872306, "lat": 47.3875282, "lon": -122.2032413}, {"type": "node", "id": 5239097731, "lat": 47.3873835, "lon": -122.2026926}, {"type": "node", "id": 5239097732, "lat": 47.3873841, "lon": -122.2025335}, {"type": "node", "id": 5324218431, "lat": 47.4068769, "lon": -122.1972672}, {"type": "node", "id": 5324218432, "lat": 47.4076659, "lon": -122.1972343}, {"type": "node", "id": 5324218433, "lat": 47.4078112, "lon": -122.197296}, {"type": "node", "id": 5324218434, "lat": 47.4080961, "lon": -122.197288}, {"type": "node", "id": 5324218435, "lat": 47.4081234, "lon": -122.1973202}, {"type": "node", "id": 5324218436, "lat": 47.4081488, "lon": -122.1973899}, {"type": "node", "id": 5324218437, "lat": 47.4081706, "lon": -122.1977279}, {"type": "node", "id": 5324218438, "lat": 47.4082141, "lon": -122.197921}, {"type": "node", "id": 5324218439, "lat": 47.4082595, "lon": -122.198031}, {"type": "node", "id": 5324218440, "lat": 47.4084937, "lon": -122.198334}, {"type": "node", "id": 5324218441, "lat": 47.4085554, "lon": -122.1984521}, {"type": "node", "id": 5324218442, "lat": 47.4085754, "lon": -122.1986184}, {"type": "node", "id": 5324218443, "lat": 47.4085827, "lon": -122.1990665}, {"type": "node", "id": 5324218444, "lat": 47.4077437, "lon": -122.1990741}, {"type": "node", "id": 5324218445, "lat": 47.4077461, "lon": -122.1996711}, {"type": "node", "id": 5324218456, "lat": 47.4087442, "lon": -122.2022078}, {"type": "node", "id": 5324218457, "lat": 47.4087515, "lon": -122.2035086}, {"type": "node", "id": 5324218751, "lat": 47.4157124, "lon": -122.1972933}, {"type": "node", "id": 5324218752, "lat": 47.4157178, "lon": -122.198035}, {"type": "node", "id": 5324218753, "lat": 47.4157505, "lon": -122.198208}, {"type": "node", "id": 5324218754, "lat": 47.4157622, "lon": -122.2004986}, {"type": "node", "id": 5324218755, "lat": 47.4144146, "lon": -122.2004879}, {"type": "node", "id": 5324218756, "lat": 47.4144056, "lon": -122.1987451}, {"type": "node", "id": 5324218757, "lat": 47.4147075, "lon": -122.1987397}, {"type": "node", "id": 5324218758, "lat": 47.4146953, "lon": -122.1972247}, {"type": "node", "id": 5324218759, "lat": 47.4156688, "lon": -122.1972424}, {"type": "node", "id": 5469428694, "lat": 47.3855908, "lon": -122.202619}, {"type": "node", "id": 5469428695, "lat": 47.3855114, "lon": -122.202618}, {"type": "node", "id": 5502247922, "lat": 47.3835753, "lon": -122.2024717, "tags": {"brand": "State Farm", "brand:wikidata": "Q2007336", "check_date": "2025-08-08", "name": "State Farm", "office": "insurance"}}, {"type": "node", "id": 5502251221, "lat": 47.3835003, "lon": -122.202465, "tags": {"amenity": "doctors", "check_date": "2025-08-08", "healthcare": "doctor", "name": "Romney Chiropractic"}}, {"type": "node", "id": 5551580825, "lat": 47.4164703, "lon": -122.1950041, "tags": {"addr:city": "Kent", "addr:housenumber": "10920", "addr:postcode": "98031", "addr:state": "WA", "addr:street": "Southeast 208th Street", "amenity": "dentist", "healthcare": "dentist", "name": "Nadia Afifi"}}, {"type": "node", "id": 5604965124, "lat": 47.3863995, "lon": -122.1860333}, {"type": "node", "id": 5604980822, "lat": 47.3863493, "lon": -122.1864211}, {"type": "node", "id": 5610483622, "lat": 47.4145612, "lon": -122.1978735}, {"type": "node", "id": 5610494922, "lat": 47.4152812, "lon": -122.195846, "tags": {"addr:city": "Kent", "addr:housenumber": "20830", "addr:postcode": "98031", "addr:state": "WA", "addr:street": "108th Avenue Southeast", "amenity": "atm", "brand": "U.S. Bank", "brand:wikidata": "Q739084", "cash_in": "no", "currency:USD": "yes", "drive_through": "no", "name": "U.S. Bank", "operator": "U.S. Bank", "operator:wikidata": "Q739084", "operator:wikipedia": "en:U.S. Bancorp"}}, {"type": "node", "id": 5610494923, "lat": 47.4151611, "lon": -122.196701, "tags": {"amenity": "post_box", "operator": "United States Postal Service", "operator:short": "USPS", "operator:type": "public", "operator:website": "https://www.usps.com", "operator:wikidata": "Q668687", "operator:wikipedia": "en:United States Postal Service", "short_name": "USPS"}}, {"type": "node", "id": 5856154469, "lat": 47.3877642, "lon": -122.1865716}, {"type": "node", "id": 5856154470, "lat": 47.3877702, "lon": -122.1857541}, {"type": "node", "id": 5856154471, "lat": 47.3876133, "lon": -122.1857594}, {"type": "node", "id": 5856154472, "lat": 47.3875869, "lon": -122.1865734}, {"type": "node", "id": 5856154473, "lat": 47.3873102, "lon": -122.1854294}, {"type": "node", "id": 5856154474, "lat": 47.3874331, "lon": -122.185429}, {"type": "node", "id": 5856154475, "lat": 47.3874332, "lon": -122.185489}, {"type": "node", "id": 5856154476, "lat": 47.387643, "lon": -122.1854883}, {"type": "node", "id": 5856154477, "lat": 47.3876428, "lon": -122.1853565}, {"type": "node", "id": 5856154478, "lat": 47.3873101, "lon": -122.1853575}, {"type": "node", "id": 5970735588, "lat": 47.4165045, "lon": -122.1981512, "tags": {"addr:city": "Kent", "addr:housenumber": "10700", "addr:postcode": "98031", "addr:state": "WA", "addr:street": "Southeast 208th Street", "name": "Chok Hlei Asian Grocery", "shop": "supermarket"}}, {"type": "node", "id": 5994901663, "lat": 47.3871455, "lon": -122.18646}, {"type": "node", "id": 5994901664, "lat": 47.3871184, "lon": -122.1864453}, {"type": "node", "id": 5994901665, "lat": 47.3870911, "lon": -122.1864375}, {"type": "node", "id": 5994901666, "lat": 47.387167, "lon": -122.1864825}, {"type": "node", "id": 6014380542, "lat": 47.3876472, "lon": -122.1967384}, {"type": "node", "id": 6014380544, "lat": 47.3876166, "lon": -122.1967385}, {"type": "node", "id": 6014380553, "lat": 47.3876163, "lon": -122.1968546}, {"type": "node", "id": 6014380554, "lat": 47.3876164, "lon": -122.1968108}, {"type": "node", "id": 6014380555, "lat": 47.3876473, "lon": -122.1968107}, {"type": "node", "id": 6014380556, "lat": 47.3874899, "lon": -122.196877}, {"type": "node", "id": 6014380558, "lat": 47.3875242, "lon": -122.1968769}, {"type": "node", "id": 6014380560, "lat": 47.3875242, "lon": -122.1968819}, {"type": "node", "id": 6014380562, "lat": 47.3875747, "lon": -122.1968777}, {"type": "node", "id": 6014380563, "lat": 47.3875482, "lon": -122.1966564}, {"type": "node", "id": 6014380565, "lat": 47.3874735, "lon": -122.1966565}, {"type": "node", "id": 6014380570, "lat": 47.3874736, "lon": -122.1968551}, {"type": "node", "id": 6014380573, "lat": 47.3874899, "lon": -122.1968551}, {"type": "node", "id": 6014380577, "lat": 47.3876165, "lon": -122.1966378}, {"type": "node", "id": 6014380579, "lat": 47.3875482, "lon": -122.1966379}, {"type": "node", "id": 6014381780, "lat": 47.3874992, "lon": -122.19253}, {"type": "node", "id": 6014381782, "lat": 47.3876309, "lon": -122.1925313}, {"type": "node", "id": 6014381786, "lat": 47.3873055, "lon": -122.1925348}, {"type": "node", "id": 6014381788, "lat": 47.3873626, "lon": -122.1925353}, {"type": "node", "id": 6014381791, "lat": 47.387363, "lon": -122.1924489}, {"type": "node", "id": 6014381793, "lat": 47.3874995, "lon": -122.1924501}, {"type": "node", "id": 6014381795, "lat": 47.3872817, "lon": -122.1924228}, {"type": "node", "id": 6014381796, "lat": 47.3873126, "lon": -122.1924231}, {"type": "node", "id": 6014381798, "lat": 47.3873125, "lon": -122.1924468}, {"type": "node", "id": 6014381801, "lat": 47.3873059, "lon": -122.1924467}, {"type": "node", "id": 6014381803, "lat": 47.3872824, "lon": -122.1922509}, {"type": "node", "id": 6014518181, "lat": 47.3871807, "lon": -122.2044117}, {"type": "node", "id": 6014518182, "lat": 47.3872503, "lon": -122.2044113}, {"type": "node", "id": 6014518183, "lat": 47.3872504, "lon": -122.2044504}, {"type": "node", "id": 6014518184, "lat": 47.3871806, "lon": -122.2043612}, {"type": "node", "id": 6014518285, "lat": 47.387229, "lon": -122.204361}, {"type": "node", "id": 6014518286, "lat": 47.3871808, "lon": -122.2044508}, {"type": "node", "id": 6014518287, "lat": 47.3874973, "lon": -122.204487}, {"type": "node", "id": 6014518288, "lat": 47.3874539, "lon": -122.2045012}, {"type": "node", "id": 6014518289, "lat": 47.3874541, "lon": -122.2045774}, {"type": "node", "id": 6014518290, "lat": 47.3876581, "lon": -122.2044754}, {"type": "node", "id": 6014518291, "lat": 47.3874973, "lon": -122.2044763}, {"type": "node", "id": 6014518292, "lat": 47.3876584, "lon": -122.2045983}, {"type": "node", "id": 6014518293, "lat": 47.3875602, "lon": -122.2046018}, {"type": "node", "id": 6014518294, "lat": 47.3874344, "lon": -122.2045013}, {"type": "node", "id": 6014518295, "lat": 47.3874346, "lon": -122.2045776}, {"type": "node", "id": 6014518296, "lat": 47.3874538, "lon": -122.2044873}, {"type": "node", "id": 6014518297, "lat": 47.3875003, "lon": -122.2046021}, {"type": "node", "id": 6014518298, "lat": 47.3874541, "lon": -122.2046024}, {"type": "node", "id": 6014518299, "lat": 47.3877383, "lon": -122.2037854}, {"type": "node", "id": 6014518305, "lat": 47.3875514, "lon": -122.2035963}, {"type": "node", "id": 6014518308, "lat": 47.3877637, "lon": -122.2038281}, {"type": "node", "id": 6014518310, "lat": 47.3877633, "lon": -122.2037856}, {"type": "node", "id": 6014518317, "lat": 47.3877389, "lon": -122.2035978}, {"type": "node", "id": 6014518367, "lat": 47.389215, "lon": -122.2030679, "tags": {"addr:city": "Kent", "addr:housenumber": "23801", "addr:postcode": "98031", "addr:state": "WA", "addr:street": "104th Avenue Southeast", "amenity": "restaurant", "check_date": "2025-08-08", "cuisine": "seafood", "name": "Fortune Seafood Restaurant", "opening_hours": "11:30-22:00"}}, {"type": "node", "id": 6014518702, "lat": 47.3895014, "lon": -122.203053, "tags": {"addr:city": "Kent", "addr:housenumber": "23641", "addr:postcode": "98031", "addr:state": "WA", "addr:street": "104th Avenue Southeast", "amenity": "restaurant", "check_date": "2025-08-08", "name": "Mary's Fine Foods", "opening_hours": "Mo-Sa 07:00-15:00; Su 07:00-13:00", "payment:cash": "yes", "payment:credit_cards": "yes", "payment:debit_cards": "yes"}}, {"type": "node", "id": 6014518722, "lat": 47.3872562, "lon": -122.2029751}, {"type": "node", "id": 6014518723, "lat": 47.3872561, "lon": -122.202947}, {"type": "node", "id": 6014518724, "lat": 47.3872212, "lon": -122.2029471}, {"type": "node", "id": 6014518727, "lat": 47.3872214, "lon": -122.2030452}, {"type": "node", "id": 6014518730, "lat": 47.3873333, "lon": -122.2029749}, {"type": "node", "id": 6014518909, "lat": 47.390039, "lon": -122.2030706, "tags": {"addr:city": "Kent", "addr:housenumber": "23617", "addr:postcode": "98031", "addr:state": "WA", "addr:street": "104th Avenue Southeast", "check_date": "2025-08-08", "name": "Kent Selection Indian Boutique", "payment:cash": "yes", "payment:credit_cards": "yes", "payment:debit_cards": "yes", "phone": "+1-206-446-5425", "shop": "clothes"}}, {"type": "node", "id": 6014519162, "lat": 47.3897445, "lon": -122.203066, "tags": {"addr:city": "Kent", "addr:housenumber": "23629", "addr:postcode": "98031", "addr:state": "WA", "addr:street": "104th Avenue Southeast", "amenity": "restaurant", "check_date": "2025-08-08", "name": "Cushitic Cuisine", "payment:cash": "yes", "payment:credit_cards": "yes", "payment:debit_cards": "yes"}}, {"type": "node", "id": 6014520504, "lat": 47.3872773, "lon": -122.2027245}, {"type": "node", "id": 6014520506, "lat": 47.387339, "lon": -122.2027243}, {"type": "node", "id": 6014520508, "lat": 47.3873389, "lon": -122.2026927}, {"type": "node", "id": 6014520513, "lat": 47.3872772, "lon": -122.2026929}, {"type": "node", "id": 6014520732, "lat": 47.3899683, "lon": -122.2030695, "tags": {"addr:city": "Kent", "addr:housenumber": "23619", "addr:postcode": "98031", "addr:state": "WA", "addr:street": "104th Avenue Southeast", "amenity": "restaurant", "check_date": "2025-08-08", "cuisine": "indian", "name": "Mehfil Indian Cuisine", "payment:cash": "yes", "payment:credit_cards": "yes", "payment:debit_cards": "yes"}}, {"type": "node", "id": 6014520737, "lat": 47.3890168, "lon": -122.203124, "tags": {"addr:city": "Kent", "addr:housenumber": "23803", "addr:postcode": "98031", "addr:state": "WA", "addr:street": "104th Avenue Southeast", "amenity": "restaurant", "check_date": "2025-08-08", "cuisine": "middle_eastern", "name": "Shsnasheel", "opening_hours": "Mo-Th,Su 14:00-23:00; Fr-Sa 14:00-24:00"}}, {"type": "node", "id": 6014520787, "lat": 47.389555, "lon": -122.2030617, "tags": {"addr:city": "Kent", "addr:housenumber": "23639", "addr:postcode": "98031", "addr:state": "WA", "addr:street": "104th Avenue Southeast", "check_date": "2025-08-08", "name": "Zip Global", "shop": "convenience"}}, {"type": "node", "id": 6014520984, "lat": 47.3894277, "lon": -122.2030994, "tags": {"addr:city": "Kent", "addr:housenumber": "23643", "addr:postcode": "98031", "addr:state": "WA", "addr:street": "104th Avenue Southeast", "check_date": "2025-08-08", "name": "Pacific Market & Halal Meat", "payment:cash": "yes", "payment:credit_cards": "yes", "payment:debit_cards": "yes", "shop": "supermarket"}}, {"type": "node", "id": 6014521019, "lat": 47.3896554, "lon": -122.203061, "tags": {"addr:city": "Kent", "addr:housenumber": "23635", "addr:postcode": "98031", "addr:state": "WA", "addr:street": "104th Avenue Southeast", "check_date": "2025-08-08", "name": "Mahindra Gold & Diamonds", "phone": "+1-425-515-2149", "shop": "jewelry"}}, {"type": "node", "id": 6014521041, "lat": 47.3896985, "lon": -122.2030618, "tags": {"addr:city": "Kent", "addr:housenumber": "23633", "addr:postcode": "98031", "addr:state": "WA", "addr:street": "104th Avenue Southeast", "beauty": "nails", "check_date": "2025-08-08", "name": "Nail Spa", "opening_hours": "Mo-Fr 09:00-19:00; Sa-Su 09:00-17:00", "payment:cash": "yes", "payment:credit_cards": "yes", "payment:debit_cards": "yes", "shop": "beauty"}}, {"type": "node", "id": 6014521156, "lat": 47.3890328, "lon": -122.2025028}, {"type": "node", "id": 6014521160, "lat": 47.3890333, "lon": -122.2024816}, {"type": "node", "id": 6014521171, "lat": 47.3890458, "lon": -122.2024446}, {"type": "node", "id": 6014521181, "lat": 47.389001, "lon": -122.2024421}, {"type": "node", "id": 6014521190, "lat": 47.3889995, "lon": -122.202501}, {"type": "node", "id": 6014521240, "lat": 47.3882366, "lon": -122.2030677}, {"type": "node", "id": 6014521242, "lat": 47.3882428, "lon": -122.2030677}, {"type": "node", "id": 6014521247, "lat": 47.3881963, "lon": -122.2030678}, {"type": "node", "id": 6014521249, "lat": 47.3881963, "lon": -122.2030875}, {"type": "node", "id": 6014521319, "lat": 47.3872933, "lon": -122.2063507}, {"type": "node", "id": 6014521323, "lat": 47.3873067, "lon": -122.2065347}, {"type": "node", "id": 6014521327, "lat": 47.387479, "lon": -122.2061138}, {"type": "node", "id": 6014521329, "lat": 47.387288, "lon": -122.2061323}, {"type": "node", "id": 6014521331, "lat": 47.3872945, "lon": -122.2062799}, {"type": "node", "id": 6014521336, "lat": 47.3872902, "lon": -122.2062803}, {"type": "node", "id": 6014521340, "lat": 47.3874969, "lon": -122.2065163}, {"type": "node", "id": 6014521341, "lat": 47.3902629, "lon": -122.2030712, "tags": {"addr:city": "Kent", "addr:housenumber": "23611", "addr:postcode": "98031", "addr:state": "WA", "addr:street": "104th Avenue Southeast", "check_date": "2025-08-08", "name": "Ravi Video & Info Fiji Groceries", "payment:cash": "yes", "payment:credit_cards": "yes", "payment:debit_cards": "yes", "phone": "+1-253-850-6885", "shop": "convenience"}}, {"type": "node", "id": 6014521423, "lat": 47.3898486, "lon": -122.2030647, "tags": {"addr:city": "Kent", "addr:housenumber": "23623", "addr:postcode": "98031", "addr:state": "WA", "addr:street": "104th Avenue Southeast", "amenity": "restaurant", "check_date": "2025-08-08", "cuisine": "pizza", "name": "Pizza Twist", "opening_hours": "Mo-Th 10:00-24:00; Fr-Su 10:00-01:00", "payment:cash": "yes", "payment:credit_cards": "yes", "payment:debit_cards": "yes", "phone": "+1-253-520-2990"}}, {"type": "node", "id": 6014521435, "lat": 47.3896031, "lon": -122.2030562, "tags": {"addr:city": "Kent", "addr:housenumber": "23637", "addr:postcode": "98031", "addr:state": "WA", "addr:street": "104th Avenue Southeast", "check_date": "2025-08-08", "name": "Indian Selection", "phone": "+1-253-520-4847", "shop": "clothes"}}, {"type": "node", "id": 6014683648, "lat": 47.3863664, "lon": -122.1961279}, {"type": "node", "id": 6014683649, "lat": 47.3862687, "lon": -122.1961243}, {"type": "node", "id": 6014683650, "lat": 47.3862687, "lon": -122.196117}, {"type": "node", "id": 6014683651, "lat": 47.3862043, "lon": -122.1961167}, {"type": "node", "id": 6014683653, "lat": 47.3862011, "lon": -122.1959723}, {"type": "node", "id": 6014683655, "lat": 47.3862188, "lon": -122.1959724}, {"type": "node", "id": 6014683657, "lat": 47.3862188, "lon": -122.1959311}, {"type": "node", "id": 6014683661, "lat": 47.386265, "lon": -122.1959313}, {"type": "node", "id": 6014683664, "lat": 47.3862043, "lon": -122.1961526}, {"type": "node", "id": 6014683666, "lat": 47.3861158, "lon": -122.1961523}, {"type": "node", "id": 6014683667, "lat": 47.3861159, "lon": -122.1961156}, {"type": "node", "id": 6014683669, "lat": 47.3862008, "lon": -122.1961159}, {"type": "node", "id": 6014683679, "lat": 47.386265, "lon": -122.1959741}, {"type": "node", "id": 6014683682, "lat": 47.3862733, "lon": -122.1959742}, {"type": "node", "id": 6014683686, "lat": 47.3862734, "lon": -122.1959239}, {"type": "node", "id": 6014683687, "lat": 47.3863667, "lon": -122.1959243}, {"type": "node", "id": 6014712713, "lat": 47.387872, "lon": -122.1993573}, {"type": "node", "id": 6014712714, "lat": 47.3878766, "lon": -122.1992958}, {"type": "node", "id": 6014713372, "lat": 47.3872199, "lon": -122.1982429}, {"type": "node", "id": 6014713374, "lat": 47.3872198, "lon": -122.1983589}, {"type": "node", "id": 6014713377, "lat": 47.3872287, "lon": -122.198359}, {"type": "node", "id": 6014713380, "lat": 47.3872672, "lon": -122.197989}, {"type": "node", "id": 6014713381, "lat": 47.3872672, "lon": -122.1980106}, {"type": "node", "id": 6014713382, "lat": 47.3872589, "lon": -122.1980106}, {"type": "node", "id": 6014713384, "lat": 47.3872587, "lon": -122.198243}, {"type": "node", "id": 6014713389, "lat": 47.3874149, "lon": -122.1980099}, {"type": "node", "id": 6014713391, "lat": 47.3874051, "lon": -122.1980098}, {"type": "node", "id": 6014713392, "lat": 47.3874051, "lon": -122.1979894}, {"type": "node", "id": 6014713396, "lat": 47.3874592, "lon": -122.1983727}, {"type": "node", "id": 6014713399, "lat": 47.3874592, "lon": -122.1983344}, {"type": "node", "id": 6014713402, "lat": 47.3874868, "lon": -122.1983344}, {"type": "node", "id": 6014713405, "lat": 47.3874868, "lon": -122.1982541}, {"type": "node", "id": 6014713411, "lat": 47.3872287, "lon": -122.1983721}, {"type": "node", "id": 6014713748, "lat": 47.3873733, "lon": -122.1976229, "tags": {"addr:city": "Kent", "addr:housenumber": "23845", "addr:postcode": "98031", "addr:state": "WA", "addr:street": "108th Avenue Southeast", "amenity": "restaurant", "check_date": "2025-08-08", "cuisine": "asian", "name": "Fil Cuisine", "opening_hours": "Mo-Fr 10:00-19:00; Sa 09:00-19:00; Su 09:00-18:00", "phone": "+1-253-239-4429", "website": "https://filcuisine.com/filkent"}}, {"type": "node", "id": 6014715952, "lat": 47.3885992, "lon": -122.2017322}, {"type": "node", "id": 6014715953, "lat": 47.388623, "lon": -122.201732}, {"type": "node", "id": 6014715954, "lat": 47.3886231, "lon": -122.2017379}, {"type": "node", "id": 6014715956, "lat": 47.3886754, "lon": -122.2014507}, {"type": "node", "id": 6014715957, "lat": 47.3885496, "lon": -122.2014517}, {"type": "node", "id": 6014715958, "lat": 47.3885505, "lon": -122.2017039}, {"type": "node", "id": 6014715959, "lat": 47.3885991, "lon": -122.2017035}, {"type": "node", "id": 6014715960, "lat": 47.3886765, "lon": -122.2017375}, {"type": "node", "id": 6014716418, "lat": 47.3882552, "lon": -122.2019371, "tags": {"addr:city": "Kent", "addr:housenumber": "23812", "addr:postcode": "98031", "addr:state": "WA", "addr:street": "104th Avenue Southeast", "check_date": "2025-08-08", "name": "VIP Accounts & Taxes", "office": "tax_advisor", "payment:cash": "yes", "payment:credit_cards": "yes", "payment:debit_cards": "yes"}}, {"type": "node", "id": 6014716432, "lat": 47.3872633, "lon": -122.200423, "tags": {"addr:city": "Kent", "addr:housenumber": "23918", "addr:postcode": "98031", "addr:state": "WA", "addr:street": "104th Avenue Southeast", "brand": "AutoZone", "brand:wikidata": "Q4826087", "check_date": "2025-08-08", "name": "AutoZone", "opening_hours": "Mo-Sa 07:30-22:00; Su 08:00-21:00", "payment:cash": "yes", "payment:credit_cards": "yes", "payment:debit_cards": "yes", "shop": "car_parts", "website": "https://www.autozone.com/locations/wa/kent/23918-104-ave-se.html"}}, {"type": "node", "id": 6014716451, "lat": 47.3882555, "lon": -122.2018368, "tags": {"addr:city": "Kent", "addr:housenumber": "23814", "addr:postcode": "98031", "addr:state": "WA", "addr:street": "104th Avenue Southeast", "check_date": "2025-08-08", "name": "HD Hair Salon", "opening_hours": "Tu-Su 09:00-17:00", "phone": "+1-253-852-9777", "shop": "hairdresser"}}, {"type": "node", "id": 6014716480, "lat": 47.3899827, "lon": -122.2017366}, {"type": "node", "id": 6014716481, "lat": 47.3899827, "lon": -122.201711}, {"type": "node", "id": 6014716482, "lat": 47.3899388, "lon": -122.2017109}, {"type": "node", "id": 6014716483, "lat": 47.3899388, "lon": -122.2017372}, {"type": "node", "id": 6014716484, "lat": 47.389907, "lon": -122.2019972}, {"type": "node", "id": 6014716485, "lat": 47.3900629, "lon": -122.2019383}, {"type": "node", "id": 6014716486, "lat": 47.3900631, "lon": -122.2017368}, {"type": "node", "id": 6014716488, "lat": 47.3897461, "lon": -122.2017368}, {"type": "node", "id": 6014716490, "lat": 47.3897459, "lon": -122.2019379}, {"type": "node", "id": 6014716491, "lat": 47.3898467, "lon": -122.2019381}, {"type": "node", "id": 6014716493, "lat": 47.3898466, "lon": -122.2019971}, {"type": "node", "id": 6014717214, "lat": 47.3897106, "lon": -122.201141}, {"type": "node", "id": 6014717215, "lat": 47.3897106, "lon": -122.2010534}, {"type": "node", "id": 6014717216, "lat": 47.3896737, "lon": -122.2010533}, {"type": "node", "id": 6014717217, "lat": 47.3896738, "lon": -122.2010036}, {"type": "node", "id": 6014717218, "lat": 47.3895056, "lon": -122.2015418}, {"type": "node", "id": 6014717219, "lat": 47.3896733, "lon": -122.2015114}, {"type": "node", "id": 6014717220, "lat": 47.3896737, "lon": -122.2011409}, {"type": "node", "id": 6014717224, "lat": 47.3891835, "lon": -122.2010026}, {"type": "node", "id": 6014717225, "lat": 47.389183, "lon": -122.2015411}, {"type": "node", "id": 6019612158, "lat": 47.414106, "lon": -122.195667, "tags": {"addr:city": "Kent", "addr:housenumber": "21000", "addr:postcode": "98031", "addr:state": "WA", "addr:street": "108th Avenue Southeast", "amenity": "restaurant", "name": "Maza", "name:en": "Maza Grill", "phone": "+1-253-277-2566"}}, {"type": "node", "id": 6019615725, "lat": 47.4144537, "lon": -122.1956575, "tags": {"addr:city": "Kent", "addr:housenumber": "20932", "addr:postcode": "98031", "addr:state": "WA", "addr:street": "108th Avenue Southeast", "amenity": "fast_food", "brand": "Subway", "brand:wikidata": "Q244457", "cuisine": "sandwich", "name": "Subway", "name:en": "Subway", "opening_hours": "Mo-Sa 09:00-22:00; Su 09:00-21:00", "phone": "+1-253-852-0614", "takeaway": "yes", "website": "https://restaurants.subway.com/united-states/wa/kent/20932-108th-avenue-south"}}, {"type": "node", "id": 6020138214, "lat": 47.416171, "lon": -122.1975201}, {"type": "node", "id": 6020145938, "lat": 47.4161242, "lon": -122.1973784}, {"type": "node", "id": 6020145943, "lat": 47.416231, "lon": -122.1972771}, {"type": "node", "id": 6020145945, "lat": 47.4161269, "lon": -122.1972727}, {"type": "node", "id": 6020146540, "lat": 47.4163622, "lon": -122.1975892}, {"type": "node", "id": 6020146547, "lat": 47.4163593, "lon": -122.1977108}, {"type": "node", "id": 6020146556, "lat": 47.4161713, "lon": -122.1977115}, {"type": "node", "id": 6020146563, "lat": 47.416362, "lon": -122.1975194}, {"type": "node", "id": 6020783501, "lat": 47.4141404, "lon": -122.1972571}, {"type": "node", "id": 6020783502, "lat": 47.4141397, "lon": -122.1973737}, {"type": "node", "id": 6020783503, "lat": 47.4142336, "lon": -122.1973748}, {"type": "node", "id": 6020783504, "lat": 47.4142343, "lon": -122.1972582}, {"type": "node", "id": 6020785108, "lat": 47.4144638, "lon": -122.1978741}, {"type": "node", "id": 6020785109, "lat": 47.4144649, "lon": -122.1983343}, {"type": "node", "id": 6020785110, "lat": 47.4146746, "lon": -122.198332}, {"type": "node", "id": 6020785111, "lat": 47.4146732, "lon": -122.1978721}, {"type": "node", "id": 6020785112, "lat": 47.4146054, "lon": -122.1978726}, {"type": "node", "id": 6020785113, "lat": 47.4145835, "lon": -122.1978399}, {"type": "node", "id": 6023938010, "lat": 47.3824938, "lon": -122.2029408}, {"type": "node", "id": 6023938014, "lat": 47.3825531, "lon": -122.2029399}, {"type": "node", "id": 6023938015, "lat": 47.3824937, "lon": -122.2029116}, {"type": "node", "id": 6023938016, "lat": 47.3825245, "lon": -122.2029114}, {"type": "node", "id": 6023938017, "lat": 47.3824204, "lon": -122.2029412}, {"type": "node", "id": 6023938018, "lat": 47.3825539, "lon": -122.2032375}, {"type": "node", "id": 6023938019, "lat": 47.3824211, "lon": -122.2032382}, {"type": "node", "id": 6023938360, "lat": 47.3854133, "lon": -122.2017682}, {"type": "node", "id": 6023938633, "lat": 47.3841468, "lon": -122.2017613}, {"type": "node", "id": 6023938634, "lat": 47.3841467, "lon": -122.2019692}, {"type": "node", "id": 6023938636, "lat": 47.3839961, "lon": -122.2017611}, {"type": "node", "id": 6023940652, "lat": 47.3808726, "lon": -122.2029444}, {"type": "node", "id": 6023940653, "lat": 47.3808455, "lon": -122.202944}, {"type": "node", "id": 6023940654, "lat": 47.3809174, "lon": -122.2029568}, {"type": "node", "id": 6023940655, "lat": 47.3808725, "lon": -122.2029563}, {"type": "node", "id": 6023940656, "lat": 47.3809162, "lon": -122.2027931}, {"type": "node", "id": 6023940657, "lat": 47.3809908, "lon": -122.2027941}, {"type": "node", "id": 6023940658, "lat": 47.3808465, "lon": -122.2027655}, {"type": "node", "id": 6023940659, "lat": 47.3809164, "lon": -122.2027663}, {"type": "node", "id": 6023940660, "lat": 47.38099, "lon": -122.2029207}, {"type": "node", "id": 6023940687, "lat": 47.3860044, "lon": -122.2047999}, {"type": "node", "id": 6023940698, "lat": 47.386035, "lon": -122.2048438}, {"type": "node", "id": 6023940701, "lat": 47.3860351, "lon": -122.2050007}, {"type": "node", "id": 6023940990, "lat": 47.383647, "lon": -122.2029575}, {"type": "node", "id": 6023940994, "lat": 47.3835236, "lon": -122.202772}, {"type": "node", "id": 6023940995, "lat": 47.3836469, "lon": -122.2027718}, {"type": "node", "id": 6023941183, "lat": 47.3863611, "lon": -122.2016958}, {"type": "node", "id": 6023941185, "lat": 47.386439, "lon": -122.2016951}, {"type": "node", "id": 6023941188, "lat": 47.3863611, "lon": -122.201708}, {"type": "node", "id": 6023941192, "lat": 47.3864391, "lon": -122.2017064}, {"type": "node", "id": 6023941589, "lat": 47.3836186, "lon": -122.2007442}, {"type": "node", "id": 6023941593, "lat": 47.3836186, "lon": -122.2007521}, {"type": "node", "id": 6023941602, "lat": 47.3835756, "lon": -122.200701}, {"type": "node", "id": 6023941605, "lat": 47.3835756, "lon": -122.2006473}, {"type": "node", "id": 6023941610, "lat": 47.3835888, "lon": -122.2007521}, {"type": "node", "id": 6023941614, "lat": 47.3835888, "lon": -122.200701}, {"type": "node", "id": 6023941617, "lat": 47.3836472, "lon": -122.2006338}, {"type": "node", "id": 6023941620, "lat": 47.3836472, "lon": -122.2006457}, {"type": "node", "id": 6023941623, "lat": 47.3835875, "lon": -122.2006473}, {"type": "node", "id": 6023941626, "lat": 47.3835875, "lon": -122.2006338}, {"type": "node", "id": 6023941630, "lat": 47.383754, "lon": -122.2006456}, {"type": "node", "id": 6023941632, "lat": 47.383754, "lon": -122.2007441}, {"type": "node", "id": 6023941733, "lat": 47.3837541, "lon": -122.2009367}, {"type": "node", "id": 6023941735, "lat": 47.3836104, "lon": -122.2016532}, {"type": "node", "id": 6023941736, "lat": 47.3836074, "lon": -122.2009381}, {"type": "node", "id": 6023941996, "lat": 47.3811984, "lon": -122.2030115}, {"type": "node", "id": 6023942003, "lat": 47.381109, "lon": -122.2029139}, {"type": "node", "id": 6023942005, "lat": 47.386511, "lon": -122.2027021}, {"type": "node", "id": 6023942006, "lat": 47.3810902, "lon": -122.202914}, {"type": "node", "id": 6023942009, "lat": 47.3811091, "lon": -122.2029611}, {"type": "node", "id": 6023942010, "lat": 47.3865584, "lon": -122.2028243}, {"type": "node", "id": 6023942011, "lat": 47.3810931, "lon": -122.2027862}, {"type": "node", "id": 6023942012, "lat": 47.3865546, "lon": -122.2028243}, {"type": "node", "id": 6023942013, "lat": 47.3811284, "lon": -122.2027861}, {"type": "node", "id": 6023942014, "lat": 47.386511, "lon": -122.202694}, {"type": "node", "id": 6023942015, "lat": 47.3810901, "lon": -122.2028031}, {"type": "node", "id": 6023942016, "lat": 47.3810932, "lon": -122.2028031}, {"type": "node", "id": 6023942017, "lat": 47.3811654, "lon": -122.2027873}, {"type": "node", "id": 6023942018, "lat": 47.3865112, "lon": -122.202974}, {"type": "node", "id": 6023942019, "lat": 47.3811883, "lon": -122.2027872}, {"type": "node", "id": 6023942020, "lat": 47.3865547, "lon": -122.2028429}, {"type": "node", "id": 6023942021, "lat": 47.3811284, "lon": -122.2028029}, {"type": "node", "id": 6023942022, "lat": 47.3865574, "lon": -122.2028429}, {"type": "node", "id": 6023942023, "lat": 47.3811654, "lon": -122.2028028}, {"type": "node", "id": 6023942024, "lat": 47.3812455, "lon": -122.2030114}, {"type": "node", "id": 6023942025, "lat": 47.3865112, "lon": -122.2029668}, {"type": "node", "id": 6023942026, "lat": 47.3811883, "lon": -122.2028009}, {"type": "node", "id": 6023942027, "lat": 47.3812453, "lon": -122.2028008}, {"type": "node", "id": 6023942127, "lat": 47.3822851, "lon": -122.2029148}, {"type": "node", "id": 6023942128, "lat": 47.3822858, "lon": -122.2029938}, {"type": "node", "id": 6023942131, "lat": 47.3822891, "lon": -122.2028078}, {"type": "node", "id": 6023942135, "lat": 47.38229, "lon": -122.2029147}, {"type": "node", "id": 6023942137, "lat": 47.3820323, "lon": -122.2029203}, {"type": "node", "id": 6023942139, "lat": 47.3820314, "lon": -122.2028087}, {"type": "node", "id": 6023942143, "lat": 47.3822449, "lon": -122.2029946}, {"type": "node", "id": 6023942146, "lat": 47.3822443, "lon": -122.2029165}, {"type": "node", "id": 6023942147, "lat": 47.3821898, "lon": -122.2027814}, {"type": "node", "id": 6023942151, "lat": 47.3821147, "lon": -122.2028072}, {"type": "node", "id": 6023942153, "lat": 47.3821145, "lon": -122.2027828}, {"type": "node", "id": 6023942231, "lat": 47.3866457, "lon": -122.1985894}, {"type": "node", "id": 6023942233, "lat": 47.3865944, "lon": -122.1985905}, {"type": "node", "id": 6023942235, "lat": 47.3866385, "lon": -122.1985237}, {"type": "node", "id": 6023942237, "lat": 47.386645, "lon": -122.1985235}, {"type": "node", "id": 6023942239, "lat": 47.3865669, "lon": -122.1985898}, {"type": "node", "id": 6023942241, "lat": 47.3864672, "lon": -122.1985921}, {"type": "node", "id": 6023942243, "lat": 47.3865945, "lon": -122.1986064}, {"type": "node", "id": 6023942245, "lat": 47.3865671, "lon": -122.198607}, {"type": "node", "id": 6023942251, "lat": 47.386466, "lon": -122.1984808}, {"type": "node", "id": 6023942253, "lat": 47.386638, "lon": -122.1984769}, {"type": "node", "id": 6023942564, "lat": 47.3838572, "lon": -122.2015547}, {"type": "node", "id": 6023942572, "lat": 47.3838634, "lon": -122.2019163}, {"type": "node", "id": 6023942573, "lat": 47.3838601, "lon": -122.2019164}, {"type": "node", "id": 6023942576, "lat": 47.383858, "lon": -122.2016483}, {"type": "node", "id": 6023942578, "lat": 47.383861, "lon": -122.2016483}, {"type": "node", "id": 6023942580, "lat": 47.3837643, "lon": -122.2015565}, {"type": "node", "id": 6023942583, "lat": 47.383861, "lon": -122.2020139}, {"type": "node", "id": 6023942665, "lat": 47.3863559, "lon": -122.2005103}, {"type": "node", "id": 6023942669, "lat": 47.3863512, "lon": -122.2005959}, {"type": "node", "id": 6023942673, "lat": 47.3863558, "lon": -122.2005595}, {"type": "node", "id": 6023942675, "lat": 47.3863513, "lon": -122.2005595}, {"type": "node", "id": 6023942677, "lat": 47.3858912, "lon": -122.2005982}, {"type": "node", "id": 6023942679, "lat": 47.3862383, "lon": -122.2006131}, {"type": "node", "id": 6023942680, "lat": 47.3858912, "lon": -122.2006117}, {"type": "node", "id": 6023942705, "lat": 47.3859036, "lon": -122.199913}, {"type": "node", "id": 6023942711, "lat": 47.3860443, "lon": -122.199911}, {"type": "node", "id": 6023942713, "lat": 47.3863032, "lon": -122.1999119}, {"type": "node", "id": 6023942715, "lat": 47.3859038, "lon": -122.199853}, {"type": "node", "id": 6023942717, "lat": 47.3860444, "lon": -122.1998535}, {"type": "node", "id": 6023942719, "lat": 47.3863854, "lon": -122.2001543}, {"type": "node", "id": 6023942724, "lat": 47.3863034, "lon": -122.1997905}, {"type": "node", "id": 6023942727, "lat": 47.3863861, "lon": -122.1997908}, {"type": "node", "id": 6037498329, "lat": 47.3861275, "lon": -122.1873318}, {"type": "node", "id": 6037498331, "lat": 47.3861435, "lon": -122.1873157}, {"type": "node", "id": 6037498334, "lat": 47.3862171, "lon": -122.1873244}, {"type": "node", "id": 6037498335, "lat": 47.3862155, "lon": -122.1873646}, {"type": "node", "id": 6037498336, "lat": 47.3861747, "lon": -122.1873046}, {"type": "node", "id": 6037498337, "lat": 47.3862001, "lon": -122.1873111}, {"type": "node", "id": 6037498338, "lat": 47.3861604, "lon": -122.1873889}, {"type": "node", "id": 6037498340, "lat": 47.3861355, "lon": -122.1873774}, {"type": "node", "id": 6037498342, "lat": 47.3862048, "lon": -122.1873757}, {"type": "node", "id": 6037498343, "lat": 47.3861801, "lon": -122.1873884}, {"type": "node", "id": 6037498347, "lat": 47.3861151, "lon": -122.1873535}, {"type": "node", "id": 6037557282, "lat": 47.3862528, "lon": -122.1861276}, {"type": "node", "id": 6037560689, "lat": 47.3988616, "lon": -122.1866041}, {"type": "node", "id": 6037560690, "lat": 47.3988574, "lon": -122.1861697}, {"type": "node", "id": 6037560691, "lat": 47.3991233, "lon": -122.1861651}, {"type": "node", "id": 6037560692, "lat": 47.3991932, "lon": -122.1862021}, {"type": "node", "id": 6037560693, "lat": 47.3992735, "lon": -122.1862652}, {"type": "node", "id": 6037560694, "lat": 47.3993058, "lon": -122.1863499}, {"type": "node", "id": 6037560695, "lat": 47.3993329, "lon": -122.1864686}, {"type": "node", "id": 6037560696, "lat": 47.399334, "lon": -122.186598}, {"type": "node", "id": 6037560697, "lat": 47.4033786, "lon": -122.1859249, "tags": {"craft": "carpet_layer", "name": "Joe's Carpet Cleaning", "office": "company"}}, {"type": "node", "id": 6077950796, "lat": 47.416217, "lon": -122.1932345}, {"type": "node", "id": 6077950797, "lat": 47.416103, "lon": -122.1932211}, {"type": "node", "id": 6077950798, "lat": 47.4162169, "lon": -122.1932204}, {"type": "node", "id": 6077950799, "lat": 47.4162174, "lon": -122.1934008}, {"type": "node", "id": 6077950800, "lat": 47.4161035, "lon": -122.1934015}, {"type": "node", "id": 6077950801, "lat": 47.4176065, "lon": -122.1932263}, {"type": "node", "id": 6077950802, "lat": 47.4176067, "lon": -122.1932935}, {"type": "node", "id": 6077964351, "lat": 47.4162812, "lon": -122.1965335}, {"type": "node", "id": 6077964352, "lat": 47.4162813, "lon": -122.1965892}, {"type": "node", "id": 6077964353, "lat": 47.4162696, "lon": -122.1963761}, {"type": "node", "id": 6077964354, "lat": 47.4162691, "lon": -122.1965333}, {"type": "node", "id": 6077964596, "lat": 47.4161064, "lon": -122.1966435}, {"type": "node", "id": 6077964597, "lat": 47.4161063, "lon": -122.1965288}, {"type": "node", "id": 6077964598, "lat": 47.4162687, "lon": -122.1965898}, {"type": "node", "id": 6077964599, "lat": 47.4162671, "lon": -122.1966444}, {"type": "node", "id": 6077964600, "lat": 47.4161614, "lon": -122.1963752}, {"type": "node", "id": 6091922427, "lat": 47.3883842, "lon": -122.2109761}, {"type": "node", "id": 6091922430, "lat": 47.3883394, "lon": -122.2110169}, {"type": "node", "id": 6091922432, "lat": 47.3883841, "lon": -122.2110172}, {"type": "node", "id": 6091922435, "lat": 47.3882501, "lon": -122.2109764}, {"type": "node", "id": 6091922436, "lat": 47.3883395, "lon": -122.2109769}, {"type": "node", "id": 6091922439, "lat": 47.3882505, "lon": -122.2108326}, {"type": "node", "id": 6091922441, "lat": 47.388368, "lon": -122.2105461}, {"type": "node", "id": 6091922443, "lat": 47.3882631, "lon": -122.2105455}, {"type": "node", "id": 6091922446, "lat": 47.3884143, "lon": -122.2105947}, {"type": "node", "id": 6091922448, "lat": 47.3883679, "lon": -122.2105944}, {"type": "node", "id": 6091922451, "lat": 47.3884133, "lon": -122.2109763}, {"type": "node", "id": 6091927112, "lat": 47.4073234, "lon": -122.1978859}, {"type": "node", "id": 6091927115, "lat": 47.4073211, "lon": -122.1980895}, {"type": "node", "id": 6091927118, "lat": 47.4072974, "lon": -122.1977626}, {"type": "node", "id": 6091927121, "lat": 47.407296, "lon": -122.1978852}, {"type": "node", "id": 6091927124, "lat": 47.4074618, "lon": -122.1976444}, {"type": "node", "id": 6091927128, "lat": 47.4073769, "lon": -122.1976423}, {"type": "node", "id": 6091927132, "lat": 47.4076004, "lon": -122.1976837}, {"type": "node", "id": 6091927136, "lat": 47.4074614, "lon": -122.1976804}, {"type": "node", "id": 6091927139, "lat": 47.4077505, "lon": -122.1977247}, {"type": "node", "id": 6091927143, "lat": 47.4076, "lon": -122.197721}, {"type": "node", "id": 6091927147, "lat": 47.4077899, "lon": -122.1978}, {"type": "node", "id": 6091927151, "lat": 47.4077497, "lon": -122.197799}, {"type": "node", "id": 6091927155, "lat": 47.4077626, "lon": -122.198071}, {"type": "node", "id": 6091927157, "lat": 47.4077873, "lon": -122.1980337}, {"type": "node", "id": 6091927160, "lat": 47.4076218, "lon": -122.1983852}, {"type": "node", "id": 6091927163, "lat": 47.407797, "lon": -122.1981204}, {"type": "node", "id": 6091927166, "lat": 47.4075634, "lon": -122.1983687}, {"type": "node", "id": 6091927169, "lat": 47.4075862, "lon": -122.1983342}, {"type": "node", "id": 6091927172, "lat": 47.4074073, "lon": -122.198309}, {"type": "node", "id": 6091927173, "lat": 47.4074071, "lon": -122.1983677}, {"type": "node", "id": 6091927175, "lat": 47.4073536, "lon": -122.1980897}, {"type": "node", "id": 6091927177, "lat": 47.407353, "lon": -122.1983086}, {"type": "node", "id": 6344461717, "lat": 47.3875734, "lon": -122.2005311, "tags": {"addr:city": "Kent", "addr:housenumber": "23910", "addr:postcode": "98031", "addr:state": "WA", "addr:street": "104th Avenue Southeast", "brand": "Grocery Outlet", "brand:wikidata": "Q5609934", "check_date": "2025-08-08", "name": "Grocery Outlet", "name:en": "Grocery Outlet", "official_name": "Grocery Outlet Bargain Market", "opening_hours": "08:00-21:00", "payment:cash": "yes", "payment:credit_cards": "yes", "payment:debit_cards": "yes", "shop": "supermarket"}}, {"type": "node", "id": 6621478656, "lat": 47.3859324, "lon": -122.185738}, {"type": "node", "id": 6685689585, "lat": 47.4163875, "lon": -122.1981428, "tags": {"addr:city": "Kent", "addr:housenumber": "10700", "addr:postcode": "98031", "addr:state": "WA", "addr:street": "Southeast 208th Street", "addr:unit": "St #107", "amenity": "driving_school", "name": "East Hill Driving School", "opening_hours": "Mo-Fr 11:00-19:00; Sa 09:00-16:00; Su closed", "phone": "+1-253-277-3712", "website": "https://www.easthilldrivingschool.com"}}, {"type": "node", "id": 6703618525, "lat": 47.3882616, "lon": -122.1812276}, {"type": "node", "id": 6703618526, "lat": 47.3886082, "lon": -122.1812256}, {"type": "node", "id": 6703618527, "lat": 47.3886076, "lon": -122.1809908}, {"type": "node", "id": 6703618528, "lat": 47.388261, "lon": -122.1809928}, {"type": "node", "id": 6946971233, "lat": 47.3866702, "lon": -122.1864182}, {"type": "node", "id": 6946971234, "lat": 47.3866696, "lon": -122.1862614}, {"type": "node", "id": 6946971235, "lat": 47.3863486, "lon": -122.1862643}, {"type": "node", "id": 6946971236, "lat": 47.3866223, "lon": -122.1860359}, {"type": "node", "id": 6946971237, "lat": 47.3866232, "lon": -122.1858685}, {"type": "node", "id": 6946971238, "lat": 47.3864004, "lon": -122.1858659}, {"type": "node", "id": 6946971239, "lat": 47.3862964, "lon": -122.1859077}, {"type": "node", "id": 6946971240, "lat": 47.3863247, "lon": -122.1859199}, {"type": "node", "id": 6946971241, "lat": 47.3863204, "lon": -122.1859416}, {"type": "node", "id": 6946971242, "lat": 47.3863627, "lon": -122.1859599}, {"type": "node", "id": 6946971243, "lat": 47.3863234, "lon": -122.1861581}, {"type": "node", "id": 6946971259, "lat": 47.3863355, "lon": -122.1859481}, {"type": "node", "id": 6946971260, "lat": 47.3862949, "lon": -122.1861458}, {"type": "node", "id": 8433760033, "lat": 47.3873333, "lon": -122.2030292}, {"type": "node", "id": 8433760034, "lat": 47.3872213, "lon": -122.2030264}, {"type": "node", "id": 8506192803, "lat": 47.3864829, "lon": -122.1860337}, {"type": "node", "id": 8524427099, "lat": 47.39356, "lon": -122.1813989}, {"type": "node", "id": 9217370693, "lat": 47.4140766, "lon": -122.196775, "tags": {"addr:city": "Kent", "addr:housenumber": "20900", "addr:postcode": "98031", "addr:state": "WA", "addr:street": "108th Avenue Southeast", "amenity": "cafe", "cuisine": "coffee;tea", "drive_through": "yes", "email": "dailydosecoffeecompany@gmail.com", "name": "Daily Dose Espresso", "opening_hours": "Mo-Fr 05:00-18:00; Sa 06:00-17:30; Su 06:30-17:00", "phone": "+1-253-359-5438"}}, {"type": "node", "id": 9441092818, "lat": 47.4103684, "lon": -122.2219337, "tags": {"name": "Rise Baking", "office": "company", "outdoor_seating": "no"}}, {"type": "node", "id": 9912980543, "lat": 47.4163225, "lon": -122.1975093, "tags": {"amenity": "vending_machine", "brand": "Redbox", "brand:wikidata": "Q7305489", "name": "Redbox", "vending": "movies"}}, {"type": "node", "id": 10905329988, "lat": 47.3898467, "lon": -122.201976}, {"type": "node", "id": 10905329989, "lat": 47.389907, "lon": -122.2019764}, {"type": "node", "id": 11413450319, "lat": 47.384343, "lon": -122.2016777, "tags": {"addr:city": "Kent", "addr:housenumber": "24228", "addr:postcode": "98030", "addr:state": "WA", "addr:street": "104th Avenue Southeast", "check_date": "2025-08-08", "description": "Retro video game retailer", "name": "Gamebound Video Games", "opening_hours": "Mo 11:00-17:00; Tu-Sa 11:00-19:00; Su 12:00-16:00", "phone": "+1-253-236-2134", "shop": "video_games", "website": "https://www.gameboundvideogames.com/"}}, {"type": "node", "id": 11759385477, "lat": 47.4157083, "lon": -122.2000195}, {"type": "node", "id": 11759385478, "lat": 47.415703, "lon": -122.198254}, {"type": "node", "id": 11759385479, "lat": 47.4156473, "lon": -122.1982437}, {"type": "node", "id": 11759385480, "lat": 47.4155837, "lon": -122.1992534}, {"type": "node", "id": 11759385481, "lat": 47.4154604, "lon": -122.1994678}, {"type": "node", "id": 11759385482, "lat": 47.4152662, "lon": -122.1994742}, {"type": "node", "id": 11759385483, "lat": 47.415276, "lon": -122.1999276}, {"type": "node", "id": 11759385484, "lat": 47.415386, "lon": -122.200046}, {"type": "node", "id": 11759396155, "lat": 47.4156789, "lon": -122.1953141}, {"type": "node", "id": 11759396156, "lat": 47.4156903, "lon": -122.1967726}, {"type": "node", "id": 11759396157, "lat": 47.4147056, "lon": -122.196782}, {"type": "node", "id": 11759396158, "lat": 47.4146955, "lon": -122.1960484}, {"type": "node", "id": 11759396159, "lat": 47.4155479, "lon": -122.1960393}, {"type": "node", "id": 11759396160, "lat": 47.4155499, "lon": -122.195906}, {"type": "node", "id": 11759396161, "lat": 47.4155473, "lon": -122.1953265}, {"type": "node", "id": 11759474987, "lat": 47.4154917, "lon": -122.1974467}, {"type": "node", "id": 11759474988, "lat": 47.4154917, "lon": -122.1973745}, {"type": "node", "id": 11759474989, "lat": 47.4150825, "lon": -122.1973779}, {"type": "node", "id": 11759474990, "lat": 47.4150747, "lon": -122.1974436}, {"type": "node", "id": 11851257717, "lat": 47.3883269, "lon": -122.2105459}, {"type": "node", "id": 11851263186, "lat": 47.3930473, "lon": -122.1788049}, {"type": "node", "id": 11851263187, "lat": 47.3939212, "lon": -122.1788042}, {"type": "node", "id": 11851263246, "lat": 47.3959631, "lon": -122.1923047}, {"type": "node", "id": 11851317920, "lat": 47.3887258, "lon": -122.1805679}, {"type": "node", "id": 11851317921, "lat": 47.3887259, "lon": -122.180487}, {"type": "node", "id": 11882073228, "lat": 47.4136004, "lon": -122.1966581, "tags": {"amenity": "restaurant", "check_date": "2024-05-05", "name": "Lukinya"}}, {"type": "node", "id": 12308320612, "lat": 47.4165955, "lon": -122.1978397, "tags": {"amenity": "fast_food", "check_date": "2025-01-04", "cuisine": "sandwich", "name": "Deli O'clock"}}, {"type": "node", "id": 12332786842, "lat": 47.3867406, "lon": -122.1860512, "tags": {"access": "yes", "amenity": "charging_station", "bicycle": "no", "brand": "bp pulse", "brand:website": "https://www.bppulse.com", "brand:wikidata": "Q39057719", "capacity": "4", "contact:email": "DriverSupportUS@bp.com", "contact:phone": "+1-833-277-8573", "fee": "yes", "frequency": "0", "motorcar": "designated", "name": "bp pulse", "network": "bp pulse", "network:website": "https://www.bppulse.com", "network:wikidata": "Q39057719", "opening_hours": "24/7", "operator": "BP", "operator:wikidata": "Q152057", "payment:american_express": "yes", "payment:app:bp_pulse": "yes", "payment:app:chargepoint": "yes", "payment:apple_pay": "yes", "payment:discover": "yes", "payment:google_pay": "yes", "payment:mastercard": "yes", "payment:visa": "yes", "reservation": "no", "scooter": "no"}}, {"type": "node", "id": 12353165423, "lat": 47.4162427, "lon": -122.19815, "tags": {"check_date": "2025-03-11", "name": "La Studio Hair Salon", "shop": "hairdresser"}}, {"type": "node", "id": 12385539502, "lat": 47.3860122, "lon": -122.1875429, "tags": {"amenity": "bench", "armrest": "no", "backrest": "yes", "material": "metal"}}, {"type": "node", "id": 12385539503, "lat": 47.3857761, "lon": -122.1874866, "tags": {"amenity": "bench", "armrest": "no", "backrest": "yes", "material": "metal"}}, {"type": "node", "id": 12385539504, "lat": 47.3862036, "lon": -122.1877476, "tags": {"amenity": "bench", "armrest": "no", "backrest": "yes", "material": "metal"}}, {"type": "node", "id": 12385539505, "lat": 47.3862549, "lon": -122.1877862, "tags": {"amenity": "bench", "armrest": "no", "backrest": "yes", "material": "metal"}}, {"type": "node", "id": 12385539506, "lat": 47.3860231, "lon": -122.187153, "tags": {"amenity": "waste_basket"}}, {"type": "node", "id": 12385539507, "lat": 47.3864245, "lon": -122.1880496, "tags": {"amenity": "bench", "armrest": "no", "backrest": "yes", "material": "metal"}}, {"type": "node", "id": 12385539508, "lat": 47.3860818, "lon": -122.1879881, "tags": {"amenity": "bench", "armrest": "no", "backrest": "yes", "material": "metal"}}, {"type": "node", "id": 12385539509, "lat": 47.3861818, "lon": -122.1870964, "tags": {"amenity": "waste_basket"}}, {"type": "node", "id": 12385539510, "lat": 47.3861721, "lon": -122.187304, "tags": {"amenity": "waste_basket"}}, {"type": "node", "id": 12385539512, "lat": 47.3866714, "lon": -122.1877247, "tags": {"amenity": "bench", "armrest": "no", "backrest": "yes", "material": "metal"}}, {"type": "node", "id": 12385565896, "lat": 47.3858954, "lon": -122.1871661}, {"type": "node", "id": 12385565897, "lat": 47.3859454, "lon": -122.1870922}, {"type": "node", "id": 12385565898, "lat": 47.3860155, "lon": -122.1870937}, {"type": "node", "id": 12385565899, "lat": 47.3856203, "lon": -122.187171}, {"type": "node", "id": 12385565900, "lat": 47.3856197, "lon": -122.1870986}, {"type": "node", "id": 12385603901, "lat": 47.3854547, "lon": -122.1871016}, {"type": "node", "id": 12385607901, "lat": 47.3855769, "lon": -122.1855902}, {"type": "node", "id": 12385607902, "lat": 47.385708, "lon": -122.1849418}, {"type": "node", "id": 12385607903, "lat": 47.3857791, "lon": -122.1848766}, {"type": "node", "id": 12385607904, "lat": 47.3858897, "lon": -122.1849233}, {"type": "node", "id": 12385607905, "lat": 47.3859888, "lon": -122.184412}, {"type": "node", "id": 12385607906, "lat": 47.3860877, "lon": -122.1844538}, {"type": "node", "id": 12385607907, "lat": 47.3860355, "lon": -122.1847228}, {"type": "node", "id": 12385607908, "lat": 47.3860939, "lon": -122.1847476}, {"type": "node", "id": 12385607909, "lat": 47.3860446, "lon": -122.1850017}, {"type": "node", "id": 12385607910, "lat": 47.3865498, "lon": -122.1852157}, {"type": "node", "id": 12385607911, "lat": 47.3866879, "lon": -122.1852067}, {"type": "node", "id": 12385607912, "lat": 47.386693, "lon": -122.1853772}, {"type": "node", "id": 12385607913, "lat": 47.3867438, "lon": -122.185408}, {"type": "node", "id": 12385607914, "lat": 47.3867504, "lon": -122.1857142}, {"type": "node", "id": 12385607915, "lat": 47.3866943, "lon": -122.1856762}, {"type": "node", "id": 12385607916, "lat": 47.3856117, "lon": -122.1856652}, {"type": "node", "id": 12513000427, "lat": 47.389631, "lon": -122.2150321, "tags": {"amenity": "bench"}}, {"type": "node", "id": 12513000428, "lat": 47.3897345, "lon": -122.2150576, "tags": {"amenity": "bench"}}, {"type": "node", "id": 12513070811, "lat": 47.3903228, "lon": -122.1874027, "tags": {"amenity": "bench"}}, {"type": "node", "id": 12513070812, "lat": 47.3904018, "lon": -122.1872853, "tags": {"amenity": "bench"}}, {"type": "node", "id": 12677659628, "lat": 47.3875397, "lon": -122.2068192, "tags": {"amenity": "dentist", "check_date": "2025-08-08", "healthcare": "dentist", "name": "Seablue Dental", "phone": "+1-253-339-3000"}}, {"type": "node", "id": 12953029693, "lat": 47.3864801, "lon": -122.1740432, "tags": {"amenity": "vending_machine", "bin": "yes", "check_date": "2025-06-20", "fee": "no", "vending": "excrement_bags"}}, {"type": "node", "id": 13027350072, "lat": 47.3862922, "lon": -122.1847273, "tags": {"amenity": "childcare", "check_date": "2025-07-26", "name": "Benson Hill Coop Preschool"}}, {"type": "node", "id": 13034143854, "lat": 47.4165123, "lon": -122.1949528, "tags": {"addr:city": "Kent", "addr:housenumber": "10920", "addr:postcode": "98031", "addr:state": "WA", "addr:street": "Southeast 208th Street", "amenity": "dentist", "healthcare": "dentist", "healthcare:speciality": "dentist", "name": "Panther Lake Dental of Kent"}}, {"type": "node", "id": 13058827472, "lat": 47.3828585, "lon": -122.2012503, "tags": {"addr:housenumber": "10427", "addr:street": "Southeast 244th Street", "check_date": "2025-08-08", "name": "Kent Education Association", "office": "association"}}, {"type": "node", "id": 13058827474, "lat": 47.3860276, "lon": -122.2049233, "tags": {"amenity": "vending_machine", "brand": "Primo Water", "brand:wikidata": "Q2071102", "check_date": "2025-08-08", "name": "Primo Water", "vending": "water"}}, {"type": "node", "id": 13058827475, "lat": 47.386042, "lon": -122.2050645, "tags": {"amenity": "atm", "brand": "U.S. Bank", "brand:wikidata": "Q739084", "check_date": "2025-08-08", "operator": "U.S. Bank", "operator:wikidata": "Q739084"}}, {"type": "node", "id": 13058827476, "lat": 47.386039, "lon": -122.2050395, "tags": {"amenity": "atm", "brand": "Global Credit Union", "brand:wikidata": "Q4708627", "check_date": "2025-08-08", "operator": "Global Credit Union", "operator:wikidata": "Q4708627"}}, {"type": "node", "id": 13058827479, "lat": 47.3847732, "lon": -122.2025797, "tags": {"addr:housenumber": "24213", "addr:street": "104th Avenue Southeast", "check_date": "2025-08-08", "name": "Tible Law PLLC", "office": "lawyer", "phone": "+1-844-842-5353"}}, {"type": "node", "id": 13058827487, "lat": 47.3830061, "lon": -122.2026214, "tags": {"addr:housenumber": "24401", "addr:street": "104th Avenue Southeast", "amenity": "dentist", "check_date": "2025-08-08", "healthcare": "dentist", "name": "Vahid A. Atabakhsh DDS Endodontics"}}, {"type": "node", "id": 13058827495, "lat": 47.3809176, "lon": -122.2029198}, {"type": "node", "id": 13058827496, "lat": 47.3811983, "lon": -122.2029609}, {"type": "node", "id": 13058827498, "lat": 47.3813357, "lon": -122.2015788, "tags": {"addr:housenumber": "24604", "addr:street": "104th Avenue Southeast", "check_date": "2025-08-08", "name": "HireNow Staffing", "office": "employment_agency"}}, {"type": "node", "id": 13058827499, "lat": 47.3861587, "lon": -122.2034452, "tags": {"addr:housenumber": "24017", "addr:street": "104th Avenue Southeast", "check_date": "2025-08-08", "name": "The Hair Solution", "opening_hours": "Mo-Sa 09:00-18:00", "phone": "+1-253-850-6022", "shop": "hairdresser"}}, {"type": "node", "id": 13058873302, "lat": 47.3875753, "lon": -122.1968551}, {"type": "node", "id": 13058873304, "lat": 47.3882567, "lon": -122.2015674, "tags": {"amenity": "events_venue", "check_date": "2025-08-08", "name": "Kingtown Banquet Hall"}}, {"type": "node", "id": 13058873309, "lat": 47.3887967, "lon": -122.2030878, "tags": {"addr:housenumber": "23805", "addr:street": "104th Avenue Southeast", "check_date": "2025-08-08", "name": "Punjab Grocery & Bazaar", "shop": "supermarket"}}, {"type": "node", "id": 13058873310, "lat": 47.3886653, "lon": -122.2030113, "tags": {"addr:city": "Kent", "addr:housenumber": "23811", "addr:postcode": "98031", "addr:state": "WA", "addr:street": "104th Avenue Southeast", "beauty": "nails", "check_date": "2025-08-08", "name": "Angel Nails", "phone": "+1-253-852-3488", "shop": "beauty"}}, {"type": "node", "id": 13058873311, "lat": 47.3885801, "lon": -122.2029972, "tags": {"addr:city": "Kent", "addr:door": "102", "addr:housenumber": "23811", "addr:postcode": "98031", "addr:state": "WA", "addr:street": "104th Avenue Southeast", "check_date": "2025-08-08", "name": "Watan Bakery & Halal Store", "payment:cash": "yes", "payment:credit_cards": "yes", "payment:debit_cards": "yes", "shop": "bakery"}}, {"type": "node", "id": 13058873312, "lat": 47.3885024, "lon": -122.2029887, "tags": {"addr:city": "Kent", "addr:door": "101", "addr:housenumber": "23811", "addr:postcode": "98031", "addr:state": "WA", "addr:street": "104th Avenue Southeast", "check_date": "2025-08-08", "name": "Khoobsurat Beauty Parlour", "opening_hours": "10:00-19:00", "phone": "+1-253-854-6815", "shop": "beauty"}}, {"type": "node", "id": 13058873313, "lat": 47.3873003, "lon": -122.2029554, "tags": {"amenity": "vacuum_cleaner"}}, {"type": "node", "id": 13058873314, "lat": 47.3874136, "lon": -122.2055985, "tags": {"check_date": "2025-08-08", "name": "Luvly Esthetics", "shop": "beauty"}}, {"type": "node", "id": 13058873315, "lat": 47.3874755, "lon": -122.2068162, "tags": {"addr:door": "100", "amenity": "doctors", "check_date": "2025-08-08", "healthcare": "doctor", "name": "Advanced Foot & Ankle Clinic"}}, {"type": "node", "id": 13058873316, "lat": 47.3874693, "lon": -122.205483, "tags": {"amenity": "dentist", "check_date": "2025-08-08", "healthcare": "dentist", "name": "Kent Hill Dental Center", "phone": "+1-253-859-6000"}}, {"type": "node", "id": 13058873317, "lat": 47.3866819, "lon": -122.2032776, "tags": {"brand": "Mud Bay", "brand:wikidata": "Q30324179", "check_date": "2025-08-08", "name": "Mud Bay", "opening_hours": "Mo-Fr 10:00-19:30; Sa-Su 09:00-19:00", "shop": "pet"}}, {"type": "node", "id": 13058873318, "lat": 47.3865729, "lon": -122.2027252, "tags": {"amenity": "compressed_air"}}, {"type": "node", "id": 13058873319, "lat": 47.3858659, "lon": -122.202543, "tags": {"amenity": "cafe", "check_date": "2025-08-08", "cuisine": "coffee_shop", "name": "LadyBuy Bikini Espresso"}}, {"type": "node", "id": 13058873321, "lat": 47.3880556, "lon": -122.2006358, "tags": {"check_date": "2025-08-08", "name": "International Home Furniture", "opening_hours": "Mo-Th 12:00-19:30; Fr-Su 14:00-19:30", "shop": "furniture"}}, {"type": "node", "id": 13058873324, "lat": 47.3862699, "lon": -122.2006195, "tags": {"amenity": "bicycle_parking"}}, {"type": "node", "id": 13058873325, "lat": 47.3854071, "lon": -122.2005256, "tags": {"addr:housenumber": "24044", "addr:street": "104th Avenue Southeast", "check_date": "2025-08-08", "name": "Vine Maple Place Regional Family Hope Center", "office": "association"}}, {"type": "node", "id": 13058873326, "lat": 47.3849002, "lon": -122.202559, "tags": {"addr:housenumber": "24207", "addr:street": "104th Avenue Southeast", "check_date": "2025-08-08", "name": "Jindal Professional Services", "office": "tax_advisor", "phone": "+1-206-214-5804"}}, {"type": "node", "id": 13058873327, "lat": 47.3846863, "lon": -122.2025773, "tags": {"addr:housenumber": "24213", "addr:street": "104th Avenue Southeast", "amenity": "clinic", "check_date": "2025-08-08", "healthcare": "clinic", "name": "Rainier Beach Medical Clinic - Kent Branch"}}, {"type": "node", "id": 13058873328, "lat": 47.3843552, "lon": -122.2017427, "tags": {"addr:city": "Kent", "addr:door": "103", "addr:housenumber": "24228", "addr:postcode": "98030", "addr:state": "WA", "addr:street": "104th Avenue Southeast", "check_date": "2025-08-08", "name": "Adji Hair Braiding", "payment:cash": "yes", "payment:credit_cards": "yes", "payment:debit_cards": "yes", "phone": "+1-206-446-7671", "shop": "hairdresser"}}, {"type": "node", "id": 13058873329, "lat": 47.3843505, "lon": -122.2015797, "tags": {"addr:city": "Kent", "addr:door": "104B", "addr:housenumber": "24228", "addr:postcode": "98030", "addr:state": "WA", "addr:street": "104th Avenue Southeast", "check_date": "2025-08-08", "name": "Apex Barbershop", "opening_hours": "Mo,Sa 08:00-17:00; Tu-Fr 08:00-20:00", "payment:cash": "yes", "payment:credit_cards": "yes", "payment:debit_cards": "yes", "shop": "hairdresser"}}, {"type": "node", "id": 13058873330, "lat": 47.3843026, "lon": -122.2014729, "tags": {"addr:door": "105", "amenity": "restaurant", "check_date": "2025-08-08", "cuisine": "turkish", "name": "Sofra Turkish Grill", "opening_hours": "Mo-Fr 10:00-21:00", "phone": "+1-206-302-9721"}}, {"type": "node", "id": 13058873331, "lat": 47.383996, "lon": -122.2019691}, {"type": "node", "id": 13058873332, "lat": 47.3838931, "lon": -122.2025928, "tags": {"amenity": "driving_school", "check_date": "2025-08-08", "name": "Star Driving School", "phone": "+1-253-470-4991"}}, {"type": "node", "id": 13058873333, "lat": 47.3830781, "lon": -122.2026092, "tags": {"addr:housenumber": "24401", "addr:street": "104th Avenue Southeast", "check_date": "2025-08-08", "name": "Heritage Insurance", "office": "insurance"}}, {"type": "node", "id": 13058873334, "lat": 47.3868027, "lon": -122.1983679, "tags": {"amenity": "compressed_air", "operator": "Xact Air"}}, {"type": "node", "id": 13058873335, "lat": 47.3829148, "lon": -122.2026194, "tags": {"addr:housenumber": "24401", "addr:street": "104th Avenue Southeast", "check_date": "2025-08-08", "name": "McSheridan PS CPA", "office": "accountant"}}, {"type": "node", "id": 13058873336, "lat": 47.3837572, "lon": -122.2016519}, {"type": "node", "id": 13058873337, "lat": 47.3830122, "lon": -122.201747, "tags": {"addr:housenumber": "24400", "addr:street": "104th Avenue Southeast", "amenity": "clinic", "check_date": "2025-08-08", "healthcare": "clinic", "name": "Easthill Medical Clinic"}}, {"type": "node", "id": 13058873338, "lat": 47.3890449, "lon": -122.2024823}, {"type": "node", "id": 13058873339, "lat": 47.3826105, "lon": -122.2018063, "tags": {"addr:housenumber": "24416", "addr:street": "104th Avenue Southeast", "check_date": "2025-08-08", "name": "See Saw Eyecare", "shop": "optician"}}, {"type": "node", "id": 13058873340, "lat": 47.3884354, "lon": -122.2012074}, {"type": "node", "id": 13058873341, "lat": 47.3821901, "lon": -122.2028096}, {"type": "node", "id": 13058873343, "lat": 47.381437, "lon": -122.2015906, "tags": {"addr:housenumber": "24604", "addr:street": "104th Avenue Southeast", "amenity": "doctors", "check_date": "2025-08-08", "healthcare": "doctor", "name": "Rany Choudhary MD"}}, {"type": "node", "id": 13058873345, "lat": 47.3813598, "lon": -122.2015804, "tags": {"addr:housenumber": "24604", "addr:street": "104th Avenue Southeast", "amenity": "doctors", "check_date": "2025-08-08", "healthcare": "doctor", "name": "Kent Family Practice"}}, {"type": "node", "id": 13058873346, "lat": 47.3812892, "lon": -122.201582, "tags": {"addr:housenumber": "24604", "addr:street": "104th Avenue Southeast", "check_date": "2025-08-08", "name": "Living Well Kent", "office": "company"}}, {"type": "node", "id": 13058873347, "lat": 47.3812416, "lon": -122.2015866, "tags": {"addr:housenumber": "24604", "addr:street": "104th Avenue Southeast", "check_date": "2025-08-08", "name": "Veterans Evaluation Services", "office": "company"}}, {"type": "node", "id": 13058873348, "lat": 47.3904525, "lon": -122.2029217, "tags": {"addr:city": "Kent", "addr:housenumber": "23609", "addr:postcode": "98031", "addr:state": "WA", "addr:street": "104th Avenue Southeast", "check_date": "2025-08-08", "name": "Amal Wireless", "phone": "+1-206-319-6016", "shop": "mobile_phone"}}, {"type": "node", "id": 13058873350, "lat": 47.3904107, "lon": -122.2028815, "tags": {"addr:city": "Kent", "addr:housenumber": "23609", "addr:postcode": "98031", "addr:state": "WA", "addr:street": "104th Avenue Southeast", "amenity": "restaurant", "check_date": "2025-08-08", "cuisine": "indian", "name": "Spice Bliss Indian Takeaway", "payment:cash": "yes", "payment:credit_cards": "yes", "payment:debit_cards": "yes", "phone": "+1-253-246-7296"}}, {"type": "node", "id": 13058873351, "lat": 47.3904504, "lon": -122.2029731, "tags": {"addr:city": "Kent", "addr:housenumber": "23609", "addr:postcode": "98031", "addr:state": "WA", "addr:street": "104th Avenue Southeast", "check_date": "2025-08-08", "name": "Mayflower Salon & Spa", "shop": "hairdresser"}}, {"type": "node", "id": 13058873352, "lat": 47.390346, "lon": -122.2029641, "tags": {"addr:city": "Kent", "addr:housenumber": "23609", "addr:postcode": "98031", "addr:state": "WA", "addr:street": "104th Avenue Southeast", "check_date": "2025-08-08", "name": "USA Travel", "opening_hours": "Mo-Fr 10:00-18:00; Sa 10:00-14:00", "phone": "+1-253-867-0450", "shop": "travel_agency"}}, {"type": "node", "id": 13058873357, "lat": 47.3862755, "lon": -122.2053799, "tags": {"amenity": "vending_machine", "brand": "KeyMe", "brand:wikidata": "Q48965608", "check_date": "2025-08-08", "name": "KeyMe", "vending": "key"}}, {"type": "node", "id": 13058873359, "lat": 47.387307, "lon": -122.1976034, "tags": {"amenity": "parcel_locker", "brand": "Amazon Hub", "brand:wikidata": "Q100274430", "check_date": "2025-08-08", "name": "Amazon Web Services", "operator": "Amazon Web Services", "operator:short": "AWS", "operator:wikidata": "Q456157"}}, {"type": "node", "id": 13058873360, "lat": 47.3871689, "lon": -122.1976487, "tags": {"amenity": "compressed_air"}}, {"type": "node", "id": 13058873361, "lat": 47.3825246, "lon": -122.2029401}, {"type": "node", "id": 13058904798, "lat": 47.388461, "lon": -122.2012681}, {"type": "node", "id": 13058904799, "lat": 47.3884613, "lon": -122.2012078}, {"type": "node", "id": 13058904800, "lat": 47.388435, "lon": -122.2012678}, {"type": "node", "id": 13058927228, "lat": 47.3887691, "lon": -122.2024636}, {"type": "node", "id": 13058927229, "lat": 47.3888024, "lon": -122.2024646}, {"type": "node", "id": 13058927230, "lat": 47.3888018, "lon": -122.2025122}, {"type": "node", "id": 13058927231, "lat": 47.3887684, "lon": -122.2025112}, {"type": "node", "id": 13058927256, "lat": 47.3842176, "lon": -122.2014186, "tags": {"amenity": "restaurant", "check_date": "2025-08-08", "name": "Khmer Style", "opening_hours": "10:00-21:00", "payment:cash": "yes", "payment:credit_cards": "yes", "payment:debit_cards": "yes", "phone": "+1-253-905-4634"}}, {"type": "node", "id": 13058927257, "lat": 47.3863558, "lon": -122.200155}, {"type": "node", "id": 13058927258, "lat": 47.3858924, "lon": -122.1999129}, {"type": "node", "id": 13137473878, "lat": 47.4144748, "lon": -122.2085924, "tags": {"amenity": "vending_machine", "bin": "yes", "vending": "excrement_bags"}}, {"type": "node", "id": 13137473882, "lat": 47.4145586, "lon": -122.2085148, "tags": {"amenity": "bench"}}, {"type": "node", "id": 13271443965, "lat": 47.3864884, "lon": -122.1860619, "tags": {"amenity": "bicycle_parking"}}, {"type": "way", "id": 53332200, "nodes": [674511315, 674511316, 674511317, 674511318, 674511315], "tags": {"amenity": "parking", "parking": "surface", "source": "yahoo_wms"}}, {"type": "way", "id": 53332201, "nodes": [674511319, 674511320, 674511321, 674511322, 674511319], "tags": {"amenity": "parking", "parking": "surface", "source": "yahoo_wms"}}, {"type": "way", "id": 53332202, "nodes": [674511323, 674511324, 674511325, 674511326, 674511327, 674511328, 674511323], "tags": {"amenity": "parking", "parking": "surface", "source": "yahoo_wms"}}, {"type": "way", "id": 99054871, "nodes": [1145861523, 1145861532, 1145861529, 1145861525, 1145861541, 1145861539, 1145861527, 1145861512, 1145861534, 1145861515, 6023940701, 6023940698, 6023940687, 1145861536, 1145861523], "tags": {"addr:city": "Kent", "addr:housenumber": "10201", "addr:postcode": "98031", "addr:state": "WA", "addr:street": "Southeast 240th Street", "alt_name": "Fredy's", "branch": "Kent", "brand": "Fred Meyer", "brand:wikidata": "Q5495932", "building": "yes", "building:levels": "2", "check_date": "2025-08-08", "internet_access": "wlan", "name": "Fred Meyer", "opening_hours": "Mo-Su 07:00-23:00", "payment:cash": "yes", "payment:credit_cards": "yes", "payment:debit_cards": "yes", "phone": "+1-253-859-5539", "ref": "70100172", "shop": "supermarket", "website": "https://www.fredmeyer.com/stores/grocery/wa/kent/kent/701/00172", "wheelchair": "yes"}}, {"type": "way", "id": 99054944, "nodes": [1145865582, 3618196709, 3618196710, 3618196711, 3618196712, 1145865578, 1145865590, 6014712713, 3618196713, 6014712714, 3618196716, 3618196715, 3618196714, 1145865572, 1145865582], "tags": {"addr:city": "Kent", "addr:housenumber": "10612", "addr:postcode": "98031", "addr:state": "WA", "addr:street": "Southeast 240th Street", "amenity": "post_office", "building": "yes", "check_date": "2025-08-08", "name": "Kent U.S. Post Office", "opening_hours": "Mo-Fr 08:30-18:00; Sa 08:30-15:00", "operator": "United States Postal Service", "operator:short": "USPS", "operator:type": "public", "operator:website": "https://www.usps.com", "operator:wikidata": "Q668687", "operator:wikipedia": "en:United States Postal Service", "ref": "Kent U.S. Post Office", "short_name": "USPS"}}, {"type": "way", "id": 144350988, "nodes": [1578988253, 1578988252, 1578988251, 1578988261, 1578988259, 1578988263, 1578988257, 1578988255, 1578988253], "tags": {"addr:city": "Kent", "addr:housenumber": "20830", "addr:postcode": "98031", "addr:state": "WA", "addr:street": "108th Avenue Southeast", "brand": "Safeway", "brand:wikidata": "Q1508234", "building": "yes", "building:levels": "2", "designation": "Safeway 0459", "internet_access": "wlan", "name": "Safeway", "opening_hours": "Mo-Su 05:00-01:00", "phone": "+1-253-854-2814", "shop": "supermarket", "website": "https://local.safeway.com/safeway/wa/kent/20830-108th-ave-se.html"}}, {"type": "way", "id": 356348371, "nodes": [53239604, 4225081854, 53191067, 3618096654, 4733486407, 53222721, 53239604], "tags": {"amenity": "school", "check_date": "2025-03-18", "mascot": "Blazer Bees", "name": "East Hill Elementary School", "operator": "Kent School District", "operator:short": "KSD", "operator:type": "public", "operator:wikidata": "Q6391894", "website": "https://www.kent.k12.wa.us/o/EHES"}}, {"type": "way", "id": 356356300, "nodes": [3618175625, 3618175626, 3618175627, 3618175628, 3618175629, 5994901665, 5994901664, 5994901663, 5994901666, 3618175630, 3618175631, 3618175632, 3618175625], "tags": {"check_date": "2025-10-30", "landuse": "commercial", "name": "Kent East Hill Nursery", "shop": "garden_centre"}}, {"type": "way", "id": 356356310, "nodes": [4954139877, 4954139875, 6621478656, 4954139876, 3618175654, 3618175655, 4727418534, 4954139877], "tags": {"amenity": "place_of_worship", "email": "fcckent@kentdisciples.org", "name": "First Christian Church of Kent", "phone": "+1-253-852-1930", "religion": "christian", "website": "http://kentdisciples.org"}}, {"type": "way", "id": 356358151, "nodes": [3618196294, 3618196295, 3618196296, 3618196297, 3618025286, 3618196298, 3618196294], "tags": {"amenity": "parking"}}, {"type": "way", "id": 356358166, "nodes": [2413971148, 3618196365, 3618196366, 4927826456, 11851263187, 11851263186, 3618196367, 53134442, 3618196370, 3618196369, 8524427099, 2413971148], "tags": {"amenity": "school", "mascot": "Monarchs", "mascot:iconography": "Lions", "name": "Meridian Middle School", "operator:type": "public", "website": "https://www.kent.k12.wa.us/o/mrms"}}, {"type": "way", "id": 356358168, "nodes": [3618196374, 3618196375, 3618196376, 3618196377, 3618196378, 3618196379, 3618196374], "tags": {"access": "yes", "amenity": "parking", "capacity": "10", "fee": "no", "parking": "surface", "surface": "asphalt"}}, {"type": "way", "id": 357556180, "nodes": [3627822658, 3627822659, 3627822660, 3627822661, 11851263246, 3627822662, 3627822663, 3627822664, 3682824709, 3682824708, 3682824707, 3627822658], "tags": {"amenity": "school", "mascot": "Pandas", "name": "Park Orchard Elementary School", "operator:type": "public", "website": "https://www.kent.k12.wa.us/o/POE"}}, {"type": "way", "id": 357556211, "nodes": [3627823028, 3627823029, 3627823011, 3627823030, 3627823013, 5324218457, 3627823031, 3627823028], "tags": {"amenity": "school", "mascot": "Panthers", "name": "Panther Lake Elementary School", "operator:type": "public", "website": "https://www.kent.k12.wa.us/o/ple"}}, {"type": "way", "id": 360427874, "nodes": [3649743251, 3649743252, 3649743253, 3649743254, 3649743251], "tags": {"amenity": "parking"}}, {"type": "way", "id": 364223393, "nodes": [3682824492, 3682824493, 3682824494, 3682824495, 3682824492], "tags": {"amenity": "parking", "capacity": "8", "fee": "no", "park_ride": "no", "parking": "surface", "supervised": "no"}}, {"type": "way", "id": 364226717, "nodes": [3682846115, 12385603901, 12385565900, 12385565899, 12385565896, 12385565897, 12385565898, 3682846116, 3682846117, 3682846118, 3682846115], "tags": {"access": "yes", "amenity": "parking", "capacity:disabled": "1", "fee": "no", "parking": "surface"}}, {"type": "way", "id": 410978238, "nodes": [4127237846, 4127237845, 4127237850, 4127237849, 4127237848, 6023938360, 3675503764, 4127237847, 4127237846], "tags": {"addr:city": "Kent", "addr:housenumber": "24060", "addr:postcode": "98030", "addr:state": "WA", "addr:street": "104th Avenue Southeast", "amenity": "restaurant", "brand": "IHOP", "brand:wikidata": "Q1185675", "building": "retail", "check_date": "2025-08-08", "cuisine": "breakfast;pancake", "name": "IHOP", "opening_hours": "07:00-22:00", "payment:cash": "yes", "payment:credit_cards": "yes", "payment:debit_cards": "yes", "phone": "+1-844-428-8830"}}, {"type": "way", "id": 410978239, "nodes": [4127237854, 5469428694, 3675504930, 4127237852, 5469428695, 4127237851, 4127237854], "tags": {"addr:city": "Kent", "addr:housenumber": "24037", "addr:postcode": "98030", "addr:state": "WA", "addr:street": "104th Avenue Southeast", "brand": "Jiffy Lube", "brand:wikidata": "Q6192247", "building": "yes", "check_date": "2025-08-08", "name": "Jiffy Lube", "shop": "car_repair"}}, {"type": "way", "id": 410978247, "nodes": [4127238199, 3675503763, 4127238201, 4127238200, 6023941192, 6023941185, 6023941183, 6023941188, 4127238199], "tags": {"addr:city": "Kent", "addr:housenumber": "24020", "addr:postcode": "98030", "addr:state": "WA", "addr:street": "104th Avenue Southeast", "amenity": "restaurant", "building": "yes", "check_date": "2025-08-08", "cuisine": "mexican", "name": "Mexi-Drive Mexican Restaurant", "opening_hours": "24/7", "payment:cash": "yes", "payment:credit_cards": "yes", "payment:debit_cards": "yes", "phone": "+1-253-999-3733", "website": "https://www.mexidrivekent.com/"}}, {"type": "way", "id": 410978248, "nodes": [3618096322, 4127238202, 6023942025, 6023942018, 4127238205, 6023942022, 6023942020, 6023942012, 6023942010, 4127238204, 6023942014, 6023942005, 3618096322], "tags": {"addr:city": "Kent", "addr:housenumber": "10255", "addr:postcode": "98031", "addr:state": "WA", "addr:street": "Southeast 240th Street", "brand": "7-Eleven", "brand:wikidata": "Q259340", "building": "yes", "check_date": "2025-08-08", "name": "7-Eleven", "shop": "convenience", "short_name": "Kangaroo"}}, {"type": "way", "id": 410978249, "nodes": [4127238209, 4127238208, 3618096321, 4127238206, 4127238209], "tags": {"amenity": "fuel", "brand": "7-Eleven", "brand:wikidata": "Q259340", "building": "yes", "check_date": "2025-08-08", "name": "7-Eleven", "short_name": "Kangaroo"}}, {"type": "way", "id": 410978251, "nodes": [4127238216, 4127238215, 3618095589, 4127238217, 4127238216], "tags": {"amenity": "fuel", "brand": "Fred Meyer", "brand:wikidata": "Q5495932", "building": "roof", "check_date": "2025-08-08", "name": "Fred Meyer Fuel Center", "opening_hours": "24/7", "payment:cash": "yes", "payment:credit_cards": "yes", "payment:debit_cards": "yes"}}, {"type": "way", "id": 410978694, "nodes": [4127243172, 5239097732, 3618096316, 4127243170, 6014520513, 6014520504, 6014520506, 6014520508, 5239097731, 4127243173, 4127243172], "tags": {"addr:city": "Kent", "addr:housenumber": "23953", "addr:postcode": "98031", "addr:state": "WA", "addr:street": "104th Avenue Southeast", "amenity": "fuel", "brand": "Shell", "brand:wikidata": "Q110716465", "building": "yes", "check_date": "2025-08-08", "compressed_air": "no", "name": "Shell", "opening_hours": "24/7", "payment:cash": "yes", "payment:credit_cards": "yes", "payment:debit_cards": "yes"}}, {"type": "way", "id": 410978695, "nodes": [4127243176, 4127243175, 4127243174, 4127243183, 4127243182, 4127243181, 5205872305, 4127243180, 4127243179, 5205872306, 4127243178, 3618096314, 4127243176], "tags": {"addr:city": "Kent", "addr:housenumber": "10231", "addr:postcode": "98031", "addr:state": "WA", "addr:street": "Southeast 240th Street", "amenity": "bank", "brand": "U.S. Bank", "brand:wikidata": "Q739084", "building": "yes", "check_date": "2025-08-08", "name": "U.S. Bank", "opening_hours": "Mo-Fr 09:00-17:00; Sa 09:00-13:00"}}, {"type": "way", "id": 410978698, "nodes": [4127243294, 4127243295, 4127243296, 3618096323, 4127243294], "tags": {"addr:city": "Kent", "addr:housenumber": "23911", "addr:postcode": "98031", "addr:state": "WA", "addr:street": "104th Avenue Southeast", "amenity": "fast_food", "brand": "Jack in the Box", "brand:wikidata": "Q1538507", "building": "yes", "check_date": "2025-08-08", "cuisine": "burger", "name": "Jack in the Box", "opening_hours": "24/7", "opening_hours:drive_through": "24/7", "payment:cash": "yes", "payment:credit_cards": "yes", "payment:debit_cards": "yes", "phone": "+1-253-854-3044", "takeaway": "yes", "website": "https://locations.jackinthebox.com/us/wa/kent/23911-104th-ave-se"}}, {"type": "way", "id": 410978704, "nodes": [3618175322, 4127243327, 4127243328, 4127243329, 3618175322], "tags": {"addr:city": "Kent", "addr:housenumber": "10715", "addr:postcode": "98031", "addr:state": "WA", "addr:street": "Southeast 240th Street", "amenity": "fuel", "brand": "Chevron", "brand:wikidata": "Q319642", "building": "roof", "check_date": "2025-08-08", "name": "Chevron", "opening_hours": "24/7", "payment:cash": "yes", "payment:credit_cards": "yes", "payment:debit_cards": "yes"}}, {"type": "way", "id": 419642938, "nodes": [4196672963, 4196673094, 4196673093, 4196672962, 4816919622, 4196672938, 4196672939, 4196672963], "tags": {"amenity": "place_of_worship", "denomination": "baptist", "name": "Galilee Baptist Church", "name:en": "Galilee Baptist Church", "religion": "christian", "website": "https://www.gbcinkent.com/"}}, {"type": "way", "id": 419642940, "nodes": [4196672897, 356552212, 4196672907, 4731529160, 4196672906, 4731529157, 4196672755, 4196672756, 4196672897], "tags": {"amenity": "school", "ele": "141", "gnis:feature_id": "2494338", "name": "Emerald Park Elementary School"}}, {"type": "way", "id": 419642941, "nodes": [4196673103, 4196673105, 4931779401, 4196673104, 356541748, 4196673102, 4196673103], "tags": {"addr:city": "Kent", "addr:housenumber": "12430", "addr:postcode": "98031", "addr:state": "WA", "addr:street": "SE 208th St", "amenity": "school", "education": "school", "ele": "151", "gnis:feature_id": "1510115", "grades": "9-12", "mascot": "Chargers", "name": "Kentridge High School", "website": "https://www.kent.k12.wa.us/o/krhs", "wikidata": "Q6392109"}}, {"type": "way", "id": 422782122, "nodes": [4225090655, 4225090596, 4225090595, 356548071, 4225090655], "tags": {"amenity": "school", "ele": "146", "gnis:feature_id": "1531277", "name": "Soos Creek Elementary School"}}, {"type": "way", "id": 444508781, "nodes": [4419856987, 4419856988, 6014521247, 6014521249, 4419856985, 6014521240, 6014521242, 4419856986, 4419856987], "tags": {"addr:city": "Kent", "addr:housenumber": "23819", "addr:postcode": "98031", "addr:state": "WA", "addr:street": "104th Avenue Southeast", "amenity": "restaurant", "building": "yes", "check_date": "2025-08-08", "cuisine": "pizza", "delivery": "yes", "indoor_seating": "no", "name": "Can-Am Pizza", "opening_hours": "Mo-Th 15:00-23:00; Fr-Su 11:00-23:00", "outdoor_seating": "no", "phone": "+1-253-856-7777", "takeaway": "only", "toilets:access": "private", "toilets:num_chambers": "1", "toilets:unisex": "yes", "website": "https://www.canampizza.com"}}, {"type": "way", "id": 471658025, "nodes": [4658184149, 4658184150, 4658184157, 4658184156, 4658184151, 4658184152, 4931779689, 4658184153, 4658184154, 4658184155, 4658184149], "tags": {"amenity": "place_of_worship", "check_date": "2025-03-18", "denomination": "lutheran", "name": "Lutheran Church of the Cross", "religion": "christian"}}, {"type": "way", "id": 480128406, "nodes": [4731528844, 4731528856, 4731528855, 4731528842, 4731528843, 4731528844], "tags": {"amenity": "place_of_worship", "denomination": "jehovahs_witness", "landuse": "religious", "name": "Kingdom Hall of Jehovah's Witnesses", "religion": "christian"}}, {"type": "way", "id": 496262423, "nodes": [4731528993, 4731528982, 4879724299, 4879724300, 4731528992, 4731528993], "tags": {"amenity": "place_of_worship", "landuse": "religious", "name": "East Hill Friends Church", "religion": "christian"}}, {"type": "way", "id": 496262431, "nodes": [4731529141, 4879724301, 4879724302, 4731529147, 4731529142, 4731529141], "tags": {"amenity": "place_of_worship", "landuse": "religious", "name": "New Heights Christian Church", "religion": "christian"}}, {"type": "way", "id": 500861069, "nodes": [4918194051, 11851317920, 11851317921, 4918194050, 4918194049, 4918194048, 4918194047, 4918194046, 4918194051], "tags": {"amenity": "place_of_worship", "check_date": "2023-09-02", "name": "Kent Covenant Church", "religion": "christian"}}, {"type": "way", "id": 500861070, "nodes": [4918194055, 4918194052, 4918194053, 4918194054, 4918194055], "tags": {"amenity": "place_of_worship", "check_date": "2025-03-18", "denomination": "baptist", "name": "Eastridge Baptist Church", "religion": "christian"}}, {"type": "way", "id": 502805087, "nodes": [4931779614, 4931779613, 4931779612, 4931779619, 4931779618, 4931779617, 4931779614], "tags": {"amenity": "place_of_worship", "name": "Grace Fellowship of Kent", "phone": "+1-253-854-4248", "religion": "christian", "website": "https://www.gracekent.org/"}}, {"type": "way", "id": 509623618, "nodes": [4988195443, 4988195442, 4988195441, 5324218456, 4988195440, 4988195443], "tags": {"amenity": "place_of_worship", "name": "Iglesia Ni Cristo - Church of Christ", "religion": "christian", "website": "https://iglesianicristo.net/directory/locales/kent-washington"}}, {"type": "way", "id": 551304563, "nodes": [5324218431, 4196672752, 4196672751, 5324218445, 5324218444, 5324218443, 5324218442, 5324218441, 5324218440, 5324218439, 5324218438, 5324218437, 5324218436, 5324218435, 5324218434, 5324218433, 5324218432, 5324218431], "tags": {"amenity": "place_of_worship", "email": "info@riveroflifefellowship.org", "name": "River of Life Fellowship", "phone": "+1-253-859-0832", "religion": "christian", "website": "https://theriver.church"}}, {"type": "way", "id": 551304574, "nodes": [5324218759, 5324218758, 5324218757, 5324218756, 5324218755, 5324218754, 5324218753, 5324218752, 5324218751, 5324218759], "tags": {"amenity": "school", "name": "Kent Laboratory Academy"}}, {"type": "way", "id": 619737664, "nodes": [5856154469, 5856154470, 5856154471, 5856154472, 5856154469], "tags": {"access": "customers", "amenity": "parking", "fee": "no", "parking": "surface"}}, {"type": "way", "id": 619737665, "nodes": [5856154473, 5856154474, 5856154475, 5856154476, 5856154477, 5856154478, 5856154473], "tags": {"access": "private", "amenity": "parking", "parking": "surface"}}, {"type": "way", "id": 638084698, "nodes": [4292283073, 6014381803, 6014381795, 6014381796, 6014381798, 6014381801, 6014381786, 6014381788, 6014381791, 6014381793, 6014381780, 6014381782, 4292283073], "tags": {"addr:city": "Kent", "addr:housenumber": "23921", "addr:postcode": "98031", "addr:state": "WA", "addr:street": "112th Avenue Southeast", "amenity": "childcare", "building": "yes", "check_date": "2025-03-18", "name": "Guidepost Montessori"}}, {"type": "way", "id": 638084707, "nodes": [6014380577, 6014380579, 6014380563, 6014380565, 6014380570, 6014380573, 6014380556, 6014380558, 6014380560, 6014380562, 13058873302, 6014380553, 6014380554, 6014380555, 6014380542, 6014380544, 6014380577], "tags": {"addr:city": "Kent", "addr:housenumber": "10811", "addr:postcode": "98031", "addr:state": "WA", "addr:street": "Southeast 239th Place", "building": "yes", "check_date": "2025-08-08", "name": "The Groves Apartments Leasing Center", "office": "property_management"}}, {"type": "way", "id": 638107711, "nodes": [6014518286, 6014518183, 6014518182, 3725140961, 6014518285, 6014518184, 6014518181, 6014518286], "tags": {"addr:city": "Kent", "addr:housenumber": "23930", "addr:postcode": "98031", "addr:state": "WA", "addr:street": "102nd Avenue Southeast", "amenity": "cafe", "branch": "102nd Avenue Southeast & South 240th St- Ken", "brand": "Starbucks", "brand:wikidata": "Q37158", "building": "yes", "check_date": "2025-08-08", "cuisine": "coffee_shop", "name": "Starbucks", "official_name": "Starbucks Coffee", "payment:cash": "yes", "payment:credit_cards": "yes", "payment:debit_cards": "yes", "phone": "+1-253-854-0344", "ref": "1006824", "takeaway": "yes", "website": "https://www.starbucks.com/store-locator/store/1006824/102nd-ave-se-s-240th-st-ken-23930-102nd-ave-se-kent-wa-980313386-us"}}, {"type": "way", "id": 638107712, "nodes": [6014518298, 6014518297, 6014518293, 3618095588, 6014518292, 6014518290, 6014518291, 6014518287, 6014518296, 6014518288, 6014518294, 6014518295, 6014518289, 6014518298], "tags": {"addr:city": "Kent", "addr:housenumber": "23920", "addr:postcode": "98031", "addr:state": "WA", "addr:street": "102nd Avenue Southeast", "amenity": "fast_food", "brand": "Popeyes", "brand:wikidata": "Q1330910", "building": "yes", "check_date": "2025-08-08", "cuisine": "chicken", "delivery": "yes", "drive_through": "yes", "indoor_seating": "yes", "name": "Popeyes", "official_name": "Popeyes Louisiana Kitchen", "opening_hours": "10:00-21:00", "payment:cash": "yes", "payment:credit_cards": "yes", "payment:debit_cards": "yes", "phone": "+1-253-856-1173", "takeaway": "yes", "website": "https://www.popeyes.com/store-locator/store/restaurant_84842"}}, {"type": "way", "id": 638107717, "nodes": [6014521181, 6014521190, 6014521156, 6014521160, 13058873338, 6014521171, 6014521181], "tags": {"amenity": "cafe", "building": "yes", "check_date": "2025-08-08", "cuisine": "coffee_shop", "name": "Pink Devil Espresso"}}, {"type": "way", "id": 638107760, "nodes": [6014518727, 3618096317, 8433760033, 6014518730, 6014518722, 6014518723, 6014518724, 8433760034, 6014518727], "tags": {"amenity": "car_wash", "building": "yes", "check_date": "2025-08-08", "name": "Car Wash"}}, {"type": "way", "id": 638107785, "nodes": [6014521340, 6014521327, 6014521329, 6014521331, 6014521336, 6014521319, 3725140970, 6014521323, 6014521340], "tags": {"addr:city": "Kent", "addr:housenumber": "10016", "addr:postcode": "98031", "addr:state": "WA", "addr:street": "Southeast 240th Street", "amenity": "childcare", "building": "yes", "check_date": "2025-08-08", "name": "Spring Glen Academy", "opening_hours": "05:30-20:00", "phone": "+1-253-854-2790"}}, {"type": "way", "id": 638107816, "nodes": [6014518317, 6014518305, 3725140962, 6014518308, 6014518310, 6014518299, 6014518317], "tags": {"addr:city": "Kent", "addr:housenumber": "10218", "addr:postcode": "98031", "addr:state": "WA", "addr:street": "Southeast 240th Street", "amenity": "restaurant", "building": "commercial", "check_date": "2025-07-26", "cuisine": "mexican", "name": "Yoli"}}, {"type": "way", "id": 638130288, "nodes": [6014683687, 6014683686, 6014683682, 6014683679, 6014683661, 6014683657, 6014683655, 6014683653, 6014683669, 6014683667, 6014683666, 6014683664, 6014683651, 6014683650, 6014683649, 6014683648, 6014683687], "tags": {"addr:city": "Kent", "addr:housenumber": "24006", "addr:postcode": "98030", "addr:state": "WA", "addr:street": "108th Place Southeast", "building": "yes", "name": "Bower Apartments Leasing Center", "office": "property_management"}}, {"type": "way", "id": 638133785, "nodes": [6014717224, 6014717225, 6014717218, 4388492993, 6014717219, 6014717220, 6014717214, 6014717215, 6014717216, 6014717217, 6014717224], "tags": {"addr:city": "Kent", "addr:housenumber": "23636", "addr:postcode": "98031", "addr:state": "WA", "addr:street": "104th Avenue Southeast", "addr:unit": "#1", "building": "yes", "check_date": "2025-08-08", "name": "Save-U-More", "name:en": "Save-U-More", "opening_hours": "Mo-Sa 08:00-20:00,Su 09:00-19:00", "payment:cash": "yes", "payment:contactless": "yes", "payment:credit_cards": "yes", "payment:debit_cards": "yes", "shop": "supermarket"}}, {"type": "way", "id": 638133820, "nodes": [6014716488, 6014716490, 6014716491, 10905329988, 6014716493, 6014716484, 10905329989, 3618096324, 6014716485, 6014716486, 6014716480, 6014716481, 6014716482, 6014716483, 6014716488], "tags": {"addr:city": "Kent", "addr:housenumber": "23630", "addr:postcode": "98031", "addr:state": "WA", "addr:street": "104th Avenue Southeast", "amenity": "bank", "brand": "Chase", "brand:wikidata": "Q524629", "building": "yes", "check_date": "2024-09-17", "check_date:opening_hours": "2024-09-17", "name": "Chase", "opening_hours": "Mo-Fr 09:00-17:00; Sa 09:00-13:00; Su closed", "phone": "+1-253-854-8260", "website": "https://locator.chase.com/wa/kent/23630-104th-ave-se"}}, {"type": "way", "id": 638134020, "nodes": [6014713411, 6014713396, 6014713399, 6014713402, 6014713405, 4388479991, 6014713389, 6014713391, 6014713392, 6014713380, 6014713381, 6014713382, 6014713384, 6014713372, 6014713374, 6014713377, 6014713411], "tags": {"addr:city": "Kent", "addr:housenumber": "10624", "addr:postcode": "98031", "addr:state": "WA", "addr:street": "Southeast 240th Street", "brand": "Firestone", "brand:wikidata": "Q420837", "building": "commercial", "check_date": "2025-08-08", "name": "Firestone", "name:en": "Firestone", "official_name": "Firestone Complete Auto Care", "opening_hours": "Mo-Fr 07:00-18:00; Sa-Su 09:00-17:00", "payment:cash": "yes", "payment:credit_cards": "yes", "payment:debit_cards": "yes", "shop": "car_repair"}}, {"type": "way", "id": 638134319, "nodes": [6014715960, 6014715956, 6014715957, 6014715958, 6014715959, 6014715952, 6014715953, 6014715954, 6014715960], "tags": {"addr:city": "Kent", "addr:housenumber": "23810", "addr:postcode": "98031", "addr:state": "WA", "addr:street": "104th Avenue Southeast", "amenity": "restaurant", "building": "yes", "check_date": "2025-08-08", "cuisine": "italian", "name": "Paolo's Italian Restaurant", "opening_hours": "Mo-Th 11:30-20:00; Fr 11:30-21:00; Sa 16:00-21:00; Su 16:00-19:30", "payment:cash": "yes", "payment:credit_cards": "yes", "payment:debit_cards": "yes", "phone": "+1-253-850-2233", "website": "https://www.paolositalian.com/"}}, {"type": "way", "id": 638804341, "nodes": [6020145943, 6020145945, 6020145938, 3649743432, 6020145943], "tags": {"amenity": "fuel", "brand": "7-Eleven", "brand:wikidata": "Q259340", "building": "yes", "name": "7-Eleven"}}, {"type": "way", "id": 638804371, "nodes": [6020146563, 6020138214, 6020146556, 6020146547, 3649743431, 6020146540, 6020146563], "tags": {"addr:city": "Kent", "addr:housenumber": "20727", "addr:postcode": "98031", "addr:state": "WA", "addr:street": "108th Avenue Southeast", "brand": "7-Eleven", "brand:wikidata": "Q259340", "building": "yes", "contact:website": "https://www.7-eleven.com/locations/wa/kent/20727-108th-ave-se-38807", "name": "7-Eleven", "shop": "convenience"}}, {"type": "way", "id": 638881546, "nodes": [6020783501, 6020783502, 6020783503, 6020783504, 6020783501], "tags": {"addr:city": "Kent", "addr:housenumber": "20855", "addr:postcode": "98031", "addr:state": "WA", "addr:street": "108th Avenue Southeast", "building": "yes", "name": "Kara's Kakes", "shop": "bakery"}}, {"type": "way", "id": 638881561, "nodes": [6020785108, 6020785109, 6020785110, 6020785111, 6020785112, 6020785113, 5610483622, 6020785108], "tags": {"addr:city": "Kent", "addr:housenumber": "20845", "addr:postcode": "98031", "addr:state": "WA", "addr:street": "108th Avenue Southeast", "after_school": "yes", "alt_name": "KinderCare Learning Center", "amenity": "kindergarten", "brand": "KinderCare", "brand:wikidata": "Q6410551", "building": "yes", "fee": "yes", "isced:level": "0", "name": "KinderCare", "nursery": "yes", "preschool": "yes"}}, {"type": "way", "id": 639254303, "nodes": [6023942253, 6023942251, 6023942241, 6023942239, 6023942245, 6023942243, 6023942233, 6023942231, 6023942237, 6023942235, 6023942253], "tags": {"addr:city": "Kent", "addr:housenumber": "10625", "addr:postcode": "98031", "addr:state": "WA", "addr:street": "Southeast 240th Street", "building": "yes", "check_date": "2025-08-08", "name": "Kent East Hill Self Storage", "opening_hours": "09:00-18:00", "shop": "storage_rental"}}, {"type": "way", "id": 639254305, "nodes": [6023942719, 6023942727, 6023942724, 6023942713, 6023942711, 6023942717, 6023942715, 6023942705, 13058927258, 6023942677, 6023942680, 6023942679, 4388479897, 6023942669, 6023942675, 6023942673, 6023942665, 13058927257, 6023942719], "tags": {"addr:city": "Kent", "addr:housenumber": "24034", "addr:postcode": "98030", "addr:state": "WA", "addr:street": "104th Avenue Southeast", "brand": "Value Village", "brand:wikidata": "Q7428188", "building": "yes", "check_date": "2025-08-08", "name": "Value Village", "opening_hours": "10:00-19:00", "payment:cash": "yes", "payment:credit_cards": "yes", "payment:debit_cards": "yes", "shop": "second_hand"}}, {"type": "way", "id": 639254394, "nodes": [6023940660, 6023940657, 6023940656, 6023940659, 6023940658, 6023940653, 6023940652, 6023940655, 6023940654, 13058827495, 6023940660], "tags": {"addr:city": "Kent", "addr:housenumber": "24625", "addr:postcode": "98030", "addr:state": "WA", "addr:street": "104th Avenue Southeast", "building": "yes", "check_date": "2025-08-08", "name": "Seattle Myanmar Buddhist Association", "office": "religion"}}, {"type": "way", "id": 639254412, "nodes": [6023942024, 6023942027, 6023942026, 6023942019, 6023942017, 6023942023, 6023942021, 6023942013, 6023942011, 6023942016, 6023942015, 6023942006, 6023942003, 6023942009, 13058827496, 6023941996, 6023942024], "tags": {"addr:city": "Kent", "addr:housenumber": "24615", "addr:postcode": "98030", "addr:state": "WA", "addr:street": "104th Avenue Southeast", "building": "yes", "check_date": "2025-08-08", "name": "Victory Golf Repair", "phone": "+1-206-432-0908", "shop": "sports"}}, {"type": "way", "id": 639254528, "nodes": [6023942147, 6023942153, 6023942151, 6023942139, 6023942137, 6023942146, 6023942143, 6023942128, 6023942127, 6023942135, 6023942131, 13058873341, 6023942147], "tags": {"addr:city": "Kent", "addr:housenumber": "24511", "addr:postcode": "98030", "addr:state": "WA", "addr:street": "104th Avenue Southeast", "amenity": "place_of_worship", "building": "yes", "check_date": "2025-08-08", "name": "Hoi Thanh Tin-Lanh Kent Vietnamese Bible Fellowship Church", "phone": "+1-253-856-1378", "religion": "christian"}}, {"type": "way", "id": 639254551, "nodes": [6023938017, 6023938019, 6023938018, 6023938014, 13058873361, 6023938016, 6023938015, 6023938010, 6023938017], "tags": {"addr:city": "Kent", "addr:housenumber": "24415", "addr:postcode": "98030", "addr:state": "WA", "addr:street": "104th Avenue Southeast", "amenity": "childcare", "building": "yes", "check_date": "2025-08-08", "name": "Inspire Childcare Center", "phone": "+1-206-750-7542"}}, {"type": "way", "id": 639254627, "nodes": [6023940990, 6023940995, 6023940994, 4907019105, 6023940990], "tags": {"addr:city": "Kent", "addr:housenumber": "10314", "addr:postcode": "98030", "addr:state": "WA", "addr:street": "Southeast 244th Street", "building": "yes", "check_date": "2025-08-08", "name": "Saggu Automotive Repair", "shop": "car_repair"}}, {"type": "way", "id": 639254633, "nodes": [6023941632, 6023941630, 6023941620, 6023941617, 6023941626, 6023941623, 6023941605, 6023941602, 6023941614, 6023941610, 6023941593, 6023941589, 6023941632], "tags": {"addr:city": "Kent", "addr:housenumber": "10434", "addr:postcode": "98030", "addr:state": "WA", "addr:street": "Southeast 244th Street", "building": "yes", "check_date": "2025-08-08", "name": "Public Storage", "shop": "storage_rental"}}, {"type": "way", "id": 639254640, "nodes": [13058873336, 6023941733, 6023941736, 6023941735, 13058873336], "tags": {"addr:city": "Kent", "addr:housenumber": "10422", "addr:postcode": "98030", "addr:state": "WA", "addr:street": "Southeast 244th Street", "building": "yes", "check_date": "2025-08-08", "name": "Reynolds Advanced Materials", "shop": "trade"}}, {"type": "way", "id": 639254666, "nodes": [6023942580, 3675503823, 6023942583, 6023942573, 6023942572, 6023942578, 6023942576, 6023942564, 6023942580], "tags": {"addr:city": "Kent", "addr:housenumber": "24242", "addr:postcode": "98030", "addr:state": "WA", "addr:street": "104th Avenue Southeast", "brand": "Midas", "brand:wikidata": "Q3312613", "building": "yes", "check_date": "2025-08-08", "name": "East Hill Auto Service", "shop": "car_repair"}}, {"type": "way", "id": 639254698, "nodes": [6023938634, 6023938633, 6023938636, 13058873331, 6023938634], "tags": {"addr:city": "Kent", "addr:housenumber": "24236", "addr:postcode": "98030", "addr:state": "WA", "addr:street": "104th Avenue Southeast", "building": "yes", "check_date": "2025-08-08", "name": "Triz Automovie", "phone": "+1-253-856-1166", "shop": "car_repair"}}, {"type": "way", "id": 640973579, "nodes": [6037498347, 6037498340, 6037498338, 6037498343, 6037498342, 6037498335, 6037498334, 6037498337, 6037498336, 6037498331, 6037498329, 6037498347], "tags": {"access": "yes", "amenity": "toilets", "building": "yes"}}, {"type": "way", "id": 640980453, "nodes": [6037560689, 6037560690, 6037560691, 6037560692, 6037560693, 6037560694, 6037560695, 6037560696, 6037560689], "tags": {"access": "yes", "amenity": "parking", "capacity": "20", "fee": "no", "name": "East Hill Friends Church Park & Ride", "park_ride": "yes", "parking": "surface", "surface": "unpaved"}}, {"type": "way", "id": 647099647, "nodes": [6077950800, 6077950799, 4215787259, 6077950802, 6077950801, 6077950796, 6077950798, 6077950797, 6077950800], "tags": {"addr:city": "Kent", "addr:housenumber": "11024", "addr:postcode": "98031", "addr:state": "WA", "addr:street": "Southeast 208th Street", "brand": "Extra Space Storage", "brand:wikidata": "Q5422162", "building": "yes", "name": "Extra Space Storage", "shop": "storage_rental"}}, {"type": "way", "id": 647099884, "nodes": [6077964600, 3649757549, 6077964597, 6077964596, 6077964599, 6077964598, 6077964352, 6077964351, 6077964354, 6077964353, 6077964600], "tags": {"addr:city": "Kent", "addr:housenumber": "20746", "addr:postcode": "98031", "addr:state": "WA", "addr:street": "108th Avenue Southeast", "amenity": "fast_food", "brand": "Jack in the Box", "brand:wikidata": "Q1538507", "building": "yes", "cuisine": "burger", "name": "Jack in the Box", "opening_hours": "24/7", "phone": "+1-253-852-1529", "takeaway": "yes", "website": "https://locations.jackinthebox.com/us/wa/kent/20746-108th-ave-se"}}, {"type": "way", "id": 649024000, "nodes": [6091927175, 6091927177, 6091927172, 6091927173, 6091927166, 6091927169, 6091927160, 6091927163, 6091927155, 6091927157, 6091927147, 6091927151, 6091927139, 6091927143, 6091927132, 6091927136, 6091927124, 6091927128, 6091927118, 6091927121, 6091927112, 6091927115, 6091927175], "tags": {"addr:city": "Kent", "addr:housenumber": "10615", "addr:postcode": "98031", "addr:state": "WA", "addr:street": "Southeast 216th Street", "amenity": "place_of_worship", "building": "church", "name": "River of Life Church"}}, {"type": "way", "id": 649024193, "nodes": [6091922451, 6091922446, 6091922448, 6091922441, 11851257717, 6091922443, 4931779570, 6091922439, 6091922435, 6091922436, 6091922430, 6091922432, 6091922427, 6091922451], "tags": {"addr:city": "Kent", "addr:housenumber": "23807", "addr:postcode": "98031", "addr:state": "WA", "addr:street": "98th Avenue South", "amenity": "childcare", "building": "yes", "check_date": "2025-07-26", "name": "EuropaKids Preschool"}}, {"type": "way", "id": 713111547, "nodes": [6703618525, 6703618526, 6703618527, 6703618528, 6703618525], "tags": {"access": "yes", "amenity": "parking", "capacity": "20", "fee": "no", "name": "Kent Covenant Church Park & Ride", "park_ride": "yes", "parking": "surface", "surface": "asphalt"}}, {"type": "way", "id": 742059434, "nodes": [5604980822, 6946971233, 6946971234, 6946971235, 5604980822], "tags": {"amenity": "fuel", "brand": "Arco", "brand:wikidata": "Q304769", "building": "roof", "check_date": "2025-10-30", "name": "Arco", "opening_hours": "24/7", "payment:cash": "yes", "payment:credit_cards": "yes", "payment:debit_cards": "yes"}}, {"type": "way", "id": 742059435, "nodes": [5604965124, 8506192803, 6946971236, 6946971237, 6946971238, 5604965124], "tags": {"brand": "ampm", "brand:wikidata": "Q306960", "building": "yes", "name": "ampm", "shop": "convenience"}}, {"type": "way", "id": 742059436, "nodes": [6037557282, 6946971239, 6946971240, 6946971241, 6946971259, 6946971242, 6946971243, 6946971260, 6037557282], "tags": {"amenity": "car_wash", "building": "yes", "check_date": "2025-03-18"}}, {"type": "way", "id": 1265935400, "nodes": [11759385477, 11759385478, 11759385479, 11759385480, 11759385481, 11759385482, 11759385483, 11759385484, 11759385477], "tags": {"amenity": "parking", "operator": "Kent Laboratory Academy"}}, {"type": "way", "id": 1265942117, "nodes": [11759474987, 11759474988, 11759474989, 11759474990, 11759474987], "tags": {"amenity": "parking"}}, {"type": "way", "id": 1265942164, "nodes": [11759396155, 11759396156, 11759396157, 11759396158, 11759396159, 11759396160, 11759396161, 11759396155], "tags": {"amenity": "parking"}}, {"type": "way", "id": 1338979938, "nodes": [12385607901, 12385607902, 12385607903, 12385607904, 12385607905, 12385607906, 12385607907, 12385607908, 12385607909, 12385607910, 12385607911, 12385607912, 12385607913, 12385607914, 12385607915, 12385607916, 12385607901], "tags": {"amenity": "parking", "parking": "surface"}}, {"type": "way", "id": 1421059062, "nodes": [13058904800, 13058904798, 13058904799, 13058873340, 13058904800], "tags": {"amenity": "cafe", "building": "yes", "check_date": "2025-08-08", "cuisine": "coffee_shop", "name": "Arielle's Gourmet Cup", "opening_hours": "Mo-Sa 07:30-15:00; Su 08:00-15:00"}}, {"type": "way", "id": 1421059069, "nodes": [13058927231, 13058927230, 13058927229, 13058927228, 13058927231], "tags": {"amenity": "fast_food", "building": "yes", "cuisine": "mexican", "name": "Taqueria El Manguito"}}]}