{"version": 0.6, "generator": "Overpass API 0.7.62.8 e802775f", "osm3s": {"timestamp_osm_base": "2025-12-13T00:24:06Z", "copyright": "The data included in this document is from www.openstreetmap.org. The data is made available under ODbL."}, "elements": [{"type": "node", "id": 1860475704, "lat": 37.7638956, "lon": -108.9093365, "tags": {"name": "Dove Creek Carhart", "shop": "tyres"}}, {"type": "node", "id": 3262640802, "lat": 37.7652703, "lon": -108.9038058}, {"type": "node", "id": 3262640804, "lat": 37.7652673, "lon": -108.9035239}, {"type": "node", "id": 3262640809, "lat": 37.7653989, "lon": -108.9035218}, {"type": "node", "id": 3262640815, "lat": 37.7655424, "lon": -108.903495}, {"type": "node", "id": 3262640816, "lat": 37.7655433, "lon": -108.9035746}, {"type": "node", "id": 3262640817, "lat": 37.7656286, "lon": -108.9037998}, {"type": "node", "id": 3262640819, "lat": 37.7656254, "lon": -108.9034936}, {"type": "node", "id": 6418199509, "lat": 37.7659272, "lon": -108.9064059}, {"type": "node", "id": 6418199510, "lat": 37.7660205, "lon": -108.9064059}, {"type": "node", "id": 6418199511, "lat": 37.7660205, "lon": -108.9067183}, {"type": "node", "id": 6418199512, "lat": 37.7659272, "lon": -108.9067183}, {"type": "node", "id": 6418199513, "lat": 37.766242, "lon": -108.9067827}, {"type": "node", "id": 6418199514, "lat": 37.7662399, "lon": -108.9060532}, {"type": "node", "id": 6418199515, "lat": 37.7657236, "lon": -108.9060491}, {"type": "node", "id": 6418199516, "lat": 37.7657321, "lon": -108.9067814}, {"type": "node", "id": 6781582527, "lat": 37.7683665, "lon": -108.9094168}, {"type": "node", "id": 6781582528, "lat": 37.7683686, "lon": -108.9093025}, {"type": "node", "id": 6781582529, "lat": 37.768168, "lon": -108.9093036}, {"type": "node", "id": 6781582530, "lat": 37.7681681, "lon": -108.9094178}, {"type": "node", "id": 6784010030, "lat": 37.7638437, "lon": -108.9047186}, {"type": "node", "id": 6784010031, "lat": 37.7635746, "lon": -108.9047137}, {"type": "node", "id": 6784010032, "lat": 37.7635772, "lon": -108.9048701}, {"type": "node", "id": 6784010033, "lat": 37.7636557, "lon": -108.9048717}, {"type": "node", "id": 6784010034, "lat": 37.763657, "lon": -108.9048945}, {"type": "node", "id": 6784010035, "lat": 37.7636956, "lon": -108.9048962}, {"type": "node", "id": 6784010036, "lat": 37.763693, "lon": -108.9048685}, {"type": "node", "id": 6784010037, "lat": 37.7638012, "lon": -108.9048717}, {"type": "node", "id": 6784010038, "lat": 37.7638115, "lon": -108.9048033}, {"type": "node", "id": 6784010039, "lat": 37.7638437, "lon": -108.9048049}, {"type": "node", "id": 6786534273, "lat": 37.7643648, "lon": -108.9038929}, {"type": "node", "id": 6786534274, "lat": 37.7643149, "lon": -108.9039077}, {"type": "node", "id": 6786534275, "lat": 37.764221, "lon": -108.9039046}, {"type": "node", "id": 6786534276, "lat": 37.764235, "lon": -108.9032331}, {"type": "node", "id": 6786534277, "lat": 37.7643784, "lon": -108.9032379}, {"type": "node", "id": 6786534282, "lat": 37.7625073, "lon": -108.904601}, {"type": "node", "id": 6786534283, "lat": 37.7623271, "lon": -108.904601}, {"type": "node", "id": 6786534284, "lat": 37.7623271, "lon": -108.9043237}, {"type": "node", "id": 6786542685, "lat": 37.7625049, "lon": -108.9043267}, {"type": "node", "id": 6786542686, "lat": 37.7649476, "lon": -108.9141956}, {"type": "node", "id": 6786542687, "lat": 37.7646346, "lon": -108.9141954}, {"type": "node", "id": 6786542688, "lat": 37.7646347, "lon": -108.9139421}, {"type": "node", "id": 6786542689, "lat": 37.7646682, "lon": -108.9139421}, {"type": "node", "id": 6786542690, "lat": 37.7646683, "lon": -108.9136761}, {"type": "node", "id": 6786542691, "lat": 37.7648013, "lon": -108.9136761}, {"type": "node", "id": 6786542692, "lat": 37.7648013, "lon": -108.9139539}, {"type": "node", "id": 6786542693, "lat": 37.7648511, "lon": -108.913954}, {"type": "node", "id": 6786542694, "lat": 37.7648511, "lon": -108.9140285}, {"type": "node", "id": 6786542695, "lat": 37.7649476, "lon": -108.9140285}, {"type": "node", "id": 6786542696, "lat": 37.7651932, "lon": -108.9120211}, {"type": "node", "id": 6786542697, "lat": 37.7652899, "lon": -108.9120164}, {"type": "node", "id": 6786542698, "lat": 37.7652834, "lon": -108.9117969}, {"type": "node", "id": 6786542699, "lat": 37.7651866, "lon": -108.9118015}, {"type": "node", "id": 6786542700, "lat": 37.7652033, "lon": -108.9130936}, {"type": "node", "id": 6786542701, "lat": 37.7655148, "lon": -108.9129416}, {"type": "node", "id": 6786542702, "lat": 37.7655926, "lon": -108.9131956}, {"type": "node", "id": 6786542703, "lat": 37.7654125, "lon": -108.9132836}, {"type": "node", "id": 6786542704, "lat": 37.7654323, "lon": -108.9133486}, {"type": "node", "id": 6786542705, "lat": 37.7653543, "lon": -108.9133866}, {"type": "node", "id": 6786542706, "lat": 37.7653414, "lon": -108.9133446}, {"type": "node", "id": 6786542707, "lat": 37.765288, "lon": -108.9133706}, {"type": "node", "id": 6786542712, "lat": 37.7655369, "lon": -108.9129759, "tags": {"name": "Norma's Floral", "shop": "gift"}}, {"type": "node", "id": 6786542713, "lat": 37.7666721, "lon": -108.9138834}, {"type": "node", "id": 6786542714, "lat": 37.766875, "lon": -108.9137773}, {"type": "node", "id": 6786542715, "lat": 37.7669855, "lon": -108.9141135}, {"type": "node", "id": 6786542716, "lat": 37.7667784, "lon": -108.9142232}, {"type": "node", "id": 6786542717, "lat": 37.7662234, "lon": -108.911719}, {"type": "node", "id": 6786542718, "lat": 37.7658261, "lon": -108.9117048}, {"type": "node", "id": 6786542719, "lat": 37.7658233, "lon": -108.9118128}, {"type": "node", "id": 6786542720, "lat": 37.7662248, "lon": -108.911827}, {"type": "node", "id": 6786542721, "lat": 37.7662206, "lon": -108.9120853}, {"type": "node", "id": 6786542722, "lat": 37.7662206, "lon": -108.9119738}, {"type": "node", "id": 6786542723, "lat": 37.7659408, "lon": -108.9119685}, {"type": "node", "id": 6786542724, "lat": 37.7659408, "lon": -108.9120765}, {"type": "node", "id": 6786542735, "lat": 37.76403, "lon": -108.9093175}, {"type": "node", "id": 6786542736, "lat": 37.7638878, "lon": -108.9093152}, {"type": "node", "id": 6786542737, "lat": 37.7638878, "lon": -108.90914}, {"type": "node", "id": 6786542738, "lat": 37.7638528, "lon": -108.90914}, {"type": "node", "id": 6786542739, "lat": 37.7638565, "lon": -108.9086147}, {"type": "node", "id": 6786542740, "lat": 37.7640337, "lon": -108.908617}, {"type": "node", "id": 6786542741, "lat": 37.7645302, "lon": -108.9092988}, {"type": "node", "id": 6786542742, "lat": 37.7643124, "lon": -108.9093035}, {"type": "node", "id": 6786542743, "lat": 37.7643124, "lon": -108.9091074}, {"type": "node", "id": 6786542744, "lat": 37.764521, "lon": -108.909119}, {"type": "node", "id": 6786542745, "lat": 37.7668158, "lon": -108.90892}, {"type": "node", "id": 6786542746, "lat": 37.7668147, "lon": -108.9090742}, {"type": "node", "id": 6786542747, "lat": 37.7670162, "lon": -108.9090675}, {"type": "node", "id": 6786542748, "lat": 37.7670119, "lon": -108.9087859}, {"type": "node", "id": 6786542749, "lat": 37.7669144, "lon": -108.9087792}, {"type": "node", "id": 6786542750, "lat": 37.7669154, "lon": -108.908928}, {"type": "node", "id": 6786542751, "lat": 37.7651801, "lon": -108.908984}, {"type": "node", "id": 6786542752, "lat": 37.7651728, "lon": -108.9091072}, {"type": "node", "id": 6786542753, "lat": 37.7654042, "lon": -108.9091072}, {"type": "node", "id": 6786542754, "lat": 37.7654091, "lon": -108.9089748}, {"type": "node", "id": 6786542755, "lat": 37.7653287, "lon": -108.9089778}, {"type": "node", "id": 6786542756, "lat": 37.7653238, "lon": -108.908947}, {"type": "node", "id": 6786542757, "lat": 37.7652849, "lon": -108.908947}, {"type": "node", "id": 6786542758, "lat": 37.7652824, "lon": -108.9089778}, {"type": "node", "id": 6791397449, "lat": 37.7648618, "lon": -108.9037298}, {"type": "node", "id": 6791397450, "lat": 37.7649702, "lon": -108.9037314}, {"type": "node", "id": 6791397451, "lat": 37.7649702, "lon": -108.9039085}, {"type": "node", "id": 6791397452, "lat": 37.7648643, "lon": -108.9039039}, {"type": "node", "id": 6791397457, "lat": 37.7637972, "lon": -108.9038256}, {"type": "node", "id": 6791397458, "lat": 37.7638266, "lon": -108.9038247}, {"type": "node", "id": 6791397459, "lat": 37.7638273, "lon": -108.9038097}, {"type": "node", "id": 6791397460, "lat": 37.7638832, "lon": -108.9038079}, {"type": "node", "id": 6791397461, "lat": 37.7638832, "lon": -108.9038194}, {"type": "node", "id": 6791397462, "lat": 37.7639595, "lon": -108.9038247}, {"type": "node", "id": 6791397463, "lat": 37.7639532, "lon": -108.9039132}, {"type": "node", "id": 6791397464, "lat": 37.7637965, "lon": -108.9039194}, {"type": "node", "id": 6791397465, "lat": 37.7634119, "lon": -108.9041976}, {"type": "node", "id": 6791397466, "lat": 37.7636242, "lon": -108.9041976}, {"type": "node", "id": 6791397467, "lat": 37.7636269, "lon": -108.9046354}, {"type": "node", "id": 6791397468, "lat": 37.763447, "lon": -108.9046459}, {"type": "node", "id": 6791397469, "lat": 37.763411, "lon": -108.9045326}, {"type": "node", "id": 6821473502, "lat": 37.7685196, "lon": -108.9104983}, {"type": "node", "id": 6821473503, "lat": 37.7684658, "lon": -108.9105095}, {"type": "node", "id": 6821473504, "lat": 37.7684561, "lon": -108.9104333}, {"type": "node", "id": 6821473505, "lat": 37.7685116, "lon": -108.9104241}, {"type": "node", "id": 7103385096, "lat": 37.7653995, "lon": -108.903577}, {"type": "node", "id": 7103386603, "lat": 37.7654561, "lon": -108.9118}, {"type": "node", "id": 7103386604, "lat": 37.7654309, "lon": -108.9117199}, {"type": "node", "id": 7103386605, "lat": 37.7653029, "lon": -108.9117843}, {"type": "node", "id": 7103386606, "lat": 37.765328, "lon": -108.9118644}, {"type": "node", "id": 7103389704, "lat": 37.7658424, "lon": -108.9130375}, {"type": "node", "id": 7103389705, "lat": 37.7658039, "lon": -108.912911}, {"type": "node", "id": 7103389706, "lat": 37.765652, "lon": -108.9129852}, {"type": "node", "id": 7103389707, "lat": 37.7656906, "lon": -108.9131116}, {"type": "node", "id": 7103389860, "lat": 37.76754, "lon": -108.916908}, {"type": "node", "id": 7103389861, "lat": 37.767519, "lon": -108.916818}, {"type": "node", "id": 7103389862, "lat": 37.767442, "lon": -108.916846}, {"type": "node", "id": 7103389863, "lat": 37.767463, "lon": -108.916936}, {"type": "node", "id": 10906021501, "lat": 37.7656257, "lon": -108.9133019}, {"type": "node", "id": 10906021502, "lat": 37.7656043, "lon": -108.9132305}, {"type": "node", "id": 10906021503, "lat": 37.7655239, "lon": -108.913269}, {"type": "node", "id": 10906021504, "lat": 37.7655453, "lon": -108.9133404}, {"type": "node", "id": 10906040405, "lat": 37.7655486, "lon": -108.9130517, "tags": {"entrance": "main"}}, {"type": "node", "id": 12200481098, "lat": 37.7654299, "lon": -108.9039014, "tags": {"amenity": "polling_station", "location": "outdoor", "opening_hours": "24/7", "polling_station": "ballot_box"}}, {"type": "way", "id": 319804064, "nodes": [3262640802, 3262640817, 3262640819, 3262640815, 3262640816, 7103385096, 3262640809, 3262640804, 3262640802], "tags": {"addr:city": "Dove Creek", "addr:housenumber": "409", "addr:street": "North Main Street", "amenity": "courthouse", "building": "yes", "name": "Dolores County Courthouse"}}, {"type": "way", "id": 684982726, "nodes": [6418199512, 6418199511, 6418199510, 6418199509, 6418199512]}, {"type": "way", "id": 684982727, "nodes": [6418199516, 6418199515, 6418199514, 6418199513, 6418199516]}, {"type": "way", "id": 722997505, "nodes": [6781582527, 6781582528, 6781582529, 6781582530, 6781582527], "tags": {"amenity": "community_centre", "building": "yes", "name": "Dove Creek Community Center"}}, {"type": "way", "id": 723277928, "nodes": [6784010030, 6784010031, 6784010032, 6784010033, 6784010034, 6784010035, 6784010036, 6784010037, 6784010038, 6784010039, 6784010030], "tags": {"amenity": "post_office", "building": "yes", "name": "Dove Creek Post Office", "operator": "United States Postal Service", "operator:short": "USPS", "operator:type": "public", "operator:website": "https://www.usps.com", "operator:wikidata": "Q668687", "operator:wikipedia": "en:United States Postal Service"}}, {"type": "way", "id": 723573655, "nodes": [6786534273, 6786534274, 6786534275, 6786534276, 6786534277, 6786534273], "tags": {"amenity": "place_of_worship", "building": "yes", "name": "First Baptist Church", "religion": "christian", "website": "https://www.firstbaptistofdovecreek.com/"}}, {"type": "way", "id": 723573657, "nodes": [6786534282, 6786534283, 6786534284, 6786542685, 6786534282], "tags": {"amenity": "fire_station", "building": "yes", "name": "Dove Creek Volunteer Fire Dept"}}, {"type": "way", "id": 723573658, "nodes": [6786542686, 6786542687, 6786542688, 6786542689, 6786542690, 6786542691, 6786542692, 6786542693, 6786542694, 6786542695, 6786542686], "tags": {"amenity": "clinic", "building": "yes", "healthcare": "clinic"}}, {"type": "way", "id": 723573659, "nodes": [6786542696, 6786542697, 6786542698, 6786542699, 6786542696], "tags": {"addr:city": "Dove Creek", "addr:housenumber": "419", "addr:postcode": "81324", "addr:state": "CO", "addr:street": "West Highway 491", "building": "yes", "name": "Dino Mart", "shop": "convenience"}}, {"type": "way", "id": 723573660, "nodes": [6786542700, 6786542701, 10906040405, 6786542702, 6786542703, 6786542704, 6786542705, 6786542706, 6786542707, 6786542700], "tags": {"addr:city": "Dove Creek", "addr:housenumber": "445", "addr:postcode": "81324", "addr:state": "CO", "addr:street": "West Highway 491", "building": "yes", "name": "Dove Creek Superette", "phone": "+1-970-677-2336", "shop": "supermarket"}}, {"type": "way", "id": 723573662, "nodes": [6786542713, 6786542714, 6786542715, 6786542716, 6786542713], "tags": {"addr:housenumber": "486", "addr:state": "CO", "addr:street": "Highway 491", "brand": "Family Dollar", "brand:wikidata": "Q5433101", "building": "yes", "name": "Family Dollar", "shop": "variety_store"}}, {"type": "way", "id": 723573663, "nodes": [6786542717, 6786542718, 6786542719, 6786542720, 6786542717], "tags": {"building": "yes", "name": "San Juan Storage", "shop": "storage_rental"}}, {"type": "way", "id": 723573664, "nodes": [6786542721, 6786542722, 6786542723, 6786542724, 6786542721], "tags": {"building": "yes", "name": "San Juan Storage", "shop": "storage_rental"}}, {"type": "way", "id": 723573666, "nodes": [6786542735, 6786542736, 6786542737, 6786542738, 6786542739, 6786542740, 6786542735], "tags": {"building": "yes", "name": "Carhart Feed & Seed", "shop": "agrarian"}}, {"type": "way", "id": 723573667, "nodes": [6786542741, 6786542742, 6786542743, 6786542744, 6786542741], "tags": {"amenity": "bank", "building": "yes", "name": "Community Banks of Colorado"}}, {"type": "way", "id": 723573668, "nodes": [6786542745, 6786542746, 6786542747, 6786542748, 6786542749, 6786542750, 6786542745], "tags": {"amenity": "place_of_worship", "building": "yes", "religion": "christian"}}, {"type": "way", "id": 723573669, "nodes": [6786542751, 6786542752, 6786542753, 6786542754, 6786542755, 6786542756, 6786542757, 6786542758, 6786542751], "tags": {"amenity": "place_of_worship", "building": "yes", "religion": "christian"}}, {"type": "way", "id": 724156568, "nodes": [6791397449, 6791397450, 6791397451, 6791397452, 6791397449], "tags": {"building": "yes", "name": "Dove Creek Press", "office": "newspaper"}}, {"type": "way", "id": 724156570, "nodes": [6791397457, 6791397458, 6791397459, 6791397460, 6791397461, 6791397462, 6791397463, 6791397464, 6791397457], "tags": {"building": "yes", "shop": "hairdresser"}}, {"type": "way", "id": 724156571, "nodes": [6791397465, 6791397466, 6791397467, 6791397468, 6791397469, 6791397465], "tags": {"brand": "Ace Hardware", "brand:wikidata": "Q4672981", "building": "yes", "name": "Ace Hardware", "shop": "doityourself"}}, {"type": "way", "id": 727924763, "nodes": [6821473502, 6821473503, 6821473504, 6821473505, 6821473502], "tags": {"amenity": "toilets", "building": "yes"}}, {"type": "way", "id": 760416554, "nodes": [7103386606, 7103386605, 7103386604, 7103386603, 7103386606], "tags": {"addr:city": "Dove Creek", "addr:housenumber": "419", "addr:postcode": "81324", "addr:state": "CO", "addr:street": "West Highway 491", "amenity": "fuel", "brand": "Sinclair", "brand:wikidata": "Q1290900", "building": "yes", "check_date": "2024-09-25", "diesel": "yes", "name": "Sinclair", "opening_hours": "24/7", "phone": "+1-970-677-3300", "website": "https://stations.sinclairoil.com/co/dove-creek/419-w-highway-491"}}, {"type": "way", "id": 760417207, "nodes": [7103389707, 7103389706, 7103389705, 7103389704, 7103389707], "tags": {"addr:city": "Dove Creek", "addr:housenumber": "445", "addr:postcode": "81324", "addr:state": "CO", "addr:street": "US Highway 491", "amenity": "fuel", "brand": "Conoco", "brand:wikidata": "Q109341187", "building": "roof", "fuel:diesel": "yes", "layer": "1", "name": "Conoco", "payment:contactless": "unknown", "phone": "+1-970-677-2336", "website": "https://www.conoco.com/station/CON-DOVE-CREEK-SUPERETTE-0000882628/"}}, {"type": "way", "id": 760417240, "nodes": [7103389863, 7103389862, 7103389861, 7103389860, 7103389863], "tags": {"amenity": "cafe", "building": "yes", "name": "Dove Creek Dinner Bell"}}, {"type": "way", "id": 1173784981, "nodes": [10906021501, 10906021502, 10906021503, 10906021504, 10906021501], "tags": {"building": "yes", "building:levels": "1", "self_service": "yes", "shop": "laundry"}}, {"type": "relation", "id": 9503862, "members": [{"type": "way", "ref": 684982727, "role": "outer"}, {"type": "way", "ref": 684982726, "role": "inner"}], "tags": {"addr:city": "Dove Creek", "addr:country": "US", "addr:housenumber": "432", "addr:postcode": "81324", "addr:state": "CO", "addr:street": "North Pine Street", "amenity": "place_of_worship", "denomination": "roman_catholic", "description": "A member of the Montelores Catholic Community", "name": "Saint Jude Catholic Church", "note": "Mail goes to:28 East Montezuma Avenue, Cortez, CO 81321-3299", "phone": "+1-970-565-7308", "religion": "christian", "type": "multipolygon"}}]}