{"version": 0.6, "generator": "Overpass API 0.7.62.8 e802775f", "osm3s": {"timestamp_osm_base": "2025-12-12T16:47:24Z", "copyright": "The data included in this document is from www.openstreetmap.org. The data is made available under ODbL."}, "elements": [{"type": "node", "id": 358945802, "lat": 38.7988411, "lon": -107.7208789}, {"type": "node", "id": 358945805, "lat": 38.7977627, "lon": -107.7192757, "tags": {"amenity": "place_of_worship", "denomination": "baptist", "ele": "1622", "gnis:feature_id": "1795149", "name": "Bible Baptist Church", "religion": "christian"}}, {"type": "node", "id": 358945807, "lat": 38.8019293, "lon": -107.7150587, "tags": {"amenity": "school", "ele": "1630", "gnis:feature_id": "1795152", "name": "Hotchkiss Elementary School"}}, {"type": "node", "id": 358945809, "lat": 38.8017948, "lon": -107.7158058, "tags": {"amenity": "school", "ele": "1631", "gnis:feature_id": "1795153", "name": "Hotchkiss High School"}}, {"type": "node", "id": 358945812, "lat": 38.7994292, "lon": -107.7220033, "tags": {"amenity": "place_of_worship", "ele": "1623", "gnis:feature_id": "1795156", "name": "Church of God", "religion": "christian"}}, {"type": "node", "id": 358945814, "lat": 38.7997069, "lon": -107.7233922, "tags": {"amenity": "place_of_worship", "denomination": "baptist", "ele": "1624", "gnis:feature_id": "1795158", "name": "First Baptist Church of Hotchkiss", "religion": "christian"}}, {"type": "node", "id": 358945817, "lat": 38.8002626, "lon": -107.7195032, "tags": {"amenity": "place_of_worship", "denomination": "methodist", "ele": "1627", "gnis:feature_id": "1795159", "name": "Hotchkiss Community United Methodist Church", "religion": "christian"}}, {"type": "node", "id": 366395576, "lat": 38.799707, "lon": -107.7217255, "tags": {"addr:state": "CO", "amenity": "library", "ele": "1624", "gnis:feature_id": "1795154", "name": "Hotchkiss Public Library"}}, {"type": "node", "id": 366395721, "lat": 38.7999848, "lon": -107.7214476, "tags": {"addr:state": "CO", "amenity": "place_of_worship", "ele": "1625", "gnis:feature_id": "1795157", "name": "Lighthouse Christian Center", "religion": "christian"}}, {"type": "node", "id": 366395949, "lat": 38.8002625, "lon": -107.7247811, "tags": {"addr:state": "CO", "amenity": "townhall", "ele": "1629", "gnis:feature_id": "1795145", "name": "Hotchkiss Town Hall"}}, {"type": "node", "id": 5150926123, "lat": 38.8001807, "lon": -107.7131956, "tags": {"amenity": "restaurant", "name": "Saddleback"}}, {"type": "node", "id": 5329822933, "lat": 38.7998566, "lon": -107.7126913}, {"type": "node", "id": 5329822934, "lat": 38.7998508, "lon": -107.7121957}, {"type": "node", "id": 5329822935, "lat": 38.7997517, "lon": -107.7121976}, {"type": "node", "id": 5329822936, "lat": 38.7997508, "lon": -107.7121223}, {"type": "node", "id": 5329822937, "lat": 38.7994161, "lon": -107.7121287}, {"type": "node", "id": 5329822938, "lat": 38.7994227, "lon": -107.7126995}, {"type": "node", "id": 6419940201, "lat": 38.7987771, "lon": -107.7260821, "tags": {"entrance": "yes"}}, {"type": "node", "id": 6419940202, "lat": 38.7986643, "lon": -107.7261642, "tags": {"entrance": "yes"}}, {"type": "node", "id": 6419940213, "lat": 38.7987951, "lon": -107.7262013}, {"type": "node", "id": 6419940214, "lat": 38.7987947, "lon": -107.726082}, {"type": "node", "id": 6419940215, "lat": 38.7986872, "lon": -107.7260827}, {"type": "node", "id": 6419940216, "lat": 38.7986873, "lon": -107.7261011}, {"type": "node", "id": 6419940217, "lat": 38.7986641, "lon": -107.7261012}, {"type": "node", "id": 6419940218, "lat": 38.7986644, "lon": -107.7262021}, {"type": "node", "id": 6777802529, "lat": 38.7988157, "lon": -107.7107562}, {"type": "node", "id": 6777802530, "lat": 38.7988153, "lon": -107.7105834}, {"type": "node", "id": 6777802531, "lat": 38.7987528, "lon": -107.7105837}, {"type": "node", "id": 6777802532, "lat": 38.7987526, "lon": -107.7105067}, {"type": "node", "id": 6777802533, "lat": 38.7986125, "lon": -107.7105073}, {"type": "node", "id": 6777802534, "lat": 38.7986131, "lon": -107.710757}, {"type": "node", "id": 7392961269, "lat": 38.7987188, "lon": -107.718511}, {"type": "node", "id": 7392961270, "lat": 38.7987685, "lon": -107.7185112}, {"type": "node", "id": 7392961271, "lat": 38.7987186, "lon": -107.7185901}, {"type": "node", "id": 7392961272, "lat": 38.7987683, "lon": -107.7185902}, {"type": "node", "id": 7392961273, "lat": 38.7987186, "lon": -107.7186162}, {"type": "node", "id": 7392961274, "lat": 38.7987189, "lon": -107.7184887}, {"type": "node", "id": 7392961275, "lat": 38.7987685, "lon": -107.7184889}, {"type": "node", "id": 7392961276, "lat": 38.7987682, "lon": -107.7186164}, {"type": "node", "id": 7392961277, "lat": 38.7986038, "lon": -107.7185106}, {"type": "node", "id": 7392961278, "lat": 38.7987763, "lon": -107.7185113}, {"type": "node", "id": 7392961279, "lat": 38.7987761, "lon": -107.7185903}, {"type": "node", "id": 7392961280, "lat": 38.7986036, "lon": -107.7185896}, {"type": "node", "id": 7393000702, "lat": 38.7991933, "lon": -107.7176364}, {"type": "node", "id": 7393000703, "lat": 38.7991934, "lon": -107.7175796}, {"type": "node", "id": 7393000704, "lat": 38.7992983, "lon": -107.7175799}, {"type": "node", "id": 7393000705, "lat": 38.7992982, "lon": -107.7176367}, {"type": "node", "id": 7393000706, "lat": 38.7993332, "lon": -107.71758}, {"type": "node", "id": 7393000707, "lat": 38.7991892, "lon": -107.7175795}, {"type": "node", "id": 7393000708, "lat": 38.7991894, "lon": -107.7174583}, {"type": "node", "id": 7393000709, "lat": 38.7993334, "lon": -107.7174588}, {"type": "node", "id": 7393000710, "lat": 38.7991802, "lon": -107.7175523}, {"type": "node", "id": 7393000711, "lat": 38.799049, "lon": -107.717554}, {"type": "node", "id": 7393000712, "lat": 38.7990497, "lon": -107.7176411}, {"type": "node", "id": 7393000713, "lat": 38.7991808, "lon": -107.7176394}, {"type": "node", "id": 7393000714, "lat": 38.7992779, "lon": -107.7168922}, {"type": "node", "id": 7393000715, "lat": 38.799204, "lon": -107.7168939}, {"type": "node", "id": 7393000716, "lat": 38.7992023, "lon": -107.7167688}, {"type": "node", "id": 7393000717, "lat": 38.7992762, "lon": -107.7167671}, {"type": "node", "id": 7393000718, "lat": 38.7991531, "lon": -107.7167698}, {"type": "node", "id": 7393000719, "lat": 38.79915, "lon": -107.7165365}, {"type": "node", "id": 7393000720, "lat": 38.799307, "lon": -107.716533}, {"type": "node", "id": 7393000721, "lat": 38.7993102, "lon": -107.7167664}, {"type": "node", "id": 7393017975, "lat": 38.7991338, "lon": -107.7221412}, {"type": "node", "id": 7393017976, "lat": 38.7991338, "lon": -107.7219987}, {"type": "node", "id": 7393017977, "lat": 38.7992062, "lon": -107.7219987}, {"type": "node", "id": 7393017978, "lat": 38.7992062, "lon": -107.7221412}, {"type": "node", "id": 9906628988, "lat": 38.799068, "lon": -107.7216089}, {"type": "node", "id": 9906628989, "lat": 38.7992787, "lon": -107.721608}, {"type": "node", "id": 9906628990, "lat": 38.7990682, "lon": -107.7217068}, {"type": "node", "id": 9906628991, "lat": 38.7992789, "lon": -107.7217059}, {"type": "node", "id": 9906629028, "lat": 38.7987099, "lon": -107.720791}, {"type": "node", "id": 9906629029, "lat": 38.798693, "lon": -107.7207911}, {"type": "node", "id": 9906629030, "lat": 38.7988407, "lon": -107.7207242}, {"type": "node", "id": 9906629031, "lat": 38.7987097, "lon": -107.7207247}, {"type": "node", "id": 9906629033, "lat": 38.7986932, "lon": -107.7208795}, {"type": "node", "id": 10700612057, "lat": 38.798751, "lon": -107.7120977}, {"type": "node", "id": 10700612058, "lat": 38.7985303, "lon": -107.712099}, {"type": "node", "id": 10700612059, "lat": 38.7985297, "lon": -107.7119463}, {"type": "node", "id": 10700612060, "lat": 38.7986656, "lon": -107.7119455}, {"type": "node", "id": 10700612061, "lat": 38.7986653, "lon": -107.7118786}, {"type": "node", "id": 10700612062, "lat": 38.7987269, "lon": -107.7118782}, {"type": "node", "id": 10700612063, "lat": 38.7987271, "lon": -107.7119439}, {"type": "node", "id": 10700612064, "lat": 38.7987504, "lon": -107.7119438}, {"type": "node", "id": 12193570369, "lat": 38.7988507, "lon": -107.7208623, "tags": {"amenity": "post_box"}}, {"type": "node", "id": 12193570371, "lat": 38.7982301, "lon": -107.7222869, "tags": {"amenity": "polling_station", "location": "outdoor", "opening_hours": "24/7", "polling_station": "ballot_box"}}, {"type": "node", "id": 12213397930, "lat": 38.7886149, "lon": -107.6999431}, {"type": "node", "id": 12213397931, "lat": 38.7891573, "lon": -107.7003814}, {"type": "node", "id": 12213397932, "lat": 38.7898505, "lon": -107.6989689}, {"type": "node", "id": 12213397933, "lat": 38.7893084, "lon": -107.6985308}, {"type": "node", "id": 13258065621, "lat": 38.8008212, "lon": -107.7123176}, {"type": "node", "id": 13258065622, "lat": 38.8007574, "lon": -107.7123182}, {"type": "node", "id": 13258065623, "lat": 38.8007571, "lon": -107.7122747}, {"type": "node", "id": 13258065624, "lat": 38.8005447, "lon": -107.7122767}, {"type": "node", "id": 13258065625, "lat": 38.8005454, "lon": -107.7123965}, {"type": "node", "id": 13258065626, "lat": 38.8005799, "lon": -107.7123962}, {"type": "node", "id": 13258065627, "lat": 38.8005802, "lon": -107.7124562}, {"type": "node", "id": 13258065628, "lat": 38.8006077, "lon": -107.7124559}, {"type": "node", "id": 13258065629, "lat": 38.8006078, "lon": -107.712474}, {"type": "node", "id": 13258065630, "lat": 38.8007097, "lon": -107.712473}, {"type": "node", "id": 13258065631, "lat": 38.8007096, "lon": -107.7124542}, {"type": "node", "id": 13258065632, "lat": 38.8007453, "lon": -107.7124539}, {"type": "node", "id": 13258065633, "lat": 38.8007451, "lon": -107.7124129}, {"type": "node", "id": 13258065634, "lat": 38.8008218, "lon": -107.7124121}, {"type": "way", "id": 551962476, "nodes": [5329822938, 5329822937, 5329822936, 5329822935, 5329822934, 5329822933, 5329822938], "tags": {"addr:city": "Hotchkiss", "addr:housenumber": "215", "addr:postcode": "81419", "addr:state": "CO", "addr:street": "6th Street", "brand": "City Market", "brand:wikidata": "Q5123299", "building": "yes", "name": "City Market", "shop": "supermarket"}}, {"type": "way", "id": 685154152, "nodes": [6419940218, 6419940202, 6419940217, 6419940216, 6419940215, 6419940201, 6419940214, 6419940213, 6419940218], "tags": {"addr:city": "Hotchkiss", "addr:housenumber": "289", "addr:postcode": "81419", "addr:state": "CO", "addr:street": "West Bridge Street", "amenity": "place_of_worship", "building": "church", "denomination": "roman_catholic", "description": "A mission of Sacred Heart Catholic Church in Paonia, CO", "description_1": "Mail goes to:Box 988 Paonia, CO 81428-0988", "diocese": "Pueblo", "ele": "1622", "gnis:feature_id": "1795144", "name": "Saint Margaret Mary Catholic Mission", "phone": "+1 970-527-3214", "religion": "christian", "website": "https://sites.google.com/view/northforkcatholiccommunity/"}}, {"type": "way", "id": 722563047, "nodes": [6777802529, 6777802530, 6777802531, 6777802532, 6777802533, 6777802534, 6777802529], "tags": {"addr:city": "Hotchkiss", "addr:housenumber": "721", "addr:postcode": "81419", "addr:state": "CO", "addr:street": "East Bridge Street", "amenity": "restaurant", "building": "yes", "name": "Zach's BBQ"}}, {"type": "way", "id": 790815936, "nodes": [7393000704, 7393000706, 7393000709, 7393000708, 7393000707, 7393000703, 7393000702, 7393000705, 7393000704], "tags": {"building": "retail", "name": "Stop 'n Save", "shop": "convenience"}}, {"type": "way", "id": 790815937, "nodes": [7393000713, 7393000710, 7393000711, 7393000712, 7393000713], "tags": {"amenity": "fuel", "building": "roof", "name": "Stop 'n Save"}}, {"type": "way", "id": 790815938, "nodes": [7393000721, 7393000720, 7393000719, 7393000718, 7393000716, 7393000715, 7393000714, 7393000717, 7393000721], "tags": {"amenity": "bank", "building": "office", "name": "Bank of Colorado"}}, {"type": "way", "id": 790816157, "nodes": [7392961269, 7392961277, 7392961280, 7392961271, 7392961273, 7392961276, 7392961272, 7392961279, 7392961278, 7392961270, 7392961275, 7392961274, 7392961269], "tags": {"amenity": "bank", "building": "office", "name": "First State Bank of Colorado"}}, {"type": "way", "id": 790817189, "nodes": [7393017978, 7393017977, 7393017976, 7393017975, 7393017978], "tags": {"amenity": "fuel", "brand": "Shell", "brand:wikidata": "Q154950", "building": "roof", "name": "Shell"}}, {"type": "way", "id": 1080836568, "nodes": [9906628991, 9906628989, 9906628988, 9906628990, 9906628991], "tags": {"amenity": "pub", "building": "retail", "name": "Pat's Bar and Grill"}}, {"type": "way", "id": 1080836578, "nodes": [9906629033, 9906629029, 9906629028, 9906629031, 9906629030, 358945802, 9906629033], "tags": {"amenity": "post_office", "building": "yes", "ele": "1622", "gnis:feature_id": "1795147", "name": "Hotchkiss Post Office"}}, {"type": "way", "id": 1150286228, "nodes": [10700612057, 10700612058, 10700612059, 10700612060, 10700612061, 10700612062, 10700612063, 10700612064, 10700612057], "tags": {"amenity": "place_of_worship", "building": "yes", "denomination": "jehovahs_witness", "religion": "christian"}}, {"type": "way", "id": 1319795747, "nodes": [12213397930, 12213397931, 12213397932, 12213397933, 12213397930], "tags": {"addr:city": "Hotchkiss", "addr:state": "CO", "addr:street": "Bulldog Street", "amenity": "school", "mascot": "Miners", "name": "North Fork High School"}}, {"type": "way", "id": 1444967622, "nodes": [13258065634, 13258065633, 13258065632, 13258065631, 13258065630, 13258065629, 13258065628, 13258065627, 13258065626, 13258065625, 13258065624, 13258065623, 13258065622, 13258065621, 13258065634], "tags": {"addr:city": "Hotchkiss", "addr:country": "US", "addr:housenumber": "235", "addr:postcode": "81419", "addr:state": "CO", "addr:street": "Highway 133", "amenity": "cafe", "building": "retail", "name": "Farm Runners Station", "shop": "greengrocer", "website": "https://www.farmrunners.com"}}]}