{"version": 0.6, "generator": "Overpass API 0.7.62.8 e802775f", "osm3s": {"timestamp_osm_base": "2025-12-06T05:30:04Z", "copyright": "The data included in this document is from www.openstreetmap.org. The data is made available under ODbL."}, "elements": [{"type": "node", "id": 366079397, "lat": 45.1705556, "lon": -113.889166, "tags": {"addr:state": "ID", "ele": "1206", "gnis:feature_id": "2417951", "name": "Bureau of Land Management Salmon Field Office", "office": "government"}}, {"type": "node", "id": 2928642083, "lat": 45.1767632, "lon": -113.892116}, {"type": "node", "id": 2928642088, "lat": 45.1767954, "lon": -113.8922842}, {"type": "node", "id": 2928642091, "lat": 45.1768166, "lon": -113.8922693}, {"type": "node", "id": 2928642098, "lat": 45.1769471, "lon": -113.8927196}, {"type": "node", "id": 2928642105, "lat": 45.1772339, "lon": -113.8917862}, {"type": "node", "id": 2928642111, "lat": 45.1774389, "lon": -113.892375}, {"type": "node", "id": 2928652024, "lat": 45.1757009, "lon": -113.8952446}, {"type": "node", "id": 2928652028, "lat": 45.1757259, "lon": -113.8953097}, {"type": "node", "id": 2928652045, "lat": 45.1758468, "lon": -113.8952159}, {"type": "node", "id": 2928652047, "lat": 45.1758649, "lon": -113.8952629}, {"type": "node", "id": 2928652058, "lat": 45.1759457, "lon": -113.8950548}, {"type": "node", "id": 2928652061, "lat": 45.1759889, "lon": -113.8951667}, {"type": "node", "id": 3737902002, "lat": 45.1834448, "lon": -113.896401, "tags": {"amenity": "restaurant", "name": "Buddy's Family Dining"}}, {"type": "node", "id": 3738133989, "lat": 45.1749737, "lon": -113.8912088}, {"type": "node", "id": 3738133997, "lat": 45.1749138, "lon": -113.8911085}, {"type": "node", "id": 3738134001, "lat": 45.1745306, "lon": -113.887767, "tags": {"brand": "Carquest", "brand:wikidata": "Q5045948", "name": "Carquest", "official_name": "Carquest Auto Parts", "shop": "car_parts"}}, {"type": "node", "id": 3738134012, "lat": 45.1748236, "lon": -113.8911764}, {"type": "node", "id": 3738137044, "lat": 45.1736839, "lon": -113.8871532, "tags": {"name": "Food Mart", "shop": "convenience"}}, {"type": "node", "id": 3738137048, "lat": 45.1749754, "lon": -113.8916465}, {"type": "node", "id": 3738137054, "lat": 45.1750153, "lon": -113.891753}, {"type": "node", "id": 3738137080, "lat": 45.1749315, "lon": -113.8914644}, {"type": "node", "id": 3738137093, "lat": 45.1751718, "lon": -113.8916347}, {"type": "node", "id": 3738137101, "lat": 45.1751319, "lon": -113.8915284}, {"type": "node", "id": 3738137102, "lat": 45.175039, "lon": -113.891383}, {"type": "node", "id": 3738137241, "lat": 45.1753699, "lon": -113.8926111, "tags": {"amenity": "bar", "name": "Salmon River Inn Lounge"}}, {"type": "node", "id": 3738137243, "lat": 45.174867, "lon": -113.8860398, "tags": {"name": "Saveway Market", "shop": "supermarket"}}, {"type": "node", "id": 3738137249, "lat": 45.1749563, "lon": -113.891222}, {"type": "node", "id": 3739434491, "lat": 45.1772873, "lon": -113.891939}, {"type": "node", "id": 4964965485, "lat": 45.1808748, "lon": -113.8970293, "tags": {"amenity": "bar", "name": "Shady Nook Restaurant & Lounge"}}, {"type": "node", "id": 7620543785, "lat": 45.1758765, "lon": -113.89692, "tags": {"name": "The Hub", "shop": "bicycle"}}, {"type": "node", "id": 7620543786, "lat": 45.1758514, "lon": -113.897111, "tags": {"addr:city": "Salmon", "addr:housenumber": "206", "addr:postcode": "83467", "addr:state": "ID", "addr:street": "Van Dreff Street", "amenity": "restaurant", "cuisine": "barbecue", "diet:meat": "yes", "name": "The Pork Peddler", "opening_hours": "Tu-Sa 11:00-22:00; Su 10:00-14:00", "outdoor_seating": "yes", "phone": "+1-208-993-3096"}}, {"type": "node", "id": 10023196862, "lat": 45.1759498, "lon": -113.8952542, "tags": {"addr:housenumber": "405", "addr:postcode": "83467", "addr:state": "ID", "addr:street": "Main Street", "amenity": "restaurant", "cuisine": "american", "name": "Junkyard Bistro", "outdoor_seating": "yes", "phone": "+1-208-756-2466", "website": "https://www.junkyardbistro.com/"}}, {"type": "node", "id": 10023196863, "lat": 45.1759833, "lon": -113.8953488, "tags": {"addr:housenumber": "403", "addr:state": "ID", "addr:street": "Main Street", "name": "Computer Zen", "phone": "+1-208-756-1596", "shop": "computer", "website": "https://www.computer-z.com/"}}, {"type": "node", "id": 10023196864, "lat": 45.1760518, "lon": -113.8955096, "tags": {"addr:housenumber": "401", "addr:postcode": "83467", "addr:state": "ID", "addr:street": "Main Street", "name": "Nature's Pantry", "opening_hours": "Mo-Fr 09:00-18:00; Sa 09:00-15:00", "phone": "+1-208-756-6067", "shop": "health_food", "website": "https://naturespantryidaho.com/"}}, {"type": "node", "id": 10023196865, "lat": 45.1760266, "lon": -113.895454, "tags": {"addr:housenumber": "401", "addr:postcode": "83467", "addr:state": "ID", "addr:street": "Main Street", "addr:unit": "2", "fax": "+1-208-756-6286", "name": "Lemhi Title Co.", "office": "insurance", "phone": "+1-208-756-2977", "website": "http://lemhititle.com/"}}, {"type": "node", "id": 10023196866, "lat": 45.1762309, "lon": -113.8949994, "tags": {"name": "Salmon River Fly Box", "phone": "+1-208-756-1939", "shop": "fishing", "website": "https://www.salmonriverflybox.com/"}}, {"type": "node", "id": 10023196867, "lat": 45.1761246, "lon": -113.8946977, "tags": {"name": "Frontier Furnishings", "shop": "furniture"}}, {"type": "node", "id": 10023196868, "lat": 45.1762913, "lon": -113.894207}, {"type": "node", "id": 10023196869, "lat": 45.1763541, "lon": -113.8941597}, {"type": "node", "id": 10023196870, "lat": 45.1763695, "lon": -113.8940942}, {"type": "node", "id": 10023196871, "lat": 45.1763314, "lon": -113.8939926}, {"type": "node", "id": 10023196872, "lat": 45.176346, "lon": -113.8939816}, {"type": "node", "id": 10023196873, "lat": 45.1763214, "lon": -113.8939159}, {"type": "node", "id": 10023196874, "lat": 45.1763076, "lon": -113.8939262}, {"type": "node", "id": 10023196875, "lat": 45.1762578, "lon": -113.8937933}, {"type": "node", "id": 10023196876, "lat": 45.1761631, "lon": -113.8938647}, {"type": "node", "id": 10023196877, "lat": 45.1762197, "lon": -113.8941876}, {"type": "node", "id": 10023196878, "lat": 45.1761062, "lon": -113.8942753}, {"type": "node", "id": 10023196879, "lat": 45.1760628, "lon": -113.8942574}, {"type": "node", "id": 10023196880, "lat": 45.1760413, "lon": -113.8942013}, {"type": "node", "id": 10023196881, "lat": 45.1761829, "lon": -113.8940918}, {"type": "node", "id": 10023196929, "lat": 45.1758439, "lon": -113.8939948, "tags": {"addr:housenumber": "510", "addr:postcode": "83467", "addr:state": "ID", "addr:street": "Main Street", "name": "Odd Fellows' Bakery", "opening_hours": "Mo-Sa 07:00-17:00", "phone": "+1-208-756-1122", "shop": "bakery", "website": "https://oddfellowsbakery.com/"}}, {"type": "node", "id": 10023196930, "lat": 45.1755854, "lon": -113.8942735, "tags": {"amenity": "cafe", "name": "Wally's Cafe"}}, {"type": "node", "id": 10023196931, "lat": 45.1755557, "lon": -113.8941785, "tags": {"amenity": "restaurant", "cuisine": "pizza", "name": "Dave's Pizza"}}, {"type": "node", "id": 10839842449, "lat": 45.1737603, "lon": -113.8858198, "tags": {"addr:city": "Salmon", "addr:housenumber": "1212", "addr:postcode": "83467", "addr:state": "ID", "addr:street": "Shoup Street", "email": "Salmonqwiklube@gmail.com", "facebook": "Facebook.com/salmonqwiklubeandrentalcenter", "name": "Salmon Qwik Lube", "opening_hours": "Mo-Fr 08:00-17:00; Sa 09:00-14:00; Su off", "phone": "+1 208-756-2707", "shop": "car_repair"}}, {"type": "node", "id": 13013852202, "lat": 45.1643165, "lon": -113.8661077, "tags": {"name": "Not Just a Western Store", "shop": "gift"}}, {"type": "way", "id": 289315802, "nodes": [3739434491, 2928642105, 2928642083, 2928642091, 2928642088, 2928642098, 2928642111, 3739434491], "tags": {"building": "yes", "name": "Alco Discount Store", "shop": "supermarket"}}, {"type": "way", "id": 289316576, "nodes": [2928652061, 2928652058, 2928652024, 2928652028, 2928652045, 2928652047, 2928652061], "tags": {"amenity": "bar", "building": "yes", "name": "Lantern Bar"}}, {"type": "way", "id": 370090239, "nodes": [3738137093, 3738137101, 3738137048, 3738137054, 3738137093], "tags": {"building": "yes", "shop": "convenience"}}, {"type": "way", "id": 370090242, "nodes": [3738137102, 3738133989, 3738137249, 3738133997, 3738134012, 3738137080, 3738137102], "tags": {"building": "yes", "name": "Country Store", "shop": "convenience"}}, {"type": "way", "id": 1094384567, "nodes": [10023196868, 10023196869, 10023196870, 10023196871, 10023196872, 10023196873, 10023196874, 10023196875, 10023196876, 10023196868], "tags": {"building": "yes", "self_service": "yes", "shop": "laundry"}}, {"type": "way", "id": 1094384568, "nodes": [10023196877, 10023196878, 10023196879, 10023196880, 10023196881, 10023196877], "tags": {"addr:housenumber": "500", "addr:postcode": "83467", "addr:state": "ID", "addr:street": "Main Street", "building": "yes", "name": "Valley Wide Cooperative Energy", "opening_hours": "Mo-Fr 08:00-17:00", "phone": "+1 208 756 3655", "shop": "gas"}}]}