{"version": 0.6, "generator": "Overpass API 0.7.62.8 e802775f", "osm3s": {"timestamp_osm_base": "2025-12-08T22:31:15Z", "copyright": "The data included in this document is from www.openstreetmap.org. The data is made available under ODbL."}, "elements": [{"type": "node", "id": 357980812, "lat": 46.9549401, "lon": -112.6830372}, {"type": "node", "id": 357981072, "lat": 46.9570844, "lon": -112.6794149, "tags": {"amenity": "place_of_worship", "denomination": "baptist", "ele": "1384", "gnis:feature_id": "1789357", "name": "Lincoln Baptist Church", "religion": "christian"}}, {"type": "node", "id": 357981083, "lat": 46.9548754, "lon": -112.6758847}, {"type": "node", "id": 366093377, "lat": 46.9548736, "lon": -112.6741517}, {"type": "node", "id": 2643030142, "lat": 46.9540475, "lon": -112.6712784}, {"type": "node", "id": 2643030195, "lat": 46.9541024, "lon": -112.6714394}, {"type": "node", "id": 2643030335, "lat": 46.9540932, "lon": -112.6712731}, {"type": "node", "id": 2643030343, "lat": 46.9540548, "lon": -112.671442}, {"type": "node", "id": 2644098749, "lat": 46.9552615, "lon": -112.6748776}, {"type": "node", "id": 2644098777, "lat": 46.9564606, "lon": -112.6748767}, {"type": "node", "id": 2644098804, "lat": 46.9553533, "lon": -112.6714016}, {"type": "node", "id": 2644098831, "lat": 46.9554779, "lon": -112.6712518}, {"type": "node", "id": 2644098838, "lat": 46.9565351, "lon": -112.671257}, {"type": "node", "id": 2644098855, "lat": 46.955506, "lon": -112.6741023, "tags": {"amenity": "parking"}}, {"type": "node", "id": 2644098866, "lat": 46.9544899, "lon": -112.6711628, "tags": {"amenity": "shelter"}}, {"type": "node", "id": 2644189682, "lat": 46.9548359, "lon": -112.682758, "tags": {"amenity": "bank", "name": "First Bank of Lincoln"}}, {"type": "node", "id": 2644189686, "lat": 46.9547938, "lon": -112.6812452, "tags": {"shop": "convenience"}}, {"type": "node", "id": 2644189687, "lat": 46.9547644, "lon": -112.6755151}, {"type": "node", "id": 2644189689, "lat": 46.9552792, "lon": -112.6807293}, {"type": "node", "id": 2644189696, "lat": 46.9554198, "lon": -112.6772916, "tags": {"name": "Grizzly Home Center", "shop": "doityourself"}}, {"type": "node", "id": 2644189697, "lat": 46.9553806, "lon": -112.6807337}, {"type": "node", "id": 2644189703, "lat": 46.9555361, "lon": -112.6805248}, {"type": "node", "id": 2644189708, "lat": 46.9555844, "lon": -112.6805269}, {"type": "node", "id": 2644189712, "lat": 46.9546967, "lon": -112.6795286, "tags": {"shop": "convenience"}}, {"type": "node", "id": 2644189715, "lat": 46.9552824, "lon": -112.680569}, {"type": "node", "id": 2644189721, "lat": 46.9547644, "lon": -112.6758847}, {"type": "node", "id": 2644189722, "lat": 46.954981, "lon": -112.6791616}, {"type": "node", "id": 2644189723, "lat": 46.9553201, "lon": -112.6805707}, {"type": "node", "id": 2644189727, "lat": 46.9553943, "lon": -112.6819774, "tags": {"amenity": "bar", "name": "Lambkin's of Lincoln Lounge & Casino"}}, {"type": "node", "id": 2644189728, "lat": 46.955322, "lon": -112.6804741}, {"type": "node", "id": 2644189740, "lat": 46.9553799, "lon": -112.6807675}, {"type": "node", "id": 2644189742, "lat": 46.9553997, "lon": -112.6821893, "tags": {"amenity": "restaurant", "name": "Lambkin's of Lincoln Restaurant"}}, {"type": "node", "id": 2644189751, "lat": 46.9549461, "lon": -112.6756849}, {"type": "node", "id": 2644189752, "lat": 46.9549402, "lon": -112.681288, "tags": {"amenity": "fuel", "brand": "Exxon", "brand:wikidata": "Q109675651", "name": "Exxon"}}, {"type": "node", "id": 2644189756, "lat": 46.9555794, "lon": -112.6807761}, {"type": "node", "id": 2644189760, "lat": 46.9553796, "lon": -112.6799819, "tags": {"name": "Garland's Town & Country", "shop": "department_store"}}, {"type": "node", "id": 2644189763, "lat": 46.9549461, "lon": -112.6755151}, {"type": "node", "id": 2644189772, "lat": 46.9548754, "lon": -112.6756849}, {"type": "node", "id": 2644189779, "lat": 46.9555369, "lon": -112.6804834}, {"type": "node", "id": 3628011651, "lat": 46.9553544, "lon": -112.6819753, "tags": {"amenity": "casino"}}, {"type": "node", "id": 4895577396, "lat": 46.9553207, "lon": -112.684844, "tags": {"amenity": "pub", "name": "Bushwackers Steakhouse and Saloon"}}, {"type": "node", "id": 4895577406, "lat": 46.9547472, "lon": -112.6883042}, {"type": "node", "id": 4895577419, "lat": 46.9549376, "lon": -112.688304}, {"type": "node", "id": 4895581332, "lat": 46.9549376, "lon": -112.6881755}, {"type": "node", "id": 4895581353, "lat": 46.9547472, "lon": -112.6881755}, {"type": "node", "id": 4895955753, "lat": 46.9557204, "lon": -112.6711198, "tags": {"amenity": "restaurant", "cuisine": "american", "name": "Pit Stop Inn"}}, {"type": "node", "id": 5923316933, "lat": 46.9549509, "lon": -112.6741521}, {"type": "node", "id": 5923316934, "lat": 46.9547973, "lon": -112.6741906}, {"type": "node", "id": 5923316935, "lat": 46.9547982, "lon": -112.6738722}, {"type": "node", "id": 5923316936, "lat": 46.9548814, "lon": -112.6738727}, {"type": "node", "id": 5923316937, "lat": 46.9548811, "lon": -112.6739883}, {"type": "node", "id": 5923316938, "lat": 46.9549513, "lon": -112.6739887}, {"type": "node", "id": 7798799754, "lat": 46.9554311, "lon": -112.6868396, "tags": {"name": "The Lost Woodsman", "shop": "gift"}}, {"type": "node", "id": 7798799756, "lat": 46.9554139, "lon": -112.686379, "tags": {"name": "On The Rocks", "shop": "alcohol"}}, {"type": "node", "id": 8889246281, "lat": 46.9552208, "lon": -112.689288}, {"type": "node", "id": 8889246282, "lat": 46.9552244, "lon": -112.689629}, {"type": "node", "id": 8889246283, "lat": 46.9553172, "lon": -112.6890445}, {"type": "node", "id": 8889246284, "lat": 46.95532, "lon": -112.6892856}, {"type": "node", "id": 8889246285, "lat": 46.9553936, "lon": -112.6895019}, {"type": "node", "id": 8889246286, "lat": 46.9553911, "lon": -112.6892838}, {"type": "node", "id": 8889246287, "lat": 46.9552979, "lon": -112.6892861}, {"type": "node", "id": 8889246288, "lat": 46.9552982, "lon": -112.689312}, {"type": "node", "id": 8889246289, "lat": 46.9552695, "lon": -112.6893127}, {"type": "node", "id": 8889246290, "lat": 46.9552717, "lon": -112.6895049}, {"type": "node", "id": 8889246291, "lat": 46.9551603, "lon": -112.6890484}, {"type": "node", "id": 8889246294, "lat": 46.9551666, "lon": -112.6896304}, {"type": "node", "id": 11135147322, "lat": 46.9552914, "lon": -112.6794715}, {"type": "node", "id": 11135147323, "lat": 46.9552943, "lon": -112.6793762}, {"type": "node", "id": 11135147324, "lat": 46.9553294, "lon": -112.6793785}, {"type": "node", "id": 11135147325, "lat": 46.9553265, "lon": -112.6794738}, {"type": "node", "id": 11422889849, "lat": 46.9548735, "lon": -112.6741911}, {"type": "node", "id": 11422889856, "lat": 46.9553435, "lon": -112.6727236}, {"type": "node", "id": 11422889857, "lat": 46.9553145, "lon": -112.6727274}, {"type": "node", "id": 11422889858, "lat": 46.9553129, "lon": -112.6732181}, {"type": "node", "id": 11422889859, "lat": 46.9553273, "lon": -112.6732187}, {"type": "node", "id": 11422889860, "lat": 46.9553401, "lon": -112.6732355}, {"type": "node", "id": 11422889861, "lat": 46.9553442, "lon": -112.6736924}, {"type": "node", "id": 11422889862, "lat": 46.9553427, "lon": -112.6738119}, {"type": "node", "id": 11422889863, "lat": 46.9552689, "lon": -112.673813}, {"type": "node", "id": 11422889864, "lat": 46.9565053, "lon": -112.6748099}, {"type": "node", "id": 11422896684, "lat": 46.9548442, "lon": -112.6830467}, {"type": "node", "id": 11422896685, "lat": 46.9548418, "lon": -112.6833375}, {"type": "node", "id": 11422896686, "lat": 46.9549371, "lon": -112.6833271}, {"type": "node", "id": 11422896755, "lat": 46.9549146, "lon": -112.679157}, {"type": "node", "id": 11422896756, "lat": 46.9549042, "lon": -112.6795944}, {"type": "node", "id": 11422896757, "lat": 46.9549691, "lon": -112.6795994}, {"type": "node", "id": 12190406514, "lat": 46.9463104, "lon": -112.6786869, "tags": {"amenity": "toilets"}}, {"type": "node", "id": 12190406516, "lat": 46.9462727, "lon": -112.6786259}, {"type": "node", "id": 12190406517, "lat": 46.9463056, "lon": -112.6787549}, {"type": "node", "id": 12190406518, "lat": 46.9462061, "lon": -112.678838}, {"type": "node", "id": 12190406519, "lat": 46.9461441, "lon": -112.6787801}, {"type": "node", "id": 12190406520, "lat": 46.9461219, "lon": -112.678582}, {"type": "node", "id": 12190406521, "lat": 46.9462174, "lon": -112.6784527}, {"type": "node", "id": 12190406522, "lat": 46.9462574, "lon": -112.6785658}, {"type": "node", "id": 12190406533, "lat": 46.9543729, "lon": -112.6704183, "tags": {"amenity": "toilets"}}, {"type": "way", "id": 258995447, "nodes": [2643030195, 2643030335, 2643030142, 2643030343, 2643030195], "tags": {"amenity": "toilets", "building": "yes"}}, {"type": "way", "id": 259080895, "nodes": [2644098777, 11422889864, 2644098838, 2644098831, 2644098804, 11422889856, 11422889857, 11422889858, 11422889859, 11422889860, 11422889861, 11422889862, 11422889863, 2644098749, 2644098777], "tags": {"amenity": "school", "education": "school", "name": "Lincoln Public Schools"}}, {"type": "way", "id": 259087765, "nodes": [2644189779, 2644189703, 2644189708, 2644189756, 2644189740, 2644189697, 2644189689, 2644189715, 2644189723, 2644189728, 2644189779], "tags": {"building": "yes", "name": "D & D Foodtown", "shop": "supermarket"}}, {"type": "way", "id": 259087775, "nodes": [357981083, 2644189721, 2644189687, 2644189763, 2644189751, 2644189772, 357981083], "tags": {"amenity": "place_of_worship", "building": "church", "denomination": "methodist", "ele": "1384", "gnis:feature_id": "1789361", "name": "Lincoln Community Methodist Church", "religion": "christian"}}, {"type": "way", "id": 498077052, "nodes": [4895577419, 4895581332, 4895581353, 4895577406, 4895577419], "tags": {"addr:city": "Lincoln", "addr:housenumber": "123", "addr:postcode": "59639", "addr:state": "MT", "addr:street": "MT-200", "amenity": "pub", "building": "yes", "name": "Wheel Inn Tavern"}}, {"type": "way", "id": 627474732, "nodes": [5923316933, 366093377, 11422889849, 5923316934, 5923316935, 5923316936, 5923316937, 5923316938, 5923316933], "tags": {"addr:state": "MT", "amenity": "library", "building": "library", "ele": "1384", "gnis:feature_id": "1789606", "internet_access": "yes", "name": "Lewis & Clark Libary Lincoln Branch", "source": "USGS Geonames"}}, {"type": "way", "id": 960929736, "nodes": [8889246284, 8889246283, 8889246291, 8889246294, 8889246282, 8889246281, 8889246287, 8889246284], "tags": {"amenity": "parking", "operator": "Saint Jude the Apostle Catholic Church"}}, {"type": "way", "id": 960929737, "nodes": [8889246290, 8889246289, 8889246288, 8889246287, 8889246284, 8889246286, 8889246285, 8889246290], "tags": {"addr:city": "Lincoln", "addr:housenumber": "100", "addr:postcode": "59639", "addr:state": "MT", "addr:street": "Main Street", "amenity": "place_of_worship", "building": "church", "denomination": "roman_catholic", "diocese": "Helena", "name": "Saint Jude the Apostle Catholic Church", "phone": "+1 406-362-3210", "religion": "christian"}}, {"type": "way", "id": 1200961707, "nodes": [11135147322, 11135147323, 11135147324, 11135147325, 11135147322], "tags": {"addr:city": "Lincoln", "addr:housenumber": "528", "addr:state": "MT", "addr:street": "MT 200", "amenity": "cafe", "building": "yes", "cuisine": "coffee_shop", "drive_through": "only", "name": "Coyote Coffee", "phone": "+1-406-465-5736"}}, {"type": "way", "id": 1231690928, "nodes": [357980812, 11422896684, 11422896685, 11422896686, 357980812], "tags": {"amenity": "post_office", "building": "post_office", "ele": "1384", "gnis:feature_id": "1789144", "name": "Lincoln Post Office"}}, {"type": "way", "id": 1231690941, "nodes": [2644189722, 11422896755, 11422896756, 11422896757, 2644189722], "tags": {"amenity": "fuel", "brand": "Cenex", "brand:wikidata": "Q62127191", "building": "commercial", "name": "Cenex"}}, {"type": "way", "id": 1317179396, "nodes": [12190406517, 12190406518, 12190406519, 12190406520, 12190406521, 12190406522, 12190406516, 12190406517], "tags": {"amenity": "parking"}}]}