{"version": 0.6, "generator": "Overpass API 0.7.62.8 e802775f", "osm3s": {"timestamp_osm_base": "2025-12-13T00:56:48Z", "copyright": "The data included in this document is from www.openstreetmap.org. The data is made available under ODbL."}, "elements": [{"type": "node", "id": 1810657269, "lat": 40.1741899, "lon": -105.5335217, "tags": {"amenity": "drinking_water"}}, {"type": "node", "id": 1810657271, "lat": 40.1741856, "lon": -105.5333259}, {"type": "node", "id": 1810657272, "lat": 40.1741874, "lon": -105.5334233}, {"type": "node", "id": 1810657284, "lat": 40.1744047, "lon": -105.5333151}, {"type": "node", "id": 1810657286, "lat": 40.1742319, "lon": -105.5334388}, {"type": "node", "id": 1818120252, "lat": 40.1936493, "lon": -105.5423225, "tags": {"access": "no", "amenity": "parking", "fee": "no", "name": "Allenspark Trailhead", "note": "Parking blocked off, prohibited; \"no parking\", \"private property\", \"no trespassing\" signs. Triple Creek Ranch parcel 119726004004: \"3.38 ACS M/L RECREATIONAL AREA\u2026\u00a0USED AS ENTRANCE TO NATIONAL FOREST & TRAIL HEAD\""}}, {"type": "node", "id": 3344938028, "lat": 40.1887996, "lon": -105.4998604}, {"type": "node", "id": 3344938031, "lat": 40.1889171, "lon": -105.4991913}, {"type": "node", "id": 3344938035, "lat": 40.1888509, "lon": -105.4991827}, {"type": "node", "id": 3344943056, "lat": 40.1888657, "lon": -105.499869}, {"type": "node", "id": 4418272670, "lat": 40.1939155, "lon": -105.5226865}, {"type": "node", "id": 4418272672, "lat": 40.193975, "lon": -105.5227107}, {"type": "node", "id": 4418272673, "lat": 40.1940139, "lon": -105.52237}, {"type": "node", "id": 4418272674, "lat": 40.1940517, "lon": -105.5225215}, {"type": "node", "id": 4418272675, "lat": 40.1940518, "lon": -105.5223928}, {"type": "node", "id": 4418272676, "lat": 40.1940518, "lon": -105.5224679}, {"type": "node", "id": 4418272677, "lat": 40.1940861, "lon": -105.5224389}, {"type": "node", "id": 4418272678, "lat": 40.1941318, "lon": -105.5225786}, {"type": "node", "id": 4418272679, "lat": 40.1941401, "lon": -105.5225588}, {"type": "node", "id": 4418272680, "lat": 40.1941557, "lon": -105.52257}, {"type": "node", "id": 4418272681, "lat": 40.1941818, "lon": -105.5225072}, {"type": "node", "id": 4418272682, "lat": 40.1944809, "lon": -105.526423}, {"type": "node", "id": 4418272683, "lat": 40.194482, "lon": -105.526544}, {"type": "node", "id": 4418272684, "lat": 40.1945859, "lon": -105.526421}, {"type": "node", "id": 4418272685, "lat": 40.1945871, "lon": -105.526542}, {"type": "node", "id": 4418272686, "lat": 40.1946244, "lon": -105.5264618, "tags": {"amenity": "parking", "parking": "surface"}}, {"type": "node", "id": 4497767714, "lat": 40.1741988, "lon": -105.5333066}, {"type": "node", "id": 4497767715, "lat": 40.1742049, "lon": -105.5334288}, {"type": "node", "id": 4497767716, "lat": 40.1743171, "lon": -105.533444}, {"type": "node", "id": 7147053255, "lat": 40.1944386, "lon": -105.5258014, "tags": {"addr:city": "Allenspark", "addr:housenumber": "6", "addr:postcode": "80510", "addr:state": "CO", "addr:street": "Ski Road", "amenity": "restaurant", "bar": "yes", "brewery": "yes", "cuisine": "pizza", "name": "Rock Creek Tavern and Pizzeria", "opening_hours": "Tu-Su 11:00-20:00", "phone": "+1-303-747-9000", "reservation": "no"}}, {"type": "node", "id": 8839114701, "lat": 40.1908301, "lon": -105.5118144, "tags": {"name": "Ferncliff Fine Liquors", "shop": "alcohol"}}, {"type": "node", "id": 8839196336, "lat": 40.1929612, "lon": -105.5239975, "tags": {"amenity": "drinking_water", "drinking_water": "yes", "name": "Crystal Spring", "natural": "spring"}}, {"type": "node", "id": 8839204496, "lat": 40.1908302, "lon": -105.5122563, "tags": {"atm": "yes", "fuel": "yes", "name": "Ferncliff Food & Fuel", "opening_hours": "08:00-20:00", "shop": "convenience"}}, {"type": "node", "id": 9319453654, "lat": 40.1907944, "lon": -105.5122957, "tags": {"amenity": "fuel", "fuel:octane_85": "yes", "fuel:octane_87": "yes", "fuel:octane_91": "yes", "name": "Ferncliff Food & Fuel", "self_service": "yes"}}, {"type": "node", "id": 11027954413, "lat": 40.1743944, "lon": -105.5334162}, {"type": "node", "id": 12177684526, "lat": 40.1949576, "lon": -105.526276, "tags": {"amenity": "cafe", "internet_access": "wlan", "name": "Tree Huggers", "opening_hours": "We-Su 08:00-17:00", "shop": "gift"}}, {"type": "way", "id": 169906618, "nodes": [1810657286, 4497767716, 11027954413, 1810657284, 4497767714, 1810657271, 1810657272, 4497767715, 1810657286], "tags": {"amenity": "parking", "name": "St Vrain Mountain Trailhead", "operator": "U.S. Forest Service", "surface": "dirt"}}, {"type": "way", "id": 327688032, "nodes": [3344943056, 3344938028, 3344938035, 3344938031, 3344943056], "tags": {"access": "yes", "amenity": "parking", "capacity": "10", "capacity:disabled": "1", "fee": "no", "parking": "surface", "source": "Bing", "surface": "asphalt"}}, {"type": "way", "id": 444341668, "nodes": [4418272670, 4418272672, 4418272676, 4418272675, 4418272673, 4418272670], "tags": {"amenity": "parking"}}, {"type": "way", "id": 444341669, "nodes": [4418272685, 4418272684, 4418272682, 4418272683, 4418272685], "tags": {"addr:city": "Allenspark", "addr:housenumber": "7", "addr:postcode": "80510", "addr:state": "CO", "addr:street": "Washington Street", "amenity": "post_office", "building": "yes", "name": "Allenspark Post Office", "opening_hours": "Mo-Fr 09:30-13:00,13:30-16:00, Sa 10:00-13:45", "operator": "United States Postal Service", "operator:short": "USPS", "operator:type": "public", "operator:website": "https://www.usps.com", "operator:wikidata": "Q668687", "operator:wikipedia": "en:United States Postal Service", "short_name": "USPS", "wheelchair": "yes"}}, {"type": "way", "id": 444341670, "nodes": [4418272678, 4418272679, 4418272680, 4418272681, 4418272677, 4418272674, 4418272678], "tags": {"amenity": "restaurant", "building": "yes", "cuisine": "breakfast", "name": "Meadow Mountain Cafe"}}]}