{"version": 0.6, "generator": "Overpass API 0.7.62.8 e802775f", "osm3s": {"timestamp_osm_base": "2025-12-06T08:12:43Z", "copyright": "The data included in this document is from www.openstreetmap.org. The data is made available under ODbL."}, "elements": [{"type": "node", "id": 357979903, "lat": 47.0031511, "lon": -114.4792162}, {"type": "node", "id": 357979906, "lat": 47.004795, "lon": -114.48595}, {"type": "node", "id": 357979913, "lat": 47.0046289, "lon": -114.482317}, {"type": "node", "id": 366093365, "lat": 47.0024466, "lon": -114.4764643, "tags": {"addr:city": "Alberton", "addr:housenumber": "701", "addr:postcode": "59820", "addr:state": "MT", "addr:street": "Railroad Avenue", "amenity": "library", "ele": "931", "gnis:feature_id": "1781738", "name": "Alberton Branch Library", "source": "USGS Geonames"}}, {"type": "node", "id": 2833585501, "lat": 47.0028985, "lon": -114.4767315}, {"type": "node", "id": 2833585502, "lat": 47.0038959, "lon": -114.47946}, {"type": "node", "id": 2833585503, "lat": 47.0040409, "lon": -114.48269}, {"type": "node", "id": 2833585504, "lat": 47.0033864, "lon": -114.477794}, {"type": "node", "id": 2833585505, "lat": 47.0030124, "lon": -114.4908241}, {"type": "node", "id": 2833585601, "lat": 47.0030069, "lon": -114.4766727}, {"type": "node", "id": 2833585602, "lat": 47.002988, "lon": -114.4788939}, {"type": "node", "id": 2833585701, "lat": 47.0029752, "lon": -114.4765472}, {"type": "node", "id": 2833585702, "lat": 47.0039669, "lon": -114.4797191}, {"type": "node", "id": 2833585801, "lat": 47.0028668, "lon": -114.4766059}, {"type": "node", "id": 2833585802, "lat": 47.0028646, "lon": -114.4765654}, {"type": "node", "id": 2833585803, "lat": 47.0039831, "lon": -114.4835782}, {"type": "node", "id": 2833585901, "lat": 47.0030379, "lon": -114.4764737}, {"type": "node", "id": 2833585902, "lat": 47.0028296, "lon": -114.4764229}, {"type": "node", "id": 2833585903, "lat": 47.0034238, "lon": -114.4798699}, {"type": "node", "id": 2833585904, "lat": 47.0040172, "lon": -114.4837102}, {"type": "node", "id": 2833585905, "lat": 47.0031954, "lon": -114.4779046}, {"type": "node", "id": 2833585906, "lat": 47.0037656, "lon": -114.492101}, {"type": "node", "id": 2833586001, "lat": 47.0030028, "lon": -114.4763312}, {"type": "node", "id": 2833586002, "lat": 47.0037323, "lon": -114.4814056}, {"type": "node", "id": 2833586004, "lat": 47.0034882, "lon": -114.4798355}, {"type": "node", "id": 2833586101, "lat": 47.0036976, "lon": -114.4812671}, {"type": "node", "id": 2833586102, "lat": 47.003698, "lon": -114.4798775}, {"type": "node", "id": 2833586103, "lat": 47.0031722, "lon": -114.4778185}, {"type": "node", "id": 2833586104, "lat": 47.0036854, "lon": -114.491917}, {"type": "node", "id": 2833586105, "lat": 47.003941, "lon": -114.4914417}, {"type": "node", "id": 2833586301, "lat": 47.0034669, "lon": -114.4797496}, {"type": "node", "id": 2833586302, "lat": 47.0034024, "lon": -114.479784}, {"type": "node", "id": 2833586303, "lat": 47.003627, "lon": -114.4796184}, {"type": "node", "id": 2833586304, "lat": 47.0038968, "lon": -114.4827701}, {"type": "node", "id": 2833586305, "lat": 47.0041064, "lon": -114.4829406}, {"type": "node", "id": 2833586306, "lat": 47.0039632, "lon": -114.4830217}, {"type": "node", "id": 2833586401, "lat": 47.0042335, "lon": -114.4834396}, {"type": "node", "id": 2833586402, "lat": 47.0024132, "lon": -114.4778597}, {"type": "node", "id": 2833586403, "lat": 47.0039353, "lon": -114.4916829}, {"type": "node", "id": 2833586501, "lat": 47.004276, "lon": -114.4836045}, {"type": "node", "id": 2833586502, "lat": 47.0040155, "lon": -114.4918669}, {"type": "node", "id": 2833586503, "lat": 47.0035503, "lon": -114.4918516}, {"type": "node", "id": 2833586601, "lat": 47.0033632, "lon": -114.4777079}, {"type": "node", "id": 2833586602, "lat": 47.0027244, "lon": -114.479043}, {"type": "node", "id": 2833586701, "lat": 47.0026767, "lon": -114.4777107}, {"type": "node", "id": 2833586702, "lat": 47.0033947, "lon": -114.4903493}, {"type": "node", "id": 4434584618, "lat": 47.0045827, "lon": -114.4808759}, {"type": "node", "id": 4434584619, "lat": 47.0045761, "lon": -114.4809304}, {"type": "node", "id": 4434584620, "lat": 47.0045592, "lon": -114.4809798}, {"type": "node", "id": 4434584621, "lat": 47.0045336, "lon": -114.4810204}, {"type": "node", "id": 4434584622, "lat": 47.0045012, "lon": -114.4810487}, {"type": "node", "id": 4434584623, "lat": 47.0044646, "lon": -114.4810624}, {"type": "node", "id": 4434584624, "lat": 47.0044269, "lon": -114.4810606}, {"type": "node", "id": 4434584625, "lat": 47.0043911, "lon": -114.4810432}, {"type": "node", "id": 4434584626, "lat": 47.0043601, "lon": -114.4810117}, {"type": "node", "id": 4434584627, "lat": 47.0043364, "lon": -114.4809687}, {"type": "node", "id": 4434584628, "lat": 47.0043219, "lon": -114.4809176}, {"type": "node", "id": 4434584629, "lat": 47.0043178, "lon": -114.4808627}, {"type": "node", "id": 4434584630, "lat": 47.0043245, "lon": -114.4808082}, {"type": "node", "id": 4434584631, "lat": 47.0043413, "lon": -114.4807587}, {"type": "node", "id": 4434584632, "lat": 47.004367, "lon": -114.4807182}, {"type": "node", "id": 4434584633, "lat": 47.0043994, "lon": -114.4806899}, {"type": "node", "id": 4434584634, "lat": 47.0044359, "lon": -114.4806761}, {"type": "node", "id": 4434584635, "lat": 47.0044736, "lon": -114.480678}, {"type": "node", "id": 4434584636, "lat": 47.0045094, "lon": -114.4806954}, {"type": "node", "id": 4434584637, "lat": 47.0045404, "lon": -114.4807269}, {"type": "node", "id": 4434584638, "lat": 47.0045641, "lon": -114.4807699}, {"type": "node", "id": 4434584639, "lat": 47.0045786, "lon": -114.4808209}, {"type": "node", "id": 5106727881, "lat": 47.0037764, "lon": -114.4795303}, {"type": "node", "id": 5106728620, "lat": 47.0023553, "lon": -114.4761121, "tags": {"amenity": "townhall"}}, {"type": "node", "id": 5106728622, "lat": 47.0032205, "lon": -114.4779674}, {"type": "node", "id": 5106728623, "lat": 47.003317, "lon": -114.4779105}, {"type": "node", "id": 5106728624, "lat": 47.0033569, "lon": -114.4780561}, {"type": "node", "id": 5106728625, "lat": 47.0034163, "lon": -114.4780211}, {"type": "node", "id": 5106728626, "lat": 47.0034404, "lon": -114.478109}, {"type": "node", "id": 5106728627, "lat": 47.0032845, "lon": -114.4782009}, {"type": "node", "id": 5106728628, "lat": 47.0031833, "lon": -114.4793414}, {"type": "node", "id": 5106728629, "lat": 47.0031581, "lon": -114.4793554}, {"type": "node", "id": 5106728630, "lat": 47.0031662, "lon": -114.4793871}, {"type": "node", "id": 5106728631, "lat": 47.0031076, "lon": -114.4794194}, {"type": "node", "id": 5106728632, "lat": 47.0030994, "lon": -114.4793877}, {"type": "node", "id": 5106728633, "lat": 47.003078, "lon": -114.4793995}, {"type": "node", "id": 5106728634, "lat": 47.0029992, "lon": -114.4790925}, {"type": "node", "id": 5106728635, "lat": 47.0031059, "lon": -114.4790336}, {"type": "node", "id": 5106728636, "lat": 47.0031101, "lon": -114.4790498}, {"type": "node", "id": 5106728637, "lat": 47.0031295, "lon": -114.4790391}, {"type": "node", "id": 5106728638, "lat": 47.003172, "lon": -114.4792047}, {"type": "node", "id": 5106728639, "lat": 47.0036114, "lon": -114.4813135}, {"type": "node", "id": 5106728640, "lat": 47.003646, "lon": -114.481452}, {"type": "node", "id": 5106728641, "lat": 47.0043692, "lon": -114.4824636}, {"type": "node", "id": 5106728642, "lat": 47.0039576, "lon": -114.4808623}, {"type": "node", "id": 5106728643, "lat": 47.0042777, "lon": -114.4806772}, {"type": "node", "id": 5106728644, "lat": 47.0045237, "lon": -114.4805257}, {"type": "node", "id": 5106728645, "lat": 47.0046819, "lon": -114.481156}, {"type": "node", "id": 5106728646, "lat": 47.0047478, "lon": -114.4814175}, {"type": "node", "id": 5106728647, "lat": 47.005024, "lon": -114.481262}, {"type": "node", "id": 5106728648, "lat": 47.0051045, "lon": -114.4815718}, {"type": "node", "id": 5106728649, "lat": 47.0045301, "lon": -114.481895}, {"type": "node", "id": 5106728659, "lat": 47.0043047, "lon": -114.4840794}, {"type": "node", "id": 5106728660, "lat": 47.0042852, "lon": -114.4840904}, {"type": "node", "id": 5106728661, "lat": 47.0043345, "lon": -114.4842783}, {"type": "node", "id": 5106728662, "lat": 47.0042985, "lon": -114.4840559}, {"type": "node", "id": 5106728663, "lat": 47.0043832, "lon": -114.4840083}, {"type": "node", "id": 5106728664, "lat": 47.0044386, "lon": -114.4842197}, {"type": "node", "id": 5106728665, "lat": 47.0048179, "lon": -114.4859372}, {"type": "node", "id": 5106728666, "lat": 47.0047764, "lon": -114.4857765}, {"type": "node", "id": 5106728667, "lat": 47.0047535, "lon": -114.4857892}, {"type": "node", "id": 5106728668, "lat": 47.0047336, "lon": -114.4857125}, {"type": "node", "id": 5106728669, "lat": 47.0046468, "lon": -114.4857608}, {"type": "node", "id": 5106728670, "lat": 47.004662, "lon": -114.4858198}, {"type": "node", "id": 5106728671, "lat": 47.0045996, "lon": -114.4858544}, {"type": "node", "id": 5106728672, "lat": 47.0046526, "lon": -114.4860592}, {"type": "node", "id": 5106728673, "lat": 47.0047149, "lon": -114.4860245}, {"type": "node", "id": 5106728674, "lat": 47.0047277, "lon": -114.4860739}, {"type": "node", "id": 5106728675, "lat": 47.0048145, "lon": -114.4860256}, {"type": "node", "id": 5106728711, "lat": 47.0040735, "lon": -114.4836791}, {"type": "node", "id": 5106728712, "lat": 47.004082, "lon": -114.4837119}, {"type": "node", "id": 7827884389, "lat": 47.0017945, "lon": -114.4742355, "tags": {"access": "yes", "leisure": "pitch", "manufacturer": "Evergreen Skateparks", "name": "Alberton Skatepark", "sport": "skateboard", "surface": "concrete"}}, {"type": "node", "id": 8341482303, "lat": 47.0018179, "lon": -114.4748383}, {"type": "node", "id": 8341482304, "lat": 47.0020402, "lon": -114.474782}, {"type": "node", "id": 8341482305, "lat": 47.002058, "lon": -114.4749333}, {"type": "node", "id": 8341482306, "lat": 47.0018358, "lon": -114.4749896}, {"type": "node", "id": 8341482307, "lat": 47.0018546, "lon": -114.4750751}, {"type": "node", "id": 8341482308, "lat": 47.0020652, "lon": -114.4750198}, {"type": "node", "id": 8341482309, "lat": 47.0020829, "lon": -114.475165}, {"type": "node", "id": 8341482310, "lat": 47.0018724, "lon": -114.4752203}, {"type": "node", "id": 8341482394, "lat": 47.0021504, "lon": -114.4824368}, {"type": "node", "id": 8341482395, "lat": 47.0021541, "lon": -114.4823295}, {"type": "node", "id": 8341482396, "lat": 47.0021797, "lon": -114.4821551}, {"type": "node", "id": 8341482397, "lat": 47.0022364, "lon": -114.4820505}, {"type": "node", "id": 8341482398, "lat": 47.0023589, "lon": -114.4819272}, {"type": "node", "id": 8341482399, "lat": 47.002465, "lon": -114.4819164}, {"type": "node", "id": 8341482400, "lat": 47.0026242, "lon": -114.481962}, {"type": "node", "id": 8341482401, "lat": 47.0027394, "lon": -114.4820961}, {"type": "node", "id": 8341482402, "lat": 47.0031363, "lon": -114.4835258}, {"type": "node", "id": 8341482403, "lat": 47.003151, "lon": -114.4836035}, {"type": "node", "id": 8341482404, "lat": 47.0031308, "lon": -114.4837564}, {"type": "node", "id": 8341482405, "lat": 47.0030924, "lon": -114.4838691}, {"type": "node", "id": 8341482406, "lat": 47.0030394, "lon": -114.4839549}, {"type": "node", "id": 8341482407, "lat": 47.0029479, "lon": -114.4840461}, {"type": "node", "id": 8341482408, "lat": 47.0028473, "lon": -114.4840863}, {"type": "node", "id": 8341482409, "lat": 47.0027174, "lon": -114.4840729}, {"type": "node", "id": 8341482410, "lat": 47.0026059, "lon": -114.4840166}, {"type": "node", "id": 8341482411, "lat": 47.0025309, "lon": -114.4839066}, {"type": "node", "id": 8341482412, "lat": 47.0021595, "lon": -114.4825521}, {"type": "node", "id": 8881509173, "lat": 47.0045021, "lon": -114.485164}, {"type": "node", "id": 8881509174, "lat": 47.0047591, "lon": -114.4850158}, {"type": "node", "id": 8881509175, "lat": 47.0048987, "lon": -114.4855359}, {"type": "node", "id": 8881509176, "lat": 47.0046385, "lon": -114.4856849}, {"type": "node", "id": 9321492356, "lat": 47.0035843, "lon": -114.4849467}, {"type": "node", "id": 9321492357, "lat": 47.0033969, "lon": -114.4841878}, {"type": "node", "id": 9321492358, "lat": 47.0025971, "lon": -114.4846127}, {"type": "node", "id": 9321492359, "lat": 47.0027845, "lon": -114.4853714}, {"type": "node", "id": 9793699071, "lat": 47.00397, "lon": -114.4863374}, {"type": "node", "id": 9793699072, "lat": 47.0036799, "lon": -114.4851692}, {"type": "node", "id": 9793699073, "lat": 47.0036123, "lon": -114.4851267}, {"type": "node", "id": 9793699074, "lat": 47.0028079, "lon": -114.4855804}, {"type": "node", "id": 9793699075, "lat": 47.0029027, "lon": -114.4858299}, {"type": "node", "id": 9793699076, "lat": 47.0030863, "lon": -114.4861814}, {"type": "node", "id": 9793699077, "lat": 47.0032584, "lon": -114.4863629}, {"type": "node", "id": 9793699078, "lat": 47.0034286, "lon": -114.4864621}, {"type": "node", "id": 9793699079, "lat": 47.0037399, "lon": -114.4864678}, {"type": "way", "id": 279109207, "nodes": [2833585501, 2833585601, 2833585701, 2833585801, 2833585501], "tags": {"addr:city": "Alberton", "addr:housenumber": "612", "addr:postcode": "59820", "addr:state": "MT", "addr:street": "Railroad Avenue", "amenity": "cafe", "building": "retail", "name": "Fat Belly Deli"}}, {"type": "way", "id": 279109208, "nodes": [2833585802, 2833585901, 2833586001, 2833585902, 2833585802], "tags": {"addr:city": "Alberton", "addr:postcode": "59820", "amenity": "bar", "building": "retail", "name": "Sportsman's Tavern", "wikimedia_commons": "File:Sportsman's Tavern, or Sportsman's Bar, Alberton Montana 2017.jpg"}}, {"type": "way", "id": 279109209, "nodes": [2833586002, 2833586101, 5106728639, 5106728640, 2833586002], "tags": {"addr:city": "Alberton", "addr:housenumber": "301", "addr:postcode": "59820", "addr:state": "MT", "addr:street": "Railroad Avenue", "amenity": "cafe", "building": "yes", "name": "Flying R Cafe"}}, {"type": "way", "id": 279109210, "nodes": [2833586004, 2833586301, 2833586302, 2833585903, 2833586004], "tags": {"amenity": "fuel", "brand": "independent", "fuel:diesel": "yes", "fuel:octane_87": "yes", "fuel:octane_91": "yes", "name": "Cenex"}}, {"type": "way", "id": 279109211, "nodes": [2833586102, 2833585702, 2833585502, 5106727881, 2833586303, 2833586102], "tags": {"addr:city": "Alberton", "addr:housenumber": "406", "addr:postcode": "59820", "addr:state": "MT", "addr:street": "Railroad Avenue", "building": "retail", "name": "Valley Grocery", "shop": "convenience"}}, {"type": "way", "id": 279109212, "nodes": [2833586304, 2833585503, 2833586305, 2833586306, 2833586304], "tags": {"addr:city": "Alberton", "addr:housenumber": "201", "addr:postcode": "59820", "addr:state": "MT", "addr:street": "Railroad Avenue", "brand": "Lakeland Feed", "building": "retail", "name": "Lakeland Feed and Supply", "shop": "farm"}}, {"type": "way", "id": 279109213, "nodes": [2833585803, 2833586401, 2833586501, 5106728712, 5106728711, 2833585904, 2833585803], "tags": {"addr:city": "Alberton", "addr:housenumber": "153", "addr:postcode": "59820", "addr:state": "MT", "addr:street": "Railroad Avenue", "amenity": "post_office", "building": "yes", "operator": "United States Postal Service", "operator:short": "USPS", "operator:type": "public", "operator:website": "https://www.usps.com", "operator:wikidata": "Q668687", "operator:wikipedia": "en:United States Postal Service"}}, {"type": "way", "id": 279109214, "nodes": [2833586103, 2833586601, 2833585504, 2833585905, 2833586103], "tags": {"addr:city": "Alberton", "addr:housenumber": "516", "addr:postcode": "59820", "addr:state": "MT", "addr:street": "Railroad Avenue", "amenity": "bar", "building": "yes", "name": "Trax"}}, {"type": "way", "id": 279109215, "nodes": [2833586602, 2833586402, 2833586701, 2833585602, 2833586602], "tags": {"addr:city": "Alberton", "addr:housenumber": "502", "addr:postcode": "59820", "addr:state": "MT", "addr:street": "Parkway Drive", "amenity": "fire_station", "name": "Frenchtown Fire Station 8"}}, {"type": "way", "id": 279109216, "nodes": [2833586104, 2833586403, 2833586502, 2833585906, 2833586104], "tags": {"amenity": "restaurant", "building": "yes", "name": "The River's Edge Steakhouse"}}, {"type": "way", "id": 279109217, "nodes": [2833586105, 2833586503, 2833585505, 2833586702, 2833586105], "tags": {"caravans": "yes", "name": "The River's Edge RV Resort", "tents": "yes", "tourism": "camp_site"}}, {"type": "way", "id": 446133253, "nodes": [4434584618, 4434584619, 4434584620, 4434584621, 4434584622, 4434584623, 4434584624, 4434584625, 4434584626, 4434584627, 4434584628, 4434584629, 4434584630, 4434584631, 4434584632, 4434584633, 4434584634, 4434584635, 4434584636, 4434584637, 4434584638, 4434584639, 4434584618], "tags": {"addr:city": "Alberton", "addr:housenumber": "306", "addr:postcode": "59820", "addr:state": "MT", "addr:street": "Railroad Street", "amenity": "school", "building": "school", "name": "Alberton High School", "phone": "+1 406-722-3381", "website": "https://www.alberton.k12.mt.us/"}}, {"type": "way", "id": 524828704, "nodes": [5106728627, 5106728626, 5106728625, 5106728624, 5106728623, 5106728622, 5106728627], "tags": {"addr:city": "Alberton", "addr:housenumber": "512", "addr:postcode": "59820", "addr:state": "MT", "addr:street": "Railroad Avenue", "building": "retail", "name": "Montana Valley Book Store", "shop": "books", "website": "https://www.montanavalleybookstore.com/"}}, {"type": "way", "id": 524828705, "nodes": [5106728638, 5106728637, 5106728636, 5106728635, 5106728634, 5106728633, 5106728632, 5106728631, 5106728630, 5106728629, 5106728628, 357979903, 5106728638], "tags": {"amenity": "place_of_worship", "building": "church", "ele": "931", "gnis:feature_id": "1781709", "name": "Alberton Community Church", "religion": "christian"}}, {"type": "way", "id": 524828706, "nodes": [357979913, 5106728649, 5106728648, 5106728647, 5106728646, 5106728645, 5106728644, 5106728643, 5106728642, 5106728641, 357979913], "tags": {"amenity": "school", "ele": "935", "gnis:feature_id": "1781713", "name": "Alberton Public Schools"}}, {"type": "way", "id": 524828708, "nodes": [5106728664, 5106728663, 5106728662, 5106728659, 5106728660, 5106728661, 5106728664], "tags": {"building": "retail", "shop": "antiques"}}, {"type": "way", "id": 524828709, "nodes": [5106728675, 5106728674, 5106728673, 5106728672, 5106728671, 5106728670, 5106728669, 5106728668, 5106728667, 5106728666, 5106728665, 357979906, 5106728675], "tags": {"addr:city": "Alberton", "addr:housenumber": "117", "addr:postcode": "59834", "addr:state": "MT", "addr:street": "Railroad Avenue", "amenity": "place_of_worship", "building": "church", "denomination": "roman_catholic", "diocese": "Helena", "ele": "931", "fax": "+1 406-626-1970", "gnis:feature_id": "1781710", "name": "Saint Albert the Great Catholic Church", "phone": "+1 406-626-4492", "religion": "christian", "website": "https://www.clarkforkcatholic.com/"}}, {"type": "way", "id": 897485477, "nodes": [8341482306, 8341482305, 8341482304, 8341482303, 8341482306], "tags": {"leisure": "pitch", "sport": "tennis"}}, {"type": "way", "id": 897485478, "nodes": [8341482310, 8341482309, 8341482308, 8341482307, 8341482310], "tags": {"leisure": "pitch", "sport": "tennis"}}, {"type": "way", "id": 897485482, "nodes": [8341482412, 8341482411, 8341482410, 8341482409, 8341482408, 8341482407, 8341482406, 8341482405, 8341482404, 8341482403, 8341482402, 8341482401, 8341482400, 8341482399, 8341482398, 8341482397, 8341482396, 8341482395, 8341482394, 8341482412], "tags": {"leisure": "track"}}, {"type": "way", "id": 959925401, "nodes": [8881509176, 8881509175, 8881509174, 8881509173, 8881509176], "tags": {"amenity": "parking"}}, {"type": "way", "id": 1010275098, "nodes": [9321492356, 9321492357, 9321492358, 9321492359, 9321492356], "tags": {"leisure": "pitch", "name": "Practice Football Field", "sport": "american_football"}}, {"type": "way", "id": 1066568887, "nodes": [9793699071, 9793699072, 9793699073, 9793699074, 9793699075, 9793699076, 9793699077, 9793699078, 9793699079, 9793699071], "tags": {"leisure": "pitch", "sport": "baseball"}}]}