{"version": 0.6, "generator": "Overpass API 0.7.62.8 e802775f", "osm3s": {"timestamp_osm_base": "2025-12-06T20:19:45Z", "copyright": "The data included in this document is from www.openstreetmap.org. The data is made available under ODbL."}, "elements": [{"type": "node", "id": 347203773, "lat": 47.3325662, "lon": -122.607904, "tags": {"created_by": "JOSM"}}, {"type": "node", "id": 356543853, "lat": 47.3303621, "lon": -122.6027692}, {"type": "node", "id": 356543854, "lat": 47.3301044, "lon": -122.6076932}, {"type": "node", "id": 356543858, "lat": 47.3412696, "lon": -122.5921096}, {"type": "node", "id": 444673787, "lat": 47.3288425, "lon": -122.6022245, "tags": {"addr:city": "Gig Harbor", "addr:housenumber": "7700", "addr:postcode": "98335", "addr:state": "WA", "addr:street": "Skansie Avenue", "amenity": "place_of_worship", "denomination": "presbyterian", "name": "Chapel Hill", "religion": "christian", "service_times": "9:00 am, 11 am Sun", "website": "https://www.chapelhillpc.org/"}}, {"type": "node", "id": 1266037348, "lat": 47.3408868, "lon": -122.5918782}, {"type": "node", "id": 1266037352, "lat": 47.3297748, "lon": -122.5863016, "tags": {"amenity": "place_of_worship", "religion": "christian"}}, {"type": "node", "id": 1266037357, "lat": 47.3403733, "lon": -122.5932989}, {"type": "node", "id": 1266037363, "lat": 47.3408468, "lon": -122.5939044}, {"type": "node", "id": 1266037389, "lat": 47.3402082, "lon": -122.5933782}, {"type": "node", "id": 1532105367, "lat": 47.3185728, "lon": -122.5875048}, {"type": "node", "id": 1532105371, "lat": 47.3186225, "lon": -122.5873643}, {"type": "node", "id": 1532105374, "lat": 47.3186647, "lon": -122.5873942}, {"type": "node", "id": 1532105377, "lat": 47.3187304, "lon": -122.5872213}, {"type": "node", "id": 1532105380, "lat": 47.3193246, "lon": -122.5881251}, {"type": "node", "id": 1532105381, "lat": 47.3193347, "lon": -122.5877211}, {"type": "node", "id": 1532105384, "lat": 47.3195639, "lon": -122.5882631}, {"type": "node", "id": 1532105385, "lat": 47.3195917, "lon": -122.5878914}, {"type": "node", "id": 1532105391, "lat": 47.3198226, "lon": -122.5879934}, {"type": "node", "id": 1532105392, "lat": 47.3198412, "lon": -122.588385}, {"type": "node", "id": 1532105398, "lat": 47.3200586, "lon": -122.5880729}, {"type": "node", "id": 1532105405, "lat": 47.3202752, "lon": -122.5881028}, {"type": "node", "id": 1532105409, "lat": 47.3204876, "lon": -122.5885018}, {"type": "node", "id": 1532105410, "lat": 47.3205002, "lon": -122.5881214}, {"type": "node", "id": 1532105432, "lat": 47.3228938, "lon": -122.5908552}, {"type": "node", "id": 1532105433, "lat": 47.3228989, "lon": -122.5909174}, {"type": "node", "id": 1532105434, "lat": 47.3229048, "lon": -122.5908067}, {"type": "node", "id": 1532105436, "lat": 47.3229292, "lon": -122.5909758}, {"type": "node", "id": 1532105438, "lat": 47.3229376, "lon": -122.5907557}, {"type": "node", "id": 1532105448, "lat": 47.3229882, "lon": -122.5907433}, {"type": "node", "id": 1532105453, "lat": 47.3232066, "lon": -122.5912604}, {"type": "node", "id": 1532105455, "lat": 47.3232139, "lon": -122.5912231}, {"type": "node", "id": 1532105466, "lat": 47.3232242, "lon": -122.5908825}, {"type": "node", "id": 1532105478, "lat": 47.3232427, "lon": -122.5911573}, {"type": "node", "id": 1532105481, "lat": 47.3232564, "lon": -122.5912815}, {"type": "node", "id": 1532105483, "lat": 47.3232596, "lon": -122.5909571}, {"type": "node", "id": 1532105485, "lat": 47.3232636, "lon": -122.5912442}, {"type": "node", "id": 1532105489, "lat": 47.3232781, "lon": -122.5909845}, {"type": "node", "id": 2877726196, "lat": 47.3275512, "lon": -122.5799395}, {"type": "node", "id": 2877726197, "lat": 47.3274986, "lon": -122.5798767}, {"type": "node", "id": 2877726198, "lat": 47.3274925, "lon": -122.5788595}, {"type": "node", "id": 2877726199, "lat": 47.327892, "lon": -122.5788544}, {"type": "node", "id": 2877726200, "lat": 47.3279065, "lon": -122.5813255}, {"type": "node", "id": 2877726401, "lat": 47.3275648, "lon": -122.5812547}, {"type": "node", "id": 3980097713, "lat": 47.3374813, "lon": -122.5935523}, {"type": "node", "id": 3980097728, "lat": 47.3371378, "lon": -122.5936327}, {"type": "node", "id": 3980097733, "lat": 47.3372579, "lon": -122.5934529}, {"type": "node", "id": 3980097734, "lat": 47.3372378, "lon": -122.5934959}, {"type": "node", "id": 3980097750, "lat": 47.3371432, "lon": -122.5930105}, {"type": "node", "id": 3980097752, "lat": 47.3371578, "lon": -122.593791}, {"type": "node", "id": 3980100959, "lat": 47.3372215, "lon": -122.5938659}, {"type": "node", "id": 3980100962, "lat": 47.3373342, "lon": -122.5936648}, {"type": "node", "id": 3980100978, "lat": 47.3370342, "lon": -122.5931768}, {"type": "node", "id": 3980100982, "lat": 47.337216, "lon": -122.5934503}, {"type": "node", "id": 3980100983, "lat": 47.3373759, "lon": -122.5937293}, {"type": "node", "id": 3980100984, "lat": 47.3372596, "lon": -122.5935201}, {"type": "node", "id": 3980100985, "lat": 47.3372414, "lon": -122.5934128}, {"type": "node", "id": 3993276269, "lat": 47.3360875, "lon": -122.5912541}, {"type": "node", "id": 3993276294, "lat": 47.3363016, "lon": -122.5920878}, {"type": "node", "id": 3993276310, "lat": 47.3363435, "lon": -122.5921253}, {"type": "node", "id": 3993276314, "lat": 47.3358908, "lon": -122.5914387}, {"type": "node", "id": 3993276320, "lat": 47.3362344, "lon": -122.5917739}, {"type": "node", "id": 3993276661, "lat": 47.3359636, "lon": -122.5912268}, {"type": "node", "id": 3993276668, "lat": 47.3360421, "lon": -122.5920454}, {"type": "node", "id": 3993276670, "lat": 47.3361181, "lon": -122.5922648}, {"type": "node", "id": 3993276681, "lat": 47.3362984, "lon": -122.5919756}, {"type": "node", "id": 3993276696, "lat": 47.3358854, "lon": -122.5912831}, {"type": "node", "id": 3993276718, "lat": 47.3362289, "lon": -122.5924928}, {"type": "node", "id": 3993276719, "lat": 47.3360439, "lon": -122.5911898}, {"type": "node", "id": 4098898240, "lat": 47.3227387, "lon": -122.5903676}, {"type": "node", "id": 4098898241, "lat": 47.3227541, "lon": -122.5899786}, {"type": "node", "id": 4098898242, "lat": 47.3226368, "lon": -122.5900832}, {"type": "node", "id": 4098898243, "lat": 47.322625, "lon": -122.5901195}, {"type": "node", "id": 4098898244, "lat": 47.3226278, "lon": -122.5901516}, {"type": "node", "id": 4098898253, "lat": 47.3226923, "lon": -122.5899532}, {"type": "node", "id": 4098898254, "lat": 47.3226196, "lon": -122.5897748}, {"type": "node", "id": 4098898255, "lat": 47.3225296, "lon": -122.5898579}, {"type": "node", "id": 4098898256, "lat": 47.3226041, "lon": -122.5900336}, {"type": "node", "id": 4098900966, "lat": 47.3217191, "lon": -122.5879562, "tags": {"addr:city": "Gig Harbor", "addr:housenumber": "6908", "addr:postcode": "98332", "addr:state": "WA", "addr:street": "Kimball Drive", "amenity": "fast_food", "brand": "Burger King", "brand:wikidata": "Q177054", "cuisine": "burger", "drive_through": "yes", "internet_access": "wlan", "name": "Burger King", "opening_hours": "Mo-Sa 06:00-22:00; Su 07:00-22:00", "phone": "+1-253-853-6902", "ref": "11433", "takeaway": "yes", "website": "https://www.bk.com/store-locator/store/restaurant_6538"}}, {"type": "node", "id": 4098915396, "lat": 47.3205007, "lon": -122.5873618, "tags": {"addr:city": "Gig Harbor", "addr:housenumber": "6820", "addr:postcode": "98332", "addr:state": "WA", "addr:street": "Kimball Drive", "name": "Old Town Bicycle", "shop": "bicycle", "suite": "1"}}, {"type": "node", "id": 4098930394, "lat": 47.3205658, "lon": -122.5864782}, {"type": "node", "id": 4098930395, "lat": 47.3205654, "lon": -122.5863563}, {"type": "node", "id": 4098930396, "lat": 47.3202537, "lon": -122.5863584}, {"type": "node", "id": 4098930397, "lat": 47.3202541, "lon": -122.5864803}, {"type": "node", "id": 4098930805, "lat": 47.3202192, "lon": -122.587506, "tags": {"addr:city": "Gig Harbor", "addr:housenumber": "6750", "addr:postcode": "98335", "addr:state": "WA", "addr:street": "Kimball Drive", "amenity": "car_wash", "name": "The Great Car Care Center"}}, {"type": "node", "id": 4098935247, "lat": 47.3205145, "lon": -122.586174}, {"type": "node", "id": 4098935248, "lat": 47.3205153, "lon": -122.5860513}, {"type": "node", "id": 4098935249, "lat": 47.3203681, "lon": -122.5860491}, {"type": "node", "id": 4098935250, "lat": 47.3203672, "lon": -122.5861718}, {"type": "node", "id": 4098955150, "lat": 47.3293626, "lon": -122.5784448}, {"type": "node", "id": 4098955151, "lat": 47.3294257, "lon": -122.5782731}, {"type": "node", "id": 4098955153, "lat": 47.3292977, "lon": -122.5782865}, {"type": "node", "id": 4098955154, "lat": 47.3292098, "lon": -122.5782162}, {"type": "node", "id": 4098955155, "lat": 47.3291887, "lon": -122.5782737}, {"type": "node", "id": 4098955156, "lat": 47.3291259, "lon": -122.5782234}, {"type": "node", "id": 4098955157, "lat": 47.3290827, "lon": -122.578341}, {"type": "node", "id": 4098955158, "lat": 47.3293056, "lon": -122.5785193}, {"type": "node", "id": 4098955159, "lat": 47.3293397, "lon": -122.5784265}, {"type": "node", "id": 4098978885, "lat": 47.3272995, "lon": -122.5830818}, {"type": "node", "id": 4098978886, "lat": 47.3272979, "lon": -122.5828152}, {"type": "node", "id": 4098978887, "lat": 47.3270698, "lon": -122.5828182}, {"type": "node", "id": 4098978888, "lat": 47.3270714, "lon": -122.5830848}, {"type": "node", "id": 4098979421, "lat": 47.3281823, "lon": -122.5821018}, {"type": "node", "id": 4098979422, "lat": 47.3282404, "lon": -122.5820334}, {"type": "node", "id": 4098979423, "lat": 47.328195, "lon": -122.5819497}, {"type": "node", "id": 4098979424, "lat": 47.328137, "lon": -122.5820181}, {"type": "node", "id": 4098979425, "lat": 47.3283467, "lon": -122.5819305}, {"type": "node", "id": 4098979426, "lat": 47.3284407, "lon": -122.5818262}, {"type": "node", "id": 4098979427, "lat": 47.3283219, "lon": -122.5815933}, {"type": "node", "id": 4098979428, "lat": 47.3282279, "lon": -122.5816976}, {"type": "node", "id": 4098979443, "lat": 47.3283247, "lon": -122.5806973}, {"type": "node", "id": 4098979444, "lat": 47.328323, "lon": -122.5805365}, {"type": "node", "id": 4098979445, "lat": 47.3283436, "lon": -122.580536}, {"type": "node", "id": 4098979446, "lat": 47.3283431, "lon": -122.5804851}, {"type": "node", "id": 4098979447, "lat": 47.3283585, "lon": -122.5804848}, {"type": "node", "id": 4098979448, "lat": 47.3283577, "lon": -122.5804087}, {"type": "node", "id": 4098979449, "lat": 47.3283379, "lon": -122.5804092}, {"type": "node", "id": 4098979450, "lat": 47.3283374, "lon": -122.5803653}, {"type": "node", "id": 4098979451, "lat": 47.3283157, "lon": -122.5803658}, {"type": "node", "id": 4098979452, "lat": 47.328315, "lon": -122.5803038}, {"type": "node", "id": 4098979453, "lat": 47.3281945, "lon": -122.5803065}, {"type": "node", "id": 4098979454, "lat": 47.328195, "lon": -122.5803556}, {"type": "node", "id": 4098979455, "lat": 47.3281724, "lon": -122.5803561}, {"type": "node", "id": 4098979456, "lat": 47.3281728, "lon": -122.5803908}, {"type": "node", "id": 4098979457, "lat": 47.3281208, "lon": -122.580392}, {"type": "node", "id": 4098979458, "lat": 47.3281218, "lon": -122.5804897}, {"type": "node", "id": 4098979459, "lat": 47.3281545, "lon": -122.5804889}, {"type": "node", "id": 4098979460, "lat": 47.328155, "lon": -122.5805374}, {"type": "node", "id": 4098979461, "lat": 47.3281857, "lon": -122.5805367}, {"type": "node", "id": 4098979462, "lat": 47.3281873, "lon": -122.5806864}, {"type": "node", "id": 4098988148, "lat": 47.3274619, "lon": -122.581236, "tags": {"addr:city": "Gig Harbor", "addr:housenumber": "3118", "addr:postcode": "98335", "addr:state": "WA", "addr:street": "Judson Street", "amenity": "post_office", "brand": "United States Post Office", "brand:wikidata": "Q668687", "name": "United States Post Office", "operator": "United States Postal Service", "operator:short": "USPS", "operator:type": "public", "operator:website": "https://www.usps.com", "operator:wikidata": "Q668687", "operator:wikipedia": "en:United States Postal Service", "short_name": "USPS"}}, {"type": "node", "id": 4098998319, "lat": 47.3301807, "lon": -122.5821473}, {"type": "node", "id": 4098998320, "lat": 47.3302095, "lon": -122.5820748}, {"type": "node", "id": 4098998321, "lat": 47.3301916, "lon": -122.5820594}, {"type": "node", "id": 4098998322, "lat": 47.3302112, "lon": -122.5820102}, {"type": "node", "id": 4098998323, "lat": 47.33023, "lon": -122.5820265}, {"type": "node", "id": 4098998324, "lat": 47.3302657, "lon": -122.5819367}, {"type": "node", "id": 4098998325, "lat": 47.3302477, "lon": -122.5819212}, {"type": "node", "id": 4098998326, "lat": 47.33027, "lon": -122.5818652}, {"type": "node", "id": 4098998327, "lat": 47.3302341, "lon": -122.5818342}, {"type": "node", "id": 4098998328, "lat": 47.3302449, "lon": -122.5818071}, {"type": "node", "id": 4098998329, "lat": 47.3302004, "lon": -122.5817686}, {"type": "node", "id": 4098998330, "lat": 47.3301908, "lon": -122.5817927}, {"type": "node", "id": 4098998331, "lat": 47.3301776, "lon": -122.5817812}, {"type": "node", "id": 4098998332, "lat": 47.3300701, "lon": -122.5820516}, {"type": "node", "id": 4099006318, "lat": 47.3304885, "lon": -122.5815346}, {"type": "node", "id": 4099006319, "lat": 47.3305293, "lon": -122.5814226}, {"type": "node", "id": 4099006320, "lat": 47.3304563, "lon": -122.5813649}, {"type": "node", "id": 4099006321, "lat": 47.3304156, "lon": -122.5814769}, {"type": "node", "id": 4099006322, "lat": 47.3303351, "lon": -122.5815703}, {"type": "node", "id": 4099006323, "lat": 47.3304005, "lon": -122.581418}, {"type": "node", "id": 4099006324, "lat": 47.3303152, "lon": -122.5813382}, {"type": "node", "id": 4099006325, "lat": 47.3302498, "lon": -122.5814905}, {"type": "node", "id": 4101208388, "lat": 47.3375764, "lon": -122.5939974}, {"type": "node", "id": 4101208689, "lat": 47.3376564, "lon": -122.5939223}, {"type": "node", "id": 4101208690, "lat": 47.3376091, "lon": -122.5938285}, {"type": "node", "id": 4101208691, "lat": 47.3375328, "lon": -122.5938982}, {"type": "node", "id": 4101213348, "lat": 47.3393718, "lon": -122.5904489}, {"type": "node", "id": 4101213349, "lat": 47.3393972, "lon": -122.5904113}, {"type": "node", "id": 4101213350, "lat": 47.3393672, "lon": -122.5903724}, {"type": "node", "id": 4101213351, "lat": 47.3393418, "lon": -122.590406}, {"type": "node", "id": 4106966116, "lat": 47.3389312, "lon": -122.5906423, "tags": {"name": "Finholm's Market", "shop": "convenience"}}, {"type": "node", "id": 4106966143, "lat": 47.3391311, "lon": -122.5898054, "tags": {"amenity": "restaurant", "cuisine": "seafood", "name": "Anthony's at Gig Harbor", "opening_hours": "Mo-Th 11:30-21:00; Fr-Sa 11:30-22:00; Su 10:00-21:00", "phone": "+1-253-853-6353", "website": "https://www.anthonys.com/restaurants/detail/anthonys-at-gig-harbor"}}, {"type": "node", "id": 4106966650, "lat": 47.337056, "lon": -122.593527, "tags": {"amenity": "restaurant", "cuisine": "gourmet", "name": "Animarum"}}, {"type": "node", "id": 4106966651, "lat": 47.336907, "lon": -122.5933714, "tags": {"name": "Gig Harbor Auto Service", "shop": "car_repair"}}, {"type": "node", "id": 4106969535, "lat": 47.3369632, "lon": -122.5943525, "tags": {"addr:city": "Gig Harbor", "addr:housenumber": "4120", "addr:postcode": "98332", "addr:state": "WA", "addr:street": "Harborview Drive", "amenity": "restaurant", "cuisine": "burger", "name": "Gourmet Burger Shop"}}, {"type": "node", "id": 4120411500, "lat": 47.3398391, "lon": -122.589542, "tags": {"addr:city": "Gig Harbor", "addr:housenumber": "9014", "addr:postcode": "98332", "addr:state": "WA", "addr:street": "Peacock Hill Avenue", "amenity": "restaurant", "cuisine": "american", "name": "Morso"}}, {"type": "node", "id": 4120411501, "lat": 47.3390984, "lon": -122.5903882, "tags": {"addr:city": "Gig Harbor", "addr:housenumber": "8822", "addr:postcode": "98332", "addr:state": "WA", "addr:street": "North Harborview Drive", "name": "Peninsula Laundry & Dry Cleaners", "shop": "dry_cleaning"}}, {"type": "node", "id": 4120411502, "lat": 47.3389967, "lon": -122.59007, "tags": {"addr:city": "Gig Harbor", "addr:housenumber": "8825", "addr:postcode": "98332", "addr:state": "WA", "addr:street": "North Harborview Drive", "amenity": "restaurant", "cuisine": "thai", "name": "Gig Harbor Thai Cuisine"}}, {"type": "node", "id": 4120411503, "lat": 47.3388485, "lon": -122.5902514, "tags": {"amenity": "cafe", "name": "Devoted Kiss Cafe"}}, {"type": "node", "id": 4120411504, "lat": 47.3386031, "lon": -122.5905263, "tags": {"addr:city": "Gig Harbor", "addr:housenumber": "8805", "addr:postcode": "98332", "addr:state": "WA", "addr:street": "North Harborview Drive", "name": "Sea Hags", "shop": "gift"}}, {"type": "node", "id": 4120411505, "lat": 47.3368046, "lon": -122.5940565, "tags": {"addr:city": "Gig Harbor", "addr:housenumber": "4116", "addr:postcode": "98332", "addr:state": "WA", "addr:street": "Harborview Drive", "amenity": "restaurant", "cuisine": "thai", "name": "Thai Hut"}}, {"type": "node", "id": 4120411506, "lat": 47.3366137, "lon": -122.5938714, "tags": {"addr:city": "Gig Harbor", "addr:housenumber": "4102", "addr:postcode": "98332", "addr:state": "WA", "addr:street": "Harborview Drive", "name": "Beach Basket Gift, Clothing & Christmas Shop", "shop": "gift"}}, {"type": "node", "id": 4120411539, "lat": 47.3330805, "lon": -122.5891903}, {"type": "node", "id": 4120411540, "lat": 47.333079, "lon": -122.5889533}, {"type": "node", "id": 4120411541, "lat": 47.3330033, "lon": -122.5889544}, {"type": "node", "id": 4120411542, "lat": 47.333003, "lon": -122.5889067}, {"type": "node", "id": 4120411543, "lat": 47.3329401, "lon": -122.5889076}, {"type": "node", "id": 4120411544, "lat": 47.3329397, "lon": -122.5888473}, {"type": "node", "id": 4120411545, "lat": 47.3327963, "lon": -122.5888493}, {"type": "node", "id": 4120411546, "lat": 47.3327968, "lon": -122.5889371}, {"type": "node", "id": 4120411547, "lat": 47.3327729, "lon": -122.5889375}, {"type": "node", "id": 4120411548, "lat": 47.3327734, "lon": -122.5890166}, {"type": "node", "id": 4120411549, "lat": 47.332803, "lon": -122.5890161}, {"type": "node", "id": 4120411550, "lat": 47.3328035, "lon": -122.5890866}, {"type": "node", "id": 4120411551, "lat": 47.3328504, "lon": -122.5890859}, {"type": "node", "id": 4120411552, "lat": 47.3328506, "lon": -122.5891237}, {"type": "node", "id": 4120411553, "lat": 47.3329894, "lon": -122.5891217}, {"type": "node", "id": 4120411554, "lat": 47.3329898, "lon": -122.5891916}, {"type": "node", "id": 4120411555, "lat": 47.333163, "lon": -122.5887979, "tags": {"addr:city": "Gig Harbor", "addr:housenumber": "3720", "addr:postcode": "98332", "addr:state": "WA", "addr:street": "Harborview Drive", "name": "Lighthouse Marine, Inc.", "shop": "outdoor"}}, {"type": "node", "id": 4120423993, "lat": 47.3322527, "lon": -122.5827604}, {"type": "node", "id": 4120423994, "lat": 47.3323727, "lon": -122.5828341}, {"type": "node", "id": 4120423995, "lat": 47.3324727, "lon": -122.5825672}, {"type": "node", "id": 4120423996, "lat": 47.3324491, "lon": -122.5825431}, {"type": "node", "id": 4120423997, "lat": 47.3323145, "lon": -122.5825753}, {"type": "node", "id": 4120424004, "lat": 47.331152, "lon": -122.5826745, "tags": {"addr:city": "Gig Harbor", "addr:housenumber": "3226", "addr:postcode": "98335", "addr:state": "WA", "addr:street": "Harborview Drive", "amenity": "restaurant", "cuisine": "mexican", "name": "El Pueblito"}}, {"type": "node", "id": 4120424005, "lat": 47.3309711, "lon": -122.582805, "tags": {"addr:city": "Gig Harbor", "addr:housenumber": "3226", "addr:postcode": "98335", "addr:state": "WA", "addr:street": "Harborview Drive", "name": "Voodoo Vapors", "shop": "convenience"}}, {"type": "node", "id": 4120440097, "lat": 47.3296495, "lon": -122.5808072, "tags": {"addr:city": "Gig Harbor", "addr:housenumber": "3115", "addr:postcode": "98335", "addr:state": "WA", "addr:street": "Harborview Drive", "name": "Gig Harbor Fly Shop", "shop": "fishing", "website": "https://gigharborflyshop.com"}}, {"type": "node", "id": 4154772510, "lat": 47.3455199, "lon": -122.5814269}, {"type": "node", "id": 4154772511, "lat": 47.3455563, "lon": -122.5817059}, {"type": "node", "id": 4154772512, "lat": 47.3461397, "lon": -122.5815449}, {"type": "node", "id": 4154772513, "lat": 47.3461415, "lon": -122.5815047}, {"type": "node", "id": 4154772514, "lat": 47.3462705, "lon": -122.5815101}, {"type": "node", "id": 4154772515, "lat": 47.3462741, "lon": -122.581266}, {"type": "node", "id": 4154772527, "lat": 47.3459125, "lon": -122.5822993}, {"type": "node", "id": 4154772528, "lat": 47.3460809, "lon": -122.5820711}, {"type": "node", "id": 4154772529, "lat": 47.3459903, "lon": -122.5819253}, {"type": "node", "id": 4154772530, "lat": 47.3458219, "lon": -122.5821536}, {"type": "node", "id": 4154772531, "lat": 47.3457981, "lon": -122.5825412}, {"type": "node", "id": 4154772532, "lat": 47.3458857, "lon": -122.5824302}, {"type": "node", "id": 4154772533, "lat": 47.3458285, "lon": -122.5823317}, {"type": "node", "id": 4154772534, "lat": 47.3457408, "lon": -122.5824428}, {"type": "node", "id": 4154772545, "lat": 47.3461733, "lon": -122.5786629}, {"type": "node", "id": 4154772546, "lat": 47.3461696, "lon": -122.5788775}, {"type": "node", "id": 4154772547, "lat": 47.3458543, "lon": -122.5788655}, {"type": "node", "id": 4154772548, "lat": 47.345858, "lon": -122.578651}, {"type": "node", "id": 4160075158, "lat": 47.3305065, "lon": -122.5934742}, {"type": "node", "id": 4160075159, "lat": 47.3304974, "lon": -122.593194}, {"type": "node", "id": 4160075160, "lat": 47.3303283, "lon": -122.593206}, {"type": "node", "id": 4160075161, "lat": 47.3303374, "lon": -122.5934862}, {"type": "node", "id": 4202636420, "lat": 47.3286228, "lon": -122.5777154}, {"type": "node", "id": 4202636421, "lat": 47.3288197, "lon": -122.5773187}, {"type": "node", "id": 4202636422, "lat": 47.3287305, "lon": -122.5772223}, {"type": "node", "id": 4202636423, "lat": 47.328651, "lon": -122.5773824}, {"type": "node", "id": 4202636424, "lat": 47.3285048, "lon": -122.5772244}, {"type": "node", "id": 4202636425, "lat": 47.3283873, "lon": -122.5774609}, {"type": "node", "id": 4202636426, "lat": 47.3293808, "lon": -122.5803261}, {"type": "node", "id": 4202636427, "lat": 47.329866, "lon": -122.579904}, {"type": "node", "id": 4202636428, "lat": 47.3297643, "lon": -122.5797744}, {"type": "node", "id": 4202636429, "lat": 47.3297443, "lon": -122.5797898}, {"type": "node", "id": 4202636430, "lat": 47.3297191, "lon": -122.5797244}, {"type": "node", "id": 4202636431, "lat": 47.3295634, "lon": -122.5798629}, {"type": "node", "id": 4202636432, "lat": 47.3295217, "lon": -122.5797705}, {"type": "node", "id": 4202636433, "lat": 47.3294991, "lon": -122.5793741}, {"type": "node", "id": 4202636434, "lat": 47.3294687, "lon": -122.5793959}, {"type": "node", "id": 4202636435, "lat": 47.3295, "lon": -122.5799027}, {"type": "node", "id": 4202636436, "lat": 47.3294452, "lon": -122.5799643}, {"type": "node", "id": 4202636437, "lat": 47.3294713, "lon": -122.5800335}, {"type": "node", "id": 4202636438, "lat": 47.3293469, "lon": -122.5801298}, {"type": "node", "id": 4202636441, "lat": 47.3294258, "lon": -122.5792363}, {"type": "node", "id": 4202636442, "lat": 47.3293922, "lon": -122.579137}, {"type": "node", "id": 4202636443, "lat": 47.3293367, "lon": -122.5791974}, {"type": "node", "id": 4202636444, "lat": 47.3293013, "lon": -122.5791772}, {"type": "node", "id": 4202636455, "lat": 47.3295945, "lon": -122.579122}, {"type": "node", "id": 4202636456, "lat": 47.3295598, "lon": -122.5789171}, {"type": "node", "id": 4202636457, "lat": 47.329364, "lon": -122.5790886}, {"type": "node", "id": 4202636458, "lat": 47.3293414, "lon": -122.5790287}, {"type": "node", "id": 4202636460, "lat": 47.3293719, "lon": -122.5789713}, {"type": "node", "id": 4202636461, "lat": 47.3294382, "lon": -122.5788869}, {"type": "node", "id": 4202636462, "lat": 47.3295189, "lon": -122.5788145}, {"type": "node", "id": 4202636463, "lat": 47.3294832, "lon": -122.5787213}, {"type": "node", "id": 4202636464, "lat": 47.3294839, "lon": -122.5786435}, {"type": "node", "id": 4202636465, "lat": 47.3294088, "lon": -122.5785545}, {"type": "node", "id": 4202636466, "lat": 47.3293874, "lon": -122.5785063}, {"type": "node", "id": 4202636467, "lat": 47.3293079, "lon": -122.5785454}, {"type": "node", "id": 4202636468, "lat": 47.3291253, "lon": -122.578404}, {"type": "node", "id": 4202636469, "lat": 47.3291202, "lon": -122.5784958}, {"type": "node", "id": 4202636470, "lat": 47.3291359, "lon": -122.5785425}, {"type": "node", "id": 4202636471, "lat": 47.3291152, "lon": -122.5785908}, {"type": "node", "id": 4202636475, "lat": 47.3290887, "lon": -122.5786051}, {"type": "node", "id": 4202636476, "lat": 47.3290424, "lon": -122.5786097}, {"type": "node", "id": 4202636477, "lat": 47.3289877, "lon": -122.5786192}, {"type": "node", "id": 4202636478, "lat": 47.3289173, "lon": -122.5786267}, {"type": "node", "id": 4202636479, "lat": 47.328952, "lon": -122.5786944}, {"type": "node", "id": 4202636480, "lat": 47.3290274, "lon": -122.5787832}, {"type": "node", "id": 4202636481, "lat": 47.3291019, "lon": -122.578878}, {"type": "node", "id": 4202636482, "lat": 47.3291569, "lon": -122.5789652}, {"type": "node", "id": 4202636483, "lat": 47.3292161, "lon": -122.5791092}, {"type": "node", "id": 4202636484, "lat": 47.3292314, "lon": -122.5791744}, {"type": "node", "id": 4202636485, "lat": 47.3284375, "lon": -122.5780677}, {"type": "node", "id": 4202636486, "lat": 47.3284914, "lon": -122.5779619}, {"type": "node", "id": 4202636487, "lat": 47.3285531, "lon": -122.5780304}, {"type": "node", "id": 4202636488, "lat": 47.3287111, "lon": -122.5777209}, {"type": "node", "id": 4202637889, "lat": 47.3286524, "lon": -122.5776557}, {"type": "node", "id": 4202637890, "lat": 47.3282567, "lon": -122.5777275}, {"type": "node", "id": 4202637891, "lat": 47.3284268, "lon": -122.5779165}, {"type": "node", "id": 4202637892, "lat": 47.3283814, "lon": -122.5780054}, {"type": "node", "id": 4202637893, "lat": 47.328763, "lon": -122.5772574}, {"type": "node", "id": 4209605936, "lat": 47.3295235, "lon": -122.5807393, "tags": {"addr:housenumber": "3419", "addr:street": "Harborview Drive", "name": "Gig Harbor Yacht Sales", "shop": "boat", "website": "http://ghluxuryyachts.com"}}, {"type": "node", "id": 4209605937, "lat": 47.3291259, "lon": -122.5799705, "tags": {"addr:housenumber": "3022", "addr:street": "Harborview Drive", "name": "Gig Harbor Real Estate", "office": "estate_agent"}}, {"type": "node", "id": 4209605938, "lat": 47.3295283, "lon": -122.5806342, "tags": {"addr:city": "Gig Harbor", "addr:housenumber": "3111", "addr:postcode": "98335", "addr:state": "WA", "addr:street": "Harborview Drive", "addr:unit": "200B", "fax": "+1-253-858-2230", "name": "Fournier Insurance Solutions", "office": "insurance", "phone": "+1-800-860-3010", "website": "https://fournierinsurance.com/"}}, {"type": "node", "id": 4209605939, "lat": 47.3291236, "lon": -122.5799118, "tags": {"addr:housenumber": "3016", "addr:street": "Harborview Drive", "name": "Alinda Morris Interior Design", "shop": "interior_decoration", "website": "https://www.alindamorrisinteriordesign.com"}}, {"type": "node", "id": 4209605940, "lat": 47.3294948, "lon": -122.5807471, "tags": {"name": "Windermere Real Estate", "office": "estate_agent"}}, {"type": "node", "id": 4209605941, "lat": 47.329103, "lon": -122.579814, "tags": {"addr:housenumber": "3004", "addr:street": "Harborview Drive", "name": "Morrison House Sotheby's", "office": "estate_agent"}}, {"type": "node", "id": 4209605943, "lat": 47.3290649, "lon": -122.5797325, "tags": {"addr:housenumber": "3002", "addr:street": "Harborview Drive", "name": "Peninsula Eye Clinic", "shop": "optician"}}, {"type": "node", "id": 4209605944, "lat": 47.3292229, "lon": -122.5807714, "tags": {"addr:city": "Gig Harbor", "addr:housenumber": "3110", "addr:postcode": "98335", "addr:state": "WA", "addr:street": "Harborview Drive", "name": "All Star Guitar & Academy", "shop": "musical_instrument", "website": "https://allstar-guitar.com"}}, {"type": "node", "id": 4209605945, "lat": 47.3292159, "lon": -122.5804846, "tags": {"addr:city": "Gig Harbor", "addr:housenumber": "3106", "addr:postcode": "98335", "addr:state": "WA", "addr:street": "Harborview Drive", "name": "Lost Star", "shop": "games"}}, {"type": "node", "id": 4209605947, "lat": 47.3292168, "lon": -122.5804361, "tags": {"addr:housenumber": "3100", "addr:street": "Harborview Drive", "name": "Psychic Boutique", "shop": "psychic"}}, {"type": "node", "id": 4210088423, "lat": 47.3295863, "lon": -122.5805897, "tags": {"addr:city": "Gig Harbor", "addr:housenumber": "3111", "addr:postcode": "98335", "addr:state": "WA", "addr:street": "Harborview Drive", "name": "Jax Salon & Spa", "shop": "beauty"}}, {"type": "node", "id": 4526088079, "lat": 47.3200546, "lon": -122.5864197, "tags": {"addr:city": "Gig Harbor", "addr:housenumber": "6745", "addr:postcode": "98335", "addr:state": "WA", "addr:street": "Kimball Drive", "addr:unit": "D", "name": "Kent Cashman - State Farm Insurance Agent", "office": "insurance", "phone": "+1-253-851-5116", "website": "https://kentcashman.com/"}}, {"type": "node", "id": 4526552650, "lat": 47.3202087, "lon": -122.5865653}, {"type": "node", "id": 4526552651, "lat": 47.3202075, "lon": -122.586782}, {"type": "node", "id": 4526552652, "lat": 47.3198535, "lon": -122.5867776}, {"type": "node", "id": 4526552653, "lat": 47.3198547, "lon": -122.5865609}, {"type": "node", "id": 4526552654, "lat": 47.3202079, "lon": -122.5862976}, {"type": "node", "id": 4526552655, "lat": 47.3198493, "lon": -122.5862853}, {"type": "node", "id": 4526552656, "lat": 47.3198522, "lon": -122.5861055}, {"type": "node", "id": 4526552657, "lat": 47.3202107, "lon": -122.5861178}, {"type": "node", "id": 5424246733, "lat": 47.3276275, "lon": -122.581329}, {"type": "node", "id": 5424425219, "lat": 47.3267929, "lon": -122.6028674}, {"type": "node", "id": 5424447526, "lat": 47.3275738, "lon": -122.6041473}, {"type": "node", "id": 5424447533, "lat": 47.3269948, "lon": -122.6027672}, {"type": "node", "id": 5424447534, "lat": 47.3271357, "lon": -122.6026924}, {"type": "node", "id": 5424447540, "lat": 47.3276846, "lon": -122.603921}, {"type": "node", "id": 5424447541, "lat": 47.3274709, "lon": -122.6043602}, {"type": "node", "id": 5424447542, "lat": 47.3281057, "lon": -122.6039281}, {"type": "node", "id": 5424447543, "lat": 47.3280154, "lon": -122.6038873}, {"type": "node", "id": 5424447544, "lat": 47.3279417, "lon": -122.6038411}, {"type": "node", "id": 5424447545, "lat": 47.3278723, "lon": -122.6037872}, {"type": "node", "id": 5424447546, "lat": 47.3277813, "lon": -122.6037213}, {"type": "node", "id": 5424447554, "lat": 47.3274966, "lon": -122.6025213}, {"type": "node", "id": 5424447562, "lat": 47.3282002, "lon": -122.6036847}, {"type": "node", "id": 5424447563, "lat": 47.3282113, "lon": -122.6034069}, {"type": "node", "id": 5424447573, "lat": 47.3276732, "lon": -122.6024312}, {"type": "node", "id": 5424447574, "lat": 47.3278783, "lon": -122.6023293}, {"type": "node", "id": 5424447581, "lat": 47.3282237, "lon": -122.603133}, {"type": "node", "id": 5424447582, "lat": 47.3282501, "lon": -122.6029055}, {"type": "node", "id": 5424447589, "lat": 47.3280826, "lon": -122.6022275}, {"type": "node", "id": 5424447598, "lat": 47.3286684, "lon": -122.601644}, {"type": "node", "id": 5424447600, "lat": 47.3273194, "lon": -122.6026046}, {"type": "node", "id": 5424447601, "lat": 47.3281991, "lon": -122.6039643}, {"type": "node", "id": 5424447602, "lat": 47.3282281, "lon": -122.602995}, {"type": "node", "id": 5424447605, "lat": 47.3291096, "lon": -122.6025209}, {"type": "node", "id": 5475622291, "lat": 47.346491, "lon": -122.6120957}, {"type": "node", "id": 5878922886, "lat": 47.3375442, "lon": -122.6038929, "tags": {"name": "Thornton Land Services", "office": "company"}}, {"type": "node", "id": 5878922887, "lat": 47.3356768, "lon": -122.6022344, "tags": {"check_date": "2025-06-08", "name": "Haven of Rest Memorial Funeral Home", "shop": "funeral_directors"}}, {"type": "node", "id": 5878928687, "lat": 47.3229786, "lon": -122.5932475, "tags": {"name": "Evergreen Home Loans", "office": "company"}}, {"type": "node", "id": 5994748263, "lat": 47.3283856, "lon": -122.5826715}, {"type": "node", "id": 5994748264, "lat": 47.3282891, "lon": -122.5826668}, {"type": "node", "id": 5994748265, "lat": 47.3282938, "lon": -122.5823493}, {"type": "node", "id": 5994748266, "lat": 47.3283935, "lon": -122.5823539}, {"type": "node", "id": 6450864159, "lat": 47.3204461, "lon": -122.5873889, "tags": {"beauty": "nails", "name": "TNT Nails & Spa", "shop": "beauty"}}, {"type": "node", "id": 6450864161, "lat": 47.3205952, "lon": -122.5873976, "tags": {"name": "Alexei Salon", "shop": "hairdresser"}}, {"type": "node", "id": 6450864162, "lat": 47.3208172, "lon": -122.5874052, "tags": {"amenity": "fast_food", "name": "Kinza Teriyaki"}}, {"type": "node", "id": 6450864163, "lat": 47.3209338, "lon": -122.5874493, "tags": {"addr:city": "Gig Harbor", "addr:housenumber": "6820", "addr:postcode": "98335", "addr:state": "WA", "addr:street": "Kimball Drive", "addr:unit": "A4", "amenity": "fast_food", "brand": "Subway", "brand:wikidata": "Q244457", "cuisine": "sandwich", "name": "Subway", "opening_hours": "Mo-Sa 09:00-21:00; Su 10:00-20:30", "phone": "+1-253-858-0537", "takeaway": "yes", "website": "https://restaurants.subway.com/united-states/wa/gig-harbor/6820-kimball-drive"}}, {"type": "node", "id": 6450864164, "lat": 47.3208893, "lon": -122.587421, "tags": {"name": "The Village Barber", "shop": "hairdresser"}}, {"type": "node", "id": 6450864165, "lat": 47.3209929, "lon": -122.5874772, "tags": {"name": "Microlynx Computers", "shop": "computer"}}, {"type": "node", "id": 6450864166, "lat": 47.3211871, "lon": -122.5875915, "tags": {"amenity": "pub", "craft": "brewery", "name": "Wet Coast Brewing Company"}}, {"type": "node", "id": 6450864167, "lat": 47.3213264, "lon": -122.5878389, "tags": {"name": "Miller Paint Co.", "shop": "paint"}}, {"type": "node", "id": 6450864168, "lat": 47.3218743, "lon": -122.5882048, "tags": {"name": "Ultimate Looks Hair Salon", "shop": "hairdresser"}}, {"type": "node", "id": 6450864169, "lat": 47.3219521, "lon": -122.5883091, "tags": {"beauty": "tanning", "name": "Bronze Bunz Tanning Salon", "shop": "beauty"}}, {"type": "node", "id": 6450864170, "lat": 47.3220261, "lon": -122.5883658, "tags": {"name": "Clark's Jewelers", "shop": "jewelry"}}, {"type": "node", "id": 6450864171, "lat": 47.3221741, "lon": -122.5886418, "tags": {"addr:city": "Gig Harbor", "addr:housenumber": "6978", "addr:postcode": "98335", "addr:state": "WA", "addr:street": "Kimball Drive", "amenity": "cafe", "branch": "Pioneer & Kimball - Gig Harbor", "brand": "Starbucks", "brand:wikidata": "Q37158", "cuisine": "coffee_shop", "name": "Starbucks", "official_name": "Starbucks Coffee", "phone": "+1-253-851-1105", "ref": "1021882", "takeaway": "yes", "website": "https://www.starbucks.com/store-locator/store/1021882/pioneer-kimball-gig-harbor-6978-kimball-drive-gig-harbor-wa-983351236-us"}}, {"type": "node", "id": 6450864172, "lat": 47.3227237, "lon": -122.5893606, "tags": {"amenity": "bank", "brand": "U.S. Bank", "brand:wikidata": "Q739084", "name": "U.S. Bank"}}, {"type": "node", "id": 6450864173, "lat": 47.3226687, "lon": -122.5878542, "tags": {"shop": "convenience"}}, {"type": "node", "id": 6450864174, "lat": 47.3227836, "lon": -122.5880995, "tags": {"amenity": "fuel", "brand": "76", "brand:wikidata": "Q1658320", "name": "76", "website": "https://www.76.com/station/U76-PIONEER-76-GRANITE-SVC-INC-0000906943/"}}, {"type": "node", "id": 6450864175, "lat": 47.3228471, "lon": -122.587598}, {"type": "node", "id": 6450864177, "lat": 47.3223519, "lon": -122.5850524}, {"type": "node", "id": 6597931306, "lat": 47.3197106, "lon": -122.5860366}, {"type": "node", "id": 6597931307, "lat": 47.319718, "lon": -122.5863846}, {"type": "node", "id": 6597931308, "lat": 47.319527, "lon": -122.5863934}, {"type": "node", "id": 6597931309, "lat": 47.3195264, "lon": -122.5863659}, {"type": "node", "id": 6597931310, "lat": 47.3195096, "lon": -122.5863667}, {"type": "node", "id": 6597931311, "lat": 47.3195108, "lon": -122.5864214}, {"type": "node", "id": 6597931312, "lat": 47.3192972, "lon": -122.5864323}, {"type": "node", "id": 6597931313, "lat": 47.3192879, "lon": -122.5860371}, {"type": "node", "id": 6597931314, "lat": 47.3193127, "lon": -122.5860358}, {"type": "node", "id": 6597931315, "lat": 47.3193117, "lon": -122.5859944}, {"type": "node", "id": 6597931316, "lat": 47.3194799, "lon": -122.5859857}, {"type": "node", "id": 6597931317, "lat": 47.319499, "lon": -122.5860427}, {"type": "node", "id": 6597931318, "lat": 47.3195199, "lon": -122.5860454}, {"type": "node", "id": 6621341898, "lat": 47.3325733, "lon": -122.6042214}, {"type": "node", "id": 6621341899, "lat": 47.3302745, "lon": -122.6042622}, {"type": "node", "id": 6621341900, "lat": 47.331452, "lon": -122.6027629}, {"type": "node", "id": 6621341901, "lat": 47.3331064, "lon": -122.6024116}, {"type": "node", "id": 6621341910, "lat": 47.3391119, "lon": -122.6039972}, {"type": "node", "id": 6647944655, "lat": 47.3277435, "lon": -122.5998493}, {"type": "node", "id": 6647944656, "lat": 47.3273783, "lon": -122.5997956}, {"type": "node", "id": 6647944657, "lat": 47.3273773, "lon": -122.5995557}, {"type": "node", "id": 6647944658, "lat": 47.3276505, "lon": -122.5995531}, {"type": "node", "id": 6647944659, "lat": 47.3276502, "lon": -122.5994824}, {"type": "node", "id": 6647944660, "lat": 47.3278624, "lon": -122.5994804}, {"type": "node", "id": 6647944661, "lat": 47.3278632, "lon": -122.5996685}, {"type": "node", "id": 6647944662, "lat": 47.3277599, "lon": -122.5996695}, {"type": "node", "id": 6647944663, "lat": 47.32776, "lon": -122.5996854}, {"type": "node", "id": 6647944664, "lat": 47.3276735, "lon": -122.5996587}, {"type": "node", "id": 6647944665, "lat": 47.3276741, "lon": -122.5997974}, {"type": "node", "id": 6647944666, "lat": 47.3277433, "lon": -122.5997967}, {"type": "node", "id": 6673197295, "lat": 47.3288854, "lon": -122.5811243}, {"type": "node", "id": 6673197296, "lat": 47.3287868, "lon": -122.5811238}, {"type": "node", "id": 6673197297, "lat": 47.3287719, "lon": -122.5811422}, {"type": "node", "id": 6673197298, "lat": 47.3286386, "lon": -122.5811804}, {"type": "node", "id": 6673197299, "lat": 47.3286402, "lon": -122.5812885}, {"type": "node", "id": 6673197300, "lat": 47.3286214, "lon": -122.5812891}, {"type": "node", "id": 6673197301, "lat": 47.3286231, "lon": -122.5813992}, {"type": "node", "id": 6673197302, "lat": 47.3286905, "lon": -122.581397}, {"type": "node", "id": 6673197303, "lat": 47.3286947, "lon": -122.5814105}, {"type": "node", "id": 6673197304, "lat": 47.3288157, "lon": -122.5814044}, {"type": "node", "id": 6673197305, "lat": 47.3288849, "lon": -122.5813231}, {"type": "node", "id": 6673197306, "lat": 47.3287576, "lon": -122.5811929}, {"type": "node", "id": 6673197307, "lat": 47.3287186, "lon": -122.5811942}, {"type": "node", "id": 6673197308, "lat": 47.3287183, "lon": -122.5811777}, {"type": "node", "id": 6673197309, "lat": 47.3287568, "lon": -122.5811427}, {"type": "node", "id": 7428512318, "lat": 47.3298211, "lon": -122.581581}, {"type": "node", "id": 7428512319, "lat": 47.3297611, "lon": -122.5817161}, {"type": "node", "id": 7428512320, "lat": 47.3297455, "lon": -122.5817011}, {"type": "node", "id": 7428512321, "lat": 47.3297388, "lon": -122.5817161}, {"type": "node", "id": 7428512322, "lat": 47.3297236, "lon": -122.5817014}, {"type": "node", "id": 7428512323, "lat": 47.3297068, "lon": -122.5817393}, {"type": "node", "id": 7428512324, "lat": 47.3296441, "lon": -122.5816788}, {"type": "node", "id": 7428512325, "lat": 47.3297275, "lon": -122.5814907}, {"type": "node", "id": 7428512326, "lat": 47.3299472, "lon": -122.5809307}, {"type": "node", "id": 7428512327, "lat": 47.3299099, "lon": -122.5808275}, {"type": "node", "id": 7428512328, "lat": 47.3297821, "lon": -122.580928}, {"type": "node", "id": 7428512329, "lat": 47.3298194, "lon": -122.5810312}, {"type": "node", "id": 7431739950, "lat": 47.3292357, "lon": -122.5804148}, {"type": "node", "id": 7431739957, "lat": 47.3292013, "lon": -122.5802851}, {"type": "node", "id": 7431739958, "lat": 47.329148, "lon": -122.5802869}, {"type": "node", "id": 7431739959, "lat": 47.3291478, "lon": -122.5804134}, {"type": "node", "id": 7431739963, "lat": 47.3289637, "lon": -122.5804353}, {"type": "node", "id": 7431739964, "lat": 47.3289646, "lon": -122.5806572}, {"type": "node", "id": 7431739965, "lat": 47.3288892, "lon": -122.5806579}, {"type": "node", "id": 7431739966, "lat": 47.3288882, "lon": -122.5804359}, {"type": "node", "id": 7431739967, "lat": 47.3291839, "lon": -122.5801757}, {"type": "node", "id": 7431739968, "lat": 47.3289987, "lon": -122.5801745}, {"type": "node", "id": 7431739969, "lat": 47.3289981, "lon": -122.5802919}, {"type": "node", "id": 7431781506, "lat": 47.3292245, "lon": -122.5808881, "tags": {"addr:housenumber": "3116", "addr:street": "Harborview Drive", "name": "Maritime Jewelers", "shop": "jewelry"}}, {"type": "node", "id": 7431781519, "lat": 47.3301388, "lon": -122.5811308}, {"type": "node", "id": 7431781520, "lat": 47.3300571, "lon": -122.5809311}, {"type": "node", "id": 7431781521, "lat": 47.3299915, "lon": -122.5809979}, {"type": "node", "id": 7431781522, "lat": 47.330021, "lon": -122.58106}, {"type": "node", "id": 7431781523, "lat": 47.3300071, "lon": -122.5810746}, {"type": "node", "id": 7431781524, "lat": 47.3300289, "lon": -122.581124}, {"type": "node", "id": 7431781525, "lat": 47.3300175, "lon": -122.5811348}, {"type": "node", "id": 7431781526, "lat": 47.3300495, "lon": -122.5812074}, {"type": "node", "id": 7431781527, "lat": 47.3300719, "lon": -122.5811859}, {"type": "node", "id": 7431781528, "lat": 47.330077, "lon": -122.5811974}, {"type": "node", "id": 7431781531, "lat": 47.3298831, "lon": -122.5811536}, {"type": "node", "id": 7431781532, "lat": 47.3299587, "lon": -122.5812248}, {"type": "node", "id": 7431781533, "lat": 47.3300076, "lon": -122.5811117}, {"type": "node", "id": 7431781534, "lat": 47.329932, "lon": -122.5810405}, {"type": "node", "id": 7432375017, "lat": 47.3303059, "lon": -122.5830978}, {"type": "node", "id": 7432375018, "lat": 47.3303012, "lon": -122.5829008}, {"type": "node", "id": 7432375019, "lat": 47.3301715, "lon": -122.5829075}, {"type": "node", "id": 7432375020, "lat": 47.3301723, "lon": -122.5829402}, {"type": "node", "id": 7432375021, "lat": 47.3300745, "lon": -122.5829452}, {"type": "node", "id": 7432375022, "lat": 47.3300755, "lon": -122.5829875}, {"type": "node", "id": 7432375023, "lat": 47.3300238, "lon": -122.5829901}, {"type": "node", "id": 7432375024, "lat": 47.3300258, "lon": -122.5830718}, {"type": "node", "id": 7432375025, "lat": 47.3300869, "lon": -122.5830686}, {"type": "node", "id": 7432375026, "lat": 47.3300878, "lon": -122.5831091}, {"type": "node", "id": 7432375027, "lat": 47.3298996, "lon": -122.5830799}, {"type": "node", "id": 7432375028, "lat": 47.3299302, "lon": -122.5830137}, {"type": "node", "id": 7432375029, "lat": 47.3298969, "lon": -122.5829802}, {"type": "node", "id": 7432375030, "lat": 47.3299071, "lon": -122.5829582}, {"type": "node", "id": 7432375031, "lat": 47.3297852, "lon": -122.5828356}, {"type": "node", "id": 7432375032, "lat": 47.3297915, "lon": -122.582822}, {"type": "node", "id": 7432375033, "lat": 47.3297407, "lon": -122.5827709}, {"type": "node", "id": 7432375034, "lat": 47.3296616, "lon": -122.5829423}, {"type": "node", "id": 7432375035, "lat": 47.3297244, "lon": -122.5830054}, {"type": "node", "id": 7432375036, "lat": 47.3297374, "lon": -122.5829773}, {"type": "node", "id": 7432375037, "lat": 47.3298508, "lon": -122.5830913}, {"type": "node", "id": 7432375038, "lat": 47.3298698, "lon": -122.58305}, {"type": "node", "id": 7436198636, "lat": 47.3283563, "lon": -122.5815839}, {"type": "node", "id": 7436198637, "lat": 47.328475, "lon": -122.5818098}, {"type": "node", "id": 7436198638, "lat": 47.3285956, "lon": -122.5816581}, {"type": "node", "id": 7436198639, "lat": 47.3284769, "lon": -122.5814393}, {"type": "node", "id": 7436198640, "lat": 47.328465, "lon": -122.5814533}, {"type": "node", "id": 7436198641, "lat": 47.3284406, "lon": -122.5814083}, {"type": "node", "id": 7436198642, "lat": 47.3285067, "lon": -122.5813302}, {"type": "node", "id": 7436198643, "lat": 47.3285591, "lon": -122.5814268}, {"type": "node", "id": 7436198644, "lat": 47.3286025, "lon": -122.5813756}, {"type": "node", "id": 7436198645, "lat": 47.3286708, "lon": -122.5815014}, {"type": "node", "id": 7436198646, "lat": 47.3286327, "lon": -122.5815465}, {"type": "node", "id": 7436198647, "lat": 47.3286551, "lon": -122.5815878}, {"type": "node", "id": 7436275593, "lat": 47.332089, "lon": -122.5831311}, {"type": "node", "id": 7436275594, "lat": 47.3320486, "lon": -122.5830419}, {"type": "node", "id": 7436275595, "lat": 47.331954, "lon": -122.5831353}, {"type": "node", "id": 7436275596, "lat": 47.3319944, "lon": -122.5832245}, {"type": "node", "id": 7436275597, "lat": 47.3322929, "lon": -122.5832474}, {"type": "node", "id": 7436275598, "lat": 47.3320961, "lon": -122.5834506}, {"type": "node", "id": 7436275599, "lat": 47.3320565, "lon": -122.5833673}, {"type": "node", "id": 7436275600, "lat": 47.3320779, "lon": -122.5833452}, {"type": "node", "id": 7436275601, "lat": 47.3320576, "lon": -122.5833023}, {"type": "node", "id": 7436275602, "lat": 47.332233, "lon": -122.5831212}, {"type": "node", "id": 7436275615, "lat": 47.3311658, "lon": -122.5830708}, {"type": "node", "id": 7436275616, "lat": 47.331216, "lon": -122.5829471}, {"type": "node", "id": 7436275617, "lat": 47.3312955, "lon": -122.5830173}, {"type": "node", "id": 7436275618, "lat": 47.3312454, "lon": -122.583141}, {"type": "node", "id": 7436276082, "lat": 47.3299893, "lon": -122.5836671}, {"type": "node", "id": 7436276083, "lat": 47.3299905, "lon": -122.5835567}, {"type": "node", "id": 7436276084, "lat": 47.3300081, "lon": -122.5835571}, {"type": "node", "id": 7436294985, "lat": 47.3300091, "lon": -122.5834557}, {"type": "node", "id": 7436294986, "lat": 47.3299912, "lon": -122.5834554}, {"type": "node", "id": 7436294987, "lat": 47.3299921, "lon": -122.5833549}, {"type": "node", "id": 7436294988, "lat": 47.3299286, "lon": -122.5833537}, {"type": "node", "id": 7436294989, "lat": 47.3299287, "lon": -122.5833404}, {"type": "node", "id": 7436294990, "lat": 47.3298304, "lon": -122.5833391}, {"type": "node", "id": 7436294991, "lat": 47.3298303, "lon": -122.5833554}, {"type": "node", "id": 7436294992, "lat": 47.329746, "lon": -122.5833547}, {"type": "node", "id": 7436294993, "lat": 47.329746, "lon": -122.5833383}, {"type": "node", "id": 7436294994, "lat": 47.3296461, "lon": -122.5833381}, {"type": "node", "id": 7436294995, "lat": 47.3296461, "lon": -122.5833648}, {"type": "node", "id": 7436294996, "lat": 47.3295929, "lon": -122.5833648}, {"type": "node", "id": 7436294997, "lat": 47.329593, "lon": -122.5835632}, {"type": "node", "id": 7436294998, "lat": 47.3295795, "lon": -122.5835633}, {"type": "node", "id": 7436294999, "lat": 47.3295796, "lon": -122.5836163}, {"type": "node", "id": 7436295000, "lat": 47.3295932, "lon": -122.5836163}, {"type": "node", "id": 7436295001, "lat": 47.3295934, "lon": -122.5836756}, {"type": "node", "id": 7436295002, "lat": 47.3297543, "lon": -122.5836822}, {"type": "node", "id": 7436295003, "lat": 47.3297678, "lon": -122.5836991}, {"type": "node", "id": 7436295004, "lat": 47.329788, "lon": -122.5837032}, {"type": "node", "id": 7436295005, "lat": 47.3298174, "lon": -122.58368}, {"type": "node", "id": 7436295006, "lat": 47.3298645, "lon": -122.5836642}, {"type": "node", "id": 7436295007, "lat": 47.3298644, "lon": -122.5836811}, {"type": "node", "id": 7436295008, "lat": 47.3297071, "lon": -122.5836748}, {"type": "node", "id": 7436295009, "lat": 47.3297071, "lon": -122.5836826}, {"type": "node", "id": 7436295010, "lat": 47.3298048, "lon": -122.5836978}, {"type": "node", "id": 7502317407, "lat": 47.3226722, "lon": -122.5848839}, {"type": "node", "id": 7502317408, "lat": 47.3226114, "lon": -122.5851196}, {"type": "node", "id": 7502317409, "lat": 47.3224726, "lon": -122.5850417}, {"type": "node", "id": 7502317410, "lat": 47.3224529, "lon": -122.5851181}, {"type": "node", "id": 7502317411, "lat": 47.3224714, "lon": -122.5851285}, {"type": "node", "id": 7502317412, "lat": 47.322457, "lon": -122.5851842}, {"type": "node", "id": 7502317413, "lat": 47.3225018, "lon": -122.5852095}, {"type": "node", "id": 7502317414, "lat": 47.3224599, "lon": -122.585372}, {"type": "node", "id": 7502317415, "lat": 47.3224194, "lon": -122.5853493}, {"type": "node", "id": 7502317416, "lat": 47.3223999, "lon": -122.5854247}, {"type": "node", "id": 7502317417, "lat": 47.3223572, "lon": -122.5854007}, {"type": "node", "id": 7502317418, "lat": 47.3223316, "lon": -122.5854997}, {"type": "node", "id": 7502317419, "lat": 47.3223507, "lon": -122.5855104}, {"type": "node", "id": 7502317420, "lat": 47.3222739, "lon": -122.585807}, {"type": "node", "id": 7502317421, "lat": 47.3219414, "lon": -122.5856197}, {"type": "node", "id": 7502317422, "lat": 47.321947, "lon": -122.5855982}, {"type": "node", "id": 7502317423, "lat": 47.3218585, "lon": -122.5855484}, {"type": "node", "id": 7502317424, "lat": 47.3219156, "lon": -122.5853278}, {"type": "node", "id": 7502317425, "lat": 47.3220064, "lon": -122.585379}, {"type": "node", "id": 7502317426, "lat": 47.3220139, "lon": -122.5853501}, {"type": "node", "id": 7502317427, "lat": 47.3222855, "lon": -122.585503}, {"type": "node", "id": 7502317428, "lat": 47.3223196, "lon": -122.5853709}, {"type": "node", "id": 7502317429, "lat": 47.3220418, "lon": -122.5852145}, {"type": "node", "id": 7502317430, "lat": 47.3220575, "lon": -122.5851535}, {"type": "node", "id": 7502317431, "lat": 47.3219982, "lon": -122.5851202}, {"type": "node", "id": 7502317432, "lat": 47.3220373, "lon": -122.5849686}, {"type": "node", "id": 7502317433, "lat": 47.3220898, "lon": -122.5849981}, {"type": "node", "id": 7502317434, "lat": 47.3221107, "lon": -122.584917}, {"type": "node", "id": 7502317436, "lat": 47.3223635, "lon": -122.5850072}, {"type": "node", "id": 7502317437, "lat": 47.3222285, "lon": -122.5849315}, {"type": "node", "id": 7502317438, "lat": 47.3222953, "lon": -122.5846725}, {"type": "node", "id": 7504189385, "lat": 47.3252268, "lon": -122.5930836, "tags": {"amenity": "kindergarten", "name": "Montessori School"}}, {"type": "node", "id": 7504201885, "lat": 47.337338, "lon": -122.6037297, "tags": {"name": "Gig Harbor Cabinets", "shop": "furniture"}}, {"type": "node", "id": 7504201985, "lat": 47.3379296, "lon": -122.604106, "tags": {"amenity": "car_rental", "name": "Budget Truck Rental"}}, {"type": "node", "id": 7661515385, "lat": 47.3372505, "lon": -122.6036105, "tags": {"name": "Scrubbles Cleaning Service", "office": "company"}}, {"type": "node", "id": 7662620686, "lat": 47.3187454, "lon": -122.5892384, "tags": {"name": "The Dapper Dog Grooming Salon", "shop": "pet"}}, {"type": "node", "id": 7856939879, "lat": 47.3295892, "lon": -122.6017653}, {"type": "node", "id": 7856939880, "lat": 47.3297702, "lon": -122.601776}, {"type": "node", "id": 7856961687, "lat": 47.3298758, "lon": -122.6023577}, {"type": "node", "id": 7856961688, "lat": 47.3297696, "lon": -122.6023509}, {"type": "node", "id": 7856961694, "lat": 47.3274034, "lon": -122.6044768}, {"type": "node", "id": 7856961695, "lat": 47.3271585, "lon": -122.6042162}, {"type": "node", "id": 7856961696, "lat": 47.3270005, "lon": -122.6038984}, {"type": "node", "id": 7856961697, "lat": 47.3268504, "lon": -122.603527}, {"type": "node", "id": 7856961698, "lat": 47.3267704, "lon": -122.6031999}, {"type": "node", "id": 7856961699, "lat": 47.3267098, "lon": -122.6028965}, {"type": "node", "id": 7856961700, "lat": 47.3281803, "lon": -122.6023195}, {"type": "node", "id": 7856961701, "lat": 47.3281547, "lon": -122.6025131}, {"type": "node", "id": 7856961702, "lat": 47.3281753, "lon": -122.6026771}, {"type": "node", "id": 7856961703, "lat": 47.3282534, "lon": -122.6027644}, {"type": "node", "id": 7856961704, "lat": 47.3291034, "lon": -122.6026892}, {"type": "node", "id": 7856961705, "lat": 47.3301912, "lon": -122.6026914}, {"type": "node", "id": 7856961706, "lat": 47.3302055, "lon": -122.6015536}, {"type": "node", "id": 7856961707, "lat": 47.3300572, "lon": -122.601434}, {"type": "node", "id": 7856961708, "lat": 47.3297292, "lon": -122.6014067}, {"type": "node", "id": 7856961709, "lat": 47.3296086, "lon": -122.6016139}, {"type": "node", "id": 7856961710, "lat": 47.3298648, "lon": -122.6017182}, {"type": "node", "id": 7856961711, "lat": 47.3300077, "lon": -122.6017285}, {"type": "node", "id": 7856961712, "lat": 47.3299849, "lon": -122.602326}, {"type": "node", "id": 7856961713, "lat": 47.3295251, "lon": -122.6023354}, {"type": "node", "id": 7856961714, "lat": 47.3295193, "lon": -122.6024954}, {"type": "node", "id": 7856961715, "lat": 47.3283434, "lon": -122.6016914}, {"type": "node", "id": 7856961716, "lat": 47.3283474, "lon": -122.6015549}, {"type": "node", "id": 7856961717, "lat": 47.328909, "lon": -122.6016417}, {"type": "node", "id": 7856961718, "lat": 47.3289269, "lon": -122.6018078}, {"type": "node", "id": 7856961719, "lat": 47.328669, "lon": -122.6018066}, {"type": "node", "id": 7859176447, "lat": 47.3407452, "lon": -122.5940993}, {"type": "node", "id": 7859176450, "lat": 47.3404592, "lon": -122.5933426}, {"type": "node", "id": 7859192587, "lat": 47.3410955, "lon": -122.5934756}, {"type": "node", "id": 7859192588, "lat": 47.3409645, "lon": -122.5932942}, {"type": "node", "id": 7859192589, "lat": 47.3411401, "lon": -122.5930177}, {"type": "node", "id": 7859192590, "lat": 47.3412712, "lon": -122.593199}, {"type": "node", "id": 7859192591, "lat": 47.3410869, "lon": -122.5918893}, {"type": "node", "id": 7859192592, "lat": 47.3410047, "lon": -122.5917989}, {"type": "node", "id": 7859192593, "lat": 47.3408562, "lon": -122.5917876}, {"type": "node", "id": 7859192594, "lat": 47.3407725, "lon": -122.5918314}, {"type": "node", "id": 7859192595, "lat": 47.3407268, "lon": -122.5918914}, {"type": "node", "id": 7859192596, "lat": 47.340793, "lon": -122.5920012}, {"type": "node", "id": 7859192597, "lat": 47.3410455, "lon": -122.5919712}, {"type": "node", "id": 7872913180, "lat": 47.3332187, "lon": -122.5843808}, {"type": "node", "id": 7872913181, "lat": 47.3329387, "lon": -122.584686}, {"type": "node", "id": 7872913182, "lat": 47.3328633, "lon": -122.5845354}, {"type": "node", "id": 7872913183, "lat": 47.3331432, "lon": -122.5842302}, {"type": "node", "id": 8313750733, "lat": 47.3446772, "lon": -122.6102981, "tags": {"barrier": "gate"}}, {"type": "node", "id": 9083293317, "lat": 47.3295657, "lon": -122.5997692, "tags": {"name": "Envoy Mortgage", "office": "company"}}, {"type": "node", "id": 9083306918, "lat": 47.3228646, "lon": -122.590037, "tags": {"name": "Northwest Mortgage", "office": "company"}}, {"type": "node", "id": 9083306919, "lat": 47.3241034, "lon": -122.5900424, "tags": {"amenity": "dentist", "name": "Gig Harbor Family Dental"}}, {"type": "node", "id": 9083307118, "lat": 47.3231054, "lon": -122.5901153, "tags": {"brand": "Farmers Insurance", "brand:wikidata": "Q1396863", "name": "Farmers Insurance", "office": "insurance"}}, {"type": "node", "id": 9083307119, "lat": 47.3229864, "lon": -122.5901257, "tags": {"name": "Critter Clippers", "shop": "pet"}}, {"type": "node", "id": 9083307120, "lat": 47.3232221, "lon": -122.5901135, "tags": {"amenity": "dentist", "healthcare": "dentist", "name": "Sunrise Dental"}}, {"type": "node", "id": 9083307121, "lat": 47.3235246, "lon": -122.5903878}, {"type": "node", "id": 9141004684, "lat": 47.331005, "lon": -122.5816457, "tags": {"amenity": "waste_basket", "waste": "trash"}}, {"type": "node", "id": 9149652188, "lat": 47.331107, "lon": -122.6015648, "tags": {"name": "Legacy", "office": "company"}}, {"type": "node", "id": 9421010009, "lat": 47.32612, "lon": -122.5857735}, {"type": "node", "id": 9657075222, "lat": 47.3295588, "lon": -122.5787284}, {"type": "node", "id": 9657075223, "lat": 47.3295733, "lon": -122.5787629}, {"type": "node", "id": 9657075224, "lat": 47.3292211, "lon": -122.5791264}, {"type": "node", "id": 9657075225, "lat": 47.3295276, "lon": -122.5788047}, {"type": "node", "id": 9657075227, "lat": 47.3292097, "lon": -122.5790347, "tags": {"amenity": "drinking_water", "dog": "yes"}}, {"type": "node", "id": 9657075229, "lat": 47.3292775, "lon": -122.5790624}, {"type": "node", "id": 9657075230, "lat": 47.3295131, "lon": -122.5787702}, {"type": "node", "id": 9658657791, "lat": 47.3292821, "lon": -122.5808253, "tags": {"amenity": "waste_basket"}}, {"type": "node", "id": 9658657792, "lat": 47.3292913, "lon": -122.580876, "tags": {"amenity": "bench"}}, {"type": "node", "id": 9658657793, "lat": 47.3292982, "lon": -122.5808105, "tags": {"amenity": "drinking_water"}}, {"type": "node", "id": 9666151176, "lat": 47.3274775, "lon": -122.5806294, "tags": {"name": "Harbor Barber", "shop": "hairdresser"}}, {"type": "node", "id": 9666151177, "lat": 47.3274644, "lon": -122.5809129, "tags": {"amenity": "restaurant", "cuisine": "japanese", "name": "Mizu Japanese Steakhouse"}}, {"type": "node", "id": 9666151178, "lat": 47.3274794, "lon": -122.5804701, "tags": {"addr:city": "Gig Harbor", "addr:housenumber": "3111", "addr:postcode": "98335", "addr:state": "WA", "addr:street": "Judson Street", "amenity": "restaurant", "cuisine": "japanese", "name": "Tokyo Teriyaki"}}, {"type": "node", "id": 9666151179, "lat": 47.3281634, "lon": -122.579698}, {"type": "node", "id": 9666151181, "lat": 47.3292055, "lon": -122.5801607, "tags": {"amenity": "waste_basket"}}, {"type": "node", "id": 9666151182, "lat": 47.3293299, "lon": -122.5799629, "tags": {"amenity": "post_box", "operator": "United States Postal Service", "operator:short": "USPS", "operator:type": "public", "operator:wikidata": "Q668687"}}, {"type": "node", "id": 9666151184, "lat": 47.3292075, "lon": -122.5801767, "tags": {"amenity": "bench"}}, {"type": "node", "id": 9666151186, "lat": 47.3274825, "lon": -122.5802801, "tags": {"addr:city": "Gig Harbor", "addr:housenumber": "3104", "addr:postcode": "98335", "addr:state": "WA", "addr:street": "Judson Street", "name": "Lucky Dog Outfitters", "shop": "pet"}}, {"type": "node", "id": 9666151187, "lat": 47.3274815, "lon": -122.5801334, "tags": {"name": "McBeckland\u2019s", "shop": "clothes"}}, {"type": "node", "id": 9666234565, "lat": 47.327545, "lon": -122.5799146}, {"type": "node", "id": 9668240659, "lat": 47.3289666, "lon": -122.5809489, "tags": {"addr:city": "Gig Harbor", "addr:housenumber": "7805", "addr:postcode": "98335", "addr:state": "WA", "addr:street": "Pioneer Way", "addr:unit": "B", "name": "Stitch-O-Roo & Art Too", "shop": "sewing", "website": "https://www.stitchoroo.com"}}, {"type": "node", "id": 9668240661, "lat": 47.3288349, "lon": -122.5808814, "tags": {"addr:housenumber": "7801", "addr:street": "Pioneer Way", "name": "Sassy Bones", "shop": "art"}}, {"type": "node", "id": 9668240665, "lat": 47.3288811, "lon": -122.5808811, "tags": {"addr:city": "Gig Harbor", "addr:housenumber": "7803", "addr:postcode": "98335", "addr:state": "WA", "addr:street": "Pioneer Way", "name": "No Dearth of Books", "shop": "books", "website": "http://nodearthofbooks.com"}}, {"type": "node", "id": 9669308451, "lat": 47.3293131, "lon": -122.5811747, "tags": {"addr:housenumber": "7808", "addr:street": "Pioneer Way", "name": "Waters Edge Gallery & Framery", "shop": "art", "website": "https://watersedgegallery.com/"}}, {"type": "node", "id": 9669308452, "lat": 47.3291342, "lon": -122.5810017, "tags": {"addr:housenumber": "7811", "addr:street": "Pioneer Way", "name": "Treasures 4 Humanity", "shop": "clothes", "website": "https://treasures4humanity.com"}}, {"type": "node", "id": 9669308453, "lat": 47.3290896, "lon": -122.5810146, "tags": {"addr:housenumber": "7809", "addr:street": "Pioneer Way", "name": "Ebb Tide Gallery", "shop": "art"}}, {"type": "node", "id": 9669308454, "lat": 47.3290796, "lon": -122.5810683, "tags": {"addr:housenumber": "7807", "addr:street": "Pioneer Way", "name": "Curated Gig Harbor", "shop": "gift", "website": "https://www.curatedgigharbor.com"}}, {"type": "node", "id": 9705261581, "lat": 47.330746, "lon": -122.582001, "tags": {"amenity": "waste_basket"}}, {"type": "node", "id": 9705261596, "lat": 47.3326143, "lon": -122.5844917, "tags": {"name": "Susanne\u2019s Bakery", "shop": "bakery"}}, {"type": "node", "id": 9705261598, "lat": 47.3310289, "lon": -122.5825759, "tags": {"name": "Gig Harbor Book Company", "shop": "books"}}, {"type": "node", "id": 9705261602, "lat": 47.3325789, "lon": -122.5844029, "tags": {"addr:housenumber": "3409", "addr:street": "Harborview Drive", "amenity": "restaurant", "cuisine": "pizza", "name": "Millville Pizza Co.", "website": "http://millvillepizzaco.com"}}, {"type": "node", "id": 9705261606, "lat": 47.3309803, "lon": -122.5827547, "tags": {"name": "Hey, Darlin\u2019", "shop": "gift"}}, {"type": "node", "id": 9705284426, "lat": 47.3308136, "lon": -122.5819527, "tags": {"access": "yes", "amenity": "toilets", "building": "yes", "description": "Gig Harbor Dock public toilets", "fee": "no", "toilets:disposal": "flush", "wheelchair": "yes"}}, {"type": "node", "id": 11860718216, "lat": 47.346606, "lon": -122.6118919}, {"type": "node", "id": 11860718217, "lat": 47.3465908, "lon": -122.6110183}, {"type": "node", "id": 11860718218, "lat": 47.3465636, "lon": -122.611}, {"type": "node", "id": 11860718219, "lat": 47.3465229, "lon": -122.6109898}, {"type": "node", "id": 11860718220, "lat": 47.3457297, "lon": -122.6109846}, {"type": "node", "id": 11860718221, "lat": 47.3457315, "lon": -122.6111906}, {"type": "node", "id": 11860718222, "lat": 47.3457406, "lon": -122.612219}, {"type": "node", "id": 11860718223, "lat": 47.345869, "lon": -122.6122139}, {"type": "node", "id": 11860718224, "lat": 47.3458693, "lon": -122.6122351}, {"type": "node", "id": 11860718225, "lat": 47.3465292, "lon": -122.6122261}, {"type": "node", "id": 11860718226, "lat": 47.3465084, "lon": -122.6121881}, {"type": "node", "id": 11860718227, "lat": 47.3464954, "lon": -122.612144}, {"type": "node", "id": 11860718228, "lat": 47.3464955, "lon": -122.6120483}, {"type": "node", "id": 11860718229, "lat": 47.3465088, "lon": -122.6120038}, {"type": "node", "id": 11860718230, "lat": 47.3465299, "lon": -122.6119659}, {"type": "node", "id": 11860718231, "lat": 47.3465557, "lon": -122.6119389}, {"type": "node", "id": 11860718232, "lat": 47.3465866, "lon": -122.6119226}, {"type": "node", "id": 11860729699, "lat": 47.3457573, "lon": -122.6122167}, {"type": "node", "id": 11860729701, "lat": 47.3458132, "lon": -122.6122153, "tags": {"barrier": "gate"}}, {"type": "node", "id": 11862694167, "lat": 47.3447422, "lon": -122.6101261}, {"type": "node", "id": 11862694168, "lat": 47.3447403, "lon": -122.6096921}, {"type": "node", "id": 11862700324, "lat": 47.3468003, "lon": -122.6097775}, {"type": "node", "id": 11862700325, "lat": 47.3467973, "lon": -122.61034}, {"type": "node", "id": 11862700327, "lat": 47.3479069, "lon": -122.6102414}, {"type": "node", "id": 11862700328, "lat": 47.3487618, "lon": -122.6107608}, {"type": "node", "id": 11862700329, "lat": 47.3490441, "lon": -122.6110953}, {"type": "node", "id": 11862700330, "lat": 47.3491952, "lon": -122.6136863}, {"type": "node", "id": 11862700331, "lat": 47.348724, "lon": -122.6149422}, {"type": "node", "id": 11862700332, "lat": 47.3483264, "lon": -122.6152327}, {"type": "node", "id": 11862700333, "lat": 47.347141, "lon": -122.6155206}, {"type": "node", "id": 11862700334, "lat": 47.3470887, "lon": -122.6154731}, {"type": "node", "id": 11862700335, "lat": 47.3469509, "lon": -122.6152506}, {"type": "node", "id": 11862700336, "lat": 47.3468987, "lon": -122.6152149}, {"type": "node", "id": 11862700337, "lat": 47.3468499, "lon": -122.6152152}, {"type": "node", "id": 11862700338, "lat": 47.3458143, "lon": -122.6155262}, {"type": "node", "id": 11862700339, "lat": 47.3456342, "lon": -122.6155313}, {"type": "node", "id": 11862700340, "lat": 47.345634, "lon": -122.6154599}, {"type": "node", "id": 11862700341, "lat": 47.3456286, "lon": -122.6150105}, {"type": "node", "id": 11862700342, "lat": 47.3456024, "lon": -122.6130107}, {"type": "node", "id": 11862700343, "lat": 47.3456013, "lon": -122.6129774}, {"type": "node", "id": 11862700344, "lat": 47.3455944, "lon": -122.6127699}, {"type": "node", "id": 11862700345, "lat": 47.3455802, "lon": -122.6125555}, {"type": "node", "id": 11862700346, "lat": 47.3455512, "lon": -122.6123089}, {"type": "node", "id": 11862700347, "lat": 47.3455218, "lon": -122.6121605}, {"type": "node", "id": 11862700349, "lat": 47.3454925, "lon": -122.6120324}, {"type": "node", "id": 11862700350, "lat": 47.3454556, "lon": -122.6119067}, {"type": "node", "id": 11862700351, "lat": 47.3454172, "lon": -122.6117908}, {"type": "node", "id": 11862700352, "lat": 47.3453307, "lon": -122.6115761}, {"type": "node", "id": 11862700353, "lat": 47.3454625, "lon": -122.6114115}, {"type": "node", "id": 11862700354, "lat": 47.3455009, "lon": -122.6113255}, {"type": "node", "id": 11862700355, "lat": 47.3455294, "lon": -122.6112371}, {"type": "node", "id": 11862700356, "lat": 47.345552, "lon": -122.6111292}, {"type": "node", "id": 11862700357, "lat": 47.3455646, "lon": -122.6109823}, {"type": "node", "id": 11862700358, "lat": 47.3467972, "lon": -122.6103409}, {"type": "node", "id": 11862700359, "lat": 47.3464739, "lon": -122.6103375}, {"type": "node", "id": 11862700360, "lat": 47.3460572, "lon": -122.6103252}, {"type": "node", "id": 11862700361, "lat": 47.3456653, "lon": -122.610311}, {"type": "node", "id": 11862700362, "lat": 47.3456398, "lon": -122.6103137}, {"type": "node", "id": 11862700363, "lat": 47.3456151, "lon": -122.6103211}, {"type": "node", "id": 11862700364, "lat": 47.3455898, "lon": -122.6103466}, {"type": "node", "id": 11862700365, "lat": 47.3455665, "lon": -122.6103985}, {"type": "node", "id": 11862778470, "lat": 47.3446017, "lon": -122.6101122}, {"type": "node", "id": 11862778471, "lat": 47.3445997, "lon": -122.6097625}, {"type": "node", "id": 11862778472, "lat": 47.3443667, "lon": -122.6097654}, {"type": "node", "id": 11862778473, "lat": 47.3443684, "lon": -122.6100581}, {"type": "node", "id": 11862778492, "lat": 47.344676, "lon": -122.6095707}, {"type": "node", "id": 11862778496, "lat": 47.3440365, "lon": -122.6100225}, {"type": "node", "id": 11862778497, "lat": 47.3440323, "lon": -122.6101617}, {"type": "node", "id": 11862778498, "lat": 47.3440321, "lon": -122.610181}, {"type": "node", "id": 11862778499, "lat": 47.344341, "lon": -122.6101891}, {"type": "node", "id": 11862778500, "lat": 47.3443501, "lon": -122.6101789}, {"type": "node", "id": 11862778501, "lat": 47.3443596, "lon": -122.6101578}, {"type": "node", "id": 11862778502, "lat": 47.344367, "lon": -122.6101323}, {"type": "node", "id": 11862778503, "lat": 47.3446028, "lon": -122.6102977}, {"type": "node", "id": 11862778504, "lat": 47.344714, "lon": -122.610299}, {"type": "node", "id": 11862778505, "lat": 47.3447409, "lon": -122.6102556}, {"type": "node", "id": 11862778506, "lat": 47.3447399, "lon": -122.6095743}, {"type": "node", "id": 11862778507, "lat": 47.3442203, "lon": -122.6095543}, {"type": "node", "id": 11862778508, "lat": 47.3442188, "lon": -122.6100202}, {"type": "node", "id": 11862778517, "lat": 47.3442199, "lon": -122.6096842}, {"type": "node", "id": 11862778519, "lat": 47.3443937, "lon": -122.6097913, "tags": {"addr:city": "Gig Harbor", "addr:housenumber": "9401", "addr:postcode": "98332", "addr:state": "WA", "addr:street": "Bujacich Road", "name": "Pape & Sons Construction Inc", "office": "company", "phone": "+1-253-851-6040"}}, {"type": "node", "id": 11862778520, "lat": 47.3444906, "lon": -122.6097925, "tags": {"addr:city": "Gig Harbor", "addr:housenumber": "9401", "addr:postcode": "98332", "addr:state": "WA", "addr:street": "Bujacich Road", "name": "Screw Products, Inc", "office": "company", "phone": "+1-253-853-8880", "website": "https://www.screw-products.com/"}}, {"type": "node", "id": 11862778521, "lat": 47.3445884, "lon": -122.6099254, "tags": {"addr:city": "Gig Harbor", "addr:housenumber": "9401", "addr:postcode": "98332", "addr:state": "WA", "addr:street": "Bujacich Road", "name": "Gig Harbor Upholstery", "office": "company", "phone": "+1-253-693-2211"}}, {"type": "node", "id": 11863047068, "lat": 47.3449311, "lon": -122.6145125}, {"type": "node", "id": 11863077669, "lat": 47.3451445, "lon": -122.6145111}, {"type": "node", "id": 11863077670, "lat": 47.3451421, "lon": -122.6137086}, {"type": "node", "id": 11863077672, "lat": 47.3440329, "lon": -122.6145415}, {"type": "node", "id": 11863077673, "lat": 47.3442742, "lon": -122.6145399}, {"type": "node", "id": 11863077674, "lat": 47.3442739, "lon": -122.6144571}, {"type": "node", "id": 11863077675, "lat": 47.3443679, "lon": -122.6144564}, {"type": "node", "id": 11863077676, "lat": 47.3443682, "lon": -122.6145287}, {"type": "node", "id": 11863077677, "lat": 47.3445388, "lon": -122.6145276}, {"type": "node", "id": 11863077678, "lat": 47.3445385, "lon": -122.6144395}, {"type": "node", "id": 11863077679, "lat": 47.3446517, "lon": -122.6144388}, {"type": "node", "id": 11863077680, "lat": 47.3446519, "lon": -122.6145109}, {"type": "node", "id": 11863077681, "lat": 47.3448078, "lon": -122.61451}, {"type": "node", "id": 11863077682, "lat": 47.3448075, "lon": -122.614427}, {"type": "node", "id": 11863077683, "lat": 47.3449309, "lon": -122.6144262}, {"type": "node", "id": 11863077684, "lat": 47.3440337, "lon": -122.6148136}, {"type": "node", "id": 11863077685, "lat": 47.3453598, "lon": -122.6148043}, {"type": "node", "id": 11863077686, "lat": 47.3453551, "lon": -122.6133478}, {"type": "node", "id": 11863077687, "lat": 47.3453012, "lon": -122.6133482}, {"type": "node", "id": 11863077688, "lat": 47.3453022, "lon": -122.613671}, {"type": "node", "id": 11863077689, "lat": 47.345142, "lon": -122.613672}, {"type": "node", "id": 11863077705, "lat": 47.3452741, "lon": -122.6136712}, {"type": "node", "id": 11863077711, "lat": 47.3440334, "lon": -122.6147109}, {"type": "node", "id": 11863077714, "lat": 47.3427501, "lon": -122.6137207}, {"type": "node", "id": 11863077717, "lat": 47.3436392, "lon": -122.6145262}, {"type": "node", "id": 11863077718, "lat": 47.343639, "lon": -122.6144452}, {"type": "node", "id": 11863077719, "lat": 47.343528, "lon": -122.6144457}, {"type": "node", "id": 11863077720, "lat": 47.3435281, "lon": -122.6145234}, {"type": "node", "id": 11863077721, "lat": 47.3433691, "lon": -122.6145241}, {"type": "node", "id": 11863077722, "lat": 47.3433689, "lon": -122.6144449}, {"type": "node", "id": 11863077723, "lat": 47.3432523, "lon": -122.6144454}, {"type": "node", "id": 11863077724, "lat": 47.3432524, "lon": -122.6145192}, {"type": "node", "id": 11863077725, "lat": 47.3430965, "lon": -122.6145199}, {"type": "node", "id": 11863077726, "lat": 47.3430963, "lon": -122.6144504}, {"type": "node", "id": 11863077727, "lat": 47.3429936, "lon": -122.6144508}, {"type": "node", "id": 11863077728, "lat": 47.3429938, "lon": -122.6145344}, {"type": "node", "id": 11863077729, "lat": 47.342752, "lon": -122.6145356}, {"type": "node", "id": 11863077730, "lat": 47.3428257, "lon": -122.6145353}, {"type": "node", "id": 11863077731, "lat": 47.342826, "lon": -122.614833}, {"type": "node", "id": 11863077732, "lat": 47.3438252, "lon": -122.6148308}, {"type": "node", "id": 11863077733, "lat": 47.3438249, "lon": -122.6145253}, {"type": "node", "id": 11863077734, "lat": 47.3425295, "lon": -122.6147455}, {"type": "node", "id": 11863077735, "lat": 47.3425261, "lon": -122.6134195}, {"type": "node", "id": 11863077736, "lat": 47.3425762, "lon": -122.6134192}, {"type": "node", "id": 11863077737, "lat": 47.3425768, "lon": -122.6136729}, {"type": "node", "id": 11863077738, "lat": 47.3427499, "lon": -122.613672}, {"type": "node", "id": 11863077739, "lat": 47.3427521, "lon": -122.6145647}, {"type": "node", "id": 11863077740, "lat": 47.3425847, "lon": -122.6145656}, {"type": "node", "id": 11863077741, "lat": 47.3425851, "lon": -122.6147452}, {"type": "node", "id": 11863077742, "lat": 47.3426252, "lon": -122.6145653}, {"type": "node", "id": 11863077743, "lat": 47.3426177, "lon": -122.6136727}, {"type": "node", "id": 11863077744, "lat": 47.3428259, "lon": -122.6147245}, {"type": "node", "id": 11863077745, "lat": 47.3438251, "lon": -122.6147143}, {"type": "node", "id": 11863077747, "lat": 47.3448121, "lon": -122.6148075}, {"type": "node", "id": 11863077754, "lat": 47.3452133, "lon": -122.6153713}, {"type": "node", "id": 11863077755, "lat": 47.3446117, "lon": -122.6153734}, {"type": "node", "id": 11863077759, "lat": 47.3452135, "lon": -122.6155157}, {"type": "node", "id": 11863077764, "lat": 47.3432497, "lon": -122.6153671}, {"type": "node", "id": 11863077765, "lat": 47.3432501, "lon": -122.6154524}, {"type": "node", "id": 11863077766, "lat": 47.3440977, "lon": -122.6154446}, {"type": "node", "id": 11863077767, "lat": 47.3440973, "lon": -122.6153616}, {"type": "node", "id": 11863077772, "lat": 47.3417459, "lon": -122.615384}, {"type": "node", "id": 11863077773, "lat": 47.3417459, "lon": -122.6154636}, {"type": "node", "id": 11863077774, "lat": 47.3427607, "lon": -122.6154642}, {"type": "node", "id": 11863077775, "lat": 47.3427607, "lon": -122.6153868}, {"type": "node", "id": 11863077776, "lat": 47.3415928, "lon": -122.6153839}, {"type": "node", "id": 11863077777, "lat": 47.3415929, "lon": -122.6152281}, {"type": "node", "id": 11863077778, "lat": 47.342504, "lon": -122.6152288}, {"type": "node", "id": 11863077779, "lat": 47.3425039, "lon": -122.6152979}, {"type": "node", "id": 11863077780, "lat": 47.3428186, "lon": -122.6152982}, {"type": "node", "id": 11863077781, "lat": 47.3428187, "lon": -122.6152149}, {"type": "node", "id": 11863077782, "lat": 47.3428965, "lon": -122.6152149}, {"type": "node", "id": 11863077783, "lat": 47.3428964, "lon": -122.615387}, {"type": "node", "id": 11863077821, "lat": 47.3415928, "lon": -122.6153255}, {"type": "node", "id": 11863077822, "lat": 47.3428964, "lon": -122.6153336}, {"type": "node", "id": 11863077832, "lat": 47.3452973, "lon": -122.6159504}, {"type": "node", "id": 11863077839, "lat": 47.3444779, "lon": -122.6153777}, {"type": "node", "id": 11863077840, "lat": 47.3444771, "lon": -122.6151982}, {"type": "node", "id": 11863077841, "lat": 47.345321, "lon": -122.6151909}, {"type": "node", "id": 11863077842, "lat": 47.3453215, "lon": -122.6152966}, {"type": "node", "id": 11863077843, "lat": 47.345378, "lon": -122.6152961}, {"type": "node", "id": 11863077844, "lat": 47.345381, "lon": -122.6160233}, {"type": "node", "id": 11863077845, "lat": 47.3453333, "lon": -122.6160237}, {"type": "node", "id": 11863077846, "lat": 47.345333, "lon": -122.61595}, {"type": "node", "id": 11863077847, "lat": 47.3452155, "lon": -122.6159511}, {"type": "node", "id": 11863077849, "lat": 47.3444776, "lon": -122.6153193}, {"type": "node", "id": 11863116895, "lat": 47.3431081, "lon": -122.6153685}, {"type": "node", "id": 11863116896, "lat": 47.3431076, "lon": -122.6152144}, {"type": "node", "id": 11863116897, "lat": 47.3442618, "lon": -122.615207}, {"type": "node", "id": 11863116898, "lat": 47.3442623, "lon": -122.6153601}, {"type": "node", "id": 11863116899, "lat": 47.3442622, "lon": -122.615321}, {"type": "node", "id": 11863116900, "lat": 47.343108, "lon": -122.6153326}, {"type": "node", "id": 11863216700, "lat": 47.3424241, "lon": -122.6096006, "tags": {"name": "Hemley's Septic", "office": "company"}}, {"type": "node", "id": 11938213346, "lat": 47.3392519, "lon": -122.5902822, "tags": {"amenity": "parking"}}, {"type": "node", "id": 12065404391, "lat": 47.3282932, "lon": -122.5816805, "tags": {"amenity": "ice_cream", "name": "IScreamery"}}, {"type": "node", "id": 12147485225, "lat": 47.3293306, "lon": -122.578197}, {"type": "node", "id": 12147485226, "lat": 47.3405712, "lon": -122.5914574}, {"type": "node", "id": 12147485227, "lat": 47.3407166, "lon": -122.5916773}, {"type": "node", "id": 12147485228, "lat": 47.3412723, "lon": -122.5916638}, {"type": "node", "id": 12147485229, "lat": 47.3423706, "lon": -122.5920904}, {"type": "node", "id": 12147485230, "lat": 47.3423488, "lon": -122.5946546}, {"type": "node", "id": 12147485231, "lat": 47.3408584, "lon": -122.5945258}, {"type": "node", "id": 12147485232, "lat": 47.3396515, "lon": -122.5929004}, {"type": "node", "id": 12160866610, "lat": 47.3193804, "lon": -122.5866963, "tags": {"amenity": "polling_station", "location": "outdoor", "polling_station": "ballot_box"}}, {"type": "node", "id": 12222400365, "lat": 47.3296121, "lon": -122.5812706, "tags": {"addr:city": "Gig Harbor", "addr:housenumber": "3122", "addr:postcode": "98335", "addr:state": "WA", "addr:street": "Harborview Drive", "name": "For The Love Of Spice", "shop": "spices", "website": "https://www.loveofspice.com"}}, {"type": "node", "id": 12405806094, "lat": 47.3364401, "lon": -122.592817, "tags": {"amenity": "bicycle_parking"}}, {"type": "node", "id": 12405806095, "lat": 47.3304181, "lon": -122.5816562, "tags": {"amenity": "vending_machine", "check_date": "2024-12-08", "vending": "excrement_bags"}}, {"type": "node", "id": 12405806097, "lat": 47.3326482, "lon": -122.5831239, "tags": {"amenity": "vending_machine", "check_date": "2024-12-08", "vending": "excrement_bags"}}, {"type": "node", "id": 12405806099, "lat": 47.332734, "lon": -122.5831996, "tags": {"amenity": "bench", "armrest": "yes", "backrest": "yes", "material": "metal"}}, {"type": "node", "id": 12405806100, "lat": 47.3324166, "lon": -122.5844943, "tags": {"amenity": "vending_machine", "bin": "no", "check_date": "2024-12-08", "fee": "no", "vending": "excrement_bags"}}, {"type": "node", "id": 12405809602, "lat": 47.3332042, "lon": -122.5856904, "tags": {"amenity": "waste_basket"}}, {"type": "node", "id": 12405809603, "lat": 47.3331183, "lon": -122.5855946, "tags": {"amenity": "bench", "armrest": "no", "backrest": "yes"}}, {"type": "node", "id": 12405809604, "lat": 47.3332054, "lon": -122.5856252, "tags": {"amenity": "public_bookcase", "brand": "Little Free Library", "brand:wikidata": "Q6650101"}}, {"type": "node", "id": 12405809605, "lat": 47.3332707, "lon": -122.5856702, "tags": {"amenity": "vending_machine", "bin": "no", "check_date": "2024-12-08", "fee": "no", "vending": "excrement_bags"}}, {"type": "node", "id": 12405809609, "lat": 47.333779, "lon": -122.5867025, "tags": {"amenity": "waste_basket"}}, {"type": "node", "id": 12405809610, "lat": 47.3336341, "lon": -122.5882447, "tags": {"amenity": "bench", "armrest": "no", "backrest": "yes", "material": "concrete"}}, {"type": "node", "id": 12405809614, "lat": 47.3338956, "lon": -122.5891854, "tags": {"amenity": "vending_machine", "check_date": "2024-12-08", "vending": "excrement_bags"}}, {"type": "node", "id": 12405809615, "lat": 47.3356276, "lon": -122.5894965, "tags": {"amenity": "vending_machine", "check_date": "2024-12-08", "vending": "excrement_bags"}}, {"type": "node", "id": 12405809616, "lat": 47.3361819, "lon": -122.5925143, "tags": {"amenity": "vending_machine", "check_date": "2024-12-08", "vending": "excrement_bags"}}, {"type": "node", "id": 12405809618, "lat": 47.336356, "lon": -122.5926823, "tags": {"amenity": "bench"}}, {"type": "node", "id": 12405809624, "lat": 47.3370083, "lon": -122.5921383, "tags": {"amenity": "waste_basket"}}, {"type": "node", "id": 12405809625, "lat": 47.3369566, "lon": -122.5921428, "tags": {"amenity": "bench"}}, {"type": "node", "id": 12405809626, "lat": 47.3369548, "lon": -122.5925016, "tags": {"amenity": "bench"}}, {"type": "node", "id": 12405809630, "lat": 47.3375736, "lon": -122.5928923, "tags": {"amenity": "bench"}}, {"type": "node", "id": 12405809631, "lat": 47.3375836, "lon": -122.5929262, "tags": {"amenity": "waste_basket"}}, {"type": "node", "id": 12405809634, "lat": 47.3375567, "lon": -122.5939525, "tags": {"information": "map", "map_size": "local", "tourism": "information"}}, {"type": "node", "id": 12405809636, "lat": 47.3375294, "lon": -122.5939429, "tags": {"amenity": "waste_basket"}}, {"type": "node", "id": 12405809637, "lat": 47.3375381, "lon": -122.5939339, "tags": {"amenity": "vending_machine", "check_date": "2024-12-08", "vending": "excrement_bags"}}, {"type": "node", "id": 12405809638, "lat": 47.3375562, "lon": -122.5938928, "tags": {"amenity": "bench"}}, {"type": "node", "id": 12405809639, "lat": 47.3375926, "lon": -122.5938566, "tags": {"amenity": "bench"}}, {"type": "node", "id": 12405809644, "lat": 47.3374755, "lon": -122.593983, "tags": {"amenity": "waste_basket"}}, {"type": "node", "id": 12405809646, "lat": 47.3374767, "lon": -122.5935709, "tags": {"amenity": "public_bookcase", "brand": "Little Free Library", "brand:wikidata": "Q6650101", "name": "Little Free Library", "operator": "Harbor History Museum", "public_bookcase:type": "reading_box"}}, {"type": "node", "id": 12405809647, "lat": 47.3374753, "lon": -122.5934979, "tags": {"amenity": "bicycle_parking", "covered": "yes"}}, {"type": "node", "id": 12405809651, "lat": 47.3335143, "lon": -122.5885547, "tags": {"access": "yes", "amenity": "drinking_water", "bottle": "yes", "covered": "no", "indoor": "no"}}, {"type": "node", "id": 12405809652, "lat": 47.3335149, "lon": -122.5884981, "tags": {"amenity": "bench", "armrest": "no", "backrest": "yes", "material": "metal"}}, {"type": "node", "id": 12405809656, "lat": 47.3323557, "lon": -122.5838482}, {"type": "node", "id": 12405809657, "lat": 47.3323201, "lon": -122.5838388, "tags": {"amenity": "bench", "armrest": "no", "backrest": "no"}}, {"type": "node", "id": 12405809658, "lat": 47.3307958, "lon": -122.5819814, "tags": {"amenity": "drinking_water", "bottle": "yes", "covered": "yes", "indoor": "no"}}, {"type": "node", "id": 12405809660, "lat": 47.3308435, "lon": -122.5816784, "tags": {"amenity": "vending_machine", "check_date": "2024-12-08", "vending": "excrement_bags"}}, {"type": "node", "id": 12405809661, "lat": 47.3307641, "lon": -122.5815442, "tags": {"amenity": "bench"}}, {"type": "node", "id": 12405809663, "lat": 47.3305034, "lon": -122.5817217, "tags": {"amenity": "bench", "armrest": "yes", "backrest": "yes"}}, {"type": "node", "id": 12406018882, "lat": 47.3357955, "lon": -122.5898715}, {"type": "node", "id": 12406018883, "lat": 47.3354106, "lon": -122.5892065}, {"type": "node", "id": 12406018884, "lat": 47.3352855, "lon": -122.5891244}, {"type": "node", "id": 12406018885, "lat": 47.3351459, "lon": -122.5893231}, {"type": "node", "id": 12406018886, "lat": 47.3352651, "lon": -122.5893854}, {"type": "node", "id": 12406018887, "lat": 47.3356515, "lon": -122.5900529}, {"type": "node", "id": 12406018889, "lat": 47.3337546, "lon": -122.586626, "tags": {"access": "yes", "amenity": "toilets"}}, {"type": "node", "id": 12406027508, "lat": 47.3309396, "lon": -122.5818413, "tags": {"amenity": "lifejacket_rental"}}, {"type": "node", "id": 12406027513, "lat": 47.3323432, "lon": -122.5838233}, {"type": "node", "id": 12406027514, "lat": 47.3323451, "lon": -122.5837976}, {"type": "node", "id": 12406027515, "lat": 47.3323947, "lon": -122.5837452}, {"type": "node", "id": 12406027516, "lat": 47.3324446, "lon": -122.5838481}, {"type": "node", "id": 12406027517, "lat": 47.332434, "lon": -122.5838593}, {"type": "node", "id": 12406027518, "lat": 47.3324237, "lon": -122.5838382}, {"type": "node", "id": 12406027519, "lat": 47.3324035, "lon": -122.5838596}, {"type": "node", "id": 12406027520, "lat": 47.329451, "lon": -122.5796393}, {"type": "node", "id": 12406027521, "lat": 47.3294577, "lon": -122.5796118}, {"type": "node", "id": 12406027522, "lat": 47.3294598, "lon": -122.5795908}, {"type": "node", "id": 12406027523, "lat": 47.3294583, "lon": -122.5795645}, {"type": "node", "id": 12406027524, "lat": 47.3294528, "lon": -122.5795387}, {"type": "node", "id": 12406027525, "lat": 47.3294461, "lon": -122.5795185}, {"type": "node", "id": 12406027526, "lat": 47.32944, "lon": -122.5795117}, {"type": "node", "id": 12406027527, "lat": 47.3294435, "lon": -122.5794816}, {"type": "node", "id": 12406027528, "lat": 47.329449, "lon": -122.5794493}, {"type": "node", "id": 12406027529, "lat": 47.3294563, "lon": -122.5794227}, {"type": "node", "id": 12406027530, "lat": 47.3294621, "lon": -122.5794059}, {"type": "node", "id": 12406027531, "lat": 47.3294899, "lon": -122.5797387}, {"type": "node", "id": 12406027532, "lat": 47.329484, "lon": -122.5797322}, {"type": "node", "id": 12406027533, "lat": 47.3294778, "lon": -122.5797197}, {"type": "node", "id": 12406027534, "lat": 47.3294694, "lon": -122.5797}, {"type": "node", "id": 12406027535, "lat": 47.3294601, "lon": -122.5796759}, {"type": "node", "id": 12406027536, "lat": 47.3294551, "lon": -122.5796548}, {"type": "node", "id": 12675129336, "lat": 47.3361199, "lon": -122.6056863}, {"type": "node", "id": 12675129337, "lat": 47.3361369, "lon": -122.6052144}, {"type": "node", "id": 12675129338, "lat": 47.3359184, "lon": -122.6051956}, {"type": "node", "id": 12675129339, "lat": 47.3358929, "lon": -122.6052019}, {"type": "node", "id": 12675129340, "lat": 47.3358588, "lon": -122.605242}, {"type": "node", "id": 12675129341, "lat": 47.3358325, "lon": -122.6052872}, {"type": "node", "id": 12675129342, "lat": 47.3357883, "lon": -122.6054077}, {"type": "node", "id": 12675129343, "lat": 47.3357857, "lon": -122.6055771}, {"type": "node", "id": 12675129344, "lat": 47.3358163, "lon": -122.605611}, {"type": "node", "id": 12675129345, "lat": 47.3358716, "lon": -122.6056486}, {"type": "node", "id": 12675129346, "lat": 47.3359652, "lon": -122.6056762}, {"type": "node", "id": 12675129347, "lat": 47.3359162, "lon": -122.6056687}, {"type": "node", "id": 12675129348, "lat": 47.3328188, "lon": -122.6038814}, {"type": "node", "id": 12675129349, "lat": 47.3328207, "lon": -122.6032229}, {"type": "node", "id": 12675129350, "lat": 47.333106, "lon": -122.6025416}, {"type": "node", "id": 12675129351, "lat": 47.3335988, "lon": -122.6029909}, {"type": "node", "id": 12675129352, "lat": 47.3335135, "lon": -122.6031945}, {"type": "node", "id": 12675129353, "lat": 47.3331625, "lon": -122.6028744}, {"type": "node", "id": 12675129354, "lat": 47.3329784, "lon": -122.6033137}, {"type": "node", "id": 12675129355, "lat": 47.332978, "lon": -122.60348}, {"type": "node", "id": 12675129356, "lat": 47.3329301, "lon": -122.6034797}, {"type": "node", "id": 12675129357, "lat": 47.332929, "lon": -122.6038821}, {"type": "node", "id": 12675129358, "lat": 47.3336029, "lon": -122.6058992}, {"type": "node", "id": 12675129359, "lat": 47.3340741, "lon": -122.6056269}, {"type": "node", "id": 12675129360, "lat": 47.3340294, "lon": -122.6054585}, {"type": "node", "id": 12675129361, "lat": 47.334291, "lon": -122.6053073}, {"type": "node", "id": 12675129362, "lat": 47.3345458, "lon": -122.6045565}, {"type": "node", "id": 12675129363, "lat": 47.3344378, "lon": -122.6044767}, {"type": "node", "id": 12675129364, "lat": 47.3342618, "lon": -122.6049953}, {"type": "node", "id": 12675129365, "lat": 47.3334825, "lon": -122.6054455}, {"type": "node", "id": 12675129369, "lat": 47.3344763, "lon": -122.6042259}, {"type": "node", "id": 12675129370, "lat": 47.3345984, "lon": -122.6038891}, {"type": "node", "id": 12675129371, "lat": 47.3346903, "lon": -122.6039616}, {"type": "node", "id": 12675129372, "lat": 47.3346651, "lon": -122.604031}, {"type": "node", "id": 12675129373, "lat": 47.3347128, "lon": -122.6040686}, {"type": "node", "id": 12675129374, "lat": 47.3346771, "lon": -122.6041671}, {"type": "node", "id": 12675129375, "lat": 47.3346339, "lon": -122.604133}, {"type": "node", "id": 12675129376, "lat": 47.3345727, "lon": -122.6043019}, {"type": "node", "id": 12675137919, "lat": 47.3342925, "lon": -122.6033765}, {"type": "node", "id": 12675137930, "lat": 47.3325469, "lon": -122.6019081}, {"type": "node", "id": 12675137931, "lat": 47.3325733, "lon": -122.6042214}, {"type": "node", "id": 12675137933, "lat": 47.3327622, "lon": -122.6041286}, {"type": "node", "id": 12675137934, "lat": 47.3327863, "lon": -122.6032093}, {"type": "node", "id": 12743775543, "lat": 47.328318, "lon": -122.5806974}, {"type": "node", "id": 12743775546, "lat": 47.3283241, "lon": -122.580638}, {"type": "node", "id": 12743775547, "lat": 47.3282277, "lon": -122.5806995}, {"type": "node", "id": 12743775548, "lat": 47.3282276, "lon": -122.5806855}, {"type": "node", "id": 12784736021, "lat": 47.3282399, "lon": -122.5811759, "tags": {"addr:city": "Gig Harbor", "addr:housenumber": "3119", "addr:postcode": "98335", "addr:state": "WA", "addr:street": "Judson Street", "addr:unit": "A", "loc_name": "Invitation Books", "name": "Invitation Book Shop", "opening_hours": "Tu-Th 11:00-18:00; Fr-Sa 10:00-17:00", "phone": "+1-253-432-4566", "shop": "books", "website": "https://invitationbookshop.com/"}}, {"type": "node", "id": 12784736022, "lat": 47.3282423, "lon": -122.5810474, "tags": {"addr:city": "Gig Harbor", "addr:housenumber": "3119", "addr:postcode": "98335", "addr:state": "WA", "addr:street": "Judson Street", "addr:unit": "B", "amenity": "restaurant", "cuisine": "italian", "diet:gluten_free": "yes", "diet:meat": "yes", "diet:mediterranean": "yes", "name": "Il Lucano Ristorate Italiano", "opening_hours": "Tu-Sa 11:30-21:00", "phone": "+1-253-514-8945", "website": "https://illucanoristorante.com/"}}, {"type": "node", "id": 12806250234, "lat": 47.3312553, "lon": -122.586736}, {"type": "node", "id": 12806250235, "lat": 47.3315176, "lon": -122.586458}, {"type": "node", "id": 12806250236, "lat": 47.3313171, "lon": -122.5860516}, {"type": "node", "id": 12806250237, "lat": 47.3312381, "lon": -122.5861338}, {"type": "node", "id": 12806250238, "lat": 47.3311738, "lon": -122.5860001}, {"type": "node", "id": 12806250239, "lat": 47.3310624, "lon": -122.5861091}, {"type": "node", "id": 12806250240, "lat": 47.3311216, "lon": -122.5862518}, {"type": "node", "id": 12806250241, "lat": 47.3309515, "lon": -122.5864356}, {"type": "node", "id": 12806250242, "lat": 47.3310249, "lon": -122.5865821}, {"type": "node", "id": 12806250243, "lat": 47.3311272, "lon": -122.5864693}, {"type": "node", "id": 12863798551, "lat": 47.323731, "lon": -122.5920543}, {"type": "node", "id": 12863798552, "lat": 47.3237808, "lon": -122.5919306}, {"type": "node", "id": 12863798553, "lat": 47.3236093, "lon": -122.5917804}, {"type": "node", "id": 12863798554, "lat": 47.3235693, "lon": -122.5918797}, {"type": "node", "id": 12863798555, "lat": 47.3236094, "lon": -122.5919148}, {"type": "node", "id": 12863798556, "lat": 47.3235757, "lon": -122.5919988}, {"type": "node", "id": 12863798557, "lat": 47.3236268, "lon": -122.5920435}, {"type": "node", "id": 12863798558, "lat": 47.3236507, "lon": -122.591984}, {"type": "node", "id": 12863798568, "lat": 47.324001, "lon": -122.5904337}, {"type": "node", "id": 12863798569, "lat": 47.3240312, "lon": -122.5897015}, {"type": "node", "id": 12863798570, "lat": 47.3235764, "lon": -122.589716}, {"type": "node", "id": 12863798571, "lat": 47.3235572, "lon": -122.5897276}, {"type": "node", "id": 12863798572, "lat": 47.3235442, "lon": -122.5897597}, {"type": "node", "id": 12863806004, "lat": 47.3346394, "lon": -122.597756, "tags": {"amenity": "bench"}}, {"type": "node", "id": 12863806005, "lat": 47.3232393, "lon": -122.5912339, "tags": {"access": "yes", "amenity": "drinking_water", "fee": "no", "wheelchair": "yes"}}, {"type": "node", "id": 12863806008, "lat": 47.3235073, "lon": -122.5910712, "tags": {"amenity": "vending_machine", "bin": "yes", "check_date": "2025-05-25", "fee": "no", "vending": "excrement_bags"}}, {"type": "node", "id": 12863806009, "lat": 47.326129, "lon": -122.5926337, "tags": {"amenity": "vending_machine", "bin": "yes", "check_date": "2025-05-25", "fee": "no", "vending": "excrement_bags"}}, {"type": "node", "id": 12863806010, "lat": 47.3270014, "lon": -122.5932711, "tags": {"amenity": "bench"}}, {"type": "node", "id": 12863806011, "lat": 47.3274767, "lon": -122.5936738, "tags": {"amenity": "bench"}}, {"type": "node", "id": 12863806012, "lat": 47.3278645, "lon": -122.594499, "tags": {"amenity": "bench"}}, {"type": "node", "id": 12863806013, "lat": 47.327908, "lon": -122.5943767, "tags": {"amenity": "bench"}}, {"type": "node", "id": 12863806015, "lat": 47.3284398, "lon": -122.5945422, "tags": {"amenity": "bench"}}, {"type": "node", "id": 12863806016, "lat": 47.3289289, "lon": -122.5945097, "tags": {"amenity": "bench"}}, {"type": "node", "id": 12863806018, "lat": 47.3306248, "lon": -122.5947128, "tags": {"amenity": "bench"}}, {"type": "node", "id": 12863806020, "lat": 47.3306704, "lon": -122.5953777, "tags": {"amenity": "vending_machine", "bin": "yes", "check_date": "2025-05-25", "fee": "no", "vending": "excrement_bags"}}, {"type": "node", "id": 12863806022, "lat": 47.331677, "lon": -122.5958097, "tags": {"amenity": "bench"}}, {"type": "node", "id": 12863806023, "lat": 47.3316605, "lon": -122.5959539, "tags": {"amenity": "bench"}}, {"type": "node", "id": 12863806024, "lat": 47.3325699, "lon": -122.5965988, "tags": {"amenity": "bench"}}, {"type": "node", "id": 12863806025, "lat": 47.3346428, "lon": -122.5976993, "tags": {"amenity": "bench"}}, {"type": "node", "id": 12863806026, "lat": 47.3232399, "lon": -122.5912009, "tags": {"amenity": "waste_basket"}}, {"type": "node", "id": 12863806027, "lat": 47.3367766, "lon": -122.5988798, "tags": {"amenity": "bench"}}, {"type": "node", "id": 12863806028, "lat": 47.337609, "lon": -122.5993669, "tags": {"amenity": "bench"}}, {"type": "node", "id": 12863806029, "lat": 47.3382701, "lon": -122.5996269, "tags": {"amenity": "bench"}}, {"type": "node", "id": 12863806030, "lat": 47.338707, "lon": -122.5998368, "tags": {"amenity": "bench"}}, {"type": "node", "id": 12863806031, "lat": 47.3401065, "lon": -122.6008201, "tags": {"amenity": "bench"}}, {"type": "node", "id": 12863806032, "lat": 47.3412442, "lon": -122.6015931, "tags": {"amenity": "bench"}}, {"type": "node", "id": 12863806033, "lat": 47.3420977, "lon": -122.6021201, "tags": {"amenity": "bench"}}, {"type": "node", "id": 12863806034, "lat": 47.3422368, "lon": -122.6020173, "tags": {"amenity": "bench"}}, {"type": "node", "id": 12863806035, "lat": 47.3430263, "lon": -122.6024295, "tags": {"amenity": "bench"}}, {"type": "node", "id": 12863806036, "lat": 47.3432934, "lon": -122.6029128, "tags": {"amenity": "bench"}}, {"type": "node", "id": 12863806037, "lat": 47.3438393, "lon": -122.6031305, "tags": {"amenity": "bench"}}, {"type": "node", "id": 12863806038, "lat": 47.3439213, "lon": -122.6029895, "tags": {"amenity": "bench"}}, {"type": "node", "id": 12863806039, "lat": 47.3447359, "lon": -122.6034955, "tags": {"amenity": "bench"}}, {"type": "node", "id": 12863806040, "lat": 47.3446821, "lon": -122.6036741, "tags": {"amenity": "bench"}}, {"type": "node", "id": 12863806042, "lat": 47.3452425, "lon": -122.6040165, "tags": {"amenity": "vending_machine", "bin": "yes", "check_date": "2025-05-25", "fee": "no", "vending": "excrement_bags"}}, {"type": "node", "id": 12863806048, "lat": 47.3232751, "lon": -122.5912776, "tags": {"amenity": "bicycle_parking"}}, {"type": "node", "id": 12863806057, "lat": 47.3303159, "lon": -122.5932737, "tags": {"amenity": "vending_machine", "bin": "yes", "check_date": "2025-05-25", "fee": "no", "vending": "excrement_bags"}}, {"type": "node", "id": 12863806060, "lat": 47.3303513, "lon": -122.5934663, "tags": {"amenity": "toilets", "check_date": "2025-05-25", "portable": "yes"}}, {"type": "node", "id": 12863806064, "lat": 47.3302091, "lon": -122.5934494, "tags": {"amenity": "drinking_water"}}, {"type": "node", "id": 12863806066, "lat": 47.3291147, "lon": -122.59259, "tags": {"amenity": "bench"}}, {"type": "node", "id": 12863806067, "lat": 47.3282879, "lon": -122.5943161, "tags": {"amenity": "bench"}}, {"type": "node", "id": 12863834127, "lat": 47.3240854, "lon": -122.5909086}, {"type": "node", "id": 12863834128, "lat": 47.324307, "lon": -122.5909287}, {"type": "node", "id": 12863834129, "lat": 47.3243517, "lon": -122.5898601}, {"type": "node", "id": 12863834130, "lat": 47.3242312, "lon": -122.5898491}, {"type": "node", "id": 12863834131, "lat": 47.3242273, "lon": -122.5899422}, {"type": "node", "id": 12863834132, "lat": 47.3241729, "lon": -122.5899373}, {"type": "node", "id": 12863834133, "lat": 47.3241466, "lon": -122.5905628}, {"type": "node", "id": 12863834134, "lat": 47.3241, "lon": -122.5905586}, {"type": "node", "id": 12863834135, "lat": 47.3237444, "lon": -122.5903203}, {"type": "node", "id": 12863834136, "lat": 47.3237582, "lon": -122.5898684}, {"type": "node", "id": 12863834137, "lat": 47.3236032, "lon": -122.5898581}, {"type": "node", "id": 12863834138, "lat": 47.3235894, "lon": -122.59031}, {"type": "node", "id": 12863834157, "lat": 47.3235879, "lon": -122.5920096}, {"type": "node", "id": 12887024295, "lat": 47.3322873, "lon": -122.5951374}, {"type": "node", "id": 12887024296, "lat": 47.3321374, "lon": -122.5950529}, {"type": "node", "id": 12887024297, "lat": 47.3321855, "lon": -122.5948464}, {"type": "node", "id": 12887024298, "lat": 47.3323019, "lon": -122.5948813}, {"type": "node", "id": 12887024299, "lat": 47.3322755, "lon": -122.5949886}, {"type": "node", "id": 12887024300, "lat": 47.33232, "lon": -122.5950154}, {"type": "node", "id": 12892524454, "lat": 47.3391377, "lon": -122.6035519}, {"type": "node", "id": 12892524455, "lat": 47.3390748, "lon": -122.6034045}, {"type": "node", "id": 12892524456, "lat": 47.338957, "lon": -122.6031114}, {"type": "node", "id": 12892524457, "lat": 47.3383545, "lon": -122.6027306}, {"type": "node", "id": 12892524458, "lat": 47.3379652, "lon": -122.6033879}, {"type": "node", "id": 12892524459, "lat": 47.3379349, "lon": -122.6037108}, {"type": "node", "id": 12892524460, "lat": 47.3380561, "lon": -122.6044525}, {"type": "node", "id": 12960431403, "lat": 47.3302619, "lon": -122.5975223, "tags": {"shop": "storage_rental"}}, {"type": "node", "id": 12960431405, "lat": 47.3277063, "lon": -122.5996584}, {"type": "node", "id": 12960431406, "lat": 47.3277064, "lon": -122.5996859}, {"type": "node", "id": 12960431407, "lat": 47.3275344, "lon": -122.5998514}, {"type": "node", "id": 12960431408, "lat": 47.3275341, "lon": -122.5997941}, {"type": "node", "id": 12960432109, "lat": 47.3172134, "lon": -122.5968532}, {"type": "node", "id": 12960432110, "lat": 47.3172879, "lon": -122.5968511}, {"type": "node", "id": 12960432111, "lat": 47.3172886, "lon": -122.596902}, {"type": "node", "id": 12960432112, "lat": 47.317374, "lon": -122.5968997}, {"type": "node", "id": 12960432113, "lat": 47.3173733, "lon": -122.5968487}, {"type": "node", "id": 12960432114, "lat": 47.317477, "lon": -122.5968458}, {"type": "node", "id": 12960432115, "lat": 47.3174776, "lon": -122.5968941}, {"type": "node", "id": 12960432116, "lat": 47.3175612, "lon": -122.5968918}, {"type": "node", "id": 12960432120, "lat": 47.3229567, "lon": -122.5878135}, {"type": "node", "id": 12960432121, "lat": 47.323073, "lon": -122.5876847}, {"type": "node", "id": 12960432122, "lat": 47.3229634, "lon": -122.5874692}, {"type": "node", "id": 12960432293, "lat": 47.3282419, "lon": -122.5798594}, {"type": "node", "id": 12960432294, "lat": 47.3282398, "lon": -122.5796959}, {"type": "node", "id": 12960432295, "lat": 47.3281655, "lon": -122.5798616}, {"type": "node", "id": 12960435343, "lat": 47.3166672, "lon": -122.5968642}, {"type": "node", "id": 12960435344, "lat": 47.3167442, "lon": -122.596862}, {"type": "node", "id": 12960435345, "lat": 47.3167454, "lon": -122.5969531}, {"type": "node", "id": 12960435346, "lat": 47.3168266, "lon": -122.5969508}, {"type": "node", "id": 12960435347, "lat": 47.3168254, "lon": -122.5968597}, {"type": "node", "id": 12960435348, "lat": 47.3169308, "lon": -122.5968567}, {"type": "node", "id": 12960435349, "lat": 47.316932, "lon": -122.5969495}, {"type": "node", "id": 12960435350, "lat": 47.3170108, "lon": -122.5969473}, {"type": "node", "id": 12960435351, "lat": 47.3170096, "lon": -122.5968544}, {"type": "node", "id": 12960435352, "lat": 47.3170841, "lon": -122.5968523}, {"type": "node", "id": 12960435480, "lat": 47.3260195, "lon": -122.5860932}, {"type": "node", "id": 12960435481, "lat": 47.3260286, "lon": -122.5860894}, {"type": "node", "id": 12960435482, "lat": 47.3260424, "lon": -122.5861614}, {"type": "node", "id": 12960435483, "lat": 47.3262067, "lon": -122.5860929}, {"type": "node", "id": 12960435484, "lat": 47.32622, "lon": -122.5861624}, {"type": "node", "id": 12960435485, "lat": 47.326288, "lon": -122.586134}, {"type": "node", "id": 12960435486, "lat": 47.3262672, "lon": -122.5860259}, {"type": "node", "id": 12960435487, "lat": 47.326316, "lon": -122.5860055}, {"type": "node", "id": 12960435488, "lat": 47.3263025, "lon": -122.5859348}, {"type": "node", "id": 12960435489, "lat": 47.3263412, "lon": -122.5859187}, {"type": "node", "id": 12960435490, "lat": 47.3263262, "lon": -122.5858403}, {"type": "node", "id": 12960435491, "lat": 47.3263497, "lon": -122.5858305}, {"type": "node", "id": 12960435492, "lat": 47.3263216, "lon": -122.585684}, {"type": "node", "id": 12960435493, "lat": 47.3262318, "lon": -122.5857215}, {"type": "node", "id": 12960435494, "lat": 47.3262197, "lon": -122.5856583}, {"type": "node", "id": 12960435495, "lat": 47.3261069, "lon": -122.5857054}, {"type": "node", "id": 12960435496, "lat": 47.3260499, "lon": -122.5858027}, {"type": "node", "id": 12960435497, "lat": 47.3260304, "lon": -122.5857009}, {"type": "node", "id": 12960435498, "lat": 47.3257857, "lon": -122.5858031}, {"type": "node", "id": 12960435499, "lat": 47.325814, "lon": -122.585951}, {"type": "node", "id": 12960435500, "lat": 47.325979, "lon": -122.5858821}, {"type": "node", "id": 12960435803, "lat": 47.3165711, "lon": -122.5969452}, {"type": "node", "id": 13011648668, "lat": 47.3206697, "lon": -122.5816694}, {"type": "node", "id": 13011648669, "lat": 47.3207028, "lon": -122.5815779}, {"type": "node", "id": 13011648670, "lat": 47.3206581, "lon": -122.5815437}, {"type": "node", "id": 13011648671, "lat": 47.320683, "lon": -122.581468}, {"type": "node", "id": 13011648672, "lat": 47.3205952, "lon": -122.5814008}, {"type": "node", "id": 13011648673, "lat": 47.3205745, "lon": -122.5813838}, {"type": "node", "id": 13011648674, "lat": 47.320515, "lon": -122.5815449}, {"type": "node", "id": 13014527401, "lat": 47.327477, "lon": -122.5803644, "tags": {"addr:city": "Gig Harbor", "addr:housenumber": "3110", "addr:postcode": "98335", "addr:state": "WA", "addr:street": "Judson Street", "amenity": "cafe", "contact:facebook": "61564180244988", "contact:instagram": "fusionwa.online", "email": "contactus@fusionwa.online", "level": "0", "name": "Fusion", "opening_hours": "Mo-Su 06:00-16:00", "outdoor_seating": "no", "phone": "+1-253-212-3402"}}, {"type": "node", "id": 13025612482, "lat": 47.3278115, "lon": -122.5822203, "tags": {"addr:city": "Gig Harbor", "addr:housenumber": "3216", "addr:postcode": "98335", "addr:state": "WA", "addr:street": "Judson Street", "addr:unit": "A", "amenity": "pharmacy", "healthcare": "pharmacy", "name": "Harbor Health and Apothecary"}}, {"type": "node", "id": 13025612483, "lat": 47.3277778, "lon": -122.5819505, "tags": {"addr:city": "Gig Harbor", "addr:housenumber": "3216", "addr:postcode": "98335", "addr:state": "WA", "addr:street": "Judson Street", "addr:unit": "B", "amenity": "pub", "microbrewery": "no", "name": "Hop Pharm", "opening_hours": "Tu-We 14:00-20:00; Th-Sa 14:00-21:00; Su 14:00-19:00", "website": "http://hoppharm.com/"}}, {"type": "node", "id": 13025612484, "lat": 47.327336, "lon": -122.5819297, "tags": {"addr:city": "Gig Harbor", "addr:housenumber": "3308", "addr:postcode": "98335", "addr:state": "WA", "addr:street": "Uddenberg Lane", "addr:unit": "B", "amenity": "fast_food", "cuisine": "bagel;sandwich", "drive_through": "no", "name": "B's Bagels & Butters", "opening_hours": "Tu-Fr 7:30-14:00; Sa-Su 8:00-14:00", "phone": "+1-253-358-3257", "website": "https://bsbagelsgigharbor.com"}}, {"type": "node", "id": 13025630123, "lat": 47.3288474, "lon": -122.5819355, "tags": {"addr:city": "Gig Harbor", "addr:housenumber": "3208", "addr:postcode": "98335", "addr:state": "WA", "addr:street": "Tarabochia Street", "addr:unit": "D", "name": "Rainy Day Yarns & Mercantile", "phone": "+1-253-514-6890", "shop": "fabric", "website": "https://www.rainydayyarns.com/"}}, {"type": "node", "id": 13025630124, "lat": 47.3287531, "lon": -122.5820663, "tags": {"name": "Seivers Real Estate", "office": "estate_agent"}}, {"type": "node", "id": 13025630125, "lat": 47.3289262, "lon": -122.5820849, "tags": {"addr:city": "Gig Harbor", "addr:housenumber": "3208", "addr:postcode": "98335", "addr:state": "WA", "addr:street": "Tarabochia Street", "name": "AR Workshop DIY Studio", "shop": "yes"}}, {"type": "node", "id": 13025630127, "lat": 47.3288207, "lon": -122.5821846, "tags": {"name": "Haven Thairapy Salon", "shop": "hairdresser"}}, {"type": "node", "id": 13062504406, "lat": 47.3163813, "lon": -122.5971253}, {"type": "node", "id": 13062504407, "lat": 47.3163731, "lon": -122.5969511}, {"type": "node", "id": 13062504408, "lat": 47.3165696, "lon": -122.5968425}, {"type": "node", "id": 13062504409, "lat": 47.3166668, "lon": -122.5968334}, {"type": "node", "id": 13062504410, "lat": 47.3170923, "lon": -122.5971148}, {"type": "node", "id": 13062504411, "lat": 47.3172206, "lon": -122.5970523}, {"type": "node", "id": 13062504412, "lat": 47.317563, "lon": -122.5970542}, {"type": "node", "id": 13186290989, "lat": 47.3204909, "lon": -122.5861144, "tags": {"addr:housenumber": "6755", "addr:postcode": "98335", "addr:street": "Kimball Drive", "amenity": "car_wash", "name": "Kimball\u2019s Hands on Detailing", "opening_hours": "Mo-Th 07:00-17:00; Fr 07:00-15:00", "phone": "+1-360-621-0025", "website": "www.KimballsHandsOnDetailing.com"}}, {"type": "node", "id": 13186290990, "lat": 47.3195, "lon": -122.5873724, "tags": {"addr:housenumber": "6712", "addr:street": "Kimball Drive", "addr:unit": "103", "name": "The Tattoo Nurse", "shop": "tattoo"}}, {"type": "node", "id": 13297189820, "lat": 47.3199687, "lon": -122.5864309, "tags": {"addr:city": "Gig Harbor", "addr:housenumber": "6745", "addr:state": "WA", "addr:street": "Kimball Drive", "addr:unit": "F", "name": "Route 16 Running and Walking", "opening_hours": "Mo-Fr 09:00-18:00; Sa 10:00-18:00; Su 12:00-16:00; Jan 01 off; Dec 25 off; PH \"See website\"", "shoes": "sport", "shop": "shoes"}}, {"type": "node", "id": 13327126131, "lat": 47.3281814, "lon": -122.5804684, "tags": {"addr:city": "Gig Harbor", "addr:housenumber": "3105", "addr:postcode": "98335", "addr:state": "WA", "addr:street": "Judson Street", "addr:unit": "D", "check_date": "2025-11-23", "currency:XBT": "yes", "hairdresser": "barber", "name": "The Shop Hair Studio", "opening_hours": "Mo-Fr 09:00-16:00; Su 10:00-15:30", "payment:lightning": "yes", "payment:lightning:operator": "square", "payment:lightning_contactless": "no", "payment:onchain": "no", "shop": "hairdresser"}}, {"type": "way", "id": 139810388, "nodes": [1532105478, 1532105489, 1532105483, 1532105466, 1532105448, 1532105438, 1532105434, 1532105432, 1532105433, 1532105436, 1532105478], "tags": {"access": "yes", "amenity": "parking", "capacity": "10", "capacity:disabled": "1", "capacity:parent": "no", "capacity:women": "no", "fee": "no", "park_ride": "no", "parking": "surface"}}, {"type": "way", "id": 139810389, "nodes": [1532105367, 1532105371, 1532105374, 1532105377, 1532105381, 1532105385, 1532105391, 1532105398, 1532105405, 1532105410, 1532105409, 1532105392, 1532105384, 1532105380, 1532105367], "tags": {"access": "yes", "amenity": "parking", "capacity": "306", "capacity:disabled": "yes", "capacity:parent": "no", "capacity:women": "no", "fee": "no", "maxstay": "24 hours", "name": "Kimball Drive Park & Ride", "operator": "Sound Transit", "park_ride": "yes", "parking": "surface", "surface": "asphalt", "website": "https://www.soundtransit.org/ride-with-us/parking/pierce-county/kimball-drive-park-ride"}}, {"type": "way", "id": 139810391, "nodes": [1532105481, 1532105485, 12863806005, 1532105455, 1532105453, 1532105481], "tags": {"access": "yes", "addr:city": "Gig Harbor", "addr:housenumber": "3908", "addr:postcode": "98332", "addr:state": "WA", "addr:street": "Grandview Street", "amenity": "toilets", "building": "yes", "unisex": "yes"}}, {"type": "way", "id": 283977844, "nodes": [2877726200, 5424246733, 2877726401, 2877726196, 9666234565, 2877726197, 2877726198, 2877726199, 2877726200], "tags": {"amenity": "parking", "source": "Bing"}}, {"type": "way", "id": 395125856, "nodes": [3980100982, 3980100985, 3980097733, 3980100984, 3980097734, 3980097728, 3980097752, 3980100959, 3980100962, 3980100983, 3980097713, 3980097750, 3980100978, 3980100982], "tags": {"access": "customers", "amenity": "parking", "fee": "no", "parking": "surface"}}, {"type": "way", "id": 396515941, "nodes": [3993276718, 3993276310, 3993276294, 3993276681, 3993276320, 3993276269, 3993276719, 3993276661, 3993276696, 3993276314, 3993276668, 3993276670, 3993276718], "tags": {"amenity": "parking"}}, {"type": "way", "id": 407858108, "nodes": [4098898240, 4098898241, 4098898242, 4098898243, 4098898244, 4098898240], "tags": {"addr:city": "Gig Harbor", "addr:housenumber": "7102", "addr:postcode": "98332", "addr:state": "WA", "addr:street": "Stinson Avenue", "building": "yes", "name": "Food Mart", "shop": "convenience"}}, {"type": "way", "id": 407858251, "nodes": [4098898253, 4098898254, 4098898255, 4098898256, 4098898253], "tags": {"addr:city": "Gig Harbor", "addr:housenumber": "7102", "addr:postcode": "98332", "addr:state": "WA", "addr:street": "Stinson Avenue", "amenity": "fuel", "brand": "Chevron", "brand:wikidata": "Q319642", "building": "roof", "name": "Chevron"}}, {"type": "way", "id": 407863609, "nodes": [4098930394, 4098930395, 4098930396, 4098930397, 4098930394], "tags": {"amenity": "car_wash", "building": "yes", "name": "Self-wash car wash"}}, {"type": "way", "id": 407863666, "nodes": [4098935247, 4098935248, 4098935249, 4098935250, 4098935247], "tags": {"amenity": "car_wash", "building": "yes", "name": "Car Detailing Center"}}, {"type": "way", "id": 407867972, "nodes": [4098955150, 4098955151, 12147485225, 4098955153, 4098955154, 4098955155, 4098955156, 4098955157, 4098955158, 4098955159, 4098955150], "tags": {"addr:city": "Gig Harbor", "addr:housenumber": "2925", "addr:postcode": "98335", "addr:state": "WA", "addr:street": "Harborview Drive", "amenity": "restaurant", "building": "yes", "name": "Tides Tavern", "phone": "+1-253-858-3982", "website": "https://tidestavern.com/"}}, {"type": "way", "id": 407870645, "nodes": [4098978885, 4098978886, 4098978887, 4098978888, 4098978885], "tags": {"addr:city": "Gig Harbor", "addr:housenumber": "3302", "addr:postcode": "98335", "addr:state": "WA", "addr:street": "Uddenberg Lane", "brand": "NAPA Auto Parts", "brand:wikidata": "Q6970842", "building": "yes", "name": "NAPA Auto Parts - Westbay Auto Parts", "shop": "car_parts"}}, {"type": "way", "id": 407870649, "nodes": [4098979421, 4098979422, 4098979423, 4098979424, 4098979421], "tags": {"amenity": "cafe", "building": "yes", "cuisine": "coffee_shop", "name": "Drive Thru Coffee"}}, {"type": "way", "id": 407870650, "nodes": [4098979425, 4098979426, 4098979427, 4098979428, 4098979425], "tags": {"addr:housenumber": "7707", "addr:state": "WA", "addr:street": "Pioneer Way", "amenity": "restaurant", "building": "yes", "name": "Brimstone PNW Smokehouse", "opening_hours": "Th 12:00-21:00; Fr, Sa 12:00-22:00; Su 12:00-20:00; Mo 12:00-21:00", "phone": "+1-253-858-2709", "website": "https://www.bbqbrimstone.com/"}}, {"type": "way", "id": 407870654, "nodes": [4098979443, 12743775546, 4098979444, 4098979445, 4098979446, 4098979447, 4098979448, 4098979449, 4098979450, 4098979451, 4098979452, 4098979453, 4098979454, 4098979455, 4098979456, 4098979457, 4098979458, 4098979459, 4098979460, 4098979461, 4098979462, 12743775548, 12743775547, 12743775543, 4098979443], "tags": {"addr:city": "Gig Harbor", "addr:housenumber": "3105", "addr:postcode": "98335", "addr:state": "WA", "addr:street": "Judson Street", "amenity": "bank", "building": "yes", "name": "Timberland Bank"}}, {"type": "way", "id": 407872817, "nodes": [4098998319, 4098998320, 4098998321, 4098998322, 4098998323, 4098998324, 4098998325, 4098998326, 4098998327, 4098998328, 4098998329, 4098998330, 4098998331, 4098998332, 4098998319], "tags": {"addr:city": "Gig Harbor", "addr:housenumber": "3210", "addr:postcode": "98335", "addr:state": "WA", "addr:street": "Harborview Drive", "amenity": "cafe", "building": "yes", "contact:email": "info@javaclay.com", "contact:facebook": "https://www.facebook.com/javaclaycafe", "contact:twitter": "https://twitter.com/javaclaycafe", "cuisine": "coffee_shop", "description": "Espresso cafe & pottery painting shop", "name": "Java & Clay Cafe", "phone": "+1-253-851-3277", "website": "http://javaclaycafe.com/"}}, {"type": "way", "id": 407873501, "nodes": [4099006318, 4099006319, 4099006320, 4099006321, 4099006318], "tags": {"amenity": "shelter", "building": "roof", "shelter_type": "picnic_shelter"}}, {"type": "way", "id": 407873502, "nodes": [4099006322, 4099006323, 4099006324, 4099006325, 4099006322], "tags": {"addr:city": "Gig Harbor", "addr:housenumber": "3207", "addr:postcode": "98335", "addr:state": "WA", "addr:street": "Harborview Drive", "alt_name": "Skansie Visitor & Interpretive Center", "building": "yes", "name": "Harbor WildWatch", "office": "association", "website": "https://harborwildwatch.org"}}, {"type": "way", "id": 408108788, "nodes": [4101208388, 4101208689, 4101208690, 4101208691, 12405809634, 4101208388], "tags": {"amenity": "toilets", "building": "yes", "toilets:disposal": "flush", "wheelchair": "yes"}}, {"type": "way", "id": 408110047, "nodes": [4101213348, 4101213349, 4101213350, 4101213351, 4101213348], "tags": {"amenity": "toilets", "building": "yes", "toilets:disposal": "flush"}}, {"type": "way", "id": 410181781, "nodes": [4120411539, 4120411540, 4120411541, 4120411542, 4120411543, 4120411544, 4120411545, 4120411546, 4120411547, 4120411548, 4120411549, 4120411550, 4120411551, 4120411552, 4120411553, 4120411554, 4120411539], "tags": {"addr:city": "Gig Harbor", "addr:housenumber": "8209", "addr:postcode": "98332", "addr:state": "WA", "addr:street": "Stinson Avenue", "amenity": "social_facility", "building": "yes", "name": "Gig Harbor Yacht Club"}}, {"type": "way", "id": 410184075, "nodes": [4120423993, 4120423994, 4120423995, 4120423996, 4120423997, 4120423993], "tags": {"addr:city": "Gig Harbor", "addr:housenumber": "3313", "addr:postcode": "98335", "addr:state": "WA", "addr:street": "Harborview Drive", "amenity": "restaurant", "building": "yes", "cuisine": "american", "name": "Netshed No. 9"}}, {"type": "way", "id": 414312173, "nodes": [4154772510, 4154772511, 4154772512, 4154772513, 4154772514, 4154772515, 4154772510], "tags": {"amenity": "parking"}}, {"type": "way", "id": 414312175, "nodes": [4154772527, 4154772528, 4154772529, 4154772530, 4154772527], "tags": {"amenity": "shelter"}}, {"type": "way", "id": 414312176, "nodes": [4154772531, 4154772532, 4154772533, 4154772534, 4154772531], "tags": {"amenity": "toilets", "building": "yes", "toilets:disposal": "flush"}}, {"type": "way", "id": 414312179, "nodes": [4154772545, 4154772546, 4154772547, 4154772548, 4154772545], "tags": {"amenity": "parking"}}, {"type": "way", "id": 414866737, "nodes": [4160075158, 4160075159, 4160075160, 4160075161, 4160075158], "tags": {"amenity": "parking", "name": "Wilkinson Farm Parking", "surface": "gravel"}}, {"type": "way", "id": 420324574, "nodes": [4202636420, 4202637889, 4202636421, 4202637893, 4202636422, 4202636423, 4202636424, 4202636425, 4202636420], "tags": {"addr:housenumber": "2905", "addr:state": "WA", "addr:street": "Harborview Drive", "amenity": "pub", "building": "yes", "name": "7 Seas Brewing Taproom"}}, {"type": "way", "id": 420324575, "nodes": [4202636426, 4202636427, 4202636428, 4202636429, 4202636430, 4202636431, 4202636432, 4202636433, 4202636434, 12406027531, 4202636435, 4202636436, 4202636437, 4202636438, 4202636426], "tags": {"building": "yes", "name": "Russel Investments", "office": "financial"}}, {"type": "way", "id": 420324577, "nodes": [4202636483, 9657075229, 4202636460, 4202636461, 4202636462, 4202636463, 4202636464, 4202636465, 4202636466, 4202636467, 4202636468, 4202636469, 4202636470, 4202636471, 4202636475, 4202636476, 4202636477, 4202636478, 4202636479, 4202636480, 4202636481, 4202636482, 4202636483], "tags": {"access": "yes", "amenity": "parking", "fee": "no"}}, {"type": "way", "id": 420324578, "nodes": [4202636485, 4202636486, 4202636487, 4202636488, 4202637889, 4202636420, 4202636425, 4202637890, 4202637891, 4202637892, 4202636485], "tags": {"amenity": "parking"}}, {"type": "way", "id": 456391122, "nodes": [4526552650, 4526552651, 4526552652, 4526552653, 4526552650], "tags": {"amenity": "parking"}}, {"type": "way", "id": 456391123, "nodes": [4526552654, 4526552655, 4526552656, 4526552657, 4526552654], "tags": {"amenity": "parking"}}, {"type": "way", "id": 635516720, "nodes": [5994748263, 5994748264, 5994748265, 5994748266, 5994748263], "tags": {"building": "yes", "name": "Williams Flower & Gift", "shop": "florist"}}, {"type": "way", "id": 702585903, "nodes": [6597931306, 6597931307, 6597931308, 6597931309, 6597931310, 6597931311, 6597931312, 6597931313, 6597931314, 6597931315, 6597931316, 6597931317, 6597931318, 6597931306], "tags": {"addr:city": "Gig Harbor", "addr:housenumber": "6711", "addr:postcode": "98335", "addr:state": "WA", "addr:street": "Kimball Drive", "amenity": "fire_station", "building": "yes", "website": "https://gigharborfire.org/"}}, {"type": "way", "id": 704988948, "nodes": [347203773, 356543854, 6621341899, 6621341898, 347203773], "tags": {"amenity": "school", "ele": "92", "gnis:feature_id": "1515486", "mascot": "Tides", "name": "Gig Harbor High School"}}, {"type": "way", "id": 704988949, "nodes": [6621341899, 356543853, 6621341900, 12675137930, 6621341901, 12675137934, 12675137933, 12675137931, 6621341899], "tags": {"amenity": "school", "ele": "95", "gnis:feature_id": "1515485", "name": "Discovery Elementary School"}}, {"type": "way", "id": 707444280, "nodes": [6647944655, 12960431407, 12960431408, 6647944656, 6647944657, 6647944658, 6647944659, 6647944660, 6647944661, 6647944662, 6647944663, 12960431406, 12960431405, 6647944664, 6647944665, 6647944666, 6647944655], "tags": {"addr:city": "Gig Harbor", "addr:housenumber": "7701", "addr:postcode": "98335", "addr:state": "WA", "addr:street": "Skansie Avenue", "amenity": "place_of_worship", "building": "yes", "denomination": "episcopal", "name": "St John Episcopal Church", "religion": "christian"}}, {"type": "way", "id": 709849971, "nodes": [6673197295, 6673197296, 6673197297, 6673197309, 6673197306, 6673197307, 6673197308, 6673197298, 6673197299, 6673197300, 6673197301, 6673197302, 6673197303, 6673197304, 6673197305, 6673197295], "tags": {"amenity": "place_of_worship", "building": "yes", "denomination": "nazarene", "name": "The Harbor Church of the Nazarene", "religion": "christian", "website": "https://www.gigharbornaz.org/"}}, {"type": "way", "id": 794246435, "nodes": [7428512318, 7428512319, 7428512320, 7428512321, 7428512322, 7428512323, 7428512324, 7428512325, 7428512318], "tags": {"addr:city": "Gig Harbor", "addr:housenumber": "3202", "addr:postcode": "98335", "addr:state": "WA", "addr:street": "Harborview Drive", "building": "yes", "name": "Prime Lending-Gig Harbor", "shop": "money_lender"}}, {"type": "way", "id": 794246436, "nodes": [7428512326, 7428512327, 7428512328, 7428512329, 7428512326], "tags": {"addr:city": "Gig Harbor", "addr:housenumber": "3117", "addr:postcode": "98335", "addr:state": "WA", "addr:street": "Harborview Drive", "amenity": "restaurant", "building": "yes", "name": "The Trolley @ the Boatyard"}}, {"type": "way", "id": 794574422, "nodes": [7431739950, 7431739957, 7431739958, 7431739959, 7431739950], "tags": {"addr:city": "Gig Harbor", "addr:housenumber": "3102", "addr:postcode": "98335", "addr:state": "WA", "addr:street": "Harborview Drive", "building": "yes", "name": "Gallery Row", "shop": "art", "website": "https://galleryrowgigharbor.com"}}, {"type": "way", "id": 794574424, "nodes": [7431739963, 7431739964, 7431739965, 7431739966, 7431739963], "tags": {"addr:city": "Gig Harbor", "addr:housenumber": "3028", "addr:postcode": "98335", "addr:state": "WA", "addr:street": "Harborview Drive", "building": "yes", "name": "Green Cottage Pets", "shop": "pet", "website": "https://greencottagepets.com"}}, {"type": "way", "id": 794574425, "nodes": [7431739957, 7431739967, 7431739968, 7431739969, 7431739958, 7431739957], "tags": {"addr:city": "Gig Harbor", "addr:housenumber": "3026", "addr:postcode": "98335", "addr:state": "WA", "addr:street": "Harborview Drive", "building": "yes", "name": "Tickled Pink", "shop": "gift"}}, {"type": "way", "id": 794576449, "nodes": [7431781519, 7431781520, 7431781521, 7431781522, 7431781523, 7431781524, 7431781525, 7431781526, 7431781527, 7431781528, 7431781519], "tags": {"addr:housenumber": "3155", "addr:state": "WA", "addr:street": "Harborview Drive", "amenity": "pub", "brand": "Gig Harbor Brewing", "building": "yes", "name": "Harbor Taproom", "website": "https://gigharborbrewing.com"}}, {"type": "way", "id": 794576451, "nodes": [7431781531, 7431781532, 7431781533, 7431781534, 7431781531], "tags": {"addr:housenumber": "3133", "addr:state": "WA", "addr:street": "Harborview Drive", "building": "yes", "name": "Dolly Mama Too", "shop": "gift"}}, {"type": "way", "id": 794634397, "nodes": [7432375017, 7432375018, 7432375019, 7432375020, 7432375021, 7432375022, 7432375023, 7432375024, 7432375025, 7432375026, 7432375017], "tags": {"addr:city": "Gig Harbor", "addr:housenumber": "3226", "addr:postcode": "98335", "addr:state": "WA", "addr:street": "Rosedale Street", "building": "yes", "name": "Conestoga Wealth Partners LLC", "office": "financial_advisor"}}, {"type": "way", "id": 794634398, "nodes": [7432375027, 7432375028, 7432375029, 7432375030, 7432375031, 7432375032, 7432375033, 7432375034, 7432375035, 7432375036, 7432375037, 7432375038, 7432375027], "tags": {"addr:city": "Gig Harbor", "addr:housenumber": "3220", "addr:postcode": "98335", "addr:state": "WA", "addr:street": "Rosedale Street", "building": "yes", "name": "Fortis Management Group LLC", "office": "consulting"}}, {"type": "way", "id": 795076119, "nodes": [7436275593, 7436275594, 7436275595, 7436275596, 7436275593], "tags": {"addr:housenumber": "3311", "addr:state": "WA", "addr:street": "Harborview Drive", "building": "yes", "name": "Bellas Kitchen & Home", "shop": "gift"}}, {"type": "way", "id": 795076120, "nodes": [7436275597, 7436275598, 7436275599, 7436275600, 7436275601, 7436275602, 7436275597], "tags": {"addr:city": "Gig Harbor", "addr:housenumber": "3315", "addr:postcode": "98335", "addr:state": "WA", "addr:street": "Harborview Drive", "amenity": "restaurant", "building": "yes", "name": "Brix 25"}}, {"type": "way", "id": 795076123, "nodes": [7436275615, 7436275616, 7436275617, 7436275618, 7436275615], "tags": {"addr:city": "Gig Harbor", "addr:housenumber": "3302", "addr:postcode": "98335", "addr:state": "WA", "addr:street": "Harborview Drive", "building": "retail", "name": "Sea Hags Fine Art, Gifts & Costal Decor", "shop": "gift"}}, {"type": "way", "id": 795078729, "nodes": [7436276082, 7436276083, 7436276084, 7436294985, 7436294986, 7436294987, 7436294988, 7436294989, 7436294990, 7436294991, 7436294992, 7436294993, 7436294994, 7436294995, 7436294996, 7436294997, 7436294998, 7436294999, 7436295000, 7436295001, 7436295008, 7436295009, 7436295002, 7436295003, 7436295004, 7436295010, 7436295005, 7436295007, 7436295006, 7436276082], "tags": {"addr:city": "Gig Harbor", "addr:housenumber": "3312", "addr:postcode": "98335", "addr:state": "WA", "addr:street": "Rosedale Street", "building": "yes", "name": "Legacy Lending", "shop": "money_lender"}}, {"type": "way", "id": 795079286, "nodes": [7436198636, 7436198637, 7436198638, 7436198639, 7436198640, 7436198636], "tags": {"addr:city": "Gig Harbor", "addr:housenumber": "7713", "addr:postcode": "98335", "addr:state": "WA", "addr:street": "Pioneer Way", "building": "yes", "name": "Ratcliffe Gagliano Architecture", "office": "architect"}}, {"type": "way", "id": 795079287, "nodes": [7436198638, 7436198639, 7436198640, 7436198641, 7436198642, 7436198643, 7436198644, 7436198645, 7436198646, 7436198647, 7436198638], "tags": {"addr:city": "Gig Harbor", "addr:housenumber": "7715", "addr:postcode": "98335", "addr:state": "WA", "addr:street": "Pioneer Way", "amenity": "dentist", "building": "yes", "healthcare": "dentist", "name": "Richard Coyner DDS. Family Dentistry"}}, {"type": "way", "id": 802069293, "nodes": [7502317407, 7502317408, 7502317409, 7502317410, 7502317411, 7502317412, 7502317413, 7502317414, 7502317415, 7502317416, 7502317417, 7502317418, 7502317419, 7502317420, 7502317421, 7502317422, 7502317423, 7502317424, 7502317425, 7502317426, 7502317427, 7502317428, 7502317429, 7502317430, 7502317431, 7502317432, 7502317433, 7502317434, 6450864177, 7502317436, 7502317437, 7502317438, 7502317407], "tags": {"addr:city": "Gig Harbor", "addr:housenumber": "3510", "addr:postcode": "98335", "addr:state": "WA", "addr:street": "Grandview Street", "amenity": "townhall", "building": "yes", "name": "Gig Harbor City Hall", "operator": "City of Gig Harbor", "townhall:type": "city", "website": "https://www.cityofgigharbor.net/"}}, {"type": "way", "id": 842183379, "nodes": [5424447541, 7856961694, 7856961695, 7856961696, 7856961697, 7856961698, 7856961699, 5424425219, 5424447533, 5424447534, 5424447600, 5424447554, 5424447573, 5424447574, 5424447589, 7856961700, 7856961701, 7856961702, 7856961703, 5424447582, 5424447602, 5424447581, 5424447563, 5424447562, 5424447601, 5424447542, 5424447543, 5424447544, 5424447545, 5424447546, 5424447540, 5424447526, 5424447541], "tags": {"access": "customers", "amenity": "parking", "fee": "no", "operator": "Chapel Hill Church", "operator:type": "religious", "parking": "surface", "surface": "asphalt"}}, {"type": "way", "id": 842183380, "nodes": [5424447605, 7856961704, 7856961705, 7856961706, 7856961707, 7856961708, 7856961709, 7856939879, 7856939880, 7856961710, 7856961711, 7856961712, 7856961687, 7856961688, 7856961713, 7856961714, 5424447605], "tags": {"access": "customers", "amenity": "parking", "fee": "no", "operator": "Chapel Hill Church", "operator:type": "religious", "parking": "surface", "surface": "asphalt"}}, {"type": "way", "id": 842183381, "nodes": [7856961715, 7856961716, 5424447598, 7856961717, 7856961718, 7856961719, 7856961715], "tags": {"amenity": "parking"}}, {"type": "way", "id": 842445121, "nodes": [1266037363, 7859176447, 1266037389, 1266037357, 7859176450, 1266037363], "tags": {"amenity": "parking", "operator": "Harbor Ridge Middle School", "operator:type": "school", "parking": "surface"}}, {"type": "way", "id": 842445122, "nodes": [7859192587, 7859192588, 7859192589, 7859192590, 7859192587], "tags": {"amenity": "parking", "operator": "Harbor Ridge Middle School", "operator:type": "school", "parking": "surface"}}, {"type": "way", "id": 842445123, "nodes": [7859192591, 7859192592, 7859192593, 7859192594, 7859192595, 7859192596, 1266037348, 7859192597, 7859192591], "tags": {"amenity": "parking", "operator": "Harbor Ridge Middle School", "operator:type": "school", "parking": "surface"}}, {"type": "way", "id": 843979956, "nodes": [7872913183, 7872913182, 7872913181, 7872913180, 7872913183], "tags": {"amenity": "parking", "parking": "surface", "surface": "asphalt"}}, {"type": "way", "id": 1050875903, "nodes": [9657075223, 9657075222, 9657075230, 9657075225, 9657075223], "tags": {"access": "yes", "amenity": "toilets", "building": "yes"}}, {"type": "way", "id": 1050875904, "nodes": [9657075224, 4202636484, 4202636444, 4202636443, 4202636442, 4202636441, 4202636455, 4202636456, 4202636457, 4202636458, 9657075224], "tags": {"amenity": "parking"}}, {"type": "way", "id": 1277656162, "nodes": [11860718216, 11860718217, 11860718218, 11860718219, 11860718220, 11860718221, 11860718222, 11860729699, 11860729701, 11860718223, 11860718224, 11860718225, 11860718226, 11860718227, 5475622291, 11860718228, 11860718229, 11860718230, 11860718231, 11860718232, 11860718216], "tags": {"amenity": "parking"}}, {"type": "way", "id": 1277871877, "nodes": [11862700324, 11862700327, 11862700328, 11862700329, 11862700330, 11862700331, 11862700332, 11862700333, 11862700334, 11862700335, 11862700336, 11862700337, 11862700338, 11862700339, 11862700340, 11862700341, 11862700342, 11862700343, 11862700344, 11862700345, 11862700346, 11862700347, 11862700349, 11862700350, 11862700351, 11862700352, 11862700353, 11862700354, 11862700355, 11862700356, 11862700357, 11862700365, 11862700364, 11862700363, 11862700362, 11862700361, 11862700360, 11862700359, 11862700358, 11862700325, 11862700324], "tags": {"addr:city": "Gig Harbor", "addr:housenumber": "9601", "addr:postcode": "98332", "addr:state": "WA", "addr:street": "Bujacich Road", "amenity": "prison", "name": "Washington Corrections Center for Women", "operator": "Washington State Department of Corrections", "operator:type": "government", "operator:wikidata": "Q861435", "phone": "+1-253-858-4200", "website": "https://www.doc.wa.gov/"}}, {"type": "way", "id": 1277880777, "nodes": [11862778496, 11862778497, 11862778498, 11862778499, 11862778500, 11862778501, 11862778502, 11862778473, 11862778472, 11862778471, 11862778470, 11862778503, 8313750733, 11862778504, 11862778505, 11862694167, 11862694168, 11862778506, 11862778492, 11862778507, 11862778517, 11862778508, 11862778496], "tags": {"amenity": "parking"}}, {"type": "way", "id": 1277909265, "nodes": [11863077672, 11863077711, 11863077684, 11863077747, 11863077685, 11863077686, 11863077687, 11863077688, 11863077705, 11863077689, 11863077670, 11863077669, 11863047068, 11863077683, 11863077682, 11863077681, 11863077680, 11863077679, 11863077678, 11863077677, 11863077676, 11863077675, 11863077674, 11863077673, 11863077672], "tags": {"amenity": "parking"}}, {"type": "way", "id": 1277909269, "nodes": [11863077730, 11863077744, 11863077731, 11863077732, 11863077745, 11863077733, 11863077717, 11863077718, 11863077719, 11863077720, 11863077721, 11863077722, 11863077723, 11863077724, 11863077725, 11863077726, 11863077727, 11863077728, 11863077730], "tags": {"amenity": "parking"}}, {"type": "way", "id": 1277909270, "nodes": [11863077734, 11863077735, 11863077736, 11863077737, 11863077743, 11863077738, 11863077714, 11863077729, 11863077739, 11863077742, 11863077740, 11863077741, 11863077734], "tags": {"amenity": "parking"}}, {"type": "way", "id": 1277909282, "nodes": [11863077776, 11863077821, 11863077777, 11863077778, 11863077779, 11863077780, 11863077781, 11863077782, 11863077822, 11863077783, 11863077775, 11863077774, 11863077773, 11863077772, 11863077776], "tags": {"amenity": "parking"}}, {"type": "way", "id": 1277909288, "nodes": [11863077755, 11863077839, 11863077849, 11863077840, 11863077841, 11863077842, 11863077843, 11863077844, 11863077845, 11863077846, 11863077832, 11863077847, 11863077759, 11863077754, 11863077755], "tags": {"amenity": "parking"}}, {"type": "way", "id": 1277915483, "nodes": [11863116895, 11863116900, 11863116896, 11863116897, 11863116899, 11863116898, 11863077767, 11863077766, 11863077765, 11863077764, 11863116895], "tags": {"amenity": "parking"}}, {"type": "way", "id": 1312390859, "nodes": [12147485232, 12147485231, 12147485230, 12147485229, 356543858, 12147485228, 12147485227, 12147485226, 12147485232], "tags": {"addr:city": "Gig Harbor", "addr:housenumber": "9010", "addr:postcode": "98332", "addr:state": "WA", "addr:street": "Prentice Avenue", "amenity": "school", "grades": "6-8", "mascot": "Falcons", "name": "Harbor Ridge Middle School", "website": "https://hrm.psd401.net/"}}, {"type": "way", "id": 1341157979, "nodes": [12406018882, 12406018883, 12406018884, 12406018885, 12406018886, 12406018887, 12406018882], "tags": {"access": "permit", "amenity": "parking", "parking": "surface"}}, {"type": "way", "id": 1341157984, "nodes": [12405809656, 12406027513, 12406027514, 12406027515, 12406027516, 12406027517, 12406027518, 12406027519, 12405809656], "tags": {"amenity": "fountain"}}, {"type": "way", "id": 1341157985, "nodes": [12406027520, 12406027521, 12406027522, 12406027523, 12406027524, 12406027525, 12406027526, 12406027527, 12406027528, 12406027529, 12406027530, 4202636434, 12406027531, 12406027532, 12406027533, 12406027534, 12406027535, 12406027536, 12406027520], "tags": {"amenity": "fountain"}}, {"type": "way", "id": 1368581093, "nodes": [12675129336, 12675129337, 12675129338, 12675129339, 12675129340, 12675129341, 12675129342, 12675129343, 12675129344, 12675129345, 12675129347, 12675129346, 12675129336], "tags": {"amenity": "parking", "parking": "surface"}}, {"type": "way", "id": 1368581094, "nodes": [12675129348, 12675129349, 12675129350, 12675129351, 12675129352, 12675129353, 12675129354, 12675129355, 12675129356, 12675129357, 12675129348], "tags": {"amenity": "parking", "parking": "surface"}}, {"type": "way", "id": 1368581095, "nodes": [12675129358, 12675129359, 12675129360, 12675129361, 12675129362, 12675129363, 12675129364, 12675129365, 12675129358], "tags": {"amenity": "parking"}}, {"type": "way", "id": 1368581096, "nodes": [12675129369, 12675129370, 12675129371, 12675129372, 12675129373, 12675129374, 12675129375, 12675129376, 12675129369], "tags": {"amenity": "parking"}}, {"type": "way", "id": 1368581103, "nodes": [12675137933, 12675137919, 6621341901, 12675137934, 12675137933], "tags": {"amenity": "school", "ele": "92", "gnis:feature_id": "1515487", "name": "Henderson Bay Alternative High School"}}, {"type": "way", "id": 1383270973, "nodes": [12806250234, 12806250235, 12806250236, 12806250237, 12806250238, 12806250239, 12806250240, 12806250241, 12806250242, 12806250243, 12806250234], "tags": {"amenity": "place_of_worship", "building": "church", "denomination": "latter_day_saints", "name": "The Church of Jesus Christ of Latter-day Saints", "religion": "christian"}}, {"type": "way", "id": 1389698315, "nodes": [12863798551, 12863798552, 12863798553, 12863798554, 12863798555, 12863798556, 12863834157, 12863798557, 12863798558, 12863798551], "tags": {"amenity": "childcare", "building": "yes"}}, {"type": "way", "id": 1389698317, "nodes": [9083307121, 12863798568, 12863798569, 12863798570, 12863798571, 12863798572, 9083307121], "tags": {"after_school": "yes", "alt_name": "KinderCare Learning Center", "amenity": "kindergarten", "brand": "KinderCare", "brand:wikidata": "Q6410551", "fee": "yes", "isced:level": "0", "name": "KinderCare", "nursery": "yes", "preschool": "yes"}}, {"type": "way", "id": 1389698324, "nodes": [12863834127, 12863834128, 12863834129, 12863834130, 12863834131, 12863834132, 12863834133, 12863834134, 12863834127], "tags": {"access": "customers", "amenity": "parking", "parking": "surface"}}, {"type": "way", "id": 1389698325, "nodes": [12863834135, 12863834136, 12863834137, 12863834138, 12863834135], "tags": {"access": "customers", "amenity": "parking", "parking": "surface"}}, {"type": "way", "id": 1392155629, "nodes": [12887024295, 12887024296, 12887024297, 12887024298, 12887024299, 12887024300, 12887024295], "tags": {"amenity": "parking"}}, {"type": "way", "id": 1392739027, "nodes": [6621341910, 12892524454, 12892524455, 12892524456, 12892524457, 12892524458, 12892524459, 12892524460, 6621341910], "tags": {"addr:city": "Gig Harbor", "addr:housenumber": "8809", "addr:postcode": "98332", "addr:state": "WA", "addr:street": "WA-16", "layer": "1", "name": "Highway 16 Mini Storage", "phone": "+1-253-851-3166", "shop": "storage_rental", "website": "https://highway16storage.com/"}}, {"type": "way", "id": 1410474278, "nodes": [6450864175, 12960432122, 12960432121, 12960432120, 6450864175], "tags": {"addr:city": "Gig Harbor", "addr:housenumber": "7109", "addr:postcode": "98335", "addr:state": "WA", "addr:street": "Pioneer Way", "amenity": "bank", "atm": "yes", "branch": "Gig Harbor", "building": "yes", "drive_through": "yes", "name": "TAPCO Credit Union", "phone": "+1-253-565-9895", "source": "microsoft/BuildingFootprints", "website": "https://www.tapcocu.org/"}}, {"type": "way", "id": 1410474305, "nodes": [12960432295, 9666151179, 12960432294, 12960432293, 12960432295], "tags": {"addr:housenumber": "3019", "addr:street": "Judson Street", "building": "yes", "name": "Gig Harbor Audio", "shop": "hifi", "source": "microsoft/BuildingFootprints"}}, {"type": "way", "id": 1410474776, "nodes": [12960435500, 12960435499, 12960435498, 12960435497, 12960435496, 9421010009, 12960435495, 12960435494, 12960435493, 12960435492, 12960435491, 12960435490, 12960435489, 12960435488, 12960435487, 12960435486, 12960435485, 12960435484, 12960435483, 12960435482, 12960435481, 12960435480, 12960435500], "tags": {"addr:city": "Gig Harbor", "addr:housenumber": "7400", "addr:postcode": "98335", "addr:state": "WA", "addr:street": "Pioneer Way", "amenity": "place_of_worship", "building": "yes", "denomination": "methodist", "name": "Gig Harbor United Methodist Church", "religion": "christian", "service_times": "Sundays 9:00am and 11:00am", "source": "microsoft/BuildingFootprints"}}, {"type": "way", "id": 1415879931, "nodes": [13011648668, 13011648669, 13011648670, 13011648671, 13011648672, 13011648673, 13011648674, 13011648668], "tags": {"amenity": "parking"}}, {"type": "way", "id": 1421436290, "nodes": [13062504406, 13062504407, 12960435803, 13062504408, 13062504409, 12960435343, 12960435344, 12960435345, 12960435346, 12960435347, 12960435348, 12960435349, 12960435350, 12960435351, 12960435352, 13062504410, 13062504406], "tags": {"amenity": "parking", "parking": "surface"}}, {"type": "way", "id": 1421436291, "nodes": [13062504411, 12960432109, 12960432110, 12960432111, 12960432112, 12960432113, 12960432114, 12960432115, 12960432116, 13062504412, 13062504411], "tags": {"amenity": "parking", "parking": "surface"}}]}