{"version": 0.6, "generator": "Overpass API 0.7.62.8 e802775f", "osm3s": {"timestamp_osm_base": "2025-11-30T00:49:28Z", "copyright": "The data included in this document is from www.openstreetmap.org. The data is made available under ODbL."}, "elements": [{"type": "node", "id": 1138951462, "lat": 34.3915965, "lon": -92.8277358}, {"type": "node", "id": 1138951488, "lat": 34.391696, "lon": -92.8281662}, {"type": "node", "id": 1138951517, "lat": 34.3914083, "lon": -92.8277284}, {"type": "node", "id": 1138951530, "lat": 34.3916092, "lon": -92.828246}, {"type": "node", "id": 1138951552, "lat": 34.3919038, "lon": -92.8277572}, {"type": "node", "id": 1138951568, "lat": 34.3916111, "lon": -92.8281766}, {"type": "node", "id": 1138951569, "lat": 34.3924889, "lon": -92.8315268}, {"type": "node", "id": 1138951604, "lat": 34.3916938, "lon": -92.8282493}, {"type": "node", "id": 1138951622, "lat": 34.3917163, "lon": -92.8279734}, {"type": "node", "id": 1138951625, "lat": 34.3915903, "lon": -92.8279684}, {"type": "node", "id": 1138951627, "lat": 34.3913966, "lon": -92.8281682}, {"type": "node", "id": 1138951632, "lat": 34.3918926, "lon": -92.8281739}, {"type": "node", "id": 1138951649, "lat": 34.3917223, "lon": -92.8277501}, {"type": "node", "id": 1138960988, "lat": 34.384923, "lon": -92.827586}, {"type": "node", "id": 1138969524, "lat": 34.3848593, "lon": -92.8302615}, {"type": "node", "id": 1138969546, "lat": 34.3844631, "lon": -92.8301945}, {"type": "node", "id": 1138969548, "lat": 34.3845605, "lon": -92.8309562}, {"type": "node", "id": 1138969552, "lat": 34.3845649, "lon": -92.8309911}, {"type": "node", "id": 1138969566, "lat": 34.3849323, "lon": -92.8309482}, {"type": "node", "id": 1138969577, "lat": 34.3828007, "lon": -92.8302803}, {"type": "node", "id": 1138969578, "lat": 34.3849687, "lon": -92.8320276}, {"type": "node", "id": 1138969597, "lat": 34.3842616, "lon": -92.8302025}, {"type": "node", "id": 1138969606, "lat": 34.3825594, "lon": -92.8298163}, {"type": "node", "id": 1138969608, "lat": 34.384687, "lon": -92.8323692}, {"type": "node", "id": 1138969627, "lat": 34.3828937, "lon": -92.8307711}, {"type": "node", "id": 1138969630, "lat": 34.3849723, "lon": -92.8313718}, {"type": "node", "id": 1138969632, "lat": 34.3842616, "lon": -92.8302749}, {"type": "node", "id": 1138969641, "lat": 34.3836994, "lon": -92.8306773}, {"type": "node", "id": 1138969643, "lat": 34.3826679, "lon": -92.8302347}, {"type": "node", "id": 1138969645, "lat": 34.3846357, "lon": -92.8310823}, {"type": "node", "id": 1138969656, "lat": 34.3824952, "lon": -92.8290599}, {"type": "node", "id": 1138969664, "lat": 34.3827985, "lon": -92.830224}, {"type": "node", "id": 1138969667, "lat": 34.3846291, "lon": -92.8309884}, {"type": "node", "id": 1138969670, "lat": 34.3825284, "lon": -92.8294971}, {"type": "node", "id": 1138969674, "lat": 34.382628, "lon": -92.8304144}, {"type": "node", "id": 1138969676, "lat": 34.3834404, "lon": -92.8306826}, {"type": "node", "id": 1138969680, "lat": 34.3849693, "lon": -92.8323635}, {"type": "node", "id": 1138969695, "lat": 34.3827276, "lon": -92.8307685}, {"type": "node", "id": 1138969698, "lat": 34.382721, "lon": -92.8304225}, {"type": "node", "id": 1138969699, "lat": 34.3839562, "lon": -92.8309643}, {"type": "node", "id": 1138969704, "lat": 34.3830619, "lon": -92.8302159}, {"type": "node", "id": 1138969705, "lat": 34.3844631, "lon": -92.8302615}, {"type": "node", "id": 1138969707, "lat": 34.3831526, "lon": -92.8308275}, {"type": "node", "id": 1138969711, "lat": 34.3834271, "lon": -92.8305351}, {"type": "node", "id": 1138969713, "lat": 34.3831549, "lon": -92.8305432}, {"type": "node", "id": 1138969715, "lat": 34.3848637, "lon": -92.8306665}, {"type": "node", "id": 1138969739, "lat": 34.3846823, "lon": -92.8313695}, {"type": "node", "id": 1138969740, "lat": 34.3826192, "lon": -92.8302293}, {"type": "node", "id": 1138969741, "lat": 34.383954, "lon": -92.8309294}, {"type": "node", "id": 1138969759, "lat": 34.3825306, "lon": -92.8298163}, {"type": "node", "id": 1138969761, "lat": 34.3827188, "lon": -92.830232}, {"type": "node", "id": 1138969765, "lat": 34.3849663, "lon": -92.8321463}, {"type": "node", "id": 1138969767, "lat": 34.3846787, "lon": -92.8320253}, {"type": "node", "id": 1138969773, "lat": 34.3827144, "lon": -92.8302803}, {"type": "node", "id": 1138969787, "lat": 34.3847689, "lon": -92.8302615}, {"type": "node", "id": 1138969789, "lat": 34.3848372, "lon": -92.8310823}, {"type": "node", "id": 1138969793, "lat": 34.3830685, "lon": -92.8302937}, {"type": "node", "id": 1138969795, "lat": 34.3824908, "lon": -92.8294971}, {"type": "node", "id": 1138969796, "lat": 34.3826634, "lon": -92.8290599}, {"type": "node", "id": 1138969799, "lat": 34.383706, "lon": -92.8309321}, {"type": "node", "id": 1138969802, "lat": 34.3848305, "lon": -92.8309562}, {"type": "node", "id": 1138969818, "lat": 34.384684, "lon": -92.832152}, {"type": "node", "id": 1138969824, "lat": 34.3825616, "lon": -92.8302267}, {"type": "node", "id": 1138969827, "lat": 34.384939, "lon": -92.8306665}, {"type": "node", "id": 1138969831, "lat": 34.3828959, "lon": -92.8308328}, {"type": "node", "id": 4789869035, "lat": 34.3924695, "lon": -92.8329234}, {"type": "node", "id": 4789869036, "lat": 34.3929144, "lon": -92.8332962}, {"type": "node", "id": 4789869037, "lat": 34.3928111, "lon": -92.8334772}, {"type": "node", "id": 4789869038, "lat": 34.3923662, "lon": -92.8331043}, {"type": "node", "id": 7824349742, "lat": 34.3847921, "lon": -92.8275857}, {"type": "node", "id": 7824349743, "lat": 34.3847924, "lon": -92.8272753}, {"type": "node", "id": 7824349744, "lat": 34.3849234, "lon": -92.8272755}, {"type": "node", "id": 8826283370, "lat": 34.3924311, "lon": -92.8321751}, {"type": "node", "id": 8826283371, "lat": 34.3923179, "lon": -92.8322679}, {"type": "node", "id": 8826283372, "lat": 34.3922639, "lon": -92.8321712}, {"type": "node", "id": 8826283373, "lat": 34.392377, "lon": -92.8320784}, {"type": "node", "id": 8826283374, "lat": 34.3913718, "lon": -92.8334165}, {"type": "node", "id": 8826283375, "lat": 34.391229, "lon": -92.833416}, {"type": "node", "id": 8826283376, "lat": 34.3912294, "lon": -92.8332287}, {"type": "node", "id": 8826283377, "lat": 34.3901809, "lon": -92.8332252}, {"type": "node", "id": 8826283378, "lat": 34.3901813, "lon": -92.8330579}, {"type": "node", "id": 8826283379, "lat": 34.3900871, "lon": -92.8330576}, {"type": "node", "id": 8826283380, "lat": 34.3900872, "lon": -92.8330158}, {"type": "node", "id": 8826283381, "lat": 34.3899044, "lon": -92.8330153}, {"type": "node", "id": 8826283382, "lat": 34.3899047, "lon": -92.8328271}, {"type": "node", "id": 8826283383, "lat": 34.3901699, "lon": -92.8328277}, {"type": "node", "id": 8826283384, "lat": 34.3901703, "lon": -92.8325065}, {"type": "node", "id": 8826283385, "lat": 34.389964, "lon": -92.8325061}, {"type": "node", "id": 8826283386, "lat": 34.3899643, "lon": -92.8322843}, {"type": "node", "id": 8826283387, "lat": 34.390184, "lon": -92.8322847}, {"type": "node", "id": 8826283388, "lat": 34.3901841, "lon": -92.83221}, {"type": "node", "id": 8826283389, "lat": 34.390382, "lon": -92.8322104}, {"type": "node", "id": 8826283390, "lat": 34.3903821, "lon": -92.8321073}, {"type": "node", "id": 8826283391, "lat": 34.3904892, "lon": -92.8321075}, {"type": "node", "id": 8826283392, "lat": 34.3904893, "lon": -92.8320724}, {"type": "node", "id": 8826283393, "lat": 34.3905755, "lon": -92.8320726}, {"type": "node", "id": 8826283394, "lat": 34.3905755, "lon": -92.8321056}, {"type": "node", "id": 8826283395, "lat": 34.3910123, "lon": -92.8321067}, {"type": "node", "id": 8826283396, "lat": 34.3910124, "lon": -92.8320713}, {"type": "node", "id": 8826283397, "lat": 34.391093, "lon": -92.8320716}, {"type": "node", "id": 8826283398, "lat": 34.391093, "lon": -92.832098}, {"type": "node", "id": 8826283399, "lat": 34.3912267, "lon": -92.8320984}, {"type": "node", "id": 8826283400, "lat": 34.3912264, "lon": -92.8322306}, {"type": "node", "id": 8826283401, "lat": 34.3913746, "lon": -92.8322312}, {"type": "node", "id": 8826283402, "lat": 34.390842, "lon": -92.8302988}, {"type": "node", "id": 8826283403, "lat": 34.3907645, "lon": -92.8302978}, {"type": "node", "id": 8826283404, "lat": 34.3907678, "lon": -92.8299253}, {"type": "node", "id": 8826283405, "lat": 34.3908453, "lon": -92.8299263}, {"type": "node", "id": 8826283406, "lat": 34.3915812, "lon": -92.8302148}, {"type": "node", "id": 8826283407, "lat": 34.3914069, "lon": -92.8302155}, {"type": "node", "id": 8826283408, "lat": 34.3914065, "lon": -92.8300641}, {"type": "node", "id": 8826283409, "lat": 34.3915808, "lon": -92.8300634}, {"type": "node", "id": 8826283410, "lat": 34.392026, "lon": -92.8295657}, {"type": "node", "id": 8826283411, "lat": 34.3919794, "lon": -92.8295655}, {"type": "node", "id": 8826283412, "lat": 34.3919793, "lon": -92.8296126}, {"type": "node", "id": 8826283413, "lat": 34.3918892, "lon": -92.8296122}, {"type": "node", "id": 8826283414, "lat": 34.3918898, "lon": -92.8294007}, {"type": "node", "id": 8826283415, "lat": 34.3920265, "lon": -92.8294013}, {"type": "node", "id": 8826283416, "lat": 34.3926436, "lon": -92.829853}, {"type": "node", "id": 8826290317, "lat": 34.3924825, "lon": -92.8298486}, {"type": "node", "id": 8826290318, "lat": 34.3924877, "lon": -92.8295717}, {"type": "node", "id": 8826290319, "lat": 34.3926487, "lon": -92.8295761}, {"type": "node", "id": 8826290320, "lat": 34.391631, "lon": -92.8296749}, {"type": "node", "id": 8826290321, "lat": 34.391359, "lon": -92.8296729}, {"type": "node", "id": 8826290322, "lat": 34.3913602, "lon": -92.8294529}, {"type": "node", "id": 8826290323, "lat": 34.3916321, "lon": -92.829455}, {"type": "node", "id": 8826290328, "lat": 34.3907571, "lon": -92.829385}, {"type": "node", "id": 8826290329, "lat": 34.3904671, "lon": -92.8293786}, {"type": "node", "id": 8826290330, "lat": 34.390468, "lon": -92.8293172}, {"type": "node", "id": 8826290331, "lat": 34.3905085, "lon": -92.8293181}, {"type": "node", "id": 8826290332, "lat": 34.3905093, "lon": -92.8292653}, {"type": "node", "id": 8826290333, "lat": 34.3905766, "lon": -92.8292669}, {"type": "node", "id": 8826290334, "lat": 34.390577, "lon": -92.8292397}, {"type": "node", "id": 8826290335, "lat": 34.3906363, "lon": -92.8292411}, {"type": "node", "id": 8826290336, "lat": 34.3906356, "lon": -92.8292916}, {"type": "node", "id": 8826290337, "lat": 34.3907585, "lon": -92.8292943}, {"type": "node", "id": 8826290338, "lat": 34.3903469, "lon": -92.8377773}, {"type": "node", "id": 8826290339, "lat": 34.3900315, "lon": -92.8374826}, {"type": "node", "id": 8826290340, "lat": 34.3903305, "lon": -92.8370128}, {"type": "node", "id": 8826290341, "lat": 34.3901627, "lon": -92.836856}, {"type": "node", "id": 8826290342, "lat": 34.3901443, "lon": -92.8368849}, {"type": "node", "id": 8826290343, "lat": 34.3900002, "lon": -92.8367501}, {"type": "node", "id": 8826290344, "lat": 34.3902966, "lon": -92.8362844}, {"type": "node", "id": 8826290345, "lat": 34.3904424, "lon": -92.8364207}, {"type": "node", "id": 8826290346, "lat": 34.3904585, "lon": -92.8363954}, {"type": "node", "id": 8826290347, "lat": 34.39094, "lon": -92.8368453}, {"type": "node", "id": 8952543983, "lat": 34.3933146, "lon": -92.8305358}, {"type": "node", "id": 8952543984, "lat": 34.3931063, "lon": -92.8303809}, {"type": "node", "id": 8952543985, "lat": 34.3929125, "lon": -92.8307634}, {"type": "node", "id": 8952543986, "lat": 34.3928858, "lon": -92.8307435}, {"type": "node", "id": 8952543987, "lat": 34.392724, "lon": -92.8317017}, {"type": "node", "id": 9252419442, "lat": 34.3861815, "lon": -92.8290225}, {"type": "node", "id": 9252419443, "lat": 34.3861953, "lon": -92.8288647}, {"type": "node", "id": 9252419444, "lat": 34.3861697, "lon": -92.8288613}, {"type": "node", "id": 9252419445, "lat": 34.3861805, "lon": -92.8287381}, {"type": "node", "id": 9252419446, "lat": 34.3863059, "lon": -92.8287543}, {"type": "node", "id": 9252419447, "lat": 34.3863038, "lon": -92.8287782}, {"type": "node", "id": 9252419448, "lat": 34.3863312, "lon": -92.8287817}, {"type": "node", "id": 9252419449, "lat": 34.3863246, "lon": -92.8288569}, {"type": "node", "id": 9252419450, "lat": 34.3863017, "lon": -92.8288539}, {"type": "node", "id": 9252419451, "lat": 34.3862857, "lon": -92.8290359}, {"type": "node", "id": 11143182150, "lat": 34.3885149, "lon": -92.8292926}, {"type": "node", "id": 11143182151, "lat": 34.3884106, "lon": -92.8292954}, {"type": "node", "id": 11143182152, "lat": 34.3884168, "lon": -92.8296327}, {"type": "node", "id": 11143182153, "lat": 34.3885211, "lon": -92.8296298}, {"type": "node", "id": 12239747291, "lat": 34.3929055, "lon": -92.8200441}, {"type": "node", "id": 12239747292, "lat": 34.3929014, "lon": -92.8198498}, {"type": "node", "id": 12239747293, "lat": 34.392677, "lon": -92.8198563}, {"type": "node", "id": 12239747294, "lat": 34.3926783, "lon": -92.8200474}, {"type": "way", "id": 98436780, "nodes": [1138951632, 1138951552, 1138951649, 1138951622, 1138951625, 1138951462, 1138951517, 1138951627, 1138951568, 1138951530, 1138951604, 1138951488, 1138951632], "tags": {"addr:city": "Rockport", "addr:housenumber": "1656", "addr:postcode": "72104", "addr:state": "AR", "addr:street": "Industrial Road", "brand": "Americas Best Value Inn", "brand:wikidata": "Q4742512", "building": "yes", "name": "Americas Best Value Inn Malvern", "tourism": "motel"}}, {"type": "way", "id": 98438210, "nodes": [1138969578, 1138969630, 1138969739, 1138969767, 1138969578], "tags": {"building": "yes"}}, {"type": "way", "id": 98438215, "nodes": [1138969680, 1138969765, 1138969818, 1138969608, 1138969680], "tags": {"building": "yes"}}, {"type": "way", "id": 98438217, "nodes": [1138969566, 1138969827, 1138969715, 1138969524, 1138969787, 1138969705, 1138969546, 1138969597, 1138969632, 1138969793, 1138969704, 1138969664, 1138969577, 1138969773, 1138969761, 1138969643, 1138969796, 1138969656, 1138969795, 1138969670, 1138969759, 1138969606, 1138969824, 1138969740, 1138969674, 1138969698, 1138969695, 1138969627, 1138969831, 1138969707, 1138969713, 1138969711, 1138969676, 1138969641, 1138969799, 1138969741, 1138969699, 1138969548, 1138969552, 1138969667, 1138969645, 1138969789, 1138969802, 1138969566], "tags": {"building": "yes"}}, {"type": "way", "id": 486363483, "nodes": [4789869038, 4789869037, 4789869036, 4789869035, 4789869038], "tags": {"addr:city": "Malvern", "addr:housenumber": "2660", "addr:postcode": "72104", "addr:state": "AR", "addr:street": "River Creek Road", "brand": "Holiday Inn Express & Suites", "brand:wikidata": "Q5880423", "building": "hotel", "building:levels": "3", "name": "Holiday Inn Express & Suites", "tourism": "hotel"}}, {"type": "way", "id": 838365840, "nodes": [1138960988, 7824349742, 7824349743, 7824349744, 1138960988], "tags": {"addr:city": "Malvern", "addr:housenumber": "1622", "addr:postcode": "72104", "addr:state": "AR", "addr:street": "Martin Luther King Boulevard", "amenity": "restaurant", "brand": "Pizza Hut", "brand:wikidata": "Q191615", "building": "yes", "cuisine": "pizza", "name": "Pizza Hut", "phone": "+1 501-451-4805", "website": "https://locations.pizzahut.com/ar/malvern/1622-martin-luther-king-blvd"}}, {"type": "way", "id": 953604715, "nodes": [8826283370, 8826283371, 8826283372, 8826283373, 8826283370], "tags": {"addr:city": "Malvern", "addr:housenumber": "1600", "addr:postcode": "72104", "addr:state": "AR", "addr:street": "River Creek Road", "alt_name": "Edward Jones Investments", "brand": "Edward Jones", "brand:wikidata": "Q5343830", "building": "yes", "name": "Edward Jones", "office": "financial_advisor"}}, {"type": "way", "id": 953604716, "nodes": [8826283374, 8826283375, 8826283376, 8826283377, 8826283378, 8826283379, 8826283380, 8826283381, 8826283382, 8826283383, 8826283384, 8826283385, 8826283386, 8826283387, 8826283388, 8826283389, 8826283390, 8826283391, 8826283392, 8826283393, 8826283394, 8826283395, 8826283396, 8826283397, 8826283398, 8826283399, 8826283400, 8826283401, 8826283374], "tags": {"addr:city": "Malvern", "addr:housenumber": "1910", "addr:postcode": "72104", "addr:state": "AR", "addr:street": "Martin Luther King Road", "brand": "Walmart", "brand:wikidata": "Q483551", "building": "yes", "name": "Walmart Supercenter", "opening_hours": "06:00-23:00", "payment:app:walmart": "yes", "payment:apple_pay": "no", "payment:google_pay": "no", "payment:samsung_pay": "no", "phone": "+1 501-337-9485", "ref": "127", "sensory_friendly:accommodation": "dimmed_light;static_screens;no_pa", "sensory_friendly:conditional": "yes @ 08:00-10:00", "shop": "supermarket", "website": "https://www.walmart.com/store/127-malvern-ar"}}, {"type": "way", "id": 953604717, "nodes": [8826283402, 8826283403, 8826283404, 8826283405, 8826283402], "tags": {"addr:city": "Malvern", "addr:housenumber": "1410", "addr:postcode": "72104", "addr:state": "AR", "addr:street": "River Creek Road", "amenity": "fuel", "brand": "Murphy USA", "brand:wikidata": "Q19604459", "building": "roof", "name": "Murphy USA"}}, {"type": "way", "id": 953604718, "nodes": [8826283406, 8826283407, 8826283408, 8826283409, 8826283406], "tags": {"addr:city": "Malvern", "addr:housenumber": "1904", "addr:postcode": "72104", "addr:state": "AR", "addr:street": "Martin Luther King Road", "brand": "AT&T", "brand:wikidata": "Q298594", "building": "yes", "name": "AT&T", "shop": "mobile_phone"}}, {"type": "way", "id": 953604719, "nodes": [8826283410, 8826283411, 8826283412, 8826283413, 8826283414, 8826283415, 8826283410], "tags": {"addr:city": "Malvern", "addr:housenumber": "1902", "addr:postcode": "72104", "addr:state": "AR", "addr:street": "Martin Luther King Road", "amenity": "fast_food", "brand": "Wendy's", "brand:wikidata": "Q550258", "building": "yes", "cuisine": "burger", "name": "Wendy's", "opening_hours": "08:00-22:00", "opening_hours:drive_through": "Mo-Su 06:30-00:00", "phone": "+1 501-332-2177", "takeaway": "yes", "website": "https://locations.wendys.com/united-states/ar/malvern/1902-martin-luther-king-blvd"}}, {"type": "way", "id": 953604720, "nodes": [8826283416, 8826290317, 8826290318, 8826290319, 8826283416], "tags": {"addr:city": "Malvern", "addr:housenumber": "1920", "addr:postcode": "72104", "addr:state": "AR", "addr:street": "Martin Luther King Road", "amenity": "fast_food", "brand": "McDonald's", "brand:wikidata": "Q38076", "building": "yes", "check_date": "2024-09-09", "cuisine": "burger", "name": "McDonald's", "takeaway": "yes", "website": "https://www.mcdonalds.com/us/en-us/location/ar/malvern/1920-martin-luther-king-blvd/29290.html"}}, {"type": "way", "id": 953604721, "nodes": [8826290320, 8826290321, 8826290322, 8826290323, 8826290320], "tags": {"building": "yes"}}, {"type": "way", "id": 953604722, "nodes": [8826290328, 8826290329, 8826290330, 8826290331, 8826290332, 8826290333, 8826290334, 8826290335, 8826290336, 8826290337, 8826290328], "tags": {"addr:city": "Malvern", "addr:housenumber": "1609", "addr:postcode": "72104", "addr:state": "AR", "addr:street": "Long Drive", "amenity": "fast_food", "brand": "Burger King", "brand:wikidata": "Q177054", "building": "yes", "cuisine": "burger", "drive_through": "yes", "internet_access": "wlan", "name": "Burger King", "opening_hours": "06:00-23:00", "phone": "+1 501-332-6400", "ref": "18311", "takeaway": "yes", "website": "https://www.bk.com/store-locator/store/restaurant_11915"}}, {"type": "way", "id": 953604723, "nodes": [8826290338, 8826290339, 8826290340, 8826290341, 8826290342, 8826290343, 8826290344, 8826290345, 8826290346, 8826290347, 8826290338], "tags": {"addr:city": "Malvern", "addr:housenumber": "2730", "addr:postcode": "72104", "addr:state": "AR", "addr:street": "River Creek Road", "building": "yes", "name": "Stihl Southwest", "shop": "hardware"}}, {"type": "way", "id": 967690171, "nodes": [8952543983, 8952543984, 8952543985, 8952543986, 1138951569, 8952543987, 8952543983], "tags": {"building": "retail"}}, {"type": "way", "id": 1002532057, "nodes": [9252419442, 9252419443, 9252419444, 9252419445, 9252419446, 9252419447, 9252419448, 9252419449, 9252419450, 9252419451, 9252419442], "tags": {"addr:city": "Rockport", "addr:housenumber": "1779", "addr:postcode": "72104", "addr:state": "AR", "addr:street": "Lodge Street", "amenity": "place_of_worship", "building": "yes", "name": "Rockport United Methodist Church", "religion": "christian"}}, {"type": "way", "id": 1201884249, "nodes": [11143182150, 11143182151, 11143182152, 11143182153, 11143182150], "tags": {"addr:city": "Rockport", "addr:housenumber": "2034", "addr:postcode": "72104", "addr:state": "AR", "addr:street": "Oliver Lancaster Boulevard", "amenity": "fast_food", "brand": "Popeyes", "brand:wikidata": "Q1330910", "building": "yes", "cuisine": "chicken", "delivery": "yes", "drive_through": "yes", "indoor_seating": "yes", "name": "Popeyes", "official_name": "Popeyes Louisiana Kitchen", "opening_hours": "10:00-21:00", "phone": "+1 501-229-8122", "takeaway": "yes", "website": "https://www.popeyes.com/store-locator/store/restaurant_86737"}}, {"type": "way", "id": 1322727243, "nodes": [12239747291, 12239747292, 12239747293, 12239747294, 12239747291], "tags": {"addr:city": "Malvern", "addr:housenumber": "117", "addr:postcode": "72104", "addr:state": "AR", "addr:street": "Industrial Road", "building": "industrial", "name": "J & W Tarp Company"}}]}