{"version": 0.6, "generator": "Overpass API 0.7.62.8 e802775f", "osm3s": {"timestamp_osm_base": "2025-12-06T05:26:00Z", "copyright": "The data included in this document is from www.openstreetmap.org. The data is made available under ODbL."}, "elements": [{"type": "node", "id": 415160916, "lat": 43.6083965, "lon": -116.3438107}, {"type": "node", "id": 3670400981, "lat": 43.5999774, "lon": -116.3556472}, {"type": "node", "id": 3670400982, "lat": 43.5999781, "lon": -116.3557327}, {"type": "node", "id": 3670400983, "lat": 43.5999848, "lon": -116.3555834}, {"type": "node", "id": 3670400984, "lat": 43.5999853, "lon": -116.3556471}, {"type": "node", "id": 3670400985, "lat": 43.5999888, "lon": -116.3558471}, {"type": "node", "id": 3670400986, "lat": 43.599989, "lon": -116.3558692}, {"type": "node", "id": 3670400987, "lat": 43.5999924, "lon": -116.3555266}, {"type": "node", "id": 3670400988, "lat": 43.5999929, "lon": -116.3555833}, {"type": "node", "id": 3670400989, "lat": 43.6000006, "lon": -116.3557323}, {"type": "node", "id": 3670400990, "lat": 43.6000016, "lon": -116.3558469}, {"type": "node", "id": 3670400991, "lat": 43.6000068, "lon": -116.3558689}, {"type": "node", "id": 3670400992, "lat": 43.6000073, "lon": -116.3559247}, {"type": "node", "id": 3670400993, "lat": 43.6000317, "lon": -116.3555151}, {"type": "node", "id": 3670400994, "lat": 43.6000318, "lon": -116.355526}, {"type": "node", "id": 3670400995, "lat": 43.6000987, "lon": -116.3555141}, {"type": "node", "id": 3670400996, "lat": 43.600099, "lon": -116.3555407}, {"type": "node", "id": 3670400997, "lat": 43.6001394, "lon": -116.3558303}, {"type": "node", "id": 3670400998, "lat": 43.6001402, "lon": -116.3559227}, {"type": "node", "id": 3670400999, "lat": 43.6001695, "lon": -116.3558106}, {"type": "node", "id": 3670401000, "lat": 43.6001696, "lon": -116.3558299}, {"type": "node", "id": 3670401001, "lat": 43.6001816, "lon": -116.3555394}, {"type": "node", "id": 3670401002, "lat": 43.6001823, "lon": -116.3556267}, {"type": "node", "id": 3670401003, "lat": 43.600191, "lon": -116.3556265}, {"type": "node", "id": 3670401004, "lat": 43.6001925, "lon": -116.3558103}, {"type": "node", "id": 4580015354, "lat": 43.6064641, "lon": -116.3532809}, {"type": "node", "id": 4580015355, "lat": 43.6063934, "lon": -116.353366}, {"type": "node", "id": 4580015356, "lat": 43.6062917, "lon": -116.3532049}, {"type": "node", "id": 4580015357, "lat": 43.6063784, "lon": -116.3531006}, {"type": "node", "id": 4580015358, "lat": 43.606022, "lon": -116.3525361}, {"type": "node", "id": 4580015359, "lat": 43.6065517, "lon": -116.3518984}, {"type": "node", "id": 4580015360, "lat": 43.6066878, "lon": -116.352114}, {"type": "node", "id": 4580015361, "lat": 43.6071077, "lon": -116.3516085}, {"type": "node", "id": 4580015362, "lat": 43.6075717, "lon": -116.3523437}, {"type": "node", "id": 4580015363, "lat": 43.6071585, "lon": -116.3528411}, {"type": "node", "id": 4580015364, "lat": 43.6072862, "lon": -116.3530434}, {"type": "node", "id": 4580277288, "lat": 43.585549, "lon": -116.3476367}, {"type": "node", "id": 4580278389, "lat": 43.5855486, "lon": -116.3475699}, {"type": "node", "id": 4580278390, "lat": 43.5847115, "lon": -116.3475797}, {"type": "node", "id": 4580278391, "lat": 43.5847096, "lon": -116.3472743}, {"type": "node", "id": 4580278392, "lat": 43.584633, "lon": -116.3472752}, {"type": "node", "id": 4580278393, "lat": 43.5846305, "lon": -116.3468767}, {"type": "node", "id": 4580278394, "lat": 43.5848198, "lon": -116.3468745}, {"type": "node", "id": 4580278395, "lat": 43.5848204, "lon": -116.3469613}, {"type": "node", "id": 4580278396, "lat": 43.5853037, "lon": -116.3469557}, {"type": "node", "id": 4580278397, "lat": 43.5853032, "lon": -116.3468753}, {"type": "node", "id": 4580278398, "lat": 43.5853664, "lon": -116.3468746}, {"type": "node", "id": 4580278399, "lat": 43.5853668, "lon": -116.3469373}, {"type": "node", "id": 4580278400, "lat": 43.5856151, "lon": -116.3469344}, {"type": "node", "id": 4580278401, "lat": 43.5856171, "lon": -116.3472591}, {"type": "node", "id": 4580278402, "lat": 43.5856686, "lon": -116.3472346}, {"type": "node", "id": 4580278408, "lat": 43.5853159, "lon": -116.3520333}, {"type": "node", "id": 4580278409, "lat": 43.5850323, "lon": -116.3519585}, {"type": "node", "id": 4580278410, "lat": 43.5850152, "lon": -116.3520819}, {"type": "node", "id": 4580278411, "lat": 43.5847874, "lon": -116.3520217}, {"type": "node", "id": 4580278412, "lat": 43.5847456, "lon": -116.3523232}, {"type": "node", "id": 4580278413, "lat": 43.5844957, "lon": -116.3522572}, {"type": "node", "id": 4580278414, "lat": 43.5843606, "lon": -116.3532312}, {"type": "node", "id": 4580278415, "lat": 43.5846152, "lon": -116.3532985}, {"type": "node", "id": 4580278416, "lat": 43.5846326, "lon": -116.353173}, {"type": "node", "id": 4580278417, "lat": 43.5847865, "lon": -116.3532137}, {"type": "node", "id": 4580278418, "lat": 43.5847796, "lon": -116.3532633}, {"type": "node", "id": 4580278419, "lat": 43.5848557, "lon": -116.3532834}, {"type": "node", "id": 4580278420, "lat": 43.5849005, "lon": -116.3529603}, {"type": "node", "id": 5218962021, "lat": 43.5897882, "lon": -116.3539058, "tags": {"addr:city": "Meridian", "addr:housenumber": "1630", "addr:postcode": "83642", "addr:state": "ID", "addr:street": "South Eagle Road", "addr:unit": "100", "amenity": "cafe", "cuisine": "tea;coffee_shop", "name": "Lucky Perk", "opening_hours": "Mo-Fr 05:30-22:00; Sa 06:00-22:00; Su 07:00-21:00", "phone": "+1-208-888-4205", "website": "https://luckyperk.com/"}}, {"type": "node", "id": 6053760254, "lat": 43.5918309, "lon": -116.3660998, "tags": {"addr:city": "Meridian", "addr:housenumber": "2374", "addr:postcode": "83642", "addr:state": "ID", "addr:street": "East Cinema Drive", "addr:unit": "102", "name": "Lilly\u2019s Full Service Salon", "phone": "+1-208-949-2550", "shop": "hairdresser", "website": "https://www.lillysfullservicesalon.com/"}}, {"type": "node", "id": 6355856905, "lat": 43.5907244, "lon": -116.3686777, "tags": {"addr:city": "Meridian", "addr:housenumber": "2032", "addr:postcode": "83642", "addr:state": "ID", "addr:street": "East Overland Road", "addr:unit": "100", "amenity": "restaurant", "cuisine": "asian", "name": "Panda Garden", "not:brand:wikidata": "Q1358690"}}, {"type": "node", "id": 6355856906, "lat": 43.5907229, "lon": -116.3688475, "tags": {"addr:city": "Meridian", "addr:housenumber": "2020", "addr:postcode": "83642", "addr:state": "ID", "addr:street": "East Overland Road", "addr:unit": "130", "amenity": "restaurant", "cuisine": "burger", "name": "Boise Fry Co."}}, {"type": "node", "id": 6355856908, "lat": 43.5907214, "lon": -116.3689869, "tags": {"addr:city": "Meridian", "addr:housenumber": "2020", "addr:postcode": "83642", "addr:state": "ID", "addr:street": "East Overland Road", "addr:unit": "120", "name": "Lifestyle Tattoo Co.", "phone": "+12088871525", "shop": "tattoo"}}, {"type": "node", "id": 6355856909, "lat": 43.5907217, "lon": -116.3690669, "tags": {"addr:city": "Meridian", "addr:housenumber": "2020", "addr:postcode": "83642", "addr:state": "ID", "addr:street": "East Overland Road", "addr:unit": "115", "beauty": "nails", "name": "Fina Beauty", "shop": "beauty", "website": "https://kubiti.wordpress.com/nail-trends/?q=fina+beauty"}}, {"type": "node", "id": 6355856910, "lat": 43.5907164, "lon": -116.3692902, "tags": {"addr:city": "Meridian", "addr:housenumber": "2020", "addr:postcode": "83642", "addr:state": "ID", "addr:street": "East Overland Road", "addr:unit": "100", "amenity": "bar", "name": "Growler Guys", "opening_hours": "Mo-Sa 12:00-22:00; Su 12:00-20:00"}}, {"type": "node", "id": 6656004607, "lat": 43.5908183, "lon": -116.3753529}, {"type": "node", "id": 6656004608, "lat": 43.5908202, "lon": -116.3750552}, {"type": "node", "id": 6656004609, "lat": 43.5909716, "lon": -116.3750571}, {"type": "node", "id": 6947298743, "lat": 43.5819962, "lon": -116.3526728}, {"type": "node", "id": 6947298744, "lat": 43.5819885, "lon": -116.3524897}, {"type": "node", "id": 6947298745, "lat": 43.5809622, "lon": -116.3524761}, {"type": "node", "id": 6947298746, "lat": 43.5809664, "lon": -116.3542582}, {"type": "node", "id": 6947298747, "lat": 43.5810227, "lon": -116.3542853}, {"type": "node", "id": 6947298748, "lat": 43.5822834, "lon": -116.3542988}, {"type": "node", "id": 6947298749, "lat": 43.5822932, "lon": -116.3541906}, {"type": "node", "id": 6947298750, "lat": 43.5823177, "lon": -116.3540926}, {"type": "node", "id": 6947298751, "lat": 43.5822736, "lon": -116.3539676}, {"type": "node", "id": 6947298752, "lat": 43.5819652, "lon": -116.3535215}, {"type": "node", "id": 6947298753, "lat": 43.5818844, "lon": -116.3533424}, {"type": "node", "id": 6947298754, "lat": 43.5818721, "lon": -116.353143}, {"type": "node", "id": 6947298755, "lat": 43.5818942, "lon": -116.3529876}, {"type": "node", "id": 6969763475, "lat": 43.6047901, "lon": -116.3695405}, {"type": "node", "id": 7033938823, "lat": 43.609897, "lon": -116.3549516}, {"type": "node", "id": 7033938824, "lat": 43.6120953, "lon": -116.3548657}, {"type": "node", "id": 7033938825, "lat": 43.6119374, "lon": -116.3644194}, {"type": "node", "id": 7033938826, "lat": 43.6100705, "lon": -116.3638957}, {"type": "node", "id": 7140509959, "lat": 43.586336, "lon": -116.355368}, {"type": "node", "id": 7140510016, "lat": 43.5897816, "lon": -116.3728436}, {"type": "node", "id": 7140511675, "lat": 43.5898803, "lon": -116.3725628}, {"type": "node", "id": 7140512492, "lat": 43.5896134, "lon": -116.3727118}, {"type": "node", "id": 7140513099, "lat": 43.586337, "lon": -116.355089}, {"type": "node", "id": 7140513149, "lat": 43.5898783, "lon": -116.3726648}, {"type": "node", "id": 7140514819, "lat": 43.5898591, "lon": -116.3725241}, {"type": "node", "id": 7140516253, "lat": 43.586152, "lon": -116.355087}, {"type": "node", "id": 7140517192, "lat": 43.5897661, "lon": -116.3728623}, {"type": "node", "id": 7140517859, "lat": 43.586124, "lon": -116.355225}, {"type": "node", "id": 7140517905, "lat": 43.5897541, "lon": -116.3725249}, {"type": "node", "id": 7140519353, "lat": 43.586152, "lon": -116.355225}, {"type": "node", "id": 7140519604, "lat": 43.589638, "lon": -116.3727123}, {"type": "node", "id": 7198906948, "lat": 43.590902, "lon": -116.334776}, {"type": "node", "id": 7198907146, "lat": 43.590776, "lon": -116.3490524}, {"type": "node", "id": 7198907273, "lat": 43.5908655, "lon": -116.3485013}, {"type": "node", "id": 7198907325, "lat": 43.5908883, "lon": -116.3490064}, {"type": "node", "id": 7198908522, "lat": 43.5908181, "lon": -116.349053}, {"type": "node", "id": 7198909306, "lat": 43.5908941, "lon": -116.3490912}, {"type": "node", "id": 7198910042, "lat": 43.5907734, "lon": -116.3493845}, {"type": "node", "id": 7198910537, "lat": 43.5908273, "lon": -116.3490894}, {"type": "node", "id": 7198910656, "lat": 43.5906197, "lon": -116.3493857}, {"type": "node", "id": 7198911109, "lat": 43.590779, "lon": -116.335071}, {"type": "node", "id": 7198912555, "lat": 43.5908671, "lon": -116.3489937}, {"type": "node", "id": 7198912709, "lat": 43.590779, "lon": -116.334776}, {"type": "node", "id": 7254139421, "lat": 43.5908108, "lon": -116.3564169, "tags": {"addr:city": "Meridian", "addr:housenumber": "3030", "addr:postcode": "83642", "addr:state": "ID", "addr:street": "East Overland Road", "addr:unit": "100", "amenity": "restaurant", "cuisine": "burger", "name": "Big Jud's", "opening_hours": "Mo-Sa 11:00-21:00"}}, {"type": "node", "id": 7254139423, "lat": 43.59081, "lon": -116.3566051, "tags": {"addr:city": "Meridian", "addr:housenumber": "3030", "addr:postcode": "83642", "addr:state": "ID", "addr:street": "East Overland Road", "addr:unit": "120", "beauty": "spa", "name": "So Posh Spa", "opening_hours": "Mo-Fr 10:00-18:00; Sa 10:00-14:00", "phone": "+1-208-888-5717", "shop": "beauty"}}, {"type": "node", "id": 7254139433, "lat": 43.5907527, "lon": -116.357103, "tags": {"addr:city": "Meridian", "addr:housenumber": "2976", "addr:postcode": "83642", "addr:state": "ID", "addr:street": "East Overland Road", "addr:unit": "100", "name": "New Age Herbal", "opening_hours": "Mo-Sa 10:00-18:00; Su 10:00-16:00", "shop": "nutrition_supplements"}}, {"type": "node", "id": 7254139437, "lat": 43.5913643, "lon": -116.356821, "tags": {"addr:unit": "100", "brand": "Elements Massage", "brand:wikidata": "Q113642393", "name": "Elements Massage", "opening_hours": "Su-Sa 08:45-21:00", "phone": "+1-208-888-9922", "shop": "massage"}}, {"type": "node", "id": 7254139441, "lat": 43.5914198, "lon": -116.356101, "tags": {"amenity": "restaurant", "name": "Beef O Brady's", "opening_hours": "Mo-Sa 11:00-23:00; Su 11:00-22:00"}}, {"type": "node", "id": 7614681020, "lat": 43.5906332, "lon": -116.3675771}, {"type": "node", "id": 7614681021, "lat": 43.5906018, "lon": -116.3675331}, {"type": "node", "id": 7614681022, "lat": 43.5906256, "lon": -116.3675007}, {"type": "node", "id": 7614681023, "lat": 43.5906035, "lon": -116.3674699}, {"type": "node", "id": 7614681024, "lat": 43.5905244, "lon": -116.3675778}, {"type": "node", "id": 7614681025, "lat": 43.5905471, "lon": -116.3676096}, {"type": "node", "id": 7614681026, "lat": 43.5905706, "lon": -116.3675776}, {"type": "node", "id": 7614681027, "lat": 43.5905614, "lon": -116.3675902}, {"type": "node", "id": 7614681028, "lat": 43.5905391, "lon": -116.3675577}, {"type": "node", "id": 7614681029, "lat": 43.5906126, "lon": -116.3675184}, {"type": "node", "id": 7614681030, "lat": 43.5905892, "lon": -116.3674894}, {"type": "node", "id": 8304003785, "lat": 43.605132, "lon": -116.359924}, {"type": "node", "id": 8304008235, "lat": 43.609387, "lon": -116.367777}, {"type": "node", "id": 8304008492, "lat": 43.609358, "lon": -116.368634}, {"type": "node", "id": 8304008557, "lat": 43.605231, "lon": -116.359924}, {"type": "node", "id": 8304008730, "lat": 43.609128, "lon": -116.367721}, {"type": "node", "id": 8304008902, "lat": 43.611635, "lon": -116.348409}, {"type": "node", "id": 8304008909, "lat": 43.609332, "lon": -116.36846}, {"type": "node", "id": 8304009011, "lat": 43.609387, "lon": -116.368074}, {"type": "node", "id": 8304009127, "lat": 43.609358, "lon": -116.368504}, {"type": "node", "id": 8304009418, "lat": 43.611921, "lon": -116.348875}, {"type": "node", "id": 8304009793, "lat": 43.608808, "lon": -116.367767}, {"type": "node", "id": 8304009973, "lat": 43.609128, "lon": -116.367777}, {"type": "node", "id": 8304010141, "lat": 43.609188, "lon": -116.368421}, {"type": "node", "id": 8304010232, "lat": 43.608905, "lon": -116.368073}, {"type": "node", "id": 8304010244, "lat": 43.609332, "lon": -116.368421}, {"type": "node", "id": 8304010388, "lat": 43.609034, "lon": -116.367721}, {"type": "node", "id": 8304010562, "lat": 43.611633, "lon": -116.348872}, {"type": "node", "id": 8304010626, "lat": 43.609216, "lon": -116.368697}, {"type": "node", "id": 8304010700, "lat": 43.609424, "lon": -116.368634}, {"type": "node", "id": 8304010852, "lat": 43.609216, "lon": -116.368834}, {"type": "node", "id": 8304011593, "lat": 43.605132, "lon": -116.360259}, {"type": "node", "id": 8304011666, "lat": 43.609358, "lon": -116.368697}, {"type": "node", "id": 8304011729, "lat": 43.609034, "lon": -116.367767}, {"type": "node", "id": 8304011860, "lat": 43.608808, "lon": -116.368073}, {"type": "node", "id": 8304011974, "lat": 43.609424, "lon": -116.368504}, {"type": "node", "id": 8304011980, "lat": 43.609358, "lon": -116.36846}, {"type": "node", "id": 8304011987, "lat": 43.609187, "lon": -116.368074}, {"type": "node", "id": 8331472750, "lat": 43.5906162, "lon": -116.3485032}, {"type": "node", "id": 8331474880, "lat": 43.6067339, "lon": -116.353708}, {"type": "node", "id": 8331474894, "lat": 43.5748519, "lon": -116.353968}, {"type": "node", "id": 8331475034, "lat": 43.5851775, "lon": -116.3530334}, {"type": "node", "id": 8331475315, "lat": 43.6073323, "lon": -116.3551796}, {"type": "node", "id": 8331476239, "lat": 43.600018, "lon": -116.356539}, {"type": "node", "id": 8331476428, "lat": 43.586124, "lon": -116.355366}, {"type": "node", "id": 8331481210, "lat": 43.5820271, "lon": -116.352702}, {"type": "node", "id": 8331482963, "lat": 43.5929635, "lon": -116.3658386, "tags": {"addr:city": "Meridian", "addr:housenumber": "2310", "addr:postcode": "83642", "addr:state": "ID", "addr:street": "East Cinema Drive", "brand": "Harley-Davidson", "brand:wikidata": "Q192814", "name": "Harley-Davidson", "operator": "High Desert Harley Davidson", "shop": "motorcycle", "website": "https://highdeserthd.com/"}}, {"type": "node", "id": 8331484298, "lat": 43.585671, "lon": -116.347635}, {"type": "node", "id": 8331484628, "lat": 43.5906014, "lon": -116.36762}, {"type": "node", "id": 8331486822, "lat": 43.6047823, "lon": -116.3707743}, {"type": "node", "id": 8331487545, "lat": 43.5874281, "lon": -116.3625197}, {"type": "node", "id": 8331489175, "lat": 43.5896134, "lon": -116.372862}, {"type": "node", "id": 8331490256, "lat": 43.5909696, "lon": -116.375354}, {"type": "node", "id": 8331497601, "lat": 43.611923, "lon": -116.348412}, {"type": "node", "id": 8331499071, "lat": 43.6083737, "lon": -116.3438116}, {"type": "node", "id": 8331518769, "lat": 43.605231, "lon": -116.360259}, {"type": "node", "id": 8331629954, "lat": 43.590902, "lon": -116.335071}, {"type": "node", "id": 8343124211, "lat": 43.599859, "lon": -116.356539}, {"type": "node", "id": 8343125110, "lat": 43.600018, "lon": -116.356644}, {"type": "node", "id": 8343125386, "lat": 43.599859, "lon": -116.356644}, {"type": "node", "id": 8672345168, "lat": 43.6117201, "lon": -116.3448817, "tags": {"addr:city": "Meridian", "addr:housenumber": "3983", "addr:postcode": "83642", "addr:state": "ID", "addr:street": "East Pine Avenue", "addr:unit": "140", "name": "Floform", "shop": "kitchen"}}, {"type": "node", "id": 8672346108, "lat": 43.6041819, "lon": -116.3541327, "tags": {"addr:city": "Meridian", "addr:housenumber": "3240", "addr:postcode": "83642", "addr:state": "ID", "addr:street": "East Louise Drive", "addr:unit": "100", "amenity": "cafe", "branch": "Eagle & Franklin - Meridian", "brand": "Starbucks", "brand:wikidata": "Q37158", "cuisine": "coffee_shop", "internet_access": "yes", "name": "Starbucks", "official_name": "Starbucks Coffee", "operator": "Starbucks", "phone": "+1 208-888-7036", "ref": "18266", "takeaway": "yes", "website": "https://www.starbucks.com/store-locator/store/18266/eagle-franklin-meridian-3240-east-louise-dr-suite-100-meridian-id-83642507"}}, {"type": "node", "id": 8672346315, "lat": 43.5833251, "lon": -116.357206, "tags": {"addr:city": "Meridian", "addr:housenumber": "3023", "addr:postcode": "83642", "addr:state": "ID", "addr:street": "East Copper Point Drive", "addr:unit": "204", "email": "joe@joefricklaw.com", "lawyer": "divorce", "name": "Idaho Divorce Law Firm", "office": "lawyer", "phone": "+1-208-900-6440", "website": "https://idahodivorcelawfirm.com/"}}, {"type": "node", "id": 8672346375, "lat": 43.5907417, "lon": -116.3572914, "tags": {"addr:city": "Meridian", "addr:housenumber": "2976", "addr:postcode": "83642", "addr:state": "ID", "addr:street": "East Overland Road", "addr:unit": "120", "name": "Farm Bureau Insurance", "office": "insurance", "opening_hours": "Mo-Fr 08:00-17:00", "phone": "+1-208-900-3505"}}, {"type": "node", "id": 8672346460, "lat": 43.5898719, "lon": -116.357319, "tags": {"addr:city": "Meridian", "addr:housenumber": "2951", "addr:postcode": "83642", "addr:state": "ID", "addr:street": "East Overland Road", "addr:unit": "115", "air_conditioning": "yes", "beauty": "nails", "name": "Enchanted Nails & Tanning", "payment:credit_cards": "yes", "shop": "beauty"}}, {"type": "node", "id": 8672346464, "lat": 43.589872, "lon": -116.357586, "tags": {"addr:city": "Meridian", "addr:housenumber": "2951", "addr:postcode": "83642", "addr:state": "ID", "addr:street": "East Overland Road", "addr:unit": "130", "air_conditioning": "yes", "name": "Sunshine Foot Massage Spa", "opening_hours": "Mo-Sa 10:00-22:00; Su 10:00-21:00", "payment:cash": "yes", "payment:credit_cards": "yes", "payment:mastercard": "yes", "payment:visa": "yes", "phone": "+1-208-357-6635", "shop": "massage", "stroller": "limited", "wheelchair": "limited"}}, {"type": "node", "id": 8672346466, "lat": 43.5898685, "lon": -116.357482, "tags": {"addr:city": "Meridian", "addr:housenumber": "2951", "addr:postcode": "83642", "addr:state": "ID", "addr:street": "East Overland Road", "addr:unit": "125", "air_conditioning": "yes", "amenity": "restaurant", "cuisine": "chinese", "delivery": "yes", "name": "Joy Garden", "opening_hours": "Mo-Th 11:00-21:00; Fr-Sa 11:00-21:30; Su 12:00-21:00", "outdoor_seating": "no", "payment:american_express": "yes", "payment:credit_cards": "yes", "payment:debit_cards": "yes", "payment:mastercard": "yes", "payment:visa": "yes", "phone": "+1-208-888-6007"}}, {"type": "node", "id": 8672347484, "lat": 43.59214, "lon": -116.3660931, "tags": {"addr:city": "Meridian", "addr:housenumber": "2374", "addr:postcode": "83642", "addr:state": "ID", "addr:street": "East Cinema Drive", "addr:unit": "106", "brand": "Indian Motorcycle", "brand:wikidata": "Q1091034", "name": "Indian Motorcycle Boise", "phone": "+12088873450", "shop": "motorcycle"}}, {"type": "node", "id": 8672347485, "lat": 43.5919755, "lon": -116.3660998, "tags": {"addr:city": "Meridian", "addr:housenumber": "2374", "addr:postcode": "83642", "addr:state": "ID", "addr:street": "East Cinema Drive", "addr:unit": "104", "name": "Positive Pets Dog Training", "phone": "+12089251434", "shop": "pet"}}, {"type": "node", "id": 8672347551, "lat": 43.5908749, "lon": -116.3654224, "tags": {"addr:city": "Meridian", "addr:housenumber": "2310", "addr:postcode": "83642", "addr:state": "ID", "addr:street": "East Overland Road", "addr:unit": "100", "amenity": "restaurant", "cuisine": "asian", "name": "Happy Teriyaki", "website": "https://www.ilovehappyteriyaki.com/"}}, {"type": "node", "id": 8672347552, "lat": 43.5908563, "lon": -116.3648324, "tags": {"addr:city": "Meridian", "addr:housenumber": "2310", "addr:postcode": "83642", "addr:state": "ID", "addr:street": "East Overland Road", "addr:unit": "130", "air_conditioning": "yes", "amenity": "restaurant", "bar": "yes", "cuisine": "american", "internet_access": "wlan", "internet_access:fee": "customers", "name": "The Griddle", "outdoor_seating": "yes", "payment:cash": "yes", "payment:credit_cards": "yes", "payment:debit_cards": "yes", "phone": "+1-208-288-1848", "reservation": "no", "takeaway": "yes", "website": "https://thegriddle.com/", "wheelchair": "yes"}}, {"type": "node", "id": 8672347556, "lat": 43.5908774, "lon": -116.3650435, "tags": {"addr:city": "Meridian", "addr:housenumber": "2310", "addr:postcode": "83642", "addr:state": "ID", "addr:street": "East Overland Road", "addr:unit": "115", "beauty": "nails", "name": "Nails Plus", "shop": "beauty", "website": "https://www.nailsplusmeridianidaho.com/"}}, {"type": "node", "id": 8672347747, "lat": 43.608905, "lon": -116.368834}, {"type": "node", "id": 8672347772, "lat": 43.590724, "lon": -116.3685955, "tags": {"addr:city": "Meridian", "addr:housenumber": "2032", "addr:postcode": "83642", "addr:state": "ID", "addr:street": "East Overland Road", "addr:unit": "105", "name": "Newko Sports Nutrition", "shop": "nutrition_supplements", "website": "https://www.newkosportsnutrition.com/"}}, {"type": "node", "id": 8672347774, "lat": 43.5907296, "lon": -116.3682377, "tags": {"addr:city": "Meridian", "addr:housenumber": "2032", "addr:postcode": "83642", "addr:state": "ID", "addr:street": "East Overland Road", "addr:unit": "130", "amenity": "restaurant", "cuisine": "american", "name": "Biscuit & Hogs", "website": "https://www.biscuitandhogs.com/"}}, {"type": "node", "id": 8672347795, "lat": 43.5907194, "lon": -116.369138, "tags": {"addr:city": "Meridian", "addr:housenumber": "2020", "addr:postcode": "83642", "addr:state": "ID", "addr:street": "East Overland Road", "addr:unit": "110", "name": "International Minute Press", "shop": "copyshop"}}, {"type": "node", "id": 8672347796, "lat": 43.5907183, "lon": -116.3692009, "tags": {"addr:city": "Meridian", "addr:housenumber": "2020", "addr:postcode": "83642", "addr:state": "ID", "addr:street": "East Overland Road", "addr:unit": "105", "name": "Fetching Furs Pretty Purs", "phone": "+12088951143", "shop": "pet_grooming"}}, {"type": "node", "id": 8672349255, "lat": 43.5947567, "lon": -116.3520663, "tags": {"addr:city": "Meridian", "addr:housenumber": "1120", "addr:postcode": "83642", "addr:state": "ID", "addr:street": "South Rackham Way", "addr:unit": "300", "name": "Kiln", "office": "coworking", "website": "https://kiln.com/communities/meridian/"}}, {"type": "node", "id": 8672349260, "lat": 43.5961192, "lon": -116.350272, "tags": {"addr:city": "Meridian", "addr:housenumber": "1111", "addr:postcode": "83642", "addr:state": "ID", "addr:street": "South Silverstone Way", "addr:unit": "200", "check_date:opening_hours": "2025-05-27", "name": "CompuNet, INC", "office": "it", "opening_hours:signed": "no", "website": "https://compunet.biz/"}}, {"type": "node", "id": 8672349595, "lat": 43.6113697, "lon": -116.3461721, "tags": {"addr:city": "Meridian", "addr:housenumber": "719", "addr:postcode": "83642", "addr:state": "ID", "addr:street": "North Principle Place", "addr:unit": "120", "name": "Thermal Supply Inc.", "shop": "appliance"}}, {"type": "node", "id": 8672349596, "lat": 43.6116376, "lon": -116.3461639, "tags": {"addr:city": "Meridian", "addr:housenumber": "719", "addr:postcode": "83642", "addr:state": "ID", "addr:street": "North Principle Place", "addr:unit": "130", "name": "Digital Check", "office": "yes"}}, {"type": "node", "id": 8672349597, "lat": 43.6108198, "lon": -116.3461888, "tags": {"addr:city": "Meridian", "addr:housenumber": "719", "addr:postcode": "83642", "addr:state": "ID", "addr:street": "North Principle Place", "addr:unit": "100", "name": "Lansing Building Products", "shop": "hardware"}}, {"type": "node", "id": 8672350027, "lat": 43.6100999, "lon": -116.353401, "tags": {"addr:city": "Meridian", "addr:housenumber": "600", "addr:postcode": "83642", "addr:state": "ID", "addr:street": "North Eagle Road", "addr:unit": "102", "name": "RedLine Recreational Toys", "phone": "+1-208-695-2288", "shop": "rental"}}, {"type": "node", "id": 8672350028, "lat": 43.6100854, "lon": -116.353981, "tags": {"addr:city": "Meridian", "addr:housenumber": "600", "addr:postcode": "83642", "addr:state": "ID", "addr:street": "North Eagle Road", "addr:unit": "101", "name": "EventRent", "phone": "+1-208-695-2121", "shop": "rental"}}, {"type": "node", "id": 8720322817, "lat": 43.5898587, "lon": -116.3725602}, {"type": "node", "id": 8720322818, "lat": 43.5897533, "lon": -116.3725546}, {"type": "node", "id": 8720322819, "lat": 43.5896379, "lon": -116.3728635}, {"type": "node", "id": 8720322820, "lat": 43.5896378, "lon": -116.3728835}, {"type": "node", "id": 8720322821, "lat": 43.5897122, "lon": -116.3728827}, {"type": "node", "id": 8720322822, "lat": 43.5897129, "lon": -116.3728645}, {"type": "node", "id": 8720322823, "lat": 43.5897979, "lon": -116.3728646}, {"type": "node", "id": 8720322824, "lat": 43.5898589, "lon": -116.3727771}, {"type": "node", "id": 8720322825, "lat": 43.5898452, "lon": -116.3727593}, {"type": "node", "id": 8720322826, "lat": 43.5898616, "lon": -116.3727346}, {"type": "node", "id": 8720322827, "lat": 43.5898613, "lon": -116.3726644}, {"type": "node", "id": 8732663472, "lat": 43.5908434, "lon": -116.3491069}, {"type": "node", "id": 8732663473, "lat": 43.5908713, "lon": -116.3491106}, {"type": "node", "id": 8732663474, "lat": 43.5909043, "lon": -116.3490564}, {"type": "node", "id": 8732663475, "lat": 43.5908205, "lon": -116.3490723}, {"type": "node", "id": 8732663476, "lat": 43.5908345, "lon": -116.3490995}, {"type": "node", "id": 8732663477, "lat": 43.5908571, "lon": -116.349112}, {"type": "node", "id": 8732663478, "lat": 43.5908838, "lon": -116.3491034}, {"type": "node", "id": 8732663479, "lat": 43.5909012, "lon": -116.3490749}, {"type": "node", "id": 8732663480, "lat": 43.5909029, "lon": -116.3490376}, {"type": "node", "id": 8732663481, "lat": 43.5908974, "lon": -116.3490204}, {"type": "node", "id": 8732663482, "lat": 43.5908783, "lon": -116.3489981}, {"type": "node", "id": 8815971469, "lat": 43.6028889, "lon": -116.3707866}, {"type": "node", "id": 8815971470, "lat": 43.6028867, "lon": -116.3696125}, {"type": "node", "id": 8815971471, "lat": 43.6044649, "lon": -116.3696263}, {"type": "node", "id": 8815971472, "lat": 43.6044649, "lon": -116.3695359}, {"type": "node", "id": 9260614597, "lat": 43.6073393, "lon": -116.3555025}, {"type": "node", "id": 9260614598, "lat": 43.6075751, "lon": -116.3554927}, {"type": "node", "id": 9260614599, "lat": 43.607568, "lon": -116.3551698}, {"type": "node", "id": 9765439638, "lat": 43.5761773, "lon": -116.35402}, {"type": "node", "id": 10271601109, "lat": 43.6105061, "lon": -116.3644382}, {"type": "node", "id": 11102300991, "lat": 43.5747349, "lon": -116.353966}, {"type": "node", "id": 11102300994, "lat": 43.5747367, "lon": -116.3537632}, {"type": "node", "id": 11102300998, "lat": 43.5748541, "lon": -116.3537652}, {"type": "node", "id": 11144750286, "lat": 43.5748531, "lon": -116.3538816}, {"type": "node", "id": 11144750287, "lat": 43.5748693, "lon": -116.3538819}, {"type": "node", "id": 11144750288, "lat": 43.5748689, "lon": -116.3539275}, {"type": "node", "id": 11144750289, "lat": 43.5748522, "lon": -116.3539272}, {"type": "node", "id": 11182342786, "lat": 43.5871637, "lon": -116.3625204}, {"type": "node", "id": 11182342787, "lat": 43.5871633, "lon": -116.3622239}, {"type": "node", "id": 11182342788, "lat": 43.5874277, "lon": -116.3622232}, {"type": "node", "id": 11196400573, "lat": 43.583879, "lon": -116.366687}, {"type": "node", "id": 11196400574, "lat": 43.5838456, "lon": -116.366687}, {"type": "node", "id": 11196400575, "lat": 43.5838453, "lon": -116.3666593}, {"type": "node", "id": 11196400576, "lat": 43.5838793, "lon": -116.3666584}, {"type": "node", "id": 11468702017, "lat": 43.5913386, "lon": -116.3657177, "tags": {"addr:city": "Meridian", "addr:housenumber": "1510", "addr:postcode": "83642", "addr:state": "ID", "addr:street": "South Celebration Avenue", "amenity": "restaurant", "cuisine": "indian", "name": "Red Fort Cuisine Of India", "website": "https://www.redfortcuisine.com/"}}, {"type": "node", "id": 12623414504, "lat": 43.576001, "lon": -116.3540192}, {"type": "node", "id": 12623414505, "lat": 43.5760011, "lon": -116.3539686}, {"type": "node", "id": 12623414506, "lat": 43.5759757, "lon": -116.3539685}, {"type": "node", "id": 12623414507, "lat": 43.5759759, "lon": -116.3539029}, {"type": "node", "id": 12623414508, "lat": 43.5760034, "lon": -116.353903}, {"type": "node", "id": 12623414509, "lat": 43.5760035, "lon": -116.3538671}, {"type": "node", "id": 12623414510, "lat": 43.5761776, "lon": -116.3538679}, {"type": "node", "id": 12748375692, "lat": 43.6054401, "lon": -116.339999}, {"type": "node", "id": 12748375693, "lat": 43.60542, "lon": -116.3390695}, {"type": "node", "id": 12748375694, "lat": 43.6050809, "lon": -116.3390644}, {"type": "node", "id": 12748375695, "lat": 43.6050921, "lon": -116.3400103}, {"type": "node", "id": 12748375696, "lat": 43.6064573, "lon": -116.3395973}, {"type": "node", "id": 12748375697, "lat": 43.6064527, "lon": -116.3391131}, {"type": "node", "id": 12748375698, "lat": 43.6058359, "lon": -116.3391243}, {"type": "node", "id": 12748375699, "lat": 43.6058404, "lon": -116.3396084}, {"type": "node", "id": 12748375700, "lat": 43.6066536, "lon": -116.3403392}, {"type": "node", "id": 12748387001, "lat": 43.6066612, "lon": -116.3398527}, {"type": "node", "id": 12748387002, "lat": 43.605804, "lon": -116.3398274}, {"type": "node", "id": 12748387003, "lat": 43.6057965, "lon": -116.3403137}, {"type": "node", "id": 12799011444, "lat": 43.6083836, "lon": -116.3446575}, {"type": "node", "id": 12799011445, "lat": 43.6084092, "lon": -116.3446578}, {"type": "node", "id": 12799011446, "lat": 43.6102808, "lon": -116.344641}, {"type": "node", "id": 12799011452, "lat": 43.6112563, "lon": -116.3437823}, {"type": "node", "id": 12799011453, "lat": 43.6112568, "lon": -116.3451652}, {"type": "node", "id": 12799011454, "lat": 43.6112076, "lon": -116.3451784}, {"type": "node", "id": 12799011455, "lat": 43.6111714, "lon": -116.3452001}, {"type": "node", "id": 12799011456, "lat": 43.6111344, "lon": -116.3452407}, {"type": "node", "id": 12799011457, "lat": 43.6111057, "lon": -116.3453012}, {"type": "node", "id": 12799011458, "lat": 43.6110968, "lon": -116.3453475}, {"type": "node", "id": 12799011459, "lat": 43.611092, "lon": -116.3454013}, {"type": "node", "id": 12799011460, "lat": 43.6102844, "lon": -116.3454177}, {"type": "way", "id": 362783209, "nodes": [3670400998, 3670400997, 3670401000, 3670400999, 3670401004, 3670401003, 3670401002, 3670401001, 3670400996, 3670400995, 3670400993, 3670400994, 3670400987, 3670400988, 3670400983, 3670400984, 3670400981, 3670400982, 3670400989, 3670400990, 3670400985, 3670400986, 3670400991, 3670400992, 3670400998], "tags": {"addr:city": "Meridian", "addr:housenumber": "3100", "addr:postcode": "83642", "addr:state": "ID", "addr:street": "East Magic View Drive", "brand": "ExtraMile", "brand:wikidata": "Q64224605", "building": "yes", "name": "ExtraMile", "operator": "Jacksons Food Stores", "ref": "97", "shop": "convenience"}}, {"type": "way", "id": 462624070, "nodes": [8331474880, 4580015354, 4580015355, 4580015356, 4580015357, 4580015358, 4580015359, 4580015360, 4580015361, 4580015362, 4580015363, 4580015364, 8331474880], "tags": {"addr:city": "Meridian", "addr:housenumber": "3301", "addr:postcode": "83642", "addr:state": "ID", "addr:street": "East Lanark Drive", "building": "retail", "name": "RC Willey", "shop": "furniture"}}, {"type": "way", "id": 462655622, "nodes": [8331484298, 4580277288, 4580278389, 4580278390, 4580278391, 4580278392, 4580278393, 4580278394, 4580278395, 4580278396, 4580278397, 4580278398, 4580278399, 4580278400, 4580278401, 4580278402, 8331484298], "tags": {"addr:city": "Meridian", "addr:housenumber": "2200", "addr:postcode": "83642", "addr:state": "ID", "addr:street": "South Cobalt Point Way", "building": "yes", "name": "Citi Corporate Office", "office": "yes"}}, {"type": "way", "id": 462655624, "nodes": [8331475034, 4580278408, 4580278409, 4580278410, 4580278411, 4580278412, 4580278413, 4580278414, 4580278415, 4580278416, 4580278417, 4580278418, 4580278419, 4580278420, 8331475034], "tags": {"addr:city": "Meridian", "addr:housenumber": "3265", "addr:postcode": "83642", "addr:state": "ID", "addr:street": "East Goldstone Drive", "building": "yes", "name": "T-Mobile", "office": "company"}}, {"type": "way", "id": 708333221, "nodes": [8331490256, 6656004609, 6656004608, 6656004607, 8331490256], "tags": {"addr:city": "Meridian", "addr:housenumber": "1540", "addr:postcode": "83642", "addr:state": "ID", "addr:street": "East Overland Road", "brand": "Maverik", "brand:wikidata": "Q64149010", "building": "yes", "name": "Maverik", "shop": "convenience"}}, {"type": "way", "id": 742076433, "nodes": [8331481210, 6947298743, 6947298744, 6947298745, 6947298746, 6947298747, 6947298748, 6947298749, 6947298750, 6947298751, 6947298752, 6947298753, 6947298754, 6947298755, 8331481210], "tags": {"addr:city": "Meridian", "addr:housenumber": "2520", "addr:postcode": "83642", "addr:state": "ID", "addr:street": "South Eagle Road", "landuse": "commercial", "shop": "storage_rental"}}, {"type": "way", "id": 752717642, "nodes": [7033938823, 7033938824, 7033938825, 10271601109, 7033938826, 7033938823], "tags": {"landuse": "commercial", "name": "Scentsy, Inc.", "office": "company"}}, {"type": "way", "id": 764319029, "nodes": [8331476428, 7140517859, 7140519353, 7140516253, 7140513099, 7140509959, 8331476428], "tags": {"addr:city": "Meridian", "addr:housenumber": "3010", "addr:postcode": "83642", "addr:state": "ID", "addr:street": "East Goldstone Drive", "brand": "Jacksons", "brand:wikidata": "Q64617393", "building": "yes", "name": "Jacksons", "ref": "140", "shop": "convenience", "source": "microsoft/BuildingFootprints"}}, {"type": "way", "id": 764319317, "nodes": [8331489175, 7140512492, 7140519604, 8720322818, 7140517905, 7140514819, 8720322817, 7140511675, 7140513149, 8720322827, 8720322826, 8720322825, 8720322824, 8720322823, 7140510016, 7140517192, 8720322822, 8720322821, 8720322820, 8720322819, 8331489175], "tags": {"addr:city": "Meridian", "addr:housenumber": "1745", "addr:postcode": "83642", "addr:state": "ID", "addr:street": "East Overland Road", "brand": "Jacksons", "brand:wikidata": "Q64617393", "building": "yes", "name": "Jacksons", "ref": "166", "shop": "convenience", "source": "microsoft/BuildingFootprints"}}, {"type": "way", "id": 771162230, "nodes": [8331629954, 7198911109, 7198912709, 7198906948, 8331629954], "tags": {"addr:city": "Boise", "addr:housenumber": "12222", "addr:postcode": "83709", "addr:state": "ID", "addr:street": "West Overland Road", "brand": "Chevron", "brand:wikidata": "Q319642", "building": "yes", "name": "Chevron", "shop": "convenience", "source": "microsoft/BuildingFootprints"}}, {"type": "way", "id": 771162442, "nodes": [8331472750, 7198907273, 7198912555, 8732663482, 7198907325, 8732663481, 8732663480, 8732663474, 8732663479, 7198909306, 8732663478, 8732663473, 8732663477, 8732663472, 8732663476, 7198910537, 8732663475, 7198908522, 7198907146, 7198910042, 7198910656, 8331472750], "tags": {"addr:city": "Meridian", "addr:housenumber": "3650", "addr:postcode": "83642", "addr:state": "ID", "addr:street": "East Overland Road", "building": "yes", "name": "Zamzows", "shop": "agrarian", "source": "microsoft/BuildingFootprints"}}, {"type": "way", "id": 815202020, "nodes": [8331484628, 7614681020, 7614681021, 7614681029, 7614681022, 7614681023, 7614681030, 7614681028, 7614681024, 7614681025, 7614681027, 7614681026, 8331484628], "tags": {"addr:city": "Meridian", "addr:housenumber": "2170", "addr:postcode": "83642", "addr:state": "ID", "addr:street": "East Overland Road", "amenity": "cafe", "brand": "Dutch Bros. Coffee", "brand:wikidata": "Q5317253", "building": "yes", "cuisine": "coffee_shop", "name": "Dutch Bros. Coffee", "opening_hours": "Mo-Th 05:00-22:00; Fr-Sa 05:00-23:00; Su 05:00-22:00", "ref": "DB107", "takeaway": "only", "website": "https://locations.dutchbros.com/dutch-bros-coffee-521b851c5ce2"}}, {"type": "way", "id": 893458062, "nodes": [8331497601, 8304009418, 8304010562, 8304008902, 8331497601], "tags": {"addr:city": "Meridian", "addr:housenumber": "743", "addr:postcode": "83642", "addr:state": "ID", "addr:street": "North Touchmark Avenue", "building": "yes", "name": "Dairy West", "office": "yes", "source": "microsoft/BuildingFootprints"}}, {"type": "way", "id": 893458077, "nodes": [8672347747, 8304010232, 8304011860, 8304009793, 8304011729, 8304010388, 8304008730, 8304009973, 8304008235, 8304009011, 8304011987, 8304010141, 8304010244, 8304008909, 8304011980, 8304009127, 8304011974, 8304010700, 8304008492, 8304011666, 8304010626, 8304010852, 8672347747], "tags": {"addr:city": "Meridian", "addr:housenumber": "2095", "addr:postcode": "83642", "addr:state": "ID", "addr:street": "East Commercial Street", "building": "yes", "name": "Commercial Tire", "opening_hours": "Mo-Fr 07:30-18:00; Sa 07:30-16:00", "operator": "Corprate", "phone": "+1 208-888-8800", "shop": "tyres", "source": "microsoft/BuildingFootprints", "website": "https://commercialtire.com/"}}, {"type": "way", "id": 893458337, "nodes": [8331518769, 8304011593, 8304003785, 8304008557, 8331518769], "tags": {"addr:city": "Meridian", "addr:housenumber": "2770", "addr:postcode": "83642", "addr:state": "ID", "addr:street": "East Franklin Road", "building": "yes", "office": "yes", "source": "microsoft/BuildingFootprints"}}, {"type": "way", "id": 897695344, "nodes": [8331476239, 8343125110, 8343125386, 8343124211, 8331476239], "tags": {"addr:city": "Meridian", "addr:housenumber": "3030", "addr:postcode": "83642", "addr:state": "ID", "addr:street": "East Magic View Drive", "amenity": "restaurant", "building": "yes", "cuisine": "greek", "name": "Gyro Shack", "source": "microsoft/BuildingFootprints"}}, {"type": "way", "id": 952504197, "nodes": [8331486822, 8815971469, 8815971470, 8815971471, 8815971472, 6969763475, 8331486822], "tags": {"addr:city": "Meridian", "addr:housenumber": "1975", "addr:postcode": "83642", "addr:state": "ID", "addr:street": "East Franklin Road", "landuse": "industrial", "name": "Keylock Storage", "shop": "storage_rental"}}, {"type": "way", "id": 1003552753, "nodes": [8331475315, 9260614597, 9260614598, 9260614599, 8331475315], "tags": {"addr:city": "Meridian", "addr:housenumber": "3148", "addr:postcode": "83642", "addr:state": "ID", "addr:street": "East Lanark Street", "branch": "Clearance Center Meridian", "brand": "Mattress Firm", "brand:wikidata": "Q6791878", "building": "yes", "delivery": "yes", "name": "Mattress Firm", "phone": "+1 208-887-9612", "ref": "17970", "shop": "bed", "website": "https://www.mattressfirm.com/en-us/stores/id/meridian/082006/"}}, {"type": "way", "id": 1196467520, "nodes": [8331474894, 11102300991, 11102300994, 11102300998, 11144750286, 11144750287, 11144750288, 11144750289, 8331474894], "tags": {"addr:city": "Meridian", "addr:housenumber": "3300", "addr:postcode": "83642", "addr:state": "ID", "addr:street": "South Eagle Road", "amenity": "cafe", "brand": "Black Rock Coffee", "brand:wikidata": "Q64225934", "building": "yes", "cuisine": "coffee_shop", "layer": "1", "name": "Black Rock Coffee", "outdoor_seating": "yes", "takeaway": "yes"}}, {"type": "way", "id": 1206763175, "nodes": [8331487545, 11182342786, 11182342787, 11182342788, 8331487545], "tags": {"addr:city": "Meridian", "addr:housenumber": "1911", "addr:postcode": "83642", "addr:state": "ID", "addr:street": "South Wells Avenue", "building": "commercial", "name": "Boise Regional Realtors", "office": "association", "website": "https://www.boirealtors.com/"}}, {"type": "way", "id": 1208347030, "nodes": [11196400573, 11196400574, 11196400575, 11196400576, 11196400573], "tags": {"building": "yes", "shop": "ticket"}}, {"type": "way", "id": 1363342175, "nodes": [9765439638, 12623414504, 12623414505, 12623414506, 12623414507, 12623414508, 12623414509, 12623414510, 9765439638], "tags": {"addr:city": "Meridian", "addr:housenumber": "3232", "addr:postcode": "83642", "addr:state": "ID", "addr:street": "East Victory Road", "amenity": "cafe", "brand": "Starbucks", "brand:wikidata": "Q37158", "building": "yes", "cuisine": "coffee_shop", "name": "Starbucks", "official_name": "Starbucks Coffee", "takeaway": "yes"}}, {"type": "way", "id": 1376788895, "nodes": [12748375692, 12748375693, 12748375694, 12748375695, 12748375692], "tags": {"addr:city": "Boise", "addr:housenumber": "12590", "addr:postcode": "83709", "addr:state": "ID", "addr:street": "West Franklin Road", "building": "yes", "government": "administrative", "name": "ACHD Traffic Ops #1", "office": "government"}}, {"type": "way", "id": 1376788896, "nodes": [12748375696, 12748375697, 12748375698, 12748375699, 12748375696], "tags": {"addr:city": "Boise", "addr:housenumber": "12590", "addr:postcode": "83709", "addr:state": "ID", "addr:street": "West Franklin Road", "building": "yes", "government": "administrative", "name": "ACHD Traffic Ops #2", "office": "government"}}, {"type": "way", "id": 1376788897, "nodes": [12748375700, 12748387001, 12748387002, 12748387003, 12748375700], "tags": {"addr:city": "Boise", "addr:housenumber": "12590", "addr:postcode": "83709", "addr:state": "ID", "addr:street": "West Franklin Road", "building": "yes", "government": "administrative", "name": "ACHD Traffic Ops #3", "office": "government"}}, {"type": "way", "id": 1382440137, "nodes": [12799011445, 12799011446, 12799011460, 12799011459, 12799011458, 12799011457, 12799011456, 12799011455, 12799011454, 12799011453, 12799011452, 415160916, 8331499071, 12799011444, 12799011445], "tags": {"addr:city": "Meridian", "addr:housenumber": "658", "addr:postcode": "83642", "addr:state": "ID", "addr:street": "North Principle Place", "landuse": "industrial", "name": "Storage Condos", "shop": "storage_rental"}}]}