{"version": 0.6, "generator": "Overpass API 0.7.62.8 e802775f", "osm3s": {"timestamp_osm_base": "2025-12-06T04:22:24Z", "copyright": "The data included in this document is from www.openstreetmap.org. The data is made available under ODbL."}, "elements": [{"type": "node", "id": 695626406, "lat": 48.1987568, "lon": -114.3204853}, {"type": "node", "id": 695626407, "lat": 48.1981898, "lon": -114.3202794}, {"type": "node", "id": 695626409, "lat": 48.1987977, "lon": -114.3166314}, {"type": "node", "id": 695626419, "lat": 48.1990015, "lon": -114.3160963}, {"type": "node", "id": 695626428, "lat": 48.1990346, "lon": -114.3152401}, {"type": "node", "id": 695626430, "lat": 48.1992229, "lon": -114.3152587}, {"type": "node", "id": 695626438, "lat": 48.1994905, "lon": -114.3153601}, {"type": "node", "id": 695626441, "lat": 48.1996499, "lon": -114.3154493}, {"type": "node", "id": 695626444, "lat": 48.199462, "lon": -114.3166897}, {"type": "node", "id": 695626446, "lat": 48.1992678, "lon": -114.3166146}, {"type": "node", "id": 695626449, "lat": 48.1992333, "lon": -114.316824}, {"type": "node", "id": 695626451, "lat": 48.1996373, "lon": -114.3169709}, {"type": "node", "id": 695626454, "lat": 48.1994578, "lon": -114.3180832}, {"type": "node", "id": 695626456, "lat": 48.1992927, "lon": -114.3180243}, {"type": "node", "id": 695626459, "lat": 48.1992405, "lon": -114.3183296}, {"type": "node", "id": 695626461, "lat": 48.1994005, "lon": -114.3183891}, {"type": "node", "id": 695626463, "lat": 48.1993226, "lon": -114.3188639}, {"type": "node", "id": 695626468, "lat": 48.1990151, "lon": -114.3187507}, {"type": "node", "id": 2406457769, "lat": 48.1996186, "lon": -114.3293974, "tags": {"addr:city": "Kalispell", "addr:housenumber": "900", "addr:postcode": "59901", "addr:state": "MT", "addr:street": "West Idaho Street", "brand": "Albertsons", "brand:wikidata": "Q2831861", "name": "Albertsons", "opening_hours": "Mo-Fr 06:00-23:00; Sa 06:00-23:00; Su 06:00-23:00", "phone": "+1 406-257-7127", "shop": "supermarket", "website": "https://local.albertsons.com/mt/kalispell/900-w-idaho-st.html"}}, {"type": "node", "id": 2950229404, "lat": 48.1988247, "lon": -114.3166145}, {"type": "node", "id": 2950229405, "lat": 48.1988331, "lon": -114.3165563}, {"type": "node", "id": 2950229407, "lat": 48.1989184, "lon": -114.3164285}, {"type": "node", "id": 2950229408, "lat": 48.1989229, "lon": -114.3159036}, {"type": "node", "id": 2950229409, "lat": 48.1989296, "lon": -114.3164694}, {"type": "node", "id": 2950229410, "lat": 48.1989559, "lon": -114.3163913}, {"type": "node", "id": 2950229422, "lat": 48.1994367, "lon": -114.3164728}, {"type": "node", "id": 2950229423, "lat": 48.1994628, "lon": -114.3161692}, {"type": "node", "id": 2950229424, "lat": 48.1994926, "lon": -114.316493}, {"type": "node", "id": 2950229425, "lat": 48.1995288, "lon": -114.3161942}, {"type": "node", "id": 3883009901, "lat": 48.1784111, "lon": -114.3026841}, {"type": "node", "id": 3883009902, "lat": 48.178192, "lon": -114.3024671}, {"type": "node", "id": 3883009903, "lat": 48.1781699, "lon": -114.3025173}, {"type": "node", "id": 3883009904, "lat": 48.1779405, "lon": -114.30229}, {"type": "node", "id": 3883009905, "lat": 48.1779476, "lon": -114.3022738}, {"type": "node", "id": 3883009906, "lat": 48.1778631, "lon": -114.30219}, {"type": "node", "id": 3883009907, "lat": 48.1778539, "lon": -114.302211}, {"type": "node", "id": 3883009908, "lat": 48.1778107, "lon": -114.3021682}, {"type": "node", "id": 3883009909, "lat": 48.1775151, "lon": -114.3028386}, {"type": "node", "id": 3883009910, "lat": 48.1775415, "lon": -114.3028648}, {"type": "node", "id": 3883009911, "lat": 48.1775148, "lon": -114.3029253}, {"type": "node", "id": 3883009912, "lat": 48.1778658, "lon": -114.3032731}, {"type": "node", "id": 3883009913, "lat": 48.1779028, "lon": -114.3031891}, {"type": "node", "id": 3883009914, "lat": 48.1781017, "lon": -114.3033862}, {"type": "node", "id": 4290202379, "lat": 48.199373, "lon": -114.3175431, "tags": {"brand": "JCPenney", "brand:wikidata": "Q920037", "name": "JCPenney", "official_name": "J.C. Penney Company", "shop": "department_store"}}, {"type": "node", "id": 4381513768, "lat": 48.1955173, "lon": -114.3124415, "tags": {"amenity": "restaurant", "contact:phone": "+1 406 756 7956", "cuisine": "thai", "name": "Thai Palace", "opening_hours": "Mo-Sa 11:00-20:00"}}, {"type": "node", "id": 5355291083, "lat": 48.177656, "lon": -114.3017946}, {"type": "node", "id": 5355291084, "lat": 48.1773855, "lon": -114.301558}, {"type": "node", "id": 5355291085, "lat": 48.1775012, "lon": -114.3012603}, {"type": "node", "id": 5355291086, "lat": 48.1777717, "lon": -114.3014968}, {"type": "node", "id": 5750167134, "lat": 48.1997423, "lon": -114.3290295, "tags": {"addr:city": "Kalispell", "addr:housenumber": "900", "addr:postcode": "59901", "addr:state": "MT", "addr:street": "West Idaho Street", "amenity": "cafe", "branch": "Albertsons Kalispell 18", "brand": "Starbucks", "brand:wikidata": "Q37158", "cuisine": "coffee_shop", "name": "Starbucks", "official_name": "Starbucks Coffee", "phone": "+1 406-257-7127", "ref": "1022232", "takeaway": "yes", "website": "https://www.starbucks.com/store-locator/store/1022232/albertsons-kalispell-18-900-w-idaho-street-kalispell-mt-59901-us"}}, {"type": "node", "id": 5846287938, "lat": 48.1961022, "lon": -114.3084655, "tags": {"fax": "+1 406-755-6335", "name": "Integrity Property Management, Inc.", "office": "estate_agent", "opening_hours": "Mo-Fr 09:00-16:00", "phone": "+1 406-755-6336", "website": "https://www.integrityrentalsmt.com/"}}, {"type": "node", "id": 6384970201, "lat": 48.203147, "lon": -114.3141013, "tags": {"addr:unit": "5", "fax": "+1 406 314 6363", "name": "GlobalGreen Insurance Agency of Montana", "office": "insurance", "phone": "+1 406 314 6300", "website": "https://globalgreeninsuranceofmontana.com/"}}, {"type": "node", "id": 6682328785, "lat": 48.197435, "lon": -114.3131183, "tags": {"amenity": "restaurant", "contact:phone": "+1 406 755 7687", "cuisine": "american", "name": "Hop's Downtown Grill", "opening_hours": "Mo-Th 17:00-21:00; Fr-Sa 17:00-19:30"}}, {"type": "node", "id": 7455183817, "lat": 48.1783356, "lon": -114.2984801}, {"type": "node", "id": 7455183818, "lat": 48.1783367, "lon": -114.2981634}, {"type": "node", "id": 7455183819, "lat": 48.1779891, "lon": -114.2981606}, {"type": "node", "id": 7455183820, "lat": 48.1779879, "lon": -114.2984774}, {"type": "node", "id": 7653631576, "lat": 48.1953991, "lon": -114.3107291, "tags": {"addr:housenumber": "337", "addr:street": "1st Avenue East", "name": "Best Insurance", "office": "insurance", "website": "https://www.bestinsurancemt.com"}}, {"type": "node", "id": 8083025355, "lat": 48.2017115, "lon": -114.3095889, "tags": {"addr:city": "Kalispell", "addr:housenumber": "195", "addr:postcode": "59901", "addr:state": "MT", "addr:street": "3rd Avenue East North", "brand": "Smith's", "brand:wikidata": "Q7544856", "name": "Smith's", "official_name": "Smith's Food and Drug", "opening_hours": "Mo-Su 06:00-00:00", "phone": "+1 406-257-1397", "ref": "7060017209", "shop": "supermarket", "website": "https://www.smithsfoodanddrug.com/stores/grocery/mt/kalispell/195-3rd-ave-east-n-kallispell-mt/706/00172"}}, {"type": "node", "id": 8083025356, "lat": 48.200227, "lon": -114.3108741, "tags": {"brand": "Sherwin-Williams", "brand:wikidata": "Q48881", "name": "Sherwin-Williams", "shop": "paint"}}, {"type": "node", "id": 8083025358, "lat": 48.2008444, "lon": -114.3096105, "tags": {"name": "Kalispell Medical Equipment", "shop": "medical_supply"}}, {"type": "node", "id": 8083025359, "lat": 48.2004564, "lon": -114.3138543, "tags": {"addr:city": "Kalispell", "addr:housenumber": "55", "addr:postcode": "59901", "addr:state": "MT", "addr:street": "North Main Street", "amenity": "restaurant", "brand": "Pizza Hut", "brand:wikidata": "Q191615", "cuisine": "pizza", "name": "Pizza Hut", "phone": "+1 406-257-2220", "website": "https://locations.pizzahut.com/mt/kalispell/55-n-main-st"}}, {"type": "node", "id": 8083025362, "lat": 48.1982704, "lon": -114.3123105, "tags": {"amenity": "restaurant", "contact:phone": "+1 406 257 8669", "contact:website": "https://www.bonellisbistro.com", "cuisine": "italian", "name": "Bonelli's Bistro", "opening_hours": "Mo 11:00-16:00; Tu-Fr 11:00-16:00,17:00+"}}, {"type": "node", "id": 8178010846, "lat": 48.1841192, "lon": -114.3063799, "tags": {"amenity": "cafe", "cuisine": "coffee_shop", "delivery": "no", "drive_through": "yes", "name": "Copper Mountain Coffee", "opening_hours": "Mo-Sa 06:00-17:00; Su 07:00-17:00", "takeaway": "only", "website": "https://coppermountaincoffee.com"}}, {"type": "node", "id": 8178063147, "lat": 48.1782216, "lon": -114.300289, "tags": {"amenity": "restaurant", "cuisine": "steak_house", "name": "Winchester Steak House"}}, {"type": "node", "id": 8178063148, "lat": 48.1780119, "lon": -114.3001785, "tags": {"amenity": "bar", "name": "Scotty's Bar"}}, {"type": "node", "id": 8185783327, "lat": 48.2107081, "lon": -114.3251628, "tags": {"name": "Buffalo Hill Terrace", "office": "association"}}, {"type": "node", "id": 8597505266, "lat": 48.1854769, "lon": -114.3076067, "tags": {"contact:phone": "+1 406 755-5713", "contact:website": "https://www.cenexziptrip.com", "name": "Zip Trip", "shop": "convenience"}}, {"type": "node", "id": 8597505360, "lat": 48.1842454, "lon": -114.3085047, "tags": {"name": "Salvation Army Thrift Store", "shop": "second_hand"}}, {"type": "node", "id": 8597505444, "lat": 48.1836461, "lon": -114.3056517, "tags": {"addr:unit": "Suite C", "amenity": "restaurant", "contact:email": "charliewonginc@gmail.com", "contact:phone": "+1 406 755-5290", "cuisine": "asian", "name": "Saigon Garden"}}, {"type": "node", "id": 8597505496, "lat": 48.1822235, "lon": -114.3042882, "tags": {"alt_name": "Verizon Wireless", "brand": "Verizon", "brand:wikidata": "Q919641", "name": "Verizon", "shop": "mobile_phone"}}, {"type": "node", "id": 8597505497, "lat": 48.1822633, "lon": -114.3034896, "tags": {"name": "Keller Williams Realty", "office": "estate_agent"}}, {"type": "node", "id": 8597595047, "lat": 48.1786583, "lon": -114.3004193, "tags": {"brand": "Aaron's", "brand:wikidata": "Q10397787", "name": "Aaron's", "shop": "furniture"}}, {"type": "node", "id": 8597595048, "lat": 48.1768358, "lon": -114.3017844, "tags": {"name": "Glacier Bank Operations Center", "office": "yes"}}, {"type": "node", "id": 8597595049, "lat": 48.1771835, "lon": -114.2995961, "tags": {"amenity": "cafe", "cuisine": "coffee_shop", "name": "Florence Coffee Company"}}, {"type": "node", "id": 8597595050, "lat": 48.176576, "lon": -114.2987437, "tags": {"name": "Launch Watersports", "shop": "boat"}}, {"type": "node", "id": 8597595051, "lat": 48.1755211, "lon": -114.3001146, "tags": {"name": "Penco Power Products", "shop": "motorcycle"}}, {"type": "node", "id": 8597640141, "lat": 48.1829627, "lon": -114.3026904, "tags": {"name": "Western Building Center Kalispell", "shop": "rental"}}, {"type": "node", "id": 8600363919, "lat": 48.2029644, "lon": -114.3149064, "tags": {"amenity": "restaurant", "cuisine": "asian", "name": "Asian Buffet"}}, {"type": "node", "id": 8600414155, "lat": 48.2025153, "lon": -114.3155908, "tags": {"addr:unit": "100", "amenity": "cafe", "name": "Chi Cafe"}}, {"type": "node", "id": 8600414158, "lat": 48.2020613, "lon": -114.3140284, "tags": {"name": "Flathead Industries Thrift", "shop": "second_hand"}}, {"type": "node", "id": 8600414161, "lat": 48.2012773, "lon": -114.3174442, "tags": {"brand": "AutoZone", "brand:wikidata": "Q4826087", "name": "AutoZone", "shop": "car_parts", "website": "https://www.autozone.com/locations/mt/kalispell/130-w-idaho.html"}}, {"type": "node", "id": 8600414175, "lat": 48.2018333, "lon": -114.318611, "tags": {"brand": "Batteries Plus Bulbs", "brand:wikidata": "Q17005157", "name": "Batteries Plus Bulbs", "shop": "electronics"}}, {"type": "node", "id": 8600414177, "lat": 48.2008608, "lon": -114.3183347, "tags": {"name": "Dirty Boy Laundry", "shop": "laundry"}}, {"type": "node", "id": 8600414178, "lat": 48.2011862, "lon": -114.3190267, "tags": {"name": "Crevier's Academy-Cosmetology", "shop": "beauty"}}, {"type": "node", "id": 8600414183, "lat": 48.2009287, "lon": -114.3199682, "tags": {"brand": "O'Reilly Auto Parts", "brand:wikidata": "Q7071951", "name": "O'Reilly Auto Parts", "shop": "car_parts", "website": "https://locations.oreillyauto.com/mt/kalispell/autoparts-2784.html"}}, {"type": "node", "id": 8600414201, "lat": 48.2014454, "lon": -114.3222427, "tags": {"brand": "Town Pump", "brand:wikidata": "Q7830004", "name": "Town Pump", "shop": "convenience"}}, {"type": "node", "id": 8600414202, "lat": 48.2013274, "lon": -114.3236777, "tags": {"brand": "Carquest", "brand:wikidata": "Q5045948", "name": "Carquest", "official_name": "Carquest Auto Parts", "shop": "car_parts"}}, {"type": "node", "id": 8600414212, "lat": 48.2011218, "lon": -114.3235999, "tags": {"name": "The Carpet Store", "shop": "carpet"}}, {"type": "node", "id": 8600416428, "lat": 48.2002063, "lon": -114.3258901, "tags": {"name": "Imperial Dry Cleaners", "self_service": "yes", "shop": "laundry"}}, {"type": "node", "id": 8600416438, "lat": 48.1989053, "lon": -114.3180261, "tags": {"brand": "Bath & Body Works", "brand:wikidata": "Q810773", "name": "Bath & Body Works", "shop": "cosmetics"}}, {"type": "node", "id": 8600416441, "lat": 48.1988864, "lon": -114.3174589, "tags": {"brand": "Maurices", "brand:wikidata": "Q6793571", "clothes": "women", "contact:phone": "+1 406 752-7424", "name": "Maurices", "shop": "clothes"}}, {"type": "node", "id": 8600416444, "lat": 48.198768, "lon": -114.3181403, "tags": {"brand": "Zumiez", "brand:wikidata": "Q8075252", "name": "Zumiez", "shop": "clothes"}}, {"type": "node", "id": 8600416445, "lat": 48.1987359, "lon": -114.3188911, "tags": {"name": "Glacier Stationers", "shop": "gift"}}, {"type": "node", "id": 8600416447, "lat": 48.1991195, "lon": -114.3175643, "tags": {"brand": "Claire's", "brand:wikidata": "Q2974996", "name": "Claire's", "shop": "fashion_accessories"}}, {"type": "node", "id": 8600416448, "lat": 48.1987981, "lon": -114.3186904, "tags": {"brand": "Hallmark", "brand:wikidata": "Q1521910", "name": "Hallmark", "shop": "gift"}}, {"type": "node", "id": 8600416449, "lat": 48.1980502, "lon": -114.3163431, "tags": {"name": "A-1 Vacuum & Sewing Center", "shop": "vacuum_cleaner"}}, {"type": "node", "id": 8600416450, "lat": 48.197336, "lon": -114.3173959, "tags": {"amenity": "restaurant", "contact:email": "desotogrill@gmail.com", "contact:phone": "+1 406 314-6095", "contact:website": "https://www.desotogrill.com/", "cuisine": "barbecue", "name": "The Desoto Grill", "opening_hours": "Tu-Fr 11:00-21:00"}}, {"type": "node", "id": 8600416453, "lat": 48.2028288, "lon": -114.3125769, "tags": {"brand": "AT&T", "brand:wikidata": "Q298594", "name": "AT&T", "shop": "mobile_phone"}}, {"type": "node", "id": 8600416454, "lat": 48.2025785, "lon": -114.3110158, "tags": {"amenity": "fuel", "name": "Skip's Tire & Auto Care", "shop": "car_repair"}}, {"type": "node", "id": 8600416478, "lat": 48.2035226, "lon": -114.3051531, "tags": {"amenity": "restaurant", "name": "4B's Restaurant"}}, {"type": "node", "id": 8601155355, "lat": 48.2066231, "lon": -114.3310394, "tags": {"name": "Crescent Electric Supply Company", "shop": "hardware"}}, {"type": "node", "id": 8601155356, "lat": 48.2059149, "lon": -114.3310053, "tags": {"name": "Montana Land & Real Estate Investments, Inc.", "office": "estate_agent"}}, {"type": "node", "id": 8601155357, "lat": 48.2067768, "lon": -114.329917, "tags": {"contact:email": "valerie@boxofrainogc.com", "contact:phone": "+1 406 755-7246", "contact:website": "https://boxofrainogc.com/", "name": "Box of Rain Organic Garden Center", "opening_hours": "Mo-Sa 10:00-18:00", "shop": "garden_centre"}}, {"type": "node", "id": 8601155358, "lat": 48.2071986, "lon": -114.3299196, "tags": {"name": "JD Saddlery", "old_name": "Lane's Boot & Shoe Repair", "shoes:repair": "yes", "shop": "leather"}}, {"type": "node", "id": 8601155359, "lat": 48.2070347, "lon": -114.3307344, "tags": {"name": "Dog Gone Clean", "shop": "pet_grooming"}}, {"type": "node", "id": 8601155361, "lat": 48.2069788, "lon": -114.3318986, "tags": {"name": "The Finer Things", "shop": "antiques"}}, {"type": "node", "id": 8601155362, "lat": 48.2075483, "lon": -114.3312472, "tags": {"name": "North Western Energy", "office": "energy_supplier"}}, {"type": "node", "id": 8601155363, "lat": 48.2083671, "lon": -114.3312762, "tags": {"name": "H & A Automotive Inc", "shop": "car_repair"}}, {"type": "node", "id": 8601155364, "lat": 48.2087217, "lon": -114.330699, "tags": {"brand": "State Farm", "brand:wikidata": "Q2007336", "name": "State Farm", "office": "insurance"}}, {"type": "node", "id": 9142413242, "lat": 48.1962526, "lon": -114.3127157, "tags": {"contact:phone": "+1 406 752 8489", "contact:website": "https://there-finery.weebly.com/", "name": "The Re-Finery", "second_hand": "yes", "shop": "clothes"}}, {"type": "node", "id": 9154353002, "lat": 48.1971623, "lon": -114.3130402, "tags": {"addr:housenumber": "135", "addr:street": "South Main Street", "contact:email": "info@rockymountainoutfitter.com", "contact:phone": "+1 406 752 2446", "contact:website": "https://rockymountainoutfitter.com/", "name": "Rocky Mountain Outfitter", "opening_hours": "Mo-Sa 10:00-18:00", "shop": "outdoor"}}, {"type": "node", "id": 9669833522, "lat": 48.2056236, "lon": -114.316929, "tags": {"addr:city": "Kalispell", "addr:country": "US", "addr:housenumber": "575", "addr:postcode": "59901", "addr:state": "MT", "addr:street": "Sunset Boulevard", "addr:unit": "203", "fax": "+1-406-257-5190", "name": "Farmers Insurance - Stephen Hooper", "office": "insurance", "opening_hours": "Mo-Fr 08:30-17:30", "payment:amex": "yes", "payment:cash": "yes", "payment:cheque": "yes", "payment:discover_card": "yes", "payment:mastercard": "yes", "payment:visa": "yes", "phone": "+1-406-752-4357", "website": "https://agents.farmers.com/mt/kalispell/stephen-hooper"}}, {"type": "node", "id": 10157571801, "lat": 48.1979106, "lon": -114.3137603, "tags": {"level": "-1", "name": "Kalispell Antiques Market", "opening_hours": "Mo-Sa 09:00-19:00; Su 10:00-17:00", "shop": "antiques"}}, {"type": "node", "id": 10157571802, "lat": 48.1978866, "lon": -114.3138832, "tags": {"clothes": "hats;men;women", "level": "1", "name": "Western Outdoor", "opening_hours": "Mo-Sa 09:30-18:00; Su 10:30-16:00", "shop": "clothes"}}, {"type": "node", "id": 10157571803, "lat": 48.198035, "lon": -114.3138674, "tags": {"amenity": "cafe", "cuisine": "burger", "level": "1", "name": "Norm's Soda Fountain", "opening_hours": "Mo-Sa 09:00-19:00; Su 10:00-17:00"}}, {"type": "node", "id": 10283088399, "lat": 48.1977296, "lon": -114.3146485, "tags": {"amenity": "bar", "contact:phone": "+1 406 752 7265", "name": "Eagle's Club & Lounge", "opening_hours": "Mo-Th 12:00-23:00; Fr-Sa 12:00-01:00, Su 12:00-20:00"}}, {"type": "node", "id": 10283150346, "lat": 48.1970296, "lon": -114.3134268, "tags": {"name": "Modern Pastime", "shop": "houseware"}}, {"type": "node", "id": 10283941726, "lat": 48.1970949, "lon": -114.3134469, "tags": {"name": "Honey Home & Design", "shop": "furniture"}}, {"type": "node", "id": 10283941727, "lat": 48.1971425, "lon": -114.3135897, "tags": {"name": "Imagination Station", "opening_hours": "Mo-Sa 10:00-17:30", "shop": "toys", "website": "https://montanatoys.com/"}}, {"type": "node", "id": 10283941728, "lat": 48.1972325, "lon": -114.3134952, "tags": {"name": "Flowers by Hansen", "shop": "florist"}}, {"type": "node", "id": 10283941729, "lat": 48.1973693, "lon": -114.3135394, "tags": {"name": "Sassafras", "shop": "art"}}, {"type": "node", "id": 10283941730, "lat": 48.1974746, "lon": -114.3135813, "tags": {"amenity": "bar", "contact:email": "info@theritzmt.com", "contact:website": "https://www.theritzmt.com/", "name": "The Ritz"}}, {"type": "node", "id": 10283947161, "lat": 48.1983928, "lon": -114.3134737, "tags": {"name": "Flathead Beacon Productions", "office": "newspaper"}}, {"type": "node", "id": 10283947162, "lat": 48.1985055, "lon": -114.3135166, "tags": {"contact:phone": "+1 406 752 7655", "name": "Abbey Carpet and Floor", "opening_hours": "Mo-Th 09:00-17:00; Fr 09:00-16:00", "shop": "furniture"}}, {"type": "node", "id": 10284121600, "lat": 48.1975874, "lon": -114.3131988, "tags": {"contact:phone": "+1 406 756 2326", "contact:website": "https://coffeetraders.com/", "name": "Montana Coffee Traders", "opening_hours": "Mo-Sa 08:00-15:00", "shop": "coffee"}}, {"type": "node", "id": 10284161676, "lat": 48.1975722, "lon": -114.3140906, "tags": {"addr:housenumber": "22", "addr:street": "1st Street West", "amenity": "restaurant", "contact:phone": "+1 406 752 7077", "cuisine": "sushi;chinese", "name": "The Alley Connection", "opening_hours": "Mo-Th 11:00-14:30,17:00-21:00; Fr-Sa 11:00-14:30,17:00-21:30"}}, {"type": "node", "id": 10284252715, "lat": 48.195336, "lon": -114.3127844, "tags": {"contact:website": "https://www.antiquerugdecor.com/", "name": "Antique Rug Decor", "shop": "furniture"}}, {"type": "node", "id": 10284252716, "lat": 48.1955483, "lon": -114.3128756, "tags": {"name": "Music One Workshop", "shop": "musical_instrument"}}, {"type": "node", "id": 10284252717, "lat": 48.1954187, "lon": -114.3128139, "tags": {"contact:phone": "+1 406 755 8552", "contact:website": "https://www.ceresbakerymt.com/", "name": "Ceres Bakery", "opening_hours": "Mo-Sa 07:00-15:00", "shop": "bakery"}}, {"type": "node", "id": 10284265401, "lat": 48.1953141, "lon": -114.3123539, "tags": {"contact:phone": "+1 406 755 1500", "contact:website": "https://www.toggerymontana.com/", "name": "The Toggery", "shop": "clothes"}}, {"type": "node", "id": 10284944333, "lat": 48.1989258, "lon": -114.3120568, "tags": {"addr:unit": "Suite A", "contact:phone": "+1 406 755 5689", "contact:website": "http://www.spiritkalispell.com/", "name": "Spirit Skate Shop", "opening_hours": "Mo-Fr 11:00-18:00; Sa 11:00-16:00", "shop": "sports", "sport": "skateboard"}}, {"type": "node", "id": 10285231536, "lat": 48.2007572, "lon": -114.3110771, "tags": {"name": "Super 1 Foods", "opening_hours": "Mo-Su 00:00-24:00", "shop": "supermarket"}}, {"type": "node", "id": 10285810837, "lat": 48.1961191, "lon": -114.3126645, "tags": {"contact:phone": "+1 406 752 2646", "contact:website": "https://www.coinscarats.com/", "name": "Coins and Carats", "shop": "jewelry"}}, {"type": "node", "id": 10285810838, "lat": 48.1965823, "lon": -114.3128398, "tags": {"beauty": "nails;waxing", "name": "House of Nails", "shop": "beauty"}}, {"type": "node", "id": 10285810839, "lat": 48.1965148, "lon": -114.3128161, "tags": {"clothes": "wedding", "name": "Mimi's Bridal", "shop": "clothes"}}, {"type": "node", "id": 10285810840, "lat": 48.1964493, "lon": -114.3127919, "tags": {"contact:phone": "+1 406 890 2505", "contact:website": "https://www.themontanascene.com/", "name": "The Montana Scene", "opening_hours": "Mo-Fr 09:00-18:00; Sa 10:00-17:00; Su 11:00-16:00", "shop": "clothes"}}, {"type": "node", "id": 10285810841, "lat": 48.1963186, "lon": -114.3127405, "tags": {"contact:phone": "+1 406 890 2299", "contact:website": "https://sageandcedar.com/", "name": "Sage & Cedar", "opening_hours": "Mo-Sa 10:00-18:00", "shop": "clothes"}}, {"type": "node", "id": 10286658437, "lat": 48.2021391, "lon": -114.3108451, "tags": {"addr:housenumber": "244", "addr:street": "East Idaho Street", "contact:email": "hausbeautylounge@gmail.com", "contact:phone": "+1 406 755 7254", "name": "Haus Beauty Lounge", "opening_hours": "Mo-Fr 08:00-18:00; Sa 10:00-16:00", "shop": "beauty"}}, {"type": "node", "id": 10286658440, "lat": 48.2021204, "lon": -114.3109645, "tags": {"addr:housenumber": "230", "addr:street": "East Idaho Street", "addr:unit": "A", "contact:phone": "+1 406 890 2522", "name": "Cricket Wireless", "opening_hours": "Mo-Fr 09:00-19:00; Sa 10:00-17:00; Su 11:00-16:00", "shop": "telecommunication"}}, {"type": "node", "id": 10286658441, "lat": 48.2021579, "lon": -114.3107378, "tags": {"addr:housenumber": "240", "addr:street": "East Idaho Street", "contact:phone": "+1 406 752 8227", "name": "The Temple Decor", "opening_hours": "Tu-Sa 11:00-18:30", "shop": "tattoo"}}, {"type": "node", "id": 10286658442, "lat": 48.2021802, "lon": -114.3106091, "tags": {"addr:housenumber": "154", "addr:street": "3rd Avenue East North", "contact:phone": "+1 406 257 3840", "name": "Murphy's State Liquor & Wine", "opening_hours": "Mo-Sa 09:00-21:00", "shop": "alcohol"}}, {"type": "node", "id": 10286658443, "lat": 48.202191, "lon": -114.3114701, "tags": {"brand": "Napa", "contact:phone": "+1 406 755 5248", "name": "Napa-Kalispell Auto Parts", "opening_hours": "Mo-Fr 07:30-19:00; Sa 07:30-18:00; Su 09:00-16:00", "shop": "car_parts"}}, {"type": "node", "id": 10286973673, "lat": 48.1989846, "lon": -114.319097}, {"type": "node", "id": 10286973674, "lat": 48.1990088, "lon": -114.3191023}, {"type": "node", "id": 10286973675, "lat": 48.1990552, "lon": -114.3190312}, {"type": "node", "id": 10286973676, "lat": 48.1990293, "lon": -114.3189669}, {"type": "node", "id": 10286973677, "lat": 48.198981, "lon": -114.3189481}, {"type": "node", "id": 10286973678, "lat": 48.1989837, "lon": -114.318932}, {"type": "node", "id": 10286973679, "lat": 48.1989605, "lon": -114.3189253}, {"type": "node", "id": 10286973680, "lat": 48.1989801, "lon": -114.31881}, {"type": "node", "id": 10286973681, "lat": 48.1990123, "lon": -114.3187791}, {"type": "node", "id": 10286973682, "lat": 48.1994794, "lon": -114.3162022}, {"type": "node", "id": 10286973683, "lat": 48.1994575, "lon": -114.3161948}, {"type": "node", "id": 10286973684, "lat": 48.1996376, "lon": -114.3154203}, {"type": "node", "id": 10286973685, "lat": 48.1990727, "lon": -114.3152024}, {"type": "node", "id": 10286975036, "lat": 48.1988452, "lon": -114.3144098, "tags": {"addr:city": "Kalispell", "addr:housenumber": "10", "addr:postcode": "59901", "addr:state": "MT", "addr:street": "North Main Street", "amenity": "cafe", "branch": "Main St and Center St - Kalisp", "brand": "Starbucks", "brand:wikidata": "Q37158", "cuisine": "coffee_shop", "name": "Starbucks", "official_name": "Starbucks Coffee", "phone": "+1 406-752-1011", "ref": "1006732", "shop": "coffee", "takeaway": "yes", "website": "https://www.starbucks.com/store-locator/store/1006732/main-st-and-center-st-kalisp-10-north-main-st-kalispell-mt-599014450-us"}}, {"type": "node", "id": 10287244414, "lat": 48.2013865, "lon": -114.315982, "tags": {"addr:city": "Kalispell", "addr:country": "US", "addr:housenumber": "40", "addr:postcode": "59901", "addr:state": "MT", "addr:street": "West Idaho Street", "brand": "Walgreens", "brand:wikidata": "Q1591889", "name": "Walgreens", "post_office": "post_partner", "post_office:brand": "FedEx OnSite", "post_office:website": "https://local.fedex.com/en-us/mt/kalispell/mnm7y", "shop": "chemist", "website": "https://www.walgreens.com/locator/walgreens-40+w+idaho+st-kalispell-mt-59901/id=9242"}}, {"type": "node", "id": 10288186205, "lat": 48.2019389, "lon": -114.3085686, "tags": {"cuisine": "coffee_shop", "name": "Express Way Drive Thru", "shop": "coffee"}}, {"type": "node", "id": 10288214616, "lat": 48.2023776, "lon": -114.3128751, "tags": {"contact:phone": "+1 406 257 9032", "contact:website": "https://uniqueaddiction.com/", "name": "Unique Addictions", "shop": "tattoo"}}, {"type": "node", "id": 10288484508, "lat": 48.1996336, "lon": -114.3092532, "tags": {"contact:email": "info@shepardsglass.com", "contact:fax": "+1 406 755 8294", "contact:phone": "+1 406 755 4540", "contact:website": "https://shepardsglass.com/", "name": "Shephard's Glass", "shop": "interior_decoration"}}, {"type": "node", "id": 10288550176, "lat": 48.2032015, "lon": -114.3096274, "tags": {"amenity": "cafe", "cuisine": "coffee_shop", "delivery": "no", "drive_through": "yes", "name": "Flathead Flavor Espresso", "takeaway": "only"}}, {"type": "node", "id": 10293970629, "lat": 48.2024162, "lon": -114.2979451, "tags": {"contact:phone": "+1 406 890 3915", "contact:website": "https://www.thewillowsalonmt.com/", "name": "The Willow Salon", "shop": "beauty"}}, {"type": "node", "id": 10294027351, "lat": 48.2007605, "lon": -114.2981527, "tags": {"amenity": "cafe", "cuisine": "donut;bagel;sandwich;coffee_shop", "name": "The Spot", "opening_hours": "We-Fr 07:00-13:00; Sa-Su 08:00-13:00", "takeaway": "only", "website": "https://www.thespotmt.com"}}, {"type": "node", "id": 10294027361, "lat": 48.1998875, "lon": -114.2982106, "tags": {"amenity": "fuel", "contact:phone": "+1 406 257 7867", "name": "Woodland Qwik Stop", "shop": "convenience"}}, {"type": "node", "id": 10294027362, "lat": 48.2000653, "lon": -114.2984976, "tags": {"contact:phone": "+1 406 755 5747", "name": "Cron Automotive", "opening_hours": "Mo-Fr 08:00-18:00", "shop": "car_repair"}}, {"type": "node", "id": 10294454033, "lat": 48.1990043, "lon": -114.3104361, "tags": {"amenity": "cafe", "cuisine": "american;greek;mexican", "name": "Food for the Soul", "opening_hours": "Mo-Fr 07:00-15:00", "website": "https://www.foodforthesoulmt.com/"}}, {"type": "node", "id": 10294539717, "lat": 48.2042459, "lon": -114.3036971, "tags": {"contact:phone": "+1 406 755 7000", "contact:website": "https://dailyinterlake.com/", "name": "The Daily Interlake", "office": "newspaper"}}, {"type": "node", "id": 10294539718, "lat": 48.2037024, "lon": -114.304495, "tags": {"contact:phone": "+1 406 752 0191", "contact:website": "https://lcstaffing.com/", "name": "LC Staffing", "office": "company"}}, {"type": "node", "id": 10294539719, "lat": 48.2037185, "lon": -114.303752, "tags": {"contact:phone": "+1 406 755 6033", "contact:website": "https://bitneysfurniture.com/", "name": "Bitney's Furniture", "opening_hours": "Mo-Sa 09:00-18:00; Su 12:00-16:00", "shop": "furniture"}}, {"type": "node", "id": 10294606906, "lat": 48.2035049, "lon": -114.3079993, "tags": {"contact:phone": "+1 406 755 4642", "name": "First National Pawn", "shop": "pawnbroker"}}, {"type": "node", "id": 10294620402, "lat": 48.2028211, "lon": -114.3158823, "tags": {"addr:unit": "A", "government": "treasury", "name": "Flathead County Treasurer", "office": "government", "wheelchair": "yes"}}, {"type": "node", "id": 10294620407, "lat": 48.2022473, "lon": -114.3163718, "tags": {"brand": "Rent-A-Center", "brand:wikidata": "Q7313497", "contact:phone": "+1 406 756 1110", "contact:website": "https://www.rentacenter.com/?location=04038", "name": "Rent-A-Center", "rental": "yes", "shop": "furniture"}}, {"type": "node", "id": 10294651486, "lat": 48.2039751, "lon": -114.3051294, "tags": {"contact:phone": "+1 406 300 1333", "contact:website": "https://www.burchsframes.com/", "name": "Burch's Custom Framing & Prints", "shop": "frame"}}, {"type": "node", "id": 10294651493, "lat": 48.2039009, "lon": -114.3054338, "tags": {"name": "Safelite AutoGlass", "opening_hours": "Mo-Fr 08:00-17:00", "service": "glass", "shop": "car_repair"}}, {"type": "node", "id": 10294741388, "lat": 48.1958809, "lon": -114.3118081, "tags": {"contact:phone": "+1 406 758 7718", "government": "public_service", "name": "Kalispell Parks and Recreation", "office": "government", "opening_hours": "Mo-Fr 08:00-17:00"}}, {"type": "node", "id": 10300793299, "lat": 48.1982685, "lon": -114.3117172, "tags": {"contact:phone": "+1 406 300 3136", "contact:website": "https://www.lemontreemontana.com", "name": "Lemontree Home Decor", "opening_hours": "Tu-Sa 10:00-18:00", "shop": "furniture"}}, {"type": "node", "id": 10301975134, "lat": 48.1995245, "lon": -114.2993948, "tags": {"name": "Pickets", "shop": "gift"}}, {"type": "node", "id": 10302017018, "lat": 48.1976021, "lon": -114.3113555, "tags": {"clothes": "workwear", "contact:phone": "+1 406 755-2000", "name": "High Country Linen Supply", "shop": "dry_cleaning"}}, {"type": "node", "id": 10309867648, "lat": 48.1946257, "lon": -114.311906, "tags": {"amenity": "cafe", "contact:phone": "+1 406 257 6530", "contact:website": "https://www.wheatmontanakalispell.com/", "cuisine": "sandwich", "name": "Wheat Montana Bakery and Deli", "opening_hours": "Mo-Fr 07:00-15:00; Sa 08:00-15:00"}}, {"type": "node", "id": 10310247186, "lat": 48.1977564, "lon": -114.315303, "tags": {"contact:phone": "+1 406 257 5573", "name": "Blacktail Mountain Books", "shop": "books"}}, {"type": "node", "id": 10310428943, "lat": 48.1972804, "lon": -114.3091821, "tags": {"beauty": "nails;skin_care;massage;eyelash;waxing", "contact:phone": "+1 406 314 6191", "name": "Est.1989 Salon and Spa", "opening_hours": "Mo-Th 08:30-20:00; Fr 08:30-19:00; Sa 09:00-19:00; Su 12:00-16:00", "shop": "beauty"}}, {"type": "node", "id": 10311615018, "lat": 48.1932865, "lon": -114.3114017, "tags": {"contact:phone": "+1 406 752 6666", "contact:website": "https://www.jgfuneralhome.com/", "name": "Johnson - Gloschat Funeral Home and Crematory", "shop": "funeral_directors"}}, {"type": "node", "id": 10311615025, "lat": 48.1937818, "lon": -114.3117598, "tags": {"name": "Performance Real Estate", "office": "estate_agent"}}, {"type": "node", "id": 10311615026, "lat": 48.194134, "lon": -114.3115573, "tags": {"addr:housenumber": "21", "addr:street": "5th Street East", "amenity": "cafe", "contact:email": "thekneadcafe@yahoo.com", "contact:facebook": "thekneadcafe", "contact:phone": "+1 406 755-3883", "cuisine": "american", "name": "The Knead Cafe", "opening_hours": "Tu-Sa 08:00-15:00", "takeaway": "yes"}}, {"type": "node", "id": 10311615027, "lat": 48.1943332, "lon": -114.3119728, "tags": {"addr:housenumber": "433", "addr:street": "South Main Street", "hairdresser": "barber", "name": "Joe's Barber Shop", "shop": "hairdresser"}}, {"type": "node", "id": 10311615029, "lat": 48.1951889, "lon": -114.3122908, "tags": {"name": "Cross Country Mortgage", "office": "financial"}}, {"type": "node", "id": 10311615030, "lat": 48.1954107, "lon": -114.3123928, "tags": {"amenity": "restaurant", "contact:phone": "+1 406 890 2583", "contact:website": "https://www.bluesamuraimt.com/", "cuisine": "sushi", "name": "Blue Samurai", "opening_hours": "Mo-Sa 16:00-22:00"}}, {"type": "node", "id": 10311855143, "lat": 48.196453, "lon": -114.3080154, "tags": {"contact:website": "https://www.fsecoop.com/", "name": "Flathead Special Education Cooperative", "office": "educational_institution"}}, {"type": "node", "id": 10313309703, "lat": 48.1980836, "lon": -114.3133362, "tags": {"addr:unit": "A", "contact:phone": "+1 406 314 6464", "contact:website": "https://www.naturebabyoutfitter.com/", "name": "Nature Baby Outfitter", "opening_hours": "Mo-Fr 10:00-18:00; Sa 09:00-18:00; Su 11:00-16:00", "shop": "clothes"}}, {"type": "node", "id": 10313309704, "lat": 48.1981189, "lon": -114.313115, "tags": {"addr:unit": "B", "contact:phone": "+1 406 890 2667", "name": "Website Express", "office": "company"}}, {"type": "node", "id": 10313309705, "lat": 48.1976464, "lon": -114.3132122, "tags": {"contact:phone": "+1 406 756 2665", "name": "The Bookshelf", "opening_hours": "Mo-Fr 10:00-17:00; Sa 10:00-16:00", "shop": "books"}}, {"type": "node", "id": 10313309706, "lat": 48.197304, "lon": -114.3130727, "tags": {"contact:phone": "+1 406 755 5321", "contact:website": "https://www.montanamodernfineart.com/", "name": "Montana Modern Fine Art", "opening_hours": "Tu-Sa 11:00-18:00", "shop": "art"}}, {"type": "node", "id": 10313309707, "lat": 48.1974989, "lon": -114.3131545, "tags": {"contact:phone": "+1 406 393 2202", "contact:website": "https://www.brixbottleshop.com/", "name": "Brix Bottleshop", "opening_hours": "Mo-Sa 10:00-18:00", "shop": "wine"}}, {"type": "node", "id": 10377832823, "lat": 48.1944344, "lon": -114.312558, "tags": {"amenity": "cafe", "contact:phone": "+1 406 407-0235", "contact:website": "https://coltercoffee.com/", "cuisine": "coffee_shop", "name": "Colter Coffee", "opening_hours": "Mo-Fr 06:00-18:00; Sa 07:00-14:00; Su off", "wheelchair": "yes"}}, {"type": "node", "id": 10383884945, "lat": 48.1943822, "lon": -114.3117789, "tags": {"addr:street": "South Main Street", "name": "Sapphire Salon", "shop": "beauty"}}, {"type": "node", "id": 10383884946, "lat": 48.1942558, "lon": -114.3119504, "tags": {"name": "Cheveux Salon", "shop": "beauty"}}, {"type": "node", "id": 10383884947, "lat": 48.194305, "lon": -114.3119676, "tags": {"addr:housenumber": "435", "addr:street": "South Main Street", "contact:email": "info@corental.net", "contact:fax": "+1 406 752-5601", "contact:phone": "+1 406 752-5600", "contact:website": "http://www.corental.net/", "name": "CoRental Property Management", "office": "property_management"}}, {"type": "node", "id": 10548084858, "lat": 48.1972557, "lon": -114.3159623, "tags": {"addr:housenumber": "136", "addr:street": "1st Street West", "beauty": "skin_care;nails;eyelash", "name": "Mad Hair Day", "shop": "hairdresser"}}, {"type": "node", "id": 10565140798, "lat": 48.1956266, "lon": -114.3130449, "tags": {"amenity": "restaurant", "contact:phone": "+1 406 890 7800", "cuisine": "italian", "name": "Bella Italia Ristorante", "old_name": "ScottiBelli's Ristorante Italiano", "opening_hours": "Tu-Sa 17:00-21:00"}}, {"type": "node", "id": 10565155948, "lat": 48.1858872, "lon": -114.3080221, "tags": {"amenity": "restaurant", "contact:phone": "+1 406 260 4401", "contact:website": "https://www.montanaclub.com/", "name": "The Montana Club", "opening_hours": "Mo-Su 11:00-21:00"}}, {"type": "node", "id": 10565220097, "lat": 48.1968231, "lon": -114.3120776, "tags": {"addr:housenumber": "30", "addr:street": "2nd Street East", "amenity": "restaurant", "contact:phone": "+1 406 300 0808", "contact:website": "https://www.mercantilesteak.com/", "cuisine": "steak_house", "name": "Mercantile Steak", "opening_hours": "Mo-Th 07:00-21:00; Fr-Sa 07:00-21:30"}}, {"type": "node", "id": 10565352601, "lat": 48.1945422, "lon": -114.3152843, "tags": {"contact:phone": "+1 406 752 7680", "contact:website": "http://www.ibew768.com/", "name": "International Brotherhood of Electrical Workers 768", "office": "union"}}, {"type": "node", "id": 10574972527, "lat": 48.1970357, "lon": -114.3129612, "tags": {"addr:housenumber": "149", "addr:street": "South Main Street", "amenity": "cafe", "beauty": "spa", "contact:website": "https://cozykalispell.com/", "cuisine": "teahouse", "name": "Cozy Kalispell", "shop": "beauty"}}, {"type": "node", "id": 10574972528, "lat": 48.1969727, "lon": -114.3129455, "tags": {"addr:housenumber": "149", "addr:street": "South Main Street", "contact:phone": "+1 406 309 3483", "contact:website": "https://jingshenhealingarts.com/", "healthcare": "alternative", "healthcare:speciality": "acupuncture;herbalism", "name": "Jing Shen Healing Arts", "opening_hours": "Mo 08:00-17:00; Tu-We 08:00-19:00; Th 08:00-17:00; Fr 08:00-15:00", "shop": "herbalist"}}, {"type": "node", "id": 10574972529, "lat": 48.1970034, "lon": -114.3129539, "tags": {"addr:housenumber": "149", "addr:street": "South Main Street", "contact:website": "https://ancientwaysapothecary.com/", "name": "Ancient Ways Apothecary", "shop": "tea"}}, {"type": "node", "id": 10574972530, "lat": 48.1970018, "lon": -114.3128145, "tags": {"addr:housenumber": "17", "addr:street": "2nd Street East", "addr:unit": "101", "contact:email": "kalispellsmilelabs@gmail.com", "name": "Kalispell Smile Labs", "shop": "beauty"}}, {"type": "node", "id": 10574972531, "lat": 48.1970115, "lon": -114.3126982, "tags": {"addr:housenumber": "19", "addr:street": "2nd Street East", "contact:email": "artifactiontattoostudio406@gmail.com", "contact:website": "https://www.artifactiontattoo.com/", "name": "Artifaction Tattoo", "opening_hours": "Mo-Sa 11:00-19:00", "shop": "tattoo"}}, {"type": "node", "id": 10574972532, "lat": 48.1970357, "lon": -114.3125721, "tags": {"addr:housenumber": "21", "addr:street": "2nd Street East", "name": "Wendy's Rainbow", "opening_hours": "Tu-Fr 10:00-18:00; Sa 10:00-16:00", "shop": "gift"}}, {"type": "node", "id": 10574999889, "lat": 48.1970826, "lon": -114.3130036, "tags": {"addr:housenumber": "139", "addr:street": "South Main Street", "contact:phone": "+1 406 755 9276", "contact:website": "http://www.camascreekcottage.com/", "name": "Camas Creek Cottage", "opening_hours": "Mo-Tu 10:00-17:00; We 10:00-14:00; Th-Fr 10:00-17:00; Sa 10:00-14:00", "shop": "wool"}}, {"type": "node", "id": 10574999890, "lat": 48.1971173, "lon": -114.3130182, "tags": {"addr:housenumber": "137", "addr:street": "South Main Street", "contact:email": "info@bbbsnwmontana.org", "contact:phone": "+1 406 752 0093", "contact:website": "https://www.bbbsnwmontana.org/", "name": "Big Brothers Big Sisters", "office": "association", "opening_hours": "Mo-Fr 09:00-17:00"}}, {"type": "node", "id": 10575027696, "lat": 48.1972345, "lon": -114.3130594, "tags": {"contact:phone": "+1 406 272 7367", "contact:website": "https://www.instyprints.com/", "name": "Insty-Prints", "opening_hours": "Mo-Fr 08:00-17:00", "shop": "copyshop"}}, {"type": "node", "id": 10575027697, "lat": 48.1973686, "lon": -114.3130982, "tags": {"brand": "Berkshire Hathaway HomeServices", "brand:wikidata": "Q5887960", "contact:phone": "+1 406 309 6330", "contact:website": "https://www.bhhsmt.com/", "name": "Berkshire Hathaway HomeServices", "office": "estate_agent", "short_name": "Berkshire Hathaway"}}, {"type": "node", "id": 10577632758, "lat": 48.1982095, "lon": -114.3126307, "tags": {"addr:unit": "D", "contact:email": "contact@montavinowinery.com", "contact:phone": "+1 406 300 1330", "contact:website": "https://www.montavinowinery.com/", "drink:wine": "retail;served", "name": "MontaVino Winery and Tasting Room", "opening_hours": "Tu-Fr 15:00-21:00; Sa 14:00-21:00", "shop": "alcohol"}}, {"type": "node", "id": 10585093955, "lat": 48.1955765, "lon": -114.3160429, "tags": {"contact:email": "ogle.mark@gmail.com", "contact:phone": "+1 406 249-3177", "contact:website": "https://www.markogle.com/", "name": "Mark Ogle Studio", "shop": "art"}}, {"type": "node", "id": 10585093956, "lat": 48.1956037, "lon": -114.3160516, "tags": {"contact:phone": "+1 406 871-0414", "contact:website": "https://abbresciaart.com/", "name": "Abbrescia Gallery and Fine Art Restoration Studio", "shop": "art"}}, {"type": "node", "id": 10585093957, "lat": 48.1956239, "lon": -114.3161834, "tags": {"contact:phone": "+1 406 755-1353", "contact:website": "http://www.artisticbarbering.com/", "hairdresser": "barber", "name": "Artistic Barbering", "opening_hours": "Tu-Fr 09:00-18:00; Sa 09:00-15:00", "shop": "hairdresser"}}, {"type": "node", "id": 10585093959, "lat": 48.1961428, "lon": -114.3163222, "tags": {"contact:phone": "+1 406 257-4305", "contact:website": "https://sykesmt.com/", "name": "Sykes Market", "opening_hours": "Mo-Su 07:00-15:00", "shop": "convenience"}}, {"type": "node", "id": 10585093970, "lat": 48.1959533, "lon": -114.3163329, "tags": {"amenity": "cafe", "contact:phone": "+1 406 257-4304", "contact:website": "https://sykesmt.com/", "delivery": "no", "name": "Sykes Diner", "opening_hours": "Mo-Su 07:00-15:00", "wheelchair": "yes"}}, {"type": "node", "id": 10777191743, "lat": 48.2040484, "lon": -114.2990877, "tags": {"contact:phone": "+1 406 755-2497", "name": "Anderson Masonry Hearth & Home", "opening_hours": "Mo-Fr 07:00-17:00", "shop": "trade", "trade": "building_supplies"}}, {"type": "node", "id": 10790490984, "lat": 48.2028372, "lon": -114.315724, "tags": {"contact:email": "dmvcontactus@flathead.mt.gov", "contact:phone": "+1 406 758-5690", "contact:website": "https://flathead.mt.gov/department-directory/treasurer/motor-vehicles", "government": "transportation", "name": "Flathead County Department of Motor Vehicles", "office": "government", "opening_hours": "Mo-Fr 08:00-16:30", "wheelchair": "yes"}}, {"type": "node", "id": 10913121289, "lat": 48.1836849, "lon": -114.3071558, "tags": {"amenity": "restaurant", "contact:phone": "+1 406 752-6800", "contact:website": "https://www.casamexicomt.com/", "cuisine": "mexican", "name": "Casa Mexico", "opening_hours": "Mo-Su 11:00-22:00"}}, {"type": "node", "id": 10913166544, "lat": 48.1866593, "lon": -114.3087136, "tags": {"contact:email": "info@witheyshealthfoods.com", "contact:phone": "+1 406 755-5260", "contact:website": "https://witheyshealthfoods.com/", "name": "Withey's Health Foods", "opening_hours": "Mo-Sa 09:00-18:00", "shop": "health_food;brewing_supplies;pet;alcohol"}}, {"type": "node", "id": 10913265572, "lat": 48.1772592, "lon": -114.3011883, "tags": {"amenity": "restaurant", "contact:phone": "+1 406 756-0060", "contact:website": "https://www.mackenzieriverpizza.com/", "cuisine": "pizza", "name": "MacKenzie River Pizza", "opening_hours": "Su-Th 11:00-21:00; Fr-Sa 11:00-22:00", "takeaway": "yes"}}, {"type": "node", "id": 10913531194, "lat": 48.1839505, "lon": -114.3058455, "tags": {"addr:unit": "Suite G", "contact:phone": "+1 406 607-1607", "contact:website": "https://lj-sunshine-massage.business.site", "name": "L.J Sunshine Massage", "opening_hours": "Mo-Fr 09:00-21:30; Sa-Su 09:30-21:30", "shop": "massage"}}, {"type": "node", "id": 10915219414, "lat": 48.1949297, "lon": -114.3144044, "tags": {"amenity": "bar", "contact:email": "info@kalispellvfw.com", "contact:phone": "+1 406 752-2611", "contact:website": "https://www.kalispellvfw.com", "name": "VFW Post 2252"}}, {"type": "node", "id": 10926541593, "lat": 48.1741709, "lon": -114.2990099, "tags": {"name": "Murdoch's Ranch & Home Supply", "opening_hours": "Mo-Sa 07:30-19:00; Su 09:00-18:00", "shop": "agrarian"}}, {"type": "node", "id": 11044422017, "lat": 48.1936468, "lon": -114.3023412, "tags": {"contact:phone": "+1 406 755-5959", "contact:website": "https://www.woodlandfloralkalispell.com/", "name": "Woodland Floral", "shop": "florist"}}, {"type": "node", "id": 11107825538, "lat": 48.2037883, "lon": -114.3309751, "tags": {"government": "forestry", "name": "Fish Wildlife & Parks Department", "office": "government"}}, {"type": "node", "id": 11108824272, "lat": 48.2009847, "lon": -114.3204656, "tags": {"brand": "Glass Doctor", "brand:wikidata": "Q121935489", "craft": "glaziery", "name": "Glass Doctor", "shop": "car_repair"}}, {"type": "node", "id": 11110036915, "lat": 48.2019237, "lon": -114.3215901, "tags": {"name": "Photo Video Plus", "opening_hours": "Mo-Fr 08:00-18:00; Sa 09:00-17:00,11:00-16:00", "shop": "photo"}}, {"type": "node", "id": 11110036916, "lat": 48.2014339, "lon": -114.3217242, "tags": {"brand": "Fastenal", "brand:wikidata": "Q3067119", "name": "Fastenal", "opening_hours": "Mo-Fr 07:30-17:00", "shop": "trade"}}, {"type": "node", "id": 11110183824, "lat": 48.2010282, "lon": -114.3231437, "tags": {"brand": "AmeriGas", "brand:wikidata": "Q23130318", "fuel:lpg": "yes", "name": "AmeriGas", "shop": "gas"}}, {"type": "node", "id": 11113049595, "lat": 48.1994308, "lon": -114.3156493}, {"type": "node", "id": 11113049596, "lat": 48.1991797, "lon": -114.3155546}, {"type": "node", "id": 11113049597, "lat": 48.1991168, "lon": -114.3159303}, {"type": "node", "id": 11113049598, "lat": 48.1993679, "lon": -114.316025}, {"type": "node", "id": 11113052225, "lat": 48.1990222, "lon": -114.3190818}, {"type": "node", "id": 11113054379, "lat": 48.1994494, "lon": -114.3208927, "tags": {"name": "Flathead Industries Clearance Store", "shop": "charity"}}, {"type": "node", "id": 11114408797, "lat": 48.2013579, "lon": -114.3169431, "tags": {"name": "Alpine Lighting", "shop": "lighting"}}, {"type": "node", "id": 11114408798, "lat": 48.2011264, "lon": -114.3168439, "tags": {"name": "Fidelity National Title", "office": "company"}}, {"type": "node", "id": 11126283697, "lat": 48.1961509, "lon": -114.3148148, "tags": {"email": "salesandinfo@wheatonscycle.com", "name": "Wheaton's Cycle", "opening_hours": "Tu-Fr 10:00-18:00; Sa 10:00-17:00", "phone": "+1 406 257-5808", "service:bicycle:rental": "yes", "service:bicycle:repair": "yes", "service:bicycle:retail": "yes", "shop": "bicycle", "website": "https://www.wheatonscycle.com/"}}, {"type": "node", "id": 11158241698, "lat": 48.2045623, "lon": -114.3155833, "tags": {"name": "Paper Chase", "opening_hours": "Mo-Fr 08:30-18:00", "phone": "+1 406 752-4944", "shop": "copyshop"}}, {"type": "node", "id": 11188955030, "lat": 48.1952204, "lon": -114.3154447, "tags": {"contact:phone": "+1 406 309-6166", "contact:website": "https://www.blackriflecoffee.com", "name": "Black Rifle Coffee Company", "opening_hours": "Mo-Su 06:00-18:00", "shop": "coffee", "wheelchair": "yes"}}, {"type": "node", "id": 11189074786, "lat": 48.1963019, "lon": -114.3151943, "tags": {"contact:phone": "+1 406 755-3674", "name": "Pettyjohn's Water Store", "shop": "water"}}, {"type": "node", "id": 11191347820, "lat": 48.2064142, "lon": -114.330033, "tags": {"amenity": "cafe", "cuisine": "coffee_shop", "delivery": "no", "drive_through": "yes", "name": "Copper Mountain Coffee", "opening_hours": "Mo-Su 06:00-19:00", "takeaway": "only", "website": "https://coppermountaincoffee.com"}}, {"type": "node", "id": 11191435016, "lat": 48.1986637, "lon": -114.3289836, "tags": {"addr:unit": "Suite 105", "contact:email": "info@heroicrealms.com", "contact:phone": "+1 406 885-1243", "name": "Heroic Realms", "opening_hours": "Tu-Fr 13:00-21:00; Sa 12:00-20:00", "shop": "games"}}, {"type": "node", "id": 11196062473, "lat": 48.1848115, "lon": -114.3066703, "tags": {"name": "Tire-Rama", "shop": "tyres"}}, {"type": "node", "id": 11328299090, "lat": 48.1963663, "lon": -114.3273635, "tags": {"contact:email": "sales@vwrsupply.com", "contact:phone": "+1 406 314-4456", "contact:website": "https://vwrsupply.com/", "name": "Valley Wide Restaurant Supply", "opening_hours": "Mo-Fr 09:00-16:00", "shop": "restaurant_equipment_and_supply"}}, {"type": "node", "id": 11351956477, "lat": 48.2022678, "lon": -114.3173723, "tags": {"name": "Tool Palace and Pawn", "shop": "second_hand"}}, {"type": "node", "id": 11364102880, "lat": 48.1975408, "lon": -114.3137208, "tags": {"addr:city": "Kalispell", "addr:postcode": "59901", "addr:state": "MT", "addr:street": "100 S Main St STE 500", "email": "contact@technoly.co", "name": "Technoly Solutions LLC", "office": "advertising_agency", "opening_hours": "24/7", "phone": "+1 661-320-7537", "website": "https://technoly.co/"}}, {"type": "node", "id": 11378058107, "lat": 48.2008774, "lon": -114.3252097, "tags": {"contact:phone": "+1 406 260-4094", "name": "El Caporal Mexican Market", "shop": "convenience"}}, {"type": "node", "id": 11406888346, "lat": 48.199168, "lon": -114.3166516, "tags": {"name": "Phillips Studio and Gallery", "shop": "art"}}, {"type": "node", "id": 11406888347, "lat": 48.1987937, "lon": -114.3174905, "tags": {"name": "Steam Mountain Games", "shop": "toys"}}, {"type": "node", "id": 11406888349, "lat": 48.1989848, "lon": -114.317673, "tags": {"name": "Big Sky Sports Cards and Collectibles", "shop": "collector"}}, {"type": "node", "id": 11406888350, "lat": 48.1990859, "lon": -114.3177725, "tags": {"name": "Lenscrafters", "shop": "optician"}}, {"type": "node", "id": 11406888351, "lat": 48.1989248, "lon": -114.3172038, "tags": {"beauty": "nails", "name": "Foxy Nails", "shop": "beauty"}}, {"type": "node", "id": 11406888354, "lat": 48.1989879, "lon": -114.3168246, "tags": {"name": "Isle of Misfits", "shop": "anime"}}, {"type": "node", "id": 11406888355, "lat": 48.1991222, "lon": -114.3170095, "tags": {"clothes": "women", "contact:phone": "+1 406 283-1151", "name": "The Sunflower Moose", "shop": "clothes"}}, {"type": "node", "id": 11433222058, "lat": 48.1966318, "lon": -114.3221895, "tags": {"addr:unit": "3", "diet:gluten_free": "yes", "name": "Red Poppy Bakery", "opening_hours": "Tu-Fr 10:00-14:00", "shop": "bakery"}}, {"type": "node", "id": 11433318306, "lat": 48.1969465, "lon": -114.3236768, "tags": {"amenity": "cafe", "cuisine": "coffee_shop", "delivery": "no", "drive_through": "yes", "name": "Copper Mountain Coffee", "opening_hours": "Mo-Su 06:00-19:00", "takeaway": "only", "website": "https://coppermountaincoffee.com"}}, {"type": "node", "id": 11449635071, "lat": 48.1966738, "lon": -114.3110544, "tags": {"contact:email": "jbslaw@jbsattorneys.com", "contact:fax": "+1 406 756-9436", "contact:website": "https://jbsattorneys.com/", "name": "Johnson Berg & Saxby, PLLP", "office": "lawyer", "opening_hours": "Mo-Fr 08:30-17:00", "phone": "+1 406 755-5535"}}, {"type": "node", "id": 12303461360, "lat": 48.2020783, "lon": -114.3078044, "tags": {"addr:city": "Kalispell", "addr:housenumber": "490", "addr:postcode": "59901", "addr:state": "MT", "addr:street": "East Montana Street", "addr:unit": "2", "fax": "+1-888-490-0611", "name": "Core Water Consulting, LLC", "office": "consulting", "phone": "+1 406-890-2073", "website": "https://corewaterconsulting.com/"}}, {"type": "way", "id": 55364817, "nodes": [695626406, 695626407, 695626409, 2950229404, 2950229405, 2950229409, 2950229407, 2950229410, 695626419, 2950229408, 695626428, 10286973685, 695626430, 695626438, 10286973684, 695626441, 2950229425, 2950229423, 10286973683, 10286973682, 2950229422, 2950229424, 695626444, 695626446, 695626449, 695626451, 695626454, 695626456, 695626459, 695626461, 695626463, 695626468, 10286973681, 10286973680, 10286973679, 10286973678, 10286973677, 10286973676, 10286973675, 11113052225, 10286973674, 10286973673, 695626406]}, {"type": "way", "id": 384946934, "nodes": [3883009901, 3883009902, 3883009903, 3883009904, 3883009905, 3883009906, 3883009907, 3883009908, 3883009909, 3883009910, 3883009911, 3883009912, 3883009913, 3883009914, 3883009901], "tags": {"building": "yes", "building:levels": "1", "name": "Rosauers Supermarket", "shop": "supermarket"}}, {"type": "way", "id": 554968908, "nodes": [5355291083, 5355291084, 5355291085, 5355291086, 5355291083], "tags": {"addr:city": "Kalispell", "addr:housenumber": "2210", "addr:postcode": "59901", "addr:state": "MT", "addr:street": "Hwy 93 South", "building": "yes", "name": "Montana Liquor & Wine", "shop": "alcohol"}}, {"type": "way", "id": 797140650, "nodes": [7455183817, 7455183818, 7455183819, 7455183820, 7455183817], "tags": {"addr:city": "Kalispell", "addr:housenumber": "115", "addr:postcode": "59901", "addr:state": "MT", "addr:street": "Kelly Road", "building": "yes", "name": "Anything Pawn", "opening_hours": "Tu-Sa 10:00-17:00", "payment:cash": "yes", "payment:cheque": "yes", "payment:debit_cards": "yes", "phone": "+1 406-755-0010", "shop": "pawnbroker"}}, {"type": "way", "id": 1197837596, "nodes": [11113049598, 11113049597, 11113049596, 11113049595, 11113049598], "tags": {"leisure": "park", "name": "Red Lion Hotel Park - Kalispell MT"}}, {"type": "relation", "id": 16198141, "members": [{"type": "way", "ref": 1197837596, "role": "inner"}, {"type": "way", "ref": 55364817, "role": "outer"}], "tags": {"addr:housenumber": "20", "addr:postcode": "59901", "addr:state": "MT", "addr:street": "North Main Street", "building": "yes", "name": "Kalispell Center Mall", "shop": "mall", "type": "multipolygon", "website": "https://kalispellcentermall.com/", "wikidata": "Q15964600"}}]}