{"version": 0.6, "generator": "Overpass API 0.7.62.8 e802775f", "osm3s": {"timestamp_osm_base": "2025-12-06T04:20:15Z", "copyright": "The data included in this document is from www.openstreetmap.org. The data is made available under ODbL."}, "elements": [{"type": "node", "id": 2548763842, "lat": 45.6492104, "lon": -110.5711573}, {"type": "node", "id": 2548763846, "lat": 45.649268, "lon": -110.5717316}, {"type": "node", "id": 2548763848, "lat": 45.6492933, "lon": -110.5717264}, {"type": "node", "id": 2548763850, "lat": 45.6493038, "lon": -110.5718309}, {"type": "node", "id": 2548763855, "lat": 45.6493978, "lon": -110.5711189}, {"type": "node", "id": 2548763858, "lat": 45.6494676, "lon": -110.5717972}, {"type": "node", "id": 3445321570, "lat": 45.6421147, "lon": -110.5760539}, {"type": "node", "id": 3445321580, "lat": 45.6428382, "lon": -110.5744899}, {"type": "node", "id": 3445321586, "lat": 45.6419026, "lon": -110.5760521}, {"type": "node", "id": 3445321800, "lat": 45.6419444, "lon": -110.5734386}, {"type": "node", "id": 3445321804, "lat": 45.6431362, "lon": -110.5746507}, {"type": "node", "id": 3445321812, "lat": 45.6417353, "lon": -110.5736684}, {"type": "node", "id": 3445321816, "lat": 45.6421144, "lon": -110.5761192}, {"type": "node", "id": 3445321819, "lat": 45.6417158, "lon": -110.5734898}, {"type": "node", "id": 3445321824, "lat": 45.6431354, "lon": -110.574487}, {"type": "node", "id": 3445321844, "lat": 45.642839, "lon": -110.5746536}, {"type": "node", "id": 3445321850, "lat": 45.6425079, "lon": -110.5760052}, {"type": "node", "id": 3445321853, "lat": 45.6419056, "lon": -110.5753421}, {"type": "node", "id": 3445321855, "lat": 45.6413117, "lon": -110.5751987, "tags": {"name": "Town Pump", "shop": "convenience"}}, {"type": "node", "id": 3445321859, "lat": 45.6425834, "lon": -110.5760058}, {"type": "node", "id": 3445321863, "lat": 45.6419639, "lon": -110.5736172}, {"type": "node", "id": 3445321872, "lat": 45.6425074, "lon": -110.5761226}, {"type": "node", "id": 3445321875, "lat": 45.6425861, "lon": -110.5753479}, {"type": "node", "id": 3445370740, "lat": 45.6472995, "lon": -110.5738335}, {"type": "node", "id": 3447467481, "lat": 45.6607699, "lon": -110.5609025, "tags": {"amenity": "bar", "name": "Hiatt House"}}, {"type": "node", "id": 3447467609, "lat": 45.6609393, "lon": -110.5611311, "tags": {"addr:city": "Livingston", "addr:housenumber": "102", "addr:postcode": "59047", "addr:street": "North 2nd Street", "amenity": "restaurant", "cuisine": "chicken", "name": "The Wok"}}, {"type": "node", "id": 3447467629, "lat": 45.6558107, "lon": -110.5729282}, {"type": "node", "id": 3447467656, "lat": 45.6561739, "lon": -110.5737214}, {"type": "node", "id": 3447467664, "lat": 45.6560267, "lon": -110.5729339}, {"type": "node", "id": 3447467675, "lat": 45.6558117, "lon": -110.5728492}, {"type": "node", "id": 3447467710, "lat": 45.6556324, "lon": -110.573707}, {"type": "node", "id": 3447467731, "lat": 45.6560277, "lon": -110.572855}, {"type": "node", "id": 3447467735, "lat": 45.6561841, "lon": -110.5729381}, {"type": "node", "id": 3447467750, "lat": 45.6556426, "lon": -110.5729237}, {"type": "node", "id": 3447595402, "lat": 45.663072, "lon": -110.5591745}, {"type": "node", "id": 3447595411, "lat": 45.6630118, "lon": -110.5592795}, {"type": "node", "id": 3447595414, "lat": 45.6639998, "lon": -110.5577187, "tags": {"addr:city": "Livingston", "addr:housenumber": "322", "addr:postcode": "59047", "addr:street": "East Park Street", "name": "Off the Cuff Dry Cleaning & Laundry", "phone": "+14062227428", "shop": "laundry", "website": "http://offthecuffcleaners.com/"}}, {"type": "node", "id": 3447595423, "lat": 45.6623015, "lon": -110.5619914, "tags": {"amenity": "restaurant", "name": "The Northern Pacific Beanery"}}, {"type": "node", "id": 3447595455, "lat": 45.664026, "lon": -110.5584697, "tags": {"addr:city": "Livingston", "addr:housenumber": "305", "addr:postcode": "59047", "addr:street": "East Park Street", "amenity": "restaurant", "cuisine": "seafood;steak_house", "name": "Montana's Rib & Chop House"}}, {"type": "node", "id": 3447595465, "lat": 45.6631772, "lon": -110.5594737}, {"type": "node", "id": 3447595518, "lat": 45.6632374, "lon": -110.5593687}, {"type": "node", "id": 3447636074, "lat": 45.6601634, "lon": -110.5717661, "tags": {"name": "Matt's Old Fashioned Butcher Shop & Deli", "shop": "butcher"}}, {"type": "node", "id": 3449022815, "lat": 45.6524301, "lon": -110.5710002, "tags": {"name": "Town & Country Foods", "shop": "supermarket"}}, {"type": "node", "id": 3449022853, "lat": 45.6511142, "lon": -110.5715678}, {"type": "node", "id": 3449022867, "lat": 45.6512043, "lon": -110.5715474}, {"type": "node", "id": 3449022896, "lat": 45.6511449, "lon": -110.5718462}, {"type": "node", "id": 3449022897, "lat": 45.651235, "lon": -110.571825}, {"type": "node", "id": 4523169579, "lat": 45.6576257, "lon": -110.5774732}, {"type": "node", "id": 4523169580, "lat": 45.6576594, "lon": -110.5773176}, {"type": "node", "id": 4523169581, "lat": 45.6573983, "lon": -110.5772016}, {"type": "node", "id": 4523169582, "lat": 45.6573646, "lon": -110.5773572}, {"type": "node", "id": 4523169583, "lat": 45.658555, "lon": -110.567504}, {"type": "node", "id": 4523169584, "lat": 45.6584453, "lon": -110.567302}, {"type": "node", "id": 4523169585, "lat": 45.6583859, "lon": -110.567368}, {"type": "node", "id": 4523169586, "lat": 45.6584956, "lon": -110.56757}, {"type": "node", "id": 4523169895, "lat": 45.6537815, "lon": -110.570168, "tags": {"name": "Livingston Meats", "shop": "butcher"}}, {"type": "node", "id": 4523169902, "lat": 45.6475148, "lon": -110.5717159}, {"type": "node", "id": 4523169903, "lat": 45.6474107, "lon": -110.5717373}, {"type": "node", "id": 4523169904, "lat": 45.6474232, "lon": -110.5718614}, {"type": "node", "id": 4523169905, "lat": 45.6475273, "lon": -110.57184}, {"type": "node", "id": 4523169914, "lat": 45.64254, "lon": -110.5733945}, {"type": "node", "id": 4523169915, "lat": 45.6426341, "lon": -110.5734243}, {"type": "node", "id": 4523169916, "lat": 45.6425085, "lon": -110.5733211}, {"type": "node", "id": 4523169917, "lat": 45.6425306, "lon": -110.5731853}, {"type": "node", "id": 4523169918, "lat": 45.6426665, "lon": -110.5732322}, {"type": "node", "id": 4523169938, "lat": 45.6421469, "lon": -110.5746765}, {"type": "node", "id": 4523169939, "lat": 45.6420803, "lon": -110.5746765}, {"type": "node", "id": 4523169940, "lat": 45.6420803, "lon": -110.5746202}, {"type": "node", "id": 4523169941, "lat": 45.6421469, "lon": -110.5746202}, {"type": "node", "id": 4523169950, "lat": 45.6451898, "lon": -110.5739914}, {"type": "node", "id": 4523169951, "lat": 45.6451382, "lon": -110.5739908}, {"type": "node", "id": 4523169952, "lat": 45.6451378, "lon": -110.5740665}, {"type": "node", "id": 4523169953, "lat": 45.6450806, "lon": -110.5740658}, {"type": "node", "id": 4523169954, "lat": 45.6450815, "lon": -110.573913}, {"type": "node", "id": 4523169955, "lat": 45.6451903, "lon": -110.5739143}, {"type": "node", "id": 4523169956, "lat": 45.6466898, "lon": -110.5738908}, {"type": "node", "id": 4523169957, "lat": 45.6465414, "lon": -110.5739054}, {"type": "node", "id": 4523169958, "lat": 45.6465399, "lon": -110.5738743}, {"type": "node", "id": 4523169959, "lat": 45.6464436, "lon": -110.5738838}, {"type": "node", "id": 4523169960, "lat": 45.646456, "lon": -110.5741407}, {"type": "node", "id": 4523169961, "lat": 45.6467007, "lon": -110.5741166}, {"type": "node", "id": 4523169962, "lat": 45.6507078, "lon": -110.5725295}, {"type": "node", "id": 4523169963, "lat": 45.6505465, "lon": -110.5725657}, {"type": "node", "id": 4523169964, "lat": 45.6505674, "lon": -110.572756}, {"type": "node", "id": 4523169965, "lat": 45.6507287, "lon": -110.5727198}, {"type": "node", "id": 4523169967, "lat": 45.6548475, "lon": -110.5723046, "tags": {"name": "Yellowstone Gifts & Sports", "shop": "gift"}}, {"type": "node", "id": 4523169968, "lat": 45.6547655, "lon": -110.5723, "tags": {"addr:city": "Livingston", "addr:housenumber": "1106", "addr:postcode": "59047-2955", "addr:state": "MT", "addr:street": "West Park Street", "addr:unit": "1", "brand": "Ace Hardware", "brand:wikidata": "Q4672981", "name": "Ace", "opening_hours": "Mo-Fr 08:00-19:00; Sa 08:00-18:00; Su 09:00-17:00", "phone": "+1 406-222-0202", "ref": "06457", "shop": "hardware"}}, {"type": "node", "id": 4523169977, "lat": 45.6553215, "lon": -110.5706385}, {"type": "node", "id": 4523169978, "lat": 45.6551912, "lon": -110.5707149}, {"type": "node", "id": 4523169979, "lat": 45.6552173, "lon": -110.570806}, {"type": "node", "id": 4523169980, "lat": 45.6553476, "lon": -110.5707295}, {"type": "node", "id": 4523169981, "lat": 45.6554849, "lon": -110.5705542, "tags": {"amenity": "cafe"}}, {"type": "node", "id": 4523169982, "lat": 45.6556813, "lon": -110.5704031, "tags": {"name": "Dillon's Vibe", "shop": "music"}}, {"type": "node", "id": 4523170098, "lat": 45.6636778, "lon": -110.559426}, {"type": "node", "id": 4523170099, "lat": 45.6635381, "lon": -110.5596759}, {"type": "node", "id": 4523170100, "lat": 45.6634212, "lon": -110.559542}, {"type": "node", "id": 4523170101, "lat": 45.6635609, "lon": -110.5592921}, {"type": "node", "id": 4523170120, "lat": 45.6673456, "lon": -110.552464}, {"type": "node", "id": 4523170121, "lat": 45.6672472, "lon": -110.5526479}, {"type": "node", "id": 4523170122, "lat": 45.6671862, "lon": -110.552581}, {"type": "node", "id": 4523170123, "lat": 45.6672846, "lon": -110.5523971}, {"type": "node", "id": 4523170150, "lat": 45.655679, "lon": -110.5796622}, {"type": "node", "id": 4523170151, "lat": 45.655484, "lon": -110.5795817}, {"type": "node", "id": 4523170152, "lat": 45.6555084, "lon": -110.5762021}, {"type": "node", "id": 4523170153, "lat": 45.6563539, "lon": -110.5766018}, {"type": "node", "id": 4523170175, "lat": 45.6576129, "lon": -110.5683773}, {"type": "node", "id": 4523170176, "lat": 45.6574967, "lon": -110.5682592}, {"type": "node", "id": 4523170177, "lat": 45.6575554, "lon": -110.5681408}, {"type": "node", "id": 4523170178, "lat": 45.6576716, "lon": -110.5682588}, {"type": "node", "id": 4523170181, "lat": 45.6595256, "lon": -110.5659264}, {"type": "node", "id": 4523170182, "lat": 45.6593574, "lon": -110.5657459}, {"type": "node", "id": 4523170183, "lat": 45.65949, "lon": -110.5654928}, {"type": "node", "id": 4523170184, "lat": 45.6596582, "lon": -110.5656733}, {"type": "node", "id": 4523170185, "lat": 45.6617422, "lon": -110.5630303, "tags": {"name": "The Gourmet Cellar", "shop": "deli"}}, {"type": "node", "id": 4523170304, "lat": 45.6674421, "lon": -110.5516144}, {"type": "node", "id": 4523170305, "lat": 45.6672228, "lon": -110.551381}, {"type": "node", "id": 4523170306, "lat": 45.6673245, "lon": -110.5511855}, {"type": "node", "id": 4523170307, "lat": 45.6675438, "lon": -110.551419}, {"type": "node", "id": 4523170312, "lat": 45.6682087, "lon": -110.5499174}, {"type": "node", "id": 4523170313, "lat": 45.6681129, "lon": -110.5501013}, {"type": "node", "id": 4523170314, "lat": 45.6680012, "lon": -110.5499822}, {"type": "node", "id": 4523170315, "lat": 45.667924, "lon": -110.5501306}, {"type": "node", "id": 4523170316, "lat": 45.6679523, "lon": -110.5501608}, {"type": "node", "id": 4523170317, "lat": 45.6679363, "lon": -110.5501916}, {"type": "node", "id": 4523170318, "lat": 45.6679505, "lon": -110.5502068}, {"type": "node", "id": 4523170319, "lat": 45.6679015, "lon": -110.550301}, {"type": "node", "id": 4523170320, "lat": 45.6680394, "lon": -110.5504481}, {"type": "node", "id": 4523170321, "lat": 45.6682775, "lon": -110.5499907}, {"type": "node", "id": 5363817250, "lat": 45.6639389, "lon": -110.5580086}, {"type": "node", "id": 5363817251, "lat": 45.663824, "lon": -110.557882}, {"type": "node", "id": 5363817252, "lat": 45.6638744, "lon": -110.5577883}, {"type": "node", "id": 5363817253, "lat": 45.6639893, "lon": -110.5579149}, {"type": "node", "id": 5462397103, "lat": 45.6564689, "lon": -110.5576714, "tags": {"addr:city": "Livingston", "addr:housenumber": "420", "addr:postcode": "59047", "addr:state": "MT", "addr:street": "South 2nd Street", "consulate": "honorary_consul", "country": "CZ", "diplomatic": "consulate", "email": "livingston@honorary.mzv.cz", "name": "Honorary Consulate of the Czech Republic", "name:cs": "Honor\u00e1rn\u00ed konzul\u00e1t \u010cesk\u00e9 republiky", "office": "diplomatic", "opening_hours": "We 09:00-12:00", "phone": "+1-406 222 2023", "target": "US"}}, {"type": "node", "id": 6005457691, "lat": 45.6613943, "lon": -110.5597956, "tags": {"addr:city": "Livingston", "addr:housenumber": "101", "addr:postcode": "59047", "addr:street": "South Main Street", "name": "The Frame Garden", "shop": "frame", "website": "https://www.theframegarden.com/"}}, {"type": "node", "id": 6005457693, "lat": 45.6614235, "lon": -110.5602589, "tags": {"amenity": "restaurant", "cuisine": "pizza", "delivery": "yes", "name": "Farmgirl Pizzeria", "outdoor_seating": "no", "smoking": "no", "takeaway": "yes"}}, {"type": "node", "id": 6005457695, "lat": 45.6614615, "lon": -110.5603666, "tags": {"addr:city": "Livingston", "addr:housenumber": "103", "addr:postcode": "59047", "addr:street": "North Main Street", "amenity": "restaurant", "name": "The Soup Bar"}}, {"type": "node", "id": 6005457696, "lat": 45.6620281, "lon": -110.5604812, "tags": {"adult_gaming": "yes", "amenity": "restaurant", "bar": "yes", "contact:facebook": "https://www.facebook.com/thestockmanbar", "contact:phone": "+1 406-222-8455", "cuisine": "regional", "name": "The Stockman"}}, {"type": "node", "id": 6005457697, "lat": 45.6617525, "lon": -110.5601643, "tags": {"addr:city": "Livingston", "addr:housenumber": "108", "addr:postcode": "59047", "addr:street": "North Main Street", "name": "Insty-Prints", "shop": "copyshop"}}, {"type": "node", "id": 6005457699, "lat": 45.6613334, "lon": -110.5597262, "tags": {"addr:city": "Livingston", "addr:postcode": "59047", "name": "Home on the Range", "shop": "kitchen", "website": "https://www.livingstonkitchenshop.com/"}}, {"type": "node", "id": 6005457700, "lat": 45.661187, "lon": -110.5595144, "tags": {"addr:city": "Livingston", "addr:housenumber": "109", "addr:postcode": "59047", "addr:street": "South Main Street", "amenity": "cafe", "cuisine": "breakfast", "internet_access": "wlan", "name": "Pinky\u2019s", "opening_hours": "Mo-Sa 07:30-14:00; Su 07:30-12:30", "outdoor_seating": "no", "smoking": "no", "website": "https://www.pinkyscafemt.com/", "wheelchair": "yes"}}, {"type": "node", "id": 6005457701, "lat": 45.6614867, "lon": -110.5603372, "tags": {"addr:city": "Livingston", "addr:housenumber": "103", "addr:postcode": "59047", "addr:street": "North Main Street", "name": "Moon River Cake Shop", "shop": "pastry"}}, {"type": "node", "id": 6005457705, "lat": 45.6618034, "lon": -110.5602161, "tags": {"addr:city": "Livingston", "addr:housenumber": "110", "addr:postcode": "59047", "addr:street": "North Main Street", "amenity": "bar", "name": "Whiskey Creek Saloon", "website": "https://www.whiskeycreekmontana.com/"}}, {"type": "node", "id": 6005457706, "lat": 45.6620784, "lon": -110.5605314, "tags": {"addr:city": "Livingston", "addr:housenumber": "120", "addr:postcode": "59047", "addr:street": "North Main Street", "name": "Elk River Books", "opening_hours": "Mo-Fr 10:00-18:00; Sa 12:00-16:00", "shop": "books", "website": "https://elkriverbooks.com/"}}, {"type": "node", "id": 6005457707, "lat": 45.6612803, "lon": -110.5596589, "tags": {"addr:city": "Livingston", "addr:housenumber": "107", "addr:postcode": "59047", "addr:street": "South Main Street", "name": "Riverside Hardware", "shop": "hardware"}}, {"type": "node", "id": 6005457708, "lat": 45.6615899, "lon": -110.5599899, "tags": {"addr:city": "Livingston", "addr:housenumber": "102", "addr:postcode": "59047", "addr:street": "North Main Street", "amenity": "restaurant", "cuisine": "regional", "name": "The Mint Bar & Grill", "website": "https://www.themintbarandgrill.com/"}}, {"type": "node", "id": 6005457709, "lat": 45.6616431, "lon": -110.5600518, "tags": {"addr:city": "Livingston", "addr:housenumber": "104", "addr:state": "MT", "addr:street": "North Main Street", "amenity": "cafe", "name": "Chadz", "opening_hours": "Mo-Su 07:00-14:30"}}, {"type": "node", "id": 6005457710, "lat": 45.6619132, "lon": -110.5603382, "tags": {"addr:city": "Livingston", "addr:housenumber": "114", "addr:state": "MT", "addr:street": "North Main Street", "name": "Bob\u2019s Outdoors", "shop": "outdoor"}}, {"type": "node", "id": 6005457711, "lat": 45.6620493, "lon": -110.5605054, "tags": {"name": "Wheatgrass Saloon", "shop": "health_food"}}, {"type": "node", "id": 6005568569, "lat": 45.6608486, "lon": -110.5590795, "tags": {"addr:housenumber": "121", "addr:street": "North Main Street", "name": "CTA Architects Engineers", "office": "architect"}}, {"type": "node", "id": 6005568570, "lat": 45.661075, "lon": -110.5598934, "tags": {"name": "Art of Photography", "shop": "photo"}}, {"type": "node", "id": 6005568572, "lat": 45.6612299, "lon": -110.5600797, "tags": {"addr:housenumber": "104", "addr:street": "South Main Street", "name": "Leavitt Group", "office": "insurance"}}, {"type": "node", "id": 6005568573, "lat": 45.6613216, "lon": -110.5604667, "tags": {"name": "Jumping Off Point", "shop": "outdoor"}}, {"type": "node", "id": 6005568574, "lat": 45.6610627, "lon": -110.560406, "tags": {"name": "The Progress", "shop": "clothes"}}, {"type": "node", "id": 6005568575, "lat": 45.6605825, "lon": -110.5588535, "tags": {"name": "The Pickle Barrel", "shop": "deli"}}, {"type": "node", "id": 6005568576, "lat": 45.6609581, "lon": -110.5605748, "tags": {"name": "Cactus Blossom Collective", "shop": "craft"}}, {"type": "node", "id": 6005568577, "lat": 45.6604207, "lon": -110.5591732, "tags": {"name": "The Office", "shop": "alcohol"}}, {"type": "node", "id": 6005568578, "lat": 45.6608749, "lon": -110.5607214, "tags": {"alt_name": "Edward Jones Investments", "brand": "Edward Jones", "brand:wikidata": "Q5343830", "name": "Edward Jones", "office": "financial_advisor"}}, {"type": "node", "id": 6005568579, "lat": 45.6610112, "lon": -110.5593463, "tags": {"name": "Park Photo", "shop": "photo"}}, {"type": "node", "id": 6005568580, "lat": 45.6606425, "lon": -110.5594142, "tags": {"addr:city": "Livingston", "addr:housenumber": "124", "addr:postcode": "59047", "addr:street": "South Main Street", "name": "Livingston Home Outfitters", "shop": "houseware"}}, {"type": "node", "id": 6005568581, "lat": 45.661188, "lon": -110.561395, "tags": {"addr:city": "Livingston", "addr:housenumber": "110", "addr:postcode": "59047", "addr:street": "North 2nd Street", "amenity": "bar", "name": "Owl", "website": "https://theowllounge.com/"}}, {"type": "node", "id": 6005568583, "lat": 45.6609201, "lon": -110.5597391, "tags": {"name": "1 Sixteen", "shop": "wine"}}, {"type": "node", "id": 6005568584, "lat": 45.661652, "lon": -110.5618857, "tags": {"addr:city": "Livingston", "addr:housenumber": "130", "addr:postcode": "59047", "addr:street": "North 2nd Street", "name": "Alchemy Exchange", "opening_hours": "Mo-Sa 11:00-15:00", "shop": "books", "website": "https://www.alchemyexchange.org/"}}, {"type": "node", "id": 6005569987, "lat": 45.6618654, "lon": -110.5619022, "tags": {"amenity": "restaurant", "cuisine": "mexican", "name": "Fiesta en Jalisco"}}, {"type": "node", "id": 6005569989, "lat": 45.6611705, "lon": -110.5602274, "tags": {"name": "Sax & Fryer", "shop": "books"}}, {"type": "node", "id": 6005569992, "lat": 45.6612186, "lon": -110.5606263, "tags": {"name": "Studio Ryker", "shop": "interior_decoration"}}, {"type": "node", "id": 6005569993, "lat": 45.6603645, "lon": -110.5586672, "tags": {"name": "Markouture", "shop": "copyshop"}}, {"type": "node", "id": 6005569996, "lat": 45.6610131, "lon": -110.5611933, "tags": {"addr:city": "Livingston", "addr:housenumber": "104", "addr:postcode": "59047", "addr:street": "North 2nd Street", "amenity": "cafe", "name": "Coffee Crossing"}}, {"type": "node", "id": 6005569998, "lat": 45.6607514, "lon": -110.5595594, "tags": {"amenity": "restaurant", "name": "Spork"}}, {"type": "node", "id": 6005569999, "lat": 45.661422, "lon": -110.562061, "tags": {"addr:city": "Livingston", "addr:housenumber": "123", "addr:postcode": "59047", "addr:street": "North 2nd Street", "amenity": "restaurant", "name": "2nd Street Bistro", "website": "http://secondstreetbistro.com"}}, {"type": "node", "id": 6005570001, "lat": 45.6609987, "lon": -110.5598151, "tags": {"addr:city": "Livingston", "addr:housenumber": "112", "addr:postcode": "59047", "addr:street": "South Main Street", "amenity": "restaurant", "name": "The Sport", "opening_hours": "Tu-Sa 11:00-21:00", "website": "https://www.thesportlivingston406.com/"}}, {"type": "node", "id": 6005570005, "lat": 45.6619856, "lon": -110.5616872, "tags": {"addr:city": "Livingston", "addr:housenumber": "113", "addr:postcode": "59047", "addr:street": "West Park Street", "amenity": "cafe", "name": "Montana Cup"}}, {"type": "node", "id": 6005570009, "lat": 45.6611231, "lon": -110.5608111, "tags": {"name": "Paoli & Brown", "office": "lawyer"}}, {"type": "node", "id": 6005570010, "lat": 45.6601593, "lon": -110.558936, "tags": {"name": "Main Street Emporium", "shop": "clothes"}}, {"type": "node", "id": 6005570011, "lat": 45.6609219, "lon": -110.5606476, "tags": {"addr:city": "Livingston", "addr:housenumber": "113", "addr:postcode": "59047", "addr:street": "West Callender Street", "name": "Livingston Kite Company", "shop": "toys"}}, {"type": "node", "id": 6005570012, "lat": 45.6610998, "lon": -110.5594433, "tags": {"addr:city": "Livingston", "addr:housenumber": "113", "addr:postcode": "59047", "addr:street": "South Main Street", "name": "High Trash", "shop": "boutique"}}, {"type": "node", "id": 6005570014, "lat": 45.661111, "lon": -110.56132, "tags": {"name": "The Obsidian", "shop": "gift"}}, {"type": "node", "id": 6005570015, "lat": 45.6609603, "lon": -110.5592713, "tags": {"name": "Curated Closet", "shop": "clothes"}}, {"type": "node", "id": 6005570016, "lat": 45.6608315, "lon": -110.5596443, "tags": {"amenity": "cafe", "name": "Cool Cafe"}}, {"type": "node", "id": 6005570017, "lat": 45.6616289, "lon": -110.5623132, "tags": {"addr:city": "Livingston", "addr:housenumber": "201", "addr:postcode": "59047", "addr:street": "West Park Street", "amenity": "cafe", "name": "Murray Cafe", "website": "https://www.themurraybar.com/"}}, {"type": "node", "id": 6005616628, "lat": 45.6621968, "lon": -110.5611752, "tags": {"addr:city": "Livingston", "addr:housenumber": "131", "addr:postcode": "59047", "addr:street": "North Main Street", "name": "Pura Vida", "shop": "beauty", "website": "https://www.puravida406.com/"}}, {"type": "node", "id": 6005616629, "lat": 45.6620463, "lon": -110.5610083, "tags": {"name": "Calamity\u2019s", "shop": "clothes"}}, {"type": "node", "id": 6005616630, "lat": 45.6620889, "lon": -110.5614832, "tags": {"name": "Ameriprise Financial", "office": "financial"}}, {"type": "node", "id": 6005616631, "lat": 45.662412, "lon": -110.5608673, "tags": {"amenity": "restaurant", "name": "Livingston Bar & Grille"}}, {"type": "node", "id": 6005616632, "lat": 45.6622112, "lon": -110.560682, "tags": {"name": "Glenn\u2019s", "shop": "alcohol"}}, {"type": "node", "id": 6005616633, "lat": 45.6621598, "lon": -110.5613664, "tags": {"addr:city": "Livingston", "addr:housenumber": "105", "addr:postcode": "59047", "addr:street": "West Park Street", "brand": "Engel & V\u00f6lkers", "brand:wikidata": "Q1341765", "name": "Engel & V\u00f6lkers", "office": "estate_agent"}}, {"type": "node", "id": 6005616635, "lat": 45.6621688, "lon": -110.5606258, "tags": {"addr:city": "Livingston", "addr:housenumber": "122", "addr:postcode": "59047", "addr:street": "North Main Street", "name": "The Edge Salon", "shop": "hairdresser"}}, {"type": "node", "id": 6005642852, "lat": 45.6679904, "lon": -110.5494347, "tags": {"amenity": "restaurant", "capacity": "50", "cuisine": "sushi", "name": "Neptune's Brewery", "outdoor_seating": "yes", "wheelchair": "yes"}}, {"type": "node", "id": 6433373486, "lat": 45.6472538, "lon": -110.5737253}, {"type": "node", "id": 6434656517, "lat": 45.6392308, "lon": -110.5765659}, {"type": "node", "id": 6434656518, "lat": 45.639232, "lon": -110.5758918}, {"type": "node", "id": 6434656519, "lat": 45.6385277, "lon": -110.5758891}, {"type": "node", "id": 6434656520, "lat": 45.6385265, "lon": -110.5765633}, {"type": "node", "id": 7837689938, "lat": 45.647363, "lon": -110.5736022}, {"type": "node", "id": 7837689939, "lat": 45.6473073, "lon": -110.5736026}, {"type": "node", "id": 7837689940, "lat": 45.6473075, "lon": -110.5736571}, {"type": "node", "id": 7837689941, "lat": 45.6472762, "lon": -110.5736127}, {"type": "node", "id": 7837689942, "lat": 45.6471872, "lon": -110.5736134}, {"type": "node", "id": 7837689943, "lat": 45.6471876, "lon": -110.5737258}, {"type": "node", "id": 7837689944, "lat": 45.6472542, "lon": -110.5738338}, {"type": "node", "id": 7837689945, "lat": 45.6473638, "lon": -110.573833}, {"type": "node", "id": 8581269475, "lat": 45.663195, "lon": -110.55906}, {"type": "node", "id": 8581269476, "lat": 45.663285, "lon": -110.559151}, {"type": "node", "id": 8581269477, "lat": 45.663234, "lon": -110.559252}, {"type": "node", "id": 8581269478, "lat": 45.663017, "lon": -110.55903}, {"type": "node", "id": 8581269479, "lat": 45.663232, "lon": -110.558602}, {"type": "node", "id": 8581269480, "lat": 45.663359, "lon": -110.558733}, {"type": "node", "id": 8581290552, "lat": 45.6638655, "lon": -110.5579737}, {"type": "node", "id": 8581290553, "lat": 45.6639266, "lon": -110.558042}, {"type": "node", "id": 8581290554, "lat": 45.6638786, "lon": -110.5581297}, {"type": "node", "id": 8581290555, "lat": 45.6637736, "lon": -110.5580123}, {"type": "node", "id": 8581290556, "lat": 45.6638357, "lon": -110.5583211}, {"type": "node", "id": 8581290557, "lat": 45.6637008, "lon": -110.5581752}, {"type": "node", "id": 8581290558, "lat": 45.6638139, "lon": -110.5581553}, {"type": "node", "id": 8581290559, "lat": 45.6638835, "lon": -110.5582306}, {"type": "node", "id": 8581408247, "lat": 45.6661774, "lon": -110.5533988, "tags": {"brand": "Town Pump", "brand:wikidata": "Q7830004", "name": "Town Pump", "shop": "convenience"}}, {"type": "node", "id": 9235948966, "lat": 45.655506, "lon": -110.576541}, {"type": "node", "id": 10946689861, "lat": 45.6419682, "lon": -110.5724509, "tags": {"amenity": "casino", "facebook": "https://www.facebook.com/HideoutCasino/", "name": "The Hideout Casino and Liquor Store", "shop": "alcohol"}}, {"type": "node", "id": 11914585183, "lat": 45.663809, "lon": -110.5581646}, {"type": "node", "id": 11914585184, "lat": 45.6637437, "lon": -110.558094}, {"type": "node", "id": 11914585185, "lat": 45.6638563, "lon": -110.5579905}, {"type": "node", "id": 11914585186, "lat": 45.6638282, "lon": -110.5579591}, {"type": "node", "id": 11914585187, "lat": 45.6638203, "lon": -110.5579735}, {"type": "node", "id": 11914585188, "lat": 45.6638045, "lon": -110.5579558}, {"type": "node", "id": 12151609809, "lat": 45.6643961, "lon": -110.5567777, "tags": {"addr:city": "Livingston", "addr:housenumber": "416", "addr:postcode": "59047", "addr:state": "MT", "addr:street": "East Park Street", "name": "Community Closet", "shop": "second_hand", "website": "https://communitycloset.org"}}, {"type": "node", "id": 12151618255, "lat": 45.6642975, "lon": -110.5569811, "tags": {"addr:city": "Livingston", "addr:housenumber": "412", "addr:postcode": "59047", "addr:state": "MT", "addr:street": "East Park Street", "name": "Food Works", "shop": "health_food", "website": "https://foodworkslivingston.com"}}, {"type": "node", "id": 12169806801, "lat": 45.647191, "lon": -110.5736453, "tags": {"addr:housenumber": "102", "addr:street": "Rogers Lane", "amenity": "restaurant", "cuisine": "mexican", "email": "lospinos@gmail.com", "name": "Los Pinos Mexican Restaurant", "opening_hours": "Mo-Sa 11:00-21:00", "phone": "+1 406-333-2604", "website": "http://lospinosmt.com/", "website:menu": "http://lospinosmt.com/menu.html"}}, {"type": "way", "id": 248030589, "nodes": [2548763855, 2548763842, 2548763846, 2548763848, 2548763850, 2548763858, 2548763855], "tags": {"addr:city": "Livingston", "addr:housenumber": "1415", "addr:postcode": "59047", "addr:state": "MT", "addr:street": "West Park Street", "brand": "Chrysler;Dodge;Jeep", "building": "yes", "name": "Yellowstone Country", "second_hand": "yes", "shop": "car", "source": "Bing", "website": "https://www.yellowstonecountrymotors.net/"}}, {"type": "way", "id": 337441688, "nodes": [3445321859, 3445321875, 3445321853, 3445321586, 3445321570, 3445321816, 3445321872, 3445321850, 3445321859], "tags": {"addr:city": "Livingston Montana", "addr:housenumber": "220", "addr:postcode": "59047", "addr:state": "MT", "addr:street": "Park Street South", "brand": "Albertsons", "brand:wikidata": "Q2831861", "building": "yes", "name": "Albertsons", "opening_hours": "Mo-Fr 06:00-23:00; Sa 06:00-23:00; Su 06:00-23:00", "phone": "+1 406-222-1177", "shop": "supermarket", "website": "https://local.albertsons.com/mt/livingston/2120-w-park-st.html"}}, {"type": "way", "id": 337441699, "nodes": [3445321804, 3445321824, 3445321580, 3445321844, 3445321804], "tags": {"addr:city": "Livingston", "addr:housenumber": "2000", "addr:postcode": "59047", "addr:state": "MT", "addr:street": "West Park Street", "amenity": "cafe", "branch": "2000 South Park St. - Livingston", "brand": "Starbucks", "brand:wikidata": "Q37158", "building": "commercial", "cuisine": "coffee_shop", "name": "Starbucks", "official_name": "Starbucks Coffee", "opening_hours": "Mo-Fr 06:00-18:00; Sa-Su 06:30-18:00", "phone": "+1 406-322-3303", "takeaway": "yes", "website": "https://www.starbucks.com/store-locator/store/1038302/2000-s-park-st-livingston-2000-s-park-st-livingston-mt-590474128-us"}}, {"type": "way", "id": 337441701, "nodes": [3445321863, 3445321800, 3445321819, 3445321812, 3445321863], "tags": {"building": "yes", "name": "Casey's Corner", "shop": "convenience"}}, {"type": "way", "id": 337681712, "nodes": [3447467656, 3447467735, 3447467664, 3447467731, 3447467675, 3447467629, 3447467750, 3447467710, 3447467656], "tags": {"addr:city": "Livingston", "addr:housenumber": "100", "addr:postcode": "59047", "addr:state": "MT", "addr:street": "Washington Street", "building": "yes", "name": "Kenyon Noble Lumber & Hardware", "shop": "doityourself", "website": "https://kenyonnoble.com/locations/livingston"}}, {"type": "way", "id": 337693716, "nodes": [3447595518, 3447595402, 3447595411, 3447595465, 3447595518], "tags": {"building": "yes", "name": "TJ's Gas & Convenience", "shop": "convenience"}}, {"type": "way", "id": 337843836, "nodes": [3449022897, 3449022867, 3449022853, 3449022896, 3449022897], "tags": {"addr:city": "Livingston", "addr:housenumber": "1319", "addr:postcode": "59047", "addr:state": "MT", "addr:street": "West Park Street", "amenity": "restaurant", "brand": "Pizza Hut", "brand:wikidata": "Q191615", "building": "yes", "cuisine": "pizza", "name": "Pizza Hut", "phone": "+1 406-222-7393", "website": "https://locations.pizzahut.com/mt/livingston/1319-w-park-st"}}, {"type": "way", "id": 455950033, "nodes": [4523169582, 4523169579, 4523169580, 4523169581, 4523169582], "tags": {"addr:city": "Livingston", "addr:housenumber": "1226", "addr:postcode": "59047", "addr:state": "MT", "addr:street": "West Front Street", "building": "yes", "name": "A-1 Muffler & Auto Repair", "shop": "car_repair"}}, {"type": "way", "id": 455950034, "nodes": [4523169586, 4523169583, 4523169584, 4523169585, 4523169586], "tags": {"building": "yes", "name": "Persnickety Cleaners", "shop": "dry_cleaning"}}, {"type": "way", "id": 455950038, "nodes": [4523169905, 4523169902, 4523169903, 4523169904, 4523169905], "tags": {"building": "yes", "name": "Billion Auto Group", "second_hand": "only", "shop": "car"}}, {"type": "way", "id": 455950041, "nodes": [4523169918, 4523169917, 4523169916, 4523169914, 4523169915, 4523169918], "tags": {"building": "yes", "name": "Zip Trip", "shop": "convenience"}}, {"type": "way", "id": 455950046, "nodes": [4523169941, 4523169940, 4523169939, 4523169938, 4523169941], "tags": {"addr:city": "Livingston", "addr:housenumber": "2120", "addr:postcode": "59047", "addr:state": "MT", "amenity": "cafe", "building": "yes", "cuisine": "coffee_shop", "name": "Coffee Creek", "takeaway": "only"}}, {"type": "way", "id": 455950049, "nodes": [4523169955, 4523169954, 4523169953, 4523169952, 4523169951, 4523169950, 4523169955], "tags": {"building": "commercial", "name": "Scrub Tub Laundry", "shop": "laundry"}}, {"type": "way", "id": 455950050, "nodes": [4523169961, 4523169960, 4523169959, 4523169958, 4523169957, 4523169956, 4523169961], "tags": {"addr:city": "Livingston", "addr:housenumber": "105", "addr:postcode": "59047", "addr:state": "MT", "addr:street": "Rogers Lane", "building": "retail", "name": "Matt's Old Fashioned Butcher Shop and Deli", "opening_hours": "Mo-Fr 08:00-18:00; Sa 09:00-17:00", "shop": "butcher", "website": "https://www.mattsbutchershopndeli.com/"}}, {"type": "way", "id": 455950051, "nodes": [4523169965, 4523169962, 4523169963, 4523169964, 4523169965], "tags": {"building": "retail", "name": "Rubber Ducky River Rentals", "shop": "boat"}}, {"type": "way", "id": 455950053, "nodes": [4523169980, 4523169977, 4523169978, 4523169979, 4523169980], "tags": {"building": "commercial", "name": "Big Sky Insurance Associates, LLC", "office": "insurance"}}, {"type": "way", "id": 455950056, "nodes": [4523170101, 4523170100, 4523170099, 4523170098, 4523170101], "tags": {"addr:city": "Livingston", "addr:housenumber": "201", "addr:postcode": "59047", "addr:state": "MT", "addr:street": "East Park Street", "building": "yes", "name": "Montana Auto Traders", "shop": "car", "website": "https://montanaautotraders.com/"}}, {"type": "way", "id": 455950061, "nodes": [4523170123, 4523170122, 4523170121, 4523170120, 4523170123], "tags": {"building": "yes", "name": "Good Time Sports", "second_hand": "only", "shop": "car"}}, {"type": "way", "id": 455950068, "nodes": [4523170153, 4523170152, 9235948966, 4523170151, 4523170150, 4523170153], "tags": {"name": "Starlo Mini Storage", "shop": "storage_rental"}}, {"type": "way", "id": 455950077, "nodes": [4523170178, 4523170177, 4523170176, 4523170175, 4523170178], "tags": {"alt_name": "Verizon Wireless", "brand": "Verizon", "brand:wikidata": "Q919641", "building": "yes", "name": "Verizon", "shop": "mobile_phone"}}, {"type": "way", "id": 455950078, "nodes": [4523170184, 4523170183, 4523170182, 4523170181, 4523170184], "tags": {"addr:city": "Livingston", "addr:housenumber": "501", "addr:postcode": "59047", "addr:state": "MT", "addr:street": "West Park Street", "brand": "Carquest", "brand:wikidata": "Q5045948", "building": "yes", "name": "Carquest", "official_name": "Carquest Auto Parts", "opening_hours": "Mo-Fr 07:30-18:00; Sa 08:00-16:00", "phone": "+1 406 222 1410", "shop": "car_parts", "website": "https://www.carquest.com/stores/mt/livingston/1912"}}, {"type": "way", "id": 455950084, "nodes": [4523170307, 4523170306, 4523170305, 4523170304, 4523170307], "tags": {"building": "yes", "name": "O'Connor Auto Body", "shop": "car_repair"}}, {"type": "way", "id": 455950089, "nodes": [4523170321, 4523170320, 4523170319, 4523170318, 4523170317, 4523170316, 4523170315, 4523170314, 4523170313, 4523170312, 4523170321], "tags": {"building": "commercial", "name": "Chappelle's Body Shop", "shop": "car_repair"}}, {"type": "way", "id": 556025106, "nodes": [5363817250, 5363817251, 5363817252, 5363817253, 5363817250], "tags": {"addr:city": "Livingston", "addr:housenumber": "318", "addr:postcode": "59047", "addr:state": "MT", "addr:street": "East Park Street", "building": "yes", "building:levels": "1", "name": "Paradise Impressions", "phone": "+14062225502", "shop": "hairdresser"}}, {"type": "way", "id": 686502028, "nodes": [6434656517, 6434656518, 6434656519, 6434656520, 6434656517], "tags": {"addr:housenumber": "2420", "addr:state": "MT", "addr:street": "South Park Drive", "building": "yes", "description": "Ranch supply store for animal feed & tack, tools, clothing & shoes, hardware, fencing & garden gear.", "name": "Murdoch's Ranch & Home Supply", "opening_hours": "Mo-Sa 07:30-07:00; Su 09:00-06:00", "shop": "department_store"}}, {"type": "way", "id": 839907022, "nodes": [7837689945, 3445370740, 7837689944, 6433373486, 7837689943, 7837689942, 7837689941, 7837689940, 7837689939, 7837689938, 7837689945], "tags": {"amenity": "restaurant", "building": "yes", "cuisine": "thai", "name": "Big Sky Thai"}}, {"type": "way", "id": 924603078, "nodes": [8581269475, 8581269476, 8581269477, 8581269478, 8581269479, 8581269480, 8581269475], "tags": {"addr:city": "Livingston", "addr:housenumber": "220", "addr:postcode": "59047", "addr:state": "MT", "addr:street": "East Park Street", "building": "yes", "building:levels": "1", "government": "yes", "name": "Livingston City Hall", "office": "government", "phone": "+14062222005", "source": "microsoft/BuildingFootprints"}}, {"type": "way", "id": 924603405, "nodes": [8581290552, 8581290553, 8581290554, 8581290555, 11914585188, 11914585187, 11914585186, 11914585185, 8581290552], "tags": {"addr:city": "Livingston", "addr:housenumber": "316", "addr:postcode": "59047", "addr:state": "MT", "addr:street": "East Park Street", "building": "yes", "building:levels": "1", "name": "Copper Moose Oil & Vinegar", "phone": "+14063332515", "shop": "grocery", "website": "https://coppermooseoilandvinegar.com/"}}, {"type": "way", "id": 924603406, "nodes": [8581290556, 8581290557, 11914585184, 11914585183, 8581290558, 8581290559, 8581290556], "tags": {"addr:city": "Livingston", "addr:housenumber": "312", "addr:postcode": "59047", "addr:state": "MT", "addr:street": "East Park Street", "brand": "Farmers Insurance", "brand:wikidata": "Q1396863", "building": "yes", "building:levels": "1", "name": "Farmers Insurance - Chase Leininger", "office": "insurance", "phone": "+14062229494", "website": "https://agents.farmers.com/mt/livingston/chase-leininger"}}]}