{"version": 0.6, "generator": "Overpass API 0.7.62.8 e802775f", "osm3s": {"timestamp_osm_base": "2025-12-06T04:26:36Z", "copyright": "The data included in this document is from www.openstreetmap.org. The data is made available under ODbL."}, "elements": [{"type": "node", "id": 5210868864, "lat": 45.5899974, "lon": -106.2630035}, {"type": "node", "id": 5210868865, "lat": 45.5899473, "lon": -106.2629133}, {"type": "node", "id": 5210868866, "lat": 45.5900815, "lon": -106.2627612}, {"type": "node", "id": 5210868867, "lat": 45.5901315, "lon": -106.2628515}, {"type": "node", "id": 5210868872, "lat": 45.5897575, "lon": -106.2625506}, {"type": "node", "id": 5210868873, "lat": 45.5897627, "lon": -106.2625453}, {"type": "node", "id": 5210868874, "lat": 45.5897327, "lon": -106.2624866}, {"type": "node", "id": 5210868875, "lat": 45.5898211, "lon": -106.2623945}, {"type": "node", "id": 5210868876, "lat": 45.589809, "lon": -106.2623708}, {"type": "node", "id": 5210868877, "lat": 45.589853, "lon": -106.262325}, {"type": "node", "id": 5210868878, "lat": 45.5898928, "lon": -106.2624029}, {"type": "node", "id": 5210868879, "lat": 45.5899253, "lon": -106.262369}, {"type": "node", "id": 5210868880, "lat": 45.5899647, "lon": -106.2624461}, {"type": "node", "id": 5210868881, "lat": 45.5899337, "lon": -106.2624784}, {"type": "node", "id": 5210868882, "lat": 45.589939, "lon": -106.2624889}, {"type": "node", "id": 5210868883, "lat": 45.5898, "lon": -106.2626338}, {"type": "node", "id": 5210869350, "lat": 45.5891292, "lon": -106.2628317}, {"type": "node", "id": 5210869351, "lat": 45.5890846, "lon": -106.2627466}, {"type": "node", "id": 5210869352, "lat": 45.5893544, "lon": -106.2624576}, {"type": "node", "id": 5210869353, "lat": 45.5893991, "lon": -106.2625427}, {"type": "node", "id": 5210869358, "lat": 45.5907254, "lon": -106.2642695}, {"type": "node", "id": 5210869359, "lat": 45.5906693, "lon": -106.2641637}, {"type": "node", "id": 5210869360, "lat": 45.5908951, "lon": -106.2639193}, {"type": "node", "id": 5210869361, "lat": 45.5909512, "lon": -106.2640251}, {"type": "node", "id": 5211202256, "lat": 45.590002, "lon": -106.2641634}, {"type": "node", "id": 5211202257, "lat": 45.5898434, "lon": -106.2638624}, {"type": "node", "id": 5211202258, "lat": 45.5900353, "lon": -106.2636559}, {"type": "node", "id": 5211202259, "lat": 45.5901939, "lon": -106.2639569}, {"type": "node", "id": 5211202264, "lat": 45.5902612, "lon": -106.2633891}, {"type": "node", "id": 5211202265, "lat": 45.5904271, "lon": -106.2632054}, {"type": "node", "id": 5211202266, "lat": 45.5905476, "lon": -106.2634276}, {"type": "node", "id": 5211202268, "lat": 45.5903818, "lon": -106.2636113}, {"type": "node", "id": 5211202275, "lat": 45.5906159, "lon": -106.2640437}, {"type": "node", "id": 5211202276, "lat": 45.5905427, "lon": -106.2639125}, {"type": "node", "id": 5211202277, "lat": 45.5906358, "lon": -106.2638065}, {"type": "node", "id": 5211202278, "lat": 45.590709, "lon": -106.2639377}, {"type": "way", "id": 538336092, "nodes": [5210868867, 5210868866, 5210868865, 5210868864, 5210868867], "tags": {"addr:city": "Ashland", "addr:housenumber": "104", "addr:postcode": "59003", "addr:state": "MT", "addr:street": "Main Street", "building": "yes", "name": "Ashland Mercantile", "shop": "convenience"}}, {"type": "way", "id": 538336094, "nodes": [5210868883, 5210868882, 5210868881, 5210868880, 5210868879, 5210868878, 5210868877, 5210868876, 5210868875, 5210868874, 5210868873, 5210868872, 5210868883], "tags": {"amenity": "bar", "building": "yes", "name": "Club Buffet Bar"}}, {"type": "way", "id": 538336109, "nodes": [5210869353, 5210869352, 5210869351, 5210869350, 5210869353], "tags": {"addr:city": "Ashland", "addr:housenumber": "105", "addr:postcode": "59003", "addr:state": "MT", "addr:street": "Main Street", "amenity": "cafe", "building": "yes", "name": "Maggie's Cafe"}}, {"type": "way", "id": 538336111, "nodes": [5210869361, 5210869360, 5210869359, 5210869358, 5210869361], "tags": {"addr:city": "Ashland", "addr:housenumber": "206", "addr:postcode": "59003", "addr:state": "MT", "addr:street": "Main Street", "amenity": "cafe", "building": "yes", "name": "Hitching Post Cafe"}}, {"type": "way", "id": 538371282, "nodes": [5211202259, 5211202258, 5211202257, 5211202256, 5211202259], "tags": {"addr:city": "Ashland", "addr:housenumber": "201", "addr:postcode": "59003", "addr:state": "MT", "addr:street": "Main Street", "building": "yes", "name": "T & R Trading", "shop": "convenience"}}, {"type": "way", "id": 538371285, "nodes": [5211202266, 5211202265, 5211202264, 5211202268, 5211202266], "tags": {"addr:city": "Ashland", "addr:housenumber": "200", "addr:postcode": "59003", "addr:state": "MT", "addr:street": "Main Street", "building": "yes", "name": "Fred's Hardware & Repair", "shop": "hardware"}}, {"type": "way", "id": 538371290, "nodes": [5211202278, 5211202277, 5211202276, 5211202275, 5211202278], "tags": {"addr:city": "Ashland", "addr:housenumber": "204", "addr:postcode": "59003", "addr:state": "MT", "addr:street": "Main Street", "amenity": "bar", "building": "yes", "name": "The Office"}}]}