{"version": 0.6, "generator": "Overpass API 0.7.62.8 e802775f", "osm3s": {"timestamp_osm_base": "2025-12-12T23:22:51Z", "copyright": "The data included in this document is from www.openstreetmap.org. The data is made available under ODbL."}, "elements": [{"type": "node", "id": 3807148124, "lat": 39.9001473, "lon": -105.02404, "tags": {"addr:city": "Westminster", "addr:housenumber": "11225", "addr:postcode": "80234", "addr:state": "CO", "addr:street": "Decatur Street", "addr:unit": "100", "leisure": "fitness_centre", "name": "Fitness 19"}}, {"type": "node", "id": 11040112028, "lat": 39.9144615, "lon": -105.0081652, "tags": {"leisure": "fitness_centre", "name": "Nutri\u2013fit by Natalie", "opening_hours": "\"by appointment\""}}, {"type": "node", "id": 11827032557, "lat": 39.9302543, "lon": -105.0134272, "tags": {"brand": "VASA Fitness", "brand:wikidata": "Q108816909", "leisure": "fitness_centre", "name": "VASA Fitness"}}, {"type": "node", "id": 11827032559, "lat": 39.9304643, "lon": -105.0140456, "tags": {"brand": "Curves", "brand:wikidata": "Q5196080", "leisure": "fitness_centre", "name": "Curves"}}]}