{"version": 0.6, "generator": "Overpass API 0.7.62.8 e802775f", "osm3s": {"timestamp_osm_base": "2025-12-08T22:17:00Z", "copyright": "The data included in this document is from www.openstreetmap.org. The data is made available under ODbL."}, "elements": [{"type": "node", "id": 357971163, "lat": 45.0233547, "lon": -109.9183851, "tags": {"amenity": "grave_yard", "ele": "2370", "gnis:feature_id": "1743127", "name": "Cooke City Cemetery", "wikidata": "Q117496822"}}, {"type": "node", "id": 357971302, "lat": 45.0201365, "lon": -109.9331134, "tags": {"amenity": "place_of_worship", "ele": "2308", "gnis:feature_id": "1743169", "name": "Saint Johns Catholic Church", "religion": "christian"}}, {"type": "node", "id": 357971591, "lat": 45.0198426, "lon": -109.9321809, "tags": {"addr:housenumber": "208", "addr:street": "East Main Street", "amenity": "post_office", "ele": "2308", "gnis:feature_id": "1743317", "name": "Cooke City Post Office", "operator": "United States Postal Service", "operator:short": "USPS", "operator:type": "public", "operator:website": "https://www.usps.com", "operator:wikidata": "Q668687", "operator:wikipedia": "en:United States Postal Service"}}, {"type": "node", "id": 3040237470, "lat": 45.0200411, "lon": -109.9331051, "tags": {"addr:housenumber": "115", "addr:street": "East Main Street", "amenity": "cafe", "name": "Beartooth Brew"}}, {"type": "node", "id": 3040237472, "lat": 45.0202905, "lon": -109.9309161, "tags": {"addr:housenumber": "302", "addr:street": "East Main Street", "guide": "hunting;fishing;outdoor", "name": "Beartooth Plateau Outfitters", "office": "guide", "phone": "+1-800-253-8545", "website": "http://www.elkhuntinmontana.com/"}}, {"type": "node", "id": 3040237480, "lat": 45.0202252, "lon": -109.9321751, "tags": {"addr:city": "Cooke City", "addr:postcode": "59020-1018", "addr:state": "MT", "name": "Yellowstone Trading Post", "shop": "gift"}}, {"type": "node", "id": 3040237482, "lat": 45.019957, "lon": -109.9330358, "tags": {"addr:city": "Cooke City", "addr:postcode": "59020-1018", "addr:state": "MT", "amenity": "fuel", "brand": "Sinclair", "brand:wikidata": "Q1290900", "check_date": "2024-09-25", "name": "Sinclair", "operator": "Beartooth Brew", "phone": "+1 406-838-2960", "self_service": "yes", "source": "survey", "website": "https://stations.sinclairoil.com/mt/cooke-city/115-main-st-e."}}, {"type": "node", "id": 3391727620, "lat": 45.0195738, "lon": -109.9353099}, {"type": "node", "id": 3391727621, "lat": 45.0196396, "lon": -109.9353381}, {"type": "node", "id": 3391727622, "lat": 45.0196444, "lon": -109.9353159}, {"type": "node", "id": 3391727623, "lat": 45.0197697, "lon": -109.9353696}, {"type": "node", "id": 3391727624, "lat": 45.0197954, "lon": -109.9352491}, {"type": "node", "id": 3391727625, "lat": 45.0194473, "lon": -109.9351001}, {"type": "node", "id": 3391727626, "lat": 45.019402, "lon": -109.9353118}, {"type": "node", "id": 4506030721, "lat": 45.0199129, "lon": -109.9320289, "tags": {"amenity": "restaurant", "name": "Prospector"}}, {"type": "node", "id": 4506030738, "lat": 45.0198199, "lon": -109.9323969}, {"type": "node", "id": 4506030739, "lat": 45.0197725, "lon": -109.9325444}, {"type": "node", "id": 4506030740, "lat": 45.0198277, "lon": -109.9325799}, {"type": "node", "id": 4506030741, "lat": 45.0198751, "lon": -109.9324324}, {"type": "node", "id": 6001653069, "lat": 45.0199864, "lon": -109.9317862, "tags": {"amenity": "pub", "name": "Ore House Saloon"}}, {"type": "node", "id": 6001653074, "lat": 45.0200465, "lon": -109.9326728, "tags": {"addr:city": "Cooke City", "addr:housenumber": "201", "addr:postcode": "59020-1018", "addr:state": "MT", "addr:street": "East Main Street", "amenity": "restaurant", "cuisine": "barbecue", "name": "Buns N Beds Deli", "outdoor_seating": "no", "phone": "+1 406 8382030", "smoking": "no", "website": "http://home.earthlink.net/~bunsnbeds/", "wheelchair": "yes"}}, {"type": "node", "id": 6001653075, "lat": 45.0199089, "lon": -109.9319085, "tags": {"amenity": "atm"}}, {"type": "node", "id": 6001653079, "lat": 45.0201226, "lon": -109.9324239, "tags": {"amenity": "restaurant", "name": "Beartooth Cafe"}}, {"type": "node", "id": 6008642906, "lat": 45.0195591, "lon": -109.935379}, {"type": "way", "id": 332063700, "nodes": [6008642906, 3391727620, 3391727621, 3391727622, 3391727623, 3391727624, 3391727625, 3391727626, 6008642906], "tags": {"access": "private", "addr:city": "Cooke City", "addr:housenumber": "114", "addr:postcode": "59020", "addr:state": "MT", "addr:street": "West Main Street", "amenity": "bar", "brewery": "yes", "building": "yes", "description": "Former motel.", "name": "Hoosier's Motel & Bar", "smoking": "outside", "tourism": "motel"}}, {"type": "way", "id": 453950476, "nodes": [4506030741, 4506030738, 4506030739, 4506030740, 4506030741], "tags": {"addr:city": "Cooke City", "addr:postcode": "59020-1018", "addr:state": "MT", "amenity": "fuel", "brand": "Exxon", "brand:wikidata": "Q4781944", "building": "roof", "fuel:diesel": "yes", "name": "Exxon"}}]}