{"version": 0.6, "generator": "Overpass API 0.7.62.8 e802775f", "osm3s": {"timestamp_osm_base": "2025-12-06T20:01:16Z", "copyright": "The data included in this document is from www.openstreetmap.org. The data is made available under ODbL."}, "elements": [{"type": "node", "id": 356552132, "lat": 47.372385, "lon": -122.0232039}, {"type": "node", "id": 356552158, "lat": 47.3711408, "lon": -122.0221012}, {"type": "node", "id": 356552182, "lat": 47.350828, "lon": -122.02703}, {"type": "node", "id": 1488274363, "lat": 47.3607319, "lon": -122.0179174}, {"type": "node", "id": 1488274371, "lat": 47.3605965, "lon": -122.018793}, {"type": "node", "id": 1488274373, "lat": 47.3599785, "lon": -122.0178615}, {"type": "node", "id": 1488274374, "lat": 47.3603626, "lon": -122.0188015}, {"type": "node", "id": 1488274375, "lat": 47.3603682, "lon": -122.0187462}, {"type": "node", "id": 1488274376, "lat": 47.3606016, "lon": -122.0179997}, {"type": "node", "id": 1488274377, "lat": 47.3606127, "lon": -122.017891}, {"type": "node", "id": 1488274378, "lat": 47.3605905, "lon": -122.0188521}, {"type": "node", "id": 1488274379, "lat": 47.359899, "lon": -122.0186421}, {"type": "node", "id": 1488274387, "lat": 47.3606417, "lon": -122.018803}, {"type": "node", "id": 1488274897, "lat": 47.3594573, "lon": -122.0198823}, {"type": "node", "id": 1488274898, "lat": 47.3594373, "lon": -122.0200733}, {"type": "node", "id": 1488274899, "lat": 47.3591102, "lon": -122.019999}, {"type": "node", "id": 1488274900, "lat": 47.3591301, "lon": -122.019808}, {"type": "node", "id": 1488274958, "lat": 47.3606822, "lon": -122.0184053}, {"type": "node", "id": 1488274962, "lat": 47.3599035, "lon": -122.0185977}, {"type": "node", "id": 1488274965, "lat": 47.360648, "lon": -122.0187413}, {"type": "node", "id": 1488274966, "lat": 47.3599466, "lon": -122.0181752}, {"type": "node", "id": 2063764577, "lat": 47.3638927, "lon": -122.018294}, {"type": "node", "id": 3073722474, "lat": 47.3523223, "lon": -122.0261602}, {"type": "node", "id": 3073722482, "lat": 47.351143, "lon": -122.0268093}, {"type": "node", "id": 3073722487, "lat": 47.3522787, "lon": -122.0262809}, {"type": "node", "id": 3073722488, "lat": 47.3517645, "lon": -122.0267181}, {"type": "node", "id": 3073722490, "lat": 47.3525993, "lon": -122.0270244}, {"type": "node", "id": 3073722493, "lat": 47.3518838, "lon": -122.0267816}, {"type": "node", "id": 3073722498, "lat": 47.3522224, "lon": -122.0264955}, {"type": "node", "id": 3073722500, "lat": 47.3516173, "lon": -122.0264043}, {"type": "node", "id": 3073722502, "lat": 47.3520843, "lon": -122.0265545}, {"type": "node", "id": 3073722503, "lat": 47.3510994, "lon": -122.0254602}, {"type": "node", "id": 3073722505, "lat": 47.3525917, "lon": -122.0217859}, {"type": "node", "id": 3073722516, "lat": 47.3519298, "lon": -122.0266725}, {"type": "node", "id": 3073722532, "lat": 47.351859, "lon": -122.0266967}, {"type": "node", "id": 3073722935, "lat": 47.3517663, "lon": -122.026804}, {"type": "node", "id": 3073722938, "lat": 47.3522188, "lon": -122.0263829}, {"type": "node", "id": 3073722947, "lat": 47.351063, "lon": -122.0256211}, {"type": "node", "id": 3073722948, "lat": 47.35167, "lon": -122.0263158}, {"type": "node", "id": 3073722954, "lat": 47.3510303, "lon": -122.0255702}, {"type": "node", "id": 3073722958, "lat": 47.3522781, "lon": -122.0263927}, {"type": "node", "id": 3073722968, "lat": 47.3523696, "lon": -122.0259832}, {"type": "node", "id": 3073722972, "lat": 47.3511242, "lon": -122.0263927}, {"type": "node", "id": 3073722974, "lat": 47.3519801, "lon": -122.0267252}, {"type": "node", "id": 3073722978, "lat": 47.3510515, "lon": -122.026288}, {"type": "node", "id": 3073722992, "lat": 47.3524005, "lon": -122.0258089}, {"type": "node", "id": 3073723019, "lat": 47.3508203, "lon": -122.0217916}, {"type": "node", "id": 3073723022, "lat": 47.3520734, "lon": -122.0266672}, {"type": "node", "id": 3073723023, "lat": 47.3515973, "lon": -122.0267262}, {"type": "node", "id": 3073723032, "lat": 47.3511421, "lon": -122.0267218}, {"type": "node", "id": 3073723045, "lat": 47.3523369, "lon": -122.0262863}, {"type": "node", "id": 3073723047, "lat": 47.3523914, "lon": -122.0261361}, {"type": "node", "id": 3073723049, "lat": 47.3524198, "lon": -122.0260091}, {"type": "node", "id": 3073723055, "lat": 47.3520098, "lon": -122.0266216}, {"type": "node", "id": 3073723057, "lat": 47.3521388, "lon": -122.0266001}, {"type": "node", "id": 3073723064, "lat": 47.3524489, "lon": -122.0258187}, {"type": "node", "id": 3073723071, "lat": 47.3521533, "lon": -122.0264767}, {"type": "node", "id": 3073723080, "lat": 47.3510624, "lon": -122.0257194}, {"type": "node", "id": 3491572293, "lat": 47.3600496, "lon": -122.0203578}, {"type": "node", "id": 3491572294, "lat": 47.3600682, "lon": -122.0201529}, {"type": "node", "id": 3491572295, "lat": 47.3598232, "lon": -122.0201045}, {"type": "node", "id": 3491572296, "lat": 47.3598046, "lon": -122.0203094}, {"type": "node", "id": 3491572787, "lat": 47.3612855, "lon": -122.0198477}, {"type": "node", "id": 3491572788, "lat": 47.3613081, "lon": -122.0196449}, {"type": "node", "id": 3491572789, "lat": 47.3611084, "lon": -122.0195964}, {"type": "node", "id": 3491572790, "lat": 47.3610858, "lon": -122.0197992}, {"type": "node", "id": 3491582711, "lat": 47.3603786, "lon": -122.0203192, "tags": {"addr:city": "Maple Valley", "addr:housenumber": "26910", "addr:postcode": "98038", "addr:state": "WA", "addr:street": "Maple Valley-Black Diamond Road Southeast", "addr:unit": "J", "amenity": "cafe", "branch": "Kent Kangley & Black Diamond R", "brand": "Starbucks", "brand:wikidata": "Q37158", "check_date": "2024-10-07", "cuisine": "coffee_shop", "internet_access": "wlan", "internet_access:fee": "no", "name": "Starbucks", "official_name": "Starbucks Coffee", "opening_hours": "Mo-Fr 04:00-20:00; Sa-Su 05:00-19:00", "outdoor_seating": "no", "payment:mastercard": "yes", "payment:visa": "yes", "phone": "+1-425-413-4110", "smoking": "no", "takeaway": "yes", "website": "https://www.starbucks.com/store-locator/store/13045/kent-kangley-black-diamond-r-26910-maple-valley-black-diamond-road-j-maple-vall"}}, {"type": "node", "id": 3491588639, "lat": 47.36118, "lon": -122.0203825}, {"type": "node", "id": 3491588641, "lat": 47.3610277, "lon": -122.0201405}, {"type": "node", "id": 3491588642, "lat": 47.3610178, "lon": -122.020367}, {"type": "node", "id": 3854673387, "lat": 47.3649928, "lon": -122.0212588, "tags": {"addr:city": "Maple Valley", "addr:housenumber": "26420", "addr:postcode": "98038", "addr:state": "WA", "addr:street": "Maple Valley Black Diamond Road Southeast", "addr:unit": "L200", "amenity": "bar", "brewery": "yes", "check_date": "2024-11-24", "cuisine": "american", "microbrewery": "yes", "name": "Hops n Drops", "opening_hours": "Mo-Fr 11:00-23:00; Sa-Su 08:00-23:00", "outdoor_seating": "yes", "payment:cash": "yes", "payment:credit_cards": "yes", "payment:debit_cards": "yes", "website": "https://hopsndrops.com/find-us/maple-valley/"}}, {"type": "node", "id": 4030789990, "lat": 47.3628083, "lon": -122.0207587}, {"type": "node", "id": 4030789991, "lat": 47.3616151, "lon": -122.0215965}, {"type": "node", "id": 4030803489, "lat": 47.3621325, "lon": -122.0216055}, {"type": "node", "id": 4058685544, "lat": 47.3615843, "lon": -122.0218187}, {"type": "node", "id": 4058685545, "lat": 47.361586, "lon": -122.0216515}, {"type": "node", "id": 4058685546, "lat": 47.361592, "lon": -122.0215915}, {"type": "node", "id": 4058685547, "lat": 47.3616006, "lon": -122.0216547}, {"type": "node", "id": 4058685549, "lat": 47.361608, "lon": -122.0218239}, {"type": "node", "id": 4058685550, "lat": 47.3616122, "lon": -122.0217814}, {"type": "node", "id": 4058685552, "lat": 47.3616269, "lon": -122.0214781}, {"type": "node", "id": 4058685553, "lat": 47.3616436, "lon": -122.0214817}, {"type": "node", "id": 4058685554, "lat": 47.3616448, "lon": -122.0214701}, {"type": "node", "id": 4058685555, "lat": 47.3616773, "lon": -122.0217955}, {"type": "node", "id": 4058685556, "lat": 47.3616864, "lon": -122.0214944}, {"type": "node", "id": 4058685557, "lat": 47.3616878, "lon": -122.0214795}, {"type": "node", "id": 4058685558, "lat": 47.3617067, "lon": -122.0214988}, {"type": "node", "id": 4058685568, "lat": 47.3619911, "lon": -122.0218745}, {"type": "node", "id": 4058685569, "lat": 47.3619914, "lon": -122.0220587}, {"type": "node", "id": 4058685570, "lat": 47.362009, "lon": -122.0218783}, {"type": "node", "id": 4058685572, "lat": 47.3620227, "lon": -122.0215504}, {"type": "node", "id": 4058685575, "lat": 47.3621355, "lon": -122.0215744}, {"type": "node", "id": 4058685577, "lat": 47.36234, "lon": -122.022133}, {"type": "node", "id": 4058685578, "lat": 47.3623468, "lon": -122.0220635}, {"type": "node", "id": 4058685579, "lat": 47.3623559, "lon": -122.0219705}, {"type": "node", "id": 4058685582, "lat": 47.3623863, "lon": -122.0216596}, {"type": "node", "id": 4058685585, "lat": 47.3625412, "lon": -122.0238352}, {"type": "node", "id": 4058685587, "lat": 47.3625546, "lon": -122.0220583}, {"type": "node", "id": 4058685588, "lat": 47.3625702, "lon": -122.0219035}, {"type": "node", "id": 4058685989, "lat": 47.3625706, "lon": -122.022225}, {"type": "node", "id": 4058685991, "lat": 47.3625989, "lon": -122.0219099}, {"type": "node", "id": 4058685992, "lat": 47.3626134, "lon": -122.0217666}, {"type": "node", "id": 4058685993, "lat": 47.3626162, "lon": -122.0230746}, {"type": "node", "id": 4058685994, "lat": 47.3626682, "lon": -122.0238967}, {"type": "node", "id": 4058685995, "lat": 47.36267, "lon": -122.0217791}, {"type": "node", "id": 4058685996, "lat": 47.3626715, "lon": -122.0238632}, {"type": "node", "id": 4058685997, "lat": 47.3626735, "lon": -122.0217451}, {"type": "node", "id": 4058685998, "lat": 47.3626865, "lon": -122.0230897}, {"type": "node", "id": 4058685999, "lat": 47.3626895, "lon": -122.0230591}, {"type": "node", "id": 4058686000, "lat": 47.3627335, "lon": -122.0222609}, {"type": "node", "id": 4058686001, "lat": 47.3627833, "lon": -122.0217693}, {"type": "node", "id": 4058686003, "lat": 47.3629273, "lon": -122.0231102}, {"type": "node", "id": 4058686004, "lat": 47.3629367, "lon": -122.0239544}, {"type": "node", "id": 4058686005, "lat": 47.3629407, "lon": -122.023914}, {"type": "node", "id": 4058686006, "lat": 47.3630106, "lon": -122.0232378}, {"type": "node", "id": 4058686007, "lat": 47.3630136, "lon": -122.0232072}, {"type": "node", "id": 4058686008, "lat": 47.3630382, "lon": -122.0239349}, {"type": "node", "id": 4058686009, "lat": 47.3630591, "lon": -122.0237226}, {"type": "node", "id": 4058686010, "lat": 47.3630732, "lon": -122.0235486}, {"type": "node", "id": 4058686011, "lat": 47.3630744, "lon": -122.0237259}, {"type": "node", "id": 4058686012, "lat": 47.3630823, "lon": -122.0234557}, {"type": "node", "id": 4058686013, "lat": 47.3630916, "lon": -122.0235526}, {"type": "node", "id": 4058686014, "lat": 47.3630967, "lon": -122.0222597}, {"type": "node", "id": 4058686015, "lat": 47.3631017, "lon": -122.0220324}, {"type": "node", "id": 4058686016, "lat": 47.3631019, "lon": -122.0232574}, {"type": "node", "id": 4058686019, "lat": 47.3631193, "lon": -122.0218445}, {"type": "node", "id": 4058686020, "lat": 47.3632193, "lon": -122.0219008}, {"type": "node", "id": 4058686021, "lat": 47.3632226, "lon": -122.0218656}, {"type": "node", "id": 4058686022, "lat": 47.3632493, "lon": -122.0222908}, {"type": "node", "id": 4058686023, "lat": 47.3632846, "lon": -122.0219142}, {"type": "node", "id": 4058686026, "lat": 47.3634862, "lon": -122.0239223}, {"type": "node", "id": 4058686027, "lat": 47.3635151, "lon": -122.0236296}, {"type": "node", "id": 4058686028, "lat": 47.3636237, "lon": -122.023343}, {"type": "node", "id": 4058686029, "lat": 47.363627, "lon": -122.0233098}, {"type": "node", "id": 4058686030, "lat": 47.3637315, "lon": -122.0240354}, {"type": "node", "id": 4058686031, "lat": 47.3637373, "lon": -122.0239763}, {"type": "node", "id": 4058686033, "lat": 47.3637995, "lon": -122.0233469}, {"type": "node", "id": 4058686034, "lat": 47.3638098, "lon": -122.0240523}, {"type": "node", "id": 4058686035, "lat": 47.3638468, "lon": -122.0236771}, {"type": "node", "id": 4058686036, "lat": 47.3638635, "lon": -122.0235464}, {"type": "node", "id": 4058686037, "lat": 47.3638649, "lon": -122.023681}, {"type": "node", "id": 4058686038, "lat": 47.3638779, "lon": -122.0235495}, {"type": "node", "id": 4058686039, "lat": 47.3638791, "lon": -122.0233882}, {"type": "node", "id": 4071096201, "lat": 47.3624397, "lon": -122.0214142}, {"type": "node", "id": 4071096202, "lat": 47.3615881, "lon": -122.0212563}, {"type": "node", "id": 4071096203, "lat": 47.3615819, "lon": -122.0213284}, {"type": "node", "id": 4071096204, "lat": 47.3617534, "lon": -122.021361}, {"type": "node", "id": 4071096205, "lat": 47.3617059, "lon": -122.0218204}, {"type": "node", "id": 4071096206, "lat": 47.3618263, "lon": -122.0218448}, {"type": "node", "id": 4071096207, "lat": 47.3618243, "lon": -122.021861}, {"type": "node", "id": 4071096208, "lat": 47.3619303, "lon": -122.0218813}, {"type": "node", "id": 4071096209, "lat": 47.36192, "lon": -122.0220084}, {"type": "node", "id": 4071096210, "lat": 47.3619716, "lon": -122.0220196}, {"type": "node", "id": 4071096211, "lat": 47.3620129, "lon": -122.0215724}, {"type": "node", "id": 4071096212, "lat": 47.3623682, "lon": -122.0216425}, {"type": "node", "id": 4071096213, "lat": 47.362384, "lon": -122.0214768}, {"type": "node", "id": 4071096214, "lat": 47.3624315, "lon": -122.021489}, {"type": "node", "id": 4119774248, "lat": 47.3625868, "lon": -122.0220654}, {"type": "node", "id": 4119782227, "lat": 47.3647137, "lon": -122.021387}, {"type": "node", "id": 4182002631, "lat": 47.3601741, "lon": -122.018537}, {"type": "node", "id": 4182002632, "lat": 47.3601033, "lon": -122.0185195}, {"type": "node", "id": 4182002633, "lat": 47.3601141, "lon": -122.0184244}, {"type": "node", "id": 4182002634, "lat": 47.3601849, "lon": -122.0184419}, {"type": "node", "id": 4318155626, "lat": 47.3578958, "lon": -122.0350588}, {"type": "node", "id": 4370012800, "lat": 47.3603961, "lon": -122.020099, "tags": {"addr:city": "Maple Valley", "addr:housenumber": "26906", "addr:postcode": "98038", "addr:state": "WA", "addr:street": "Maple Valley Black Diamond Road Southeast", "amenity": "fast_food", "brand": "Papa John's", "brand:wikidata": "Q2759586", "check_date": "2024-10-07", "cuisine": "pizza", "name": "Papa John's", "opening_hours": "Mo-Su 10:30-23:00", "payment:cash": "yes", "payment:credit_cards": "yes", "payment:debit_cards": "yes", "phone": "+1-425-413-7777", "takeaway": "yes", "website": "https://locations.papajohns.com/united-states/wa/98038/maple-valley/26906-maple-valley-black-diamond-rd-se"}}, {"type": "node", "id": 4370012833, "lat": 47.3545422, "lon": -122.0216411}, {"type": "node", "id": 4370012834, "lat": 47.3545506, "lon": -122.0222525}, {"type": "node", "id": 4370012858, "lat": 47.3556312, "lon": -122.0222066}, {"type": "node", "id": 4370012859, "lat": 47.3556314, "lon": -122.0222416}, {"type": "node", "id": 4370013036, "lat": 47.3562881, "lon": -122.0216435}, {"type": "node", "id": 4370013037, "lat": 47.3562942, "lon": -122.0221906}, {"type": "node", "id": 4370013638, "lat": 47.3645284, "lon": -122.022044}, {"type": "node", "id": 4370013816, "lat": 47.3707822, "lon": -122.0185469}, {"type": "node", "id": 4370013817, "lat": 47.3707924, "lon": -122.0228149}, {"type": "node", "id": 4370013878, "lat": 47.372376, "lon": -122.0185402}, {"type": "node", "id": 4461362437, "lat": 47.3620512, "lon": -122.023056, "tags": {"addr:city": "Maple Valley", "addr:housenumber": "23878", "addr:postcode": "98038", "addr:state": "WA", "addr:street": "Southeast Kent-Kangley Road", "brand": "Allstate", "brand:wikidata": "Q2645636", "name": "Allstate - The Jenson Agency", "office": "insurance", "opening_hours": "Mo-Th 09:00-18:00; Fr 09:00-17:00; Sa 10:00-16:00", "phone": "+1-425-432-1912"}}, {"type": "node", "id": 4461362439, "lat": 47.3618428, "lon": -122.0200051, "tags": {"addr:city": "Maple Valley", "addr:door": "E100", "addr:housenumber": "24040", "addr:postcode": "98038", "addr:state": "WA", "addr:street": "Southeast Kent-Kangley Road", "brand": "American Family Insurance", "brand:wikidata": "Q4743730", "check_date": "2024-10-07", "name": "Cultivate Hair Collective", "phone": "+1-206-914-6822", "shop": "hairdresser"}}, {"type": "node", "id": 4461362441, "lat": 47.3622004, "lon": -122.0206919, "tags": {"addr:city": "Maple Valley", "addr:door": "F600", "addr:housenumber": "26710", "addr:postcode": "98038", "addr:state": "WA", "addr:street": "Maple Valley-Black Diamond Road Southeast", "amenity": "bank", "atm": "yes", "brand": "BECU", "brand:wikidata": "Q4835409", "check_date": "2024-10-07", "drive_through": "no", "internet_access": "wlan", "internet_access:fee": "customers", "name": "BECU", "opening_hours": "Mo-Fr 09:00-18:00; Sa 09:00-13:00", "payment:cash": "yes", "payment:credit_cards": "yes", "payment:debit_cards": "yes"}}, {"type": "node", "id": 4461362442, "lat": 47.3650573, "lon": -122.0201474, "tags": {"addr:city": "Maple Valley", "addr:housenumber": "24061", "addr:postcode": "98038", "addr:state": "WA", "addr:street": "Southeast 264th Street", "addr:unit": "M100", "amenity": "restaurant", "check_date": "2024-10-04", "cuisine": "thai", "name": "Benjarong Thai Cuisine", "opening_hours": "Mo-Th 11:00-21:00; Fr-Sa 11:00-22:00; Su 12:00-21:00", "payment:cash": "yes", "payment:credit_cards": "yes", "payment:debit_cards": "yes"}}, {"type": "node", "id": 4461362445, "lat": 47.3617891, "lon": -122.0233345, "tags": {"addr:city": "Maple Valley", "addr:housenumber": "23862", "addr:postcode": "98038", "addr:state": "WA", "addr:street": "Southeast Kent Kangley Road", "amenity": "fast_food", "check_date": "2024-10-07", "drive_through": "no", "name": "Emerald City Smoothie", "opening_hours": "Mo-Fr 07:00-21:00; Sa 08:00-20:00; Su 08:00-19:00", "payment:cash": "yes", "payment:credit_cards": "yes", "payment:debit_cards": "yes", "website": "https://www.emeraldcitysmoothie.com/locations/maple-valley"}}, {"type": "node", "id": 4461362447, "lat": 47.3618285, "lon": -122.020174, "tags": {"addr:city": "Maple Valley", "addr:housenumber": "24040", "addr:postcode": "98038", "addr:state": "WA", "addr:street": "Southeast Kent-Kangley Road", "amenity": "dentist", "brand": "Bright Now! Dental", "brand:wikidata": "Q108286875", "check_date": "2024-10-07", "healthcare": "dentist", "name": "Bright Now! Dental", "opening_hours": "Mo-Tu 09:00-18:00; We-Fr 08:00-19:00", "phone": "+1-425-578-9152"}}, {"type": "node", "id": 4461362450, "lat": 47.3617199, "lon": -122.0224066, "tags": {"addr:city": "Maple Valley", "addr:housenumber": "23916", "addr:postcode": "98038", "addr:state": "WA", "addr:street": "Southeast Kent-Kangley Road", "amenity": "cafe", "check_date": "2024-10-07", "cuisine": "coffee_shop", "drive_through": "yes", "internet_access": "wlan", "internet_access:fee": "customers", "name": "Gravity Coffee Co.", "opening_hours": "Mo-Fr 04:30-21:00; Sa-Su 05:30-21:00", "opening_hours:drive_through": "Mo-Fr 05:00-20:00; Sa-Su 05:30-18:00", "outdoor_seating": "no", "payment:cash": "yes", "payment:credit_cards": "yes", "payment:debit_cards": "yes"}}, {"type": "node", "id": 4461362453, "lat": 47.3608301, "lon": -122.0201642, "tags": {"addr:city": "Maple Valley", "addr:housenumber": "26812", "addr:postcode": "98038", "addr:state": "WA", "addr:street": "Maple Valley-Black Diamond Road Southeast", "amenity": "dentist", "check_date": "2024-10-07", "healthcare": "dentist", "name": "Cascadia Kids Dentistry", "payment:mastercard": "yes", "payment:visa": "yes", "phone": "+1-425-432-2200"}}, {"type": "node", "id": 4461362455, "lat": 47.3634031, "lon": -122.0233339, "tags": {"addr:city": "Maple Valley", "addr:door": "K150", "addr:housenumber": "26545", "addr:postcode": "98038", "addr:state": "WA", "addr:street": "Maple Valley-Black Diamond Road Southeast", "amenity": "childcare", "check_date": "2024-10-07", "name": "Discovery Playtown", "opening_hours": "Mo-Fr 07:30-17:30", "payment:mastercard": "yes", "payment:visa": "yes"}}, {"type": "node", "id": 4461362456, "lat": 47.3631252, "lon": -122.0232756, "tags": {"addr:city": "Maple Valley", "addr:housenumber": "26565", "addr:postcode": "98038", "addr:state": "WA", "addr:street": "Maple Valley-Black Diamond Road Southeast", "check_date": "2024-10-07", "name": "DogSpaw", "opening_hours": "08:00-16:00", "payment:mastercard": "yes", "payment:visa": "yes", "phone": "+1-425-623-5353", "shop": "pet"}}, {"type": "node", "id": 4461362457, "lat": 47.3608036, "lon": -122.0204612, "tags": {"addr:city": "Maple Valley", "addr:housenumber": "26808", "addr:postcode": "98038", "addr:state": "WA", "addr:street": "Maple Valley-Black Diamond Road Southeast", "amenity": "dentist", "check_date": "2024-10-07", "healthcare": "dentist", "name": "Pacific Northwest Oral & Macillofacial Surgeons", "payment:mastercard": "yes", "payment:visa": "yes", "phone": "+1-425-432-1511"}}, {"type": "node", "id": 4461362460, "lat": 47.3649683, "lon": -122.020122, "tags": {"addr:city": "Maple Valley", "addr:housenumber": "24061", "addr:postcode": "98038", "addr:state": "WA", "addr:street": "Southeast 264th Street", "addr:unit": "M200", "check_date": "2024-10-04", "name": "Elements Theraputic Massage", "opening_hours": "Mo-Sa 09:00-21:00; Su 09:00-19:00", "phone": "+1-425-200-0391", "shop": "massage"}}, {"type": "node", "id": 4461362461, "lat": 47.3593602, "lon": -122.019431, "tags": {"addr:city": "Maple Valley", "addr:housenumber": "27018", "addr:postcode": "98038", "addr:state": "WA", "addr:street": "Maple Valley-Black Diamond Road Southeast", "amenity": "car_wash", "check_date": "2024-10-07", "name": "Elephant Car Wash", "opening_hours": "Mo-Sa 08:00-18:00; Su 09:00-17:00", "payment:cash": "yes", "payment:credit_cards": "yes", "payment:debit_cards": "yes", "phone": "+1-425-423-5773"}}, {"type": "node", "id": 4461362464, "lat": 47.3621329, "lon": -122.0228298, "tags": {"addr:city": "Maple Valley", "addr:housenumber": "23886", "addr:postcode": "98038", "addr:state": "WA", "addr:street": "Southeast Kent-Kangley Road", "check_date": "2024-10-07", "name": "Four Corners Cleaners", "opening_hours": "Mo-Fr 06:00-19:00; Sa 08:00-17:00", "payment:cash": "yes", "payment:credit_cards": "yes", "payment:debit_cards": "yes", "shop": "dry_cleaning"}}, {"type": "node", "id": 4461362465, "lat": 47.3618543, "lon": -122.023352, "tags": {"addr:city": "Maple Valley", "addr:housenumber": "23866", "addr:postcode": "98038", "addr:state": "WA", "addr:street": "Southeast Kent-Kangley Road", "amenity": "dentist", "check_date": "2024-10-07", "healthcare": "dentist", "name": "Four Corners Family Dentistry", "opening_hours": "Mo-We 09:00-17:00; Th 09:00-16:00; Fr 09:00-15:00; Sa 08:00-13:00", "payment:cash": "yes", "payment:credit_cards": "yes", "payment:debit_cards": "yes", "phone": "+1-425-413-8505"}}, {"type": "node", "id": 4461362468, "lat": 47.3594147, "lon": -122.0208804}, {"type": "node", "id": 4461362469, "lat": 47.3637971, "lon": -122.0233705}, {"type": "node", "id": 4461362472, "lat": 47.3608334, "lon": -122.0187578, "tags": {"addr:city": "Maple Valley", "addr:housenumber": "26830", "addr:postcode": "98038", "addr:state": "WA", "addr:street": "Maple Valley-Black Diamond Road Southeast", "check_date": "2024-10-07", "name": "Windermere Real Estate", "office": "estate_agent"}}, {"type": "node", "id": 4461362478, "lat": 47.3611736, "lon": -122.0218364}, {"type": "node", "id": 4461362479, "lat": 47.3629198, "lon": -122.0231871}, {"type": "node", "id": 4461362481, "lat": 47.360905, "lon": -122.022441}, {"type": "node", "id": 4461362482, "lat": 47.3611777, "lon": -122.0181987, "tags": {"addr:city": "Maple Valley", "addr:housenumber": "24221", "addr:postcode": "98038", "addr:state": "WA", "addr:street": "Southeast Kent-Kangley Road", "amenity": "childcare", "check_date": "2024-10-07", "name": "Kid's Country Learning Center", "phone": "+1-425-413-1173"}}, {"type": "node", "id": 4461363889, "lat": 47.3616726, "lon": -122.0233038, "tags": {"addr:city": "Maple Valley", "addr:housenumber": "23852", "addr:postcode": "98038", "addr:state": "WA", "addr:street": "Southeast Kent-Kangley Road", "amenity": "restaurant", "check_date": "2024-10-07", "diet:vegetarian": "yes", "name": "Alaska N Dumplings", "opening_hours": "Su-Th 11:00-20:00; Fr-Sa 11:00-21:00", "payment:mastercard": "yes", "payment:visa": "yes", "phone": "+1-425-433-6494", "website": "https://alaskandumpling.com/", "wheelchair": "yes"}}, {"type": "node", "id": 4461363891, "lat": 47.360885, "lon": -122.0218676, "tags": {"addr:city": "Maple Valley", "addr:door": "A", "addr:housenumber": "24015", "addr:postcode": "98038", "addr:state": "WA", "addr:street": "Southeast Kent Kangley Road", "amenity": "restaurant", "check_date": "2024-10-07", "cuisine": "asian", "name": "Lucky Chopsticks", "opening_hours": "Tu-Su 12:00-20:00", "payment:cash": "yes", "payment:credit_cards": "yes", "payment:debit_cards": "yes", "website": "https://luckychopsticksmv.com/"}}, {"type": "node", "id": 4461363893, "lat": 47.3615454, "lon": -122.0223958, "tags": {"addr:city": "Maple Valley", "addr:door": "103", "addr:housenumber": "23916", "addr:postcode": "98038", "addr:state": "WA", "addr:street": "Southeast Kent-Kangley Road", "addr:unit": "A", "amenity": "fast_food", "branch": "Four Corner Square", "brand": "MOD Pizza", "brand:wikidata": "Q19903469", "check_date": "2024-10-07", "cuisine": "pizza", "name": "MOD Pizza", "opening_hours": "Mo-We,Su 10:30-22:00; Th-Sa 10:30-23:00", "outdoor_seating": "yes", "payment:cash": "yes", "payment:credit_cards": "yes", "payment:debit_cards": "yes", "phone": "+1-425-578-9093", "smoking": "no", "takeaway": "yes", "website": "https://locations.modpizza.com/usa/wa/maple-valley/23916-a-se-kent-kangley-rd"}}, {"type": "node", "id": 4461363895, "lat": 47.3593729, "lon": -122.0191251, "tags": {"addr:city": "Maple Valley", "addr:housenumber": "27016", "addr:postcode": "98038", "addr:state": "WA", "addr:street": "Maple Valley-Black Diamond Road Southeast", "amenity": "dentist", "check_date": "2024-10-07", "healthcare": "dentist", "name": "Maple Valley Family Dental Care", "opening_hours": "Mo-Th 08:00-20:00; Fr-Sa 08:00-14:00; Su off", "phone": "+1-425-413-8525"}}, {"type": "node", "id": 4461363897, "lat": 47.3597931, "lon": -122.0185448, "tags": {"addr:city": "Maple Valley", "addr:housenumber": "27004", "addr:postcode": "98038", "addr:state": "WA", "addr:street": "Maple Valley-Black Diamond Road Southeast", "beauty": "nails", "check_date": "2024-10-07", "name": "Maple Valley Nails", "opening_hours": "Mo-Sa 09:30-19:00; Su 10:00-17:00", "phone": "+1-425-432-2549", "shop": "beauty"}}, {"type": "node", "id": 4461363903, "lat": 47.3649426, "lon": -122.019298, "tags": {"addr:city": "Maple Valley", "addr:housenumber": "24081", "addr:postcode": "98038", "addr:state": "WA", "addr:street": "Southeast 264th Street", "addr:unit": "N200", "beauty": "nails", "check_date": "2024-10-04", "name": "Tip and Toe Paradise Nails & Spa", "opening_hours": "Mo-Sa 09:30-19:00; Su 10:00-17:00", "payment:cash": "yes", "payment:credit_cards": "yes", "payment:debit_cards": "yes", "phone": "+1-425-358-7298", "shop": "beauty"}}, {"type": "node", "id": 4461363907, "lat": 47.3628287, "lon": -122.020389, "tags": {"addr:city": "Maple Valley", "addr:door": "H100", "addr:housenumber": "26636", "addr:postcode": "98038", "addr:state": "WA", "addr:street": "Maple Valley Black Diamond Road Southeast", "amenity": "restaurant", "check_date": "2024-10-07", "cuisine": "asian;seafood", "name": "Just Poke", "opening_hours": "Mo-Sa 11:00-20:00; Su 11:00-19:00", "payment:cash": "yes", "payment:credit_cards": "yes", "payment:debit_cards": "yes", "website": "https://justpoke.com/locations/maple-valley/"}}, {"type": "node", "id": 4461363909, "lat": 47.3634558, "lon": -122.0222476, "tags": {"addr:city": "Maple Valley", "addr:door": "L100", "addr:housenumber": "26555", "addr:postcode": "98038", "addr:state": "WA", "addr:street": "Maple Valley-Black Diamond Road Southeast", "amenity": "dentist", "check_date": "2024-10-07", "healthcare": "dentist", "name": "Maple Valley Modern Dentistry", "payment:mastercard": "yes", "payment:visa": "yes", "phone": "+1-425-906-9119"}}, {"type": "node", "id": 4461363910, "lat": 47.363837, "lon": -122.0222105}, {"type": "node", "id": 4461363911, "lat": 47.3620784, "lon": -122.022981, "tags": {"addr:city": "Maple Valley", "addr:housenumber": "23880", "addr:postcode": "98038", "addr:state": "WA", "addr:street": "Southeast Kent-Kangley Road", "amenity": "fast_food", "brand": "Papa Murphy's", "brand:wikidata": "Q7132349", "check_date": "2024-10-07", "cuisine": "pizza", "drive_through": "no", "name": "Papa Murphy's", "official_name": "Papa Murphy's Take 'N' Bake Pizza", "opening_hours": "11:00-20:00", "outdoor_seating": "no", "payment:mastercard": "yes", "payment:visa": "yes", "smoking": "no", "takeaway": "only"}}, {"type": "node", "id": 4461363912, "lat": 47.3619695, "lon": -122.0232834, "tags": {"addr:city": "Maple Valley", "addr:housenumber": "23870", "addr:postcode": "98038", "addr:state": "WA", "addr:street": "Southeast Kent-Kangley Road", "amenity": "doctors", "check_date": "2024-10-07", "healthcare": "doctor", "healthcare:speciality": "chiropractic", "name": "Partain Chiropractic Clinic", "opening_hours": "Mo,We,Fr 10:00-20:30; Tu,Th 15:00-20:00", "payment:cash": "yes", "payment:credit_cards": "yes", "payment:debit_cards": "yes", "phone": "+1-425-413-1718"}}, {"type": "node", "id": 4461363920, "lat": 47.3608168, "lon": -122.0203127, "tags": {"addr:city": "Maple Valley", "addr:housenumber": "26810", "addr:postcode": "98038", "addr:state": "WA", "addr:street": "Maple Valley-Black Diamond Road Southeast", "amenity": "restaurant", "check_date": "2024-10-07", "cuisine": "asian;thai", "name": "Maple Valley Thai Cuisine", "opening_hours": "Mo-Fr 11:00-20:00; Sa 12:00-20:00; Su off", "payment:mastercard": "yes", "payment:visa": "yes", "takeaway": "only"}}, {"type": "node", "id": 4461363924, "lat": 47.3621168, "lon": -122.0206691, "tags": {"addr:city": "Maple Valley", "addr:housenumber": "26710", "addr:postcode": "98038", "addr:state": "WA", "addr:street": "Maple Valley-Black Diamond Road Southeast", "beauty": "tanning", "check_date": "2024-10-07", "name": "Seattle Sun Tan", "name:en": "F400", "opening_hours": "Mo-Fr 08:00-21:00; Sa 09:00-18:00; Su 10:00-18:00", "payment:cash": "yes", "payment:credit_cards": "yes", "payment:debit_cards": "yes", "shop": "beauty"}}, {"type": "node", "id": 4461363925, "lat": 47.3620239, "lon": -122.0231322, "tags": {"addr:city": "Maple Valley", "addr:housenumber": "23876", "addr:postcode": "98038", "addr:state": "WA", "addr:street": "Southeast Kent-Kangley Road", "check_date": "2024-10-07", "name": "Fairway Independent Mortgage Corporation", "office": "financial", "opening_hours": "Mo-Fr 09:00-17:00", "phone": "+1-253-220-9856"}}, {"type": "node", "id": 4461363926, "lat": 47.3619967, "lon": -122.0232078, "tags": {"addr:city": "Maple Valley", "addr:housenumber": "23872", "addr:postcode": "98038", "addr:state": "WA", "addr:street": "Southeast Kent-Kangley Road", "check_date": "2024-10-07", "name": "Serena Hair Design", "opening_hours": "Mo-Fr 09:00-19:00; Sa 09:00-18:00", "phone": "+1-425-413-0223", "shop": "hairdresser"}}, {"type": "node", "id": 4461363928, "lat": 47.3611899, "lon": -122.020156}, {"type": "node", "id": 4461363931, "lat": 47.3619422, "lon": -122.023359, "tags": {"addr:city": "Maple Valley", "addr:housenumber": "23868", "addr:postcode": "98038", "addr:state": "WA", "addr:street": "Southeast Kent-Kangley Road", "check_date": "2024-10-07", "name": "Smoke & Vape", "payment:cash": "yes", "payment:credit_cards": "yes", "payment:debit_cards": "yes", "shop": "tobacco"}}, {"type": "node", "id": 4461363932, "lat": 47.3621057, "lon": -122.0229054, "tags": {"addr:city": "Maple Valley", "addr:housenumber": "23882", "addr:postcode": "98038", "addr:state": "WA", "addr:street": "Southeast Kent-Kangley Road", "check_date": "2024-10-07", "name": "Fabuleuse Nails", "opening_hours": "Tu-Sa 09:30-18:30; Su 10:00-17:30", "payment:cash": "yes", "payment:credit_cards": "yes", "payment:debit_cards": "yes", "phone": "+1-425-413-8626", "shop": "beauty"}}, {"type": "node", "id": 4461363933, "lat": 47.3607672, "lon": -122.0187405, "tags": {"addr:city": "Maple Valley", "addr:housenumber": "26832", "addr:postcode": "98038", "addr:state": "WA", "addr:street": "Maple Valley-Black Diamond Road Southeast", "amenity": "doctors", "check_date": "2024-10-07", "healthcare": "doctor", "name": "Robinson Family Chiropractic", "opening_hours": "Mo,We 08:00-18:00; Tu,Th 15:00-18:00; Fr 08:00-12:00; Sa-Su off", "phone": "+1-425-433-6583"}}, {"type": "node", "id": 4461363935, "lat": 47.3648811, "lon": -122.0192999, "tags": {"addr:city": "Maple Valley", "addr:housenumber": "24081", "addr:postcode": "98038", "addr:state": "WA", "addr:street": "Southeast 264th Street", "addr:unit": "N300", "brand": "Sport Clips", "brand:wikidata": "Q7579310", "check_date": "2024-10-04", "name": "Sport Clips", "opening_hours": "Mo-Fr 10:00-19:00; Sa 09:00-18:00; Su 10:00-17:00", "payment:cash": "yes", "payment:credit_cards": "yes", "payment:debit_cards": "yes", "shop": "hairdresser"}}, {"type": "node", "id": 4461363936, "lat": 47.3628372, "lon": -122.0203044, "tags": {"addr:city": "Maple Valley", "addr:door": "H200", "addr:housenumber": "26636", "addr:postcode": "98038", "addr:state": "WA", "addr:street": "Maple Valley-Black Diamond Road Southeast", "amenity": "restaurant", "check_date": "2024-10-07", "cuisine": "vietnamese;asian", "name": "Spring Kitchen", "opening_hours": "Mo-Sa 11:00-21:00; Su 11:00-20:00", "payment:cash": "yes", "payment:credit_cards": "yes", "payment:debit_cards": "yes"}}, {"type": "node", "id": 4461363938, "lat": 47.3648956, "lon": -122.021256, "tags": {"addr:city": "Maple Valley", "addr:housenumber": "26420", "addr:postcode": "98038", "addr:state": "WA", "addr:street": "Maple Valley-Black Diamond Road Southeast", "addr:unit": "L100", "brand": "T-Mobile", "brand:wikidata": "Q3511885", "check_date": "2024-10-04", "name": "T-Mobile", "opening_hours": "Mo-Sa 10:00-20:00; Su 11:00-18:00", "payment:cash": "yes", "payment:credit_cards": "yes", "payment:debit_cards": "yes", "shop": "mobile_phone", "website": "https://www.t-mobile.com/stores/bd/t-mobile-maple-valley-wa-98038-2cso"}}, {"type": "node", "id": 4461363941, "lat": 47.3632437, "lon": -122.0233111, "tags": {"addr:city": "Maple Valley", "addr:door": "J120", "addr:housenumber": "26565", "addr:postcode": "98038", "addr:state": "WA", "addr:street": "Maple Valley-Black Diamond Road Southeast", "amenity": "fast_food", "brand": "Subway", "brand:wikidata": "Q244457", "check_date": "2024-10-07", "cuisine": "sandwich", "delivery": "no", "drive_through": "no", "name": "Subway", "opening_hours": "08:00-21:00", "outdoor_seating": "no", "payment:mastercard": "yes", "payment:visa": "yes", "phone": "+1-425-584-7235", "smoking": "no", "takeaway": "yes", "website": "https://restaurants.subway.com/united-states/wa/maple-valley/26565-maple-valley-black"}}, {"type": "node", "id": 4461363942, "lat": 47.3620124, "lon": -122.020659, "tags": {"addr:city": "Maple Valley", "addr:door": "F100", "addr:housenumber": "26710", "addr:postcode": "98038", "addr:state": "WA", "addr:street": "Maple Valley-Black Diamond Road Southeast", "brand": "Super Supplements", "brand:wikidata": "Q108606605", "check_date": "2024-10-07", "name": "Super Supplements", "opening_hours": "Mo-Fr 09:30-20:00; Sa 09:30-19:00; Su 10:00-18:30", "payment:cash": "yes", "payment:credit_cards": "yes", "payment:debit_cards": "yes", "shop": "nutrition_supplements"}}, {"type": "node", "id": 4461363943, "lat": 47.3633014, "lon": -122.0233299, "tags": {"addr:city": "Maple Valley", "addr:door": "J130", "addr:housenumber": "26565", "addr:postcode": "98038", "addr:state": "WA", "addr:street": "Maple Valley-Black Diamond Road Southeast", "brand": "Supercuts", "brand:wikidata": "Q7643239", "check_date": "2024-11-29", "name": "Supercuts", "opening_hours": "Mo-Fr 10:00-18:00; Sa 09:00-17:00; Su 11:00-16:00", "payment:mastercard": "yes", "payment:visa": "yes", "shop": "hairdresser"}}, {"type": "node", "id": 4461363945, "lat": 47.363186, "lon": -122.0232991, "tags": {"addr:city": "Maple Valley", "addr:door": "J110", "addr:housenumber": "26565", "addr:postcode": "98038", "addr:state": "WA", "addr:street": "Maple Valley-Black Diamond Road Southeast", "amenity": "fast_food", "brand": "Taco Del Mar", "brand:wikidata": "Q7673972", "check_date": "2024-10-07", "cuisine": "mexican", "drive_through": "no", "name": "Taco Del Mar", "opening_hours": "11:00-20:00", "outdoor_seating": "no", "payment:mastercard": "yes", "payment:visa": "yes", "smoking": "no", "takeaway": "yes"}}, {"type": "node", "id": 4461363947, "lat": 47.3628458, "lon": -122.0202191, "tags": {"addr:city": "Maple Valley", "addr:door": "H300", "addr:housenumber": "26636", "addr:postcode": "98038", "addr:state": "WA", "addr:street": "Maple Valley-Black Diamond Road Southeast", "amenity": "restaurant", "check_date": "2024-10-07", "cuisine": "indian", "name": "Masala Melody"}}, {"type": "node", "id": 4461363948, "lat": 47.3650155, "lon": -122.0192958, "tags": {"addr:city": "Maple Valley", "addr:housenumber": "24081", "addr:postcode": "98038", "addr:state": "WA", "addr:street": "Southeast 264th Street", "addr:unit": "N100", "amenity": "bar", "check_date": "2024-10-04", "cuisine": "coffee_shop", "internet_access": "wlan", "internet_access:fee": "no", "name": "Vintage Vino & Espresso", "opening_hours": "Mo-Th 06:00-20:00; Fr 06:00-21:00; Sa 07:00-22:00; Su 07:00-18:00", "payment:cash": "yes", "payment:credit_cards": "yes", "payment:debit_cards": "yes", "smoking": "no"}}, {"type": "node", "id": 4461363950, "lat": 47.3610981, "lon": -122.0188273, "tags": {"addr:city": "Maple Valley", "addr:housenumber": "26820", "addr:postcode": "98038", "addr:state": "WA", "addr:street": "Maple Valley-Black Diamond Road Southeast", "amenity": "restaurant", "brand": "The Original Pancake House", "brand:wikidata": "Q7755384", "check_date": "2025-07-13", "cuisine": "breakfast;pancake", "name": "The Original Pancake House", "opening_hours": "Mo-Fr 07:00-14:00; Sa-Su 07:00-15:00", "payment:mastercard": "yes", "payment:visa": "yes"}}, {"type": "node", "id": 4461363951, "lat": 47.3608996, "lon": -122.018775, "tags": {"addr:city": "Maple Valley", "addr:housenumber": "26828", "addr:postcode": "98038", "addr:state": "WA", "addr:street": "Maple Valley Black Diamond Road Southeast", "amenity": "post_office", "brand": "The UPS Store", "brand:wikidata": "Q7771029", "check_date": "2024-10-07", "name": "The UPS Store", "opening_hours": "Mo-Fr 08:30-18:30; Sa 09:00-17:00; Su 10:00-15:00", "operator": "The UPS Store", "operator:type": "private", "operator:wikidata": "Q7771029", "operator:wikipedia": "en:The UPS Store", "payment:mastercard": "yes", "payment:visa": "yes", "shop": "copyshop", "short_name": "UPS"}}, {"type": "node", "id": 4461363955, "lat": 47.3615491, "lon": -122.022175, "tags": {"addr:city": "Maple Valley", "addr:door": "110", "addr:housenumber": "23916", "addr:postcode": "98038", "addr:state": "WA", "addr:street": "Southeast Kent-Kangley Road", "alt_name": "Verizon Wireless", "brand": "Verizon Authorized Retailer", "brand:wikidata": "Q919641", "check_date": "2024-10-07", "name": "Verizon", "opening_hours": "Mo-Fr 09:00-20:00; Sa 09:00-19:00; Su 10:00-17:00", "operator": "The Cellular Connection", "operator:short": "TCC", "operator:wikidata": "Q121336519", "payment:cash": "yes", "payment:credit_cards": "yes", "payment:debit_cards": "yes", "shop": "mobile_phone", "website": "https://locations.tccrocks.com/wa/maple-valley/23916-b-se-kent-kangley-road.html"}}, {"type": "node", "id": 4461364332, "lat": 47.356234, "lon": -122.0350663}, {"type": "node", "id": 4461364605, "lat": 47.3608803, "lon": -122.0217268, "tags": {"addr:city": "Maple Valley", "addr:door": "C", "addr:housenumber": "24015", "addr:postcode": "98038", "addr:state": "WA", "addr:street": "Southeast Kent-Kangley Road", "addr:unit": "C", "amenity": "dentist", "check_date": "2024-10-07", "fax": "+1-425-433-0877", "healthcare": "dentist", "name": "Maple Valley Dentistry Professionals", "name:en": "Maple Valley Dentistry Professionals", "opening_hours": "Mo 10:00-18:00; Tu 09:00-17:00; We 12:00-19:00; Th 09:00-19:00; Fr 08:00-13:00; Sa-Su off", "payment:cash": "yes", "payment:credit_cards": "yes", "payment:debit_cards": "yes", "phone": "+1-425-433-0600", "website": "https://maplevalleydentist.com/"}}, {"type": "node", "id": 4461364606, "lat": 47.3610202, "lon": -122.0212478}, {"type": "node", "id": 4461364626, "lat": 47.3617335, "lon": -122.0183548}, {"type": "node", "id": 4461364628, "lat": 47.361758, "lon": -122.0180976}, {"type": "node", "id": 4461364633, "lat": 47.3617774, "lon": -122.0184211}, {"type": "node", "id": 4461364634, "lat": 47.3617828, "lon": -122.018365}, {"type": "node", "id": 4461364636, "lat": 47.3617918, "lon": -122.0181046}, {"type": "node", "id": 4461364637, "lat": 47.3617979, "lon": -122.0180403}, {"type": "node", "id": 4461364643, "lat": 47.3618655, "lon": -122.0184394}, {"type": "node", "id": 4461364644, "lat": 47.3618666, "lon": -122.0184281}, {"type": "node", "id": 4461364647, "lat": 47.3618996, "lon": -122.0184701}, {"type": "node", "id": 4461364648, "lat": 47.3619029, "lon": -122.0184357}, {"type": "node", "id": 4461364666, "lat": 47.3620271, "lon": -122.0184966}, {"type": "node", "id": 4461364668, "lat": 47.3620339, "lon": -122.0184247}, {"type": "node", "id": 4461364669, "lat": 47.3620541, "lon": -122.0182078}, {"type": "node", "id": 4461364670, "lat": 47.3620635, "lon": -122.0184308}, {"type": "node", "id": 4461364671, "lat": 47.3620648, "lon": -122.0180957}, {"type": "node", "id": 4461364673, "lat": 47.3620842, "lon": -122.0182141}, {"type": "node", "id": 4461364800, "lat": 47.3624156, "lon": -122.020293}, {"type": "node", "id": 4461364801, "lat": 47.3625108, "lon": -122.018398}, {"type": "node", "id": 4461364802, "lat": 47.3624506, "lon": -122.0199547}, {"type": "node", "id": 4461364803, "lat": 47.3625481, "lon": -122.0180337}, {"type": "node", "id": 4461364806, "lat": 47.3626247, "lon": -122.0184234}, {"type": "node", "id": 4461364810, "lat": 47.3626086, "lon": -122.0203366}, {"type": "node", "id": 4461364811, "lat": 47.362662, "lon": -122.0180591}, {"type": "node", "id": 4461364813, "lat": 47.3626437, "lon": -122.0199984}, {"type": "node", "id": 4461364816, "lat": 47.3627055, "lon": -122.0208904}, {"type": "node", "id": 4461364817, "lat": 47.3627196, "lon": -122.0207405}, {"type": "node", "id": 4461364828, "lat": 47.3628099, "lon": -122.0207415}, {"type": "node", "id": 4461364838, "lat": 47.3629098, "lon": -122.0208298}, {"type": "node", "id": 4461364840, "lat": 47.362916, "lon": -122.0207633}, {"type": "node", "id": 4461364841, "lat": 47.362928, "lon": -122.020936}, {"type": "node", "id": 4461364843, "lat": 47.3629375, "lon": -122.0208354}, {"type": "node", "id": 4461364850, "lat": 47.3630032, "lon": -122.0181953}, {"type": "node", "id": 4461364852, "lat": 47.3630128, "lon": -122.0180975}, {"type": "node", "id": 4461364855, "lat": 47.3630595, "lon": -122.0193457}, {"type": "node", "id": 4461364857, "lat": 47.3630647, "lon": -122.019293}, {"type": "node", "id": 4461364858, "lat": 47.3630803, "lon": -122.0191357}, {"type": "node", "id": 4461364861, "lat": 47.3631605, "lon": -122.0193137}, {"type": "node", "id": 4461364862, "lat": 47.3631697, "lon": -122.0182312}, {"type": "node", "id": 4461364863, "lat": 47.363176, "lon": -122.0191564}, {"type": "node", "id": 4461364867, "lat": 47.3632574, "lon": -122.0193346}, {"type": "node", "id": 4461364868, "lat": 47.3632729, "lon": -122.0191772}, {"type": "node", "id": 4461364872, "lat": 47.3633506, "lon": -122.0193546}, {"type": "node", "id": 4461364873, "lat": 47.3633618, "lon": -122.0194325}, {"type": "node", "id": 4461364874, "lat": 47.3633639, "lon": -122.0194113}, {"type": "node", "id": 4461364875, "lat": 47.3633662, "lon": -122.0191973}, {"type": "node", "id": 4461364878, "lat": 47.3634221, "lon": -122.0194853}, {"type": "node", "id": 4461364879, "lat": 47.363426, "lon": -122.0194463}, {"type": "node", "id": 4461364880, "lat": 47.3634407, "lon": -122.0192134}, {"type": "node", "id": 4461364882, "lat": 47.3634567, "lon": -122.0193775}, {"type": "node", "id": 4461364884, "lat": 47.3634673, "lon": -122.0192699}, {"type": "node", "id": 4461364885, "lat": 47.3635381, "lon": -122.0195103}, {"type": "node", "id": 4461364886, "lat": 47.3635421, "lon": -122.0194697}, {"type": "node", "id": 4461364888, "lat": 47.3636042, "lon": -122.019483}, {"type": "node", "id": 4461364989, "lat": 47.3636089, "lon": -122.0194355}, {"type": "node", "id": 4461364992, "lat": 47.3637815, "lon": -122.0182631}, {"type": "node", "id": 4461364994, "lat": 47.3638055, "lon": -122.0182082}, {"type": "node", "id": 4461364995, "lat": 47.3638782, "lon": -122.0182189}, {"type": "node", "id": 4461364999, "lat": 47.3640055, "lon": -122.0195627}, {"type": "node", "id": 4461365000, "lat": 47.3640095, "lon": -122.0195218}, {"type": "node", "id": 4461365003, "lat": 47.3641024, "lon": -122.0196228}, {"type": "node", "id": 4461365004, "lat": 47.3641062, "lon": -122.0195844}, {"type": "node", "id": 4461365011, "lat": 47.3642752, "lon": -122.01966}, {"type": "node", "id": 4461365012, "lat": 47.3642785, "lon": -122.0196264}, {"type": "node", "id": 4461365015, "lat": 47.3642774, "lon": -122.0233321}, {"type": "node", "id": 4461365017, "lat": 47.3643707, "lon": -122.0196463}, {"type": "node", "id": 4461365018, "lat": 47.3643781, "lon": -122.0195711}, {"type": "node", "id": 4461365030, "lat": 47.36458, "lon": -122.0213757}, {"type": "node", "id": 4461365031, "lat": 47.3646004, "lon": -122.0212014}, {"type": "node", "id": 4461365032, "lat": 47.3646011, "lon": -122.0196191}, {"type": "node", "id": 4461365033, "lat": 47.3646108, "lon": -122.021113}, {"type": "node", "id": 4461365034, "lat": 47.3646109, "lon": -122.0214066}, {"type": "node", "id": 4461365035, "lat": 47.3646135, "lon": -122.0213843}, {"type": "node", "id": 4461365037, "lat": 47.3646437, "lon": -122.0211214}, {"type": "node", "id": 4461365038, "lat": 47.364649, "lon": -122.0210762}, {"type": "node", "id": 4461365042, "lat": 47.3647085, "lon": -122.0214316}, {"type": "node", "id": 4461365043, "lat": 47.3647147, "lon": -122.0184703}, {"type": "node", "id": 4461365045, "lat": 47.3647404, "lon": -122.0211434}, {"type": "node", "id": 4461365046, "lat": 47.3647454, "lon": -122.0211008}, {"type": "node", "id": 4461365047, "lat": 47.3647497, "lon": -122.0213962}, {"type": "node", "id": 4461365049, "lat": 47.3647782, "lon": -122.021153}, {"type": "node", "id": 4461365050, "lat": 47.3649203, "lon": -122.0220781}, {"type": "node", "id": 4461365066, "lat": 47.3648696, "lon": -122.0232939, "tags": {"addr:city": "Maple Valley", "addr:housenumber": "23821", "addr:postcode": "98038", "addr:state": "WA", "addr:street": "Southeast 264th Street", "name": "Fix Auto Maple Valley", "shop": "car_repair"}}, {"type": "node", "id": 4461365209, "lat": 47.3609336, "lon": -122.0211989}, {"type": "node", "id": 4462238769, "lat": 47.3724404, "lon": -122.0235775}, {"type": "node", "id": 4462239401, "lat": 47.370338, "lon": -122.0230555}, {"type": "node", "id": 4462239402, "lat": 47.3702363, "lon": -122.0234632}, {"type": "node", "id": 4462266858, "lat": 47.361677, "lon": -122.0241324}, {"type": "node", "id": 4462266881, "lat": 47.3582036, "lon": -122.0270074}, {"type": "node", "id": 4462266883, "lat": 47.3580588, "lon": -122.0321082}, {"type": "node", "id": 4462666358, "lat": 47.3525935, "lon": -122.0230163}, {"type": "node", "id": 4462666359, "lat": 47.3525973, "lon": -122.0256803}, {"type": "node", "id": 4462666360, "lat": 47.3526016, "lon": -122.0263675}, {"type": "node", "id": 4462666708, "lat": 47.3707755, "lon": -122.0195611}, {"type": "node", "id": 4462687307, "lat": 47.367281, "lon": -122.0230785, "tags": {"addr:city": "Maple Valley", "addr:housenumber": "26157", "addr:postcode": "98038", "addr:state": "WA", "addr:street": "Maple Valley-Black Diamond Road Southeast", "check_date": "2024-10-04", "name": "Rock Creek Lube Center", "opening_hours": "Mo-Fr 08:00-18:00; Sa 08:00-16:00", "phone": "+1-425-413-0165", "shop": "car_repair", "website": "http://rockcreeklubecenter.com"}}, {"type": "node", "id": 4462687314, "lat": 47.3686266, "lon": -122.0229497, "tags": {"addr:city": "Maple Valley", "addr:housenumber": "26031", "addr:postcode": "98038", "addr:state": "WA", "addr:street": "Maple Valley-Black Diamond Road Southeast", "brand": "U-Haul", "brand:wikidata": "Q7862902", "check_date": "2024-10-04", "name": "U-Haul", "opening_hours": "Mo-Sa 09:00-18:00", "shop": "rental"}}, {"type": "node", "id": 4462687360, "lat": 47.3456209, "lon": -122.0170302}, {"type": "node", "id": 4462687362, "lat": 47.3456947, "lon": -122.0184141}, {"type": "node", "id": 4462687635, "lat": 47.3646732, "lon": -122.0244295}, {"type": "node", "id": 4462687636, "lat": 47.3646748, "lon": -122.0236663}, {"type": "node", "id": 4462687637, "lat": 47.3650773, "lon": -122.0244312}, {"type": "node", "id": 4462687638, "lat": 47.365102, "lon": -122.0243848}, {"type": "node", "id": 4462687639, "lat": 47.3651035, "lon": -122.0236682}, {"type": "node", "id": 4464321356, "lat": 47.3466352, "lon": -122.0238872, "tags": {"amenity": "bench"}}, {"type": "node", "id": 4475429962, "lat": 47.357733, "lon": -122.0210254}, {"type": "node", "id": 4475429963, "lat": 47.3575977, "lon": -122.0209957}, {"type": "node", "id": 4475429964, "lat": 47.3576127, "lon": -122.0208466}, {"type": "node", "id": 4475429965, "lat": 47.3575465, "lon": -122.020832}, {"type": "node", "id": 4475429966, "lat": 47.3575496, "lon": -122.0208008}, {"type": "node", "id": 4475429967, "lat": 47.3573637, "lon": -122.02076}, {"type": "node", "id": 4475429968, "lat": 47.3573933, "lon": -122.0204659}, {"type": "node", "id": 4475429969, "lat": 47.3575791, "lon": -122.0205067}, {"type": "node", "id": 4475429970, "lat": 47.3575822, "lon": -122.0204757}, {"type": "node", "id": 4475429971, "lat": 47.3576347, "lon": -122.0204872}, {"type": "node", "id": 4475429972, "lat": 47.3576373, "lon": -122.0204611}, {"type": "node", "id": 4475429973, "lat": 47.3577172, "lon": -122.0204786}, {"type": "node", "id": 4475429974, "lat": 47.3577149, "lon": -122.0205013}, {"type": "node", "id": 4475429975, "lat": 47.3577843, "lon": -122.0205165}, {"type": "node", "id": 4496324627, "lat": 47.3537797, "lon": -122.0210638, "tags": {"amenity": "bench"}}, {"type": "node", "id": 4496342793, "lat": 47.3637692, "lon": -122.0259196, "tags": {"amenity": "bench"}}, {"type": "node", "id": 4496342799, "lat": 47.3638696, "lon": -122.0259619, "tags": {"amenity": "bench"}}, {"type": "node", "id": 4496342825, "lat": 47.3642025, "lon": -122.0262542, "tags": {"amenity": "bench"}}, {"type": "node", "id": 4496342830, "lat": 47.3642775, "lon": -122.0262723, "tags": {"amenity": "bench"}}, {"type": "node", "id": 4496342839, "lat": 47.3649283, "lon": -122.0327116}, {"type": "node", "id": 4496342840, "lat": 47.3649546, "lon": -122.0326419}, {"type": "node", "id": 4496342844, "lat": 47.3649901, "lon": -122.0325976}, {"type": "node", "id": 4496342845, "lat": 47.3649928, "lon": -122.032717}, {"type": "node", "id": 4496342846, "lat": 47.3650309, "lon": -122.0325815}, {"type": "node", "id": 4496342847, "lat": 47.3650664, "lon": -122.0327291}, {"type": "node", "id": 4496342849, "lat": 47.3650845, "lon": -122.0325909}, {"type": "node", "id": 4496342853, "lat": 47.3651191, "lon": -122.0326432}, {"type": "node", "id": 4496342854, "lat": 47.3651372, "lon": -122.0326902}, {"type": "node", "id": 4496342855, "lat": 47.3651381, "lon": -122.0327572}, {"type": "node", "id": 4496391840, "lat": 47.3651027, "lon": -122.0240636, "tags": {"barrier": "gate", "locked": "yes"}}, {"type": "node", "id": 4590220371, "lat": 47.3606302, "lon": -122.0211265, "tags": {"addr:city": "Maple Valley", "addr:door": "103", "addr:floor": "1", "addr:housenumber": "26837", "addr:postcode": "98038", "addr:state": "WA", "addr:street": "Maple Valley-Black Diamond Road Southeast", "brand": "American Family Insurance", "brand:wikidata": "Q4743730", "check_date": "2025-01-21", "internet_access": "wlan", "internet_access:fee": "customers", "name": "American Family Insurance", "office": "insurance", "opening_hours": "By appointment", "phone": "+1-425-432-4020"}}, {"type": "node", "id": 4590220373, "lat": 47.3597434, "lon": -122.0217765, "tags": {"addr:city": "Maple Valley", "addr:housenumber": "26923", "addr:postcode": "98038", "addr:state": "WA", "addr:street": "Maple Valley-Black Diamond Road Southeast", "beauty": "nails", "check_date": "2024-10-07", "name": "DH Nails & Spa", "opening_hours": "Mo-Fr 10:00-19:30; Sa 09:00-18:30; Su 11:00-17:30", "payment:cash": "yes", "payment:credit_cards": "yes", "payment:debit_cards": "yes", "phone": "+1-425-432-2877", "shop": "beauty"}}, {"type": "node", "id": 4590220374, "lat": 47.3599077, "lon": -122.0218267, "tags": {"addr:city": "Maple Valley", "addr:housenumber": "26915", "addr:postcode": "98038", "addr:state": "WA", "addr:street": "Maple Valley-Black Diamond Road Southeast", "amenity": "restaurant", "check_date": "2024-10-07", "cuisine": "mexican", "name": "El Caporal Family Mexican Restaurant", "opening_hours": "Su-Th 11:00-21:30; Fr-Sa 11:00-22:00", "payment:mastercard": "yes", "payment:visa": "yes"}}, {"type": "node", "id": 4590220375, "lat": 47.3602241, "lon": -122.021874, "tags": {"addr:city": "Maple Valley", "addr:housenumber": "26905", "addr:postcode": "98038", "addr:state": "WA", "addr:street": "Maple Valley-Black Diamond Road Southeast", "amenity": "restaurant", "check_date": "2024-10-07", "internet_access": "wlan", "internet_access:fee": "customers", "name": "Four Corners Bar & Grill", "opening_hours": "Mo 10:00-23:00; Tu-Th 10:00-24:00; Fr 10:00-02:00; Sa 09:00-02:00; Su 09:00-23:00", "payment:mastercard": "yes", "payment:visa": "yes"}}, {"type": "node", "id": 4590220376, "lat": 47.3604152, "lon": -122.0222998, "tags": {"addr:city": "Maple Valley", "addr:housenumber": "23911", "addr:postcode": "98038", "addr:state": "WA", "addr:street": "Southeast Kent-Kangley Road", "amenity": "veterinary", "check_date": "2024-10-07", "name": "Animal Hospital of Maple Valley", "opening_hours": "Mo-Fr 08:00-18:00; Sa-Su off"}}, {"type": "node", "id": 4590220377, "lat": 47.3604129, "lon": -122.0219849, "tags": {"addr:city": "Maple Valley", "addr:housenumber": "23917", "addr:postcode": "98038", "addr:state": "WA", "addr:street": "Southeast Kent-Kangley Road", "amenity": "restaurant", "check_date": "2025-01-07", "cuisine": "indian", "name": "Roaring Indian"}}, {"type": "node", "id": 4590220378, "lat": 47.3602962, "lon": -122.0219786, "tags": {"addr:city": "Maple Valley", "addr:housenumber": "26901", "addr:postcode": "98038", "addr:state": "WA", "addr:street": "Maple Valley-Black Diamond Road Southeast", "check_date": "2024-10-07", "name": "Julie's Hair Salon", "shop": "hairdresser"}}, {"type": "node", "id": 4590220380, "lat": 47.3600119, "lon": -122.0218226, "tags": {"addr:city": "Maple Valley", "addr:housenumber": "26911", "addr:postcode": "98038", "addr:state": "WA", "addr:street": "Maple Valley-Black Diamond Road Southeast", "check_date": "2024-10-07", "name": "Music Trader", "opening_hours": "Mo-Th 10:00-18:00; Fr-Sa 10:00-16:00; Su off", "payment:mastercard": "yes", "payment:visa": "yes", "phone": "+1-425-413-4343", "shop": "music"}}, {"type": "node", "id": 4590220381, "lat": 47.3604958, "lon": -122.0210822, "tags": {"addr:city": "Maple Valley", "addr:door": "201", "addr:floor": "2", "addr:housenumber": "26837", "addr:postcode": "98038", "addr:state": "WA", "addr:street": "Maple Valley-Black Diamond Road Southeast", "amenity": "doctors", "check_date": "2024-11-11", "healthcare": "doctor", "healthcare:speciality": "physiotherapy", "name": "Outpatient Physical Therapy", "payment:cash": "yes", "payment:credit_cards": "yes", "payment:debit_cards": "yes"}}, {"type": "node", "id": 4590220382, "lat": 47.3595274, "lon": -122.021746, "tags": {"addr:city": "Maple Valley", "addr:housenumber": "26929", "addr:postcode": "98038", "addr:state": "WA", "addr:street": "Maple Valley-Black Diamond Road Southeast", "brand": "Allstate", "brand:wikidata": "Q2645636", "check_date": "2024-10-07", "name": "Allstate - Four Corners Insurance", "office": "insurance", "opening_hours": "Mo-Fr 09:00-17:00", "phone": "+1-425-432-1912"}}, {"type": "node", "id": 4590220383, "lat": 47.3605712, "lon": -122.021106, "tags": {"addr:city": "Maple Valley", "addr:door": "102", "addr:floor": "1", "addr:housenumber": "26837", "addr:postcode": "98038", "addr:state": "WA", "addr:street": "Maple Valley-Black Diamond Road Southeast", "alt_name": "Edward Jones Investments", "brand": "Edward Jones", "brand:wikidata": "Q5343830", "check_date": "2025-01-21", "name": "Edward Jones", "office": "financial_advisor", "phone": "+1-425-358-7698"}}, {"type": "node", "id": 4590220384, "lat": 47.3603415, "lon": -122.021488}, {"type": "node", "id": 4590220385, "lat": 47.3596787, "lon": -122.0217519, "tags": {"addr:city": "Maple Valley", "addr:housenumber": "26925", "addr:postcode": "98038", "addr:state": "WA", "addr:street": "Maple Valley-Black Diamond Road Southeast", "check_date": "2024-10-07", "name": "Tobacco Depot", "opening_hours": "Mo-Sa 09:00-19:00; Su 09:00-16:00", "payment:cash": "yes", "payment:credit_cards": "yes", "payment:debit_cards": "yes", "shop": "tobacco"}}, {"type": "node", "id": 4590220386, "lat": 47.3597924, "lon": -122.021777, "tags": {"addr:city": "Maple Valley", "addr:housenumber": "26921", "addr:postcode": "98038", "addr:state": "WA", "addr:street": "Maple Valley-Black Diamond Road Southeast", "check_date": "2024-10-07", "name": "Northwest Bicycle", "opening_hours": "Mo,Su off; Tu-Fr 10:00-18:00; Sa 10:00-17:00", "payment:mastercard": "yes", "payment:visa": "yes", "shop": "bicycle"}}, {"type": "node", "id": 4590220387, "lat": 47.3595976, "lon": -122.021746, "tags": {"addr:city": "Maple Valley", "addr:housenumber": "26927", "addr:postcode": "98038", "addr:state": "WA", "addr:street": "Maple Valley-Black Diamond Road Southeast", "amenity": "restaurant", "check_date": "2024-10-07", "cuisine": "japanese", "name": "4 Corners Teriyaki", "opening_hours": "Mo,Su off; Tu-Sa 11:00-20:45", "payment:cash": "yes", "payment:credit_cards": "yes", "payment:debit_cards": "yes", "phone": "+1-425-413-9538"}}, {"type": "node", "id": 4590221846, "lat": 47.3686301, "lon": -122.0228512, "tags": {"addr:city": "Maple Valley", "addr:housenumber": "26031", "addr:postcode": "98038", "addr:state": "WA", "addr:street": "Maple Valley-Black Diamond Road Southeast", "check_date": "2024-10-04", "name": "Maple Valley Mini Storage", "opening_hours": "Mo-Sa 09:00-18:00", "phone": "+1-425-432-7443", "shop": "storage_rental"}}, {"type": "node", "id": 4590221847, "lat": 47.3453158, "lon": -122.0180037, "tags": {"addr:city": "Maple Valley", "addr:housenumber": "28610", "addr:postcode": "98038", "addr:state": "WA", "addr:street": "Maple Valley-Black Diamond Road Southeast", "name": "Chateau Storage", "name:en": "Chateau Storage", "shop": "storage_rental"}}, {"type": "node", "id": 4590221850, "lat": 47.3581999, "lon": -122.018773}, {"type": "node", "id": 4597209690, "lat": 47.366931, "lon": -122.0228126, "tags": {"addr:city": "Maple Valley", "addr:housenumber": "26207", "addr:postcode": "98038", "addr:state": "WA", "addr:street": "Maple Valley-Black Diamond Road Southeast", "addr:unit": "B", "amenity": "dojo", "check_date": "2024-10-04", "name": "Phantom Brazilian Jujitsu"}}, {"type": "node", "id": 4597259979, "lat": 47.3565002, "lon": -122.020436, "tags": {"addr:city": "Maple Valley", "addr:door": "A101", "addr:housenumber": "27317", "addr:postcode": "98038", "addr:state": "WA", "addr:street": "Maple Valley-Black Diamond Road Southeast", "amenity": "restaurant", "check_date": "2024-10-07", "cuisine": "pizza", "name": "Frankie's Pizza - Maple Valley", "opening_hours": "Mo-We 15:00-20:00; Th,Su 11:00-20:00; Fr-Sa 11:00-21:00", "payment:cash": "yes", "payment:credit_cards": "yes", "payment:debit_cards": "yes", "phone": "+1-425-413-8111", "website": "https://frankies-pizza-maplevalley.securebrygid.com/zgrid/proc/site/mobile/sitep.jsp"}}, {"type": "node", "id": 4597259980, "lat": 47.3553938, "lon": -122.020022, "tags": {"addr:city": "Maple Valley", "addr:housenumber": "27433", "addr:postcode": "98038", "addr:state": "WA", "addr:street": "Maple Valley Black Diamond Road Southeast", "amenity": "restaurant", "check_date": "2024-10-07", "cuisine": "mexican", "name": "Hacienda del Mar", "opening_hours": "Su-We 11:00-21:00; Th-Sa 11:00-22:00", "payment:cash": "yes", "payment:credit_cards": "yes", "payment:debit_cards": "yes", "website": "https://www.haciendadelmarmv.com/"}}, {"type": "node", "id": 4597259981, "lat": 47.3554811, "lon": -122.020046, "tags": {"addr:city": "Maple Valley", "addr:housenumber": "27433", "addr:postcode": "98038", "addr:state": "WA", "addr:street": "Maple Valley-Black Diamond Road Southeast", "addr:unit": "C-101", "amenity": "dentist", "check_date": "2025-07-18", "healthcare": "dentist", "healthcare:speciality": "implantology", "name": "Maple Valley Cosmentic and Family Dentistry", "opening_hours": "Mo,We-Fr 09:00-15:00; Tu 09:00-19:00", "operator": "Doctor Paul Roe", "payment:cash": "yes", "payment:credit_cards": "yes", "payment:debit_cards": "yes", "phone": "+1-425-413-4500", "website": "https://www.prcosmeticdentistry.com"}}, {"type": "node", "id": 4597259982, "lat": 47.3546597, "lon": -122.019971, "tags": {"addr:city": "Maple Valley", "addr:door": "D102", "addr:housenumber": "27539", "addr:postcode": "98038", "addr:state": "WA", "addr:street": "Maple Valley-Black Diamond Road Southeast", "amenity": "veterinary", "check_date": "2024-10-07", "name": "Pine Tree Veterinary Hospital", "opening_hours": "Mo-Fr 08:00-18:00; Sa 08:00-17:00; Su off", "payment:cash": "yes", "payment:credit_cards": "yes", "payment:debit_cards": "yes", "phone": "+1-425-432-2222"}}, {"type": "node", "id": 4597259984, "lat": 47.3568797, "lon": -122.020503, "tags": {"addr:city": "Maple Valley", "addr:door": "A108", "addr:housenumber": "27317", "addr:postcode": "98038", "addr:state": "WA", "addr:street": "Maple Valley-Black Diamond Road Southeast", "beauty": "nails", "check_date": "2024-10-07", "name": "Aroma Nails Spa", "opening_hours": "Mo-Sa 09:30-19:00; Su 10:30-18:00", "payment:cash": "yes", "payment:credit_cards": "yes", "payment:debit_cards": "yes", "shop": "beauty"}}, {"type": "node", "id": 4597259987, "lat": 47.3565951, "lon": -122.0204528, "tags": {"addr:city": "Maple Valley", "addr:door": "A102", "addr:housenumber": "27317", "addr:postcode": "98038", "addr:state": "WA", "addr:street": "Maple Valley-Black Diamond Road Southeast", "check_date": "2024-10-07", "internet_access": "wlan", "internet_access:fee": "customers", "name": "River Beauty Spa", "opening_hours": "Mo-Fr 09:00-19:00; Sa 10:00-17:00", "payment:cash": "yes", "payment:credit_cards": "yes", "payment:debit_cards": "yes", "phone": "+1-425-413-0061", "shop": "hairdresser"}}, {"type": "node", "id": 4653139961, "lat": 47.3617024, "lon": -122.0262997}, {"type": "node", "id": 4653139962, "lat": 47.3616288, "lon": -122.0263036}, {"type": "node", "id": 4653139963, "lat": 47.3614582, "lon": -122.0263554}, {"type": "node", "id": 4653139964, "lat": 47.3612725, "lon": -122.0264443}, {"type": "node", "id": 4653139965, "lat": 47.361112, "lon": -122.0264851}, {"type": "node", "id": 4653139966, "lat": 47.3610141, "lon": -122.0264888}, {"type": "node", "id": 4653139967, "lat": 47.3609038, "lon": -122.0264406}, {"type": "node", "id": 4653139968, "lat": 47.3605525, "lon": -122.0261591}, {"type": "node", "id": 4653139969, "lat": 47.3605324, "lon": -122.0260962}, {"type": "node", "id": 4653139970, "lat": 47.3605274, "lon": -122.0260184}, {"type": "node", "id": 4653139971, "lat": 47.3610969, "lon": -122.0245147}, {"type": "node", "id": 4653139972, "lat": 47.3612023, "lon": -122.0242369}, {"type": "node", "id": 4653139973, "lat": 47.361265, "lon": -122.0240073}, {"type": "node", "id": 4653139974, "lat": 47.3613077, "lon": -122.0237851}, {"type": "node", "id": 4653139975, "lat": 47.3613378, "lon": -122.0237814}, {"type": "node", "id": 4703953744, "lat": 47.3641001, "lon": -122.0208735}, {"type": "node", "id": 4703953745, "lat": 47.3636051, "lon": -122.0207577}, {"type": "node", "id": 4703953746, "lat": 47.3636374, "lon": -122.0204563}, {"type": "node", "id": 4703953747, "lat": 47.3641325, "lon": -122.0205721}, {"type": "node", "id": 4775148892, "lat": 47.3567996, "lon": -122.0270521}, {"type": "node", "id": 4789246732, "lat": 47.3658909, "lon": -122.027434, "tags": {"amenity": "waste_basket"}}, {"type": "node", "id": 4789249821, "lat": 47.3659029, "lon": -122.0274567, "tags": {"amenity": "bench"}}, {"type": "node", "id": 4842936720, "lat": 47.3628543, "lon": -122.0201337, "tags": {"addr:city": "Maple Valley", "addr:door": "H400", "addr:housenumber": "26636", "addr:postcode": "98038", "addr:state": "WA", "addr:street": "Maple Valley-Black Diamond Road Southeast", "amenity": "restaurant", "brand": "Pizza Hut", "brand:wikidata": "Q191615", "check_date": "2024-10-07", "cuisine": "pizza", "name": "Pizza Hut", "opening_hours": "Mo-Th,Su 10:00-23:00; Fr-Sa 10:00-24:00", "payment:cash": "yes", "payment:credit_cards": "yes", "payment:debit_cards": "yes", "phone": "+1-253-639-1900", "website": "https://locations.pizzahut.com/wa/maple-valley/26636-maple-valley-black-diamond-rd"}}, {"type": "node", "id": 4853756516, "lat": 47.3672555, "lon": -122.0227325, "tags": {"addr:city": "Maple Valley", "addr:housenumber": "26157", "addr:postcode": "98038", "addr:state": "WA", "addr:street": "Maple Valley-Black Diamond Road Southeast", "check_date": "2024-10-04", "name": "Eagle River Interiors", "opening_hours": "Mo-Fr 09:00-17:00", "phone": "+1-425-413-0090", "shop": "flooring"}}, {"type": "node", "id": 4853756519, "lat": 47.3598457, "lon": -122.0185591, "tags": {"addr:city": "Maple Valley", "addr:housenumber": "27002", "addr:postcode": "98038", "addr:state": "WA", "addr:street": "Maple Valley-Black Diamond Road Southeast", "check_date": "2024-10-07", "name": "Grace Cleaners", "opening_hours": "Mo-Fr 08:00-18:00; Sa 09:00-17:00; Su off", "payment:mastercard": "yes", "payment:visa": "yes", "phone": "+1-425-432-2155", "shop": "dry_cleaning"}}, {"type": "node", "id": 4853756527, "lat": 47.35953, "lon": -122.0184734, "tags": {"addr:city": "Maple Valley", "addr:housenumber": "27012", "addr:postcode": "98038", "addr:state": "WA", "addr:street": "Maple Valley-Black Diamond Road Southeast", "brand": "Sherwin-Williams", "brand:wikidata": "Q48881", "check_date": "2024-10-07", "internet_access": "wlan", "internet_access:fee": "no", "name": "Sherwin-Williams", "opening_hours": "Mo-Fr 07:00-18:00; Sa 08:00-17:00; Su 10:00-16:00", "payment:mastercard": "yes", "payment:visa": "yes", "shop": "paint"}}, {"type": "node", "id": 4853756529, "lat": 47.3631177, "lon": -122.0220356}, {"type": "node", "id": 4853756530, "lat": 47.3603917, "lon": -122.018652, "tags": {"addr:city": "Maple Valley", "addr:housenumber": "26916", "addr:postcode": "98038", "addr:state": "WA", "addr:street": "Maple Valley-Black Diamond Road Southeast", "amenity": "atm", "brand": "Wells Fargo", "brand:wikidata": "Q744149", "cash_in": "no", "check_date": "2025-06-13", "currency:USD": "yes", "drive_through": "no", "name": "Wells Fargo", "operator": "Wells Fargo", "operator:wikidata": "Q744149", "operator:wikipedia": "en:Wells Fargo"}}, {"type": "node", "id": 4853756531, "lat": 47.3605716, "lon": -122.018805, "tags": {"amenity": "parcel_locker", "brand": "Amazon Hub", "brand:wikidata": "Q100274430", "check_date": "2024-10-07", "name": "Amazon Hub Locker", "operator": "Amazon", "parcel_mail_in": "no", "parcel_pickup": "yes"}}, {"type": "node", "id": 4860812433, "lat": 47.3639426, "lon": -122.0224487}, {"type": "node", "id": 4860812434, "lat": 47.3639091, "lon": -122.022442}, {"type": "node", "id": 4860812435, "lat": 47.3639056, "lon": -122.0224804}, {"type": "node", "id": 4860812436, "lat": 47.3638613, "lon": -122.0224714}, {"type": "node", "id": 4860812437, "lat": 47.3638655, "lon": -122.0224267}, {"type": "node", "id": 4860812438, "lat": 47.3637831, "lon": -122.0224101}, {"type": "node", "id": 4860812441, "lat": 47.3638481, "lon": -122.02209}, {"type": "node", "id": 4860812442, "lat": 47.3639734, "lon": -122.0221152}, {"type": "node", "id": 4868257226, "lat": 47.3668671, "lon": -122.0228197, "tags": {"addr:city": "Maple Valley", "addr:housenumber": "26207", "addr:postcode": "98038", "addr:state": "WA", "addr:street": "Maple Valley-Black Diamond Road Southeast", "addr:unit": "B", "check_date": "2024-10-04", "name": "Bud Hut", "opening_hours": "Mo-Sa 09:00-22:00; Su 09:00-21:00", "shop": "cannabis"}}, {"type": "node", "id": 4868257228, "lat": 47.3667691, "lon": -122.0226789, "tags": {"addr:city": "Maple Valley", "addr:housenumber": "26207", "addr:postcode": "98038", "addr:state": "WA", "addr:street": "Maple Valley-Black Diamond Road Southeast", "addr:unit": "A", "check_date": "2024-10-04", "name": "Chocolates, Cherries, & Blondes", "opening_hours": "Mo,Su 10:00-16:00; Tu-Th 09:00-21:00; Fr 09:00-20:00; Sa 08:00-18:00", "payment:cash": "yes", "payment:credit_cards": "yes", "payment:debit_cards": "yes", "shop": "hairdresser"}}, {"type": "node", "id": 4919968722, "lat": 47.3610786, "lon": -122.0201759, "tags": {"amenity": "atm", "check_date": "2024-10-07"}}, {"type": "node", "id": 4919976222, "lat": 47.3621134, "lon": -122.0169807}, {"type": "node", "id": 4927801128, "lat": 47.3603409, "lon": -122.0181137, "tags": {"addr:city": "Maple Valley", "addr:housenumber": "26916", "addr:postcode": "98038", "addr:state": "WA", "addr:street": "Maple Valley-Black Diamond Road Southeast", "amenity": "pharmacy", "brand": "Safeway", "brand:wikidata": "Q1508234", "check_date": "2024-07-04", "dispensing": "yes", "healthcare": "pharmacy", "name": "Safeway", "opening_hours": "Mo-Fr 09:00-21:00; Sa-Su 10:00-18:00", "payment:mastercard": "yes", "payment:visa": "yes", "website": "https://local.pharmacy.safeway.com/safeway/wa/maple-valley/26916-maple-valley-rd.html", "wheelchair": "yes"}}, {"type": "node", "id": 4927801177, "lat": 47.3578786, "lon": -122.0217777}, {"type": "node", "id": 4927807755, "lat": 47.3611471, "lon": -122.0214383, "tags": {"amenity": "compressed_air"}}, {"type": "node", "id": 4927807756, "lat": 47.3612166, "lon": -122.0213978, "tags": {"amenity": "vending_machine", "content": "propane", "man_made": "storage_tank", "vending": "propane"}}, {"type": "node", "id": 4927807760, "lat": 47.3456131, "lon": -122.0178365}, {"type": "node", "id": 4927807791, "lat": 47.3453221, "lon": -122.0180883, "tags": {"addr:city": "Maple Valley", "addr:housenumber": "28610", "addr:postcode": "98038", "addr:state": "WA", "addr:street": "Maple Valley-Black Diamond Road Southeast", "name": "Leslie J. Gibbons L.M.H.C", "office": "company"}}, {"type": "node", "id": 4927807792, "lat": 47.345331, "lon": -122.0182113, "tags": {"addr:city": "Maple Valley", "addr:housenumber": "28610", "addr:postcode": "98038", "addr:state": "WA", "addr:street": "Maple Valley-Black Diamond Road Southeast", "name": "Massage & Skin Care", "shop": "massage"}}, {"type": "node", "id": 4927807793, "lat": 47.345376, "lon": -122.018207, "tags": {"addr:city": "Maple Valley", "addr:housenumber": "28610", "addr:postcode": "98038", "addr:state": "WA", "addr:street": "Maple Valley-Black Diamond Road Southeast", "brand": "State Farm", "brand:wikidata": "Q2007336", "name": "State Farm", "office": "insurance"}}, {"type": "node", "id": 4927807794, "lat": 47.3452717, "lon": -122.0180024, "tags": {"addr:city": "Maple Valley", "addr:housenumber": "28610", "addr:postcode": "98038", "addr:state": "WA", "addr:street": "Maple Valley-Black Diamond Road Southeast", "name": "First Financial Realty", "office": "estate_agent"}}, {"type": "node", "id": 4927807795, "lat": 47.3441843, "lon": -122.0167146}, {"type": "node", "id": 4927807796, "lat": 47.3447021, "lon": -122.018181}, {"type": "node", "id": 4927807798, "lat": 47.3436795, "lon": -122.0179159}, {"type": "node", "id": 4949570869, "lat": 47.3558293, "lon": -122.030586}, {"type": "node", "id": 4949570870, "lat": 47.3558911, "lon": -122.0303392}, {"type": "node", "id": 4949570871, "lat": 47.3559665, "lon": -122.0300691}, {"type": "node", "id": 4949570873, "lat": 47.3563679, "lon": -122.030225}, {"type": "node", "id": 4949570874, "lat": 47.3563913, "lon": -122.0301595}, {"type": "node", "id": 4949570875, "lat": 47.3565094, "lon": -122.0302568}, {"type": "node", "id": 4949570876, "lat": 47.3565326, "lon": -122.0301995}, {"type": "node", "id": 4949570880, "lat": 47.3567169, "lon": -122.0303293}, {"type": "node", "id": 4949570881, "lat": 47.3566047, "lon": -122.0306671}, {"type": "node", "id": 4949570882, "lat": 47.3565495, "lon": -122.0309024}, {"type": "node", "id": 4949570884, "lat": 47.3565148, "lon": -122.0311626}, {"type": "node", "id": 4949570885, "lat": 47.3557869, "lon": -122.030885}, {"type": "node", "id": 4949570886, "lat": 47.3556089, "lon": -122.0323391}, {"type": "node", "id": 4949570887, "lat": 47.3556719, "lon": -122.0323559}, {"type": "node", "id": 4949570888, "lat": 47.3556668, "lon": -122.0323979}, {"type": "node", "id": 4949570889, "lat": 47.355793, "lon": -122.0324315}, {"type": "node", "id": 4949570890, "lat": 47.3558128, "lon": -122.0322697}, {"type": "node", "id": 4949570891, "lat": 47.3558456, "lon": -122.0322784}, {"type": "node", "id": 4949570892, "lat": 47.3558561, "lon": -122.0321926}, {"type": "node", "id": 4949570893, "lat": 47.3559775, "lon": -122.032225}, {"type": "node", "id": 4949570894, "lat": 47.3560071, "lon": -122.0319832}, {"type": "node", "id": 4949570895, "lat": 47.3560891, "lon": -122.032005}, {"type": "node", "id": 4949570896, "lat": 47.3560973, "lon": -122.0319383}, {"type": "node", "id": 4949570897, "lat": 47.3562065, "lon": -122.0319674}, {"type": "node", "id": 4949570898, "lat": 47.3562103, "lon": -122.0319367}, {"type": "node", "id": 4949570899, "lat": 47.3563657, "lon": -122.0319781}, {"type": "node", "id": 4949572566, "lat": 47.3554637, "lon": -122.035063}, {"type": "node", "id": 4949572567, "lat": 47.3555307, "lon": -122.0333242}, {"type": "node", "id": 4949572568, "lat": 47.3557494, "lon": -122.0308113}, {"type": "node", "id": 4949572569, "lat": 47.3558293, "lon": -122.0303661}, {"type": "node", "id": 4949572570, "lat": 47.3561201, "lon": -122.0295453}, {"type": "node", "id": 4949572571, "lat": 47.3562618, "lon": -122.0295399}, {"type": "node", "id": 4949572572, "lat": 47.3566652, "lon": -122.0287541}, {"type": "node", "id": 4949572574, "lat": 47.3578905, "lon": -122.0217232}, {"type": "node", "id": 4949572575, "lat": 47.3581129, "lon": -122.0218094}, {"type": "node", "id": 4949572577, "lat": 47.3580188, "lon": -122.0323201}, {"type": "node", "id": 4949572578, "lat": 47.357968, "lon": -122.0323281}, {"type": "node", "id": 4974707217, "lat": 47.358925, "lon": -122.02152}, {"type": "node", "id": 4974707218, "lat": 47.3588551, "lon": -122.0215052}, {"type": "node", "id": 4974707219, "lat": 47.358944, "lon": -122.0205914}, {"type": "node", "id": 4974707220, "lat": 47.3594327, "lon": -122.020695}, {"type": "node", "id": 4974711222, "lat": 47.3594479, "lon": -122.0208875}, {"type": "node", "id": 4974711223, "lat": 47.3594062, "lon": -122.0213164}, {"type": "node", "id": 4974711224, "lat": 47.3593725, "lon": -122.0213093}, {"type": "node", "id": 4974711225, "lat": 47.3593551, "lon": -122.0214887}, {"type": "node", "id": 4974711226, "lat": 47.359, "lon": -122.0214134}, {"type": "node", "id": 4974711227, "lat": 47.3589905, "lon": -122.0215111}, {"type": "node", "id": 4974711228, "lat": 47.3608988, "lon": -122.0225344}, {"type": "node", "id": 4974711229, "lat": 47.3609084, "lon": -122.0225355}, {"type": "node", "id": 4974711230, "lat": 47.3609134, "lon": -122.022442}, {"type": "node", "id": 4974711232, "lat": 47.3609136, "lon": -122.0222786}, {"type": "node", "id": 4974711233, "lat": 47.3607033, "lon": -122.0222542}, {"type": "node", "id": 4974711234, "lat": 47.3606948, "lon": -122.022415}, {"type": "node", "id": 4974711235, "lat": 47.3606836, "lon": -122.0224137}, {"type": "node", "id": 4974711236, "lat": 47.3606786, "lon": -122.022506}, {"type": "node", "id": 4974711237, "lat": 47.3606881, "lon": -122.0225071}, {"type": "node", "id": 4974711238, "lat": 47.3606822, "lon": -122.0226189}, {"type": "node", "id": 4974711239, "lat": 47.3606896, "lon": -122.0226198}, {"type": "node", "id": 4974711240, "lat": 47.3606878, "lon": -122.0226539}, {"type": "node", "id": 4974711241, "lat": 47.3607348, "lon": -122.0226607}, {"type": "node", "id": 4974711244, "lat": 47.3608149, "lon": -122.0226698}, {"type": "node", "id": 4974711245, "lat": 47.3608781, "lon": -122.0226768}, {"type": "node", "id": 4974711246, "lat": 47.3608798, "lon": -122.0226448}, {"type": "node", "id": 4974711247, "lat": 47.3608928, "lon": -122.0226463}, {"type": "node", "id": 4974711255, "lat": 47.361184, "lon": -122.0216581}, {"type": "node", "id": 4974711256, "lat": 47.3610385, "lon": -122.0216395}, {"type": "node", "id": 4974711257, "lat": 47.3610281, "lon": -122.0218179}, {"type": "node", "id": 4974711258, "lat": 47.3610355, "lon": -122.0212201}, {"type": "node", "id": 4974711259, "lat": 47.3610517, "lon": -122.0210501}, {"type": "node", "id": 4974711260, "lat": 47.3609498, "lon": -122.0210289}, {"type": "node", "id": 4974711262, "lat": 47.3608034, "lon": -122.0213519}, {"type": "node", "id": 4974711263, "lat": 47.3608173, "lon": -122.0212056}, {"type": "node", "id": 4974711265, "lat": 47.3610063, "lon": -122.0213941}, {"type": "node", "id": 4974711266, "lat": 47.360382, "lon": -122.0214964}, {"type": "node", "id": 4974711267, "lat": 47.3603929, "lon": -122.0213827}, {"type": "node", "id": 4974711268, "lat": 47.3603524, "lon": -122.0213743}, {"type": "node", "id": 5031189648, "lat": 47.3592904, "lon": -122.0198726, "tags": {"addr:city": "Maple Valley", "addr:housenumber": "27020", "addr:postcode": "98038", "addr:state": "WA", "addr:street": "Maple Valley-Black Diamond Road Southeast", "check_date": "2024-10-07", "name": "Safeway Express", "payment:cash": "yes", "payment:credit_cards": "yes", "payment:debit_cards": "yes", "shop": "convenience"}}, {"type": "node", "id": 5076588194, "lat": 47.3626059, "lon": -122.0231789}, {"type": "node", "id": 5076588200, "lat": 47.3625695, "lon": -122.0235482}, {"type": "node", "id": 5076588208, "lat": 47.3625442, "lon": -122.0238048}, {"type": "node", "id": 5077555223, "lat": 47.3631985, "lon": -122.0338382, "tags": {"amenity": "waste_basket"}}, {"type": "node", "id": 5080658224, "lat": 47.3686568, "lon": -122.0232477}, {"type": "node", "id": 5083066265, "lat": 47.3555161, "lon": -122.0336698}, {"type": "node", "id": 5118648221, "lat": 47.3630834, "lon": -122.0232025, "tags": {"amenity": "bicycle_parking"}}, {"type": "node", "id": 5118648222, "lat": 47.3638542, "lon": -122.0233666, "tags": {"amenity": "bicycle_parking"}}, {"type": "node", "id": 5118648321, "lat": 47.3633326, "lon": -122.023274, "tags": {"amenity": "bicycle_parking"}}, {"type": "node", "id": 5118648322, "lat": 47.3636065, "lon": -122.0233303, "tags": {"amenity": "bicycle_parking"}}, {"type": "node", "id": 5118731542, "lat": 47.3619295, "lon": -122.0205569, "tags": {"amenity": "bicycle_parking"}}, {"type": "node", "id": 5154257931, "lat": 47.3652568, "lon": -122.0263962, "tags": {"amenity": "waste_basket"}}, {"type": "node", "id": 5154259322, "lat": 47.3652735, "lon": -122.0264289, "tags": {"amenity": "bench"}}, {"type": "node", "id": 5154277422, "lat": 47.3634882, "lon": -122.022377, "tags": {"amenity": "bicycle_parking"}}, {"type": "node", "id": 5154277423, "lat": 47.3623871, "lon": -122.0216144, "tags": {"amenity": "bicycle_parking"}}, {"type": "node", "id": 5154277524, "lat": 47.3628469, "lon": -122.0218236, "tags": {"amenity": "bicycle_parking"}}, {"type": "node", "id": 5154277526, "lat": 47.361646, "lon": -122.022418, "tags": {"addr:city": "Maple Valley", "addr:door": "C", "addr:housenumber": "23916", "addr:postcode": "98038", "addr:state": "WA", "addr:street": "Southeast Kent-Kangley Road", "check_date": "2024-10-07", "name": "The Loft Salon", "phone": "+1-360-886-9955", "shop": "beauty"}}, {"type": "node", "id": 5237291625, "lat": 47.3640627, "lon": -122.0194945, "tags": {"addr:city": "Maple Valley", "addr:housenumber": "26520", "addr:postcode": "98038", "addr:state": "WA", "addr:street": "Maple Valley-Black Diamond Road Southeast", "air_conditioning": "yes", "amenity": "cafe", "branch": "Fred Meyer Maple Valley 682", "brand": "Starbucks", "brand:wikidata": "Q37158", "check_date": "2024-11-24", "cuisine": "coffee_shop", "drive_through": "no", "name": "Starbucks", "official_name": "Starbucks Coffee", "opening_hours": "Mo-Su 07:00-19:00", "outdoor_seating": "yes", "payment:cash": "yes", "payment:credit_cards": "yes", "payment:debit_cards": "yes", "phone": "+1-425-433-2300", "takeaway": "yes", "website": "https://www.starbucks.com/store-locator/store/1025789/fred-meyer-maple-valley-682-26520-maple-valley-black-diamond-rd-se-maple-valle"}}, {"type": "node", "id": 5237291626, "lat": 47.3638198, "lon": -122.0193724, "tags": {"addr:city": "Maple Valley", "addr:housenumber": "26520", "addr:postcode": "98038", "addr:state": "WA", "addr:street": "Maple Valley-Black Diamond Road Southeast", "amenity": "pharmacy", "brand": "Fred Meyer", "brand:wikidata": "Q5495932", "check_date": "2024-10-07", "healthcare": "pharmacy", "name": "Fred Meyer Pharmacy", "opening_hours": "Mo-Fr 09:00-20:00; Sa 09:00-18:00; Su 10:00-17:00", "payment:cash": "yes", "payment:credit_cards": "yes", "payment:debit_cards": "yes", "wheelchair": "yes"}}, {"type": "node", "id": 5276438721, "lat": 47.3635767, "lon": -122.0194606, "tags": {"amenity": "bicycle_parking"}}, {"type": "node", "id": 5276438722, "lat": 47.36398, "lon": -122.0195447, "tags": {"amenity": "bicycle_parking"}}, {"type": "node", "id": 5276450221, "lat": 47.3647643, "lon": -122.0213433, "tags": {"amenity": "bicycle_parking"}}, {"type": "node", "id": 5324201225, "lat": 47.364871, "lon": -122.0231533, "tags": {"addr:city": "Maple Valley", "addr:housenumber": "23829", "addr:postcode": "98038", "addr:state": "WA", "addr:street": "Southeast 264th Street", "name": "Maple Valley Towing", "opening_hours": "Mo-Fr 08:00-17:00", "shop": "car_repair"}}, {"type": "node", "id": 5326300521, "lat": 47.3566899, "lon": -122.0204696, "tags": {"addr:city": "Maple Valley", "addr:housenumber": "27317", "addr:postcode": "98038", "addr:state": "WA", "addr:street": "Maple Valley-Black Diamond Road Southeast", "amenity": "restaurant", "check_date": "2024-07-22", "cuisine": "sushi", "name": "Nori Sushi", "opening_hours": "Mo-Su 11:00-21:00", "payment:cash": "yes", "payment:credit_cards": "yes", "payment:debit_cards": "yes", "phone": "+1-425-358-7203", "website": "https://www.tokyomonstersushi.com/"}}, {"type": "node", "id": 5326300522, "lat": 47.356348, "lon": -122.0203086, "tags": {"amenity": "bicycle_parking"}}, {"type": "node", "id": 5326300821, "lat": 47.3560775, "lon": -122.0202258, "tags": {"amenity": "bicycle_parking"}}, {"type": "node", "id": 5367030221, "lat": 47.3711854, "lon": -122.0220911, "tags": {"amenity": "bicycle_parking"}}, {"type": "node", "id": 5369259516, "lat": 47.3604619, "lon": -122.0188235, "tags": {"entrance": "main"}}, {"type": "node", "id": 5369269332, "lat": 47.3637127, "lon": -122.0233283, "tags": {"entrance": "main"}}, {"type": "node", "id": 5369269333, "lat": 47.3628786, "lon": -122.0230997, "tags": {"entrance": "main"}}, {"type": "node", "id": 5369269360, "lat": 47.3641999, "lon": -122.0196438, "tags": {"entrance": "main"}}, {"type": "node", "id": 5369269361, "lat": 47.3634755, "lon": -122.0194968, "tags": {"entrance": "main"}}, {"type": "node", "id": 5369269482, "lat": 47.3630939, "lon": -122.019001}, {"type": "node", "id": 5371798558, "lat": 47.3713412, "lon": -122.0216858, "tags": {"amenity": "polling_station", "contact:email": "elections@kingcounty.gov", "contact:facebook": "https://www.facebook.com/kcelections", "contact:instagram": "https://www.instagram.com/kcelections/", "contact:phone": "+1-206-296-8683", "contact:phone:tollfree": "+1-800-325-6165", "contact:tty": "711", "contact:twitter": "https://twitter.com/KCElections", "contact:website": "https://kingcounty.gov/depts/elections.aspx", "contact:youtube": "https://www.youtube.com/user/kingcountyelections/", "opening_hours:url": "https://www.kingcounty.gov/depts/elections/how-to-vote/ballots/returning-my-ballot/ballot-drop-boxes.aspx", "operator": "King County Elections", "polling_station": "ballot_box"}}, {"type": "node", "id": 5372007885, "lat": 47.3659359, "lon": -122.0222133}, {"type": "node", "id": 5372007886, "lat": 47.3659135, "lon": -122.0224541}, {"type": "node", "id": 5372007887, "lat": 47.3658493, "lon": -122.0224411}, {"type": "node", "id": 5372007888, "lat": 47.3658717, "lon": -122.0222003}, {"type": "node", "id": 5372007906, "lat": 47.3653921, "lon": -122.0225148}, {"type": "node", "id": 5372007907, "lat": 47.3654154, "lon": -122.0225149}, {"type": "node", "id": 5372007908, "lat": 47.3654154, "lon": -122.022507}, {"type": "node", "id": 5372007909, "lat": 47.3654413, "lon": -122.0225072}, {"type": "node", "id": 5372007910, "lat": 47.3654413, "lon": -122.0224893}, {"type": "node", "id": 5372007911, "lat": 47.3654526, "lon": -122.0224894}, {"type": "node", "id": 5372007912, "lat": 47.3654527, "lon": -122.0224297}, {"type": "node", "id": 5372007913, "lat": 47.3654406, "lon": -122.0224296}, {"type": "node", "id": 5372007914, "lat": 47.3654406, "lon": -122.0224099}, {"type": "node", "id": 5372007915, "lat": 47.365445, "lon": -122.0224099}, {"type": "node", "id": 5372007916, "lat": 47.3654453, "lon": -122.0222814}, {"type": "node", "id": 5372007917, "lat": 47.3653333, "lon": -122.0222808}, {"type": "node", "id": 5372007918, "lat": 47.3653326, "lon": -122.0225532}, {"type": "node", "id": 5372007919, "lat": 47.365392, "lon": -122.0225535}, {"type": "node", "id": 5419068322, "lat": 47.357262, "lon": -122.0270315, "tags": {"amenity": "bicycle_parking"}}, {"type": "node", "id": 5419070421, "lat": 47.3577321, "lon": -122.0272518, "tags": {"amenity": "bicycle_parking"}}, {"type": "node", "id": 5419194261, "lat": 47.3547064, "lon": -122.0222509}, {"type": "node", "id": 5434039948, "lat": 47.3582031, "lon": -122.01899}, {"type": "node", "id": 5434039950, "lat": 47.3581047, "lon": -122.0187748}, {"type": "node", "id": 5434039951, "lat": 47.3581065, "lon": -122.0189917}, {"type": "node", "id": 5434040194, "lat": 47.3622238, "lon": -122.0169805}, {"type": "node", "id": 5434040195, "lat": 47.3623222, "lon": -122.0165774}, {"type": "node", "id": 5434040199, "lat": 47.3619304, "lon": -122.0169772}, {"type": "node", "id": 5434040200, "lat": 47.3620209, "lon": -122.0169798}, {"type": "node", "id": 5434040310, "lat": 47.3709387, "lon": -122.0217282}, {"type": "node", "id": 5434040311, "lat": 47.3710133, "lon": -122.0216989}, {"type": "node", "id": 5434040312, "lat": 47.3711398, "lon": -122.0222468}, {"type": "node", "id": 5434040314, "lat": 47.3710783, "lon": -122.0217356}, {"type": "node", "id": 5434041291, "lat": 47.3621133, "lon": -122.0170142}, {"type": "node", "id": 5434041292, "lat": 47.3622237, "lon": -122.0170153}, {"type": "node", "id": 5434041293, "lat": 47.3623224, "lon": -122.0165298}, {"type": "node", "id": 5434041294, "lat": 47.3624215, "lon": -122.0165307}, {"type": "node", "id": 5434041295, "lat": 47.3624195, "lon": -122.0169824}, {"type": "node", "id": 5434041296, "lat": 47.3619322, "lon": -122.0165736}, {"type": "node", "id": 5434041297, "lat": 47.3620193, "lon": -122.0173436}, {"type": "node", "id": 5434041298, "lat": 47.3618756, "lon": -122.0169767}, {"type": "node", "id": 5434041299, "lat": 47.3618739, "lon": -122.0173422}, {"type": "node", "id": 5434042773, "lat": 47.371154, "lon": -122.0221014}, {"type": "node", "id": 5434042774, "lat": 47.371153, "lon": -122.022247}, {"type": "node", "id": 5434042775, "lat": 47.3710147, "lon": -122.0215102}, {"type": "node", "id": 5434042776, "lat": 47.3708799, "lon": -122.0217273}, {"type": "node", "id": 5434042777, "lat": 47.3708814, "lon": -122.0215081}, {"type": "node", "id": 5434042778, "lat": 47.3710785, "lon": -122.0216999}, {"type": "node", "id": 5434042779, "lat": 47.3709328, "lon": -122.0225577}, {"type": "node", "id": 5434042780, "lat": 47.3711434, "lon": -122.0217366}, {"type": "node", "id": 5434042781, "lat": 47.3711376, "lon": -122.0225609}, {"type": "node", "id": 5438902532, "lat": 47.363545, "lon": -122.0233261}, {"type": "node", "id": 5438902539, "lat": 47.3638022, "lon": -122.0222035}, {"type": "node", "id": 5438902541, "lat": 47.3610319, "lon": -122.0188099, "tags": {"addr:city": "Maple Valley", "addr:housenumber": "26824", "addr:postcode": "98038", "addr:state": "WA", "addr:street": "Maple Valley-Black Diamond Road Southeast", "amenity": "veterinary", "check_date": "2024-10-07", "name": "Animal Surgical & Dental Clinic", "opening_hours": "Mo-Fr 08:00-17:00; Sa-Su off", "phone": "+1-425-569-2200"}}, {"type": "node", "id": 5441615310, "lat": 47.3645436, "lon": -122.0220258}, {"type": "node", "id": 5441615311, "lat": 47.3645199, "lon": -122.0222326}, {"type": "node", "id": 5441615313, "lat": 47.3644442, "lon": -122.02316}, {"type": "node", "id": 5441615315, "lat": 47.3642775, "lon": -122.0231599}, {"type": "node", "id": 5441615316, "lat": 47.3643973, "lon": -122.0222385}, {"type": "node", "id": 5441615318, "lat": 47.3644008, "lon": -122.0222055}, {"type": "node", "id": 5441615320, "lat": 47.3644087, "lon": -122.0224391}, {"type": "node", "id": 5441634125, "lat": 47.3644288, "lon": -122.0222457}, {"type": "node", "id": 5441634127, "lat": 47.3643782, "lon": -122.0224604}, {"type": "node", "id": 5441634131, "lat": 47.364381, "lon": -122.0224328}, {"type": "node", "id": 5441634137, "lat": 47.364276, "lon": -122.0235615}, {"type": "node", "id": 5441634138, "lat": 47.3644441, "lon": -122.0235617}, {"type": "node", "id": 5441634139, "lat": 47.3642467, "lon": -122.0234073}, {"type": "node", "id": 5441634141, "lat": 47.3642761, "lon": -122.0234073}, {"type": "node", "id": 5441634144, "lat": 47.3642467, "lon": -122.0233321}, {"type": "node", "id": 5441634180, "lat": 47.3645306, "lon": -122.0220229}, {"type": "node", "id": 5441634185, "lat": 47.3646205, "lon": -122.0223015}, {"type": "node", "id": 5441634187, "lat": 47.3646468, "lon": -122.0220493}, {"type": "node", "id": 5441634188, "lat": 47.3645614, "lon": -122.022242}, {"type": "node", "id": 5441634190, "lat": 47.3645567, "lon": -122.022287}, {"type": "node", "id": 5441634193, "lat": 47.3642872, "lon": -122.0222276}, {"type": "node", "id": 5441634195, "lat": 47.3642656, "lon": -122.0224348}, {"type": "node", "id": 5441634198, "lat": 47.3642795, "lon": -122.0221547}, {"type": "node", "id": 5441634199, "lat": 47.3642722, "lon": -122.0222242}, {"type": "node", "id": 5441634203, "lat": 47.3643263, "lon": -122.0218802}, {"type": "node", "id": 5441634206, "lat": 47.3642972, "lon": -122.0221587}, {"type": "node", "id": 5441634209, "lat": 47.3644463, "lon": -122.0220254}, {"type": "node", "id": 5441634212, "lat": 47.3644583, "lon": -122.0219102}, {"type": "node", "id": 5441634529, "lat": 47.368511, "lon": -122.0232469}, {"type": "node", "id": 5441634533, "lat": 47.3685114, "lon": -122.0230761}, {"type": "node", "id": 5441634552, "lat": 47.3686572, "lon": -122.0230769}, {"type": "node", "id": 5441634555, "lat": 47.3646393, "lon": -122.0222683}, {"type": "node", "id": 5441634556, "lat": 47.3648907, "lon": -122.0223321}, {"type": "node", "id": 5441634557, "lat": 47.3646689, "lon": -122.0220142}, {"type": "node", "id": 5468006022, "lat": 47.3610956, "lon": -122.0216468}, {"type": "node", "id": 5468006023, "lat": 47.3610858, "lon": -122.0218252}, {"type": "node", "id": 5468006026, "lat": 47.3609383, "lon": -122.0211495}, {"type": "node", "id": 5468006027, "lat": 47.3610401, "lon": -122.0211717}, {"type": "node", "id": 5468006141, "lat": 47.3566525, "lon": -122.0302929}, {"type": "node", "id": 5470488929, "lat": 47.3456211, "lon": -122.016892}, {"type": "node", "id": 5470488985, "lat": 47.3440064, "lon": -122.0164554}, {"type": "node", "id": 5470488986, "lat": 47.3440079, "lon": -122.0167175}, {"type": "node", "id": 5470488995, "lat": 47.3443363, "lon": -122.0164603}, {"type": "node", "id": 5470489002, "lat": 47.3441841, "lon": -122.0167898}, {"type": "node", "id": 5470489003, "lat": 47.3444147, "lon": -122.0167911}, {"type": "node", "id": 5470489004, "lat": 47.3444144, "lon": -122.0166297}, {"type": "node", "id": 5470489005, "lat": 47.3444997, "lon": -122.0166283}, {"type": "node", "id": 5470489006, "lat": 47.3444993, "lon": -122.0164571}, {"type": "node", "id": 5470489007, "lat": 47.3444167, "lon": -122.0164586}, {"type": "node", "id": 5470489008, "lat": 47.3444167, "lon": -122.0163096}, {"type": "node", "id": 5470489009, "lat": 47.3443359, "lon": -122.0163109}, {"type": "node", "id": 5470490055, "lat": 47.3448037, "lon": -122.0181957}, {"type": "node", "id": 5470490056, "lat": 47.3447965, "lon": -122.0183042}, {"type": "node", "id": 5470490057, "lat": 47.3446216, "lon": -122.018279}, {"type": "node", "id": 5470490058, "lat": 47.3446323, "lon": -122.0181173}, {"type": "node", "id": 5470490059, "lat": 47.3447056, "lon": -122.0181278}, {"type": "node", "id": 5470490090, "lat": 47.3437558, "lon": -122.0180878}, {"type": "node", "id": 5470490091, "lat": 47.3436783, "lon": -122.0180883}, {"type": "node", "id": 5470490102, "lat": 47.343659, "lon": -122.0179162}, {"type": "node", "id": 5470490103, "lat": 47.3436603, "lon": -122.0176774}, {"type": "node", "id": 5470490104, "lat": 47.343759, "lon": -122.0176774}, {"type": "node", "id": 5471768821, "lat": 47.3613395, "lon": -122.0200411, "tags": {"amenity": "recycling", "recycling_type": "container"}}, {"type": "node", "id": 5534984698, "lat": 47.3523284, "lon": -122.0013067, "tags": {"amenity": "bench"}}, {"type": "node", "id": 5534984699, "lat": 47.3520318, "lon": -122.0018588, "tags": {"amenity": "bench"}}, {"type": "node", "id": 5735340021, "lat": 47.3548016, "lon": -122.0201482, "tags": {"amenity": "waste_basket"}}, {"type": "node", "id": 5746077722, "lat": 47.3655804, "lon": -122.0222338, "tags": {"addr:housenumber": "26300", "addr:street": "238th Lane Southeast", "addr:unit": "104", "amenity": "pub", "check_date": "2024-10-04", "cuisine": "american", "name": "Crockett's Public House", "opening_hours": "Mo-Th 11:00-22:00; Fr 11:00-23:00; Sa 08:00-23:00; Su 08:00-21:00", "payment:cash": "yes", "payment:credit_cards": "yes", "payment:debit_cards": "yes", "phone": "+1-425-358-7214", "website": "https://www.crockettspublichouse.com/maple-valley/"}}, {"type": "node", "id": 5746077821, "lat": 47.366418, "lon": -122.0224802, "tags": {"addr:housenumber": "26250", "addr:street": "238th Lane Southeast", "addr:unit": "101", "check_date": "2024-10-04", "name": "Curtis Lang Custom Homes", "office": "company", "opening_hours": "Mo-Su 08:00-16:30"}}, {"type": "node", "id": 5746077822, "lat": 47.366306, "lon": -122.0224378, "tags": {"addr:housenumber": "26250", "addr:street": "238th Lane Southeast", "addr:unit": "102", "amenity": "dentist", "check_date": "2024-10-04", "healthcare": "dentist", "name": "Kirby Nelson Orthodontics", "payment:cash": "yes", "payment:credit_cards": "yes", "payment:debit_cards": "yes", "phone": "+1-425-413-2121"}}, {"type": "node", "id": 5840644613, "lat": 47.3657893, "lon": -122.0232901}, {"type": "node", "id": 5840644614, "lat": 47.3659787, "lon": -122.0231804}, {"type": "node", "id": 5840644616, "lat": 47.3657649, "lon": -122.0235782}, {"type": "node", "id": 5840647935, "lat": 47.3637577, "lon": -122.0223743}, {"type": "node", "id": 5840647936, "lat": 47.3637937, "lon": -122.0220123}, {"type": "node", "id": 5840647937, "lat": 47.3637448, "lon": -122.0220017}, {"type": "node", "id": 5840647938, "lat": 47.3637088, "lon": -122.0223637}, {"type": "node", "id": 5840647939, "lat": 47.3636475, "lon": -122.022344}, {"type": "node", "id": 5840647940, "lat": 47.3636807, "lon": -122.022011}, {"type": "node", "id": 5840647941, "lat": 47.3636293, "lon": -122.0219998}, {"type": "node", "id": 5840647942, "lat": 47.3635962, "lon": -122.0223328}, {"type": "node", "id": 5840647943, "lat": 47.3634774, "lon": -122.0223045}, {"type": "node", "id": 5840647944, "lat": 47.363509, "lon": -122.0219875}, {"type": "node", "id": 5840647945, "lat": 47.3635655, "lon": -122.0219998}, {"type": "node", "id": 5840647946, "lat": 47.363534, "lon": -122.0223168}, {"type": "node", "id": 5840647947, "lat": 47.3634653, "lon": -122.0224304}, {"type": "node", "id": 5840647948, "lat": 47.3634726, "lon": -122.0223563}, {"type": "node", "id": 5840647949, "lat": 47.3633229, "lon": -122.0223238}, {"type": "node", "id": 5840647950, "lat": 47.3633155, "lon": -122.0223979}, {"type": "node", "id": 5840647951, "lat": 47.3632175, "lon": -122.0223716}, {"type": "node", "id": 5840647952, "lat": 47.3632242, "lon": -122.0223047}, {"type": "node", "id": 5840647953, "lat": 47.3630764, "lon": -122.0222726}, {"type": "node", "id": 5840647954, "lat": 47.3630698, "lon": -122.0223396}, {"type": "node", "id": 5840647955, "lat": 47.3630351, "lon": -122.0222235}, {"type": "node", "id": 5840647956, "lat": 47.3630679, "lon": -122.0218936}, {"type": "node", "id": 5840647957, "lat": 47.3631144, "lon": -122.0219037}, {"type": "node", "id": 5840647958, "lat": 47.3630816, "lon": -122.0222336}, {"type": "node", "id": 5840647959, "lat": 47.362909, "lon": -122.0221106}, {"type": "node", "id": 5840647960, "lat": 47.362943, "lon": -122.0217689}, {"type": "node", "id": 5840647961, "lat": 47.3629938, "lon": -122.0217799}, {"type": "node", "id": 5840647962, "lat": 47.3629598, "lon": -122.0221216}, {"type": "node", "id": 5840647963, "lat": 47.3624605, "lon": -122.0228122}, {"type": "node", "id": 5840647964, "lat": 47.3625056, "lon": -122.0223583}, {"type": "node", "id": 5840647965, "lat": 47.3628306, "lon": -122.0224288}, {"type": "node", "id": 5840647966, "lat": 47.3627854, "lon": -122.0228827}, {"type": "node", "id": 5840647967, "lat": 47.3628037, "lon": -122.0228878}, {"type": "node", "id": 5840647968, "lat": 47.362849, "lon": -122.0224321}, {"type": "node", "id": 5840647969, "lat": 47.3631778, "lon": -122.0225034}, {"type": "node", "id": 5840647970, "lat": 47.3631324, "lon": -122.0229591}, {"type": "node", "id": 5840647971, "lat": 47.3635327, "lon": -122.0230399}, {"type": "node", "id": 5840647972, "lat": 47.3635766, "lon": -122.0225984}, {"type": "node", "id": 5840647973, "lat": 47.3632536, "lon": -122.0225283}, {"type": "node", "id": 5840647974, "lat": 47.3632097, "lon": -122.0229699}, {"type": "node", "id": 5840647975, "lat": 47.3636025, "lon": -122.0225965}, {"type": "node", "id": 5840647976, "lat": 47.363924, "lon": -122.0226662}, {"type": "node", "id": 5840647977, "lat": 47.3638791, "lon": -122.0231174}, {"type": "node", "id": 5840647978, "lat": 47.3635576, "lon": -122.0230477}, {"type": "node", "id": 5840647979, "lat": 47.3653546, "lon": -122.0258906}, {"type": "node", "id": 5840647980, "lat": 47.3653875, "lon": -122.0258076}, {"type": "node", "id": 5840647981, "lat": 47.3654304, "lon": -122.0258448}, {"type": "node", "id": 5840647982, "lat": 47.3653975, "lon": -122.0259277}, {"type": "node", "id": 5840647983, "lat": 47.3655093, "lon": -122.0260117}, {"type": "node", "id": 5840647984, "lat": 47.3656119, "lon": -122.0257533}, {"type": "node", "id": 5840648785, "lat": 47.3655636, "lon": -122.0257116}, {"type": "node", "id": 5840648786, "lat": 47.3654611, "lon": -122.0259699}, {"type": "node", "id": 5840648787, "lat": 47.3656552, "lon": -122.0261589}, {"type": "node", "id": 5840648788, "lat": 47.3654753, "lon": -122.0260033}, {"type": "node", "id": 5840648789, "lat": 47.3654497, "lon": -122.0260678}, {"type": "node", "id": 5840648790, "lat": 47.3656296, "lon": -122.0262234}, {"type": "node", "id": 5840821624, "lat": 47.3611597, "lon": -122.0188524}, {"type": "node", "id": 5840821625, "lat": 47.361247, "lon": -122.0179877}, {"type": "node", "id": 5840821626, "lat": 47.3612999, "lon": -122.0179993}, {"type": "node", "id": 5840821627, "lat": 47.3612125, "lon": -122.0188641}, {"type": "node", "id": 5840821628, "lat": 47.3613287, "lon": -122.0188767}, {"type": "node", "id": 5840821629, "lat": 47.3614205, "lon": -122.0179676}, {"type": "node", "id": 5840821630, "lat": 47.3613725, "lon": -122.017957}, {"type": "node", "id": 5840821631, "lat": 47.3612806, "lon": -122.0188661}, {"type": "node", "id": 5840821632, "lat": 47.3610933, "lon": -122.0195554}, {"type": "node", "id": 5840821633, "lat": 47.3611008, "lon": -122.0194817}, {"type": "node", "id": 5840821634, "lat": 47.3612104, "lon": -122.0195058}, {"type": "node", "id": 5840821635, "lat": 47.361203, "lon": -122.0195796}, {"type": "node", "id": 5840821636, "lat": 47.3612193, "lon": -122.0194494}, {"type": "node", "id": 5840821637, "lat": 47.3612502, "lon": -122.019143}, {"type": "node", "id": 5840821638, "lat": 47.3613052, "lon": -122.0191551}, {"type": "node", "id": 5840821639, "lat": 47.3612743, "lon": -122.0194615}, {"type": "node", "id": 5840821640, "lat": 47.3611881, "lon": -122.0191262}, {"type": "node", "id": 5840821641, "lat": 47.3611639, "lon": -122.0193657}, {"type": "node", "id": 5840821642, "lat": 47.3611125, "lon": -122.0193543}, {"type": "node", "id": 5840821643, "lat": 47.3611367, "lon": -122.0191149}, {"type": "node", "id": 5840821644, "lat": 47.3610894, "lon": -122.0193527}, {"type": "node", "id": 5840821645, "lat": 47.3611139, "lon": -122.0191102}, {"type": "node", "id": 5840821646, "lat": 47.3610662, "lon": -122.0190997}, {"type": "node", "id": 5840821647, "lat": 47.3610417, "lon": -122.0193422}, {"type": "node", "id": 5840821648, "lat": 47.3610406, "lon": -122.0198414}, {"type": "node", "id": 5840821649, "lat": 47.3610753, "lon": -122.0194978}, {"type": "node", "id": 5840821650, "lat": 47.3610283, "lon": -122.0194874}, {"type": "node", "id": 5840821651, "lat": 47.3609936, "lon": -122.019831}, {"type": "node", "id": 5840821652, "lat": 47.3609972, "lon": -122.0190947}, {"type": "node", "id": 5840821653, "lat": 47.3609173, "lon": -122.0198859}, {"type": "node", "id": 5840821654, "lat": 47.3608659, "lon": -122.0198746}, {"type": "node", "id": 5840821655, "lat": 47.3609459, "lon": -122.0190834}, {"type": "node", "id": 5840821656, "lat": 47.3608323, "lon": -122.0198736}, {"type": "node", "id": 5840821657, "lat": 47.3609177, "lon": -122.0190652}, {"type": "node", "id": 5840821658, "lat": 47.3607561, "lon": -122.019028}, {"type": "node", "id": 5840821659, "lat": 47.3606706, "lon": -122.0198364}, {"type": "node", "id": 5840821660, "lat": 47.360728, "lon": -122.0190271}, {"type": "node", "id": 5840821661, "lat": 47.3606434, "lon": -122.0198277}, {"type": "node", "id": 5840821662, "lat": 47.360477, "lon": -122.0197893}, {"type": "node", "id": 5840821663, "lat": 47.3605616, "lon": -122.0189888}, {"type": "node", "id": 5840821664, "lat": 47.3604499, "lon": -122.0197923}, {"type": "node", "id": 5840821665, "lat": 47.3605344, "lon": -122.0189935}, {"type": "node", "id": 5840821666, "lat": 47.3603676, "lon": -122.0189551}, {"type": "node", "id": 5840821667, "lat": 47.3602832, "lon": -122.0197539}, {"type": "node", "id": 5840821668, "lat": 47.3602519, "lon": -122.0197587}, {"type": "node", "id": 5840821669, "lat": 47.3603363, "lon": -122.01896}, {"type": "node", "id": 5840821670, "lat": 47.3601819, "lon": -122.0189244}, {"type": "node", "id": 5840821671, "lat": 47.3600974, "lon": -122.0197231}, {"type": "node", "id": 5840821672, "lat": 47.3600665, "lon": -122.0197087}, {"type": "node", "id": 5840821673, "lat": 47.3601514, "lon": -122.0189054}, {"type": "node", "id": 5840821674, "lat": 47.3599838, "lon": -122.0188668}, {"type": "node", "id": 5840821675, "lat": 47.3598989, "lon": -122.0196701}, {"type": "node", "id": 5980448985, "lat": 47.3595675, "lon": -122.0235715, "tags": {"amenity": "bench"}}, {"type": "node", "id": 5980448986, "lat": 47.3596256, "lon": -122.0237131, "tags": {"amenity": "bench"}}, {"type": "node", "id": 6088865085, "lat": 47.3593689, "lon": -122.019351, "tags": {"brand": "Valvoline", "brand:wikidata": "Q7912852", "check_date": "2024-10-07", "name": "Valvoline Quick Lube", "official_name": "Valvoline Instant Oil Change", "opening_hours": "Mo-Sa 08:00-18:00; Su 09:00-17:00", "payment:cash": "yes", "payment:credit_cards": "yes", "payment:debit_cards": "yes", "shop": "car_repair"}}, {"type": "node", "id": 6206750287, "lat": 47.3627639, "lon": -122.0181737}, {"type": "node", "id": 6246224281, "lat": 47.3628426, "lon": -122.0181913}, {"type": "node", "id": 6246224282, "lat": 47.3628461, "lon": -122.0181573}, {"type": "node", "id": 6246224283, "lat": 47.3627673, "lon": -122.0181398}, {"type": "node", "id": 6313327889, "lat": 47.3547569, "lon": -122.0200133, "tags": {"amenity": "bench"}}, {"type": "node", "id": 6313327890, "lat": 47.3563126, "lon": -122.0204586, "tags": {"amenity": "bench"}}, {"type": "node", "id": 6313327891, "lat": 47.3660532, "lon": -122.0232192, "tags": {"amenity": "post_box"}}, {"type": "node", "id": 6313337185, "lat": 47.3553299, "lon": -122.0200526, "tags": {"amenity": "bench"}}, {"type": "node", "id": 6359513323, "lat": 47.3657078, "lon": -122.0223414, "tags": {"addr:housenumber": "26300", "addr:street": "238th Lane Southeast", "addr:unit": "103", "check_date": "2024-10-04", "name": "Suburban Soul Boutique", "opening_hours": "Mo-Sa 10:00-18:00; Su 11:00-17:00", "payment:cash": "yes", "payment:credit_cards": "yes", "payment:debit_cards": "yes", "shop": "clothes"}}, {"type": "node", "id": 6441984316, "lat": 47.3658754, "lon": -122.0231985}, {"type": "node", "id": 6441984317, "lat": 47.3658864, "lon": -122.0232351}, {"type": "node", "id": 6441984318, "lat": 47.365913, "lon": -122.0233757}, {"type": "node", "id": 6441984319, "lat": 47.365919, "lon": -122.0235509}, {"type": "node", "id": 6441984320, "lat": 47.3657621, "lon": -122.023417}, {"type": "node", "id": 6441984321, "lat": 47.3657949, "lon": -122.0234145}, {"type": "node", "id": 6452703510, "lat": 47.3574984, "lon": -122.0268449}, {"type": "node", "id": 6452703511, "lat": 47.3572198, "lon": -122.0267921}, {"type": "node", "id": 6452703512, "lat": 47.3573703, "lon": -122.024722}, {"type": "node", "id": 6452703513, "lat": 47.3576593, "lon": -122.0247797}, {"type": "node", "id": 6507374302, "lat": 47.3662298, "lon": -122.022447, "tags": {"addr:housenumber": "26250", "addr:street": "238th Lane Southeast", "addr:unit": "104", "check_date": "2024-10-04", "name": "Total Body Wellness", "not:brand:wikidata": "Q154037", "payment:cash": "yes", "payment:credit_cards": "yes", "payment:debit_cards": "yes", "phone": "+1-425-433-6331", "shop": "beauty"}}, {"type": "node", "id": 6608997388, "lat": 47.3578426, "lon": -122.0222819}, {"type": "node", "id": 6608997389, "lat": 47.3578244, "lon": -122.0224012}, {"type": "node", "id": 6608997390, "lat": 47.3577635, "lon": -122.0224777}, {"type": "node", "id": 6608997391, "lat": 47.3576909, "lon": -122.0225059}, {"type": "node", "id": 6608997392, "lat": 47.3576936, "lon": -122.0227674}, {"type": "node", "id": 6608997393, "lat": 47.3577417, "lon": -122.0227687}, {"type": "node", "id": 6608997394, "lat": 47.357809, "lon": -122.0228009}, {"type": "node", "id": 6608997453, "lat": 47.3577873, "lon": -122.0231959}, {"type": "node", "id": 6608997454, "lat": 47.3577432, "lon": -122.0231961}, {"type": "node", "id": 6608997455, "lat": 47.3577423, "lon": -122.0228242}, {"type": "node", "id": 6608997456, "lat": 47.3577864, "lon": -122.022824}, {"type": "node", "id": 6608997457, "lat": 47.3577447, "lon": -122.0232819}, {"type": "node", "id": 6608997458, "lat": 47.3577917, "lon": -122.0232812}, {"type": "node", "id": 6608997459, "lat": 47.357794, "lon": -122.0236187}, {"type": "node", "id": 6608997460, "lat": 47.3577471, "lon": -122.0236194}, {"type": "node", "id": 6608997461, "lat": 47.3577539, "lon": -122.0239811}, {"type": "node", "id": 6608997462, "lat": 47.3577489, "lon": -122.0236497}, {"type": "node", "id": 6608997463, "lat": 47.3577965, "lon": -122.0236481}, {"type": "node", "id": 6608997464, "lat": 47.3578016, "lon": -122.0239796}, {"type": "node", "id": 6608997573, "lat": 47.355745, "lon": -122.0216464}, {"type": "node", "id": 6608997650, "lat": 47.3568234, "lon": -122.0269356}, {"type": "node", "id": 6608997663, "lat": 47.3578535, "lon": -122.022015}, {"type": "node", "id": 6608997664, "lat": 47.3578153, "lon": -122.0243311}, {"type": "node", "id": 6608997665, "lat": 47.3573521, "lon": -122.0243534}, {"type": "node", "id": 6608997666, "lat": 47.3563808, "lon": -122.0213508}, {"type": "node", "id": 6608997667, "lat": 47.3563899, "lon": -122.0212975}, {"type": "node", "id": 6608997668, "lat": 47.3562645, "lon": -122.0212509}, {"type": "node", "id": 6608997669, "lat": 47.3562554, "lon": -122.0213042}, {"type": "node", "id": 6608997670, "lat": 47.3562479, "lon": -122.0210681}, {"type": "node", "id": 6608997671, "lat": 47.3562652, "lon": -122.0210221}, {"type": "node", "id": 6608997672, "lat": 47.3558301, "lon": -122.0208584}, {"type": "node", "id": 6608997673, "lat": 47.3558537, "lon": -122.0209362}, {"type": "node", "id": 6608997678, "lat": 47.356006, "lon": -122.0211334}, {"type": "node", "id": 6608997679, "lat": 47.3562111, "lon": -122.0212091}, {"type": "node", "id": 6608997680, "lat": 47.3561997, "lon": -122.0212764}, {"type": "node", "id": 6608997681, "lat": 47.3559946, "lon": -122.0212006}, {"type": "node", "id": 6654415986, "lat": 47.357774, "lon": -122.0272612, "tags": {"amenity": "recycling", "recycling_type": "container"}}, {"type": "node", "id": 6654416185, "lat": 47.3577607, "lon": -122.027254, "tags": {"amenity": "bench"}}, {"type": "node", "id": 6654416285, "lat": 47.3577878, "lon": -122.0272499, "tags": {"amenity": "waste_basket"}}, {"type": "node", "id": 6658184186, "lat": 47.361764, "lon": -122.0180603, "tags": {"amenity": "waste_basket"}}, {"type": "node", "id": 6658187885, "lat": 47.3627368, "lon": -122.0186476, "tags": {"amenity": "bench"}}, {"type": "node", "id": 6658188185, "lat": 47.3617681, "lon": -122.0180227, "tags": {"amenity": "bench"}}, {"type": "node", "id": 6672564715, "lat": 47.3646299, "lon": -122.0178874}, {"type": "node", "id": 6672564716, "lat": 47.3651236, "lon": -122.0178844}, {"type": "node", "id": 6672564717, "lat": 47.3651504, "lon": -122.017854}, {"type": "node", "id": 6672564718, "lat": 47.3651833, "lon": -122.0177538}, {"type": "node", "id": 6672564719, "lat": 47.3651853, "lon": -122.0163597}, {"type": "node", "id": 6682417685, "lat": 47.3600418, "lon": -122.018693, "tags": {"amenity": "post_box", "operator": "United States Postal Service", "operator:short": "USPS", "operator:type": "public", "operator:website": "https://www.usps.com", "operator:wikidata": "Q668687", "operator:wikipedia": "en:United States Postal Service", "short_name": "USPS"}}, {"type": "node", "id": 6703592696, "lat": 47.3643232, "lon": -122.020803, "tags": {"access": "yes", "amenity": "parking", "capacity": "97", "fee": "no", "name": "Maple Valley Town Square Park & Ride", "park_ride": "yes", "parking": "surface", "surface": "asphalt"}}, {"type": "node", "id": 6810104891, "lat": 47.3682562, "lon": -122.0201292, "tags": {"amenity": "bench"}}, {"type": "node", "id": 6868129424, "lat": 47.3609795, "lon": -122.0237753, "tags": {"amenity": "bench"}}, {"type": "node", "id": 6868129425, "lat": 47.3607606, "lon": -122.0239993, "tags": {"amenity": "bench"}}, {"type": "node", "id": 6868129577, "lat": 47.3557177, "lon": -122.0211028}, {"type": "node", "id": 6868129578, "lat": 47.3559228, "lon": -122.0211785}, {"type": "node", "id": 6868129579, "lat": 47.3559342, "lon": -122.0211112}, {"type": "node", "id": 6868129580, "lat": 47.3557291, "lon": -122.0210355}, {"type": "node", "id": 6868129581, "lat": 47.3562736, "lon": -122.0210569}, {"type": "node", "id": 6868129595, "lat": 47.3562358, "lon": -122.0210641}, {"type": "node", "id": 6901616057, "lat": 47.3658137, "lon": -122.0232805}, {"type": "node", "id": 6901616058, "lat": 47.3658023, "lon": -122.0232355}, {"type": "node", "id": 6901616067, "lat": 47.3659877, "lon": -122.0233322}, {"type": "node", "id": 6901616075, "lat": 47.3659121, "lon": -122.0235521}, {"type": "node", "id": 6944187272, "lat": 47.3581469, "lon": -122.0237569}, {"type": "node", "id": 6944187273, "lat": 47.3581299, "lon": -122.0227832}, {"type": "node", "id": 7159774604, "lat": 47.3554872, "lon": -122.0343563}, {"type": "node", "id": 7160883485, "lat": 47.361354, "lon": -122.0175141, "tags": {"addr:door": "103", "check_date": "2024-10-07", "name": "Ascend Nail Lounge", "opening_hours": "Mo-Sa 09:30-19:00; Su 10:00-17:00", "payment:cash": "yes", "payment:credit_cards": "yes", "payment:debit_cards": "yes", "shop": "beauty"}}, {"type": "node", "id": 7160883486, "lat": 47.3615357, "lon": -122.0173328, "tags": {"addr:door": "102", "check_date": "2024-10-07", "name": "Shade 41 Salon", "opening_hours": "Mo,We 10:00-18:00; Tu,Th 10:00-19:00; Fr 10:00-17:00; Sa 10:00-14:00; Su off", "payment:cash": "yes", "payment:credit_cards": "yes", "payment:debit_cards": "yes", "phone": "+1-425-433-6431", "shop": "hairdresser"}}, {"type": "node", "id": 7217435786, "lat": 47.3573183, "lon": -122.0296916, "tags": {"amenity": "bicycle_parking"}}, {"type": "node", "id": 7217440385, "lat": 47.3571404, "lon": -122.030135, "tags": {"amenity": "bicycle_parking"}}, {"type": "node", "id": 7217440386, "lat": 47.3577581, "lon": -122.0304135, "tags": {"amenity": "waste_basket"}}, {"type": "node", "id": 7217440785, "lat": 47.3574348, "lon": -122.0301619, "tags": {"amenity": "bench"}}, {"type": "node", "id": 7217440786, "lat": 47.3571962, "lon": -122.0301656, "tags": {"amenity": "bench"}}, {"type": "node", "id": 7217440787, "lat": 47.3570864, "lon": -122.0301351, "tags": {"amenity": "bench"}}, {"type": "node", "id": 7501523888, "lat": 47.3612897, "lon": -122.0237872, "tags": {"amenity": "bench"}}, {"type": "node", "id": 7612831880, "lat": 47.3617837, "lon": -122.0196535, "tags": {"addr:city": "Maple Valley", "addr:housenumber": "24060", "addr:postcode": "98038", "addr:street": "Southeast Kent-Kangley Road", "amenity": "doctors", "check_date": "2024-10-07", "healthcare": "doctor", "name": "University of Washington Lifestyle Center", "opening_hours": "24/7", "phone": "+1-425-433-0123"}}, {"type": "node", "id": 7612831881, "lat": 47.361816, "lon": -122.0193883, "tags": {"addr:city": "Maple Valley", "addr:door": "D100", "addr:housenumber": "24060", "addr:postcode": "98038", "addr:street": "Southeast Kent-Kangley Road", "amenity": "doctors", "check_date": "2024-10-07", "healthcare": "doctor", "name": "Proliance Orthopedic Associates", "opening_hours": "Mo-Fr 08:00-17:00"}}, {"type": "node", "id": 7774452714, "lat": 47.3724217, "lon": -122.0261301}, {"type": "node", "id": 7774452715, "lat": 47.3700863, "lon": -122.0249475}, {"type": "node", "id": 7774452716, "lat": 47.3700863, "lon": -122.0239183}, {"type": "node", "id": 7774452717, "lat": 47.3712293, "lon": -122.0244647, "tags": {"amenity": "toilets"}}, {"type": "node", "id": 7774452718, "lat": 47.370565, "lon": -122.0240517, "tags": {"amenity": "toilets"}}, {"type": "node", "id": 7774452719, "lat": 47.3710397, "lon": -122.0234821, "tags": {"amenity": "bicycle_parking", "bicycle_parking": "stands", "capacity": "8", "covered": "no"}}, {"type": "node", "id": 7808461285, "lat": 47.3638427, "lon": -122.0220168, "tags": {"amenity": "bicycle_parking"}}, {"type": "node", "id": 7808473085, "lat": 47.3604211, "lon": -122.0210651, "tags": {"addr:door": "101", "addr:floor": "1", "brand": "John L. Scott", "brand:wikidata": "Q6243687", "check_date": "2025-01-21", "internet_access": "wlan", "internet_access:fee": "customers", "name": "John L. Scott - Bradley Hanson", "office": "estate_agent", "phone": "+1-425-577-3739", "website": "https://bradleyhansongroup.com"}}, {"type": "node", "id": 7808488685, "lat": 47.365565, "lon": -122.0223253, "tags": {"amenity": "bicycle_parking"}}, {"type": "node", "id": 7808657596, "lat": 47.3617198, "lon": -122.0233178, "tags": {"addr:city": "Maple Valley", "addr:housenumber": "23856", "addr:postcode": "98038", "addr:street": "Southeast Kent-Kangley Road", "amenity": "prep_school", "brand": "Mathnasium", "brand:wikidata": "Q6787302", "check_date": "2024-10-07", "name": "Mathnasium", "opening_hours": "Mo-Th 15:00-19:30; Su 13:00-17:30", "phone": "+1-425-906-7007", "website": "https://www.mathnasium.com/maplevalley"}}, {"type": "node", "id": 7808657599, "lat": 47.3657961, "lon": -122.0223819, "tags": {"addr:housenumber": "26300", "addr:street": "238th Lane Southeast", "addr:unit": "102", "check_date": "2024-10-04", "name": "Air", "opening_hours": "Tu,Th 10:00-14:00; We,Fr 13:00-17:00; Sa 11:00-17:00", "payment:cash": "yes", "payment:credit_cards": "yes", "payment:debit_cards": "yes", "shop": "gift"}}, {"type": "node", "id": 7808657600, "lat": 47.366512, "lon": -122.0225184, "tags": {"addr:housenumber": "26250", "addr:street": "238th Lane Southeast", "addr:unit": "100", "check_date": "2024-10-04", "name": "Stile & Rail Cabinet Design Studio", "opening_hours": "Tu-Fr 10:00-17:00", "phone": "+1-253-681-6184", "shop": "kitchen"}}, {"type": "node", "id": 7808657601, "lat": 47.3667343, "lon": -122.0229992, "tags": {"addr:housenumber": "26207", "addr:street": "Maple Valley-Black Diamond Road Southeast", "check_date": "2024-10-04", "name": "Clear, Calm & Balanced Wellness & Gift Shop", "shop": "gift"}}, {"type": "node", "id": 7808657602, "lat": 47.3667356, "lon": -122.0231385, "tags": {"addr:housenumber": "26207", "addr:street": "Maple Valley-Black Diamond Road Southeast", "check_date": "2024-10-04", "name": "Glam Esthetics", "shop": "beauty"}}, {"type": "node", "id": 7808657603, "lat": 47.3672329, "lon": -122.0229169, "tags": {"addr:housenumber": "26157", "addr:street": "Maple Valley-Black Diamond Road Southeast", "check_date": "2024-10-04", "name": "Eagle River Blind Cleaning & Repair", "opening_hours": "Mo-Fr 09:00-17:00", "shop": "window_blind"}}, {"type": "node", "id": 7953196224, "lat": 47.3719764, "lon": -122.0259046}, {"type": "node", "id": 8508808289, "lat": 47.3622998, "lon": -122.0218963, "tags": {"amenity": "pharmacy", "brand": "Walgreens", "brand:wikidata": "Q1591889", "check_date": "2024-10-10", "dispensing": "yes", "drive_through": "yes", "healthcare": "pharmacy", "name": "Walgreens", "opening_hours": "Mo-Fr 09:00-21:00; Sa 10:00-18:00; Su 10:00-17:00", "payment:cash": "yes", "payment:credit_cards": "yes", "payment:debit_cards": "yes", "wheelchair": "yes"}}, {"type": "node", "id": 9068849697, "lat": 47.3563463, "lon": -122.021534, "tags": {"amenity": "toilets"}}, {"type": "node", "id": 9068861209, "lat": 47.3563999, "lon": -122.021626, "tags": {"amenity": "drinking_water"}}, {"type": "node", "id": 9091348053, "lat": 47.3595679, "lon": -122.0185348, "tags": {"amenity": "bench"}}, {"type": "node", "id": 9091348054, "lat": 47.3598858, "lon": -122.0186052, "tags": {"amenity": "bicycle_parking"}}, {"type": "node", "id": 9091348055, "lat": 47.3599202, "lon": -122.0186638, "tags": {"amenity": "bench"}}, {"type": "node", "id": 9091348056, "lat": 47.3594997, "lon": -122.0185162, "tags": {"amenity": "waste_basket"}}, {"type": "node", "id": 9091348057, "lat": 47.3597682, "lon": -122.0185747, "tags": {"amenity": "waste_basket"}}, {"type": "node", "id": 9091348058, "lat": 47.3599357, "lon": -122.0186668, "tags": {"amenity": "bicycle_parking"}}, {"type": "node", "id": 9091348059, "lat": 47.3599792, "lon": -122.018677, "tags": {"amenity": "bench"}}, {"type": "node", "id": 9091348060, "lat": 47.3597488, "lon": -122.01857, "tags": {"amenity": "bench"}}, {"type": "node", "id": 9091348061, "lat": 47.3599041, "lon": -122.0186621, "tags": {"amenity": "waste_basket"}}, {"type": "node", "id": 9091348062, "lat": 47.3599548, "lon": -122.0186716, "tags": {"amenity": "bench"}}, {"type": "node", "id": 9149865554, "lat": 47.3685401, "lon": -122.0266963, "tags": {"amenity": "parking", "name": "Maple Valley Farmers' Market Parking"}}, {"type": "node", "id": 9421232417, "lat": 47.3617923, "lon": -122.0222015, "tags": {"addr:housenumber": "23914", "addr:street": "Southeast Kent-Kangley Road", "check_date": "2024-10-07", "name": "Pro Medical Spa", "shop": "cosmetics"}}, {"type": "node", "id": 9555176167, "lat": 47.3582262, "lon": -122.0189579}, {"type": "node", "id": 9555176168, "lat": 47.3582029, "lon": -122.0189583}, {"type": "node", "id": 9555176169, "lat": 47.358225, "lon": -122.0188134}, {"type": "node", "id": 9555176170, "lat": 47.3582002, "lon": -122.0188138}, {"type": "node", "id": 9555177702, "lat": 47.3621274, "lon": -122.0170144}, {"type": "node", "id": 9555177703, "lat": 47.3622178, "lon": -122.0170152}, {"type": "node", "id": 9555177704, "lat": 47.3622177, "lon": -122.0170404}, {"type": "node", "id": 9555177705, "lat": 47.3621273, "lon": -122.0170395}, {"type": "node", "id": 9555177706, "lat": 47.3621323, "lon": -122.0165756}, {"type": "node", "id": 9555177707, "lat": 47.3620235, "lon": -122.0165745}, {"type": "node", "id": 9555177708, "lat": 47.3621325, "lon": -122.016535}, {"type": "node", "id": 9555177709, "lat": 47.3620237, "lon": -122.0165339}, {"type": "node", "id": 9555177711, "lat": 47.3619987, "lon": -122.0173434}, {"type": "node", "id": 9555177712, "lat": 47.3618966, "lon": -122.0173424}, {"type": "node", "id": 9673023617, "lat": 47.361522, "lon": -122.0174029, "tags": {"addr:door": "101", "check_date": "2024-10-07", "name": "Elite Skin & Aesthetics", "opening_hours": "We-Fr 10:00-19:00; Sa 10:00-18:00", "payment:cash": "yes", "payment:credit_cards": "yes", "payment:debit_cards": "yes", "shop": "beauty"}}, {"type": "node", "id": 9799590721, "lat": 47.3560404, "lon": -122.0212871, "tags": {"amenity": "bench", "backrest": "yes", "seats": "3"}}, {"type": "node", "id": 9799590722, "lat": 47.3560952, "lon": -122.0212982, "tags": {"amenity": "bench", "backrest": "yes", "seats": "3"}}, {"type": "node", "id": 9799590723, "lat": 47.3561757, "lon": -122.0213149, "tags": {"amenity": "bench", "backrest": "yes", "seats": "3"}}, {"type": "node", "id": 9799590724, "lat": 47.3560754, "lon": -122.0212864, "tags": {"amenity": "waste_basket", "material": "metal", "waste": "trash"}}, {"type": "node", "id": 9799590725, "lat": 47.3560699, "lon": -122.0212844, "tags": {"amenity": "waste_basket", "material": "metal", "waste": "recycling"}}, {"type": "node", "id": 9799590729, "lat": 47.3559327, "lon": -122.0212117, "tags": {"access": "yes", "amenity": "toilets", "changing_table": "no", "portable": "yes", "toilets:disposal": "chemical", "toilets:handwashing": "no", "unisex": "yes", "wheelchair": "yes"}}, {"type": "node", "id": 9837397518, "lat": 47.3594929, "lon": -122.0255891, "tags": {"amenity": "bench"}}, {"type": "node", "id": 9965196819, "lat": 47.3569026, "lon": -122.0301943, "tags": {"amenity": "bench"}}, {"type": "node", "id": 9965196820, "lat": 47.3570068, "lon": -122.0286084, "tags": {"amenity": "recycling", "recycling_type": "container"}}, {"type": "node", "id": 9965199517, "lat": 47.3568565, "lon": -122.030171, "tags": {"amenity": "waste_basket"}}, {"type": "node", "id": 9965199518, "lat": 47.3569364, "lon": -122.0301575, "tags": {"amenity": "bench"}}, {"type": "node", "id": 9965199519, "lat": 47.3568473, "lon": -122.029383, "tags": {"amenity": "waste_basket"}}, {"type": "node", "id": 9965199520, "lat": 47.3569963, "lon": -122.028595, "tags": {"amenity": "waste_basket"}}, {"type": "node", "id": 9965199521, "lat": 47.3572952, "lon": -122.0278955, "tags": {"amenity": "bench"}}, {"type": "node", "id": 9965199522, "lat": 47.3572988, "lon": -122.0278675, "tags": {"amenity": "bench"}}, {"type": "node", "id": 9965200218, "lat": 47.3575359, "lon": -122.0274831, "tags": {"amenity": "bench"}}, {"type": "node", "id": 9965200219, "lat": 47.3574738, "lon": -122.027525, "tags": {"amenity": "recycling", "recycling_type": "container"}}, {"type": "node", "id": 9965201017, "lat": 47.3574785, "lon": -122.0275548, "tags": {"amenity": "waste_basket"}}, {"type": "node", "id": 9965205118, "lat": 47.3576493, "lon": -122.0264428, "tags": {"amenity": "recycling", "recycling_type": "container"}}, {"type": "node", "id": 9965205119, "lat": 47.3576529, "lon": -122.0263968, "tags": {"amenity": "waste_basket"}}, {"type": "node", "id": 9965205120, "lat": 47.3577359, "lon": -122.0252617, "tags": {"amenity": "waste_basket"}}, {"type": "node", "id": 9965205317, "lat": 47.3576909, "lon": -122.0259164, "tags": {"amenity": "waste_basket"}}, {"type": "node", "id": 9965205417, "lat": 47.3577341, "lon": -122.0252947, "tags": {"amenity": "recycling", "recycling_type": "container"}}, {"type": "node", "id": 9965205517, "lat": 47.3581019, "lon": -122.0246688, "tags": {"amenity": "waste_basket"}}, {"type": "node", "id": 9965223417, "lat": 47.3612231, "lon": -122.0256834, "tags": {"amenity": "bicycle_parking"}}, {"type": "node", "id": 9968929217, "lat": 47.3661912, "lon": -122.022364, "tags": {"addr:housenumber": "26250", "addr:street": "238th Lane Southeast", "addr:unit": "105", "brand": "Guild Mortgage Company", "brand:wikidata": "Q122074693", "check_date": "2024-10-04", "name": "Guild Mortgage Company", "office": "mortgage", "opening_hours": "Mo-Fr 08:30-17:00", "website": "https://branches.guildmortgage.com/wa/maplevalley/maple-valley-654.html"}}, {"type": "node", "id": 9996426119, "lat": 47.3565938, "lon": -122.0314537, "tags": {"addr:housenumber": "23200", "addr:street": "232nd Southeast Avenue", "building": "yes", "name": "Tahoma Student Transition Program", "office": "educational_institution"}}, {"type": "node", "id": 9996426170, "lat": 47.3576589, "lon": -122.023857, "tags": {"amenity": "waste_basket"}}, {"type": "node", "id": 10229700475, "lat": 47.3654649, "lon": -122.0365273, "tags": {"amenity": "public_bookcase"}}, {"type": "node", "id": 10733820624, "lat": 47.360253, "lon": -122.0186442, "tags": {"amenity": "payment_terminal", "brand": "Coinstar", "brand:wikidata": "Q5141641", "check_date": "2025-09-04", "name": "Coinstar", "payment:credit_cards": "yes", "vending": "movies"}}, {"type": "node", "id": 10772154501, "lat": 47.3463962, "lon": -122.0184597}, {"type": "node", "id": 10772154502, "lat": 47.3456091, "lon": -122.0182452}, {"type": "node", "id": 11076249532, "lat": 47.361534, "lon": -122.0232617, "tags": {"addr:housenumber": "23846", "addr:street": "Southeast Kent-Kangley Road", "amenity": "restaurant", "check_date": "2024-10-07", "cuisine": "steak_house", "name": "Sonora Steak", "outdoor_seating": "yes", "payment:cash": "yes", "payment:credit_cards": "yes", "payment:debit_cards": "yes"}}, {"type": "node", "id": 11240322656, "lat": 47.3723826, "lon": -122.0219815}, {"type": "node", "id": 12193587695, "lat": 47.3444567, "lon": -122.0175757, "tags": {"check_date": "2024-09-22", "name": "Bees in the Burbs", "opening_hours": "09:00-17:00", "payment:cash": "yes", "payment:credit_cards": "yes", "payment:debit_cards": "yes", "shop": "honey", "wheelchair": "no"}}, {"type": "node", "id": 12193587696, "lat": 47.3437035, "lon": -122.0180132, "tags": {"check_date": "2024-09-22", "shop": "cannabis"}}, {"type": "node", "id": 12193587697, "lat": 47.3453296, "lon": -122.0183172, "tags": {"check_date": "2024-09-22", "name": "Lakeside Industries", "office": "company"}}, {"type": "node", "id": 12193587698, "lat": 47.3609814, "lon": -122.0213295, "tags": {"amenity": "fast_food", "brand": "Krispy Krunchy Chicken", "brand:wikidata": "Q65087447", "check_date": "2024-10-07", "cuisine": "chicken", "name": "Krispy Krunchy Chicken", "opening_hours": "Mo-Fr 05:00-01:00; Sa-Su 06:00-01:00", "payment:cash": "yes", "payment:credit_cards": "yes", "payment:debit_cards": "yes", "takeaway": "yes"}}, {"type": "node", "id": 12223076900, "lat": 47.3648246, "lon": -122.0223664, "tags": {"check_date": "2024-10-04", "name": "Pro-Tow", "opening_hours": "24/7", "shop": "car_repair"}}, {"type": "node", "id": 12223104670, "lat": 47.3668085, "lon": -122.0229985, "tags": {"addr:housenumber": "26207", "addr:street": "Maple Valley-Black Diamond Road Southeast", "check_date": "2024-10-04", "name": "Lilly's Septic Service", "office": "company"}}, {"type": "node", "id": 12223104671, "lat": 47.3667877, "lon": -122.0232089, "tags": {"addr:housenumber": "26207", "addr:street": "Maple Valley-Black Diamond Road Southeast", "check_date": "2024-10-04", "name": "Lavish Beauty Studio", "shop": "beauty"}}, {"type": "node", "id": 12233803910, "lat": 47.3613826, "lon": -122.0174118, "tags": {"check_date": "2024-10-07", "name": "Ascend Leasing Office", "office": "property_management", "phone": "+1-425-559-3933"}}, {"type": "node", "id": 12233803911, "lat": 47.3638367, "lon": -122.0233561, "tags": {"amenity": "vending_machine", "brand": "Primo Water", "brand:wikidata": "Q2071102", "check_date": "2024-11-24", "currency:USD": "yes", "name": "Primo Water", "payment:cash": "yes", "payment:credit_cards": "yes", "vending": "water"}}, {"type": "node", "id": 12233803912, "lat": 47.3640886, "lon": -122.019294, "tags": {"addr:housenumber": "26520", "addr:street": "Maple Valley-Black Diamond Road Southeast", "brand": "Fred Meyer Jewelers", "brand:wikidata": "Q5495935", "check_date": "2024-10-07", "name": "Fred Meyer Jewelers", "opening_hours": "Mo-Sa 09:00-21:00; Su 11:00-18:00", "payment:cash": "yes", "payment:credit_cards": "yes", "payment:debit_cards": "yes", "shop": "jewelry"}}, {"type": "node", "id": 12233803914, "lat": 47.3617074, "lon": -122.0202804, "tags": {"amenity": "bicycle_parking"}}, {"type": "node", "id": 12233803915, "lat": 47.3600727, "lon": -122.0186959, "tags": {"amenity": "vending_machine", "brand": "AmeriGas", "brand:wikidata": "Q23130318", "check_date": "2025-09-04", "fuel:lpg": "yes", "name": "AmeriGas", "vending": "gas"}}, {"type": "node", "id": 12233803916, "lat": 47.3626663, "lon": -122.0230444, "tags": {"amenity": "bicycle_parking"}}, {"type": "node", "id": 12242737805, "lat": 47.3633913, "lon": -122.0232621, "tags": {"amenity": "waste_basket"}}, {"type": "node", "id": 12242737806, "lat": 47.3633455, "lon": -122.0232434, "tags": {"amenity": "waste_basket"}}, {"type": "node", "id": 12242737807, "lat": 47.3630317, "lon": -122.0231919, "tags": {"amenity": "waste_basket"}}, {"type": "node", "id": 12242737808, "lat": 47.3632037, "lon": -122.0227432, "tags": {"amenity": "bench", "armrest": "yes", "backrest": "yes", "material": "steel"}}, {"type": "node", "id": 12242737809, "lat": 47.3631714, "lon": -122.0227392, "tags": {"amenity": "bench", "armrest": "yes", "backrest": "yes", "material": "steel"}}, {"type": "node", "id": 12242737810, "lat": 47.3631674, "lon": -122.0227247, "tags": {"amenity": "waste_basket", "material": "steel", "waste": "trash"}}, {"type": "node", "id": 12242737811, "lat": 47.3631966, "lon": -122.022768, "tags": {"amenity": "waste_basket", "material": "steel", "waste": "trash"}}, {"type": "node", "id": 12242737812, "lat": 47.3628344, "lon": -122.0218202, "tags": {"amenity": "bench", "armrest": "yes", "backrest": "yes", "material": "steel"}}, {"type": "node", "id": 12242737813, "lat": 47.3628205, "lon": -122.0218129, "tags": {"amenity": "waste_basket", "material": "steel", "waste": "trash"}}, {"type": "node", "id": 12242737814, "lat": 47.362491, "lon": -122.0230382, "tags": {"amenity": "bench", "armrest": "yes", "backrest": "yes", "material": "steel"}}, {"type": "node", "id": 12242737815, "lat": 47.3625473, "lon": -122.0230531, "tags": {"amenity": "bench", "armrest": "yes", "backrest": "yes", "material": "steel"}}, {"type": "node", "id": 12242737816, "lat": 47.3625201, "lon": -122.0230477, "tags": {"amenity": "waste_basket", "material": "steel", "waste": "trash"}}, {"type": "node", "id": 12242737817, "lat": 47.3621427, "lon": -122.0216068, "tags": {"amenity": "waste_basket", "waste": "trash"}}, {"type": "node", "id": 12242737818, "lat": 47.3627237, "lon": -122.0230307, "tags": {"amenity": "waste_basket", "material": "steel", "waste": "trash"}}, {"type": "node", "id": 12242737819, "lat": 47.3628712, "lon": -122.0230577, "tags": {"amenity": "waste_basket", "material": "steel", "waste": "trash"}}, {"type": "node", "id": 12242768347, "lat": 47.363943, "lon": -122.0233302, "tags": {"amenity": "bench", "armrest": "yes", "backrest": "yes", "material": "steel"}}, {"type": "node", "id": 12242768348, "lat": 47.3639305, "lon": -122.023316, "tags": {"amenity": "waste_basket", "material": "steel", "waste": "trash"}}, {"type": "node", "id": 12242768349, "lat": 47.3639257, "lon": -122.0234299, "tags": {"amenity": "waste_basket", "material": "steel", "waste": "trash"}}, {"type": "node", "id": 12242768350, "lat": 47.3639373, "lon": -122.0234235, "tags": {"amenity": "bench", "armrest": "yes", "backrest": "yes", "material": "steel"}}, {"type": "node", "id": 12331649051, "lat": 47.3606749, "lon": -122.0211408, "tags": {"addr:door": "202", "addr:floor": "2", "check_date": "2024-11-11", "name": "EmpowermeArts", "office": "association"}}, {"type": "node", "id": 12385499041, "lat": 47.3606135, "lon": -122.0346376, "tags": {"access": "private", "amenity": "letter_box"}}, {"type": "node", "id": 12385499060, "lat": 47.3650745, "lon": -122.0203602, "tags": {"amenity": "bench", "backrest": "yes", "material": "steel"}}, {"type": "node", "id": 12385499061, "lat": 47.3650615, "lon": -122.0203697, "tags": {"amenity": "bench", "backrest": "yes", "material": "steel"}}, {"type": "node", "id": 12385499062, "lat": 47.3643303, "lon": -122.0196096, "tags": {"amenity": "bicycle_parking", "bicycle_parking": "stands", "covered": "yes", "fee": "no"}}, {"type": "node", "id": 12385499063, "lat": 47.3641548, "lon": -122.0195533, "tags": {"amenity": "payment_terminal", "brand": "Coinstar", "brand:wikidata": "Q5141641", "check_date": "2024-11-24", "name": "Coinstar"}}, {"type": "node", "id": 12385499064, "lat": 47.3641562, "lon": -122.0195957, "tags": {"amenity": "vending_machine", "brand": "Primo Water", "brand:wikidata": "Q2071102", "check_date": "2024-11-24", "name": "Primo Water", "vending": "water"}}, {"type": "node", "id": 12385499066, "lat": 47.364661, "lon": -122.0211125, "tags": {"amenity": "atm", "brand": "Chase", "brand:wikidata": "Q524629", "check_date": "2024-11-24", "operator": "Chase", "operator:wikidata": "Q524629"}}, {"type": "node", "id": 12385499067, "lat": 47.364804, "lon": -122.0213457, "tags": {"amenity": "bench", "backrest": "yes", "material": "steel"}}, {"type": "node", "id": 12385499068, "lat": 47.3648218, "lon": -122.0213186, "tags": {"amenity": "bench", "backrest": "yes", "material": "steel"}}, {"type": "node", "id": 12385499069, "lat": 47.3648015, "lon": -122.021314, "tags": {"amenity": "waste_basket"}}, {"type": "node", "id": 12385499070, "lat": 47.3648807, "lon": -122.0214524, "tags": {"amenity": "bench", "backrest": "yes", "material": "steel"}}, {"type": "node", "id": 12385499071, "lat": 47.3649108, "lon": -122.0214491, "tags": {"amenity": "bench", "backrest": "yes", "material": "steel"}}, {"type": "node", "id": 12385499078, "lat": 47.3637512, "lon": -122.0232472, "tags": {"amenity": "waste_basket"}}, {"type": "node", "id": 12385499088, "lat": 47.3604898, "lon": -122.0226385, "tags": {"amenity": "waste_basket"}}, {"type": "node", "id": 12385499089, "lat": 47.3609423, "lon": -122.022809, "tags": {"amenity": "recycling", "recycling:clothes": "yes", "recycling:shoes": "yes", "recycling_type": "container"}}, {"type": "node", "id": 12385499090, "lat": 47.3612862, "lon": -122.023765, "tags": {"amenity": "waste_basket"}}, {"type": "node", "id": 12385499100, "lat": 47.3656016, "lon": -122.0269689, "tags": {"amenity": "waste_basket"}}, {"type": "node", "id": 12385524510, "lat": 47.3664918, "lon": -122.0373862, "tags": {"access": "private", "amenity": "letter_box"}}, {"type": "node", "id": 12423397201, "lat": 47.3627805, "lon": -122.0220008}, {"type": "node", "id": 12423397202, "lat": 47.3627946, "lon": -122.0218616}, {"type": "node", "id": 12423397203, "lat": 47.3627603, "lon": -122.0219963}, {"type": "node", "id": 12423397204, "lat": 47.3627744, "lon": -122.0218571}, {"type": "node", "id": 12423397230, "lat": 47.3660152, "lon": -122.023317}, {"type": "node", "id": 12507673976, "lat": 47.3644855, "lon": -122.0178485}, {"type": "node", "id": 12507673977, "lat": 47.3645038, "lon": -122.0163091}, {"type": "node", "id": 12865685841, "lat": 47.3687174, "lon": -122.0296521, "tags": {"amenity": "waste_basket", "material": "plastic", "waste": "trash"}}, {"type": "node", "id": 12865685842, "lat": 47.3687055, "lon": -122.0296299, "tags": {"amenity": "vending_machine", "brand": "Mutt Mitt", "brand:wikidata": "Q6944063", "check_date": "2025-05-25", "vending": "excrement_bags"}}, {"type": "node", "id": 12997903628, "lat": 47.3610924, "lon": -122.019697, "tags": {"amenity": "bicycle_parking", "bicycle_parking": "stands", "fee": "no"}}, {"type": "node", "id": 13109917592, "lat": 47.3688066, "lon": -122.0333327, "tags": {"amenity": "letter_box"}}, {"type": "node", "id": 13109917593, "lat": 47.3688337, "lon": -122.0314132, "tags": {"amenity": "letter_box"}}, {"type": "node", "id": 13109917594, "lat": 47.3681816, "lon": -122.0303445, "tags": {"amenity": "letter_box"}}, {"type": "node", "id": 13109917595, "lat": 47.3675048, "lon": -122.0303161, "tags": {"amenity": "letter_box"}}, {"type": "node", "id": 13109917597, "lat": 47.3670969, "lon": -122.0311324, "tags": {"amenity": "letter_box"}}, {"type": "node", "id": 13109917598, "lat": 47.3667956, "lon": -122.0301223, "tags": {"amenity": "letter_box"}}, {"type": "node", "id": 13109923603, "lat": 47.3656756, "lon": -122.0315743, "tags": {"amenity": "letter_box"}}, {"type": "node", "id": 13109923608, "lat": 47.3627861, "lon": -122.0340068, "tags": {"amenity": "letter_box"}}, {"type": "node", "id": 13109923611, "lat": 47.362327, "lon": -122.0345667, "tags": {"amenity": "letter_box"}}, {"type": "node", "id": 13109923614, "lat": 47.3623026, "lon": -122.0355723, "tags": {"amenity": "letter_box"}}, {"type": "node", "id": 13120487970, "lat": 47.3599822, "lon": -122.0187222, "tags": {"amenity": "vending_machine", "brand": "Primo Water", "brand:wikidata": "Q2071102", "check_date": "2025-09-04", "name": "Primo Water", "vending": "water"}}, {"type": "node", "id": 13139971800, "lat": 47.3603039, "lon": -122.0186577, "tags": {"amenity": "vending_machine", "brand": "KeyMe", "brand:wikidata": "Q48965608", "check_date": "2025-09-11", "name": "KeyMe", "vending": "key"}}, {"type": "way", "id": 135506310, "nodes": [1488274387, 1488274965, 1488274958, 1488274363, 1488274377, 1488274376, 1488274373, 1488274966, 1488274962, 1488274379, 1488274375, 1488274374, 5369259516, 1488274378, 1488274371, 1488274387], "tags": {"addr:city": "Maple Valley", "addr:housenumber": "26916", "addr:postcode": "98038", "addr:state": "WA", "addr:street": "Maple Valley-Black Diamond Road Southeast", "brand": "Safeway", "brand:wikidata": "Q1508234", "building": "yes", "check_date": "2023-03-13", "internet_access": "wlan", "internet_access:fee": "no", "name": "Safeway", "name_1": "Safeway 1471", "opening_hours": "05:00-01:00", "payment:mastercard": "yes", "payment:visa": "yes", "phone": "+1-425-432-2020", "shop": "supermarket", "website": "https://local.safeway.com/safeway/wa/maple-valley/26916-maple-valley-rd.html", "wheelchair": "yes"}}, {"type": "way", "id": 135506406, "nodes": [1488274898, 1488274897, 1488274900, 1488274899, 1488274898], "tags": {"addr:city": "Maple Valley", "addr:housenumber": "27020", "addr:postcode": "98038", "addr:state": "WA", "addr:street": "Maple Valley-Black Diamond Road Southeast", "amenity": "fuel", "brand": "Safeway", "brand:wikidata": "Q1508234", "building": "yes", "check_date": "2024-10-07", "designation": "Safeway 1471", "name": "Safeway Express", "opening_hours": "24/7", "operator": "Safeway", "payment:cash": "yes", "payment:credit_cards": "yes", "payment:debit_cards": "yes", "website": "https://local.fuel.safeway.com/safeway/wa/maple-valley/27020-maple-valley-rd.html"}}, {"type": "way", "id": 303072170, "nodes": [3073722482, 3073722935, 3073722493, 3073722974, 3073723022, 3073723057, 3073722498, 3073722958, 3073723045, 3073723047, 3073723049, 3073723064, 3073722992, 3073722968, 3073722474, 3073722487, 3073722938, 3073723071, 3073722502, 3073723055, 3073722516, 3073722532, 3073722488, 3073723023, 3073723032, 3073722482], "tags": {"amenity": "parking"}}, {"type": "way", "id": 303072176, "nodes": [3073722948, 3073722503, 3073722954, 3073722947, 3073723080, 3073722978, 3073722972, 3073722500, 3073722948], "tags": {"amenity": "parking"}}, {"type": "way", "id": 303072177, "nodes": [3073722490, 4462666360, 4462666359, 4462666358, 3073722505, 3073723019, 356552182, 3073722490], "tags": {"amenity": "school", "education": "school", "ele": "164", "gnis:feature_id": "2494310", "mascot": "Polar Bears", "name": "Glacier Park Elementary School", "operator": "Tahoma School District", "operator:type": "public", "religion": "no", "website": "https://glacierpark.tahomasd.us/"}}, {"type": "way", "id": 342128799, "nodes": [3491572293, 3491572294, 3491572295, 3491572296, 3491572293], "tags": {"addr:city": "Maple Valley", "addr:housenumber": "26924", "addr:postcode": "98038", "addr:state": "WA", "addr:street": "Maple Valley Black Diamond Road Southeast", "amenity": "fast_food", "brand": "McDonald's", "brand:wikidata": "Q38076", "building": "yes", "check_date": "2024-10-07", "cuisine": "burger", "delivery": "no", "drive_through": "yes", "internet_access": "wlan", "name": "McDonald's", "opening_hours": "06:00-21:00", "opening_hours:drive_through": "Mo-Sa 05:00-23:00; Su 06:00-23:00", "outdoor_seating": "no", "payment:cash": "yes", "payment:credit_cards": "yes", "payment:debit_cards": "yes", "phone": "+1-425-413-7031", "smoking": "no", "takeaway": "yes", "website": "https://www.mcdonalds.com/us/en-us/location/23817.html", "wheelchair": "yes"}}, {"type": "way", "id": 342129019, "nodes": [3491572787, 3491572788, 3491572789, 3491572790, 3491572787], "tags": {"brand": "Mud Bay", "building": "yes", "check_date": "2024-10-07", "internet_access": "no", "name": "Mud Bay", "not:brand:wikidata": "Q30324179", "opening_hours": "Mo-Fr 10:00-19:30; Sa-Su 09:00-19:00", "payment:mastercard": "yes", "payment:visa": "yes", "shop": "pet", "wheelchair": "yes"}}, {"type": "way", "id": 342129979, "nodes": [3491588639, 4461363928, 3491588641, 3491588642, 3491588639], "tags": {"addr:city": "Maple Valley", "addr:housenumber": "26804", "addr:postcode": "98038", "addr:state": "WA", "addr:street": "Maple Valley Black Diamond Road Southeast", "building": "yes", "check_date": "2024-09-22", "name": "Shop Fast Mart", "shop": "convenience", "wheelchair": "yes"}}, {"type": "way", "id": 403519402, "nodes": [4058686000, 4058685989, 4119774248, 4058685587, 4058685588, 4058685991, 4058685992, 4058685995, 4058685997, 4058686001, 12423397204, 12423397202, 12423397201, 12423397203, 4058686000], "tags": {"addr:city": "Maple Valley", "addr:housenumber": "26635", "addr:postcode": "98038", "addr:state": "WA", "addr:street": "Maple Valley-Black Diamond Road Southeast", "brand": "AutoZone", "brand:wikidata": "Q4826087", "building": "yes", "check_date": "2024-10-07", "name": "AutoZone", "opening_hours": "Mo-Sa 07:30-21:00; Su 08:00-20:00", "payment:cash": "yes", "payment:credit_cards": "yes", "payment:debit_cards": "yes", "shop": "car_parts", "website": "https://www.autozone.com/locations/wa/maple-valley/26635-maple-valley-black-diamond-rd.html"}}, {"type": "way", "id": 403519403, "nodes": [4058685577, 4058685569, 4058685570, 4058685568, 4058685572, 4058685575, 4030803489, 4058685582, 4058685579, 4058685578, 4058685577], "tags": {"addr:city": "Maple Valley", "addr:country": "US", "addr:housenumber": "26705", "addr:postcode": "98038", "addr:state": "WA", "addr:street": "Maple Valley-Black Diamond Road Southeast", "brand": "Walgreens", "brand:wikidata": "Q1591889", "building": "yes", "check_date": "2024-10-10", "name": "Walgreens", "opening_hours": "08:00-22:00", "payment:cash": "yes", "payment:credit_cards": "yes", "payment:debit_cards": "yes", "post_office": "post_partner", "post_office:brand": "FedEx OnSite", "post_office:website": "https://local.fedex.com/en-us/wa/maple-valley/mcmk3", "shop": "chemist", "website": "https://www.walgreens.com/locator/walgreens-26705+maple+valley+black+diamond+rd+se-maple+valley-wa-98038/id=15203", "wheelchair": "yes"}}, {"type": "way", "id": 403519404, "nodes": [4058685555, 4058685550, 4058685549, 4058685544, 4058685547, 4058685545, 4058685546, 4030789991, 4058685552, 4058685553, 4058685554, 4058685557, 4058685556, 4058685558, 4058685555], "tags": {"addr:city": "Maple Valley", "addr:housenumber": "23924", "addr:postcode": "98038", "addr:state": "WA", "addr:street": "Southeast Kent Kangley Road", "alt_name": "Dairy Queen", "amenity": "fast_food", "brand": "DQ Grill & Chill", "brand:wikidata": "Q1141226", "building": "yes", "check_date": "2024-10-07", "cuisine": "ice_cream;burger", "delivery": "no", "drive_through": "yes", "name": "DQ Grill & Chill", "opening_hours": "12:00-20:00", "opening_hours:drive_through": "Mo-Th 09:00-21:00; Fr-Sa 10:00-22:00; Su 11:00-20:00", "outdoor_seating": "no", "payment:cash": "yes", "payment:credit_cards": "yes", "payment:debit_cards": "yes", "phone": "+1-425-432-6005", "smoking": "no", "takeaway": "yes", "website": "https://www.dairyqueen.com/locations/wa/maple-valley/23924-se-kent-kangley-rd/2288"}}, {"type": "way", "id": 403519406, "nodes": [4058686016, 4058686012, 4058686010, 4058686013, 4058686011, 4058686009, 4058686008, 4058686005, 4058686004, 4058685994, 4058685996, 4058685585, 5076588208, 5076588200, 5076588194, 4058685993, 4058685998, 4058685999, 5369269333, 4058686003, 4461362479, 4058686007, 4058686006, 4058686016], "tags": {"addr:city": "Maple Valley", "addr:housenumber": "26625", "addr:postcode": "98038", "addr:state": "WA", "addr:street": "Maple Valley-Black Diamond Road Southeast", "building": "yes", "check_date": "2024-10-07", "internet_access": "wlan", "internet_access:fee": "no", "name": "Johnsons Home & Garden", "opening_hours": "Mo-Sa 07:30-20:00; Su 08:00-19:00", "payment:mastercard": "yes", "payment:visa": "yes", "phone": "+1-425-432-3384", "shop": "doityourself", "website": "http://johnsonshg.com", "wheelchair": "yes"}}, {"type": "way", "id": 403519408, "nodes": [4058686023, 4058686022, 4058686014, 4853756529, 4058686015, 4058686019, 4058686021, 4058686020, 4058686023], "tags": {"addr:city": "Maple Valley", "addr:housenumber": "26615", "addr:postcode": "98038", "addr:state": "WA", "addr:street": "Maple Valley-Black Diamond Road Southeast", "brand": "Vision Source", "brand:wikidata": "Q21189109", "building": "yes", "check_date": "2024-10-07", "healthcare": "optometrist", "name": "Vision Source Maple Valley Eye Care", "opening_hours": "Mo-Fr 09:00-17:30; Sa 09:00-13:30", "payment:mastercard": "yes", "payment:visa": "yes", "phone": "+1-425-413-8787", "shop": "optician"}}, {"type": "way", "id": 404853796, "nodes": [4071096201, 4071096202, 4071096203, 4071096204, 4071096205, 4071096206, 4071096207, 4071096208, 4071096209, 4071096210, 4071096211, 4071096212, 4071096213, 4071096214, 4071096201], "tags": {"amenity": "parking"}}, {"type": "way", "id": 417701683, "nodes": [4182002631, 4182002632, 4182002633, 4182002634, 4182002631], "tags": {"addr:city": "Maple Valley", "addr:housenumber": "26916", "addr:postcode": "98038", "addr:state": "WA", "addr:street": "Maple Valley-Black Diamond Road Southeast", "amenity": "cafe", "branch": "Safeway Maple Valley 1471", "brand": "Starbucks", "brand:wikidata": "Q37158", "check_date": "2024-10-07", "cuisine": "coffee_shop", "name": "Starbucks", "official_name": "Starbucks Coffee", "opening_hours": "06:00-18:00", "operator": "Starbucks", "outdoor_seating": "no", "payment:cash": "yes", "payment:credit_cards": "yes", "payment:debit_cards": "yes", "phone": "+1-425-432-2020", "smoking": "no", "takeaway": "yes", "website": "https://www.starbucks.com/store-locator/store/12571/safeway-maple-valley-1471-26916-maple-valley-hwy-maple-valley-wa-98038-us"}}, {"type": "way", "id": 439386196, "nodes": [4370013037, 4370013036, 6608997573, 4370012833, 4370012834, 5419194261, 4370012859, 4370012858, 4370013037], "tags": {"amenity": "kindergarten", "fax": "+1-425-432-6341", "name": "The Country Playhouse Academy", "phone": "+1-425-432-6340", "website": "https://www.thecountryplayhouseacademy.com/"}}, {"type": "way", "id": 439386217, "nodes": [4370013817, 356552132, 11240322656, 4370013878, 4370013816, 4462666708, 4370013817], "tags": {"amenity": "school", "ele": "166", "gnis:feature_id": "2494265", "mascot": "Eagles", "name": "Rock Creek Elementary School", "operator:type": "public", "website": "https://rockcreek.tahomasd.us/"}}, {"type": "way", "id": 449172396, "nodes": [4030789990, 4461364817, 4461364816, 4461364841, 4461364843, 4461364838, 4461364840, 4461364828, 4030789990], "tags": {"addr:city": "Maple Valley", "addr:housenumber": "26630", "addr:postcode": "98038", "addr:state": "WA", "addr:street": "Maple Valley Black Diamond Road Southeast", "amenity": "fast_food", "brand": "Burger King", "brand:wikidata": "Q177054", "building": "yes", "check_date": "2024-10-07", "cuisine": "burger", "delivery": "no", "drive_through": "yes", "internet_access": "wlan", "name": "Burger King", "opening_hours": "08:00-21:00", "opening_hours:drive_through": "06:00-24:00", "outdoor_seating": "no", "payment:cash": "yes", "payment:credit_cards": "yes", "payment:debit_cards": "yes", "phone": "+1-425-358-7182", "ref": "18532", "smoking": "no", "takeaway": "yes", "website": "https://www.bk.com/store-locator/store/18532/26630-state-route-169--maple-valley--washington--98038-0000"}}, {"type": "way", "id": 449172397, "nodes": [4461365047, 4119782227, 4461365042, 4461365034, 4461365035, 4461365030, 4461365031, 4461365033, 4461365037, 4461365038, 4461365046, 4461365045, 4461365049, 4461365047], "tags": {"addr:city": "Maple Valley", "addr:housenumber": "26430", "addr:postcode": "98038", "addr:state": "WA", "addr:street": "Maple Valley-Black Diamond Road Southeast", "amenity": "bank", "atm": "yes", "brand": "Chase", "brand:wikidata": "Q524629", "building": "retail", "check_date": "2024-09-17", "drive_through": "yes", "name": "Chase", "opening_hours": "Mo-Fr 09:00-18:00; Sa 09:00-13:00", "phone": "+1-425-413-2435", "website": "https://locator.chase.com/wa/maple-valley/26430-maple-valley-black-diamond-rd-se"}}, {"type": "way", "id": 449172402, "nodes": [4461364810, 4461364813, 4461364802, 4461364800, 4461364810], "tags": {"addr:city": "Maple Valley", "addr:housenumber": "26642", "addr:postcode": "98038", "addr:state": "WA", "addr:street": "Maple Valley-Black Diamond Road Southeast", "amenity": "restaurant", "bar": "yes", "brewery": "yes", "building": "yes", "check_date": "2024-10-07", "cuisine": "pizza", "delivery": "no", "internet_access": "wlan", "internet_access:fee": "customers", "name": "Farrelli's Pizza - Maple Valley", "opening_hours": "Mo-Th,Su 11:00-22:00; Fr-Sa 11:00-24:00", "payment:cash": "yes", "payment:credit_cards": "yes", "payment:debit_cards": "yes", "phone": "+1-425-584-7340", "smoking": "no", "website": "https://farrellispizza.com/locations/farrellis-maple-valley-wa/"}}, {"type": "way", "id": 449172404, "nodes": [4461364806, 4461364801, 4461364803, 4461364811, 4461364806], "tags": {"addr:city": "Maple Valley", "addr:housenumber": "26520", "addr:postcode": "98038", "addr:state": "WA", "addr:street": "Maple Valley-Black Diamond Road Southeast", "amenity": "fuel", "brand": "Fred Meyer", "brand:wikidata": "Q5495932", "building": "roof", "check_date": "2024-10-07", "name": "Fred Meyer Fuel", "opening_hours": "24/7", "payment:cash": "yes", "payment:credit_cards": "yes", "payment:debit_cards": "yes"}}, {"type": "way", "id": 449172405, "nodes": [4461364992, 4461364994, 4461364995, 2063764577, 4461365043, 4461365032, 4461365018, 4461365017, 4461365012, 4461365011, 5369269360, 4461365003, 4461365004, 4461364999, 4461365000, 4461364989, 4461364888, 4461364886, 4461364885, 5369269361, 4461364878, 4461364879, 4461364873, 4461364874, 4461364855, 4461364857, 4461364858, 5369269482, 4461364862, 4461364850, 4461364852, 4461364992], "tags": {"addr:city": "Maple Valley", "addr:housenumber": "26520", "addr:postcode": "98038", "addr:state": "WA", "addr:street": "Maple Valley-Black Diamond Road Southeast", "branch": "Maple Valley", "brand": "Fred Meyer", "brand:wikidata": "Q5495932", "building": "retail", "check_date": "2024-10-04", "internet_access": "wlan", "name": "Fred Meyer", "opening_hours": "06:00-23:00", "payment:cash": "yes", "payment:credit_cards": "yes", "payment:debit_cards": "yes", "phone": "+1-425-433-2300", "ref": "7010068210", "shop": "supermarket", "website": "https://www.fredmeyer.com/stores/grocery/wa/maple-valley/maple-valley/701/00682", "wheelchair": "yes"}}, {"type": "way", "id": 449172407, "nodes": [4461364867, 4461364872, 4461364875, 4461364868, 4461364867], "tags": {"addr:city": "Maple Valley", "addr:housenumber": "26520", "addr:postcode": "98038", "addr:state": "WA", "addr:street": "Maple Valley-Black Diamond Road Southeast", "addr:unit": "102", "brand": "Great Clips", "brand:wikidata": "Q5598967", "check_date": "2024-10-07", "name": "Great Clips", "opening_hours": "Mo-Fr 08:00-20:00; Sa-Su 09:00-18:00", "payment:cash": "yes", "payment:credit_cards": "yes", "payment:debit_cards": "yes", "shop": "hairdresser"}}, {"type": "way", "id": 449172409, "nodes": [4461364861, 4461364867, 4461364868, 4461364863, 4461364861], "tags": {"addr:city": "Maple Valley", "addr:housenumber": "26520", "addr:postcode": "98038", "addr:state": "WA", "addr:street": "Maple Valley-Black Diamond Road Southeast", "addr:unit": "103", "check_date": "2024-10-07", "name": "Maple Valley Cleaners", "opening_hours": "Mo-Fr 07:00-18:00; Sa 10:00-16:00; Su off", "payment:cash": "yes", "payment:credit_cards": "yes", "payment:debit_cards": "yes", "shop": "dry_cleaning"}}, {"type": "way", "id": 449172411, "nodes": [4461364670, 4461364668, 4461364666, 4461364647, 4461364648, 4461364644, 4461364643, 4461364633, 4461364634, 4461364626, 4461364628, 4461364636, 4461364637, 4461364671, 4461364669, 4461364673, 4461364670], "tags": {"addr:city": "Maple Valley", "addr:door": "B10p", "addr:housenumber": "24080", "addr:postcode": "98038", "addr:state": "WA", "addr:street": "Southeast Kent-Kangley Road", "amenity": "clinic", "building": "retail", "building:levels": "1", "check_date": "2024-10-07", "healthcare": "clinic", "name": "MultiCare - Maple Valley Clinic", "opening_hours": "Mo-Th 07:00-18:00; Fr 07:00-17:00"}}, {"type": "way", "id": 449172412, "nodes": [4461364857, 4461364861, 4461364863, 4461364858, 4461364857], "tags": {"addr:city": "Maple Valley", "addr:door": "104", "addr:housenumber": "26520", "addr:postcode": "98038", "addr:state": "WA", "addr:street": "Maple Valley-Black Diamond Road Southeast", "addr:unit": "104", "check_date": "2024-10-07", "name": "Pet Pros", "opening_hours": "Mo-Sa 09:30-19:30; Su 10:00-18:00", "payment:cash": "yes", "payment:credit_cards": "yes", "payment:debit_cards": "yes", "shop": "pet"}}, {"type": "way", "id": 449172419, "nodes": [4461364872, 4461364882, 4461364884, 4461364880, 4461364875, 4461364872], "tags": {"addr:city": "Maple Valley", "addr:housenumber": "26520", "addr:postcode": "98038", "addr:state": "WA", "addr:street": "Maple Valley-Black Diamond Road Southeast", "addr:unit": "101", "amenity": "bank", "atm": "yes", "brand": "U.S. Bank", "brand:wikidata": "Q739084", "check_date": "2024-10-07", "drive_through": "no", "name": "U.S. Bank", "opening_hours": "Mo-Fr 10:00-18:00; Sa 10:00-14:00; Su off", "payment:cash": "yes", "payment:credit_cards": "yes", "payment:debit_cards": "yes"}}, {"type": "way", "id": 449293910, "nodes": [4462687637, 4462687635, 4462687636, 4462687639, 4496391840, 4462687638, 4462687637], "tags": {"addr:city": "Maple Valley", "addr:housenumber": "23743", "addr:postcode": "98038", "addr:state": "WA", "addr:street": "Southeast 264th Street", "barrier": "fence", "check_date": "2024-10-10", "landuse": "garages", "name": "Rock Creek Storage", "phone": "+1-206-947-4395", "shop": "storage_rental"}}, {"type": "way", "id": 450624525, "nodes": [4475429962, 4475429963, 4475429964, 4475429965, 4475429966, 4475429967, 4475429968, 4475429969, 4475429970, 4475429971, 4475429972, 4475429973, 4475429974, 4475429975, 4475429962], "tags": {"addr:city": "Maple Valley", "addr:housenumber": "27215", "addr:postcode": "98038", "addr:state": "WA", "addr:street": "Maple Valley-Black Diamond Road Southeast", "brand": "Les Schwab Tire Center", "brand:wikidata": "Q6529977", "building": "yes", "building:levels": "1", "check_date": "2024-10-07", "name": "Les Schwab Tire Center", "opening_hours": "Mo-Fr 08:00-18:00; Sa 08:00-17:00; Su off", "payment:mastercard": "yes", "payment:visa": "yes", "phone": "+1-425-413-8688", "shop": "tyres"}}, {"type": "way", "id": 452822996, "nodes": [4496342855, 4496342847, 4496342845, 4496342839, 4496342840, 4496342844, 4496342846, 4496342849, 4496342853, 4496342854, 4496342855], "tags": {"access": "private", "amenity": "parking", "parking": "surface"}}, {"type": "way", "id": 471150477, "nodes": [4653139961, 4653139962, 4653139963, 4653139964, 4653139965, 4653139966, 4653139967, 4653139968, 4653139969, 4653139970, 4653139971, 4653139972, 4653139973, 4653139974, 4653139975, 4462266858, 4653139961], "tags": {"amenity": "place_of_worship", "check_date": "2024-10-07", "denomination": "mormon", "name": "The Church of Jesus Christ of Latter-day Saints", "religion": "christian"}}, {"type": "way", "id": 476978001, "nodes": [4703953744, 4703953745, 4703953746, 4703953747, 4703953744], "tags": {"addr:city": "Maple Valley", "addr:housenumber": "26458", "addr:postcode": "98038", "addr:state": "WA", "addr:street": "Maple Valley-Black Diamond Road Southeast", "amenity": "clinic", "building": "yes", "building:levels": "2", "check_date": "2024-05-26", "healthcare": "clinic", "internet_access": "wlan", "internet_access:fee": "no", "name": "Valley Medical Center - Maple Valley Clinic", "opening_hours": "Mo-Fr 08:00-20:00; Sa-Su 08:00-16:00", "payment:cash": "yes", "payment:credit_cards": "yes", "payment:debit_cards": "yes", "phone": "+1-425-690-3465", "wheelchair": "yes"}}, {"type": "way", "id": 494301279, "nodes": [4860812433, 4860812434, 4860812435, 4860812436, 4860812437, 4860812438, 5438902539, 4461363910, 4860812441, 4860812442, 4860812433], "tags": {"addr:city": "Maple Valley", "addr:housenumber": "26535", "addr:postcode": "98038", "addr:state": "WA", "addr:street": "Maple Valley-Black Diamond Road Southeast", "amenity": "fast_food", "brand": "Panera Bread", "brand:wikidata": "Q7130852", "building": "yes", "check_date": "2024-10-07", "cuisine": "sandwich;bakery", "delivery": "no", "drive_through": "yes", "internet_access": "wlan", "name": "Panera Bread", "opening_hours": "Mo-Th 06:00-21:00; Fr-Sa 06:00-22:00; Su 07:00-21:00", "outdoor_seating": "yes", "payment:cash": "yes", "payment:credit_cards": "yes", "payment:debit_cards": "yes", "phone": "+1-425-310-0012", "short_name": "Panera", "smoking": "no", "takeaway": "yes", "website": "https://locations.panerabread.com/wa/maple-valley/26535-maple-valley-black-diamond-rd-se.html"}}, {"type": "way", "id": 504855905, "nodes": [4949570876, 4949570875, 4949570874, 4949570873, 4949570871, 4949570870, 4949570869, 4949570885, 4949570886, 4949570887, 4949570888, 4949570889, 4949570890, 4949570891, 4949570892, 4949570893, 4949570894, 4949570895, 4949570896, 4949570897, 4949570898, 4949570899, 4949570884, 4949570882, 4949570881, 4949570880, 5468006141, 4949570876], "tags": {"access": "yes", "amenity": "parking", "fee": "no", "name": "Student Parking", "park_ride": "no", "parking": "surface"}}, {"type": "way", "id": 504855958, "nodes": [4461364332, 4318155626, 4949572578, 4949572577, 4462266883, 4462266881, 6944187272, 6944187273, 4949572575, 4949572574, 4927801177, 6608997663, 6608997388, 6608997389, 6608997390, 6608997391, 6608997392, 6608997393, 6608997394, 6608997664, 6608997665, 6608997650, 4775148892, 4949572572, 4949572571, 4949572570, 4949572569, 4949572568, 4949572567, 5083066265, 7159774604, 4949572566, 4461364332], "tags": {"amenity": "school", "education": "school", "mascot": "Bears", "name": "Tahoma High School", "operator": "Tahoma School District", "operator:type": "public", "religion": "no", "wikidata": "Q14713920", "wikipedia": "en:Tahoma High School"}}, {"type": "way", "id": 508096947, "nodes": [4974711227, 4974711226, 4974711225, 4974711224, 4974711223, 4974711222, 4461362468, 4974707220, 4974707219, 4974707218, 4974707217, 4974711227], "tags": {"addr:city": "Maple Valley", "addr:housenumber": "27077", "addr:postcode": "98038", "addr:state": "WA", "addr:street": "Maple Valley-Black Diamond Road Southeast", "brand": "Goodwill", "brand:wikidata": "Q5583655", "building": "commercial", "check_date": "2024-10-07", "name": "Goodwill", "opening_hours": "Mo-Sa 10:00-21:00; Su 10:00-19:00", "operator": "Evergreen Goodwill", "operator:wikidata": "Q114921523", "payment:mastercard": "yes", "payment:visa": "yes", "second_hand": "yes", "shop": "charity", "wheelchair": "yes"}}, {"type": "way", "id": 508096948, "nodes": [4974711247, 4974711246, 4974711245, 4974711244, 4974711241, 4974711240, 4974711239, 4974711238, 4974711237, 4974711236, 4974711235, 4974711234, 4974711233, 4974711232, 4461362481, 4974711230, 4974711229, 4974711228, 4974711247], "tags": {"addr:postcode": "98038", "amenity": "bank", "atm": "yes", "brand": "KeyBank", "brand:wikidata": "Q1740314", "building": "commercial", "check_date": "2024-10-07", "drive_through": "yes", "name": "KeyBank", "opening_hours": "Mo-Th 09:00-17:00; Fr 09:00-18:00; Sa-Su off"}}, {"type": "way", "id": 508096951, "nodes": [4974711257, 5468006023, 4461362478, 4974711255, 5468006022, 4974711256, 4974711257], "tags": {"addr:city": "Maple Valley", "addr:housenumber": "24001", "addr:postcode": "98038", "addr:state": "WA", "addr:street": "Southeast Kent-Kangley Road", "brand": "Jiffy Lube", "brand:wikidata": "Q6192247", "building": "yes", "name": "Jiffy Lube", "shop": "car_repair"}}, {"type": "way", "id": 508096952, "nodes": [4461365209, 4974711258, 5468006027, 4974711259, 4974711260, 5468006026, 4461365209], "tags": {"addr:city": "Maple Valley", "addr:housenumber": "26821", "addr:postcode": "98038", "addr:state": "WA", "addr:street": "Maple Valley-Black Diamond Road Southeast", "amenity": "fuel", "brand": "76", "brand:wikidata": "Q1658320", "building": "roof", "check_date": "2024-09-22", "name": "76", "opening_hours": "24/7", "payment:cash": "yes", "payment:credit_cards": "yes", "payment:debit_cards": "yes"}}, {"type": "way", "id": 508096955, "nodes": [4974711265, 4461364606, 4974711263, 4974711262, 4974711265], "tags": {"addr:city": "Maple Valley", "addr:housenumber": "26821", "addr:postcode": "98038", "addr:state": "WA", "addr:street": "Maple Valley-Black Diamond Road Southeast", "brand": "Kangaroo Express", "brand:wikidata": "Q61747408", "building": "yes", "check_date": "2025-08-14", "name": "Maple Valley Grab 'n' Go", "opening_hours": "Mo-Fr 05:00-01:00; Sa-Su 06:00-01:00", "payment:cash": "yes", "payment:credit_cards": "yes", "payment:debit_cards": "yes", "shop": "convenience", "short_name": "Kangaroo"}}, {"type": "way", "id": 508096957, "nodes": [4590220384, 4974711266, 4974711267, 4974711268, 4590220384], "tags": {"addr:city": "Maple Valley", "addr:housenumber": "26843", "addr:postcode": "98038", "addr:state": "WA", "addr:street": "Maple Valley Black Diamond Road Southeast", "amenity": "cafe", "building": "yes", "cuisine": "coffee_shop", "name": "Creative Coffee Brewing", "opening_hours": "Mo-Fr 04:00-19:00; Sa-Su 05:00-19:00", "outdoor_seating": "no", "takeaway": "only"}}, {"type": "way", "id": 556947534, "nodes": [5372007888, 5372007887, 5372007886, 5372007885, 5372007888], "tags": {"addr:city": "Maple Valley", "addr:housenumber": "26300", "addr:postcode": "98038", "addr:state": "WA", "addr:street": "238th Lane Southeast", "addr:unit": "101", "amenity": "fast_food", "brand": "Jersey Mike's Subs", "brand:wikidata": "Q6184897", "building": "yes", "check_date": "2024-10-04", "cuisine": "sandwich", "name": "Jersey Mike's Subs", "name:en": "Jersey Mike's Subs", "opening_hours": "Mo-Su 10:00-21:00", "payment:cash": "yes", "payment:credit_cards": "yes", "payment:debit_cards": "yes", "short_name": "Jersey Mike's", "takeaway": "yes", "website": "https://www.jerseymikes.com/18041/maple-valley-wa"}}, {"type": "way", "id": 556947541, "nodes": [5372007919, 5372007918, 5372007917, 5372007916, 5372007915, 5372007914, 5372007913, 5372007912, 5372007911, 5372007910, 5372007909, 5372007908, 5372007907, 5372007906, 5372007919], "tags": {"addr:city": "Maple Valley", "addr:housenumber": "26380", "addr:postcode": "98038", "addr:state": "WA", "addr:street": "238th Lane Southeast", "amenity": "clinic", "building": "yes", "check_date": "2024-10-04", "healthcare": "clinic", "name": "Indigo Urgent Care", "opening_hours": "08:00-20:00", "payment:cash": "yes", "payment:credit_cards": "yes", "payment:debit_cards": "yes"}}, {"type": "way", "id": 563931294, "nodes": [5434039951, 5434039948, 9555176168, 9555176167, 9555176169, 9555176170, 4590221850, 5434039950, 5434039951], "tags": {"addr:city": "Maple Valley", "addr:housenumber": "24215", "addr:postcode": "98038", "addr:state": "WA", "addr:street": "Southeast 271st Place", "building": "commercial", "building:levels": "1", "name": "4 Corners Self Storage", "name:en": "4 Corners Self Storage", "shop": "storage_rental"}}, {"type": "way", "id": 563931343, "nodes": [5434041295, 5434041294, 5434041293, 5434040195, 9555177706, 9555177708, 9555177709, 9555177707, 5434041296, 5434040199, 5434041298, 5434041299, 9555177712, 9555177711, 5434041297, 5434040200, 4919976222, 5434041291, 9555177702, 9555177705, 9555177704, 9555177703, 5434041292, 5434040194, 5434041295], "tags": {"addr:city": "Maple Valley", "addr:housenumber": "26700", "addr:postcode": "98038", "addr:state": "WA", "addr:street": "242nd Avenue Southeast", "building": "commercial", "building:levels": "1", "check_date": "2024-10-07", "name": "TRM Wood Products", "name:en": "TRM Wood Products", "opening_hours": "Mo-Fr 07:00-17:00; Sa 08:00-16:00", "payment:cash": "yes", "payment:credit_cards": "yes", "payment:debit_cards": "yes", "shop": "hardware", "website": "http://www.trmwoodproducts.net"}}, {"type": "way", "id": 563931374, "nodes": [5434042781, 5434040312, 5434042774, 5434042773, 356552158, 5434042780, 5434040314, 5434042778, 5434040311, 5434042775, 5434042777, 5434042776, 5434040310, 5434042779, 5434042781], "tags": {"addr:city": "Maple Valley", "addr:housenumber": "25720", "addr:postcode": "98038", "addr:state": "WA", "addr:street": "Maple Valley-Black Diamond Road Southeast", "building": "office", "building:levels": "1", "ele": "167", "gnis:feature_id": "2494288", "government": "education", "name": "Tahoma School District No. 409 - Central Services", "office": "government"}}, {"type": "way", "id": 564513337, "nodes": [4058686027, 5438902532, 4058686028, 4058686029, 5369269332, 4058686033, 4461362469, 4058686039, 4058686036, 4058686038, 4058686037, 4058686035, 4058686034, 4058686030, 4058686031, 4058686026, 4058686027], "tags": {"addr:city": "Maple Valley", "addr:housenumber": "26525", "addr:postcode": "98038", "addr:state": "WA", "addr:street": "Maple Valley-Black Diamond Road Southeast", "brand": "Grocery Outlet", "brand:wikidata": "Q5609934", "building": "yes", "check_date": "2024-10-07", "internet_access": "no", "name": "Grocery Outlet", "official_name": "Grocery Outlet Bargain Market", "opening_hours": "Mo-Su 08:00-21:00", "payment:mastercard": "yes", "payment:visa": "yes", "shop": "supermarket", "wheelchair": "yes"}}, {"type": "way", "id": 564877281, "nodes": [4461365050, 5441634557, 5441634555, 5441634556, 4461365050], "tags": {"addr:city": "Maple Valley", "addr:housenumber": "23933", "addr:postcode": "98038", "addr:state": "WA", "addr:street": "Southeast 264th Street", "building": "commercial", "building:levels": "1", "check_date": "2024-10-04", "name": "Rainier Automotive", "opening_hours": "Mo-Fr 08:00-17:00", "phone": "+1-425-310-1100", "shop": "car_repair"}}, {"type": "way", "id": 564877290, "nodes": [5441634533, 5441634529, 5080658224, 5441634552, 5441634533], "tags": {"building": "commercial", "building:levels": "1", "name": "Maple Valley Truck & Equipment Service", "name:en": "Maple Valley Truck & Equipment Service", "opening_hours": "Mo-Fr 09:00-18:00; Sa 09:00-17:00", "shop": "car_repair"}}, {"type": "way", "id": 564877293, "nodes": [5441634188, 5441634190, 5441634185, 5441634187, 5441615310, 5441634180, 4370013638, 5441634209, 5441634212, 5441634203, 5441634206, 5441634198, 5441634199, 5441634193, 5441634195, 5441634127, 5441634131, 5441615320, 5441634125, 5441615316, 5441615318, 5441615311, 5441634188], "tags": {"addr:city": "Maple Valley", "addr:housenumber": "23775", "addr:postcode": "98038", "addr:state": "WA", "addr:street": "Southeast 264th Street", "amenity": "fire_station", "building": "commercial", "building:levels": "1", "name": "Puget Sound Fire Station 80", "operator": "Puget Sound Regional Fire Authority"}}, {"type": "way", "id": 564877299, "nodes": [5441615313, 5441615315, 4461365015, 5441634144, 5441634139, 5441634141, 5441634137, 5441634138, 5441615313], "tags": {"addr:city": "Maple Valley", "addr:housenumber": "23765", "addr:postcode": "98038", "addr:state": "WA", "addr:street": "Southeast 264th Street", "building": "commercial", "building:levels": "1", "name": "Westover Auto Rebuild", "name:en": "Westover Auto Rebuild", "opening_hours": "Mo-Fr 08:00-17:30", "phone": "+1-425-432-7222", "shop": "car_repair"}}, {"type": "way", "id": 568641613, "nodes": [5470488985, 5470488986, 4927807795, 5470489002, 5470489003, 5470489004, 5470489005, 5470489006, 5470489007, 5470489008, 5470489009, 5470488995, 5470488985], "tags": {"addr:city": "Maple Valley", "addr:housenumber": "28000", "addr:postcode": "98038", "addr:state": "WA", "addr:street": "Maple Valley-Black Diamond Road Southeast", "building": "yes", "building:levels": "1", "craft": "carpenter", "name": "McClone Construction", "office": "company"}}, {"type": "way", "id": 568641629, "nodes": [5470490091, 5470490090, 5470490104, 5470490103, 5470490102, 4927807798, 5470490091], "tags": {"addr:city": "Maple Valley", "addr:housenumber": "28730", "addr:postcode": "98038", "addr:state": "WA", "addr:street": "Maple Valley-Black Diamond Road Southeast", "building": "yes", "building:levels": "1", "check_date": "2024-09-22", "craft": "window_construction", "name": "Millwork Outlet", "shop": "yes"}}, {"type": "way", "id": 568641640, "nodes": [5470490059, 5470490058, 5470490057, 5470490056, 5470490055, 4927807796, 5470490059], "tags": {"addr:city": "Maple Valley", "addr:housenumber": "28620", "addr:postcode": "98038", "addr:state": "WA", "addr:street": "Maple Valley-Black Diamond Road Southeast", "building": "yes", "building:levels": "1", "check_date": "2024-09-22", "name": "Aqua Test", "office": "company"}}, {"type": "way", "id": 617895457, "nodes": [5840644616, 6901616075, 6441984319, 6441984318, 6901616067, 12423397230, 5840644614, 6441984317, 6441984316, 6901616058, 6901616057, 5840644613, 6441984321, 6441984320, 5840644616], "tags": {"addr:city": "Maple Valley", "addr:housenumber": "26285", "addr:postcode": "98038", "addr:state": "WA", "addr:street": "238th Lane Southeast", "building": "yes", "building:levels": "1", "name": "Monarch Apartments Leasing Office", "office": "yes"}}, {"type": "way", "id": 617895878, "nodes": [5840647938, 5840647935, 5840647936, 5840647937, 5840647938], "tags": {"access": "customers", "amenity": "parking", "fee": "no", "parking": "surface"}}, {"type": "way", "id": 617895879, "nodes": [5840647942, 5840647939, 5840647940, 5840647941, 5840647942], "tags": {"access": "customers", "amenity": "parking", "fee": "no", "parking": "surface"}}, {"type": "way", "id": 617895880, "nodes": [5840647946, 5840647945, 5840647944, 5840647943, 5840647946], "tags": {"amenity": "parking"}}, {"type": "way", "id": 617895881, "nodes": [5840647950, 5840647947, 5840647948, 5840647949, 5840647950], "tags": {"amenity": "parking"}}, {"type": "way", "id": 617895882, "nodes": [5840647954, 5840647951, 5840647952, 5840647953, 5840647954], "tags": {"amenity": "parking"}}, {"type": "way", "id": 617895883, "nodes": [5840647958, 5840647957, 5840647956, 5840647955, 5840647958], "tags": {"access": "customers", "amenity": "parking", "fee": "no", "parking": "surface"}}, {"type": "way", "id": 617895884, "nodes": [5840647962, 5840647961, 5840647960, 5840647959, 5840647962], "tags": {"access": "customers", "amenity": "parking", "fee": "no", "parking": "surface"}}, {"type": "way", "id": 617895885, "nodes": [5840647966, 5840647965, 5840647964, 5840647963, 5840647966], "tags": {"access": "customers", "amenity": "parking"}}, {"type": "way", "id": 617895886, "nodes": [5840647970, 5840647969, 5840647968, 5840647967, 5840647970], "tags": {"access": "customers", "amenity": "parking", "fee": "no", "parking": "surface"}}, {"type": "way", "id": 617895887, "nodes": [5840647974, 5840647971, 5840647972, 5840647973, 5840647974], "tags": {"access": "customers", "amenity": "parking", "fee": "no", "parking": "surface"}}, {"type": "way", "id": 617895888, "nodes": [5840647978, 5840647977, 5840647976, 5840647975, 5840647978], "tags": {"access": "customers", "amenity": "parking", "fee": "no", "parking": "surface", "surface": "asphalt"}}, {"type": "way", "id": 617895889, "nodes": [5840647982, 5840647981, 5840647980, 5840647979, 5840647982], "tags": {"access": "customers", "amenity": "parking", "fee": "no", "parking": "surface"}}, {"type": "way", "id": 617895890, "nodes": [5840648786, 5840647983, 5840647984, 5840648785, 5840648786], "tags": {"access": "customers", "amenity": "parking", "fee": "no", "parking": "surface"}}, {"type": "way", "id": 617895891, "nodes": [5840648790, 5840648787, 5840648788, 5840648789, 5840648790], "tags": {"access": "customers", "amenity": "parking", "fee": "no", "parking": "surface"}}, {"type": "way", "id": 617919329, "nodes": [5840821627, 5840821626, 5840821625, 5840821624, 5840821627], "tags": {"amenity": "parking"}}, {"type": "way", "id": 617919330, "nodes": [5840821631, 5840821628, 5840821629, 5840821630, 5840821631], "tags": {"amenity": "parking"}}, {"type": "way", "id": 617919331, "nodes": [5840821635, 5840821634, 5840821633, 5840821632, 5840821635], "tags": {"amenity": "parking"}}, {"type": "way", "id": 617919332, "nodes": [5840821639, 5840821638, 5840821637, 5840821636, 5840821639], "tags": {"amenity": "parking"}}, {"type": "way", "id": 617919333, "nodes": [5840821643, 5840821642, 5840821641, 5840821640, 5840821643], "tags": {"amenity": "parking"}}, {"type": "way", "id": 617919334, "nodes": [5840821647, 5840821644, 5840821645, 5840821646, 5840821647], "tags": {"amenity": "parking"}}, {"type": "way", "id": 617919335, "nodes": [5840821651, 5840821648, 5840821649, 5840821650, 5840821651], "tags": {"amenity": "parking"}}, {"type": "way", "id": 617919336, "nodes": [5840821655, 5840821654, 5840821653, 5840821652, 5840821655], "tags": {"amenity": "parking"}}, {"type": "way", "id": 617919337, "nodes": [5840821659, 5840821656, 5840821657, 5840821658, 5840821659], "tags": {"amenity": "parking"}}, {"type": "way", "id": 617919338, "nodes": [5840821663, 5840821662, 5840821661, 5840821660, 5840821663], "tags": {"amenity": "parking"}}, {"type": "way", "id": 617919339, "nodes": [5840821667, 5840821664, 5840821665, 5840821666, 5840821667], "tags": {"amenity": "parking"}}, {"type": "way", "id": 617919340, "nodes": [5840821671, 5840821668, 5840821669, 5840821670, 5840821671], "tags": {"amenity": "parking"}}, {"type": "way", "id": 617919341, "nodes": [5840821675, 5840821672, 5840821673, 5840821674, 5840821675], "tags": {"amenity": "parking"}}, {"type": "way", "id": 667108316, "nodes": [6206750287, 6246224281, 6246224282, 6246224283, 6206750287], "tags": {"addr:city": "Maple Valley", "addr:housenumber": "26520", "addr:postcode": "98038", "addr:state": "WA", "addr:street": "Maple Valley Black Diamond Road Southeast", "building": "yes", "check_date": "2024-10-07", "name": "Fred Meyer Convenience Store", "opening_hours": "Mo-Su 06:00-23:00", "payment:cash": "yes", "payment:credit_cards": "yes", "payment:debit_cards": "yes", "shop": "convenience"}}, {"type": "way", "id": 688206035, "nodes": [6452703510, 6452703511, 6452703512, 6452703513, 6452703510], "tags": {"amenity": "parking"}}, {"type": "way", "id": 703806679, "nodes": [6608997456, 6608997455, 6608997454, 6608997453, 6608997456], "tags": {"amenity": "parking"}}, {"type": "way", "id": 703806680, "nodes": [6608997460, 6608997459, 6608997458, 6608997457, 6608997460], "tags": {"amenity": "parking"}}, {"type": "way", "id": 703806681, "nodes": [6608997464, 6608997463, 6608997462, 6608997461, 6608997464], "tags": {"amenity": "parking"}}, {"type": "way", "id": 703806703, "nodes": [6608997669, 6608997666, 6608997667, 6608997668, 6608997669], "tags": {"amenity": "parking"}}, {"type": "way", "id": 703806704, "nodes": [6608997673, 6868129595, 6608997670, 6868129581, 6608997671, 6608997672, 6608997673], "tags": {"amenity": "parking"}}, {"type": "way", "id": 703806706, "nodes": [6608997681, 6608997680, 6608997679, 6608997678, 6608997681], "tags": {"amenity": "parking"}}, {"type": "way", "id": 733388728, "nodes": [6868129577, 6868129578, 6868129579, 6868129580, 6868129577], "tags": {"amenity": "parking"}}, {"type": "way", "id": 832767450, "nodes": [4462239402, 7774452716, 7774452715, 7953196224, 7774452714, 4462238769, 4462239401, 4462239402], "tags": {"amenity": "marketplace", "check_date": "2024-10-04", "internet_access": "no", "name": "Maple Valley Farmers' Market", "opening_hours": "Sa 09:00-14:00"}}, {"type": "way", "id": 1158327311, "nodes": [10772154502, 4927807760, 4462687360, 5470488929, 10772154501, 4462687362, 10772154502], "tags": {"access": "private", "amenity": "parking"}}, {"type": "way", "id": 1351904127, "nodes": [12507673976, 12507673977, 6672564719, 6672564718, 6672564717, 6672564716, 6672564715, 12507673976], "tags": {"amenity": "kindergarten", "name": "The Learning Experience"}}]}