{"version": 0.6, "generator": "Overpass API 0.7.62.8 e802775f", "osm3s": {"timestamp_osm_base": "2025-12-06T05:27:01Z", "copyright": "The data included in this document is from www.openstreetmap.org. The data is made available under ODbL."}, "elements": [{"type": "node", "id": 1448528533, "lat": 48.6775476, "lon": -116.3288118}, {"type": "node", "id": 1448528535, "lat": 48.6779638, "lon": -116.3293652}, {"type": "node", "id": 1448528539, "lat": 48.6775486, "lon": -116.3290169}, {"type": "node", "id": 1448528540, "lat": 48.6779617, "lon": -116.3289453}, {"type": "node", "id": 1448528541, "lat": 48.677935, "lon": -116.3289456}, {"type": "node", "id": 1448528545, "lat": 48.6775052, "lon": -116.3288122}, {"type": "node", "id": 1448528549, "lat": 48.6775062, "lon": -116.3290174}, {"type": "node", "id": 1448528554, "lat": 48.6775503, "lon": -116.3293699}, {"type": "node", "id": 1448528555, "lat": 48.6779324, "lon": -116.3284237}, {"type": "node", "id": 1448528557, "lat": 48.6775457, "lon": -116.328428}, {"type": "node", "id": 2968198766, "lat": 48.6956757, "lon": -116.3135486}, {"type": "node", "id": 2968198769, "lat": 48.6957027, "lon": -116.3132153}, {"type": "node", "id": 2968198782, "lat": 48.6958959, "lon": -116.3135895}, {"type": "node", "id": 2968198784, "lat": 48.6959228, "lon": -116.3132562}, {"type": "node", "id": 3889611810, "lat": 48.6973619, "lon": -116.3106336}, {"type": "node", "id": 3889611813, "lat": 48.6974073, "lon": -116.3107855}, {"type": "node", "id": 3889611816, "lat": 48.6974314, "lon": -116.3107535}, {"type": "node", "id": 3889611819, "lat": 48.6974375, "lon": -116.310533}, {"type": "node", "id": 3889611820, "lat": 48.6974676, "lon": -116.3108893}, {"type": "node", "id": 3889611823, "lat": 48.6975683, "lon": -116.310755}, {"type": "node", "id": 3889758869, "lat": 48.6847278, "lon": -116.3212755}, {"type": "node", "id": 3889758870, "lat": 48.6847283, "lon": -116.321595}, {"type": "node", "id": 3889758882, "lat": 48.6850428, "lon": -116.3215939}, {"type": "node", "id": 3890984023, "lat": 48.6977587, "lon": -116.3122604, "tags": {"addr:housenumber": "7232", "addr:state": "ID", "addr:street": "Main Street", "name": "Bonners Ferry City Hall", "office": "government"}}, {"type": "node", "id": 3890984024, "lat": 48.6970295, "lon": -116.3121931, "tags": {"name": "Selkirk Northern Treasures", "shop": "antiques"}}, {"type": "node", "id": 3890984026, "lat": 48.696956, "lon": -116.3116334, "tags": {"name": "Bonners Books", "shop": "books"}}, {"type": "node", "id": 3890984046, "lat": 48.6963725, "lon": -116.3121063, "tags": {"amenity": "restaurant", "cuisine": "mexican", "name": "Mi Pueblo"}}, {"type": "node", "id": 3890984047, "lat": 48.6958285, "lon": -116.3113833, "tags": {"name": "Gene's O K Tire Store", "shop": "tyres"}}, {"type": "node", "id": 3890984049, "lat": 48.696208, "lon": -116.3114857, "tags": {"name": "Hair Connection", "shop": "hairdresser"}}, {"type": "node", "id": 3890984050, "lat": 48.6961071, "lon": -116.3120069, "tags": {"name": "Marie Villelli", "office": "travel_agent"}}, {"type": "node", "id": 3890984051, "lat": 48.69614, "lon": -116.3120816, "tags": {"name": "Boundary Personal Care", "office": "company"}}, {"type": "node", "id": 3890989333, "lat": 48.697024, "lon": -116.3116621, "tags": {"name": "Woody's Gun and Pawn", "opening_hours": "Tu-Fr 09:30-17:00; Sa 10:00-15:00", "shop": "pawnbroker", "website": "http://www.woodysgnp.com/"}}, {"type": "node", "id": 3890989338, "lat": 48.6968837, "lon": -116.311551, "tags": {"name": "A Little Comfort Quilting", "opening_hours": "Mo-Fr 10:00-16:30; Sa 10:00-15:00; Su off", "phone": "+1-208-267-9200", "shop": "fabric", "website": "https://www.alittlecomfortquilting.com/"}}, {"type": "node", "id": 3890989339, "lat": 48.6968227, "lon": -116.3115612, "tags": {"name": "Bonners Ferry Herald", "office": "newspaper"}}, {"type": "node", "id": 3890989340, "lat": 48.696513, "lon": -116.3120661, "tags": {"amenity": "cafe", "name": "Soul Shine Bistro", "website": "https://www.soulshinebistro.com/"}}, {"type": "node", "id": 3890989341, "lat": 48.6965725, "lon": -116.3121155, "tags": {"name": "Gift Gallery", "shop": "gift"}}, {"type": "node", "id": 3890989342, "lat": 48.6964102, "lon": -116.3115534, "tags": {"fixme": "Confirm - may no longer exist or relocated", "name": "Groove Studio", "shop": "art"}}, {"type": "node", "id": 3890989343, "lat": 48.6964486, "lon": -116.3120785, "tags": {"name": "Wilson Law Firm", "office": "lawyer"}}, {"type": "node", "id": 3890991982, "lat": 48.6965919, "lon": -116.3116368, "tags": {"name": "Dr. Mark Baker Optometrist", "shop": "optician"}}, {"type": "node", "id": 3890992071, "lat": 48.6969063, "lon": -116.3128316, "tags": {"fax": "+1-208-267-6310", "name": "Larsons", "opening_hours": "Mo-Fr 08:30-18:00; Sa 08:30-17:00; Su 10:00-15:00", "phone": "+1-208-267-3330", "shop": "department_store", "website": "https://www.larsonsgoodclothes.com/"}}, {"type": "node", "id": 3890992072, "lat": 48.6771872, "lon": -116.3332997}, {"type": "node", "id": 3891034107, "lat": 48.6974378, "lon": -116.3106638, "tags": {"information": "office", "name": "Bonners Ferry Gateway Visitor Center", "office": "government", "tourism": "information"}}, {"type": "node", "id": 3891034108, "lat": 48.6974726, "lon": -116.3139122, "tags": {"shop": "car"}}, {"type": "node", "id": 3891043859, "lat": 48.697261, "lon": -116.3131451, "tags": {"name": "Callies Niche", "shop": "fabric"}}, {"type": "node", "id": 3893698594, "lat": 48.6759009, "lon": -116.3325808}, {"type": "node", "id": 3893698595, "lat": 48.6759116, "lon": -116.3326246}, {"type": "node", "id": 3893698596, "lat": 48.6759185, "lon": -116.332617}, {"type": "node", "id": 3893698603, "lat": 48.6759896, "lon": -116.3324822}, {"type": "node", "id": 3893698604, "lat": 48.6759955, "lon": -116.3327976}, {"type": "node", "id": 3893698605, "lat": 48.6760083, "lon": -116.3325207}, {"type": "node", "id": 3893698610, "lat": 48.6760916, "lon": -116.3324281}, {"type": "node", "id": 3893698619, "lat": 48.6761743, "lon": -116.3325986}, {"type": "node", "id": 3893698814, "lat": 48.6793412, "lon": -116.327527}, {"type": "node", "id": 3893698844, "lat": 48.6794587, "lon": -116.3277075}, {"type": "node", "id": 3893698845, "lat": 48.679501, "lon": -116.3273505}, {"type": "node", "id": 3893699448, "lat": 48.6839327, "lon": -116.3205871}, {"type": "node", "id": 3893699449, "lat": 48.6839349, "lon": -116.3204249}, {"type": "node", "id": 3893699450, "lat": 48.6839514, "lon": -116.3206181}, {"type": "node", "id": 3893699451, "lat": 48.6839519, "lon": -116.3205877}, {"type": "node", "id": 3893699459, "lat": 48.6839808, "lon": -116.3206324}, {"type": "node", "id": 3893699480, "lat": 48.6840673, "lon": -116.3206378}, {"type": "node", "id": 3893699488, "lat": 48.6840979, "lon": -116.320587}, {"type": "node", "id": 3893699489, "lat": 48.6840974, "lon": -116.3206223}, {"type": "node", "id": 3893699490, "lat": 48.684117, "lon": -116.3205876}, {"type": "node", "id": 3893699659, "lat": 48.684849, "lon": -116.3193487}, {"type": "node", "id": 3893699660, "lat": 48.6848495, "lon": -116.3191912}, {"type": "node", "id": 3893699679, "lat": 48.6850241, "lon": -116.3193501}, {"type": "node", "id": 3893699687, "lat": 48.6850727, "lon": -116.3192787}, {"type": "node", "id": 4172246695, "lat": 48.6881652, "lon": -116.3156405, "tags": {"name": "Panhandle Laundry", "shop": "laundry"}}, {"type": "node", "id": 4953884090, "lat": 48.6793805, "lon": -116.328652, "tags": {"addr:city": "Bonners Ferry", "addr:housenumber": "6536", "addr:postcode": "83805", "addr:state": "ID", "addr:street": "Main Street", "amenity": "restaurant", "name": "Two Tones", "phone": "+1-208-417-3040"}}, {"type": "node", "id": 4953884098, "lat": 48.679598, "lon": -116.3274994}, {"type": "node", "id": 4953900426, "lat": 48.6840636, "lon": -116.3218523, "tags": {"amenity": "bar", "name": "AJ's Bar & Grill"}}, {"type": "node", "id": 5919783688, "lat": 48.6973718, "lon": -116.311742, "tags": {"amenity": "restaurant", "cuisine": "american", "name": "The Rusty Moose Tavern & Grill", "opening_hours": "Mo 10:00-16:00; Tu-We 10:00-20:00; Th 10:00-20:30; Fr 10:00-21:00; Sa 11:00-21:00", "phone": "+1-208-267-1950", "website": "https://www.therustymoosetavern.com/"}}, {"type": "node", "id": 7392105582, "lat": 48.6771873, "lon": -116.3333221}, {"type": "node", "id": 7392105583, "lat": 48.6775083, "lon": -116.333332}, {"type": "node", "id": 7392105584, "lat": 48.6776329, "lon": -116.3341126}, {"type": "node", "id": 7392113685, "lat": 48.6775896, "lon": -116.3341129}, {"type": "node", "id": 7392113687, "lat": 48.6775082, "lon": -116.3332974}, {"type": "node", "id": 7392113688, "lat": 48.6771347, "lon": -116.334054}, {"type": "node", "id": 7392113689, "lat": 48.6776687, "lon": -116.3333308}, {"type": "node", "id": 7392113690, "lat": 48.6775807, "lon": -116.3340548}, {"type": "node", "id": 7392113691, "lat": 48.677671, "lon": -116.3340541}, {"type": "node", "id": 7392113692, "lat": 48.6771299, "lon": -116.334104}, {"type": "node", "id": 7392113693, "lat": 48.6769447, "lon": -116.3341053}, {"type": "node", "id": 7392113694, "lat": 48.6769422, "lon": -116.3333239}, {"type": "node", "id": 7821201083, "lat": 48.6814506, "lon": -116.3262932, "tags": {"name": "Bonners Bottom Dollar", "shop": "storage_rental"}}, {"type": "node", "id": 7821201084, "lat": 48.6813107, "lon": -116.3264662, "tags": {"name": "Bonners Bottom Dollar", "shop": "variety_store"}}, {"type": "node", "id": 7821209785, "lat": 48.6815515, "lon": -116.3261322, "tags": {"amenity": "restaurant", "name": "Compass Grille"}}, {"type": "node", "id": 7821257554, "lat": 48.6850422, "lon": -116.3212743}, {"type": "node", "id": 7827801310, "lat": 48.6964037, "lon": -116.311657, "tags": {"alt_name": "Edward Jones Investments", "amenity": "financial_advice", "brand": "Edward Jones", "brand:wikidata": "Q5343830", "name": "Edward Jones", "office": "financial_advisor", "opening_hours": "Mo-Fr 08:00-16:00", "phone": "+1-208-295-2606", "source": "Bonners Ferry Herald"}}, {"type": "node", "id": 7827891947, "lat": 48.6966897, "lon": -116.3116524, "tags": {"name": "Prime Lending", "office": "financial"}}, {"type": "node", "id": 7827954953, "lat": 48.6965082, "lon": -116.3121566, "tags": {"name": "Under the Sun", "shop": "gift"}}, {"type": "node", "id": 7828099023, "lat": 48.6968525, "lon": -116.3121499, "tags": {"name": "Pace-Kerby & Co.", "office": "estate_agent", "website": "http://pace-kerby.com/"}}, {"type": "node", "id": 7828099024, "lat": 48.6969278, "lon": -116.3121834, "tags": {"name": "Boundary Consignments", "phone": "+1-208-267-4466", "shop": "second_hand", "website": "https://boundaryconsignments.com/"}}, {"type": "node", "id": 7828099027, "lat": 48.6976077, "lon": -116.3122095, "tags": {"addr:city": "Bonners Ferry", "addr:country": "US", "addr:housenumber": "7224", "addr:state": "ID", "addr:street": "Main Street", "contact:phone": "+1-208-817-7271", "contact:website": "https://www.wellnessteabar.com/", "name": "Wellness Tea Bar", "opening_hours": "Mo-Sa 10:00-14:00", "shop": "tea"}}, {"type": "node", "id": 7961218256, "lat": 48.685073, "lon": -116.3191929}, {"type": "node", "id": 8459322959, "lat": 48.6863372, "lon": -116.3186529, "tags": {"brand": "Les Schwab Tires", "name": "JB's Tire and Automotive", "phone": "+1-208-267-2411", "shop": "tyres"}}, {"type": "node", "id": 8636967799, "lat": 48.6915562, "lon": -116.315368, "tags": {"addr:city": "Bonners Ferry", "addr:housenumber": "6530", "addr:postcode": "83805", "addr:state": "ID", "addr:street": "Washington Street", "addr:unit": "B", "name": "A Blessed Beginning Pregnacy Center", "office": "company"}}, {"type": "node", "id": 8636970027, "lat": 48.6841192, "lon": -116.3204308}, {"type": "node", "id": 9178428196, "lat": 48.6765307, "lon": -116.3328787, "tags": {"amenity": "cafe", "cuisine": "coffee_shop", "name": "Mojo's Coffee"}}, {"type": "node", "id": 9181385537, "lat": 48.6942088, "lon": -116.317852, "tags": {"name": "Union Pacific Bonners Ferry Office", "office": "yes"}}, {"type": "node", "id": 9395308934, "lat": 48.6794176, "lon": -116.3274127}, {"type": "node", "id": 9395308935, "lat": 48.6794382, "lon": -116.3274443}, {"type": "node", "id": 12536017560, "lat": 48.6889811, "lon": -116.3177642, "tags": {"addr:city": "Bonners Ferry", "addr:housenumber": "6549", "addr:postcode": "83805", "addr:state": "ID", "addr:street": "Van Buren Street", "contact:facebook": "https://www.facebook.com/westwoodforestry/", "description": "West Wood, LLC is a landscaping company based in Bonners Ferry, ID offering a comprehensive range of services to enhance and maintain outdoor spaces. Their offerings include land clearing, forestry mulching, excavation, and other landscaping solutions.", "email": "casey@westwoodllc.biz", "name": "West Wood LLC", "opening_hours": "Mon To Fri : 08.00am - 04.00pm", "phone": "+1 208-946-1371", "shop": "garden_centre", "website": "https://www.westwoodllc.biz/"}}, {"type": "way", "id": 131635219, "nodes": [1448528535, 1448528540, 1448528541, 1448528555, 1448528557, 1448528533, 1448528545, 1448528549, 1448528539, 1448528554, 1448528535], "tags": {"addr:city": "Bonners Ferry", "addr:housenumber": "6519", "addr:postcode": "83805", "addr:state": "ID", "addr:street": "South Main Street", "brand": "Safeway", "brand:wikidata": "Q1508234", "building": "retail", "designation": "Safeway 2954", "name": "Safeway", "opening_hours": "Mo-Fr 06:00-23:00; Sa-Su 06:00-23:00", "phone": "+1 208-267-1650", "shop": "supermarket", "shop:ref:num": "2954", "website": "https://local.safeway.com/safeway/id/bonners-ferry/6519-s-main-st.html", "wheelchair": "yes"}}, {"type": "way", "id": 293245440, "nodes": [2968198782, 2968198784, 2968198769, 2968198766, 2968198782], "tags": {"addr:city": "Bonners Ferry", "addr:housenumber": "6438", "addr:postcode": "83805", "addr:state": "ID", "addr:street": "Kootenai Street", "building": "yes", "office": "government"}}, {"type": "way", "id": 385624281, "nodes": [3889611816, 3889611813, 3889611820, 3889611823, 3889611819, 3889611810, 3889611816], "tags": {"addr:city": "Bonners Ferry", "addr:housenumber": "6373", "addr:postcode": "83805", "addr:state": "ID", "addr:street": "Bonner Street", "building": "yes", "office": "government"}}, {"type": "way", "id": 385640565, "nodes": [7821257554, 3889758869, 3889758870, 3889758882, 7821257554], "tags": {"addr:city": "Bonners Ferry", "addr:housenumber": "6647", "addr:postcode": "83805", "addr:state": "ID", "addr:street": "Lincoln Street", "building": "commercial", "name": "SCAA Thrift Store", "opening_hours": "Mo-Sa 10:00-17:00", "phone": "+1-208-267-2815", "second_hand": "yes", "shop": "variety_store", "website": "https://secondchanceanimaladoption.com/thrift.htm"}}, {"type": "way", "id": 386027476, "nodes": [8636970027, 3893699449, 3893699448, 3893699451, 3893699450, 3893699459, 3893699480, 3893699489, 3893699488, 3893699490, 8636970027], "tags": {"addr:city": "Bonners Ferry", "addr:housenumber": "6723", "addr:postcode": "83805", "addr:state": "ID", "addr:street": "Main Street", "building": "yes", "name": "Zip Trip", "shop": "convenience"}}, {"type": "way", "id": 386027580, "nodes": [4953884098, 3893698845, 9395308935, 9395308934, 3893698814, 3893698844, 4953884098], "tags": {"amenity": "restaurant", "building": "yes", "name": "The Badger's Den"}}, {"type": "way", "id": 386027790, "nodes": [7961218256, 3893699660, 3893699659, 3893699679, 3893699687, 7961218256], "tags": {"addr:city": "Bonners Ferry", "addr:housenumber": "6759", "addr:postcode": "83805", "addr:state": "ID", "addr:street": "South Main Street;Main Street", "building": "yes", "name": "Idaho State Liquor Store", "shop": "alcohol"}}, {"type": "way", "id": 386027849, "nodes": [3893698619, 3893698610, 3893698605, 3893698603, 3893698594, 3893698596, 3893698595, 3893698604, 3893698619], "tags": {"amenity": "restaurant", "building": "commercial", "name": "Chic-N-Chop"}}, {"type": "way", "id": 790712404, "nodes": [7392113691, 7392113689, 7392105583, 7392113687, 3890992072, 7392105582, 7392113694, 7392113693, 7392113692, 7392113688, 7392113690, 7392113685, 7392105584, 7392113691], "tags": {"building": "yes", "name": "Super 1 Foods", "shop": "supermarket", "source": "bing"}}]}