{"version": 0.6, "generator": "Overpass API 0.7.62.8 e802775f", "osm3s": {"timestamp_osm_base": "2025-12-06T20:01:16Z", "copyright": "The data included in this document is from www.openstreetmap.org. The data is made available under ODbL."}, "elements": [{"type": "node", "id": 3559920787, "lat": 47.3578544, "lon": -122.0531171}, {"type": "node", "id": 3559920788, "lat": 47.35755, "lon": -122.0541288}, {"type": "node", "id": 3559920789, "lat": 47.358946, "lon": -122.064484}, {"type": "node", "id": 3682800898, "lat": 47.3581344, "lon": -122.0439422}, {"type": "node", "id": 3682800899, "lat": 47.3584453, "lon": -122.0441614}, {"type": "node", "id": 3682800903, "lat": 47.3575805, "lon": -122.05429}, {"type": "node", "id": 4318155626, "lat": 47.3578958, "lon": -122.0350588}, {"type": "node", "id": 4370012883, "lat": 47.355842, "lon": -122.0515616}, {"type": "node", "id": 4370012888, "lat": 47.3558538, "lon": -122.0514677}, {"type": "node", "id": 4370013019, "lat": 47.3560201, "lon": -122.0510016}, {"type": "node", "id": 4370013028, "lat": 47.3561862, "lon": -122.051819}, {"type": "node", "id": 4370013029, "lat": 47.3561865, "lon": -122.0510017}, {"type": "node", "id": 4370013030, "lat": 47.3562013, "lon": -122.0523361}, {"type": "node", "id": 4370013031, "lat": 47.3561991, "lon": -122.0518184}, {"type": "node", "id": 4461362448, "lat": 47.3577308, "lon": -122.0554323, "tags": {"addr:city": "Maple Valley", "addr:door": "5", "addr:housenumber": "27203", "addr:postcode": "98038", "addr:state": "WA", "addr:street": "216th Avenue Southeast", "check_date": "2025-08-08", "name": "Thrive Wellness Clinic", "office": "estate_agent"}}, {"type": "node", "id": 4461362458, "lat": 47.3577327, "lon": -122.0549991, "tags": {"addr:city": "Maple Valley", "addr:door": "2", "addr:housenumber": "27203", "addr:postcode": "98038", "addr:state": "WA", "addr:street": "216th Avenue Southeast", "alt_name": "Edward Jones Investments", "brand": "Edward Jones", "brand:wikidata": "Q5343830", "check_date": "2025-08-08", "name": "Edward Jones Investments - Jon Roelofs", "office": "financial_advisor", "phone": "+1-425-413-5156"}}, {"type": "node", "id": 4461362463, "lat": 47.3577221, "lon": -122.0561596, "tags": {"addr:city": "Maple Valley", "addr:door": "11", "addr:housenumber": "27203", "addr:postcode": "98038", "addr:state": "WA", "addr:street": "216th Avenue Southeast", "beauty": "tanning", "check_date": "2025-08-08", "name": "Lustre Infrared Sauna Studio", "shop": "beauty"}}, {"type": "node", "id": 4461362467, "lat": 47.3585054, "lon": -122.0447748, "tags": {"check_date": "2025-02-15", "name": "Glo Skin Clinic", "shop": "beauty"}}, {"type": "node", "id": 4461362477, "lat": 47.3577216, "lon": -122.0559276, "tags": {"addr:city": "Maple Valley", "addr:door": "9", "addr:housenumber": "27203", "addr:postcode": "98038", "addr:state": "WA", "addr:street": "216th Avenue Southeast", "check_date": "2025-08-08", "name": "Hana & Co. Hair Salon", "opening_hours": "Mo-Fr 09:30-19:00; Sa 09:00-18:00; Su off", "phone": "+1-425-413-0387", "shop": "hairdresser"}}, {"type": "node", "id": 4461362484, "lat": 47.3577163, "lon": -122.0549093, "tags": {"addr:city": "Maple Valley", "addr:door": "1", "addr:housenumber": "27203", "addr:postcode": "98038", "addr:state": "WA", "addr:street": "216th Avenue Southeast", "amenity": "doctors", "check_date": "2025-08-08", "healthcare": "alternative", "healthcare:speciality": "chiropractic", "name": "Pearson Chiropractic & Rehabilitation Center", "opening_hours": "Mo,We,Fr 08:30-18:15; Tu,Th 14:00-18:15; Sa-Su off", "payment:cash": "yes", "payment:credit_cards": "yes", "payment:debit_cards": "yes", "phone": "+1-253-638-2424"}}, {"type": "node", "id": 4461363899, "lat": 47.3570449, "lon": -122.0550568, "tags": {"addr:city": "Maple Valley", "addr:door": "A", "addr:housenumber": "27203", "addr:postcode": "98038", "addr:state": "WA", "addr:street": "216th Avenue Southeast", "check_date": "2025-08-08", "name": "MD Cote", "opening_hours": "Mo-Tu 09:30-17:00; We-Th 09:30-18:00; Fr 09:30-16:00; Sa-Su off", "phone": "+1-425-413-1418", "shop": "beauty"}}, {"type": "node", "id": 4461363922, "lat": 47.3572848, "lon": -122.0548835}, {"type": "node", "id": 4461363940, "lat": 47.357729, "lon": -122.0552821, "tags": {"addr:city": "Maple Valley", "addr:door": "4", "addr:housenumber": "27203", "addr:postcode": "98038", "addr:state": "WA", "addr:street": "216th Avenue Southeast", "addr:unit": "4", "amenity": "fast_food", "brand": "Subway", "brand:wikidata": "Q244457", "check_date": "2025-08-08", "cuisine": "sandwich", "name": "Subway", "opening_hours": "09:00-22:00", "payment:cash": "yes", "payment:credit_cards": "yes", "payment:debit_cards": "yes", "phone": "+1-425-413-0170", "takeaway": "yes", "website": "https://restaurants.subway.com/united-states/wa/maple-valley/27203-216th-avenue-se"}}, {"type": "node", "id": 4461363953, "lat": 47.357104, "lon": -122.0558722, "tags": {"addr:city": "Maple Valley", "addr:door": "D", "addr:housenumber": "27203", "addr:postcode": "98038", "addr:state": "WA", "addr:street": "216th Avenue Southeast", "amenity": "clinic", "check_date": "2025-08-08", "healthcare": "clinic", "name": "Valley Medical Center - Lake Sawyer Clinic", "opening_hours": "Mo-Fr 08:00-20:00; Sa 08:00-16:00; Su off"}}, {"type": "node", "id": 4461364332, "lat": 47.356234, "lon": -122.0350663}, {"type": "node", "id": 4461364340, "lat": 47.3571113, "lon": -122.055329, "tags": {"addr:city": "Maple Valley", "addr:door": "B", "addr:housenumber": "27203", "addr:postcode": "98038", "addr:state": "WA", "addr:street": "216th Avenue Southeast", "amenity": "dentist", "check_date": "2025-08-08", "healthcare": "dentist", "name": "Doctor Jolley Family Dentistry", "name:en": "Doctor Jollee Family Dentistry", "opening_hours": "Mo 08:00-18:00; Tu-Th 07:00-17:00; Fr 07:00-13:00", "phone": "+1-425-432-1232"}}, {"type": "node", "id": 4461364383, "lat": 47.3585035, "lon": -122.0446844, "tags": {"check_date": "2025-02-15", "name": "Bliss Salon", "shop": "hairdresser"}}, {"type": "node", "id": 4462154223, "lat": 47.3563382, "lon": -122.0533292}, {"type": "node", "id": 4462266881, "lat": 47.3582036, "lon": -122.0270074}, {"type": "node", "id": 4462266883, "lat": 47.3580588, "lon": -122.0321082}, {"type": "node", "id": 4462314395, "lat": 47.3578773, "lon": -122.0589957}, {"type": "node", "id": 4462314396, "lat": 47.3562075, "lon": -122.0590157}, {"type": "node", "id": 4462314400, "lat": 47.3556283, "lon": -122.053839}, {"type": "node", "id": 4462314401, "lat": 47.3556371, "lon": -122.055311}, {"type": "node", "id": 4462314402, "lat": 47.3561931, "lon": -122.0553241}, {"type": "node", "id": 4462314406, "lat": 47.3562193, "lon": -122.0603347}, {"type": "node", "id": 4464321401, "lat": 47.3476116, "lon": -122.0327921, "tags": {"amenity": "bench"}}, {"type": "node", "id": 4464321496, "lat": 47.3495865, "lon": -122.0430221, "tags": {"amenity": "bench"}}, {"type": "node", "id": 4464321514, "lat": 47.349671, "lon": -122.0431354}, {"type": "node", "id": 4464321518, "lat": 47.3496905, "lon": -122.0431123}, {"type": "node", "id": 4464321519, "lat": 47.3496956, "lon": -122.0431803}, {"type": "node", "id": 4464321521, "lat": 47.3497084, "lon": -122.043091}, {"type": "node", "id": 4464321523, "lat": 47.3497193, "lon": -122.0431109}, {"type": "node", "id": 4464321524, "lat": 47.3497329, "lon": -122.0431359}, {"type": "node", "id": 4464343443, "lat": 47.3503089, "lon": -122.0558692}, {"type": "node", "id": 4464343447, "lat": 47.3503505, "lon": -122.055892}, {"type": "node", "id": 4464343449, "lat": 47.3503593, "lon": -122.0556687}, {"type": "node", "id": 4464343451, "lat": 47.3504009, "lon": -122.0556915}, {"type": "node", "id": 4496333146, "lat": 47.3493866, "lon": -122.0403962, "tags": {"amenity": "bench"}}, {"type": "node", "id": 4498973722, "lat": 47.3440976, "lon": -122.0392278, "tags": {"amenity": "bench"}}, {"type": "node", "id": 4498973738, "lat": 47.3442552, "lon": -122.039217, "tags": {"amenity": "bench"}}, {"type": "node", "id": 4498975084, "lat": 47.3557489, "lon": -122.0505254, "tags": {"amenity": "fountain"}}, {"type": "node", "id": 4498991528, "lat": 47.3575746, "lon": -122.0529731}, {"type": "node", "id": 4498991529, "lat": 47.3575755, "lon": -122.0534586}, {"type": "node", "id": 4498991530, "lat": 47.3575918, "lon": -122.0534586}, {"type": "node", "id": 4498991531, "lat": 47.3575918, "lon": -122.053531}, {"type": "node", "id": 4498991532, "lat": 47.357699, "lon": -122.0530965}, {"type": "node", "id": 4498991533, "lat": 47.3577199, "lon": -122.053189}, {"type": "node", "id": 4498991534, "lat": 47.357729, "lon": -122.0529717}, {"type": "node", "id": 4498991535, "lat": 47.357739, "lon": -122.0531287}, {"type": "node", "id": 4498991536, "lat": 47.3578053, "lon": -122.053531}, {"type": "node", "id": 4498991537, "lat": 47.3578208, "lon": -122.0532762}, {"type": "node", "id": 4498991538, "lat": 47.3578344, "lon": -122.053527}, {"type": "node", "id": 4498991540, "lat": 47.357868, "lon": -122.0535042}, {"type": "node", "id": 4498991541, "lat": 47.3578826, "lon": -122.0533084}, {"type": "node", "id": 4498998786, "lat": 47.3550544, "lon": -122.0623333, "tags": {"amenity": "bench"}}, {"type": "node", "id": 4653139993, "lat": 47.3561931, "lon": -122.0538489}, {"type": "node", "id": 4653140034, "lat": 47.3579327, "lon": -122.060312}, {"type": "node", "id": 4653140035, "lat": 47.3579161, "lon": -122.0590009}, {"type": "node", "id": 4670658214, "lat": 47.3581533, "lon": -122.0631658}, {"type": "node", "id": 4670658215, "lat": 47.3581566, "lon": -122.065655}, {"type": "node", "id": 4670658280, "lat": 47.3589413, "lon": -122.0631597}, {"type": "node", "id": 4670658389, "lat": 47.3590665, "lon": -122.064483}, {"type": "node", "id": 4670658455, "lat": 47.3594784, "lon": -122.0644798}, {"type": "node", "id": 4670658456, "lat": 47.3594827, "lon": -122.0656675}, {"type": "node", "id": 4680454044, "lat": 47.3647598, "lon": -122.0525308, "tags": {"amenity": "bench"}}, {"type": "node", "id": 4680454046, "lat": 47.3648572, "lon": -122.0526197, "tags": {"amenity": "bench"}}, {"type": "node", "id": 4714590498, "lat": 47.3578395, "lon": -122.0490822}, {"type": "node", "id": 4714590516, "lat": 47.3582256, "lon": -122.0632323}, {"type": "node", "id": 4714590517, "lat": 47.3582317, "lon": -122.0641896}, {"type": "node", "id": 4714590518, "lat": 47.3584522, "lon": -122.0641865}, {"type": "node", "id": 4714590519, "lat": 47.358454, "lon": -122.0644733}, {"type": "node", "id": 4714590520, "lat": 47.3585804, "lon": -122.0632274}, {"type": "node", "id": 4714590521, "lat": 47.3585884, "lon": -122.0644714}, {"type": "node", "id": 4719470890, "lat": 47.3600479, "lon": -122.0375443, "tags": {"amenity": "bench", "armrest": "no", "backrest": "yes", "material": "steel"}}, {"type": "node", "id": 4721487723, "lat": 47.358313, "lon": -122.0439357, "tags": {"amenity": "compressed_air", "name": "Air"}}, {"type": "node", "id": 4721487724, "lat": 47.3584697, "lon": -122.0451406, "tags": {"addr:city": "Maple Valley", "addr:housenumber": "22210", "addr:postcode": "98038", "addr:state": "WA", "addr:street": "Southeast 272nd Street", "amenity": "doctors", "healthcare": "doctor", "name": "Maple Valley Counseling Associates"}}, {"type": "node", "id": 4758848234, "lat": 47.3571194, "lon": -122.0540789}, {"type": "node", "id": 4775148892, "lat": 47.3567996, "lon": -122.0270521}, {"type": "node", "id": 4783421823, "lat": 47.3584403, "lon": -122.0437527, "tags": {"amenity": "fast_food", "check_date": "2025-08-08", "cuisine": "mexican", "name": "Taqueria De 5 De Mayo"}}, {"type": "node", "id": 4797013925, "lat": 47.3599293, "lon": -122.0375592, "tags": {"amenity": "waste_basket"}}, {"type": "node", "id": 4927801177, "lat": 47.3578786, "lon": -122.0217777}, {"type": "node", "id": 4949570865, "lat": 47.3578461, "lon": -122.0350399}, {"type": "node", "id": 4949570866, "lat": 47.3555312, "lon": -122.0350707}, {"type": "node", "id": 4949570867, "lat": 47.3555295, "lon": -122.034789}, {"type": "node", "id": 4949570868, "lat": 47.3578444, "lon": -122.0347582}, {"type": "node", "id": 4949570869, "lat": 47.3558293, "lon": -122.030586}, {"type": "node", "id": 4949570870, "lat": 47.3558911, "lon": -122.0303392}, {"type": "node", "id": 4949570871, "lat": 47.3559665, "lon": -122.0300691}, {"type": "node", "id": 4949570873, "lat": 47.3563679, "lon": -122.030225}, {"type": "node", "id": 4949570874, "lat": 47.3563913, "lon": -122.0301595}, {"type": "node", "id": 4949570875, "lat": 47.3565094, "lon": -122.0302568}, {"type": "node", "id": 4949570876, "lat": 47.3565326, "lon": -122.0301995}, {"type": "node", "id": 4949570880, "lat": 47.3567169, "lon": -122.0303293}, {"type": "node", "id": 4949570881, "lat": 47.3566047, "lon": -122.0306671}, {"type": "node", "id": 4949570882, "lat": 47.3565495, "lon": -122.0309024}, {"type": "node", "id": 4949570884, "lat": 47.3565148, "lon": -122.0311626}, {"type": "node", "id": 4949570885, "lat": 47.3557869, "lon": -122.030885}, {"type": "node", "id": 4949570886, "lat": 47.3556089, "lon": -122.0323391}, {"type": "node", "id": 4949570887, "lat": 47.3556719, "lon": -122.0323559}, {"type": "node", "id": 4949570888, "lat": 47.3556668, "lon": -122.0323979}, {"type": "node", "id": 4949570889, "lat": 47.355793, "lon": -122.0324315}, {"type": "node", "id": 4949570890, "lat": 47.3558128, "lon": -122.0322697}, {"type": "node", "id": 4949570891, "lat": 47.3558456, "lon": -122.0322784}, {"type": "node", "id": 4949570892, "lat": 47.3558561, "lon": -122.0321926}, {"type": "node", "id": 4949570893, "lat": 47.3559775, "lon": -122.032225}, {"type": "node", "id": 4949570894, "lat": 47.3560071, "lon": -122.0319832}, {"type": "node", "id": 4949570895, "lat": 47.3560891, "lon": -122.032005}, {"type": "node", "id": 4949570896, "lat": 47.3560973, "lon": -122.0319383}, {"type": "node", "id": 4949570897, "lat": 47.3562065, "lon": -122.0319674}, {"type": "node", "id": 4949570898, "lat": 47.3562103, "lon": -122.0319367}, {"type": "node", "id": 4949570899, "lat": 47.3563657, "lon": -122.0319781}, {"type": "node", "id": 4949572566, "lat": 47.3554637, "lon": -122.035063}, {"type": "node", "id": 4949572567, "lat": 47.3555307, "lon": -122.0333242}, {"type": "node", "id": 4949572568, "lat": 47.3557494, "lon": -122.0308113}, {"type": "node", "id": 4949572569, "lat": 47.3558293, "lon": -122.0303661}, {"type": "node", "id": 4949572570, "lat": 47.3561201, "lon": -122.0295453}, {"type": "node", "id": 4949572571, "lat": 47.3562618, "lon": -122.0295399}, {"type": "node", "id": 4949572572, "lat": 47.3566652, "lon": -122.0287541}, {"type": "node", "id": 4949572574, "lat": 47.3578905, "lon": -122.0217232}, {"type": "node", "id": 4949572575, "lat": 47.3581129, "lon": -122.0218094}, {"type": "node", "id": 4949572577, "lat": 47.3580188, "lon": -122.0323201}, {"type": "node", "id": 4949572578, "lat": 47.357968, "lon": -122.0323281}, {"type": "node", "id": 5083066265, "lat": 47.3555161, "lon": -122.0336698}, {"type": "node", "id": 5111189421, "lat": 47.3481082, "lon": -122.0438995, "tags": {"amenity": "bench"}}, {"type": "node", "id": 5111189521, "lat": 47.3480983, "lon": -122.0438792, "tags": {"amenity": "vending_machine", "vending": "excrement_bags"}}, {"type": "node", "id": 5118731523, "lat": 47.3592137, "lon": -122.0437064, "tags": {"amenity": "vending_machine", "vending": "excrement_bags"}}, {"type": "node", "id": 5118731524, "lat": 47.3592003, "lon": -122.0437077, "tags": {"amenity": "bench"}}, {"type": "node", "id": 5134195621, "lat": 47.3451428, "lon": -122.0378914, "tags": {"amenity": "waste_basket"}}, {"type": "node", "id": 5134215821, "lat": 47.3573684, "lon": -122.0543218, "tags": {"amenity": "atm", "brand": "Allpoint", "brand:wikidata": "Q4733264", "check_date": "2025-08-08"}}, {"type": "node", "id": 5339779221, "lat": 47.3502043, "lon": -122.0557303, "tags": {"amenity": "waste_basket"}}, {"type": "node", "id": 5339779321, "lat": 47.3501299, "lon": -122.0553955, "tags": {"amenity": "bench"}}, {"type": "node", "id": 5339779322, "lat": 47.350069, "lon": -122.0556332, "tags": {"amenity": "bench"}}, {"type": "node", "id": 5366751521, "lat": 47.358218, "lon": -122.0638535, "tags": {"amenity": "public_bookcase", "brand": "Little Free Library", "brand:wikidata": "Q6650101", "name": "Little Free Library"}}, {"type": "node", "id": 5369249228, "lat": 47.3641798, "lon": -122.039727, "tags": {"amenity": "bench"}}, {"type": "node", "id": 5369249229, "lat": 47.3642325, "lon": -122.0400944, "tags": {"amenity": "bench"}}, {"type": "node", "id": 5412562821, "lat": 47.3584484, "lon": -122.0444923, "tags": {"addr:city": "Maple Valley", "addr:housenumber": "22224", "addr:postcode": "98038", "addr:state": "WA", "addr:street": "Southeast 272nd Street", "amenity": "doctors", "healthcare": "doctor", "name": "SpinaCare"}}, {"type": "node", "id": 5418631947, "lat": 47.3583163, "lon": -122.0439057}, {"type": "node", "id": 5418631948, "lat": 47.3583157, "lon": -122.0441607}, {"type": "node", "id": 5418631949, "lat": 47.3584459, "lon": -122.0439064}, {"type": "node", "id": 5418632336, "lat": 47.3582011, "lon": -122.044042}, {"type": "node", "id": 5418632337, "lat": 47.3582013, "lon": -122.0439424}, {"type": "node", "id": 5418632338, "lat": 47.3581342, "lon": -122.0440418}, {"type": "node", "id": 5419068323, "lat": 47.3494084, "lon": -122.040308, "tags": {"amenity": "bench"}}, {"type": "node", "id": 5420444894, "lat": 47.3573785, "lon": -122.0549092}, {"type": "node", "id": 5420444899, "lat": 47.357473, "lon": -122.0548337}, {"type": "node", "id": 5420445081, "lat": 47.3570885, "lon": -122.0540792}, {"type": "node", "id": 5420445082, "lat": 47.3570903, "lon": -122.0544943}, {"type": "node", "id": 5420445087, "lat": 47.3570573, "lon": -122.0544105}, {"type": "node", "id": 5420445088, "lat": 47.357034, "lon": -122.0544108}, {"type": "node", "id": 5420445089, "lat": 47.3570326, "lon": -122.0540797}, {"type": "node", "id": 5420445090, "lat": 47.3570577, "lon": -122.0544946}, {"type": "node", "id": 5420445091, "lat": 47.3571212, "lon": -122.054494}, {"type": "node", "id": 5420445092, "lat": 47.3573389, "lon": -122.0544686}, {"type": "node", "id": 5420445093, "lat": 47.3573379, "lon": -122.0542212}, {"type": "node", "id": 5420445094, "lat": 47.3575373, "lon": -122.0542193}, {"type": "node", "id": 5420445095, "lat": 47.3575813, "lon": -122.0544664}, {"type": "node", "id": 5420445327, "lat": 47.3574777, "lon": -122.0547964}, {"type": "node", "id": 5420445329, "lat": 47.3574606, "lon": -122.0549318}, {"type": "node", "id": 5420445333, "lat": 47.3573019, "lon": -122.0547481}, {"type": "node", "id": 5420445843, "lat": 47.3576808, "lon": -122.0539366}, {"type": "node", "id": 5420445844, "lat": 47.3577707, "lon": -122.0540699}, {"type": "node", "id": 5420445846, "lat": 47.3576399, "lon": -122.0542621}, {"type": "node", "id": 5420504951, "lat": 47.3551164, "lon": -122.0504517}, {"type": "node", "id": 5420504952, "lat": 47.3552181, "lon": -122.0502969}, {"type": "node", "id": 5420504953, "lat": 47.3552547, "lon": -122.0503492}, {"type": "node", "id": 5420504954, "lat": 47.3551529, "lon": -122.0505041}, {"type": "node", "id": 5420506471, "lat": 47.3578402, "lon": -122.0492643}, {"type": "node", "id": 5420506472, "lat": 47.3575734, "lon": -122.0492668}, {"type": "node", "id": 5420506473, "lat": 47.3575726, "lon": -122.0490847}, {"type": "node", "id": 5420506668, "lat": 47.3579159, "lon": -122.0531656}, {"type": "node", "id": 5420506669, "lat": 47.3578708, "lon": -122.0532904}, {"type": "node", "id": 5420506670, "lat": 47.3577355, "lon": -122.0531838}, {"type": "node", "id": 5420506671, "lat": 47.3577567, "lon": -122.0531251}, {"type": "node", "id": 5420506672, "lat": 47.3577327, "lon": -122.0531062}, {"type": "node", "id": 5420506673, "lat": 47.3577499, "lon": -122.0530585}, {"type": "node", "id": 5420506674, "lat": 47.357778, "lon": -122.0530807}, {"type": "node", "id": 5420506675, "lat": 47.3578092, "lon": -122.0529945}, {"type": "node", "id": 5420506676, "lat": 47.3578789, "lon": -122.0530494}, {"type": "node", "id": 5420506833, "lat": 47.3564539, "lon": -122.0533592}, {"type": "node", "id": 5420506834, "lat": 47.3563383, "lon": -122.0533602}, {"type": "node", "id": 5420506835, "lat": 47.3562708, "lon": -122.0533302}, {"type": "node", "id": 5420506836, "lat": 47.35627, "lon": -122.0531282}, {"type": "node", "id": 5420506837, "lat": 47.3563338, "lon": -122.0531282}, {"type": "node", "id": 5420506838, "lat": 47.3563336, "lon": -122.0530802}, {"type": "node", "id": 5420506839, "lat": 47.3563706, "lon": -122.0530802}, {"type": "node", "id": 5420506840, "lat": 47.3563708, "lon": -122.0531272}, {"type": "node", "id": 5420506841, "lat": 47.356453, "lon": -122.0531262}, {"type": "node", "id": 5468006141, "lat": 47.3566525, "lon": -122.0302929}, {"type": "node", "id": 5543838824, "lat": 47.347759, "lon": -122.0331029, "tags": {"amenity": "waste_basket"}}, {"type": "node", "id": 5727084425, "lat": 47.3590495, "lon": -122.0656634}, {"type": "node", "id": 6428439186, "lat": 47.3588953, "lon": -122.0361783, "tags": {"amenity": "bench"}}, {"type": "node", "id": 6428439187, "lat": 47.3588928, "lon": -122.036139, "tags": {"amenity": "waste_basket"}}, {"type": "node", "id": 6428439188, "lat": 47.3589353, "lon": -122.0356755, "tags": {"amenity": "waste_basket"}}, {"type": "node", "id": 6428439189, "lat": 47.3589346, "lon": -122.0356407, "tags": {"amenity": "bench"}}, {"type": "node", "id": 6444192830, "lat": 47.3536991, "lon": -122.0378135}, {"type": "node", "id": 6444192831, "lat": 47.3537518, "lon": -122.0378125}, {"type": "node", "id": 6444192832, "lat": 47.3537554, "lon": -122.0381305}, {"type": "node", "id": 6444192833, "lat": 47.3537027, "lon": -122.0381315}, {"type": "node", "id": 6608997388, "lat": 47.3578426, "lon": -122.0222819}, {"type": "node", "id": 6608997389, "lat": 47.3578244, "lon": -122.0224012}, {"type": "node", "id": 6608997390, "lat": 47.3577635, "lon": -122.0224777}, {"type": "node", "id": 6608997391, "lat": 47.3576909, "lon": -122.0225059}, {"type": "node", "id": 6608997392, "lat": 47.3576936, "lon": -122.0227674}, {"type": "node", "id": 6608997393, "lat": 47.3577417, "lon": -122.0227687}, {"type": "node", "id": 6608997394, "lat": 47.357809, "lon": -122.0228009}, {"type": "node", "id": 6608997650, "lat": 47.3568234, "lon": -122.0269356}, {"type": "node", "id": 6608997663, "lat": 47.3578535, "lon": -122.022015}, {"type": "node", "id": 6608997664, "lat": 47.3578153, "lon": -122.0243311}, {"type": "node", "id": 6608997665, "lat": 47.3573521, "lon": -122.0243534}, {"type": "node", "id": 6611236852, "lat": 47.34912, "lon": -122.0530938}, {"type": "node", "id": 6611236853, "lat": 47.3490729, "lon": -122.0530963}, {"type": "node", "id": 6611236854, "lat": 47.3490782, "lon": -122.0533099}, {"type": "node", "id": 6611236855, "lat": 47.3491253, "lon": -122.0533074}, {"type": "node", "id": 6748978386, "lat": 47.3496489, "lon": -122.0429225, "tags": {"amenity": "waste_basket"}}, {"type": "node", "id": 6748978486, "lat": 47.3497042, "lon": -122.0431735, "tags": {"amenity": "waste_basket"}}, {"type": "node", "id": 6748978487, "lat": 47.3496283, "lon": -122.0430935, "tags": {"amenity": "bench"}}, {"type": "node", "id": 6944187272, "lat": 47.3581469, "lon": -122.0237569}, {"type": "node", "id": 6944187273, "lat": 47.3581299, "lon": -122.0227832}, {"type": "node", "id": 7159774604, "lat": 47.3554872, "lon": -122.0343563}, {"type": "node", "id": 7159774633, "lat": 47.3555808, "lon": -122.0347883}, {"type": "node", "id": 8373635317, "lat": 47.3584933, "lon": -122.0449504, "tags": {"name": "Home Clean Home", "office": "company"}}, {"type": "node", "id": 9555176146, "lat": 47.3575763, "lon": -122.0542832}, {"type": "node", "id": 9555176147, "lat": 47.3575421, "lon": -122.0542271}, {"type": "node", "id": 9555176148, "lat": 47.3575479, "lon": -122.0542179}, {"type": "node", "id": 9555176149, "lat": 47.357585, "lon": -122.0542696}, {"type": "node", "id": 9555176150, "lat": 47.3571567, "lon": -122.0542545, "tags": {"amenity": "vacuum_cleaner"}}, {"type": "node", "id": 9555176155, "lat": 47.3571211, "lon": -122.0544674}, {"type": "node", "id": 9555176156, "lat": 47.3571209, "lon": -122.0544234}, {"type": "node", "id": 9555176157, "lat": 47.3571538, "lon": -122.0544231}, {"type": "node", "id": 9555176158, "lat": 47.3571539, "lon": -122.0544671}, {"type": "node", "id": 10229700475, "lat": 47.3654649, "lon": -122.0365273, "tags": {"amenity": "public_bookcase"}}, {"type": "node", "id": 10653344769, "lat": 47.3558748, "lon": -122.0522824}, {"type": "node", "id": 12230718928, "lat": 47.3574953, "lon": -122.0544418, "tags": {"amenity": "fast_food", "brand": "Krispy Krunchy Chicken", "brand:wikidata": "Q65087447", "check_date": "2025-08-08", "cuisine": "chicken", "name": "Krispy Krunchy Chicken", "takeaway": "yes"}}, {"type": "node", "id": 12242768351, "lat": 47.3600773, "lon": -122.0373944, "tags": {"amenity": "public_bookcase", "lit": "no", "public_bookcase:type": "reading_box"}}, {"type": "node", "id": 12362136148, "lat": 47.3639901, "lon": -122.0401287}, {"type": "node", "id": 12362136149, "lat": 47.3639725, "lon": -122.040082}, {"type": "node", "id": 12362136150, "lat": 47.3639995, "lon": -122.0400597}, {"type": "node", "id": 12362136151, "lat": 47.3640172, "lon": -122.0401064}, {"type": "node", "id": 12385499041, "lat": 47.3606135, "lon": -122.0346376, "tags": {"access": "private", "amenity": "letter_box"}}, {"type": "node", "id": 12385499042, "lat": 47.3606103, "lon": -122.0358725, "tags": {"access": "private", "amenity": "letter_box"}}, {"type": "node", "id": 12385499043, "lat": 47.3600265, "lon": -122.0354642, "tags": {"access": "private", "amenity": "letter_box"}}, {"type": "node", "id": 12385499045, "lat": 47.3598475, "lon": -122.0365082, "tags": {"amenity": "letter_box"}}, {"type": "node", "id": 12385499075, "lat": 47.3588404, "lon": -122.0365613, "tags": {"amenity": "bench", "armrest": "no", "backrest": "yes", "material": "steel"}}, {"type": "node", "id": 12385524510, "lat": 47.3664918, "lon": -122.0373862, "tags": {"access": "private", "amenity": "letter_box"}}, {"type": "node", "id": 12385524511, "lat": 47.3588439, "lon": -122.0365797, "tags": {"amenity": "bench", "armrest": "no", "backrest": "yes", "material": "steel"}}, {"type": "node", "id": 12385524515, "lat": 47.3648081, "lon": -122.0370751, "tags": {"access": "private", "amenity": "letter_box"}}, {"type": "node", "id": 12385524519, "lat": 47.36315, "lon": -122.0364336, "tags": {"access": "private", "amenity": "letter_box"}}, {"type": "node", "id": 12385524521, "lat": 47.3610418, "lon": -122.0389918, "tags": {"amenity": "bench", "armrest": "no", "backrest": "yes", "material": "steel"}}, {"type": "node", "id": 12385524524, "lat": 47.3603753, "lon": -122.0390095, "tags": {"amenity": "bench", "armrest": "no", "backrest": "yes", "material": "steel"}}, {"type": "node", "id": 12385524525, "lat": 47.3602753, "lon": -122.0390293, "tags": {"amenity": "waste_basket", "waste": "dog_excrement"}}, {"type": "node", "id": 12385524527, "lat": 47.3585893, "lon": -122.0377037, "tags": {"amenity": "waste_basket", "waste": "dog_excrement"}}, {"type": "node", "id": 12675347820, "lat": 47.3629917, "lon": -122.0382128, "tags": {"amenity": "letter_box"}}, {"type": "node", "id": 12675347821, "lat": 47.3629838, "lon": -122.0388516, "tags": {"amenity": "letter_box"}}, {"type": "node", "id": 12675347822, "lat": 47.3630749, "lon": -122.0389879, "tags": {"amenity": "letter_box"}}, {"type": "node", "id": 12675347825, "lat": 47.3604933, "lon": -122.0376216, "tags": {"amenity": "letter_box"}}, {"type": "node", "id": 12675347826, "lat": 47.3606874, "lon": -122.0381465, "tags": {"amenity": "letter_box"}}, {"type": "node", "id": 12743649461, "lat": 47.3638268, "lon": -122.0400486, "tags": {"amenity": "bench"}}, {"type": "node", "id": 12743649462, "lat": 47.3670757, "lon": -122.0382774, "tags": {"amenity": "bench"}}, {"type": "node", "id": 12743649463, "lat": 47.3671868, "lon": -122.0384525, "tags": {"amenity": "bench"}}, {"type": "node", "id": 12743649465, "lat": 47.3658523, "lon": -122.0398008, "tags": {"amenity": "bench"}}, {"type": "node", "id": 12743649466, "lat": 47.3658135, "lon": -122.039805, "tags": {"amenity": "bench"}}, {"type": "node", "id": 12743649467, "lat": 47.3658276, "lon": -122.0398039, "tags": {"amenity": "shelter"}}, {"type": "node", "id": 12743649469, "lat": 47.3651274, "lon": -122.0402127, "tags": {"amenity": "letter_box"}}, {"type": "node", "id": 12743649476, "lat": 47.3669185, "lon": -122.0384385, "tags": {"amenity": "letter_box"}}, {"type": "node", "id": 12743649478, "lat": 47.3638915, "lon": -122.0403489, "tags": {"amenity": "letter_box"}}, {"type": "node", "id": 12743649487, "lat": 47.3624822, "lon": -122.0420208, "tags": {"amenity": "letter_box", "colour": "yellow"}}, {"type": "node", "id": 12743649490, "lat": 47.3628351, "lon": -122.0428315, "tags": {"amenity": "letter_box", "colour": "yellow"}}, {"type": "node", "id": 12743649493, "lat": 47.3609575, "lon": -122.0432972, "tags": {"amenity": "letter_box", "colour": "yellow"}}, {"type": "node", "id": 12743649494, "lat": 47.3615289, "lon": -122.0421852, "tags": {"amenity": "letter_box"}}, {"type": "node", "id": 12743649500, "lat": 47.3615302, "lon": -122.0415553, "tags": {"amenity": "letter_box"}}, {"type": "node", "id": 12865685843, "lat": 47.3602679, "lon": -122.039039, "tags": {"amenity": "vending_machine", "bin": "yes", "check_date": "2025-05-25", "fee": "no", "vending": "excrement_bags"}}, {"type": "node", "id": 12981396733, "lat": 47.3605807, "lon": -122.0390666, "tags": {"amenity": "waste_basket", "waste": "trash"}}, {"type": "node", "id": 13058890407, "lat": 47.3577212, "lon": -122.0551455, "tags": {"addr:door": "3", "addr:housenumber": "27203", "addr:street": "216th Avenue Southeast", "beauty": "nails", "check_date": "2025-08-08", "name": "Tipsy Lagoon Nail & Spa", "opening_hours": "Mo-Fr 09:30-19:00; Sa 09:30-18:00; Su 10:00-17:00", "phone": "+1-425-433-6969", "shop": "beauty"}}, {"type": "node", "id": 13058890408, "lat": 47.357114, "lon": -122.0555876, "tags": {"amenity": "bicycle_parking"}}, {"type": "node", "id": 13109923611, "lat": 47.362327, "lon": -122.0345667, "tags": {"amenity": "letter_box"}}, {"type": "node", "id": 13109923614, "lat": 47.3623026, "lon": -122.0355723, "tags": {"amenity": "letter_box"}}, {"type": "way", "id": 439386247, "nodes": [4370013019, 4370013029, 4370013028, 4370013031, 4370013030, 10653344769, 4370012883, 4370012888, 4370013019], "tags": {"access": "private", "amenity": "parking", "name": "Vehicle Storage Area"}}, {"type": "way", "id": 449480219, "nodes": [4464321519, 4464321524, 4464321523, 4464321521, 4464321518, 4464321514, 4464321519], "tags": {"amenity": "shelter", "building": "roof"}}, {"type": "way", "id": 449482622, "nodes": [4464343443, 4464343447, 4464343451, 4464343449, 4464343443], "tags": {"amenity": "parking"}}, {"type": "way", "id": 453100233, "nodes": [4498991540, 4498991538, 4498991536, 4498991531, 4498991530, 4498991529, 4498991528, 4498991534, 4498991532, 4498991535, 4498991533, 4498991537, 4498991541, 4498991540], "tags": {"amenity": "parking"}}, {"type": "way", "id": 471150485, "nodes": [4462314400, 4653139993, 4462314402, 4462314401, 4462314400], "tags": {"amenity": "place_of_worship", "check_date": "2025-03-16", "landuse": "religious", "name": "Cedarcreek Covenant Church", "religion": "christian"}}, {"type": "way", "id": 471150509, "nodes": [4462314406, 4653140034, 4653140035, 4462314395, 4462314396, 4462314406], "tags": {"addr:housenumber": "21115", "addr:street": "Southeast 272nd Street", "amenity": "place_of_worship", "check_date": "2025-07-27", "name": "Hope Fellowship", "phone": "+1-425-432-5114", "religion": "christian", "service_times": "Su 9:00, 10:45", "website": "https://hope-fellowship.net/"}}, {"type": "way", "id": 472880301, "nodes": [4670658455, 4670658456, 5727084425, 4670658215, 4670658214, 4670658280, 3559920789, 4670658389, 4670658455], "tags": {"amenity": "place_of_worship", "check_date": "2024-01-20", "name": "Cornerstone Church", "religion": "christian"}}, {"type": "way", "id": 478215874, "nodes": [4714590521, 4714590519, 4714590518, 4714590517, 4714590516, 4714590520, 4714590521], "tags": {"access": "yes", "amenity": "parking", "capacity": "20", "fee": "no", "name": "Cornerstone United Methodist Church Park & Ride", "park_ride": "yes", "parking": "surface", "surface": "asphalt"}}, {"type": "way", "id": 504855904, "nodes": [4949570868, 7159774633, 4949570867, 4949570866, 4949570865, 4949570868], "tags": {"access": "yes", "amenity": "parking", "fee": "no", "name": "Student Parking", "park_ride": "no", "parking": "surface"}}, {"type": "way", "id": 504855905, "nodes": [4949570876, 4949570875, 4949570874, 4949570873, 4949570871, 4949570870, 4949570869, 4949570885, 4949570886, 4949570887, 4949570888, 4949570889, 4949570890, 4949570891, 4949570892, 4949570893, 4949570894, 4949570895, 4949570896, 4949570897, 4949570898, 4949570899, 4949570884, 4949570882, 4949570881, 4949570880, 5468006141, 4949570876], "tags": {"access": "yes", "amenity": "parking", "fee": "no", "name": "Student Parking", "park_ride": "no", "parking": "surface"}}, {"type": "way", "id": 504855958, "nodes": [4461364332, 4318155626, 4949572578, 4949572577, 4462266883, 4462266881, 6944187272, 6944187273, 4949572575, 4949572574, 4927801177, 6608997663, 6608997388, 6608997389, 6608997390, 6608997391, 6608997392, 6608997393, 6608997394, 6608997664, 6608997665, 6608997650, 4775148892, 4949572572, 4949572571, 4949572570, 4949572569, 4949572568, 4949572567, 5083066265, 7159774604, 4949572566, 4461364332], "tags": {"amenity": "school", "education": "school", "mascot": "Bears", "name": "Tahoma High School", "operator": "Tahoma School District", "operator:type": "public", "religion": "no", "wikidata": "Q14713920", "wikipedia": "en:Tahoma High School"}}, {"type": "way", "id": 562033278, "nodes": [5418631947, 5418631948, 3682800899, 5418631949, 5418631947], "tags": {"addr:city": "Maple Valley", "addr:housenumber": "22240", "addr:postcode": "98038", "addr:state": "WA", "addr:street": "Southeast 272nd Street", "building": "commercial", "building:levels": "1", "check_date": "2024-01-20", "name": "Valley Food Mart", "shop": "convenience"}}, {"type": "way", "id": 562033366, "nodes": [5418632336, 5418632337, 3682800898, 5418632338, 5418632336], "tags": {"amenity": "fuel", "brand": "Texaco", "brand:wikidata": "Q775060", "building": "roof", "building:levels": "1", "name": "Texaco", "self_service": "yes"}}, {"type": "way", "id": 562255627, "nodes": [4758848234, 5420445081, 5420445089, 5420445088, 5420445087, 5420445090, 5420445082, 5420445091, 9555176155, 9555176158, 9555176157, 9555176156, 4758848234], "tags": {"amenity": "car_wash", "building": "commercial", "building:levels": "1", "check_date": "2025-08-08", "name": "Chevron Car Wash"}}, {"type": "way", "id": 562255628, "nodes": [5420445094, 5420445093, 5420445092, 5420445095, 3682800903, 9555176146, 9555176149, 9555176148, 9555176147, 5420445094], "tags": {"addr:city": "Maple Valley", "addr:housenumber": "27201", "addr:postcode": "98038", "addr:state": "WA", "addr:street": "216th Avenue Southeast", "brand": "ExtraMile", "brand:wikidata": "Q64224605", "building": "commercial", "building:levels": "1", "check_date": "2025-08-08", "name": "ExtraMile", "opening_hours": "24/7", "payment:cash": "yes", "payment:credit_cards": "yes", "payment:debit_cards": "yes", "shop": "convenience"}}, {"type": "way", "id": 562255630, "nodes": [5420445843, 3559920788, 5420445846, 5420445844, 5420445843], "tags": {"amenity": "fuel", "brand": "Chevron", "brand:wikidata": "Q319642", "building": "roof", "building:levels": "1", "check_date": "2025-08-08", "layer": "1", "name": "Chevron", "opening_hours": "24/7", "operator": "Chevron", "payment:cash": "yes", "payment:credit_cards": "yes", "payment:debit_cards": "yes"}}, {"type": "way", "id": 562255908, "nodes": [5420445329, 5420444899, 5420445327, 5420445333, 4461363922, 5420444894, 5420445329], "tags": {"addr:door": "F", "amenity": "cafe", "bar": "yes", "building": "commercial", "building:levels": "1", "check_date": "2025-08-08", "cuisine": "coffee_shop", "email": "info@ristrettoscoffeeandwine.com", "name": "Ristrettos Coffee & Wine", "opening_hours": "Mo-Sa 06:00-21:00; Su 07:00-18:00", "outdoor_seating": "yes", "phone": "+1-425-433-6455", "smoking": "no", "website": "https://ristrettoscoffeeandwine.com/"}}, {"type": "way", "id": 562260408, "nodes": [5420504954, 5420504953, 5420504952, 5420504951, 5420504954], "tags": {"amenity": "parking"}}, {"type": "way", "id": 562260484, "nodes": [5420506473, 5420506472, 5420506471, 4714590498, 5420506473], "tags": {"addr:city": "Maple Valley", "addr:housenumber": "21845", "addr:postcode": "98038", "addr:state": "WA", "addr:street": "Southeast 272nd Street", "building": "commercial", "building:levels": "1", "craft": "metal_construction", "name": "AC Custom Metal Work", "shop": "hardware"}}, {"type": "way", "id": 562260507, "nodes": [3559920787, 5420506676, 5420506675, 5420506674, 5420506673, 5420506672, 5420506671, 5420506670, 5420506669, 5420506668, 3559920787], "tags": {"addr:city": "Maple Valley", "addr:housenumber": "21607", "addr:postcode": "98038", "addr:state": "WA", "addr:street": "Southeast 272nd Street", "amenity": "pub", "building": "commercial", "building:levels": "1", "name": "Pla-Mor Bar & Grill", "outdoor_seating": "yes"}}, {"type": "way", "id": 562260537, "nodes": [5420506841, 5420506840, 5420506839, 5420506838, 5420506837, 5420506836, 5420506835, 4462154223, 5420506834, 5420506833, 5420506841], "tags": {"addr:city": "Maple Valley", "addr:housenumber": "27250", "addr:postcode": "98038", "addr:state": "WA", "addr:street": "216th Avenue Southeast", "amenity": "fire_station", "building": "yes", "building:levels": "1", "check_date": "2025-03-16", "name": "Puget Sound Fire Station 83", "operator": "Puget Sound Regional Fire Authority"}}, {"type": "way", "id": 687468289, "nodes": [6444192833, 6444192832, 6444192831, 6444192830, 6444192833], "tags": {"amenity": "parking", "fee": "no", "parking": "surface"}}, {"type": "way", "id": 704096014, "nodes": [6611236855, 6611236852, 6611236853, 6611236854, 6611236855], "tags": {"amenity": "parking"}}, {"type": "way", "id": 1336529690, "nodes": [12362136148, 12362136149, 12362136150, 12362136151, 12362136148], "tags": {"amenity": "shelter", "building": "yes"}}]}