{"version": 0.6, "generator": "Overpass API 0.7.62.8 e802775f", "osm3s": {"timestamp_osm_base": "2025-12-06T08:36:01Z", "copyright": "The data included in this document is from www.openstreetmap.org. The data is made available under ODbL."}, "elements": [{"type": "node", "id": 357972583, "lat": 45.6706056, "lon": -111.1824584, "tags": {"amenity": "place_of_worship", "denomination": "baptist", "ele": "1437", "gnis:feature_id": "1743766", "name": "Four Corners Baptist Church", "religion": "christian"}}, {"type": "node", "id": 1769182715, "lat": 45.6699362, "lon": -111.1848588, "tags": {"amenity": "cafe", "cuisine": "steak;breakfast", "name": "Kountry Korner Cafe", "phone": "+1 406-586-2281"}}, {"type": "node", "id": 1769182716, "lat": 45.6705, "lon": -111.1848608, "tags": {"addr:city": "Bozeman", "addr:housenumber": "8192", "addr:postcode": "59718", "addr:state": "MT", "addr:street": "Huffine Lane", "amenity": "fast_food", "brand": "Subway", "brand:wikidata": "Q244457", "cuisine": "sandwich", "name": "Subway", "opening_hours": "Mo-Fr 07:00-21:00; Sa-Su 08:00-20:00", "phone": "+1 406-522-7174", "takeaway": "yes", "website": "https://restaurants.subway.com/united-states/mt/bozeman/8192-huffine-ln"}}, {"type": "node", "id": 1769182761, "lat": 45.6705771, "lon": -111.184707, "tags": {"name": "Thriftway", "shop": "convenience"}}, {"type": "node", "id": 1769182779, "lat": 45.6707072, "lon": -111.1865391, "tags": {"name": "Casey's Corner", "shop": "convenience"}}, {"type": "node", "id": 1769182780, "lat": 45.6707479, "lon": -111.1850717, "tags": {"amenity": "fuel", "name": "Conoco"}}, {"type": "node", "id": 1769182781, "lat": 45.6707513, "lon": -111.1861214, "tags": {"amenity": "fuel", "brand": "Exxon", "brand:wikidata": "Q109675651", "name": "Exxon", "website": "https://www.exxon.com/en/find-station/exxon-bozeman-mt-caseyscornerstore1-200310450"}}, {"type": "node", "id": 1769182804, "lat": 45.6717079, "lon": -111.1862847, "tags": {"amenity": "fuel", "name": "Cenex"}}, {"type": "node", "id": 1769182805, "lat": 45.6717504, "lon": -111.1866753, "tags": {"name": "Town Pump", "shop": "convenience"}}, {"type": "node", "id": 6988737465, "lat": 45.6718507, "lon": -111.1828626, "tags": {"addr:city": "Bozeman", "addr:housenumber": "7710", "addr:postcode": "59718", "addr:state": "MT", "addr:street": "Shedhorn Drive", "addr:unit": "#1", "amenity": "restaurant", "cuisine": "mexican;tacos;burrito", "name": "Taco del Sol"}}, {"type": "node", "id": 6988739592, "lat": 45.6718442, "lon": -111.1825571, "tags": {"addr:city": "Bozeman", "addr:housenumber": "7710", "addr:postcode": "59718", "addr:state": "MT", "addr:street": "Shedhorn Drive", "addr:unit": "Unit D", "amenity": "marketplace", "name": "El Mercadito"}}, {"type": "node", "id": 8061438063, "lat": 45.6754777, "lon": -111.1917142}, {"type": "node", "id": 8061438064, "lat": 45.6757858, "lon": -111.1916795}, {"type": "node", "id": 8061438065, "lat": 45.6760958, "lon": -111.1917596}, {"type": "node", "id": 8061438066, "lat": 45.6764449, "lon": -111.1917863}, {"type": "node", "id": 8061438067, "lat": 45.6764766, "lon": -111.1919256}, {"type": "node", "id": 8061438068, "lat": 45.6758642, "lon": -111.1921765}, {"type": "node", "id": 8061438069, "lat": 45.6756551, "lon": -111.1925292}, {"type": "node", "id": 8061438070, "lat": 45.6756477, "lon": -111.1933442}, {"type": "node", "id": 8061438071, "lat": 45.6754871, "lon": -111.1933362}, {"type": "node", "id": 8061438072, "lat": 45.6761424, "lon": -111.1920816}, {"type": "node", "id": 8061438075, "lat": 45.67584, "lon": -111.1919894}, {"type": "node", "id": 8061438076, "lat": 45.6758568, "lon": -111.1919387}, {"type": "node", "id": 8061438077, "lat": 45.6759016, "lon": -111.1919387}, {"type": "node", "id": 8061438078, "lat": 45.6759221, "lon": -111.1920135}, {"type": "node", "id": 8061438079, "lat": 45.675896, "lon": -111.1920375}, {"type": "node", "id": 8061438080, "lat": 45.6758642, "lon": -111.1920402}, {"type": "node", "id": 8519363851, "lat": 45.6715561, "lon": -111.184928, "tags": {"amenity": "bar", "name": "Korner Klub Bar"}}, {"type": "node", "id": 8519363852, "lat": 45.6714158, "lon": -111.1852213, "tags": {"amenity": "cafe", "name": "Espresso To Go"}}, {"type": "node", "id": 8519363865, "lat": 45.6715559, "lon": -111.1827957, "tags": {"amenity": "casino", "name": "Jackpot Casino West"}}, {"type": "node", "id": 8519386548, "lat": 45.6714585, "lon": -111.186679, "tags": {"amenity": "casino", "name": "Montana Lil's Casino"}}, {"type": "node", "id": 8519386578, "lat": 45.6732421, "lon": -111.1865941, "tags": {"amenity": "casino", "name": "Magic Diamond Casino & Liquor Store"}}, {"type": "node", "id": 8519386579, "lat": 45.6717348, "lon": -111.1871663, "tags": {"name": "Summit All Terrain Rentals", "shop": "rental"}}, {"type": "node", "id": 8519386595, "lat": 45.6722158, "lon": -111.1841535, "tags": {"name": "Rent For Less", "shop": "rental"}}, {"type": "node", "id": 8519386596, "lat": 45.6716604, "lon": -111.1823301, "tags": {"name": "Aether Tattoo Club", "shop": "tattoo"}}, {"type": "node", "id": 8519386597, "lat": 45.6720705, "lon": -111.1826206, "tags": {"name": "Bozeman Transmission", "shop": "car_repair"}}, {"type": "node", "id": 8519386603, "lat": 45.6732117, "lon": -111.1841446, "tags": {"amenity": "fire_station", "name": "Gallatin Gateway Fire Department"}}, {"type": "node", "id": 8519386604, "lat": 45.6734407, "lon": -111.1840341, "tags": {"name": "Greener Pastures", "shop": "cannabis"}}, {"type": "node", "id": 8519386614, "lat": 45.67325, "lon": -111.1850026, "tags": {"name": "Invisible Fence of the Big Sky", "office": "yes"}}, {"type": "node", "id": 8519386615, "lat": 45.6735596, "lon": -111.1849615, "tags": {"name": "Bozeman Dog Co.", "shop": "pet"}}, {"type": "node", "id": 8519386616, "lat": 45.6738898, "lon": -111.1852227, "tags": {"name": "Lang Automotive", "shop": "car_repair"}}, {"type": "node", "id": 8519386617, "lat": 45.6741871, "lon": -111.185117, "tags": {"name": "Bridger Analytical Lab, Inc.", "office": "yes"}}, {"type": "node", "id": 8519386618, "lat": 45.6745849, "lon": -111.1850436, "tags": {"name": "Home Interiors Outlet", "shop": "houseware"}}, {"type": "node", "id": 8519386619, "lat": 45.6745972, "lon": -111.1841427, "tags": {"name": "Hands On Inc. Screenprinting", "shop": "copyshop"}}, {"type": "node", "id": 8519386620, "lat": 45.6741543, "lon": -111.184081, "tags": {"name": "Bridger Kitchens", "shop": "houseware"}}, {"type": "node", "id": 8519386623, "lat": 45.6738652, "lon": -111.1834383, "tags": {"amenity": "place_of_worship", "name": "Compass Apostolic Church", "religion": "christian"}}, {"type": "node", "id": 8519386630, "lat": 45.6717352, "lon": -111.1877948, "tags": {"name": "Tire World", "shop": "tyres"}}, {"type": "node", "id": 8519386634, "lat": 45.6716675, "lon": -111.188751, "tags": {"addr:city": "Bozeman", "addr:housenumber": "28901", "addr:postcode": "59718", "addr:state": "MT", "addr:street": "Norris Road", "amenity": "restaurant", "cuisine": "pizza", "name": "The Buck", "phone": "+1 406-522-9555", "website": "https://thebuckbozeman.com/"}}, {"type": "node", "id": 8519386635, "lat": 45.6723155, "lon": -111.1872519, "tags": {"name": "Dark Horse Customs, LLC", "shop": "car_repair"}}, {"type": "node", "id": 8519386637, "lat": 45.6727211, "lon": -111.1888337, "tags": {"craft": "electrician", "name": "Rocky Mountain Electric, Inc."}}, {"type": "node", "id": 8519386816, "lat": 45.6704297, "lon": -111.186504, "tags": {"name": "Mama Mac's", "shop": "bakery"}}, {"type": "node", "id": 8519386817, "lat": 45.6705558, "lon": -111.1875823, "tags": {"amenity": "car_wash", "name": "Carriage House"}}, {"type": "node", "id": 8519386818, "lat": 45.6701318, "lon": -111.186127, "tags": {"name": "Yellow Dog Flyfishing", "shop": "fishing"}}, {"type": "node", "id": 8519386819, "lat": 45.6701097, "lon": -111.1865626, "tags": {"name": "Ceramica Stone Tile and Design", "shop": "flooring"}}, {"type": "node", "id": 8519386820, "lat": 45.6701113, "lon": -111.1870003, "tags": {"name": "Montana Expressions", "shop": "furniture"}}, {"type": "node", "id": 8519386934, "lat": 45.6706889, "lon": -111.1890156, "tags": {"name": "Summit Motor Sports", "shop": "outdoor"}}, {"type": "node", "id": 8519386965, "lat": 45.669264, "lon": -111.1896225, "tags": {"name": "Hair By Annie", "shop": "hairdresser"}}, {"type": "node", "id": 8519386966, "lat": 45.6693197, "lon": -111.1899017, "tags": {"craft": "electronics_repair", "name": "Jonny's Appliance Repair"}}, {"type": "node", "id": 8519414965, "lat": 45.67321, "lon": -111.1889268, "tags": {"amenity": "animal_boarding", "name": "Bark City Doggy Daycare"}}, {"type": "node", "id": 8519414966, "lat": 45.6732253, "lon": -111.1897416, "tags": {"name": "Montana Opticom", "office": "telecommunication"}}, {"type": "node", "id": 8519414967, "lat": 45.6737428, "lon": -111.188913, "tags": {"craft": "caterer", "name": "Food for Thought Catering"}}, {"type": "node", "id": 8519414968, "lat": 45.6741948, "lon": -111.1890039, "tags": {"name": "Rusty Nail Design", "shop": "furniture"}}, {"type": "node", "id": 8519414969, "lat": 45.674566, "lon": -111.1890314, "tags": {"leisure": "sports_centre", "name": "Dart Zone 406"}}, {"type": "node", "id": 8519414971, "lat": 45.6721515, "lon": -111.1897434, "tags": {"name": "Bozeman Auto Body", "shop": "car_repair"}}, {"type": "node", "id": 8519414972, "lat": 45.6717218, "lon": -111.1913366, "tags": {"name": "The Auto Works", "shop": "car_repair"}}, {"type": "node", "id": 8519414997, "lat": 45.6762344, "lon": -111.1890955, "tags": {"name": "Cardinal Distributing Co", "shop": "wholesale"}}, {"type": "node", "id": 8519415081, "lat": 45.6752481, "lon": -111.1937447, "tags": {"amenity": "dentist", "healthcare": "dentist", "name": "Four Corners Family Dentistry"}}, {"type": "node", "id": 8519415082, "lat": 45.6748528, "lon": -111.1940168, "tags": {"name": "Montana Hunting Company", "office": "yes"}}, {"type": "node", "id": 8519438546, "lat": 45.6769543, "lon": -111.18666, "tags": {"amenity": "place_of_worship", "name": "Calvary Baptist Church", "religion": "christian"}}, {"type": "node", "id": 8519438547, "lat": 45.6770475, "lon": -111.1866545, "tags": {"amenity": "restaurant", "cuisine": "mexican", "name": "MR Burritos"}}, {"type": "node", "id": 8519438548, "lat": 45.6768675, "lon": -111.1866677, "tags": {"name": "Bridger Animal Nutrition West", "shop": "pet"}}, {"type": "node", "id": 8519438556, "lat": 45.6761306, "lon": -111.1848751, "tags": {"leisure": "sports_centre", "name": "Lookout Throwing"}}, {"type": "node", "id": 8519438557, "lat": 45.6767279, "lon": -111.1849259, "tags": {"name": "Yellowstone Motorsports", "shop": "outdoor"}}, {"type": "node", "id": 8519438558, "lat": 45.6770207, "lon": -111.1847227, "tags": {"brand": "Sherwin-Williams", "brand:wikidata": "Q48881", "name": "Sherwin-Williams", "shop": "paint"}}, {"type": "node", "id": 8519438559, "lat": 45.6771894, "lon": -111.1836387, "tags": {"name": "Mountain West Holding Co", "office": "yes"}}, {"type": "node", "id": 8519438561, "lat": 45.6792138, "lon": -111.1868588, "tags": {"name": "The River's Edge West", "shop": "fishing"}}, {"type": "node", "id": 8519438568, "lat": 45.6790823, "lon": -111.1873666, "tags": {"name": "On the Rise Bread", "shop": "bakery"}}, {"type": "node", "id": 8519438569, "lat": 45.6790867, "lon": -111.1878109, "tags": {"name": "Cloud Nine Cycles", "shop": "motorcycle_repair"}}, {"type": "node", "id": 8519438574, "lat": 45.6781749, "lon": -111.1887585, "tags": {"name": "Kenetrek Boots", "shop": "outdoor"}}, {"type": "node", "id": 8519438575, "lat": 45.6777159, "lon": -111.1887212, "tags": {"name": "Electrical Wholesale Supply Co", "shop": "electronics"}}, {"type": "node", "id": 8519438577, "lat": 45.6783149, "lon": -111.1900023, "tags": {"name": "BALCO Uniform Co.", "shop": "clothes"}}, {"type": "node", "id": 8519438578, "lat": 45.6835546, "lon": -111.1901592}, {"type": "node", "id": 8519438579, "lat": 45.6823862, "lon": -111.1901198}, {"type": "node", "id": 8519438580, "lat": 45.6823762, "lon": -111.1900052}, {"type": "node", "id": 8519438581, "lat": 45.6823387, "lon": -111.18993}, {"type": "node", "id": 8519438582, "lat": 45.6823187, "lon": -111.1878459}, {"type": "node", "id": 8519438583, "lat": 45.6823712, "lon": -111.1878315}, {"type": "node", "id": 8519438584, "lat": 45.6826489, "lon": -111.187828}, {"type": "node", "id": 8519438585, "lat": 45.682769, "lon": -111.1885155}, {"type": "node", "id": 8519438586, "lat": 45.6835271, "lon": -111.1884009}, {"type": "node", "id": 8519438593, "lat": 45.668843, "lon": -111.1848546, "tags": {"name": "4 Corners Pawn & Jewelry", "shop": "pawnbroker"}}, {"type": "node", "id": 8519438594, "lat": 45.6684044, "lon": -111.1850034, "tags": {"name": "Twice Treasured Thrift", "second_hand": "only", "shop": "clothes"}}, {"type": "node", "id": 8519438595, "lat": 45.6686048, "lon": -111.1852721, "tags": {"amenity": "cafe", "name": "City Brew Coffee"}}, {"type": "node", "id": 8519438596, "lat": 45.6687764, "lon": -111.1860884, "tags": {"amenity": "weighbridge"}}, {"type": "node", "id": 8519438640, "lat": 45.6679724, "lon": -111.1890816, "tags": {"craft": "carpenter", "name": "Specialty Forest Products"}}, {"type": "node", "id": 8519438641, "lat": 45.6676668, "lon": -111.1850923, "tags": {"name": "Big Bear Furniture", "shop": "furniture"}}, {"type": "node", "id": 8519438642, "lat": 45.6694969, "lon": -111.18501, "tags": {"addr:city": "Bozeman", "addr:housenumber": "81720", "addr:postcode": "59718", "addr:state": "MT", "addr:street": "Gallatin Road", "name": "Four Corners Saddlery & Boutique", "shop": "fishing"}}, {"type": "node", "id": 8519438643, "lat": 45.6707158, "lon": -111.184492, "tags": {"amenity": "fast_food", "cuisine": "burger", "name": "Best Burger"}}, {"type": "node", "id": 8519441115, "lat": 45.6688025, "lon": -111.1909901, "tags": {"name": "Effective Discreet Caregiving", "shop": "cannabis"}}, {"type": "node", "id": 8519441116, "lat": 45.6694559, "lon": -111.1901916, "tags": {"name": "Think Higher Caregiving", "shop": "cannabis"}}, {"type": "node", "id": 8519464818, "lat": 45.6687967, "lon": -111.1914774, "tags": {"name": "NorthStar Cannabis", "shop": "cannabis"}}, {"type": "node", "id": 8519464819, "lat": 45.6685375, "lon": -111.192251, "tags": {"name": "Coldwater Classics", "shop": "car_repair"}}, {"type": "node", "id": 8519464849, "lat": 45.668052, "lon": -111.1926675, "tags": {"craft": "plumber", "name": "Dakota Supply Group"}}, {"type": "node", "id": 8519464852, "lat": 45.6688014, "lon": -111.1934994, "tags": {"craft": "carpenter", "name": "Tri-County Countertops and Cabinets"}}, {"type": "node", "id": 8519464853, "lat": 45.6686868, "lon": -111.195211, "tags": {"name": "Big Sky Collision Center", "shop": "car_repair"}}, {"type": "node", "id": 8519465053, "lat": 45.6671034, "lon": -111.1938344, "tags": {"name": "Concrete Accessories & Rental", "office": "yes"}}, {"type": "node", "id": 8519465054, "lat": 45.6671181, "lon": -111.1877805, "tags": {"craft": "signmaker", "name": "SCS Wraps"}}, {"type": "node", "id": 8519465055, "lat": 45.666983, "lon": -111.1887029, "tags": {"name": "Big Sky Diesel Performance and Repair", "shop": "car_repair"}}, {"type": "node", "id": 8519465056, "lat": 45.6707841, "lon": -111.1962051, "tags": {"name": "Big Boys Toys", "shop": "rental"}}, {"type": "node", "id": 8519465173, "lat": 45.6701688, "lon": -111.1994351, "tags": {"name": "Four Corners Self Storage", "shop": "storage_rental"}}, {"type": "node", "id": 8519465174, "lat": 45.6707235, "lon": -111.1998221, "tags": {"name": "Mars of Bozeman", "shop": "car_repair"}}, {"type": "node", "id": 8519517394, "lat": 45.6699866, "lon": -111.2011015, "tags": {"amenity": "events_venue", "name": "Gallatin River Hideaway"}}, {"type": "node", "id": 8519545507, "lat": 45.6800596, "lon": -111.1979285}, {"type": "node", "id": 8519545508, "lat": 45.6800598, "lon": -111.1978907}, {"type": "node", "id": 8519545509, "lat": 45.679798, "lon": -111.1978872}, {"type": "node", "id": 8519545510, "lat": 45.6798022, "lon": -111.1972473}, {"type": "node", "id": 8519545511, "lat": 45.6800753, "lon": -111.1972509}, {"type": "node", "id": 8519545512, "lat": 45.6800772, "lon": -111.196965}, {"type": "node", "id": 8519545513, "lat": 45.6801392, "lon": -111.1969659}, {"type": "node", "id": 8519545514, "lat": 45.6801404, "lon": -111.196786}, {"type": "node", "id": 8519545515, "lat": 45.6802571, "lon": -111.1967875}, {"type": "node", "id": 8519545516, "lat": 45.6802582, "lon": -111.1966203}, {"type": "node", "id": 8519545517, "lat": 45.6803385, "lon": -111.1966214}, {"type": "node", "id": 8519545518, "lat": 45.6803388, "lon": -111.1965705}, {"type": "node", "id": 8519545519, "lat": 45.6804364, "lon": -111.1965717}, {"type": "node", "id": 8519545520, "lat": 45.6804361, "lon": -111.1966125}, {"type": "node", "id": 8519545521, "lat": 45.6804768, "lon": -111.196613}, {"type": "node", "id": 8519545522, "lat": 45.680476, "lon": -111.1967317}, {"type": "node", "id": 8519545523, "lat": 45.6805574, "lon": -111.1967327}, {"type": "node", "id": 8519545524, "lat": 45.6805567, "lon": -111.1968549}, {"type": "node", "id": 8519545525, "lat": 45.6806813, "lon": -111.1968564}, {"type": "node", "id": 8519545526, "lat": 45.6806764, "lon": -111.1976579}, {"type": "node", "id": 8519545527, "lat": 45.6805524, "lon": -111.1976564}, {"type": "node", "id": 8519545528, "lat": 45.6805518, "lon": -111.1977677}, {"type": "node", "id": 8519545529, "lat": 45.6804535, "lon": -111.1977664}, {"type": "node", "id": 8519545530, "lat": 45.6804528, "lon": -111.1978774}, {"type": "node", "id": 8519545531, "lat": 45.6803531, "lon": -111.1978762}, {"type": "node", "id": 8519545532, "lat": 45.6803527, "lon": -111.1979323}, {"type": "node", "id": 8519545561, "lat": 45.6783628, "lon": -111.2006673}, {"type": "node", "id": 8519545562, "lat": 45.6781311, "lon": -111.2007902}, {"type": "node", "id": 8519545563, "lat": 45.6773592, "lon": -111.200815}, {"type": "node", "id": 8519545564, "lat": 45.6773464, "lon": -111.1999962}, {"type": "node", "id": 8519545565, "lat": 45.6777264, "lon": -111.1999839}, {"type": "node", "id": 8519545566, "lat": 45.6777279, "lon": -111.2000773}, {"type": "node", "id": 8519545567, "lat": 45.6778809, "lon": -111.2000723}, {"type": "node", "id": 8519545568, "lat": 45.6779425, "lon": -111.200188}, {"type": "node", "id": 8519545569, "lat": 45.6779335, "lon": -111.2002724}, {"type": "node", "id": 8519545570, "lat": 45.6779695, "lon": -111.2003385}, {"type": "node", "id": 8519545571, "lat": 45.6780041, "lon": -111.2003422}, {"type": "node", "id": 8519545572, "lat": 45.6780554, "lon": -111.2003275}, {"type": "node", "id": 8519545573, "lat": 45.6780631, "lon": -111.2002945}, {"type": "node", "id": 8519545574, "lat": 45.6780446, "lon": -111.2002229}, {"type": "node", "id": 8519545575, "lat": 45.6782232, "lon": -111.2001282}, {"type": "node", "id": 8519545576, "lat": 45.6791378, "lon": -111.199515}, {"type": "node", "id": 8519545577, "lat": 45.6787869, "lon": -111.199311}, {"type": "node", "id": 8519545578, "lat": 45.6788342, "lon": -111.1991443}, {"type": "node", "id": 8519545579, "lat": 45.6788893, "lon": -111.19913}, {"type": "node", "id": 8519545580, "lat": 45.6789143, "lon": -111.1990512}, {"type": "node", "id": 8519545581, "lat": 45.6788926, "lon": -111.1989652}, {"type": "node", "id": 8519545582, "lat": 45.6787825, "lon": -111.1988935}, {"type": "node", "id": 8519545583, "lat": 45.6787207, "lon": -111.1986952}, {"type": "node", "id": 8519545584, "lat": 45.6787203, "lon": -111.1985592}, {"type": "node", "id": 8519545585, "lat": 45.6786617, "lon": -111.1985596}, {"type": "node", "id": 8519545586, "lat": 45.6786603, "lon": -111.1981261}, {"type": "node", "id": 8519545587, "lat": 45.6792212, "lon": -111.1981223}, {"type": "node", "id": 8519545588, "lat": 45.6792247, "lon": -111.1992088}, {"type": "node", "id": 8519545613, "lat": 45.6779406, "lon": -111.2000534}, {"type": "node", "id": 8519545614, "lat": 45.6779161, "lon": -111.2000883}, {"type": "node", "id": 8519545615, "lat": 45.6778773, "lon": -111.2000326}, {"type": "node", "id": 8519545616, "lat": 45.6779543, "lon": -111.1999229}, {"type": "node", "id": 8519545617, "lat": 45.6778289, "lon": -111.1997425}, {"type": "node", "id": 8519545618, "lat": 45.6779272, "lon": -111.1996023}, {"type": "node", "id": 8519545619, "lat": 45.677839, "lon": -111.1994755}, {"type": "node", "id": 8519545620, "lat": 45.6779888, "lon": -111.199262}, {"type": "node", "id": 8519545621, "lat": 45.6780805, "lon": -111.1993937}, {"type": "node", "id": 8519545622, "lat": 45.678194, "lon": -111.1992318}, {"type": "node", "id": 8519545623, "lat": 45.6782728, "lon": -111.199345}, {"type": "node", "id": 8519545624, "lat": 45.6782802, "lon": -111.1993344}, {"type": "node", "id": 8519545625, "lat": 45.6781014, "lon": -111.1990806}, {"type": "node", "id": 8519545626, "lat": 45.6782549, "lon": -111.1988592}, {"type": "node", "id": 8519545627, "lat": 45.6783415, "lon": -111.1989822}, {"type": "node", "id": 8519545628, "lat": 45.6784481, "lon": -111.1988282}, {"type": "node", "id": 8519545629, "lat": 45.6785662, "lon": -111.1989957}, {"type": "node", "id": 8519545630, "lat": 45.6786277, "lon": -111.1989067}, {"type": "node", "id": 8519545631, "lat": 45.6786937, "lon": -111.1990002}, {"type": "node", "id": 8519545632, "lat": 45.6786647, "lon": -111.1990423}, {"type": "node", "id": 8519545633, "lat": 45.6787555, "lon": -111.1991707}, {"type": "node", "id": 8519545634, "lat": 45.6786996, "lon": -111.1992517}, {"type": "node", "id": 8519545635, "lat": 45.6787227, "lon": -111.1992843}, {"type": "node", "id": 8519545636, "lat": 45.6786518, "lon": -111.1993873}, {"type": "node", "id": 8519545637, "lat": 45.6786268, "lon": -111.199352}, {"type": "node", "id": 8519545638, "lat": 45.6785944, "lon": -111.1993991}, {"type": "node", "id": 8519545639, "lat": 45.6786151, "lon": -111.1994282}, {"type": "node", "id": 8519545640, "lat": 45.67859, "lon": -111.1994648}, {"type": "node", "id": 8519545641, "lat": 45.6786053, "lon": -111.1994863}, {"type": "node", "id": 8519545642, "lat": 45.6785334, "lon": -111.199591}, {"type": "node", "id": 8519545643, "lat": 45.6785122, "lon": -111.1995611}, {"type": "node", "id": 8519545644, "lat": 45.6784574, "lon": -111.199641}, {"type": "node", "id": 8519545645, "lat": 45.6785979, "lon": -111.1998385}, {"type": "node", "id": 8519545646, "lat": 45.6785409, "lon": -111.1999217}, {"type": "node", "id": 8519545647, "lat": 45.6784261, "lon": -111.1997603}, {"type": "node", "id": 8519545648, "lat": 45.6783748, "lon": -111.1998352}, {"type": "node", "id": 8519545649, "lat": 45.6783377, "lon": -111.199783}, {"type": "node", "id": 8519545650, "lat": 45.6783208, "lon": -111.1998074}, {"type": "node", "id": 8519545651, "lat": 45.6783347, "lon": -111.199827}, {"type": "node", "id": 8519545652, "lat": 45.678304, "lon": -111.1998714}, {"type": "node", "id": 8519545653, "lat": 45.6783165, "lon": -111.199889}, {"type": "node", "id": 8519545654, "lat": 45.6782644, "lon": -111.1999641}, {"type": "node", "id": 8519545655, "lat": 45.6782453, "lon": -111.1999369}, {"type": "node", "id": 8519545656, "lat": 45.6782173, "lon": -111.1999772}, {"type": "node", "id": 8519545657, "lat": 45.6781954, "lon": -111.199946}, {"type": "node", "id": 8519545658, "lat": 45.6781362, "lon": -111.2000307}, {"type": "node", "id": 8519545659, "lat": 45.6781604, "lon": -111.2000653}, {"type": "node", "id": 8519545660, "lat": 45.6781043, "lon": -111.2001455}, {"type": "node", "id": 8519545661, "lat": 45.678081, "lon": -111.2001121}, {"type": "node", "id": 8519545662, "lat": 45.6785061, "lon": -111.1998727}, {"type": "node", "id": 8519545663, "lat": 45.6785608, "lon": -111.1997863}, {"type": "node", "id": 8519545665, "lat": 45.6780311, "lon": -111.2001833}, {"type": "node", "id": 8519570045, "lat": 45.6798465, "lon": -111.2003342}, {"type": "node", "id": 8519570046, "lat": 45.6798784, "lon": -111.2002258}, {"type": "node", "id": 8519570047, "lat": 45.6795156, "lon": -111.200007}, {"type": "node", "id": 8519570048, "lat": 45.6797148, "lon": -111.1993304}, {"type": "node", "id": 8519570049, "lat": 45.6798339, "lon": -111.1994022}, {"type": "node", "id": 8519570050, "lat": 45.6797203, "lon": -111.1997878}, {"type": "node", "id": 8519570051, "lat": 45.6797874, "lon": -111.1998283}, {"type": "node", "id": 8519570052, "lat": 45.6797539, "lon": -111.199942}, {"type": "node", "id": 8519570053, "lat": 45.6799268, "lon": -111.2000463}, {"type": "node", "id": 8519570054, "lat": 45.6798789, "lon": -111.2002088}, {"type": "node", "id": 8519570055, "lat": 45.6801008, "lon": -111.2003428}, {"type": "node", "id": 8519570064, "lat": 45.6800646, "lon": -111.2004658}, {"type": "node", "id": 8519570066, "lat": 45.6804636, "lon": -111.200832}, {"type": "node", "id": 8519570067, "lat": 45.6804819, "lon": -111.2006842}, {"type": "node", "id": 8519570068, "lat": 45.6803863, "lon": -111.2005866}, {"type": "node", "id": 8519570069, "lat": 45.6803527, "lon": -111.2002379}, {"type": "node", "id": 8519570070, "lat": 45.6804626, "lon": -111.2002162}, {"type": "node", "id": 8519570071, "lat": 45.6804892, "lon": -111.2004919}, {"type": "node", "id": 8519570072, "lat": 45.6805485, "lon": -111.2005524}, {"type": "node", "id": 8519570073, "lat": 45.6805766, "lon": -111.2004959}, {"type": "node", "id": 8519570074, "lat": 45.6806081, "lon": -111.2005279}, {"type": "node", "id": 8519570075, "lat": 45.6806217, "lon": -111.2005005}, {"type": "node", "id": 8519570076, "lat": 45.6807444, "lon": -111.2006256}, {"type": "node", "id": 8519570077, "lat": 45.6807285, "lon": -111.2006575}, {"type": "node", "id": 8519570078, "lat": 45.6807654, "lon": -111.2006951}, {"type": "node", "id": 8519570079, "lat": 45.6806357, "lon": -111.2009556}, {"type": "node", "id": 8519570080, "lat": 45.6805872, "lon": -111.2009061}, {"type": "node", "id": 8519570081, "lat": 45.6804836, "lon": -111.2007919}, {"type": "node", "id": 8519570082, "lat": 45.6804469, "lon": -111.2007544}, {"type": "node", "id": 8519570091, "lat": 45.68057, "lon": -111.2009406}, {"type": "node", "id": 8519593780, "lat": 45.679246, "lon": -111.1846029, "tags": {"name": "Gallatin Recreation", "shop": "outdoor"}}, {"type": "node", "id": 8519593781, "lat": 45.6783109, "lon": -111.1833687, "tags": {"name": "Sky Landis Furniture Design Studio", "shop": "furniture"}}, {"type": "node", "id": 8519593782, "lat": 45.678717, "lon": -111.1833008, "tags": {"name": "Dark Horse Outfitters", "shop": "car_parts"}}, {"type": "node", "id": 8519593783, "lat": 45.6791261, "lon": -111.183199, "tags": {"name": "Wild Sheep Foundation", "office": "yes"}}, {"type": "node", "id": 8519601217, "lat": 45.6804802, "lon": -111.1845785, "tags": {"brand": "NAPA Auto Parts", "brand:wikidata": "Q6970842", "name": "NAPA Auto Parts", "shop": "car_parts"}}, {"type": "node", "id": 8519601218, "lat": 45.680454, "lon": -111.1833099, "tags": {"craft": "hvac", "name": "Premier Air Heating & Cooling"}}, {"type": "node", "id": 8519601230, "lat": 45.6809409, "lon": -111.1832723, "tags": {"craft": "signmaker", "name": "Signs & Designs Unlimited"}}, {"type": "node", "id": 8519601231, "lat": 45.6804032, "lon": -111.1814647, "tags": {"name": "My Storage", "shop": "storage_rental"}}, {"type": "node", "id": 8519601232, "lat": 45.6813488, "lon": -111.1832147, "tags": {"name": "AquaSystems of Southwest Montana", "office": "yes"}}, {"type": "node", "id": 8519630229, "lat": 45.6832124, "lon": -111.184669, "tags": {"name": "Murdoch's Ranch & Home Supply", "shop": "department_store"}}, {"type": "node", "id": 8519630230, "lat": 45.6829049, "lon": -111.1832664, "tags": {"craft": "plumber", "name": "Ferguson Plumbing Supply"}}, {"type": "node", "id": 8519646952, "lat": 45.6849273, "lon": -111.1845802, "tags": {"leisure": "fitness_centre", "name": "Montana Indoor Sports"}}, {"type": "node", "id": 8519646953, "lat": 45.6842582, "lon": -111.1848948, "tags": {"amenity": "school", "name": "A Little Journey Montessori School"}}, {"type": "node", "id": 8523051159, "lat": 45.7005524, "lon": -111.1876377, "tags": {"name": "Big Sky Archery", "shop": "sports"}}, {"type": "node", "id": 10652727393, "lat": 45.6670427, "lon": -111.1851383, "tags": {"amenity": "crematorium", "name": "406 Pet Crematory"}}, {"type": "node", "id": 10652727394, "lat": 45.6669872, "lon": -111.1890249, "tags": {"name": "Peace of Mind Home Inspections", "office": "yes"}}, {"type": "node", "id": 10652727395, "lat": 45.6673501, "lon": -111.1902269, "tags": {"name": "AMBIANCE", "office": "yes"}}, {"type": "node", "id": 10652727396, "lat": 45.6679783, "lon": -111.1899185, "tags": {"craft": "floorer", "name": "Hollowtop Hardwood Floors"}}, {"type": "node", "id": 10652727397, "lat": 45.6686215, "lon": -111.1890525, "tags": {"addr:city": "Bozeman", "addr:housenumber": "159", "addr:postcode": "59718", "addr:state": "MT", "addr:street": "Homestake Drive", "leisure": "trampoline_park", "name": "JumpTime Bozeman", "phone": "+1-406-586-3473", "website": "https://www.jumptimebozeman.com/"}}, {"type": "node", "id": 10652727398, "lat": 45.6684498, "lon": -111.1901847, "tags": {"name": "TM Sales, Inc.", "office": "company"}}, {"type": "node", "id": 10652727399, "lat": 45.6686241, "lon": -111.1906382, "tags": {"name": "Last Best Cannabis", "shop": "cannabis"}}, {"type": "node", "id": 10652727400, "lat": 45.6688434, "lon": -111.1906531, "tags": {"name": "Treasure Tree Weed Dispensary", "shop": "cannabis"}}, {"type": "node", "id": 10652727401, "lat": 45.6684361, "lon": -111.191035, "tags": {"name": "New Roots MT", "shop": "cannabis"}}, {"type": "node", "id": 10652727402, "lat": 45.6688216, "lon": -111.192204, "tags": {"name": "Tikka Shooters", "shop": "weapons"}}, {"type": "node", "id": 10652727403, "lat": 45.6686894, "lon": -111.1922057, "tags": {"name": "Mountain Tactical Company", "shop": "weapons"}}, {"type": "node", "id": 10652727404, "lat": 45.6684097, "lon": -111.1930841, "tags": {"name": "Epic Automotive", "shop": "car_repair"}}, {"type": "node", "id": 10652727405, "lat": 45.66881, "lon": -111.1925959, "tags": {"name": "Bozeman Road Rescue", "shop": "car_repair"}}, {"type": "node", "id": 10652727406, "lat": 45.66881, "lon": -111.1928251, "tags": {"name": "Contract Design Associates", "shop": "furniture"}}, {"type": "node", "id": 10652727407, "lat": 45.6688124, "lon": -111.1938097, "tags": {"craft": "carpenter", "name": "Pioneer Wood Patina"}}, {"type": "node", "id": 10652727408, "lat": 45.668412, "lon": -111.1936553, "tags": {"amenity": "dojo", "name": "Gallatin Valley Martial Arts"}}, {"type": "node", "id": 10652727409, "lat": 45.669519, "lon": -111.1906242, "tags": {"name": "In the Trees Industries", "shop": "cannabis"}}, {"type": "node", "id": 10652727410, "lat": 45.6692359, "lon": -111.1908915, "tags": {"name": "Quality Foods Distributing", "shop": "trade"}}, {"type": "node", "id": 10652727411, "lat": 45.6695877, "lon": -111.1929328, "tags": {"name": "Bridger Garage Door Company", "shop": "doityourself"}}, {"type": "node", "id": 10652727412, "lat": 45.6694146, "lon": -111.1936314, "tags": {"name": "Jensen's Executive Detail Services", "shop": "car_repair"}}, {"type": "node", "id": 10652727413, "lat": 45.6694088, "lon": -111.1941333, "tags": {"name": "Operation Green", "shop": "cannabis"}}, {"type": "node", "id": 10652727414, "lat": 45.6696641, "lon": -111.1941416, "tags": {"name": "Euphoria Wellness", "shop": "cannabis"}}, {"type": "node", "id": 10652727415, "lat": 45.6692347, "lon": -111.1941333, "tags": {"name": "SupHerb Wellness. Cannabis Store", "shop": "cannabis"}}, {"type": "node", "id": 10652727416, "lat": 45.6694041, "lon": -111.1946082, "tags": {"name": "Sacred Sun Farms", "shop": "cannabis"}}, {"type": "node", "id": 10652727417, "lat": 45.669266, "lon": -111.1954169, "tags": {"name": "Double Dogs Four Corners", "shop": "cannabis"}}, {"type": "node", "id": 10652727418, "lat": 45.667634, "lon": -111.1955, "tags": {"name": "Amanda Jewel Floral + Design", "shop": "florist"}}, {"type": "node", "id": 10652727419, "lat": 45.6678017, "lon": -111.1948779, "tags": {"name": "Supply Squad", "office": "yes"}}, {"type": "node", "id": 10652727420, "lat": 45.6677151, "lon": -111.1948885, "tags": {"name": "Simply Office Supplies", "shop": "furniture"}}, {"type": "node", "id": 10652727421, "lat": 45.667203, "lon": -111.1965386, "tags": {"name": "Pond Doctor", "shop": "outdoor"}}, {"type": "node", "id": 10652727422, "lat": 45.6669838, "lon": -111.1960984, "tags": {"craft": "brewery", "name": "New Ventures Brewing"}}, {"type": "node", "id": 10652727423, "lat": 45.6669583, "lon": -111.1926775, "tags": {"name": "Lucky Dog Cannabis", "shop": "cannabis"}}, {"type": "node", "id": 10652727424, "lat": 45.6673415, "lon": -111.1926616, "tags": {"name": "Nature's Roots", "shop": "cannabis"}}, {"type": "node", "id": 10652727425, "lat": 45.6716928, "lon": -111.1844967, "tags": {"name": "Bloom Marijuana Dispensary Four Corners", "shop": "cannabis"}}, {"type": "node", "id": 10652727426, "lat": 45.6717076, "lon": -111.184156, "tags": {"craft": "brewery", "dog": "outside", "name": "Bunkhouse Brewery"}}, {"type": "node", "id": 10652727427, "lat": 45.6717978, "lon": -111.1839116, "tags": {"amenity": "cafe", "name": "Mazevo Coffee"}}, {"type": "node", "id": 10652727428, "lat": 45.6715608, "lon": -111.1823447, "tags": {"name": "Vapin' Heaven", "shop": "e-cigarette"}}, {"type": "node", "id": 10652727429, "lat": 45.6722222, "lon": -111.1839587, "tags": {"name": "Bridger Glassworks", "shop": "doityourself"}}, {"type": "node", "id": 10652727430, "lat": 45.6722222, "lon": -111.1835618, "tags": {"name": "Wild West Wellness", "shop": "cannabis"}}, {"type": "node", "id": 10652727431, "lat": 45.6723023, "lon": -111.1826917, "tags": {"brand": "Rodda Paint", "brand:wikidata": "Q7356461", "name": "Rodda Paint Co.", "shop": "paint"}}, {"type": "node", "id": 10652727432, "lat": 45.6729828, "lon": -111.1826759, "tags": {"craft": "electrician", "name": "Armitage Electric"}}, {"type": "node", "id": 10652727433, "lat": 45.6725997, "lon": -111.1845738, "tags": {"name": "Black Timber Furniture Company", "shop": "furniture"}}, {"type": "node", "id": 10652727434, "lat": 45.6731744, "lon": -111.1836057, "tags": {"amenity": "childcare", "name": "Little Dreamers Daycare"}}, {"type": "node", "id": 10652727435, "lat": 45.6733248, "lon": -111.182708, "tags": {"craft": "electronics_repair", "name": "Computer Medic"}}, {"type": "node", "id": 10652727440, "lat": 45.6739448, "lon": -111.1826364, "tags": {"name": "Sound Pro", "shop": "hifi"}}, {"type": "node", "id": 10652727441, "lat": 45.6748417, "lon": -111.1826232, "tags": {"craft": "hvac", "name": "Air Controls Bozeman"}}, {"type": "node", "id": 10652727442, "lat": 45.6758002, "lon": -111.1846992, "tags": {"name": "Blackfoot Communications", "office": "telecommunication"}}, {"type": "node", "id": 10652727443, "lat": 45.6766198, "lon": -111.1833496, "tags": {"name": "Star West Satellite Inc", "office": "telecommunication"}}, {"type": "node", "id": 10652727444, "lat": 45.6784634, "lon": -111.1845858, "tags": {"brand": "North Coast", "brand:wikidata": "Q109832848", "name": "North Coast", "shop": "trade", "trade": "building_supplies"}}, {"type": "node", "id": 10652727445, "lat": 45.6794376, "lon": -111.1833575, "tags": {"name": "Enterprise Admin. Group 63", "office": "company"}}, {"type": "node", "id": 10652727448, "lat": 45.6758175, "lon": -111.1867083, "tags": {"amenity": "bank", "name": "First Security Bank"}}, {"type": "node", "id": 10652727449, "lat": 45.6748812, "lon": -111.1887438, "tags": {"leisure": "fitness_centre", "name": "Hyalite CrossFit"}}, {"type": "node", "id": 10652727450, "lat": 45.6751754, "lon": -111.1892105, "tags": {"name": "Blitz Motor Sports", "shop": "sports"}}, {"type": "node", "id": 10652727452, "lat": 45.6730501, "lon": -111.1877031, "tags": {"name": "Dayspring Restoration of Bozeman", "shop": "repair"}}, {"type": "node", "id": 10652727453, "lat": 45.6727932, "lon": -111.1876305, "tags": {"craft": "distillery", "name": "Dry Hills Distillery"}}, {"type": "node", "id": 10652727454, "lat": 45.6716126, "lon": -111.1898247, "tags": {"name": "CED Bozeman", "shop": "electrical"}}, {"type": "node", "id": 10652727455, "lat": 45.6742514, "lon": -111.1912302, "tags": {"name": "Big Sky Bravery", "office": "association"}}, {"type": "node", "id": 10652727456, "lat": 45.6746225, "lon": -111.1911122, "tags": {"name": "Peak Skis", "shop": "sports"}}, {"type": "node", "id": 10652727457, "lat": 45.6751098, "lon": -111.1897308, "tags": {"craft": "hvac", "name": "Keller Air"}}, {"type": "node", "id": 10652727458, "lat": 45.675672, "lon": -111.1911068, "tags": {"amenity": "fire_station", "name": "Central Valley Fire District Station 3"}}, {"type": "node", "id": 10652727459, "lat": 45.6773736, "lon": -111.1909743, "tags": {"name": "Four Corners Water & Sewer District", "office": "government"}}, {"type": "node", "id": 10652727460, "lat": 45.6785836, "lon": -111.1900668, "tags": {"name": "Urbani Fisheries", "shop": "outdoor"}}, {"type": "node", "id": 10652727461, "lat": 45.6786497, "lon": -111.1897357, "tags": {"name": "Miller Recreational Development", "office": "yes"}}, {"type": "node", "id": 10652727462, "lat": 45.674615, "lon": -111.1929181, "tags": {"craft": "electrician", "name": "Haubrich Electric INC"}}, {"type": "node", "id": 10652727463, "lat": 45.6744014, "lon": -111.1929127, "tags": {"amenity": "studio", "name": "A Thousand Arms", "studio": "audio"}}, {"type": "node", "id": 10652727464, "lat": 45.6741203, "lon": -111.1929208, "tags": {"craft": "window_construction", "name": "Precision Window Tinting"}}, {"type": "node", "id": 10652727465, "lat": 45.6741128, "lon": -111.1944282, "tags": {"craft": "blacksmith", "name": "Huck Ironworks"}}, {"type": "node", "id": 10652727466, "lat": 45.6741128, "lon": -111.1954528, "tags": {"name": "Klasson Fine Art Services", "office": "consulting"}}, {"type": "node", "id": 10652727467, "lat": 45.673588, "lon": -111.1925399, "tags": {"name": "Rocky Mountain Sewing", "shop": "sewing"}}, {"type": "node", "id": 10652727468, "lat": 45.6735168, "lon": -111.1925775, "tags": {"name": "Oasis Grooming", "shop": "pet_grooming"}}, {"type": "node", "id": 10652727469, "lat": 45.6735974, "lon": -111.1920303, "tags": {"name": "M1 Logistics", "shop": "wholesale"}}, {"type": "node", "id": 10652727470, "lat": 45.6731682, "lon": -111.19221, "tags": {"name": "Gallatin Event Rental", "shop": "rental"}}, {"type": "node", "id": 10652727471, "lat": 45.6735974, "lon": -111.1936637, "tags": {"leisure": "fitness_centre", "name": "Like Iron Strength & Performance"}}, {"type": "node", "id": 10652727472, "lat": 45.6734643, "lon": -111.1936691, "tags": {"name": "Larsen Offroad", "shop": "car_parts"}}, {"type": "node", "id": 10652727473, "lat": 45.6732919, "lon": -111.1938676, "tags": {"name": "Avalanche Auto Repair", "shop": "car_repair"}}, {"type": "node", "id": 10652727474, "lat": 45.6734363, "lon": -111.1944068, "tags": {"name": "Paradigm Contractors", "office": "yes"}}, {"type": "node", "id": 10652727475, "lat": 45.6735637, "lon": -111.1954716, "tags": {"craft": "metal_construction", "name": "Mike's Metal Works"}}, {"type": "node", "id": 10652727476, "lat": 45.6733932, "lon": -111.1954743, "tags": {"name": "B. Schmidt Construction", "office": "company"}}, {"type": "node", "id": 10652727477, "lat": 45.6728703, "lon": -111.1952919, "tags": {"name": "Energisystems", "office": "yes"}}, {"type": "node", "id": 10652727478, "lat": 45.6726903, "lon": -111.1942325, "tags": {"name": "Westbred", "shop": "agrarian"}}, {"type": "node", "id": 10652727479, "lat": 45.6721862, "lon": -111.1948842, "tags": {"name": "Blind Guy of Bozeman", "shop": "curtain"}}, {"type": "node", "id": 10652727480, "lat": 45.6719425, "lon": -111.1942512, "tags": {"name": "Radick & Company", "office": "yes"}}, {"type": "node", "id": 10652727481, "lat": 45.6715546, "lon": -111.1947877, "tags": {"craft": "metal_construction", "name": "4 Corners Welding"}}, {"type": "node", "id": 10652727482, "lat": 45.6716801, "lon": -111.1926956, "tags": {"name": "MaCon Supply Inc", "office": "yes"}}, {"type": "node", "id": 10652727483, "lat": 45.6723211, "lon": -111.1926956, "tags": {"name": "Ashley Furniture Warehouse", "shop": "wholesale"}}, {"type": "node", "id": 10652727484, "lat": 45.6725067, "lon": -111.1900301, "tags": {"craft": "stonemason", "name": "D'Agostino Masonry Supply"}}, {"type": "node", "id": 10652727485, "lat": 45.6669221, "lon": -111.1864152, "tags": {"craft": "sawmill", "name": "Montana Reclaimed Lumber North"}}, {"type": "node", "id": 10652769327, "lat": 45.6662048, "lon": -111.1861833, "tags": {"name": "710 Montana", "shop": "cannabis"}}, {"type": "node", "id": 10652769328, "lat": 45.6661935, "lon": -111.1866741, "tags": {"name": "Big Sky Buds", "shop": "cannabis"}}, {"type": "node", "id": 10652769329, "lat": 45.6660904, "lon": -111.1866634, "tags": {"name": "Rocky Mountain Hat Co", "shop": "fashion_accessories"}}, {"type": "node", "id": 10652769330, "lat": 45.665978, "lon": -111.1866741, "tags": {"craft": "floorer", "name": "Ten Fingers Wood Floors"}}, {"type": "node", "id": 10652769331, "lat": 45.6658486, "lon": -111.1867063, "tags": {"name": "Aesthetic Detailing", "shop": "car_repair"}}, {"type": "node", "id": 10652769332, "lat": 45.6654119, "lon": -111.1878141, "tags": {"name": "Ro Drift Boats", "shop": "boat"}}, {"type": "node", "id": 10652769333, "lat": 45.6654138, "lon": -111.1886697, "tags": {"name": "B & L Quality Repair", "shop": "car_repair"}}, {"type": "node", "id": 10652769334, "lat": 45.6654119, "lon": -111.1892866, "tags": {"name": "Pampered Pets Petcare Company", "shop": "pet_grooming"}}, {"type": "node", "id": 10652769335, "lat": 45.665022, "lon": -111.1879133, "tags": {"craft": "stonemason", "name": "Slabworks of Montana"}}, {"type": "node", "id": 10652769336, "lat": 45.6648814, "lon": -111.1887073, "tags": {"addr:city": "Bozeman", "addr:housenumber": "125", "addr:postcode": "59718", "addr:state": "MT", "addr:street": "Central Avenue", "addr:unit": "Unit #1J", "contact:facebook": "https://www.facebook.com/ComfortSystemsofMT", "craft": "hvac", "email": "info@comfortsystemsofmt.com", "name": "Comfort Systems of Montana", "opening_hours": "Mo-Th 07:00-17:00, Fr 07:00-12:00", "phone": "+1-406-333-1927", "website": "https://comfortsystemsofmt.com/"}}, {"type": "node", "id": 10652769343, "lat": 45.663933, "lon": -111.1910839, "tags": {"name": "City Department of Environment", "office": "government"}}, {"type": "node", "id": 10652769356, "lat": 45.6631207, "lon": -111.1862856, "tags": {"name": "Arctic Spas Bozeman", "shop": "swimming_pool"}}, {"type": "node", "id": 10652769357, "lat": 45.6627398, "lon": -111.1866559, "tags": {"name": "Revive Salon & Spa", "shop": "beauty"}}, {"type": "node", "id": 10652769358, "lat": 45.6625861, "lon": -111.1867015, "tags": {"name": "Connoisseur Pharms", "shop": "cannabis"}}, {"type": "node", "id": 10932090861, "lat": 45.6787558, "lon": -111.1864721}, {"type": "node", "id": 10932090862, "lat": 45.678813, "lon": -111.1864449}, {"type": "node", "id": 10932090863, "lat": 45.6778246, "lon": -111.1864494}, {"type": "node", "id": 10932090864, "lat": 45.677731, "lon": -111.1864857}, {"type": "node", "id": 10932090865, "lat": 45.677677, "lon": -111.1865062}, {"type": "node", "id": 10932090866, "lat": 45.677612, "lon": -111.1864562}, {"type": "node", "id": 10932090867, "lat": 45.6775707, "lon": -111.1863245}, {"type": "node", "id": 10932090868, "lat": 45.677566, "lon": -111.186161}, {"type": "node", "id": 10932090869, "lat": 45.6788145, "lon": -111.1861429}, {"type": "node", "id": 11911077064, "lat": 45.6792445, "lon": -111.1865684, "tags": {"addr:city": "Bozeman", "addr:housenumber": "35", "addr:postcode": "59718", "addr:state": "MT", "addr:street": "North Star Lane", "amenity": "fast_food", "brand": "Taco Bell", "brand:wikidata": "Q752941", "cuisine": "tex-mex", "name": "Taco Bell", "opening_hours": "Mo-Th 06:30-02:00; Fr-Sa 06:30-03:00; Su 06:30-02:00", "phone": "+1 406-219-3188", "takeaway": "yes", "website": "https://locations.tacobell.com/mt/bozeman/35-n-star-lane.html"}}, {"type": "node", "id": 12803479401, "lat": 45.6698417, "lon": -111.1875286, "tags": {"addr:housenumber": "110", "addr:postcode": "59718", "addr:street": "Homestake Drive", "name": "Home2 Suites", "tourism": "hotel", "website": "https://www.hilton.com/en/hotels/bznfcht-home2-suites-bozeman-four-corners/"}}, {"type": "way", "id": 864898303, "nodes": [8061438063, 8061438064, 8061438065, 8061438066, 8061438067, 8061438072, 8061438068, 8061438069, 8061438070, 8061438071, 8061438063], "tags": {"leisure": "park"}}, {"type": "way", "id": 864898305, "nodes": [8061438075, 8061438076, 8061438077, 8061438078, 8061438079, 8061438080, 8061438075], "tags": {"leisure": "playground"}}, {"type": "way", "id": 917238515, "nodes": [8519438578, 8519438579, 8519438580, 8519438581, 8519438582, 8519438583, 8519438584, 8519438585, 8519438586, 8519438578], "tags": {"leisure": "park", "name": "Quail Run Park"}}, {"type": "way", "id": 917248903, "nodes": [8519545532, 8519545507, 8519545508, 8519545509, 8519545510, 8519545511, 8519545512, 8519545513, 8519545514, 8519545515, 8519545516, 8519545517, 8519545518, 8519545519, 8519545520, 8519545521, 8519545522, 8519545523, 8519545524, 8519545525, 8519545526, 8519545527, 8519545528, 8519545529, 8519545530, 8519545531, 8519545532], "tags": {"amenity": "research_institute", "building": "yes", "name": "Mesa Labs"}}, {"type": "way", "id": 917248910, "nodes": [8519545561, 8519545562, 8519545563, 8519545564, 8519545565, 8519545566, 8519545567, 8519545568, 8519545569, 8519545570, 8519545571, 8519545572, 8519545573, 8519545574, 8519545575, 8519545561], "tags": {"access": "private", "amenity": "parking", "parking": "surface"}}, {"type": "way", "id": 917248911, "nodes": [8519545576, 8519545577, 8519545578, 8519545579, 8519545580, 8519545581, 8519545582, 8519545583, 8519545584, 8519545585, 8519545586, 8519545587, 8519545588, 8519545576], "tags": {"access": "private", "amenity": "parking", "parking": "surface"}}, {"type": "way", "id": 917248920, "nodes": [8519545665, 8519545613, 8519545614, 8519545615, 8519545616, 8519545617, 8519545618, 8519545619, 8519545620, 8519545621, 8519545622, 8519545623, 8519545624, 8519545625, 8519545626, 8519545627, 8519545628, 8519545629, 8519545630, 8519545631, 8519545632, 8519545633, 8519545634, 8519545635, 8519545636, 8519545637, 8519545638, 8519545639, 8519545640, 8519545641, 8519545642, 8519545643, 8519545644, 8519545663, 8519545645, 8519545646, 8519545662, 8519545647, 8519545648, 8519545649, 8519545650, 8519545651, 8519545652, 8519545653, 8519545654, 8519545655, 8519545656, 8519545657, 8519545658, 8519545659, 8519545660, 8519545661, 8519545665], "tags": {"building": "office", "building:levels": "3", "name": "Zoot Enterprises", "office": "yes"}}, {"type": "way", "id": 917251719, "nodes": [8519570064, 8519570045, 8519570046, 8519570047, 8519570048, 8519570049, 8519570050, 8519570051, 8519570052, 8519570053, 8519570054, 8519570055, 8519570064], "tags": {"building": "yes", "name": "Wildfire Defense Systems", "office": "yes"}}, {"type": "way", "id": 917251723, "nodes": [8519570091, 8519570066, 8519570081, 8519570082, 8519570067, 8519570068, 8519570069, 8519570070, 8519570071, 8519570072, 8519570073, 8519570074, 8519570075, 8519570076, 8519570077, 8519570078, 8519570079, 8519570080, 8519570091], "tags": {"amenity": "place_of_worship", "building": "yes", "name": "Connect Church", "religion": "christian"}}, {"type": "way", "id": 1176649291, "nodes": [10932090862, 10932090861, 10932090863, 10932090864, 10932090865, 10932090866, 10932090867, 10932090868, 10932090869, 10932090862], "tags": {"leisure": "park"}}]}