{"version": 0.6, "generator": "Overpass API 0.7.62.8 e802775f", "osm3s": {"timestamp_osm_base": "2025-12-12T16:58:35Z", "copyright": "The data included in this document is from www.openstreetmap.org. The data is made available under ODbL."}, "elements": [{"type": "node", "id": 6208023712, "lat": 39.4179275, "lon": -104.8829603}, {"type": "node", "id": 6208023713, "lat": 39.4180717, "lon": -104.8826304}, {"type": "node", "id": 6208023714, "lat": 39.4177195, "lon": -104.8823078}, {"type": "node", "id": 6208023715, "lat": 39.4175065, "lon": -104.8826975}, {"type": "node", "id": 11729215387, "lat": 39.4179034, "lon": -104.8829383}, {"type": "node", "id": 12088332429, "lat": 39.403349, "lon": -104.8812169, "tags": {"addr:city": "Castle Rock", "addr:housenumber": "3990", "addr:postcode": "80109", "addr:state": "CO", "addr:street": "Limelight Avenue", "addr:unit": "G", "brand": "Orangetheory Fitness", "brand:wikidata": "Q25005163", "leisure": "fitness_centre", "level": "0", "name": "Orangetheory Fitness", "opening_hours": "Mo-Fr 05:00-19:45; Sa-Su 06:15-12:15", "phone": "+1-303-747-4003", "website": "https://www.orangetheory.com/en-us/locations/colorado/castle-rock/3990-limelight-avenue-unit-f"}}, {"type": "node", "id": 12198752135, "lat": 39.4089008, "lon": -104.8737152, "tags": {"access": "customers", "addr:city": "Castle Rock", "addr:housenumber": "4807", "addr:postcode": "80109", "addr:state": "CO", "addr:street": "Industrial Way", "addr:unit": "101", "leisure": "sports_hall", "name": "Castle Rock Chameleon Gymnastics", "opening_hours": "Mo-Fr 09:00-19:00; Sa 09:00-12:00", "phone": "+1-720-733-3687", "sport": "gymnastics", "website": "http://crsgym.com/"}}, {"type": "node", "id": 12198752142, "lat": 39.4088357, "lon": -104.8718143, "tags": {"addr:city": "Castle Rock", "addr:housenumber": "3196", "addr:postcode": "80109", "addr:state": "CO", "addr:street": "Industrial Way", "addr:unit": "M", "branch": "Castle Rock", "brand": "CrossFit", "brand:wikidata": "Q2072840", "leisure": "fitness_centre", "level": "0", "name": "CrossFit", "opening_hours": "Mo-Fr 05:30-19:00; Sa 08:00-11:00; Su 09:00-11:00", "phone": "+1-720-255-1141", "website": "https://castlerock.fit/"}}, {"type": "node", "id": 12245813438, "lat": 39.4084643, "lon": -104.8717146, "tags": {"addr:city": "Castle Rock", "addr:housenumber": "3194", "addr:postcode": "80109", "addr:state": "CO", "addr:street": "Industrial Way", "leisure": "fitness_centre", "level": "0", "name": "MaxFit Studio", "opening_hours": "Mo-Fr 05:00-22:00; Sa 08:00-16:00", "payment:cash": "yes", "payment:cheque": "yes", "payment:credit_cards": "yes", "payment:debit_cards": "yes", "phone": "+1-303-956-4995", "website": "https://www.maxfitstudiocr.com/"}}, {"type": "node", "id": 12414040421, "lat": 39.4178829, "lon": -104.883042}, {"type": "way", "id": 663200827, "nodes": [12414040421, 6208023712, 11729215387, 6208023713, 6208023714, 6208023715, 12414040421], "tags": {"addr:city": "Castle Rock", "addr:housenumber": "5745", "addr:postcode": "80108", "addr:state": "CO", "addr:street": "New Abbey Lane", "brand": "24 Hour Fitness", "brand:wikidata": "Q4631849", "building": "yes", "leisure": "fitness_centre", "name": "24 Hour Fitness", "opening_hours": "Mo-Th 05:00-22:00; Fr 05:00-21:00; Sa-Su 06:00-20:00", "phone": "+1-303-209-8636", "source": "esri/USA_NAD_Addresses", "website": "https://www.24hourfitness.com/gyms/castle-rock-co/castle-rock-super-sport"}}]}