{"version": 0.6, "generator": "Overpass API 0.7.62.8 e802775f", "osm3s": {"timestamp_osm_base": "2025-12-08T22:33:04Z", "copyright": "The data included in this document is from www.openstreetmap.org. The data is made available under ODbL."}, "elements": [{"type": "node", "id": 5320377721, "lat": 45.8077093, "lon": -108.4132551}, {"type": "node", "id": 5320377722, "lat": 45.8071073, "lon": -108.4132494}, {"type": "node", "id": 5320377723, "lat": 45.807106, "lon": -108.412947}, {"type": "node", "id": 5320377724, "lat": 45.8077089, "lon": -108.4129151}, {"type": "node", "id": 5320377726, "lat": 45.8074239, "lon": -108.4132531}, {"type": "node", "id": 5320377727, "lat": 45.807284, "lon": -108.4132531}, {"type": "node", "id": 5320377728, "lat": 45.8071342, "lon": -108.4132531}, {"type": "node", "id": 5320377729, "lat": 45.807165, "lon": -108.4133088}, {"type": "node", "id": 5320377730, "lat": 45.8073092, "lon": -108.4133033}, {"type": "node", "id": 5320377731, "lat": 45.8075785, "lon": -108.4132531}, {"type": "node", "id": 6013664961, "lat": 45.8111062, "lon": -108.4230007, "tags": {"amenity": "parking"}}, {"type": "node", "id": 6013664964, "lat": 45.8124396, "lon": -108.4225108, "tags": {"amenity": "marketplace", "name": "Billings Livestock Commission"}}, {"type": "node", "id": 6013664967, "lat": 45.8116732, "lon": -108.422388, "tags": {"amenity": "cafe", "name": "Hits The Spot"}}, {"type": "node", "id": 8317060483, "lat": 45.81124, "lon": -108.4166053, "tags": {"amenity": "restaurant", "name": "Jin's Buffet"}}, {"type": "node", "id": 8317060505, "lat": 45.8108351, "lon": -108.4165226, "tags": {"addr:city": "Billings", "addr:housenumber": "2750", "addr:postcode": "59101-6809", "addr:state": "MT", "addr:street": "Old Hardin Road", "addr:unit": "F", "alt_name": "Dairy Queen", "amenity": "fast_food", "brand": "DQ Grill & Chill", "brand:wikidata": "Q1141226", "cuisine": "ice_cream;burger", "name": "DQ Grill & Chill", "phone": "+1 406-252-1082", "takeaway": "yes", "website": "https://www.dairyqueen.com/locations/mt/billings/2750-old-hardin-rd-ste-f/7413"}}, {"type": "node", "id": 8317060506, "lat": 45.8108003, "lon": -108.4163543, "tags": {"name": "Castle Arms", "shop": "weapons"}}, {"type": "node", "id": 8317060507, "lat": 45.8108003, "lon": -108.4162236, "tags": {"addr:city": "Billings", "addr:housenumber": "2750", "addr:postcode": "59101", "addr:state": "MT", "addr:street": "Old Hardin Road", "amenity": "fast_food", "brand": "Subway", "brand:wikidata": "Q244457", "cuisine": "sandwich", "name": "Subway", "opening_hours": "09:00-21:00", "phone": "+1 406-256-9229", "takeaway": "yes", "website": "https://restaurants.subway.com/united-states/mt/billings/2750-old-hardin-rd"}}, {"type": "node", "id": 8317060508, "lat": 45.8108016, "lon": -108.4159758, "tags": {"addr:city": "Billings", "addr:housenumber": "2750", "addr:postcode": "59101", "addr:state": "MT", "addr:street": "Old Hardin Road", "amenity": "fast_food", "brand": "Domino's", "brand:wikidata": "Q839466", "cuisine": "pizza", "name": "Domino's", "opening_hours": "Mo-Th 10:00-24:00; Fr-Sa 10:00-01:00; Su 10:00-24:00", "phone": "+1 406-294-2828", "ref": "7015", "takeaway": "yes", "website": "https://pizza.dominos.com/montana/billings/2750-old-hardin-road"}}, {"type": "node", "id": 8317060514, "lat": 45.81156, "lon": -108.4154909, "tags": {"amenity": "casino", "name": "Magic Diamond Casino"}}, {"type": "node", "id": 8317060515, "lat": 45.8108924, "lon": -108.414374, "tags": {"addr:city": "Lockwood", "addr:housenumber": "700", "addr:postcode": "59101", "addr:state": "MT", "addr:street": "Johnson Lane", "alt_name": "Verizon Wireless", "brand": "Verizon", "brand:wikidata": "Q919641", "name": "Verizon", "shop": "mobile_phone"}}, {"type": "node", "id": 8317060525, "lat": 45.8104453, "lon": -108.4151064, "tags": {"addr:city": "Lockwood", "addr:housenumber": "678", "addr:postcode": "59101", "addr:state": "MT", "addr:street": "Johnson Lane", "brand": "Ace Hardware", "brand:wikidata": "Q4672981", "name": "Ace Hardware", "opening_hours": "Mo 08:00-19:00; Tu-Th 07:30-20:00; Fr-Sa 08:00-19:00; Su 09:00-18:00", "phone": "+1 406-656-1447", "ref": "16338", "shop": "doityourself"}}, {"type": "node", "id": 8317060526, "lat": 45.8129134, "lon": -108.415193, "tags": {"brand": "Town Pump", "brand:wikidata": "Q7830004", "name": "Town Pump", "shop": "convenience"}}, {"type": "node", "id": 8317060527, "lat": 45.8131379, "lon": -108.4151463, "tags": {"amenity": "casino", "name": "Jackrabbit Red's Casino"}}, {"type": "node", "id": 8317060528, "lat": 45.8126424, "lon": -108.41494, "tags": {"amenity": "fuel", "brand": "Conoco", "brand:wikidata": "Q109341187", "name": "Conoco", "website": "https://www.conoco.com/station/CON-BILLINGS-7-1047-0000860215/"}}, {"type": "node", "id": 8317060529, "lat": 45.8124883, "lon": -108.4157948, "tags": {"amenity": "fuel", "brand": "Pilot", "brand:wikidata": "Q64128179", "name": "Pilot"}}, {"type": "node", "id": 8317060530, "lat": 45.8120677, "lon": -108.4130698, "tags": {"name": "Casey's Corner", "shop": "convenience"}}, {"type": "node", "id": 8317060531, "lat": 45.8123446, "lon": -108.413067, "tags": {"amenity": "fuel", "brand": "Exxon", "brand:wikidata": "Q109675651", "name": "Exxon"}}, {"type": "node", "id": 8317060532, "lat": 45.813184, "lon": -108.413143}, {"type": "node", "id": 8317060533, "lat": 45.81324, "lon": -108.412997}, {"type": "node", "id": 8317060534, "lat": 45.813469, "lon": -108.413178}, {"type": "node", "id": 8317060535, "lat": 45.813413, "lon": -108.413323}, {"type": "node", "id": 8317060536, "lat": 45.8129088, "lon": -108.4114946}, {"type": "node", "id": 8317060537, "lat": 45.8127985, "lon": -108.4114125}, {"type": "node", "id": 8317060538, "lat": 45.8128273, "lon": -108.4113341}, {"type": "node", "id": 8317060539, "lat": 45.8131504, "lon": -108.4115766}, {"type": "node", "id": 8317060540, "lat": 45.8130616, "lon": -108.4118194}, {"type": "node", "id": 8317060541, "lat": 45.8128739, "lon": -108.4116786}, {"type": "node", "id": 8317060542, "lat": 45.81289, "lon": -108.4116351}, {"type": "node", "id": 8317060543, "lat": 45.8128649, "lon": -108.4116165}, {"type": "node", "id": 8317060544, "lat": 45.813941, "lon": -108.41209}, {"type": "node", "id": 8317060545, "lat": 45.81394, "lon": -108.412457}, {"type": "node", "id": 8317060546, "lat": 45.81385, "lon": -108.412457}, {"type": "node", "id": 8317060547, "lat": 45.813851, "lon": -108.412066}, {"type": "node", "id": 8317060548, "lat": 45.81381, "lon": -108.412066}, {"type": "node", "id": 8317060549, "lat": 45.81381, "lon": -108.411933}, {"type": "node", "id": 8317060550, "lat": 45.813857, "lon": -108.411934}, {"type": "node", "id": 8317060551, "lat": 45.813857, "lon": -108.411869}, {"type": "node", "id": 8317060552, "lat": 45.81394, "lon": -108.41187}, {"type": "node", "id": 8317060553, "lat": 45.813939, "lon": -108.411922}, {"type": "node", "id": 8317060554, "lat": 45.813973, "lon": -108.411922}, {"type": "node", "id": 8317060555, "lat": 45.813973, "lon": -108.41209}, {"type": "node", "id": 8317060593, "lat": 45.8109624, "lon": -108.419585, "tags": {"name": "Schwan's Home Services", "shop": "health_food"}}, {"type": "node", "id": 8317060594, "lat": 45.8105281, "lon": -108.4205711, "tags": {"name": "Whalen Tire", "shop": "tyres"}}, {"type": "node", "id": 8317060595, "lat": 45.8103451, "lon": -108.420993, "tags": {"name": "GFK Trailer Sales", "shop": "caravan"}}, {"type": "node", "id": 8317080156, "lat": 45.813745, "lon": -108.4105324}, {"type": "node", "id": 8317080161, "lat": 45.8128615, "lon": -108.4114594}, {"type": "node", "id": 8317080162, "lat": 45.8128919, "lon": -108.4113826}, {"type": "node", "id": 8317080184, "lat": 45.8136848, "lon": -108.410402, "tags": {"amenity": "dentist", "healthcare": "dentist", "name": "Lockwood Family Dental"}}, {"type": "node", "id": 8317080185, "lat": 45.8134619, "lon": -108.410401, "tags": {"amenity": "cafe", "name": "Yellowstone Coffee and Canvas"}}, {"type": "node", "id": 8317080186, "lat": 45.8134619, "lon": -108.41124}, {"type": "node", "id": 8317080187, "lat": 45.8129664, "lon": -108.4108493}, {"type": "node", "id": 8317080188, "lat": 45.8129672, "lon": -108.4105283}, {"type": "node", "id": 8317080189, "lat": 45.8136713, "lon": -108.4106302}, {"type": "node", "id": 8317080190, "lat": 45.8136707, "lon": -108.4107284}, {"type": "node", "id": 8317080191, "lat": 45.8135621, "lon": -108.410727}, {"type": "node", "id": 8317080192, "lat": 45.8135606, "lon": -108.4109824}, {"type": "node", "id": 8317080215, "lat": 45.8139404, "lon": -108.4123062}, {"type": "node", "id": 8317080216, "lat": 45.8138504, "lon": -108.4123074}, {"type": "node", "id": 8317080726, "lat": 45.8170449, "lon": -108.4080463, "tags": {"name": "Bretz RV and Marine", "shop": "caravan"}}, {"type": "node", "id": 8317080805, "lat": 45.8163482, "lon": -108.416662, "tags": {"brand": "Town Pump", "brand:wikidata": "Q7830004", "name": "Town Pump", "shop": "convenience"}}, {"type": "node", "id": 8317080806, "lat": 45.8159997, "lon": -108.416442, "tags": {"amenity": "fuel", "brand": "Conoco", "brand:wikidata": "Q109341187", "name": "Conoco", "website": "https://www.conoco.com/station/CON-BILLINGS-4-1044-0000851979/"}}, {"type": "node", "id": 8317080807, "lat": 45.8164709, "lon": -108.4164554, "tags": {"addr:city": "Billings", "addr:housenumber": "2711", "addr:postcode": "59101", "addr:state": "MT", "addr:street": "Frontage Road", "amenity": "fast_food", "brand": "McDonald's", "brand:wikidata": "Q38076", "cuisine": "burger", "drive_through": "yes", "internet_access": "wlan", "name": "McDonald's", "opening_hours": "06:00-23:00", "phone": "+1 406-256-6315", "takeaway": "yes", "website": "https://www.mcdonalds.com/us/en-us/location/32354.html"}}, {"type": "node", "id": 8317080808, "lat": 45.8162073, "lon": -108.4168991, "tags": {"amenity": "casino", "name": "Montana Lil's Casino"}}, {"type": "node", "id": 8317080809, "lat": 45.8156521, "lon": -108.4173809, "tags": {"amenity": "fuel", "brand": "Pilot", "brand:wikidata": "Q64128179", "name": "Pilot"}}, {"type": "node", "id": 8317086910, "lat": 45.8121536, "lon": -108.4143281, "tags": {"amenity": "cafe", "name": "Classy N' Sassy Coffee"}}, {"type": "node", "id": 8645503212, "lat": 45.8101841, "lon": -108.4128871, "tags": {"amenity": "car_wash", "name": "Fly In Lube & Wash"}}, {"type": "node", "id": 8645503213, "lat": 45.8157373, "lon": -108.406982, "tags": {"addr:city": "Lockwood", "addr:housenumber": "3025", "addr:postcode": "59101", "addr:state": "MT", "addr:street": "Old Hardin Road", "amenity": "veterinary", "name": "Lockwood Veterinary Service"}}, {"type": "node", "id": 8645503214, "lat": 45.811106, "lon": -108.4066317, "tags": {"addr:city": "Lockwood", "addr:housenumber": "728", "addr:postcode": "59101", "addr:state": "MT", "addr:street": "Starlight Drive", "name": "Ricochet Custom Firearms and Gunsmith", "opening_hours": "Mo-Fr 8:00-18:00", "shop": "weapons"}}, {"type": "node", "id": 8695152705, "lat": 45.8142364, "lon": -108.4127795}, {"type": "node", "id": 8695152706, "lat": 45.8147057, "lon": -108.4123651}, {"type": "node", "id": 9284076101, "lat": 45.8078787, "lon": -108.4133302}, {"type": "node", "id": 9284076102, "lat": 45.8078762, "lon": -108.4136267}, {"type": "node", "id": 9284076103, "lat": 45.8077257, "lon": -108.4136267}, {"type": "node", "id": 9284076104, "lat": 45.8077251, "lon": -108.4135895}, {"type": "node", "id": 9284076105, "lat": 45.8076715, "lon": -108.4135842}, {"type": "node", "id": 9284076106, "lat": 45.8076708, "lon": -108.4133338}, {"type": "node", "id": 9284076107, "lat": 45.8077294, "lon": -108.4133249}, {"type": "node", "id": 9284076108, "lat": 45.807743, "lon": -108.4129418}, {"type": "node", "id": 9284076109, "lat": 45.8077288, "lon": -108.4129082}, {"type": "node", "id": 9284076110, "lat": 45.8076801, "lon": -108.412902}, {"type": "node", "id": 9284076111, "lat": 45.8076783, "lon": -108.4126605}, {"type": "node", "id": 9284076112, "lat": 45.807727, "lon": -108.4126516}, {"type": "node", "id": 9284076113, "lat": 45.8077196, "lon": -108.4125932}, {"type": "node", "id": 9284076114, "lat": 45.8078152, "lon": -108.4125914}, {"type": "node", "id": 9284076115, "lat": 45.807801, "lon": -108.4126144}, {"type": "node", "id": 9284076116, "lat": 45.8078041, "lon": -108.4126481}, {"type": "node", "id": 9284081317, "lat": 45.8078232, "lon": -108.4126596}, {"type": "node", "id": 9284081318, "lat": 45.8078516, "lon": -108.4126596}, {"type": "node", "id": 9284081319, "lat": 45.8078509, "lon": -108.4131834}, {"type": "node", "id": 9284081320, "lat": 45.8078102, "lon": -108.4131878}, {"type": "node", "id": 9284081321, "lat": 45.807809, "lon": -108.413232}, {"type": "node", "id": 9284081322, "lat": 45.8078787, "lon": -108.413225}, {"type": "node", "id": 9284081323, "lat": 45.8075635, "lon": -108.4137965}, {"type": "node", "id": 9284081324, "lat": 45.8072854, "lon": -108.4137921}, {"type": "node", "id": 9284081325, "lat": 45.807344, "lon": -108.4137187}, {"type": "node", "id": 9284081326, "lat": 45.8073458, "lon": -108.413555}, {"type": "node", "id": 9284081327, "lat": 45.8073082, "lon": -108.4135063}, {"type": "node", "id": 9284081328, "lat": 45.8072792, "lon": -108.4135019}, {"type": "node", "id": 9284081329, "lat": 45.8072792, "lon": -108.4133356}, {"type": "node", "id": 9284081330, "lat": 45.8072792, "lon": -108.4132754}, {"type": "node", "id": 9284081331, "lat": 45.8075827, "lon": -108.4132789}, {"type": "node", "id": 9284081332, "lat": 45.8075845, "lon": -108.4133869}, {"type": "node", "id": 9284081333, "lat": 45.8075845, "lon": -108.4134612}, {"type": "node", "id": 9284081334, "lat": 45.8075685, "lon": -108.413501}, {"type": "node", "id": 9284081335, "lat": 45.807537, "lon": -108.4135116}, {"type": "node", "id": 9284081336, "lat": 45.8075185, "lon": -108.4135249}, {"type": "node", "id": 9284081337, "lat": 45.8075105, "lon": -108.4135426}, {"type": "node", "id": 9284081338, "lat": 45.8075105, "lon": -108.4135921}, {"type": "node", "id": 9284081339, "lat": 45.8075093, "lon": -108.4136417}, {"type": "node", "id": 9284081340, "lat": 45.8075105, "lon": -108.4136921}, {"type": "node", "id": 9284081341, "lat": 45.8075099, "lon": -108.4137213}, {"type": "node", "id": 9359320882, "lat": 45.8141431, "lon": -108.4126955}, {"type": "node", "id": 9359320883, "lat": 45.8142687, "lon": -108.4116312}, {"type": "node", "id": 9359320884, "lat": 45.8147443, "lon": -108.4116204}, {"type": "node", "id": 9359320885, "lat": 45.8147397, "lon": -108.4123428}, {"type": "node", "id": 9359324901, "lat": 45.8143652, "lon": -108.4116288, "tags": {"barrier": "gate"}}, {"type": "node", "id": 12099526000, "lat": 45.8115721, "lon": -108.4173426, "tags": {"amenity": "weighbridge", "brand": "CAT Scale", "brand:wikidata": "Q111631907", "check_date": "2024-02-10", "name": "CAT Scale", "operator": "Pilot Travel Center", "operator:phone": "+1 406-256-8826", "operator:website": "https://locations.pilotflyingj.com/us/mt/billings/2775-old-hardin-road", "operator:wikidata": "Q64128179", "ref": "1694", "website": "https://catscale.com/cat-scale-locator/?single=1694"}}, {"type": "node", "id": 12099600001, "lat": 45.8155429, "lon": -108.4178844, "tags": {"amenity": "weighbridge", "brand": "CAT Scale", "brand:wikidata": "Q111631907", "check_date": "2024-02-10", "name": "CAT Scale", "operator": "Pilot Travel Center", "operator:phone": "+1 406-238-9823", "operator:wikidata": "Q64128179", "ref": "1262", "website": "https://catscale.com/cat-scale-locator/?single=1262"}}, {"type": "node", "id": 12944744081, "lat": 45.81684, "lon": -108.41658, "tags": {"access": "yes", "addr:city": "Billings", "addr:country": "US", "addr:housenumber": "2711", "addr:postcode": "59101", "addr:state": "MT", "addr:street": "North Frontage Road", "amenity": "charging_station", "authentication:app": "yes", "bicycle": "no", "brand": "Tesla Supercharger", "brand:en": "Tesla Supercharger", "brand:website": "https://www.tesla.com/supercharger", "brand:wikidata": "Q17089620", "bus": "no", "capacity": "12", "ele": "948", "fee": "yes", "frequency": "0", "hgv": "no", "maxstay": "no", "motorcar": "designated", "network": "Supercharger", "network:website": "https://www.tesla.com/supercharger", "network:wikidata": "Q17089620", "note": "This Tesla Supercharger was edited or added by the June 2025 import from supercharge.info... if you have any questions, comments, or concerns, please reach out to the US Slack / Forum", "opening_hours": "24/7", "operator": "Tesla, Inc.", "operator:wikidata": "Q478214", "operator:wikipedia": "en:Tesla, Inc.", "payment:app:tesla": "yes", "ref:plugshare": "518222", "ref:supercharge_info": "6074", "reservation": "no", "scooter": "no", "socket:nacs": "12", "socket:nacs:output": "250", "source": "https://supercharge.info", "start_date": "2023-08-23", "website": "https://www.tesla.com/findus/location/supercharger/32354"}}, {"type": "way", "id": 550889502, "nodes": [5320377721, 5320377731, 5320377726, 5320377727, 5320377728, 5320377722, 5320377723, 5320377724, 5320377721], "tags": {"amenity": "fire_station", "building": "yes", "name": "Lockwood Fire District #8"}}, {"type": "way", "id": 550889504, "nodes": [5320377727, 5320377728, 5320377729, 5320377730, 5320377727], "tags": {"access": "yes", "amenity": "parking", "fee": "no", "parking": "surface"}}, {"type": "way", "id": 894757889, "nodes": [8317060532, 8317060533, 8317060534, 8317060535, 8317060532], "tags": {"addr:city": "Billings", "addr:housenumber": "2813", "addr:postcode": "59101-6839", "addr:state": "MT", "addr:street": "Old Hardin Road", "amenity": "fast_food", "brand": "Burger King", "brand:wikidata": "Q177054", "building": "yes", "cuisine": "burger", "delivery": "yes", "drive_through": "yes", "internet_access": "wlan", "name": "Burger King", "opening_hours": "06:00-22:00", "phone": "+1 406-256-5642", "ref": "9084", "source": "microsoft/BuildingFootprints", "takeaway": "yes", "website": "https://www.bk.com/store-locator/store/restaurant_5119"}}, {"type": "way", "id": 894757890, "nodes": [8317060536, 8317080161, 8317060537, 8317060538, 8317080162, 8317060539, 8317060540, 8317060541, 8317060542, 8317060543, 8317060536], "tags": {"amenity": "bank", "brand": "First Interstate BancSystem", "brand:wikidata": "Q5453107", "building": "yes", "name": "First Interstate Bank", "source": "microsoft/BuildingFootprints"}}, {"type": "way", "id": 894757891, "nodes": [8317060544, 8317080215, 8317060545, 8317060546, 8317080216, 8317060547, 8317060548, 8317060549, 8317060550, 8317060551, 8317060552, 8317060553, 8317060554, 8317060555, 8317060544], "tags": {"amenity": "bank", "building": "yes", "name": "Western Security Bank", "source": "microsoft/BuildingFootprints"}}, {"type": "way", "id": 894759929, "nodes": [8317080186, 8317080187, 8317080188, 8317080156, 8317080189, 8317080190, 8317080191, 8317080192, 8317080186], "tags": {"amenity": "parking"}}, {"type": "way", "id": 1006264807, "nodes": [9284076101, 9284076102, 9284076103, 9284076104, 9284076105, 9284076106, 9284076107, 9284076108, 9284076109, 9284076110, 9284076111, 9284076112, 9284076113, 9284076114, 9284076115, 9284076116, 9284081317, 9284081318, 9284081319, 9284081320, 9284081321, 9284081322, 9284076101], "tags": {"amenity": "parking", "parking": "surface", "surface": "asphalt"}}, {"type": "way", "id": 1006264808, "nodes": [9284081323, 9284081324, 9284081325, 9284081326, 9284081327, 9284081328, 9284081329, 9284081330, 9284081331, 9284081332, 9284081333, 9284081334, 9284081335, 9284081336, 9284081337, 9284081338, 9284081339, 9284081340, 9284081341, 9284081323], "tags": {"amenity": "parking"}}, {"type": "way", "id": 1014457548, "nodes": [8695152706, 8695152705, 9359320882, 9359320883, 9359324901, 9359320884, 9359320885, 8695152706], "tags": {"shop": "storage_rental"}}]}