{"version": 0.6, "generator": "Overpass API 0.7.62.8 e802775f", "osm3s": {"timestamp_osm_base": "2025-12-06T21:46:30Z", "copyright": "The data included in this document is from www.openstreetmap.org. The data is made available under ODbL."}, "elements": [{"type": "node", "id": 352920434, "lat": 47.6106611, "lon": -122.2013426}, {"type": "node", "id": 352920436, "lat": 47.6108991, "lon": -122.2010699}, {"type": "node", "id": 352920437, "lat": 47.6108975, "lon": -122.2013465}, {"type": "node", "id": 2988437884, "lat": 47.6106632, "lon": -122.2010634}, {"type": "node", "id": 3306791362, "lat": 47.6152002, "lon": -122.1982816, "tags": {"addr:city": "Bellevue", "addr:housenumber": "550", "addr:postcode": "98004", "addr:state": "WA", "addr:street": "106th Avenue Northeast", "addr:unit": "215", "brand": "LA Fitness", "brand:wikidata": "Q6457180", "leisure": "fitness_centre", "name": "LA Fitness"}}, {"type": "node", "id": 3883822560, "lat": 47.6184149, "lon": -122.191468, "tags": {"brand": "Pure Barre", "brand:wikidata": "Q86707084", "leisure": "fitness_centre", "name": "Pure Barre"}}, {"type": "node", "id": 3883822563, "lat": 47.6192032, "lon": -122.1916695, "tags": {"addr:city": "Bellevue", "addr:housenumber": "989", "addr:postcode": "98004", "addr:state": "WA", "addr:street": "112th Avenue Northeast", "addr:unit": "102", "branch": "Bellevue (Elements)", "check_date": "2025-09-19", "contact:facebook": "https://www.facebook.com/bStrongBellevue/", "description": "Personal training and small group training studio. Focusing on strength training and HIIT training.", "email": "train@bstrong.com", "leisure": "fitness_centre", "name": "bStrong Personal Training", "opening_hours": "Mo 06:00-12:00,15:30-20:30; Tu 05:30-13:00,16:00-20:30; We 06:00-12:00,15:30-20:30; Th 05:30-13:00,16:00-20:30; Fr 06:00-12:00,14:00-20:00; Sa 08:30-13:30; Su off", "personal_training": "yes", "phone": "+1-425-429-7470", "website": "https://www.bstrong.com/bellevue-elements"}}, {"type": "node", "id": 4188507099, "lat": 47.6191036, "lon": -122.2028753, "tags": {"addr:city": "Bellevue", "addr:housenumber": "10307", "addr:postcode": "98004", "addr:state": "WA", "addr:street": "Northeast 10th Street", "brand": "CorePower Yoga", "brand:wikidata": "Q21015663", "check_date": "2025-12-01", "leisure": "fitness_centre", "name": "CorePower Yoga", "sport": "yoga"}}, {"type": "node", "id": 4849029106, "lat": 47.6140435, "lon": -122.2005884, "tags": {"addr:housenumber": "10470", "addr:street": "Northeast 4th Street", "brand": "SoulCycle", "brand:wikidata": "Q17084730", "leisure": "fitness_centre", "name": "SoulCycle", "sport": "cycling", "wheelchair": "yes"}}, {"type": "node", "id": 5397534321, "lat": 47.6186352, "lon": -122.1917963, "tags": {"addr:housenumber": "958", "addr:postcode": "98004", "addr:street": "111th Avenue Northeast", "email": "info@theashramyoga.com", "leisure": "fitness_centre", "name": "The Ashram Yoga Bellevue", "opening_hours": "Mo-Th 06:30-21:00; Fr 06:30-20:00; Sa 07:30-18:30; Su 07:30-20:15", "phone": "+1-425-453-6776", "sport": "yoga", "website": "https://theashramyoga.com/"}}, {"type": "node", "id": 5603371512, "lat": 47.6187028, "lon": -122.2037387, "tags": {"addr:city": "Bellevue", "addr:housenumber": "990", "addr:postcode": "98004", "addr:street": "102nd Avenue Northeast", "addr:unit": "200", "leisure": "fitness_centre", "name": "Nancy Wallace Pilates"}}, {"type": "node", "id": 5608446847, "lat": 47.6197849, "lon": -122.1989402, "tags": {"addr:city": "Bellevue", "addr:housenumber": "1032", "addr:postcode": "98004", "addr:state": "WA", "addr:street": "106th Avenue Northeast", "addr:unit": "124", "alt_name": "Shred 45", "check_date": "2024-07-16", "leisure": "fitness_centre", "name": "Infrared Yoga"}}, {"type": "node", "id": 5833613060, "lat": 47.619471, "lon": -122.1933928, "tags": {"addr:housenumber": "11000", "addr:street": "Northeast 10th Street", "leisure": "fitness_centre", "name": "bStrong Bellevue", "website": "https://bstrongbellevue.com/"}}, {"type": "node", "id": 6059131001, "lat": 47.6196692, "lon": -122.195845, "tags": {"addr:unit": "140", "leisure": "fitness_centre", "name": "Barre 3", "website": "https://barre3.com"}}, {"type": "node", "id": 6395008271, "lat": 47.6122376, "lon": -122.1986565, "tags": {"addr:housenumber": "10608", "addr:street": "Northeast 2nd Street", "leisure": "fitness_centre", "name": "Elevate Fitlife", "website": "https://www.elevatefitlife.com"}}, {"type": "node", "id": 7278459386, "lat": 47.5988414, "lon": -122.1833101, "tags": {"leisure": "fitness_centre", "name": "Muscle Farmer"}}, {"type": "node", "id": 8004601134, "lat": 47.6121484, "lon": -122.1942132, "tags": {"access": "private", "leisure": "fitness_centre", "level": "0"}}, {"type": "node", "id": 11265802449, "lat": 47.6187539, "lon": -122.1988856, "tags": {"addr:city": "Bellevue", "addr:housenumber": "10604", "addr:postcode": "98004", "addr:state": "WA", "addr:street": "Northeast 9th Place", "addr:unit": "I", "check_date": "2023-10-15", "fee": "yes", "leisure": "fitness_centre", "level": "2", "name": "23FITCLUB", "opening_hours": "Mo-Fr 05:00-21:00; Sa 07:00-18:00", "phone": "+1-425-659-5623", "sport": "fitness;boxing", "website": "https://www.23fitclub.com/", "wheelchair": "yes"}}, {"type": "node", "id": 11332286253, "lat": 47.6196477, "lon": -122.1993476, "tags": {"addr:city": "Bellevue", "addr:housenumber": "1039", "addr:postcode": "98004", "addr:state": "WA", "addr:street": "106th Avenue Northeast", "check_date": "2024-07-16", "leisure": "fitness_centre", "name": "The Pursuit", "phone": "+1-425-240-9092", "website": "https://www.thepursuitstudio.com/"}}, {"type": "node", "id": 12269968941, "lat": 47.6142082, "lon": -122.201108}, {"type": "node", "id": 12269968942, "lat": 47.6142038, "lon": -122.2014157}, {"type": "node", "id": 12269968943, "lat": 47.6146623, "lon": -122.2012679}, {"type": "node", "id": 12269968944, "lat": 47.6146224, "lon": -122.2012666}, {"type": "node", "id": 12269968994, "lat": 47.6142251, "lon": -122.2011085}, {"type": "node", "id": 12269969005, "lat": 47.6143359, "lon": -122.2011121}, {"type": "node", "id": 12269969006, "lat": 47.6144279, "lon": -122.2011146}, {"type": "node", "id": 12269969042, "lat": 47.6145409, "lon": -122.2011185}, {"type": "node", "id": 12269969043, "lat": 47.6145402, "lon": -122.2011671}, {"type": "node", "id": 12269969044, "lat": 47.6146238, "lon": -122.2011697}, {"type": "node", "id": 12269969257, "lat": 47.61466, "lon": -122.20143}, {"type": "node", "id": 12269969258, "lat": 47.614661, "lon": -122.2013596}, {"type": "way", "id": 31537858, "nodes": [352920434, 2988437884, 352920436, 352920437, 352920434], "tags": {"addr:city": "Bellevue", "addr:housenumber": "30", "addr:postcode": "98004", "addr:state": "WA", "addr:street": "Bellevue Way Northeast", "brand": "Orangetheory Fitness", "brand:wikidata": "Q25005163", "building": "yes", "leisure": "fitness_centre", "name": "Orangetheory Fitness", "phone": "+1-206-785-9190", "ref": "2075"}}, {"type": "way", "id": 1326151814, "nodes": [12269969042, 12269969043, 12269969044, 12269968944, 12269968943, 12269969258, 12269969257, 12269968942, 12269968941, 12269968994, 12269969005, 12269969006, 12269969042], "tags": {"access": "yes", "addr:city": "Bellevue", "addr:housenumber": "500", "addr:postcode": "98004", "addr:state": "WA", "addr:street": "Bellevue Way Northeast", "addr:unit": "Suite 230", "contact:facebook": "https://facebook.com/TruFusion-WA-1216807308459773", "contact:instagram": "https://instagram.com/trufusionwashington", "contact:linkedin": "https://linkedin.com/company/trufusion", "contact:pinterest": "https://pinterest.com/trufusion", "contact:youtube": "https://youtube.com/channel/UC2xcgyIL4CuWvr31bU4Ya6g", "description": "Offers a variety of heated and non-heated group fitness classes, including Yoga, Pilates, Barre, Bootcamp, TRX, Boxing, and HIIT", "email": "WAssup@trufusionstudio.com", "indoor": "room", "leisure": "fitness_centre", "level": "1", "name": "TruFusion", "opening_hours": "Mo-Th 6:00-21:00; Fr 6:00-20:00; Sa 8:30-14:30; Su 8:30-14:30", "phone": "+1-425-362-6956", "room": "fitness_centre", "sport": "yoga;pilates;barre;bootcamp;trx;total_resistance_exercises;boxing;hiit;high-intensity_interval_training", "website": "https://trufusion.com/bellevue"}}]}