{"version": 0.6, "generator": "Overpass API 0.7.62.8 e802775f", "osm3s": {"timestamp_osm_base": "2025-12-06T21:19:01Z", "copyright": "The data included in this document is from www.openstreetmap.org. The data is made available under ODbL."}, "elements": [{"type": "node", "id": 356541617, "lat": 47.5295464, "lon": -122.0442762}, {"type": "node", "id": 853045344, "lat": 47.5299296, "lon": -122.036164, "tags": {"amenity": "fuel", "brand": "Shell", "brand:wikidata": "Q110716465", "compressed_air": "yes", "name": "Shell", "opening_hours": "24/7", "source": "survey"}}, {"type": "node", "id": 921033182, "lat": 47.5294457, "lon": -122.0354337, "tags": {"addr:city": "Issaquah", "addr:housenumber": "80", "addr:postcode": "98027-3819", "addr:state": "WA", "addr:street": "Front Street South", "brand": "Dollar Tree", "brand:wikidata": "Q5289230", "check_date": "2024-11-09", "contact:facebook": "https://www.facebook.com/dollartree", "contact:instagram": "https://www.instagram.com/dollartree/", "contact:linkedin": "https://www.linkedin.com/company/dollar-tree-stores", "contact:pinterest": "https://www.pinterest.com/dollartree", "contact:twitter": "https://www.twitter.com/dollartree", "name": "Dollar Tree", "opening_hours": "Mo-Sa 08:00-20:00; Su 09:00-20:00", "phone": "+1-425-657-7243", "ref": "7562", "shop": "variety_store", "website": "https://www.dollartree.com/locations/wa/issaquah/7562/"}}, {"type": "node", "id": 1076454469, "lat": 47.5302894, "lon": -122.0369885}, {"type": "node", "id": 1076454477, "lat": 47.5302321, "lon": -122.0366885}, {"type": "node", "id": 1076454482, "lat": 47.5303807, "lon": -122.0372185}, {"type": "node", "id": 1076454498, "lat": 47.5303682, "lon": -122.0367315}, {"type": "node", "id": 1076454502, "lat": 47.530368, "lon": -122.0366425}, {"type": "node", "id": 1076454504, "lat": 47.5302328, "lon": -122.0369885}, {"type": "node", "id": 1076454516, "lat": 47.5302845, "lon": -122.0366875}, {"type": "node", "id": 1076454522, "lat": 47.5303809, "lon": -122.0373025}, {"type": "node", "id": 1076454532, "lat": 47.5305775, "lon": -122.0372645}, {"type": "node", "id": 1076454535, "lat": 47.5304417, "lon": -122.0372185}, {"type": "node", "id": 1076454545, "lat": 47.5305761, "lon": -122.0366415}, {"type": "node", "id": 1076454557, "lat": 47.5304418, "lon": -122.0372655}, {"type": "node", "id": 1076454561, "lat": 47.5302846, "lon": -122.0367325}, {"type": "node", "id": 1076454565, "lat": 47.5302901, "lon": -122.0373035}, {"type": "node", "id": 1179705483, "lat": 47.5310467, "lon": -122.0350524}, {"type": "node", "id": 1179705484, "lat": 47.5312726, "lon": -122.035147}, {"type": "node", "id": 1179705485, "lat": 47.5312907, "lon": -122.0350487}, {"type": "node", "id": 1179705486, "lat": 47.5314239, "lon": -122.035102}, {"type": "node", "id": 1179705489, "lat": 47.5314353, "lon": -122.0350427}, {"type": "node", "id": 1179705492, "lat": 47.5313749, "lon": -122.0350178}, {"type": "node", "id": 1179705493, "lat": 47.5314015, "lon": -122.0348781}, {"type": "node", "id": 1179705497, "lat": 47.5313283, "lon": -122.0348487}, {"type": "node", "id": 1179705500, "lat": 47.5313393, "lon": -122.034794}, {"type": "node", "id": 1179705504, "lat": 47.5311831, "lon": -122.0347287}, {"type": "node", "id": 1179705508, "lat": 47.5311729, "lon": -122.0347842}, {"type": "node", "id": 1179705517, "lat": 47.5310862, "lon": -122.0348508}, {"type": "node", "id": 1179705518, "lat": 47.531076, "lon": -122.0349036}, {"type": "node", "id": 1179705519, "lat": 47.5310433, "lon": -122.0348894}, {"type": "node", "id": 1179705520, "lat": 47.5310346, "lon": -122.0349344}, {"type": "node", "id": 1179705521, "lat": 47.5310665, "lon": -122.0349486}, {"type": "node", "id": 1179908399, "lat": 47.5303803, "lon": -122.0363951, "tags": {"addr:housenumber": "14", "addr:street": "Front Street North", "amenity": "restaurant", "check_date": "2024-08-03", "name": "Jak's Grill"}}, {"type": "node", "id": 1179908473, "lat": 47.5331931, "lon": -122.0367828, "tags": {"addr:housenumber": "305", "amenity": "bank", "name": "Pacific Premier Bank", "opening_hours": "Mo-Fr 09:00-17:00"}}, {"type": "node", "id": 1241054945, "lat": 47.5315491, "lon": -122.03637, "tags": {"addr:city": "Issaquah", "addr:housenumber": "108", "addr:postcode": "98027", "addr:state": "WA", "addr:street": "Front Street North", "air_conditioning": "yes", "amenity": "restaurant", "cuisine": "thai", "delivery": "no", "diet:gluten_free": "yes", "diet:lactose_free": "yes", "diet:pescetarian": "yes", "diet:vegan": "no", "diet:vegetarian": "yes", "highchair": "yes", "name": "Sip Thai Bistro", "opening_hours": "Tu-Th 11:00-15:00,16:00-20:00; Fr 11:00-15:00,16:00-21:00; Sa 12:00-21:00; Su 12:00-20:00", "outdoor_seating": "seasonal", "phone": "+1-425-657-0839", "takeaway": "yes", "website": "https://www.sipthaibistro.com/"}}, {"type": "node", "id": 1310902334, "lat": 47.528302, "lon": -122.0456601}, {"type": "node", "id": 1310902340, "lat": 47.5284723, "lon": -122.0462717}, {"type": "node", "id": 1310902341, "lat": 47.5284795, "lon": -122.045754}, {"type": "node", "id": 1310902355, "lat": 47.5283365, "lon": -122.0461027}, {"type": "node", "id": 1310902393, "lat": 47.5284343, "lon": -122.0458291}, {"type": "node", "id": 1310902395, "lat": 47.5282368, "lon": -122.0462073}, {"type": "node", "id": 1310902413, "lat": 47.5284361, "lon": -122.0454348}, {"type": "node", "id": 1310902427, "lat": 47.5283944, "lon": -122.0464084}, {"type": "node", "id": 1310902429, "lat": 47.5286552, "lon": -122.045982}, {"type": "node", "id": 1310902441, "lat": 47.5285556, "lon": -122.0455019}, {"type": "node", "id": 1310902448, "lat": 47.5285266, "lon": -122.0455555}, {"type": "node", "id": 1310902466, "lat": 47.5282694, "lon": -122.0461429}, {"type": "node", "id": 1310902519, "lat": 47.5287693, "lon": -122.0457808}, {"type": "node", "id": 1310902552, "lat": 47.5282948, "lon": -122.0461751}, {"type": "node", "id": 1639982913, "lat": 47.5330451, "lon": -122.0368435, "tags": {"addr:city": "Issaquah", "addr:housenumber": "303", "addr:postcode": "98027", "addr:street": "Front Street North", "amenity": "theatre", "name": "Village Theatre", "phone": "+1-425-392-2202", "website": "https://villagetheatre.org/issaquah/"}}, {"type": "node", "id": 2172310654, "lat": 47.5293124, "lon": -122.0478431}, {"type": "node", "id": 2172318636, "lat": 47.5288574, "lon": -122.046945}, {"type": "node", "id": 2172318638, "lat": 47.5300535, "lon": -122.0441045}, {"type": "node", "id": 2172318642, "lat": 47.5288062, "lon": -122.0465897}, {"type": "node", "id": 2172318643, "lat": 47.5297492, "lon": -122.044126}, {"type": "node", "id": 2172318645, "lat": 47.5288404, "lon": -122.0461612}, {"type": "node", "id": 2272796517, "lat": 47.5298106, "lon": -122.0372557}, {"type": "node", "id": 2272796523, "lat": 47.5300535, "lon": -122.0369296}, {"type": "node", "id": 2272796524, "lat": 47.5300655, "lon": -122.0372954}, {"type": "node", "id": 2274535165, "lat": 47.5271431, "lon": -122.0338918}, {"type": "node", "id": 2274535167, "lat": 47.5271519, "lon": -122.0346636}, {"type": "node", "id": 2274535169, "lat": 47.527487, "lon": -122.0338832}, {"type": "node", "id": 2274535171, "lat": 47.5274958, "lon": -122.0346549}, {"type": "node", "id": 2274542655, "lat": 47.5246068, "lon": -122.0355241}, {"type": "node", "id": 2274542657, "lat": 47.5250705, "lon": -122.0333936}, {"type": "node", "id": 2274542661, "lat": 47.5269999, "lon": -122.0338693}, {"type": "node", "id": 2274542663, "lat": 47.5268908, "lon": -122.0356695}, {"type": "node", "id": 2274542665, "lat": 47.5274784, "lon": -122.0352019}, {"type": "node", "id": 2274544634, "lat": 47.5268732, "lon": -122.0347253}, {"type": "node", "id": 2274544635, "lat": 47.5270108, "lon": -122.0346368}, {"type": "node", "id": 2274545021, "lat": 47.5314613, "lon": -122.0369514}, {"type": "node", "id": 2274545022, "lat": 47.5315335, "lon": -122.0366524}, {"type": "node", "id": 2274545023, "lat": 47.5315375, "lon": -122.0369494}, {"type": "node", "id": 2274545219, "lat": 47.5317457, "lon": -122.0358362}, {"type": "node", "id": 2274546175, "lat": 47.5320781, "lon": -122.0436191}, {"type": "node", "id": 2274546176, "lat": 47.5320799, "lon": -122.0443433}, {"type": "node", "id": 2274546177, "lat": 47.5323335, "lon": -122.0436177}, {"type": "node", "id": 2274546178, "lat": 47.5323353, "lon": -122.0443419}, {"type": "node", "id": 2274554180, "lat": 47.5287484, "lon": -122.04128}, {"type": "node", "id": 2274554181, "lat": 47.5288042, "lon": -122.0414541}, {"type": "node", "id": 2274554184, "lat": 47.5290027, "lon": -122.0411014}, {"type": "node", "id": 2274554185, "lat": 47.5290119, "lon": -122.0413082}, {"type": "node", "id": 2274554187, "lat": 47.5290592, "lon": -122.0416551}, {"type": "node", "id": 2274554189, "lat": 47.5291268, "lon": -122.0413675}, {"type": "node", "id": 2274554190, "lat": 47.5292026, "lon": -122.0417292}, {"type": "node", "id": 2274554191, "lat": 47.5292703, "lon": -122.0414415}, {"type": "node", "id": 2274554192, "lat": 47.5293826, "lon": -122.0414995}, {"type": "node", "id": 2274554193, "lat": 47.5294842, "lon": -122.0413498}, {"type": "node", "id": 2274554194, "lat": 47.5294928, "lon": -122.0418433}, {"type": "node", "id": 2274554195, "lat": 47.5296148, "lon": -122.0417576}, {"type": "node", "id": 2276146263, "lat": 47.5307778, "lon": -122.0366778}, {"type": "node", "id": 2276146264, "lat": 47.5307801, "lon": -122.0369595}, {"type": "node", "id": 2276146265, "lat": 47.5307975, "lon": -122.0369592}, {"type": "node", "id": 2276146266, "lat": 47.5307975, "lon": -122.0369651}, {"type": "node", "id": 2276146273, "lat": 47.5309319, "lon": -122.0369552}, {"type": "node", "id": 2276146274, "lat": 47.530932, "lon": -122.0369627}, {"type": "node", "id": 2276146275, "lat": 47.5309452, "lon": -122.0366749}, {"type": "node", "id": 2276146276, "lat": 47.5309475, "lon": -122.0369549}, {"type": "node", "id": 2276146278, "lat": 47.5309464, "lon": -122.0368276}, {"type": "node", "id": 2276146279, "lat": 47.5310008, "lon": -122.0366588}, {"type": "node", "id": 2276146281, "lat": 47.5310021, "lon": -122.0368267}, {"type": "node", "id": 2276168012, "lat": 47.5305818, "lon": -122.0364045, "tags": {"addr:housenumber": "38", "addr:street": "Front Street North", "amenity": "bar", "check_date": "2025-01-19", "name": "El 42 Cantina", "opening_hours": "Tu-Th 16:00-23:00; Su-Mo 16:00-22:00; Fr-Sa 16:00-00:00"}}, {"type": "node", "id": 2276168015, "lat": 47.5308084, "lon": -122.0363793, "tags": {"addr:housenumber": "54", "addr:street": "Front Street North", "name": "Front Street Salon", "shop": "hairdresser"}}, {"type": "node", "id": 2276168020, "lat": 47.5308665, "lon": -122.0363669, "tags": {"addr:housenumber": "58", "addr:street": "Front Street North", "amenity": "restaurant", "cuisine": "barbecue", "internet_access": "wlan", "name": "Stan's BBQ", "opening_hours": "Mo-Sa 11:00-21:00; Su 11:00-20:00"}}, {"type": "node", "id": 2276170254, "lat": 47.5312742, "lon": -122.0363832, "tags": {"addr:housenumber": "96", "addr:street": "Front Street North", "amenity": "restaurant", "check_date": "2024-09-18", "cuisine": "ice_cream", "name": "No. 96 Brassiere", "outdoor_seating": "yes", "payment:cash": "no"}}, {"type": "node", "id": 2276170255, "lat": 47.5311019, "lon": -122.0363996, "tags": {"addr:housenumber": "80", "addr:street": "Front Street North", "amenity": "restaurant", "cuisine": "chinese", "name": "Krawbar", "note": "Currently closed", "outdoor_seating": "yes"}}, {"type": "node", "id": 2276170256, "lat": 47.5313303, "lon": -122.0363854, "tags": {"addr:city": "Issaquah", "addr:housenumber": "98", "addr:postcode": "98027", "addr:state": "WA", "addr:street": "Front Street North", "amenity": "fast_food", "brand": "Subway", "brand:wikidata": "Q244457", "cuisine": "sandwich", "name": "Subway", "opening_hours": "Mo-Fr 07:00-21:00; Sa 08:00-21:00; Su 09:00-21:00", "phone": "+1-425-392-2377", "takeaway": "yes", "website": "https://restaurants.subway.com/united-states/wa/issaquah/98-front-street"}}, {"type": "node", "id": 2276176113, "lat": 47.5316592, "lon": -122.0363852, "tags": {"addr:housenumber": "120", "addr:street": "Front Street North", "amenity": "theatre", "check_date": "2025-01-19", "name": "Village Theatre First Stage", "website": "https://villagetheatre.org/issaquah/kidstage-issaquah.php"}}, {"type": "node", "id": 2276176114, "lat": 47.5322061, "lon": -122.0363651, "tags": {"addr:housenumber": "172", "addr:street": "Front Street North", "amenity": "restaurant", "check_date": "2025-01-19", "cuisine": "american", "name": "Chicago Pastrami", "opening_hours": "Mo-Sa 11:00-20:00; Su 11:00-17:00", "toilets:wheelchair": "yes", "website": "http://www.chicagopastrami.com/", "wheelchair": "yes"}}, {"type": "node", "id": 2276176116, "lat": 47.5321661, "lon": -122.036361, "tags": {"addr:housenumber": "170", "addr:street": "Front Street", "brand": "American Automobile Association", "brand:wikidata": "Q463436", "name": "American Automobile Association", "shop": "travel_agency", "short_name": "AAA"}}, {"type": "node", "id": 2276183052, "lat": 47.5302262, "lon": -122.0356803}, {"type": "node", "id": 2276183054, "lat": 47.5302283, "lon": -122.035816}, {"type": "node", "id": 2276183056, "lat": 47.5304312, "lon": -122.0356649}, {"type": "node", "id": 2276183057, "lat": 47.5304523, "lon": -122.0356642}, {"type": "node", "id": 2276183058, "lat": 47.5304303, "lon": -122.0358026}, {"type": "node", "id": 2276193123, "lat": 47.5306822, "lon": -122.036736, "tags": {"addr:housenumber": "45", "addr:street": "Front Street North", "check_date": "2025-01-19", "name": "Edward Jones", "office": "insurance", "opening_hours": "Mo-Fr 07:30-16:00"}}, {"type": "node", "id": 2276193125, "lat": 47.5313144, "lon": -122.0366896, "tags": {"addr:housenumber": "99", "addr:street": "Front Street North", "amenity": "bar", "cuisine": "wine", "name": "Vino Bella", "opening_hours": "Mo-Th 14:30-21:30; Fr-Sa 14:30-00:00"}}, {"type": "node", "id": 2276193127, "lat": 47.5307519, "lon": -122.036735, "tags": {"addr:housenumber": "49", "addr:street": "Front Street North", "healthcare": "audiologist", "name": "Eastside Audiology & Hearing Services PS", "opening_hours": "Mo-Fr 08:00-17:00", "shop": "hearing_aids"}}, {"type": "node", "id": 2276193129, "lat": 47.5319564, "lon": -122.0366807, "tags": {"addr:housenumber": "149", "addr:street": "Front Street North", "check_date": "2025-01-19", "name": "Markiel's Hair Company", "phone": "+1-425-677-7071", "shop": "hairdresser"}}, {"type": "node", "id": 2276193130, "lat": 47.5316588, "lon": -122.036685, "tags": {"addr:housenumber": "121", "addr:street": "Front Street North", "alt_name": "Trek Bicycle Store", "branch": "Issaquah", "brand": "Trek", "brand:wikidata": "Q1067617", "name": "Trek Bicycle Issaquah", "opening_hours": "Mo-Fr 11:00-18:00; Sa 10:00-18:00; Su 11:00-17:00", "shop": "bicycle", "website": "https://www.trekbikes.com/us/en_US/retail/issaquah/"}}, {"type": "node", "id": 2276193131, "lat": 47.5310634, "lon": -122.036697, "tags": {"addr:housenumber": "85", "addr:street": "Front Street North", "name": "Fischer Meats", "opening_hours": "Mo-Sa 09:00-18:00", "shop": "butcher"}}, {"type": "node", "id": 2276193134, "lat": 47.5311883, "lon": -122.0366946, "tags": {"addr:housenumber": "91", "addr:street": "Front Street North", "amenity": "bar", "name": "H & H Saloon", "opening_hours": "Mo-Fr 13:00-02:00; Sa-Su 11:00-02:00"}}, {"type": "node", "id": 2276193135, "lat": 47.5312442, "lon": -122.0366935, "tags": {"addr:housenumber": "95", "addr:street": "Front Street North", "name": "Zen Gallery", "opening_hours": "Su 12:00-17:00; Mo 11:00-19:30; Tu-Th 11:00-20:00; Fr-Sa 12:00-17:00", "shop": "art"}}, {"type": "node", "id": 2276227285, "lat": 47.5308674, "lon": -122.0366762, "tags": {"entrance": "main"}}, {"type": "node", "id": 2276232452, "lat": 47.5321946, "lon": -122.0367016, "tags": {"addr:housenumber": "175", "addr:street": "Front Street", "amenity": "social_centre", "name": "Issaquah Eagles"}}, {"type": "node", "id": 2276232455, "lat": 47.5317662, "lon": -122.0366805, "tags": {"addr:city": "Issaquah", "addr:housenumber": "131", "addr:postcode": "98027", "addr:state": "WA", "addr:street": "Front Street North", "amenity": "restaurant", "check_date": "2025-05-25", "contact:email": "hello@maharajaindianrestaurants.com", "contact:instagram": "maharaja.cuisine", "contact:tiktok": "https://tiktok.com/@maharajacuisine", "contact:yelp": "https://yelp.com/biz/maharaja-cuisine-of-india-issaquah", "cuisine": "indian", "description:bn": "\u09ad\u09be\u09b0\u09a4\u09c0\u09af\u09bc \u09b0\u09c7\u09b8\u09cd\u09a4\u09cb\u09b0\u09be\u0981 \u09af\u09c7\u0996\u09be\u09a8\u09c7 \u09ae\u09be\u0996\u09a8 \u09ae\u09c1\u09b0\u0997\u09bf, \u09ad\u09c7\u09a1\u09bc\u09be\u09b0 \u09b0\u09cb\u0998\u09a8 \u099c\u09cb\u09b6 \u098f\u09ac\u0982 \u09b8\u09be\u0997 \u09aa\u09a8\u09bf\u09b0\u09c7\u09b0 \u09ae\u09a4\u09cb \u09a8\u09bf\u09b0\u09be\u09ae\u09bf\u09b7 \u0993 \u0986\u09ae\u09bf\u09b7 \u0996\u09be\u09ac\u09be\u09b0 \u09aa\u09be\u0993\u09af\u09bc\u09be \u09af\u09be\u09af\u09bc\u0964 \u09b8\u09aa\u09cd\u09a4\u09be\u09b9\u09be\u09a8\u09cd\u09a4\u09c7 \u09ac\u09be\u09ab\u09c7 \u09a6\u09c7\u0993\u09af\u09bc\u09be \u09b9\u09af\u09bc \u098f\u09ac\u0982 \u0996\u09be\u0993\u09af\u09bc\u09be \u0993 \u09aa\u09cd\u09af\u09be\u0995\u09c7\u099c \u0995\u09b0\u09be\u09b0 \u0989\u09ad\u09af\u09bc \u09ac\u09bf\u0995\u09b2\u09cd\u09aa\u0987 \u0989\u09aa\u09b2\u09ac\u09cd\u09a7\u0964", "description:en": "Indian restaurant with vegetarian and non-vegetarian dishes such as butter chicken, lamb rogan josh, and saag paneer. A buffet is offered on weekends, and options are available for both dine-in and takeout.", "description:gu": "\u0aad\u0abe\u0ab0\u0aa4\u0ac0\u0aaf \u0ab0\u0ac7\u0ab8\u0acd\u0a9f\u0acb\u0ab0\u0abe\u0a82 \u0a9c\u0ac7\u0aae\u0abe\u0a82 \u0aac\u0a9f\u0ab0 \u0a9a\u0abf\u0a95\u0aa8, \u0ab2\u0ac7\u0aae\u0acd\u0aac \u0ab0\u0acb\u0a97\u0aa8 \u0a9c\u0acb\u0ab7 \u0a85\u0aa8\u0ac7 \u0ab8\u0abe\u0a97 \u0aaa\u0aa8\u0ac0\u0ab0 \u0a9c\u0ac7\u0ab5\u0ac0 \u0ab6\u0abe\u0a95\u0abe\u0ab9\u0abe\u0ab0\u0ac0 \u0a85\u0aa8\u0ac7 \u0a85\u0ab6\u0abe\u0a95\u0abe\u0ab9\u0abe\u0ab0\u0ac0 \u0ab5\u0abe\u0aa8\u0a97\u0ac0\u0a93 \u0a89\u0aaa\u0ab2\u0aac\u0acd\u0aa7 \u0a9b\u0ac7. \u0a85\u0aa0\u0ab5\u0abe\u0aa1\u0abf\u0aaf\u0abe\u0aa8\u0abe \u0a85\u0a82\u0aa4\u0ac7 \u0aac\u0aab\u0ac7\u0aa8\u0ac0 \u0a93\u0aab\u0ab0 \u0a95\u0ab0\u0ab5\u0abe\u0aae\u0abe\u0a82 \u0a86\u0ab5\u0ac7 \u0a9b\u0ac7, \u0a85\u0aa8\u0ac7 \u0aa1\u0abe\u0a87\u0aa8-\u0a87\u0aa8 \u0a85\u0aa8\u0ac7 \u0a9f\u0ac7\u0a95\u0a86\u0a89\u0a9f \u0aac\u0a82\u0aa8\u0ac7 \u0aae\u0abe\u0a9f\u0ac7 \u0ab5\u0abf\u0a95\u0ab2\u0acd\u0aaa\u0acb \u0a89\u0aaa\u0ab2\u0aac\u0acd\u0aa7 \u0a9b\u0ac7.", "description:hi": "\u092d\u093e\u0930\u0924\u0940\u092f \u0930\u0947\u0938\u094d\u0924\u0930\u093e\u0902 \u091c\u093f\u0938\u092e\u0947\u0902 \u0936\u093e\u0915\u093e\u0939\u093e\u0930\u0940 \u0914\u0930 \u092e\u093e\u0902\u0938\u093e\u0939\u093e\u0930\u0940 \u0935\u094d\u092f\u0902\u091c\u0928 \u091c\u0948\u0938\u0947 \u092c\u091f\u0930 \u091a\u093f\u0915\u0928, \u0932\u0948\u092e\u094d\u092c \u0930\u094b\u0917\u0928 \u091c\u094b\u0936, \u0914\u0930 \u0938\u093e\u0917 \u092a\u0928\u0940\u0930 \u0936\u093e\u092e\u093f\u0932 \u0939\u0948\u0902\u0964 \u0938\u092a\u094d\u0924\u093e\u0939\u093e\u0902\u0924 \u092e\u0947\u0902 \u092c\u0941\u092b\u0947 \u0915\u0940 \u092a\u0947\u0936\u0915\u0936 \u0915\u0940 \u091c\u093e\u0924\u0940 \u0939\u0948, \u0914\u0930 \u092c\u0948\u0920\u0928\u0947 \u0914\u0930 \u091f\u0947\u0915\u0906\u0909\u091f \u0915\u0947 \u0932\u093f\u090f \u0935\u093f\u0915\u0932\u094d\u092a \u0909\u092a\u0932\u092c\u094d\u0927 \u0939\u0948\u0902\u0964", "description:pa": "\u0a2d\u0a4b\u0a1c\u0a28\u0a3e\u0a32\u0a3e \u0a1c\u0a3f\u0a38 \u0a35\u0a3f\u0a71\u0a1a \u0a38\u0a3c\u0a3e\u0a15\u0a3e\u0a39\u0a3e\u0a30\u0a40 \u0a05\u0a24\u0a47 \u0a05\u0a38\u0a3c\u0a3e\u0a15\u0a3e\u0a39\u0a3e\u0a30\u0a40 \u0a16\u0a3e\u0a23\u0a47 \u0a39\u0a28 \u0a1c\u0a3f\u0a35\u0a47\u0a02 \u0a15\u0a3f \u0a2c\u0a1f\u0a30 \u0a1a\u0a3f\u0a15\u0a28, \u0a32\u0a48\u0a02\u0a2c \u0a30\u0a4b\u0a17\u0a28 \u0a1c\u0a4b\u0a38\u0a3c, \u0a05\u0a24\u0a47 \u0a38\u0a3e\u0a17 \u0a2a\u0a28\u0a40\u0a30\u0964 \u0a39\u0a2b\u0a3c\u0a24\u0a47 \u0a26\u0a47 \u0a05\u0a16\u0a40\u0a30 '\u0a24\u0a47 \u0a2c\u0a2b\u0a47 \u0a26\u0a40 \u0a2a\u0a47\u0a38\u0a3c\u0a15\u0a38\u0a3c \u0a15\u0a40\u0a24\u0a40 \u0a1c\u0a3e\u0a02\u0a26\u0a40 \u0a39\u0a48, \u0a05\u0a24\u0a47 \u0a26\u0a3f\u0a28 \u0a35\u0a3f\u0a71\u0a1a \u0a16\u0a3e\u0a23\u0a47 \u0a05\u0a24\u0a47 \u0a1f\u0a47\u0a15\u0a06\u0a09\u0a1f \u0a32\u0a08 \u0a35\u0a3f\u0a15\u0a32\u0a2a \u0a09\u0a2a\u0a32\u0a2c\u0a27 \u0a39\u0a28\u0964", "description:ta": "\u0b87\u0ba8\u0bcd\u0ba4\u0bbf\u0baf \u0b89\u0ba3\u0bb5\u0b95\u0bae\u0bcd, \u0bb5\u0bc6\u0b9c\u0bbf\u0b9f\u0bc7\u0bb0\u0bbf\u0baf\u0ba9\u0bcd \u0bae\u0bb1\u0bcd\u0bb1\u0bc1\u0bae\u0bcd \u0b85\u0b9a\u0bc8\u0bb5 \u0b89\u0ba3\u0bb5\u0bc1\u0b95\u0bb3\u0bcd, \u0baa\u0b9f\u0bcd\u0b9f\u0bb0\u0bcd \u0b9a\u0bbf\u0b95\u0bcd\u0b95\u0ba9\u0bcd, \u0b86\u0b9f\u0bcd\u0b9f\u0bc1\u0b95\u0bcd\u0b95\u0bcb\u0bb4\u0bbf \u0bb0\u0bcb\u0b95\u0ba9\u0bcd \u0b9c\u0bcb\u0bb7\u0bcd \u0bae\u0bb1\u0bcd\u0bb1\u0bc1\u0bae\u0bcd \u0b9a\u0bbe\u0b95\u0bcd \u0baa\u0ba9\u0bc0\u0bb0\u0bcd \u0baa\u0bcb\u0ba9\u0bcd\u0bb1\u0bb5\u0bc8 \u0b89\u0bb3\u0bcd\u0bb3\u0ba9. \u0bb5\u0bbe\u0bb0 \u0b87\u0bb1\u0bc1\u0ba4\u0bbf\u0baf\u0bbf\u0bb2\u0bcd \u0baa\u0b83\u0baa\u0bc7\u0b9f\u0bcd \u0bb5\u0bb4\u0b99\u0bcd\u0b95\u0baa\u0bcd\u0baa\u0b9f\u0bc1\u0b95\u0bbf\u0bb1\u0ba4\u0bc1, \u0bae\u0bb1\u0bcd\u0bb1\u0bc1\u0bae\u0bcd \u0b89\u0bb3\u0bcd\u0bb3\u0bc7 \u0b89\u0ba3\u0bb5\u0bbf\u0bb1\u0bcd\u0b95\u0bc1\u0bae\u0bcd, \u0b8e\u0b9f\u0bc1\u0ba4\u0bcd\u0ba4\u0bc1\u0b9a\u0bcd \u0b9a\u0bc6\u0bb2\u0bcd\u0bb2\u0bb5\u0bc1\u0bae\u0bcd \u0bb5\u0bbf\u0bb0\u0bc1\u0baa\u0bcd\u0baa\u0b99\u0bcd\u0b95\u0bb3\u0bcd \u0b89\u0bb3\u0bcd\u0bb3\u0ba9.", "description:te": "\u0c2d\u0c3e\u0c30\u0c24\u0c40\u0c2f \u0c30\u0c46\u0c38\u0c4d\u0c1f\u0c3e\u0c30\u0c46\u0c02\u0c1f\u0c4d, \u0c2c\u0c1f\u0c30\u0c4d \u0c1a\u0c3f\u0c15\u0c46\u0c28\u0c4d, \u0c32\u0c3e\u0c02\u0c2c\u0c4d \u0c30\u0c4b\u0c17\u0c28\u0c4d \u0c1c\u0c4b\u0c37\u0c4d \u0c2e\u0c30\u0c3f\u0c2f\u0c41 \u0c38\u0c3e\u0c17\u0c4d \u0c2a\u0c28\u0c40\u0c30\u0c4d \u0c35\u0c02\u0c1f\u0c3f \u0c36\u0c3e\u0c15\u0c3e\u0c39\u0c3e\u0c30 \u0c2e\u0c30\u0c3f\u0c2f\u0c41 \u0c05\u0c36\u0c3e\u0c15\u0c3e\u0c39\u0c3e\u0c30 \u0c35\u0c02\u0c1f\u0c15\u0c3e\u0c32\u0c41 \u0c09\u0c28\u0c4d\u0c28\u0c3e\u0c2f\u0c3f. \u0c35\u0c3e\u0c30\u0c3e\u0c02\u0c24\u0c3e\u0c32\u0c4d\u0c32\u0c4b \u0c2c\u0c2b\u0c47 \u0c05\u0c02\u0c26\u0c3f\u0c02\u0c1a\u0c2c\u0c21\u0c41\u0c24\u0c41\u0c02\u0c26\u0c3f, \u0c2e\u0c30\u0c3f\u0c2f\u0c41 \u0c21\u0c48\u0c28\u0c4d-\u0c07\u0c28\u0c4d \u0c2e\u0c30\u0c3f\u0c2f\u0c41 \u0c1f\u0c47\u0c15\u0c4d \u0c05\u0c35\u0c41\u0c1f\u0c4d \u0c15\u0c4b\u0c38\u0c02 \u0c0e\u0c02\u0c2a\u0c3f\u0c15\u0c32\u0c41 \u0c05\u0c02\u0c26\u0c41\u0c2c\u0c3e\u0c1f\u0c41\u0c32\u0c4b \u0c09\u0c28\u0c4d\u0c28\u0c3e\u0c2f\u0c3f.", "description:ur": "\u06c1\u0646\u062f\u0648\u0633\u062a\u0627\u0646\u06cc \u0631\u06cc\u0633\u062a\u0648\u0631\u0627\u0646 \u062c\u0633 \u0645\u06cc\u06ba \u0633\u0628\u0632\u06cc \u062e\u0648\u0631 \u0627\u0648\u0631 \u063a\u06cc\u0631 \u0633\u0628\u0632\u06cc \u062e\u0648\u0631 \u067e\u06a9\u0648\u0627\u0646 \u0634\u0627\u0645\u0644 \u06c1\u06cc\u06ba \u062c\u06cc\u0633\u06d2 \u06a9\u06c1 \u0645\u06a9\u06be\u0646 \u0686\u06a9\u0646\u060c \u0628\u06be\u06cc\u0691 \u06a9\u0627 \u0631\u0648\u06af\u0646 \u062c\u0648\u0634\u060c \u0627\u0648\u0631 \u0633\u0627\u06af \u067e\u0646\u06cc\u0631\u06d4 \u06c1\u0641\u062a\u06d2 \u06a9\u06d2 \u0622\u062e\u0631 \u0645\u06cc\u06ba \u0628\u0648\u0641\u06d2 \u06a9\u06cc \u067e\u06cc\u0634\u06a9\u0634 \u06a9\u06cc \u062c\u0627\u062a\u06cc \u06c1\u06d2\u060c \u0627\u0648\u0631 \u06a9\u06be\u0627\u0646\u06d2 \u06a9\u06d2 \u0644\u06cc\u06d2 \u0628\u06cc\u0679\u06be\u0646\u06d2 \u0627\u0648\u0631 \u0679\u06cc\u06a9 \u0622\u0624\u0679 \u06a9\u06d2 \u0644\u06cc\u06d2 \u0627\u062e\u062a\u06cc\u0627\u0631\u0627\u062a \u062f\u0633\u062a\u06cc\u0627\u0628 \u06c1\u06cc\u06ba\u06d4", "diet:vegan": "yes", "diet:vegetarian": "yes", "lunch:buffet": "Sa-Su 11:30-15:00", "name": "Maharaja Cuisine Of India", "opening_hours": "Mo-Th 11:00-23:00; Fr-Su 11:00-24:00", "opening_hours:buffet": "Sa-Su 11:30-15:00", "phone": "+1-425-677-8464", "takeaway": "yes", "website": "https://maharajaindianrestaurants.com/issaquah", "website:order": "https://order.toasttab.com/online/maharaja-131-front-st/item-gobi-manchurian_dfa14975-8a49-43ea-a930-fe10f8429a13"}}, {"type": "node", "id": 2276392392, "lat": 47.530407, "lon": -122.0358034}, {"type": "node", "id": 2276392393, "lat": 47.5289901, "lon": -122.0352264, "tags": {"addr:housenumber": "88", "addr:postcode": "98027", "addr:street": "Front Street South", "contact:email": "info@capricellars.com", "contact:facebook": "https://www.facebook.com/capricellars", "contact:instagram": "https://www.instagram.com/capricellars", "contact:phone": "+1-425-369-4289", "contact:yelp": "https://www.yelp.com/biz/capri-cellars-issaquah", "name": "Capri Cellars", "shop": "wine", "website": "https://www.capricellars.com/"}}, {"type": "node", "id": 2276392394, "lat": 47.5300477, "lon": -122.035785, "tags": {"amenity": "post_box", "collection_times": "Mo-Fr 17:00; Sa 15:00", "operator": "United States Postal Service", "operator:short": "USPS", "operator:type": "public", "operator:website": "https://www.usps.com", "operator:wikidata": "Q668687", "operator:wikipedia": "en:United States Postal Service", "short_name": "USPS"}}, {"type": "node", "id": 2276392396, "lat": 47.5298944, "lon": -122.035291, "tags": {"addr:housenumber": "20", "addr:street": "Front Street South", "amenity": "pub", "check_date": "2025-07-18", "contact:phone": "+1-425-391-8395", "name": "Sunset Alehouse", "outdoor_seating": "yes", "toilets:wheelchair": "yes", "website": "https://sunsetalehouse.com/", "wheelchair": "yes"}}, {"type": "node", "id": 2276392397, "lat": 47.5291373, "lon": -122.0363606}, {"type": "node", "id": 2276392400, "lat": 47.5296426, "lon": -122.035477, "tags": {"addr:housenumber": "70", "addr:postcode": "98027", "addr:street": "Front Street South", "check_date": "2025-07-18", "contact:yelp": "https://www.yelp.com/biz/stylish-nails-issaquah", "name": "Stylish Nails", "phone": "+1-425-557-8872", "shop": "beauty"}}, {"type": "node", "id": 2276392402, "lat": 47.5296922, "lon": -122.0354665, "tags": {"addr:housenumber": "60", "addr:street": "Front Street South", "check_date": "2025-07-18", "name": "Studio 8 Hair Design", "opening_hours": "Tu-Sa 09:30-19:00", "phone": "+1-425-392-2210", "shop": "hairdresser"}}, {"type": "node", "id": 2276392404, "lat": 47.5302324, "lon": -122.0360633, "tags": {"addr:city": "Issaquah", "addr:housenumber": "28", "addr:state": "WA", "addr:street": "East Sunset Way", "amenity": "restaurant", "cuisine": "chinese", "name": "Macky's Dim Sum", "outdoor_seating": "yes", "phone": "+1-425-392-5678"}}, {"type": "node", "id": 2276392408, "lat": 47.5290019, "lon": -122.0357995, "tags": {"addr:housenumber": "96", "addr:postcode": "98027", "addr:street": "Front Street South", "check_date": "2025-07-18", "contact:email": "accounting@superiorseconds.org", "contact:phone": "+1-425-654-4340", "name": "Superior Seconds", "opening_hours": "Mo-Th 10:00-19:00; Fr-Sa 10:00-20:00; Su 11:00-17:00", "shop": "sports", "website": "http://www.superiorseconds.org/"}}, {"type": "node", "id": 2276392410, "lat": 47.5297456, "lon": -122.0354722, "tags": {"addr:housenumber": "50", "addr:street": "Front Street South", "check_date": "2024-02-17", "name": "Issaquah Cleaners", "opening_hours": "Mo-Fr 07:00-19:00; Sa 09:00-17:00", "shop": "dry_cleaning"}}, {"type": "node", "id": 2276392412, "lat": 47.5297818, "lon": -122.0352094, "tags": {"addr:housenumber": "40", "amenity": "dojo", "check_date": "2025-07-18", "name": "Infinite Taekwondo"}}, {"type": "node", "id": 2276392415, "lat": 47.5289866, "lon": -122.0356639, "tags": {"addr:housenumber": "94", "addr:street": "Front Street South", "check_date": "2024-02-17", "name": "Issaquah Furniture", "opening_hours": "Mo-Fr 11:00-18:00; Sa 10:00-18:00; Su 12:00-17:00", "shop": "furniture"}}, {"type": "node", "id": 2276392416, "lat": 47.5302347, "lon": -122.0354914, "tags": {"addr:housenumber": "68", "addr:street": "East Sunset Way", "name": "Mint Salon & Spa", "phone": "+1-425-392-3367", "shop": "beauty", "website": "https://www.mintissaquah.com/"}}, {"type": "node", "id": 2276392418, "lat": 47.529839, "lon": -122.0352207, "tags": {"addr:housenumber": "30", "addr:street": "Front Street South", "amenity": "restaurant", "check_date": "2025-07-18", "contact:email": "flyingpiepizzeria@gmail.com", "contact:facebook": "http://www.facebook.com/pages/Flying-Pie-Pizzeria/170471106370834", "contact:instagram": "https://www.instagram.com/flyingpiepizzeria/", "contact:tripadvisor": "https://www.tripadvisor.com/Restaurant_Review-g58528-d463631-Reviews-Flying_Pie_Pizzeria-Issaquah_Washington.html", "contact:twitter": "https://twitter.com/FlyingPieIss", "cuisine": "pizza", "name": "Flying Pie Pizzeria", "opening_hours": "Su, Tu-Th 11:00-21:00; Fr-Sa 11:00-22:00", "phone": "+1-425-391-2407", "website": "https://www.flyingpiepizzeria.com/"}}, {"type": "node", "id": 2276392419, "lat": 47.5294973, "lon": -122.0367089}, {"type": "node", "id": 2276393179, "lat": 47.5294995, "lon": -122.0369612}, {"type": "node", "id": 2276393180, "lat": 47.5295093, "lon": -122.036961}, {"type": "node", "id": 2276393181, "lat": 47.5295096, "lon": -122.0369986}, {"type": "node", "id": 2276393182, "lat": 47.5295941, "lon": -122.0369688}, {"type": "node", "id": 2276393183, "lat": 47.5295943, "lon": -122.036997}, {"type": "node", "id": 2276393184, "lat": 47.5296013, "lon": -122.0367069}, {"type": "node", "id": 2276393185, "lat": 47.5296036, "lon": -122.0369687}, {"type": "node", "id": 2313966660, "lat": 47.5297393, "lon": -122.0389287}, {"type": "node", "id": 2313966661, "lat": 47.5294846, "lon": -122.0383014}, {"type": "node", "id": 2313966662, "lat": 47.5293992, "lon": -122.0383776}, {"type": "node", "id": 2313966663, "lat": 47.5296542, "lon": -122.0390046}, {"type": "node", "id": 2313966664, "lat": 47.5300963, "lon": -122.0390992}, {"type": "node", "id": 2313966665, "lat": 47.5300892, "lon": -122.0387172}, {"type": "node", "id": 2313966666, "lat": 47.5298458, "lon": -122.0388738}, {"type": "node", "id": 2313966667, "lat": 47.5298574, "lon": -122.0391108}, {"type": "node", "id": 2313966725, "lat": 47.5305566, "lon": -122.0380358}, {"type": "node", "id": 2313966726, "lat": 47.5305467, "lon": -122.037456}, {"type": "node", "id": 2313966727, "lat": 47.5302316, "lon": -122.0374678}, {"type": "node", "id": 2313966728, "lat": 47.5302415, "lon": -122.0380476}, {"type": "node", "id": 2313966734, "lat": 47.5320241, "lon": -122.0359241}, {"type": "node", "id": 2313966735, "lat": 47.5325384, "lon": -122.0359666}, {"type": "node", "id": 2313966736, "lat": 47.5317965, "lon": -122.0356755}, {"type": "node", "id": 2313966738, "lat": 47.5307466, "lon": -122.0352645}, {"type": "node", "id": 2313966739, "lat": 47.5307657, "lon": -122.0350732}, {"type": "node", "id": 2313966740, "lat": 47.5309071, "lon": -122.0351141}, {"type": "node", "id": 2313966741, "lat": 47.5308873, "lon": -122.0347492}, {"type": "node", "id": 2313966742, "lat": 47.5305909, "lon": -122.0346662}, {"type": "node", "id": 2313966743, "lat": 47.5304542, "lon": -122.0347869}, {"type": "node", "id": 2313966744, "lat": 47.5304759, "lon": -122.0349921}, {"type": "node", "id": 2313966745, "lat": 47.5306365, "lon": -122.0350431}, {"type": "node", "id": 2313966746, "lat": 47.5306172, "lon": -122.0351607}, {"type": "node", "id": 2313966747, "lat": 47.5302917, "lon": -122.0350379}, {"type": "node", "id": 2313966748, "lat": 47.5302623, "lon": -122.0352604}, {"type": "node", "id": 2313966750, "lat": 47.5306274, "lon": -122.0359998}, {"type": "node", "id": 2313966751, "lat": 47.5309049, "lon": -122.0359955}, {"type": "node", "id": 2313966752, "lat": 47.5309053, "lon": -122.0359413}, {"type": "node", "id": 2313966753, "lat": 47.5315727, "lon": -122.0358204}, {"type": "node", "id": 2313966754, "lat": 47.5318539, "lon": -122.0358758}, {"type": "node", "id": 2313966755, "lat": 47.5300355, "lon": -122.0358787}, {"type": "node", "id": 2313966756, "lat": 47.530028, "lon": -122.0354048}, {"type": "node", "id": 2313966757, "lat": 47.5297803, "lon": -122.0354134}, {"type": "node", "id": 2313966758, "lat": 47.5297838, "lon": -122.035633}, {"type": "node", "id": 2313966759, "lat": 47.5292347, "lon": -122.035652}, {"type": "node", "id": 2313966760, "lat": 47.5292249, "lon": -122.0350309}, {"type": "node", "id": 2313966761, "lat": 47.5290781, "lon": -122.035036}, {"type": "node", "id": 2313966762, "lat": 47.5290986, "lon": -122.0363316}, {"type": "node", "id": 2313966763, "lat": 47.5292449, "lon": -122.0363265}, {"type": "node", "id": 2313966764, "lat": 47.5292471, "lon": -122.0364661}, {"type": "node", "id": 2313966765, "lat": 47.5297082, "lon": -122.0364501}, {"type": "node", "id": 2313966766, "lat": 47.5296993, "lon": -122.0358904}, {"type": "node", "id": 2313966771, "lat": 47.5273598, "lon": -122.0349526}, {"type": "node", "id": 2313966772, "lat": 47.5271579, "lon": -122.034961}, {"type": "node", "id": 2313966773, "lat": 47.5270537, "lon": -122.0351348}, {"type": "node", "id": 2313966774, "lat": 47.5270147, "lon": -122.0351671}, {"type": "node", "id": 2313966775, "lat": 47.5269123, "lon": -122.0352745}, {"type": "node", "id": 2313966779, "lat": 47.5275072, "lon": -122.0354535}, {"type": "node", "id": 2313966788, "lat": 47.5282534, "lon": -122.0341882}, {"type": "node", "id": 2313966790, "lat": 47.5267233, "lon": -122.0332174}, {"type": "node", "id": 2313966791, "lat": 47.5266661, "lon": -122.0335121}, {"type": "node", "id": 2313966792, "lat": 47.5299723, "lon": -122.0350132}, {"type": "node", "id": 2313966793, "lat": 47.5299722, "lon": -122.0349173}, {"type": "node", "id": 2313966794, "lat": 47.5295787, "lon": -122.0347724}, {"type": "node", "id": 2313966795, "lat": 47.5295643, "lon": -122.0348583}, {"type": "node", "id": 2576244114, "lat": 47.5269632, "lon": -122.0351934}, {"type": "node", "id": 2576244115, "lat": 47.5269803, "lon": -122.0354635}, {"type": "node", "id": 2576244118, "lat": 47.5274762, "lon": -122.0351391}, {"type": "node", "id": 2576244125, "lat": 47.5269133, "lon": -122.0354811}, {"type": "node", "id": 2576244127, "lat": 47.5274205, "lon": -122.0350704}, {"type": "node", "id": 2576244134, "lat": 47.5269118, "lon": -122.035167}, {"type": "node", "id": 2576244136, "lat": 47.5271235, "lon": -122.035064}, {"type": "node", "id": 2576244139, "lat": 47.5270888, "lon": -122.0351018}, {"type": "node", "id": 2576244140, "lat": 47.5274118, "lon": -122.0350207}, {"type": "node", "id": 2649019821, "lat": 47.5270368, "lon": -122.0354631}, {"type": "node", "id": 2649019835, "lat": 47.526937, "lon": -122.035192}, {"type": "node", "id": 2649019928, "lat": 47.531616, "lon": -122.0356684}, {"type": "node", "id": 2649019968, "lat": 47.5309667, "lon": -122.0350713}, {"type": "node", "id": 2649019970, "lat": 47.5309922, "lon": -122.0349408}, {"type": "node", "id": 2649019971, "lat": 47.5309429, "lon": -122.034916}, {"type": "node", "id": 2649019972, "lat": 47.5309256, "lon": -122.035052}, {"type": "node", "id": 2649019995, "lat": 47.530513, "lon": -122.0347909}, {"type": "node", "id": 2649019998, "lat": 47.5304677, "lon": -122.0349679}, {"type": "node", "id": 2649058551, "lat": 47.5283106, "lon": -122.0338939}, {"type": "node", "id": 2649058557, "lat": 47.526695, "lon": -122.0333631}, {"type": "node", "id": 3802958575, "lat": 47.5229527, "lon": -122.0566366}, {"type": "node", "id": 3802958576, "lat": 47.5229489, "lon": -122.0577746}, {"type": "node", "id": 3802958577, "lat": 47.523027, "lon": -122.0579057}, {"type": "node", "id": 3802958583, "lat": 47.5230812, "lon": -122.0578913}, {"type": "node", "id": 3802958584, "lat": 47.5230669, "lon": -122.0579164}, {"type": "node", "id": 3802958585, "lat": 47.5229725, "lon": -122.0578631}, {"type": "node", "id": 3802958586, "lat": 47.5230984, "lon": -122.0578618}, {"type": "node", "id": 3802958587, "lat": 47.5230868, "lon": -122.0577971}, {"type": "node", "id": 3802958588, "lat": 47.5230812, "lon": -122.0577156}, {"type": "node", "id": 3802958589, "lat": 47.5230705, "lon": -122.0576093}, {"type": "node", "id": 3802958590, "lat": 47.5230096, "lon": -122.0570944}, {"type": "node", "id": 3803062778, "lat": 47.5285357, "lon": -122.0347556}, {"type": "node", "id": 3803062784, "lat": 47.529065, "lon": -122.0343151}, {"type": "node", "id": 3803062787, "lat": 47.52847, "lon": -122.0340634}, {"type": "node", "id": 3803062789, "lat": 47.5286606, "lon": -122.0347448}, {"type": "node", "id": 3803062791, "lat": 47.5291334, "lon": -122.0347072}, {"type": "node", "id": 3803062793, "lat": 47.5287354, "lon": -122.0346713}, {"type": "node", "id": 3803062796, "lat": 47.5285837, "lon": -122.0347462}, {"type": "node", "id": 3803062798, "lat": 47.5284941, "lon": -122.0346761}, {"type": "node", "id": 3803062806, "lat": 47.5289427, "lon": -122.0345995}, {"type": "node", "id": 3803062810, "lat": 47.5288834, "lon": -122.0346805}, {"type": "node", "id": 3803062811, "lat": 47.5288729, "lon": -122.0345964}, {"type": "node", "id": 3803062813, "lat": 47.5290724, "lon": -122.0346299}, {"type": "node", "id": 3803062814, "lat": 47.5290265, "lon": -122.0346858}, {"type": "node", "id": 3803062816, "lat": 47.5285169, "lon": -122.0341598}, {"type": "node", "id": 3803062817, "lat": 47.5287702, "lon": -122.0347328}, {"type": "node", "id": 4265220189, "lat": 47.5298039, "lon": -122.0360706, "tags": {"brand": "Jacksons", "brand:wikidata": "Q64617393", "check_date": "2025-01-19", "name": "Jacksons", "opening_hours": "24/7", "payment:cash": "yes", "payment:credit_cards": "yes", "payment:debit_cards": "yes", "shop": "convenience"}}, {"type": "node", "id": 4265344373, "lat": 47.5286811, "lon": -122.034935, "tags": {"addr:city": "Issaquah", "addr:housenumber": "179", "addr:postcode": "98027", "addr:state": "WA", "addr:street": "1st Avenue Southeast", "amenity": "social_facility", "name": "Issaquah Food & Clothing Bank", "opening_hours": "Mo-Fr 08:00-16:00", "phone": "+1-425-392-4123", "social_facility": "food_bank", "website": "https://issaquahfoodbank.org/"}}, {"type": "node", "id": 4265344374, "lat": 47.5284949, "lon": -122.035281, "tags": {"addr:housenumber": "80", "addr:street": "Southeast Bush Street", "amenity": "cafe", "cuisine": "asian", "name": "Spa Chi", "phone": "+1-425-278-1288", "website": "https://www.thespachi.com/"}}, {"type": "node", "id": 4265348499, "lat": 47.5284967, "lon": -122.0345722, "tags": {"addr:housenumber": "110", "name": "Issaquah Trail Center", "office": "association"}}, {"type": "node", "id": 4265465790, "lat": 47.5289966, "lon": -122.0361617, "tags": {"addr:city": "Issaquah", "addr:housenumber": "100", "addr:postcode": "98027", "addr:state": "WA", "addr:street": "Front Street South", "air_conditioning": "yes", "amenity": "restaurant", "changing_table": "yes", "contact:facebook": "https://www.facebook.com/KhaoSanThaiCuisine/", "cuisine": "thai", "delivery": "yes", "highchair": "yes", "internet_access": "yes", "level": "0", "name": "Khao San Thai Cuisine", "official_name": "Khao San Thai Cuisine", "opening_hours": "Mo-Fr 11:00-15:00 & 16:30-21:00; Sa-Su 11:00-21:00", "outdoor_seating": "yes", "payment:american_express": "yes", "payment:apple_pay": "yes", "payment:cash": "yes", "payment:contactless": "yes", "payment:credit_cards": "yes", "payment:debit_cards": "yes", "payment:google_pay": "yes", "phone": "+1-425-651-8138", "smoking": "no", "takeaway": "yes", "toilets": "yes", "toilets:wheelchair": "yes", "website": "https://www.khaosan-issaquah.com/", "website:menu": "https://khaosan-issaquah.com/menu", "wheelchair": "yes"}}, {"type": "node", "id": 4265482490, "lat": 47.5302319, "lon": -122.0354234, "tags": {"addr:housenumber": "70", "addr:street": "East Sunset Way", "check_date": "2024-11-09", "name": "One Hour Device Repair", "opening_hours": "Mo-Sa 10:00-20:00", "shop": "mobile_phone"}}, {"type": "node", "id": 4265482590, "lat": 47.5298874, "lon": -122.0367943, "tags": {"check_date": "2024-02-17", "name": "Kenyon Disend, PLLC", "office": "lawyer"}}, {"type": "node", "id": 4265482689, "lat": 47.5307616, "lon": -122.037705, "tags": {"brand": "NAPA Auto Parts", "brand:wikidata": "Q6970842", "name": "NAPA Auto Parts", "opening_hours": "Mo-Fr 07:00-18:00; Sa 08:00-18:00; Su 09:00-17:00", "shop": "car_parts", "wheelchair": "yes"}}, {"type": "node", "id": 4265482691, "lat": 47.5314573, "lon": -122.0366554}, {"type": "node", "id": 4265487989, "lat": 47.531874, "lon": -122.0366806, "tags": {"addr:housenumber": "147", "addr:street": "Front Street North", "name": "Glamourlash Spa", "opening_hours": "Mo-Fr 09:30-19:00; Sa 09:00-18:00; Su 11:00-17:00", "phone": "+1-206-567-2000", "shop": "beauty"}}, {"type": "node", "id": 4265488089, "lat": 47.5322656, "lon": -122.0366643, "tags": {"addr:housenumber": "185", "addr:street": "Front Street", "amenity": "restaurant", "check_date": "2024-08-03", "level": "0", "name": "Levitate Gastropub"}}, {"type": "node", "id": 4265492189, "lat": 47.5329133, "lon": -122.0366841, "tags": {"amenity": "restaurant", "check_date": "2023-09-15", "cuisine": "seafood", "name": "Fins Bistro", "opening_hours": "Tu-Sa 16:00-20:00"}}, {"type": "node", "id": 4265492190, "lat": 47.5336253, "lon": -122.0369809, "tags": {"name": "Moss Adams LLP", "office": "lawyer"}}, {"type": "node", "id": 4265492191, "lat": 47.5336747, "lon": -122.0378674, "tags": {"name": "Studio Trend Hair Design", "opening_hours": "Tu,We,Fr 10:30-18:00; Th 11:00-17:00; Sa 10:00-16:00", "shop": "hairdresser"}}, {"type": "node", "id": 4265492389, "lat": 47.5330994, "lon": -122.0366405, "tags": {"amenity": "atm", "opening_hours": "24/7", "operator": "Opus Bank"}}, {"type": "node", "id": 4265492689, "lat": 47.5339003, "lon": -122.0370759, "tags": {"books": "religion", "brand": "Christian Science Reading Room", "brand:wikidata": "Q5110122", "name": "Christian Science Reading Room", "shop": "books"}}, {"type": "node", "id": 4265492789, "lat": 47.5336768, "lon": -122.0374285, "tags": {"amenity": "doctors", "healthcare": "doctor", "name": "Centered Mind Counseling"}}, {"type": "node", "id": 4265492791, "lat": 47.5343748, "lon": -122.03655, "tags": {"amenity": "post_box", "collection_times": "Mo-Fr 17:00; Sa 15:00", "operator": "United States Postal Service", "operator:short": "USPS", "operator:type": "public", "operator:website": "https://www.usps.com", "operator:wikidata": "Q668687", "operator:wikipedia": "en:United States Postal Service", "short_name": "USPS"}}, {"type": "node", "id": 4265492794, "lat": 47.5312097, "lon": -122.0363865, "tags": {"addr:housenumber": "94", "addr:street": "Front Street North", "name": "Glam Wax Boutique", "shop": "beauty"}}, {"type": "node", "id": 4265492989, "lat": 47.5340301, "lon": -122.0379123, "tags": {"name": "Authority Real Estate", "office": "estate_agent"}}, {"type": "node", "id": 4265502190, "lat": 47.532679, "lon": -122.0363531, "tags": {"addr:housenumber": "220", "addr:street": "Front Street North", "amenity": "restaurant", "cuisine": "japanese;sushi;asian", "name": "Japan Ginger Teriyaki & Sushi Bar", "opening_hours": "Mo-Sa 11:00-21:00; Su 11:00-18:30"}}, {"type": "node", "id": 4265502389, "lat": 47.5325061, "lon": -122.0363619, "tags": {"addr:housenumber": "206", "addr:street": "Front Street", "amenity": "dentist", "healthcare": "dentist", "name": "Perkins Dentistry"}}, {"type": "node", "id": 4265502390, "lat": 47.5315101, "lon": -122.036218, "tags": {"addr:housenumber": "10", "addr:street": "Northeast Alder Street", "name": "Bella Cher\u00ed Salon", "shop": "hairdresser", "website": "https://www.bellacheri.com"}}, {"type": "node", "id": 4265510789, "lat": 47.5304367, "lon": -122.0356237}, {"type": "node", "id": 4269272941, "lat": 47.5306818, "lon": -122.0383523, "tags": {"name": "AMG", "office": "company"}}, {"type": "node", "id": 4269272942, "lat": 47.5324511, "lon": -122.0366671, "tags": {"level": "0", "name": "Art by Fire Gallery & Glass School", "shop": "art"}}, {"type": "node", "id": 4269272954, "lat": 47.5302468, "lon": -122.0356045, "tags": {"addr:city": "Issaquah", "addr:housenumber": "58", "addr:state": "WA", "addr:street": "East Sunset Way", "name": "Apex Insurance Managers", "office": "insurance"}}, {"type": "node", "id": 4269272958, "lat": 47.5323752, "lon": -122.0366668, "tags": {"level": "0", "name": "Experience Tea", "shop": "tea"}}, {"type": "node", "id": 4269272964, "lat": 47.5324538, "lon": -122.0367566, "tags": {"amenity": "school", "level": "1", "name": "Kaleidoscope Rock Academy"}}, {"type": "node", "id": 4269272966, "lat": 47.5324542, "lon": -122.0368401, "tags": {"amenity": "school", "level": "1", "name": "Kaleidoscope School of Music"}}, {"type": "node", "id": 4269272967, "lat": 47.5320932, "lon": -122.0366681, "tags": {"addr:housenumber": "165", "addr:street": "Front Street North", "name": "BooginHead", "shop": "baby_goods"}}, {"type": "node", "id": 4269272969, "lat": 47.5307347, "lon": -122.03641, "tags": {"addr:city": "Issaquah", "addr:housenumber": "48", "addr:state": "WA", "addr:street": "Front Street North", "name": "Naturopathic Clinic of Issaquah", "shop": "nutrition_supplements"}}, {"type": "node", "id": 4269272973, "lat": 47.5294141, "lon": -122.0370126, "tags": {"addr:housenumber": "75", "name": "Psychic of Issaquah", "shop": "yes"}}, {"type": "node", "id": 4269272981, "lat": 47.5348225, "lon": -122.0367229, "tags": {"name": "The 6 Day Mattress", "shop": "bed"}}, {"type": "node", "id": 4269272984, "lat": 47.5323769, "lon": -122.0367561, "tags": {"level": "0", "name": "Troy Salon", "shop": "hairdresser"}}, {"type": "node", "id": 4269272985, "lat": 47.5338967, "lon": -122.037942, "tags": {"name": "Vipond Group Real Estate Consultancy", "office": "estate_agent"}}, {"type": "node", "id": 4269272986, "lat": 47.5338994, "lon": -122.0378763, "tags": {"name": "Western America Real Estate", "office": "estate_agent"}}, {"type": "node", "id": 4269273065, "lat": 47.5290903, "lon": -122.0344023}, {"type": "node", "id": 4269273067, "lat": 47.5299506, "lon": -122.0364004, "tags": {"amenity": "compressed_air"}}, {"type": "node", "id": 4725540498, "lat": 47.5289753, "lon": -122.0473876}, {"type": "node", "id": 4725540499, "lat": 47.5291573, "lon": -122.0477849}, {"type": "node", "id": 4725584895, "lat": 47.5296359, "lon": -122.0473388}, {"type": "node", "id": 4725584896, "lat": 47.5299634, "lon": -122.046741}, {"type": "node", "id": 4725588628, "lat": 47.5300398, "lon": -122.0445056}, {"type": "node", "id": 4915119963, "lat": 47.5281473, "lon": -122.0440565}, {"type": "node", "id": 4915119964, "lat": 47.5281095, "lon": -122.0438501}, {"type": "node", "id": 4915119965, "lat": 47.5278969, "lon": -122.0439341}, {"type": "node", "id": 4915119966, "lat": 47.5279016, "lon": -122.0439866}, {"type": "node", "id": 4915119967, "lat": 47.5278615, "lon": -122.0440006}, {"type": "node", "id": 4915119968, "lat": 47.5278213, "lon": -122.0437767}, {"type": "node", "id": 4915119969, "lat": 47.5277198, "lon": -122.0438152}, {"type": "node", "id": 4915119970, "lat": 47.5277717, "lon": -122.044109}, {"type": "node", "id": 4915119971, "lat": 47.5278095, "lon": -122.0440985}, {"type": "node", "id": 4915119972, "lat": 47.5278237, "lon": -122.0441755}, {"type": "node", "id": 4936227867, "lat": 47.5320317, "lon": -122.0369778}, {"type": "node", "id": 4936227869, "lat": 47.5320199, "lon": -122.0371017}, {"type": "node", "id": 4936227870, "lat": 47.5324568, "lon": -122.0363926}, {"type": "node", "id": 4936227871, "lat": 47.5319564, "lon": -122.0361926}, {"type": "node", "id": 4936227872, "lat": 47.5322631, "lon": -122.0360396}, {"type": "node", "id": 4936227873, "lat": 47.5321156, "lon": -122.0371469}, {"type": "node", "id": 4936227874, "lat": 47.5321231, "lon": -122.0376029}, {"type": "node", "id": 4936227875, "lat": 47.5320312, "lon": -122.0369549}, {"type": "node", "id": 4936227876, "lat": 47.5320461, "lon": -122.0362204}, {"type": "node", "id": 4936227877, "lat": 47.5319973, "lon": -122.0371028}, {"type": "node", "id": 4936227879, "lat": 47.5319555, "lon": -122.036102}, {"type": "node", "id": 4936227880, "lat": 47.5322012, "lon": -122.0376002}, {"type": "node", "id": 4936227881, "lat": 47.5324545, "lon": -122.0361027}, {"type": "node", "id": 4936227882, "lat": 47.5319923, "lon": -122.0362215}, {"type": "node", "id": 4936227883, "lat": 47.5321206, "lon": -122.037437}, {"type": "node", "id": 4936227884, "lat": 47.5321113, "lon": -122.036951}, {"type": "node", "id": 4936227885, "lat": 47.5319946, "lon": -122.0369796}, {"type": "node", "id": 4936227886, "lat": 47.532045, "lon": -122.0361001}, {"type": "node", "id": 4936227887, "lat": 47.532021, "lon": -122.0371515}, {"type": "node", "id": 4936227888, "lat": 47.531992, "lon": -122.0361918}, {"type": "node", "id": 4936227889, "lat": 47.5321987, "lon": -122.0374344}, {"type": "node", "id": 4936227890, "lat": 47.5322713, "lon": -122.0363976}, {"type": "node", "id": 4984263947, "lat": 47.526999, "lon": -122.0369361, "tags": {"check_date": "2023-07-09", "name": "Arjomand Law Group", "office": "lawyer"}}, {"type": "node", "id": 4984263948, "lat": 47.5223849, "lon": -122.0346576}, {"type": "node", "id": 4984263949, "lat": 47.5228957, "lon": -122.0351243}, {"type": "node", "id": 4984263950, "lat": 47.5222146, "lon": -122.0365942}, {"type": "node", "id": 4984263951, "lat": 47.5218886, "lon": -122.0366907}, {"type": "node", "id": 4984263952, "lat": 47.5217038, "lon": -122.0364064}, {"type": "node", "id": 4984263953, "lat": 47.5217111, "lon": -122.0349365}, {"type": "node", "id": 4984263954, "lat": 47.5217998, "lon": -122.0348507}, {"type": "node", "id": 4984263955, "lat": 47.5218071, "lon": -122.033979}, {"type": "node", "id": 4984263956, "lat": 47.5249257, "lon": -122.0336352}, {"type": "node", "id": 4984263957, "lat": 47.5248587, "lon": -122.0341272}, {"type": "node", "id": 4984263958, "lat": 47.5246118, "lon": -122.0341453}, {"type": "node", "id": 4984263973, "lat": 47.520483, "lon": -122.0317125, "tags": {"amenity": "veterinary", "name": "Cougar Mountain Veterinary Hospital & Wellness Center"}}, {"type": "node", "id": 5427760625, "lat": 47.5326378, "lon": -122.0363556, "tags": {"amenity": "restaurant", "check_date": "2023-09-15", "cuisine": "american", "name": "Great American Diner and Bar"}}, {"type": "node", "id": 5441507825, "lat": 47.5213632, "lon": -122.0349931, "tags": {"amenity": "clinic", "check_date": "2023-07-09", "name": "Avamere Rehabilitation of Issaquah"}}, {"type": "node", "id": 5441507826, "lat": 47.525661, "lon": -122.0361332, "tags": {"check_date": "2023-07-09", "name": "Invex Financial", "office": "company"}}, {"type": "node", "id": 5571670076, "lat": 47.5314968, "lon": -122.0378199}, {"type": "node", "id": 5571670077, "lat": 47.5315946, "lon": -122.0378199}, {"type": "node", "id": 5571670078, "lat": 47.5315946, "lon": -122.0376161}, {"type": "node", "id": 5571670079, "lat": 47.5314968, "lon": -122.0376161}, {"type": "node", "id": 5571670120, "lat": 47.5321288, "lon": -122.0379728}, {"type": "node", "id": 5571670721, "lat": 47.5322212, "lon": -122.0379728}, {"type": "node", "id": 5571670722, "lat": 47.5322212, "lon": -122.0378655}, {"type": "node", "id": 5571670723, "lat": 47.5321288, "lon": -122.0378655}, {"type": "node", "id": 5571679316, "lat": 47.5325055, "lon": -122.0360979}, {"type": "node", "id": 5571691286, "lat": 47.5304344, "lon": -122.0355113}, {"type": "node", "id": 5571691287, "lat": 47.5305282, "lon": -122.0355071}, {"type": "node", "id": 5571691288, "lat": 47.5305305, "lon": -122.0356195}, {"type": "node", "id": 5571742204, "lat": 47.5310138, "lon": -122.0376621}, {"type": "node", "id": 5571742205, "lat": 47.5310156, "lon": -122.0378847}, {"type": "node", "id": 5571742206, "lat": 47.5308883, "lon": -122.037887}, {"type": "node", "id": 5571742207, "lat": 47.5308865, "lon": -122.0376644}, {"type": "node", "id": 6418638395, "lat": 47.5300627, "lon": -122.0372955}, {"type": "node", "id": 6418638396, "lat": 47.5300633, "lon": -122.0369292}, {"type": "node", "id": 6418638402, "lat": 47.5304071, "lon": -122.0358099}, {"type": "node", "id": 6418638403, "lat": 47.53043, "lon": -122.035784}, {"type": "node", "id": 6418638404, "lat": 47.5304542, "lon": -122.0357832}, {"type": "node", "id": 6418638405, "lat": 47.5303728, "lon": -122.0356669}, {"type": "node", "id": 6418638406, "lat": 47.530373, "lon": -122.0356753}, {"type": "node", "id": 6418638409, "lat": 47.5305643, "lon": -122.0354977}, {"type": "node", "id": 6418638410, "lat": 47.5303861, "lon": -122.0354923}, {"type": "node", "id": 6418638411, "lat": 47.5303837, "lon": -122.035313}, {"type": "node", "id": 6418648757, "lat": 47.5305547, "lon": -122.0369465}, {"type": "node", "id": 6418648758, "lat": 47.5305546, "lon": -122.0368755}, {"type": "node", "id": 6418648759, "lat": 47.5305768, "lon": -122.0369465}, {"type": "node", "id": 6418648760, "lat": 47.5305766, "lon": -122.0368755}, {"type": "node", "id": 7010303471, "lat": 47.5248834, "lon": -122.0356308}, {"type": "node", "id": 7010303472, "lat": 47.5248787, "lon": -122.0355176}, {"type": "node", "id": 7010303473, "lat": 47.5268502, "lon": -122.034816}, {"type": "node", "id": 7010303474, "lat": 47.5268532, "lon": -122.0349195}, {"type": "node", "id": 7010303475, "lat": 47.5268776, "lon": -122.0349788}, {"type": "node", "id": 7010303476, "lat": 47.5269157, "lon": -122.0346764}, {"type": "node", "id": 7010303477, "lat": 47.5255448, "lon": -122.0332893}, {"type": "node", "id": 7010303478, "lat": 47.5253783, "lon": -122.0333756}, {"type": "node", "id": 7010303479, "lat": 47.5258215, "lon": -122.0333171}, {"type": "node", "id": 7322734874, "lat": 47.5312521, "lon": -122.0415806, "tags": {"amenity": "kindergarten", "check_date": "2025-05-26", "name": "Lagarllito's Garden"}}, {"type": "node", "id": 7322734875, "lat": 47.5335303, "lon": -122.0450943, "tags": {"amenity": "place_of_worship", "name": "Issaquah Church of Christ", "religion": "christian"}}, {"type": "node", "id": 7630952781, "lat": 47.5286418, "lon": -122.035238, "tags": {"addr:housenumber": "80", "addr:street": "Southeast Bush Street", "amenity": "cafe", "description": "cafe", "name": "Umi Cafe", "opening_hours": "Mo-Su 11:00-20:00", "phone": "+1-425-777-1958"}}, {"type": "node", "id": 9165599805, "lat": 47.5299191, "lon": -122.0388613}, {"type": "node", "id": 9165599806, "lat": 47.5299262, "lon": -122.0388492}, {"type": "node", "id": 9165599807, "lat": 47.5299343, "lon": -122.0388244}, {"type": "node", "id": 9165599808, "lat": 47.5299302, "lon": -122.0387232}, {"type": "node", "id": 9165599809, "lat": 47.5299076, "lon": -122.0388687}, {"type": "node", "id": 9165608967, "lat": 47.5296501, "lon": -122.0385868, "tags": {"entrance": "yes"}}, {"type": "node", "id": 9165608969, "lat": 47.5296097, "lon": -122.038565}, {"type": "node", "id": 9165608970, "lat": 47.5296329, "lon": -122.0385444}, {"type": "node", "id": 9165608971, "lat": 47.5296681, "lon": -122.0386311}, {"type": "node", "id": 9165608972, "lat": 47.529645, "lon": -122.0386517}, {"type": "node", "id": 9165608973, "lat": 47.5297163, "lon": -122.0388719}, {"type": "node", "id": 9165608974, "lat": 47.5297296, "lon": -122.03886}, {"type": "node", "id": 9165608975, "lat": 47.5295119, "lon": -122.0383686}, {"type": "node", "id": 9165608976, "lat": 47.5295251, "lon": -122.0383568}, {"type": "node", "id": 9333120034, "lat": 47.5291935, "lon": -122.0363584}, {"type": "node", "id": 9333120035, "lat": 47.5291925, "lon": -122.0363016}, {"type": "node", "id": 9333120036, "lat": 47.5291362, "lon": -122.0363038}, {"type": "node", "id": 9526561845, "lat": 47.5274387, "lon": -122.0354545}, {"type": "node", "id": 9723291717, "lat": 47.5299435, "lon": -122.0368013, "tags": {"addr:city": "Issaquah", "addr:housenumber": "11", "addr:state": "WA", "addr:street": "Front Street South", "name": "Juniper Capital", "office": "company"}}, {"type": "node", "id": 9760837817, "lat": 47.5300497, "lon": -122.0373739, "tags": {"addr:city": "Issaquah", "addr:housenumber": "55", "addr:state": "WA", "addr:street": "West Sunset Way", "amenity": "cafe", "name": "Blazing Bagels", "outdoor_seating": "yes", "payment:cash": "no"}}, {"type": "node", "id": 9760837818, "lat": 47.5280098, "lon": -122.0368186, "tags": {"name": "Grace Under Pressure Bodywork", "shop": "beauty"}}, {"type": "node", "id": 9760837917, "lat": 47.5249058, "lon": -122.0365256, "tags": {"name": "Northwest Paragliding", "shop": "sports"}}, {"type": "node", "id": 9906295071, "lat": 47.5297261, "lon": -122.0367118, "tags": {"name": "Dulce Lash & Skin", "shop": "beauty", "website": "https://dulcelash.com"}}, {"type": "node", "id": 9906302602, "lat": 47.5303722, "lon": -122.0366589, "tags": {"amenity": "bench", "backrest": "no"}}, {"type": "node", "id": 9906311792, "lat": 47.5305367, "lon": -122.0366544, "tags": {"amenity": "bench", "backrest": "no"}}, {"type": "node", "id": 9906311793, "lat": 47.5304514, "lon": -122.0366579, "tags": {"amenity": "bench", "backrest": "no"}}, {"type": "node", "id": 9906314540, "lat": 47.530636, "lon": -122.0366674, "tags": {"amenity": "bench", "backrest": "yes"}}, {"type": "node", "id": 9906316051, "lat": 47.5304836, "lon": -122.0380385, "tags": {"amenity": "parking_entrance", "maxheight": "7'0\"", "parking": "multi-storey"}}, {"type": "node", "id": 9906316054, "lat": 47.5303369, "lon": -122.038044, "tags": {"amenity": "parking_entrance", "maxheight": "7'0\"", "parking": "multi-storey"}}, {"type": "node", "id": 9906316055, "lat": 47.5310264, "lon": -122.0366231, "tags": {"amenity": "bicycle_parking", "bicycle_parking": "stands", "capacity": "2", "covered": "no"}}, {"type": "node", "id": 9906316056, "lat": 47.5310621, "lon": -122.0366251, "tags": {"amenity": "bench", "backrest": "no"}}, {"type": "node", "id": 9906319506, "lat": 47.5307776, "lon": -122.0366097, "tags": {"amenity": "bicycle_parking", "bicycle_parking": "stands", "covered": "no"}}, {"type": "node", "id": 9906319507, "lat": 47.5307882, "lon": -122.0366163, "tags": {"amenity": "bench", "backrest": "no"}}, {"type": "node", "id": 9906319509, "lat": 47.5307827, "lon": -122.0365989, "tags": {"amenity": "waste_basket"}}, {"type": "node", "id": 9906319510, "lat": 47.530887, "lon": -122.0366143, "tags": {"amenity": "bench", "backrest": "no"}}, {"type": "node", "id": 9906319512, "lat": 47.5293199, "lon": -122.0366943, "tags": {"amenity": "waste_basket"}}, {"type": "node", "id": 9906319513, "lat": 47.5293392, "lon": -122.0366949, "tags": {"amenity": "vending_machine", "vending": "excrement_bags"}}, {"type": "node", "id": 9906319514, "lat": 47.5292415, "lon": -122.0369346, "tags": {"amenity": "bench", "backrest": "yes", "material": "metal"}}, {"type": "node", "id": 9906330712, "lat": 47.5302594, "lon": -122.0368261, "tags": {"amenity": "bicycle_parking", "bicycle_parking": "rack", "capacity": "7", "covered": "yes"}}, {"type": "node", "id": 9906330713, "lat": 47.5302415, "lon": -122.0374847, "tags": {"amenity": "bicycle_parking", "bicycle_parking": "rack", "capacity": "8", "covered": "no"}}, {"type": "node", "id": 9906330714, "lat": 47.5302497, "lon": -122.0377259, "tags": {"amenity": "bench", "backrest": "no", "material": "concrete"}}, {"type": "node", "id": 9906330715, "lat": 47.5302949, "lon": -122.0372112, "tags": {"amenity": "bench", "backrest": "no", "material": "concrete"}}, {"type": "node", "id": 9906330716, "lat": 47.5302558, "lon": -122.0367792, "tags": {"amenity": "bicycle_parking", "bicycle_parking": "rack", "capacity": "5", "covered": "yes"}}, {"type": "node", "id": 9906340015, "lat": 47.5312383, "lon": -122.036624, "tags": {"amenity": "bicycle_parking", "bicycle_parking": "stands", "capacity": "2", "covered": "no"}}, {"type": "node", "id": 9906340016, "lat": 47.5312576, "lon": -122.0366281, "tags": {"amenity": "bench", "backrest": "no"}}, {"type": "node", "id": 9906340507, "lat": 47.5284919, "lon": -122.0367084, "tags": {"amenity": "vending_machine", "vending": "excrement_bags"}}, {"type": "node", "id": 9906340509, "lat": 47.5284779, "lon": -122.0367087, "tags": {"amenity": "waste_basket"}}, {"type": "node", "id": 9906340510, "lat": 47.5285156, "lon": -122.0372521, "tags": {"amenity": "bench", "backrest": "no", "material": "wood"}}, {"type": "node", "id": 9906340513, "lat": 47.5282618, "lon": -122.0370989, "tags": {"amenity": "bench", "backrest": "no", "material": "wood"}}, {"type": "node", "id": 9906340515, "lat": 47.5286636, "lon": -122.0369645, "tags": {"amenity": "bench", "backrest": "yes", "material": "metal"}}, {"type": "node", "id": 9906341152, "lat": 47.5313243, "lon": -122.0370483, "tags": {"addr:housenumber": "15", "addr:street": "Northwest Alder Place", "amenity": "restaurant", "name": "Montalcino"}}, {"type": "node", "id": 9906341153, "lat": 47.5313152, "lon": -122.0369204, "tags": {"brand": "Fairway", "name": "Nicole Benson", "office": "insurance"}}, {"type": "node", "id": 9906341155, "lat": 47.5313132, "lon": -122.0368917, "tags": {"name": "Eight One Eight", "shop": "beauty"}}, {"type": "node", "id": 9906341194, "lat": 47.5305091, "lon": -122.0364455, "tags": {"amenity": "bench", "backrest": "no"}}, {"type": "node", "id": 9906341195, "lat": 47.5302107, "lon": -122.0356394, "tags": {"amenity": "bench", "backrest": "yes", "material": "metal"}}, {"type": "node", "id": 9906341196, "lat": 47.53027, "lon": -122.0363195, "tags": {"amenity": "bench", "backrest": "yes", "material": "wood"}}, {"type": "node", "id": 9906341199, "lat": 47.5303608, "lon": -122.0362139, "tags": {"amenity": "waste_basket"}}, {"type": "node", "id": 9906343117, "lat": 47.530231, "lon": -122.0367273, "tags": {"amenity": "bench", "backrest": "yes", "material": "metal"}}, {"type": "node", "id": 9906343118, "lat": 47.5302473, "lon": -122.0375423, "tags": {"amenity": "bench", "backrest": "no", "material": "concrete"}}, {"type": "node", "id": 9906343119, "lat": 47.530259, "lon": -122.0368639, "tags": {"amenity": "waste_basket"}}, {"type": "node", "id": 9906343120, "lat": 47.5299785, "lon": -122.034945, "tags": {"amenity": "bench", "backrest": "no", "inscription": "Salmon Days 2001", "material": "metal"}}, {"type": "node", "id": 9906343124, "lat": 47.5296479, "lon": -122.0347259, "tags": {"amenity": "bench", "backrest": "yes", "material": "metal"}}, {"type": "node", "id": 9906351082, "lat": 47.5313265, "lon": -122.0364317, "tags": {"amenity": "bicycle_parking", "bicycle_parking": "stands", "capacity": "2", "covered": "no"}}, {"type": "node", "id": 9906353820, "lat": 47.530067, "lon": -122.0376053, "tags": {"amenity": "bench", "backrest": "yes", "material": "plastic"}}, {"type": "node", "id": 9906353821, "lat": 47.5298107, "lon": -122.0373013}, {"type": "node", "id": 9906371517, "lat": 47.5282467, "lon": -122.0369616, "tags": {"amenity": "bench", "backrest": "yes", "material": "metal"}}, {"type": "node", "id": 9906380537, "lat": 47.5321109, "lon": -122.0365757, "tags": {"amenity": "waste_basket"}}, {"type": "node", "id": 9906380538, "lat": 47.5321327, "lon": -122.0365848, "tags": {"amenity": "bench", "backrest": "yes"}}, {"type": "node", "id": 9906380796, "lat": 47.5302566, "lon": -122.0349261, "tags": {"amenity": "bench", "backrest": "yes", "material": "wood"}}, {"type": "node", "id": 9906388543, "lat": 47.5322398, "lon": -122.0365824, "tags": {"amenity": "recycling", "recycling_type": "container"}}, {"type": "node", "id": 9906391231, "lat": 47.5334374, "lon": -122.0366145, "tags": {"amenity": "bench", "backrest": "yes", "colour": "brown", "material": "wood", "seats": "4"}}, {"type": "node", "id": 9906404751, "lat": 47.5310153, "lon": -122.0364035, "tags": {"amenity": "bench", "backrest": "yes", "material": "wood"}}, {"type": "node", "id": 9906404752, "lat": 47.5311119, "lon": -122.0364342, "tags": {"amenity": "bench", "backrest": "no"}}, {"type": "node", "id": 9906404753, "lat": 47.531068, "lon": -122.036229, "tags": {"addr:housenumber": "80", "addr:street": "Front Street North", "name": "Sea Town", "shop": "seafood"}}, {"type": "node", "id": 9906415044, "lat": 47.530415, "lon": -122.0356317, "tags": {"name": "Eastside Guitar Star and Ukulele", "shop": "musical_instrument"}}, {"type": "node", "id": 9906427505, "lat": 47.530262, "lon": -122.0348428, "tags": {"amenity": "bicycle_parking", "bicycle_parking": "rack", "capacity": "7", "covered": "no"}}, {"type": "node", "id": 9906429525, "lat": 47.5338414, "lon": -122.0363427, "tags": {"amenity": "bench", "armrest": "yes", "backrest": "yes", "colour": "gray", "material": "metal", "seats": "4"}}, {"type": "node", "id": 9906437152, "lat": 47.5334131, "lon": -122.0361271, "tags": {"amenity": "vending_machine", "fee": "no", "vending": "excrement_bags"}}, {"type": "node", "id": 9906444765, "lat": 47.5307776, "lon": -122.0364486, "tags": {"amenity": "bicycle_parking", "bicycle_parking": "stands", "capacity": "2", "covered": "no"}}, {"type": "node", "id": 9906444766, "lat": 47.5307584, "lon": -122.0364511, "tags": {"amenity": "bench", "backrest": "no"}}, {"type": "node", "id": 9906444767, "lat": 47.5307797, "lon": -122.0364593, "tags": {"amenity": "waste_basket"}}, {"type": "node", "id": 9906444770, "lat": 47.5304692, "lon": -122.0364448, "tags": {"amenity": "bicycle_parking", "bicycle_parking": "stands", "capacity": "2", "covered": "no"}}, {"type": "node", "id": 9906618758, "lat": 47.5312507, "lon": -122.0358789}, {"type": "node", "id": 9906618759, "lat": 47.5312439, "lon": -122.03593}, {"type": "node", "id": 9906618760, "lat": 47.5310442, "lon": -122.0363894}, {"type": "node", "id": 9906618761, "lat": 47.5310393, "lon": -122.0359503}, {"type": "node", "id": 9906618762, "lat": 47.5309357, "lon": -122.0359528}, {"type": "node", "id": 9906618763, "lat": 47.5309401, "lon": -122.0363561}, {"type": "node", "id": 9906618764, "lat": 47.5309609, "lon": -122.0363556}, {"type": "node", "id": 9906618765, "lat": 47.5309613, "lon": -122.0363914}, {"type": "node", "id": 9906618766, "lat": 47.5315846, "lon": -122.0361114}, {"type": "node", "id": 9906618767, "lat": 47.5315803, "lon": -122.0358645}, {"type": "node", "id": 9906618768, "lat": 47.5314606, "lon": -122.0358691}, {"type": "node", "id": 9906618769, "lat": 47.5314649, "lon": -122.0361159}, {"type": "node", "id": 9906618770, "lat": 47.5313781, "lon": -122.0361332}, {"type": "node", "id": 9906618771, "lat": 47.5313762, "lon": -122.0358636}, {"type": "node", "id": 9906618772, "lat": 47.5312584, "lon": -122.0358889}, {"type": "node", "id": 9906618773, "lat": 47.5312352, "lon": -122.0361404}, {"type": "node", "id": 9906618775, "lat": 47.532075, "lon": -122.0360897}, {"type": "node", "id": 9906618776, "lat": 47.5320744, "lon": -122.0359586}, {"type": "node", "id": 9906618777, "lat": 47.5319089, "lon": -122.0359323}, {"type": "node", "id": 9906618778, "lat": 47.5319107, "lon": -122.0360897}, {"type": "node", "id": 9906622134, "lat": 47.5299756, "lon": -122.0348024}, {"type": "node", "id": 9906622135, "lat": 47.5299743, "lon": -122.0346077}, {"type": "node", "id": 9906622136, "lat": 47.5293596, "lon": -122.0343423}, {"type": "node", "id": 9906622137, "lat": 47.5293609, "lon": -122.0345507}, {"type": "node", "id": 9906632618, "lat": 47.5334046, "lon": -122.0372631}, {"type": "node", "id": 9906632619, "lat": 47.5333926, "lon": -122.0366241}, {"type": "node", "id": 9906632620, "lat": 47.5335181, "lon": -122.0366189}, {"type": "node", "id": 9906632621, "lat": 47.5335228, "lon": -122.0368734}, {"type": "node", "id": 9906632622, "lat": 47.5335667, "lon": -122.0368716}, {"type": "node", "id": 9906632623, "lat": 47.5335724, "lon": -122.0371747}, {"type": "node", "id": 9906632624, "lat": 47.5336885, "lon": -122.0371699}, {"type": "node", "id": 9906632625, "lat": 47.5336901, "lon": -122.0372514}, {"type": "node", "id": 9906632626, "lat": 47.5332806, "lon": -122.0372676}, {"type": "node", "id": 9906632627, "lat": 47.5332757, "lon": -122.0366551}, {"type": "node", "id": 9906632628, "lat": 47.533369, "lon": -122.0366534}, {"type": "node", "id": 9906632629, "lat": 47.5333738, "lon": -122.037266}, {"type": "node", "id": 9906632630, "lat": 47.5307785, "lon": -122.0372894}, {"type": "node", "id": 9906632631, "lat": 47.5307761, "lon": -122.0370442}, {"type": "node", "id": 9906632632, "lat": 47.5307302, "lon": -122.0370452}, {"type": "node", "id": 9906632633, "lat": 47.5307292, "lon": -122.0369421}, {"type": "node", "id": 9906632634, "lat": 47.5306497, "lon": -122.0369438}, {"type": "node", "id": 9906632635, "lat": 47.530647, "lon": -122.0366839}, {"type": "node", "id": 9906632636, "lat": 47.5305751, "lon": -122.0366855}, {"type": "node", "id": 9906632637, "lat": 47.5305812, "lon": -122.0372938}, {"type": "node", "id": 9906632638, "lat": 47.5307881, "lon": -122.0372851}, {"type": "node", "id": 9906632639, "lat": 47.5307842, "lon": -122.0369787}, {"type": "node", "id": 9906632640, "lat": 47.5311412, "lon": -122.0369686}, {"type": "node", "id": 9906632641, "lat": 47.531142, "lon": -122.0370357}, {"type": "node", "id": 9906632642, "lat": 47.5312115, "lon": -122.0370337}, {"type": "node", "id": 9906632643, "lat": 47.5312138, "lon": -122.0372102}, {"type": "node", "id": 9906632644, "lat": 47.5312815, "lon": -122.0372083}, {"type": "node", "id": 9906632645, "lat": 47.5312823, "lon": -122.0372712}, {"type": "node", "id": 9906632646, "lat": 47.5314673, "lon": -122.0372724}, {"type": "node", "id": 9906632647, "lat": 47.5314623, "lon": -122.0369662}, {"type": "node", "id": 9906632648, "lat": 47.5315497, "lon": -122.0369631}, {"type": "node", "id": 9906632649, "lat": 47.5315447, "lon": -122.0366617}, {"type": "node", "id": 9906632650, "lat": 47.5316233, "lon": -122.0366589}, {"type": "node", "id": 9906632651, "lat": 47.5316322, "lon": -122.0371983}, {"type": "node", "id": 9906632652, "lat": 47.5317946, "lon": -122.0371925}, {"type": "node", "id": 9906632653, "lat": 47.5317957, "lon": -122.0372606}, {"type": "node", "id": 9906632654, "lat": 47.5319933, "lon": -122.0372694}, {"type": "node", "id": 9906632655, "lat": 47.531987, "lon": -122.0368796}, {"type": "node", "id": 9906632656, "lat": 47.5318568, "lon": -122.0368841}, {"type": "node", "id": 9906632657, "lat": 47.531863, "lon": -122.037274}, {"type": "node", "id": 9906632658, "lat": 47.5321418, "lon": -122.0372776}, {"type": "node", "id": 9906632659, "lat": 47.5321362, "lon": -122.0369608}, {"type": "node", "id": 9906632660, "lat": 47.5323176, "lon": -122.0369539}, {"type": "node", "id": 9906632661, "lat": 47.5323231, "lon": -122.0372706}, {"type": "node", "id": 9906632662, "lat": 47.5323381, "lon": -122.0372604}, {"type": "node", "id": 9906632663, "lat": 47.5323346, "lon": -122.0369279}, {"type": "node", "id": 9906632664, "lat": 47.5324858, "lon": -122.0369244}, {"type": "node", "id": 9906632665, "lat": 47.5324894, "lon": -122.0372568}, {"type": "node", "id": 9906632666, "lat": 47.532498, "lon": -122.0372647}, {"type": "node", "id": 9906632667, "lat": 47.5324979, "lon": -122.037146}, {"type": "node", "id": 9906632668, "lat": 47.5325602, "lon": -122.0371459}, {"type": "node", "id": 9906632669, "lat": 47.5325601, "lon": -122.0370247}, {"type": "node", "id": 9906632670, "lat": 47.5326926, "lon": -122.0370244}, {"type": "node", "id": 9906632671, "lat": 47.5326927, "lon": -122.0371013}, {"type": "node", "id": 9906632672, "lat": 47.5327455, "lon": -122.0371012}, {"type": "node", "id": 9906632673, "lat": 47.5327457, "lon": -122.0372643}, {"type": "node", "id": 9906632674, "lat": 47.5327685, "lon": -122.0372452}, {"type": "node", "id": 9906632675, "lat": 47.5327609, "lon": -122.0369662}, {"type": "node", "id": 9906632676, "lat": 47.5328451, "lon": -122.0369612}, {"type": "node", "id": 9906632677, "lat": 47.5328528, "lon": -122.0372402}, {"type": "node", "id": 9956056859, "lat": 47.5255783, "lon": -122.0344812}, {"type": "node", "id": 9956056860, "lat": 47.5264355, "lon": -122.0344583}, {"type": "node", "id": 9956056861, "lat": 47.5264386, "lon": -122.0347369}, {"type": "node", "id": 9956056862, "lat": 47.5255732, "lon": -122.0332919}, {"type": "node", "id": 9956056863, "lat": 47.5255732, "lon": -122.0332919}, {"type": "node", "id": 10069700701, "lat": 47.5309302, "lon": -122.0351384, "tags": {"access": "yes", "amenity": "drinking_water", "bottle": "yes", "fee": "no", "wheelchair": "yes"}}, {"type": "node", "id": 10148405792, "lat": 47.5313545, "lon": -122.0449773, "tags": {"amenity": "waste_disposal"}}, {"type": "node", "id": 10148498064, "lat": 47.5319041, "lon": -122.0445525, "tags": {"amenity": "waste_disposal"}}, {"type": "node", "id": 10181445617, "lat": 47.5280403, "lon": -122.0350295, "tags": {"name": "The Garage", "office": "company"}}, {"type": "node", "id": 10181659419, "lat": 47.5346157, "lon": -122.0374563, "tags": {"amenity": "dentist", "name": "Glenn Yorita Orthodontics"}}, {"type": "node", "id": 10290661011, "lat": 47.5312581, "lon": -122.0442567, "tags": {"amenity": "bench"}}, {"type": "node", "id": 10790919721, "lat": 47.5309451, "lon": -122.0366598}, {"type": "node", "id": 11036450868, "lat": 47.5334295, "lon": -122.0437093, "tags": {"check_date": "2023-07-09", "name": "Ameriprise", "office": "financial"}}, {"type": "node", "id": 11036450876, "lat": 47.5290011, "lon": -122.0401917, "tags": {"amenity": "social_centre", "check_date": "2023-07-09", "name": "John Gibson Hall"}}, {"type": "node", "id": 11036450877, "lat": 47.5254193, "lon": -122.0360789, "tags": {"check_date": "2023-07-09", "name": "Tag Realty", "office": "estate_agent"}}, {"type": "node", "id": 11036450878, "lat": 47.5215592, "lon": -122.0328199, "tags": {"amenity": "fixme", "check_date": "2023-07-09", "fixme": "type", "fixme:type": "Hampstead Apartments"}}, {"type": "node", "id": 11371512669, "lat": 47.527307, "lon": -122.0337048, "tags": {"amenity": "charging_station"}}, {"type": "node", "id": 11635724425, "lat": 47.5298989, "lon": -122.0373893, "tags": {"amenity": "social_centre", "check_date": "2024-02-17", "name": "Myrtle Lodge"}}, {"type": "node", "id": 11635725670, "lat": 47.5348755, "lon": -122.0374156, "tags": {"name": "Highland Capital Investors", "office": "company"}}, {"type": "node", "id": 11635739469, "lat": 47.5340238, "lon": -122.0370385, "tags": {"check_date": "2025-01-19", "name": "Tate & Oellicitch CPAs", "office": "company"}}, {"type": "node", "id": 11635739470, "lat": 47.5343336, "lon": -122.0371199, "tags": {"name": "State Farm", "office": "insurance"}}, {"type": "node", "id": 11635739569, "lat": 47.5343411, "lon": -122.0372437, "tags": {"name": "My CFO Link", "office": "company"}}, {"type": "node", "id": 11635739669, "lat": 47.5344955, "lon": -122.0374631, "tags": {"amenity": "doctors", "name": "Chiropractor"}}, {"type": "node", "id": 11635749569, "lat": 47.5345988, "lon": -122.0377127, "tags": {"name": "Village Theatre Technical Studio", "office": "company"}}, {"type": "node", "id": 11635749669, "lat": 47.5349942, "lon": -122.0374454, "tags": {"name": "Rose Beauty Bar", "shop": "beauty"}}, {"type": "node", "id": 12044872811, "lat": 47.5307398, "lon": -122.0356923}, {"type": "node", "id": 12044872812, "lat": 47.5307904, "lon": -122.0357375}, {"type": "node", "id": 12044872813, "lat": 47.5309414, "lon": -122.0348812}, {"type": "node", "id": 12044872814, "lat": 47.5309305, "lon": -122.0348491}, {"type": "node", "id": 12044872815, "lat": 47.5308756, "lon": -122.0347801}, {"type": "node", "id": 12099803099, "lat": 47.5296382, "lon": -122.0376205}, {"type": "node", "id": 12099803100, "lat": 47.5297023, "lon": -122.037668}, {"type": "node", "id": 12099815012, "lat": 47.5294707, "lon": -122.0384054, "tags": {"name": "Friends of the Issaquah Salmon Hatchery", "office": "yes"}}, {"type": "node", "id": 12099815013, "lat": 47.5296708, "lon": -122.0389083, "tags": {"name": "Friends of Issaquah Salmon Hatchery GIft Shop", "shop": "gift"}}, {"type": "node", "id": 12099815014, "lat": 47.5296866, "lon": -122.03885, "tags": {"amenity": "theatre", "name": "Steve Bell Theater"}}, {"type": "node", "id": 12099832501, "lat": 47.5297059, "lon": -122.0380351}, {"type": "node", "id": 12099832502, "lat": 47.5296444, "lon": -122.0379844}, {"type": "node", "id": 12103680125, "lat": 47.5274513, "lon": -122.0350921}, {"type": "node", "id": 12103680126, "lat": 47.5274667, "lon": -122.0351169}, {"type": "node", "id": 12103680127, "lat": 47.5274789, "lon": -122.0351712}, {"type": "node", "id": 12103680129, "lat": 47.5269877, "lon": -122.035186}, {"type": "node", "id": 12107564459, "lat": 47.5240188, "lon": -122.032459, "tags": {"amenity": "bench", "backrest": "no", "material": "wood"}}, {"type": "node", "id": 12107585510, "lat": 47.5241477, "lon": -122.0325361, "tags": {"amenity": "bench", "backrest": "no", "material": "wood"}}, {"type": "node", "id": 12107607272, "lat": 47.5266534, "lon": -122.0334152, "tags": {"amenity": "vending_machine", "vending": "excrement_bags"}}, {"type": "node", "id": 12205551940, "lat": 47.5306984, "lon": -122.0350541}, {"type": "node", "id": 12205551941, "lat": 47.5306695, "lon": -122.0352143}, {"type": "node", "id": 12205551942, "lat": 47.5306786, "lon": -122.0352485}, {"type": "node", "id": 12205551943, "lat": 47.5307062, "lon": -122.0352655}, {"type": "node", "id": 12205551948, "lat": 47.5307492, "lon": -122.0354323}, {"type": "node", "id": 12205551949, "lat": 47.5307341, "lon": -122.0354326}, {"type": "node", "id": 12205551950, "lat": 47.5306938, "lon": -122.0357034}, {"type": "node", "id": 12205551951, "lat": 47.530694, "lon": -122.0357624}, {"type": "node", "id": 12205551952, "lat": 47.5307218, "lon": -122.0358191}, {"type": "node", "id": 12205551953, "lat": 47.5307721, "lon": -122.0358335}, {"type": "node", "id": 12205551954, "lat": 47.5307952, "lon": -122.0358231}, {"type": "node", "id": 12205551955, "lat": 47.5306908, "lon": -122.0357326}, {"type": "node", "id": 12205551956, "lat": 47.5307067, "lon": -122.0357953}, {"type": "node", "id": 12205551958, "lat": 47.5307421, "lon": -122.0358299}, {"type": "node", "id": 12205551959, "lat": 47.5309406, "lon": -122.0356969}, {"type": "node", "id": 12205551960, "lat": 47.5308839, "lon": -122.0357352}, {"type": "node", "id": 12205551961, "lat": 47.530885, "lon": -122.0357956}, {"type": "node", "id": 12205551962, "lat": 47.5309189, "lon": -122.0357966}, {"type": "node", "id": 12205551963, "lat": 47.5309323, "lon": -122.0357843}, {"type": "node", "id": 12205551964, "lat": 47.5309393, "lon": -122.0357662}, {"type": "node", "id": 12205551980, "lat": 47.5310944, "lon": -122.0347505}, {"type": "node", "id": 12205551981, "lat": 47.531077, "lon": -122.0348473}, {"type": "node", "id": 12205564759, "lat": 47.5306989, "lon": -122.0356953}, {"type": "node", "id": 12205564760, "lat": 47.530739, "lon": -122.0356565}, {"type": "node", "id": 12205587414, "lat": 47.531054, "lon": -122.0348941}, {"type": "node", "id": 12205587425, "lat": 47.5310466, "lon": -122.0349397}, {"type": "node", "id": 12205587441, "lat": 47.5314158, "lon": -122.0350347}, {"type": "node", "id": 12205590206, "lat": 47.5305664, "lon": -122.0358155}, {"type": "node", "id": 12205590207, "lat": 47.5305968, "lon": -122.0358156}, {"type": "node", "id": 12205590208, "lat": 47.5306255, "lon": -122.0359007}, {"type": "node", "id": 12205664023, "lat": 47.5306104, "lon": -122.035856}, {"type": "node", "id": 12205664024, "lat": 47.5306164, "lon": -122.0358737}, {"type": "node", "id": 12205664052, "lat": 47.5305659, "lon": -122.0357326}, {"type": "node", "id": 12205678156, "lat": 47.5308754, "lon": -122.034796}, {"type": "node", "id": 12205678157, "lat": 47.5309064, "lon": -122.0348172}, {"type": "node", "id": 12205678158, "lat": 47.5309195, "lon": -122.0348316}, {"type": "node", "id": 12205678159, "lat": 47.5309153, "lon": -122.0350701}, {"type": "node", "id": 12205678160, "lat": 47.5309193, "lon": -122.0350565}, {"type": "node", "id": 12219520350, "lat": 47.5306274, "lon": -122.0366235}, {"type": "node", "id": 12219520351, "lat": 47.5306268, "lon": -122.0365934}, {"type": "node", "id": 12219520352, "lat": 47.5307719, "lon": -122.0365903}, {"type": "node", "id": 12219520353, "lat": 47.5307513, "lon": -122.0366208}, {"type": "node", "id": 12219520354, "lat": 47.530547, "lon": -122.0366261}, {"type": "node", "id": 12219520355, "lat": 47.5305467, "lon": -122.0365952}, {"type": "node", "id": 12219520356, "lat": 47.5303514, "lon": -122.0365996}, {"type": "node", "id": 12219520357, "lat": 47.5303514, "lon": -122.0366328}, {"type": "node", "id": 12219520358, "lat": 47.5309007, "lon": -122.0365868}, {"type": "node", "id": 12219520359, "lat": 47.5313215, "lon": -122.036577}, {"type": "node", "id": 12219520360, "lat": 47.5313221, "lon": -122.0366124}, {"type": "node", "id": 12219520361, "lat": 47.5309198, "lon": -122.0366213}, {"type": "node", "id": 12219520362, "lat": 47.5309153, "lon": -122.0366177}, {"type": "node", "id": 12219520363, "lat": 47.5309123, "lon": -122.0366093}, {"type": "node", "id": 12219520364, "lat": 47.5309117, "lon": -122.0366027}, {"type": "node", "id": 12219520365, "lat": 47.5309075, "lon": -122.0365947}, {"type": "node", "id": 12219520366, "lat": 47.5310286, "lon": -122.0364878}, {"type": "node", "id": 12219520367, "lat": 47.5313205, "lon": -122.0364807}, {"type": "node", "id": 12219520368, "lat": 47.5313199, "lon": -122.0364517}, {"type": "node", "id": 12219520369, "lat": 47.531068, "lon": -122.0364583}, {"type": "node", "id": 12219520370, "lat": 47.5310485, "lon": -122.0364568}, {"type": "node", "id": 12219520371, "lat": 47.5310399, "lon": -122.0364624}, {"type": "node", "id": 12219520372, "lat": 47.531033, "lon": -122.0364761}, {"type": "node", "id": 12219520373, "lat": 47.5316305, "lon": -122.0366037}, {"type": "node", "id": 12219520374, "lat": 47.5316301, "lon": -122.0365699}, {"type": "node", "id": 12219520375, "lat": 47.5321039, "lon": -122.0365605}, {"type": "node", "id": 12219520376, "lat": 47.5320991, "lon": -122.0365693}, {"type": "node", "id": 12219520377, "lat": 47.5320924, "lon": -122.0365932}, {"type": "node", "id": 12219520378, "lat": 47.5319746, "lon": -122.0364146}, {"type": "node", "id": 12219520379, "lat": 47.531975, "lon": -122.036452}, {"type": "node", "id": 12219520380, "lat": 47.5321499, "lon": -122.0364484}, {"type": "node", "id": 12219520381, "lat": 47.5321496, "lon": -122.036411}, {"type": "node", "id": 12219520382, "lat": 47.5318508, "lon": -122.0364181}, {"type": "node", "id": 12219520383, "lat": 47.5315726, "lon": -122.0364227}, {"type": "node", "id": 12219520384, "lat": 47.5315738, "lon": -122.0364449}, {"type": "node", "id": 12219520385, "lat": 47.5315679, "lon": -122.036456}, {"type": "node", "id": 12219520386, "lat": 47.5315635, "lon": -122.0364619}, {"type": "node", "id": 12219520387, "lat": 47.5318516, "lon": -122.036456}, {"type": "node", "id": 12219520388, "lat": 47.5322878, "lon": -122.036588}, {"type": "node", "id": 12219520389, "lat": 47.5322868, "lon": -122.0365565}, {"type": "node", "id": 12219520390, "lat": 47.5324879, "lon": -122.0365504}, {"type": "node", "id": 12219520391, "lat": 47.5324886, "lon": -122.036584}, {"type": "node", "id": 12219520392, "lat": 47.5324271, "lon": -122.0364051}, {"type": "node", "id": 12219520393, "lat": 47.5324275, "lon": -122.0364407}, {"type": "node", "id": 12219520394, "lat": 47.5328879, "lon": -122.0364295}, {"type": "node", "id": 12219520395, "lat": 47.5328876, "lon": -122.0363944}, {"type": "node", "id": 12219520396, "lat": 47.5325689, "lon": -122.0365824}, {"type": "node", "id": 12219520397, "lat": 47.5325689, "lon": -122.0365494}, {"type": "node", "id": 12219520398, "lat": 47.5327816, "lon": -122.0365443}, {"type": "node", "id": 12219520399, "lat": 47.5327819, "lon": -122.0365779}, {"type": "node", "id": 12219520400, "lat": 47.5328811, "lon": -122.0365763}, {"type": "node", "id": 12219526601, "lat": 47.5328797, "lon": -122.0365433}, {"type": "node", "id": 12219526602, "lat": 47.5332379, "lon": -122.0365337}, {"type": "node", "id": 12219526603, "lat": 47.5332376, "lon": -122.0365647}, {"type": "node", "id": 12219526604, "lat": 47.5330588, "lon": -122.0363903}, {"type": "node", "id": 12219526605, "lat": 47.5330602, "lon": -122.0364274}, {"type": "node", "id": 12219526606, "lat": 47.5331782, "lon": -122.0364239}, {"type": "node", "id": 12219526607, "lat": 47.5331786, "lon": -122.0363868}, {"type": "node", "id": 12230702773, "lat": 47.5299449, "lon": -122.0358819, "tags": {"traffic_calming": "bump"}}, {"type": "node", "id": 12327622887, "lat": 47.5289975, "lon": -122.0355409, "tags": {"check_date": "2024-11-09", "name": "Apqs Northwest", "office": "company"}}, {"type": "node", "id": 12327622888, "lat": 47.5290117, "lon": -122.0354461, "tags": {"check_date": "2024-11-09", "name": "Chicks Shoes & Service", "shop": "shoe_repair"}}, {"type": "node", "id": 12327622889, "lat": 47.5294982, "lon": -122.0355677, "tags": {"amenity": "parcel_locker", "check_date": "2024-11-09", "name": "Amazon Hura", "operator": "Amazon"}}, {"type": "node", "id": 12336032647, "lat": 47.5328772, "lon": -122.0380165}, {"type": "node", "id": 12336032648, "lat": 47.532756, "lon": -122.0380121}, {"type": "node", "id": 12336032649, "lat": 47.5327609, "lon": -122.0374561}, {"type": "node", "id": 12336032650, "lat": 47.5328811, "lon": -122.037459}, {"type": "node", "id": 12349862891, "lat": 47.5274973, "lon": -122.0342183, "tags": {"amenity": "bicycle_parking", "bicycle_parking": "stands", "capacity": "10"}}, {"type": "node", "id": 12349862892, "lat": 47.5275194, "lon": -122.0346159, "tags": {"amenity": "bicycle_parking", "bicycle_parking": "stands", "capacity": "10"}}, {"type": "node", "id": 12380942070, "lat": 47.5305294, "lon": -122.0355649, "tags": {"door": "hinged", "entrance": "main"}}, {"type": "node", "id": 12380942071, "lat": 47.5305197, "lon": -122.0356029, "tags": {"amenity": "vending_machine", "check_date": "2025-01-19", "indoor": "yes", "operator": "Suds Shop Laundromat", "payment:cards": "no", "payment:coins": "yes", "payment:notes": "no", "vending": "laundry_detergent"}}, {"type": "node", "id": 12380942072, "lat": 47.5305153, "lon": -122.0356031, "tags": {"amenity": "vending_machine", "indoor": "yes", "operator": "Suds Shop Laundromat", "payment:cards": "no", "payment:coins": "no", "payment:notes": "yes", "vending": "coin_change_machine"}}, {"type": "node", "id": 13300272532, "lat": 47.533192, "lon": -122.0372312, "tags": {"access": "private", "addr:city": "Issaquah", "addr:housenumber": "304", "addr:postcode": "98027", "addr:state": "WA", "addr:street": "1st Place Northwest", "amenity": "loading_dock", "operator": "Village Theater"}}, {"type": "way", "id": 92830944, "nodes": [1076454532, 1076454557, 1076454535, 1076454482, 1076454522, 1076454565, 1076454469, 1076454504, 1076454477, 1076454516, 1076454561, 1076454498, 1076454502, 1076454545, 6418648760, 6418648758, 6418648757, 6418648759, 1076454532], "tags": {"addr:city": "Issaquah", "addr:housenumber": "10", "addr:postcode": "98027", "addr:state": "WA", "addr:street": "West Sunset Way", "amenity": "library", "building": "library", "internet_access": "terminal;wlan", "internet_access:fee": "no", "internet_access:ssid": "kcls.org Wireless", "name": "Issaquah Library", "opening_hours": "Mo,Th-Sa 10:00-18:00; Tu,We 12:00-20:00", "operator": "King County Library System", "operator:short": "KCLS", "operator:type": "public", "operator:wikidata": "Q6411390", "phone": "+1-425-392-5430", "service:computer": "yes", "service:copy": "yes", "service:fax": "yes", "service:print": "yes", "service:scan": "yes", "source": "bing", "website": "https://kcls.org/locations/1513/"}}, {"type": "way", "id": 102220189, "nodes": [1179705483, 1179705484, 1179705485, 1179705486, 1179705489, 12205587441, 1179705492, 1179705493, 1179705497, 1179705500, 1179705504, 1179705508, 12205551980, 12205551981, 1179705517, 1179705518, 12205587414, 1179705519, 1179705520, 12205587425, 1179705521, 1179705483], "tags": {"amenity": "community_centre", "building": "yes", "community_centre:for": "senior", "name": "Issaquah Valley Senior Center"}}, {"type": "way", "id": 116215468, "nodes": [1310902393, 1310902334, 1310902413, 1310902448, 1310902441, 1310902519, 1310902429, 1310902341, 1310902393], "tags": {"addr:city": "Issaquah", "addr:housenumber": "220", "addr:postcode": "98027", "addr:state": "WA", "addr:street": "Mountain Park Boulevard Southwest", "amenity": "place_of_worship", "building": "church", "denomination": "roman_catholic", "name": "Saint Joseph Church", "phone": "+1-425-392-5516", "religion": "christian", "website": "https://www.sjcissaquah.org/"}}, {"type": "way", "id": 116215470, "nodes": [1310902427, 1310902340, 1310902355, 1310902552, 1310902466, 1310902395, 1310902427], "tags": {"amenity": "school", "building": "school", "name": "Saint Joseph School"}}, {"type": "way", "id": 207104267, "nodes": [4725584895, 4725584896, 4725588628, 2172318638, 2172318643, 356541617, 2172318645, 2172318642, 2172318636, 4725540498, 4725540499, 2172310654, 4725584895], "tags": {"amenity": "grave_yard", "ele": "70", "gnis:feature_id": "1509782", "landuse": "cemetery", "name": "Hillside Cemetery"}}, {"type": "way", "id": 217970052, "nodes": [6418638395, 2272796524, 6418638396, 2272796523, 2272796517, 9906353821, 6418638395], "tags": {"addr:city": "Issaquah", "addr:housenumber": "35", "addr:postcode": "98027", "addr:state": "WA", "addr:street": "West Sunset Way", "amenity": "cinema", "bar": "yes", "building": "yes", "min_age": "21", "name": "Big Picture", "website": "https://www.thebigpicture.net"}}, {"type": "way", "id": 218179480, "nodes": [2274535167, 2274535171, 2274535169, 2274535165, 2274535167], "tags": {"amenity": "community_centre", "building": "yes", "building:levels": "3", "name": "Issaquah Community Center"}}, {"type": "way", "id": 218179897, "nodes": [2274542657, 4984263956, 4984263957, 4984263958, 2274542655, 7010303472, 7010303471, 2274542663, 7010303475, 7010303474, 7010303473, 2274544634, 9956056861, 9956056860, 9956056859, 9956056863, 7010303477, 7010303478, 2274542657], "tags": {"addr:city": "Issaquah", "addr:housenumber": "335", "addr:postcode": "98027", "addr:state": "WA", "addr:street": "1st Avenue Southeast", "amenity": "school", "grades": "0-5", "name": "Clark Elementary School", "operator": "Issaquah School District 411", "operator:short": "ISD", "operator:type": "public", "operator:wikidata": "Q6088123", "religion": "none", "website": "https://clark.isd411.org"}}, {"type": "way", "id": 218183736, "nodes": [2274545023, 2274545022, 4265482691, 2274545021, 2274545023], "tags": {"addr:housenumber": "111", "addr:state": "WA", "addr:street": "Front Street North", "building": "yes", "name": "Pelage Medi-Spa", "opening_hours": "Tu-Fr 10:00-19:00; Sa-Su 10:00-17:00", "shop": "beauty"}}, {"type": "way", "id": 218183959, "nodes": [2274546178, 2274546177, 2274546175, 2274546176, 2274546178], "tags": {"addr:city": "Issaquah", "addr:housenumber": "175", "addr:postcode": "98027", "addr:street": "Newport Way Northwest", "amenity": "fire_station", "building": "yes", "check_date": "2023-07-09", "name": "Eastside Fire and Rescue Headquarters"}}, {"type": "way", "id": 218184658, "nodes": [2274554192, 2274554194, 2274554195, 2274554193, 2274554184, 2274554180, 2274554181, 2274554185, 2274554189, 2274554187, 2274554190, 2274554191, 2274554192], "tags": {"amenity": "social_facility", "building": "yes", "check_date": "2023-07-09", "name": "Hutchinson House", "social_facility": "nursing_home", "social_facility:for": "senior"}}, {"type": "way", "id": 218370014, "nodes": [2276146263, 2276227285, 2276146275, 2276146278, 2276146276, 2276146273, 2276146274, 2276146266, 2276146265, 2276146264, 2276146263], "tags": {"addr:city": "Issaquah", "addr:housenumber": "59", "addr:postcode": "98027", "addr:state": "WA", "addr:street": "Front Street North", "amenity": "restaurant", "building": "retail", "cuisine": "mexican", "name": "Las Margaritas"}}, {"type": "way", "id": 218370017, "nodes": [10790919721, 2276146279, 2276146281, 2276146278, 2276146275, 10790919721], "tags": {"addr:city": "Issaquah", "addr:housenumber": "71", "addr:postcode": "98027", "addr:state": "WA", "addr:street": "Front Street North", "brand": "Allstate", "brand:wikidata": "Q2645636", "building": "office", "name": "Allstate - Eastside Agency", "office": "insurance", "opening_hours": "Mo-Th 08:30-17:30; Fr 08:30-17:00", "phone": "+1-425-392-8388"}}, {"type": "way", "id": 218378802, "nodes": [2276183052, 6418638406, 6418638405, 2276183056, 2276183057, 6418638404, 6418638403, 2276183058, 2276392392, 6418638402, 2276183054, 2276183052], "tags": {"addr:housenumber": "50", "addr:state": "WA", "addr:street": "East Sunset Way", "amenity": "pub", "building": "yes", "building:levels": "2", "name": "Rollin Log Tavern", "opening_hours": "Su-We 13:00-02:00; Th-Sa 11:00-02:00", "outdoor_seating": "yes"}}, {"type": "way", "id": 218401270, "nodes": [2276393183, 2276393182, 2276393185, 2276393184, 2276392419, 2276393179, 2276393180, 2276393181, 2276393183], "tags": {"addr:housenumber": "65", "addr:postcode": "98027", "addr:state": "WA", "addr:street": "Front Street South", "amenity": "place_of_worship", "building": "church", "contact:email": "bolccop@gmail.com", "name": "Bread of Life Christian Church", "phone": "+1-425-898-7650", "religion": "christian", "website": "http://bolccop.org/"}}, {"type": "way", "id": 222426017, "nodes": [2313966660, 9165608973, 9165608974, 9165608972, 9165608971, 9165608967, 9165608970, 9165608969, 9165608976, 9165608975, 2313966661, 2313966662, 2313966663, 2313966660], "tags": {"addr:city": "Issaquah", "addr:housenumber": "125", "addr:postcode": "98027", "addr:state": "WA", "addr:street": "West Sunset Way", "building": "office", "fax": "+1-425-392-3180", "government": "Washington State Department of Fish and Wildlife", "name": "Issaquah Salmon Hatchery Visitor Center", "office": "government", "phone": "+1-425-391-9094"}}, {"type": "way", "id": 222426018, "nodes": [2313966664, 2313966665, 9165599808, 9165599807, 9165599806, 9165599805, 9165599809, 2313966666, 2313966667, 2313966664], "tags": {"access": "customers", "amenity": "parking", "fee": "no", "parking": "surface"}}, {"type": "way", "id": 222426031, "nodes": [2313966725, 2313966726, 2313966727, 2313966728, 9906316054, 9906316051, 2313966725], "tags": {"amenity": "parking", "opening_hours": "06:00-23:00", "parking": "multi-storey"}}, {"type": "way", "id": 222426033, "nodes": [2313966734, 5571679316, 2313966735, 2313966736, 2649019928, 12205551959, 12205551964, 12205551963, 12205551962, 12205551961, 12205551960, 12044872812, 12205551954, 12205551953, 12205551958, 12205551952, 12205551956, 12205551951, 12205551955, 12205551950, 12205564759, 12044872811, 12205564760, 12205551949, 12205551948, 2313966738, 12205551943, 12205551942, 12205551941, 12205551940, 2313966739, 2313966740, 12205678159, 12205678160, 2649019972, 2649019968, 2649019970, 2649019971, 12044872813, 12044872814, 12205678158, 12205678157, 12205678156, 12044872815, 2313966741, 2313966742, 2649019995, 2313966743, 2649019998, 2313966744, 2313966745, 2313966746, 2313966747, 2313966748, 6418638411, 6418638410, 6418638409, 12205664052, 12205590206, 12205590207, 12205664023, 12205664024, 12205590208, 2313966750, 2313966751, 2313966752, 9906618759, 9906618758, 2313966753, 2274545219, 2313966754, 2313966734], "tags": {"access": "yes", "amenity": "parking", "fee": "no", "parking": "surface"}}, {"type": "way", "id": 222426034, "nodes": [2313966755, 2313966756, 2313966757, 2313966758, 2313966759, 2313966760, 2313966761, 2313966762, 2313966763, 2313966764, 2313966765, 2313966766, 12230702773, 2313966755], "tags": {"amenity": "parking"}}, {"type": "way", "id": 222426037, "nodes": [2313966779, 2274542665, 12103680127, 2576244118, 12103680126, 12103680125, 2576244127, 2576244140, 2313966771, 2313966772, 2576244136, 2576244139, 2313966773, 2313966774, 12103680129, 2576244114, 2649019835, 2576244134, 2313966775, 2576244125, 2576244115, 2649019821, 9526561845, 2313966779], "tags": {"amenity": "parking"}}, {"type": "way", "id": 222426038, "nodes": [2313966788, 2649058551, 2313966790, 2649058557, 2313966791, 2313966788], "tags": {"access": "customers", "amenity": "parking", "description": "Parking for community center customers.", "fee": "no", "parking": "surface", "surface": "asphalt"}}, {"type": "way", "id": 222426039, "nodes": [2313966792, 2313966793, 2313966794, 2313966795, 2313966792], "tags": {"access": "yes", "amenity": "parking", "fee": "no", "parking": "street_side"}}, {"type": "way", "id": 376919656, "nodes": [3802958584, 3802958583, 3802958586, 3802958587, 3802958588, 3802958589, 3802958590, 3802958575, 3802958576, 3802958585, 3802958577, 3802958584], "tags": {"access": "yes", "amenity": "parking", "fee": "no", "hiking": "yes", "name": "Mountainside Drive Trailhead", "parking": "surface", "surface": "dirt"}}, {"type": "way", "id": 376929508, "nodes": [3803062791, 3803062814, 3803062810, 3803062817, 3803062789, 3803062796, 3803062778, 3803062798, 3803062793, 3803062811, 3803062806, 3803062813, 3803062791]}, {"type": "way", "id": 427741701, "nodes": [4269273065, 3803062816, 3803062787, 3803062784, 4269273065]}, {"type": "way", "id": 500465658, "nodes": [4915119963, 4915119964, 4915119965, 4915119966, 4915119967, 4915119968, 4915119969, 4915119970, 4915119971, 4915119972, 4915119963], "tags": {"addr:city": "Issaquah", "addr:housenumber": "205", "addr:postcode": "98027", "addr:street": "Mountain Park Boulevard Southwest", "amenity": "place_of_worship", "building": "church", "name": "Living Hope Bible Church", "phone": "+1-425-587-1232", "religion": "christian", "website": "https://livinghopebible.org/"}}, {"type": "way", "id": 503283701, "nodes": [4936227870, 4936227881, 4936227872, 4936227890, 4936227870], "tags": {"access": "customers", "amenity": "parking"}}, {"type": "way", "id": 503283702, "nodes": [4936227880, 4936227889, 4936227883, 4936227874, 4936227880], "tags": {"building": "yes", "name": "Elizabeth Mari Salon", "shop": "hairdresser"}}, {"type": "way", "id": 503283703, "nodes": [4936227876, 4936227886, 4936227879, 4936227871, 4936227888, 4936227882, 4936227876], "tags": {"addr:housenumber": "154", "addr:state": "WA", "addr:street": "Front Street North", "building": "yes", "name": "Brock Smith Custom Homes", "office": "architect", "phone": "+1-425-830-8529", "website": "https://www.brocksmithcustomhomes.com"}}, {"type": "way", "id": 503283705, "nodes": [4936227873, 4936227884, 4936227875, 4936227867, 4936227885, 4936227877, 4936227869, 4936227887, 4936227873], "tags": {"amenity": "place_of_worship", "building": "yes", "name": "Soma Community Church"}}, {"type": "way", "id": 509146536, "nodes": [4984263955, 4984263954, 4984263953, 4984263952, 4984263951, 4984263950, 4984263949, 4984263948, 4984263955], "tags": {"amenity": "place_of_worship", "check_date": "2025-05-26", "denomination": "lutheran", "name": "Our Savior Lutheran Church", "religion": "christian", "service_times": "Su 10:00"}}, {"type": "way", "id": 582622599, "nodes": [5571670079, 5571670076, 5571670077, 5571670078, 5571670079], "tags": {"building": "yes", "name": "H Chi Spa", "shop": "massage"}}, {"type": "way", "id": 582622610, "nodes": [5571670723, 5571670120, 5571670721, 5571670722, 5571670723], "tags": {"addr:housenumber": "195", "addr:state": "WA", "building": "house", "name": "The Local Salon", "shop": "hairdresser"}}, {"type": "way", "id": 582624557, "nodes": [4265510789, 5571691288, 12380942070, 5571691287, 5571691286, 4265510789], "tags": {"addr:city": "Issaquah", "addr:housenumber": "25", "addr:postcode": "98027", "addr:state": "WA", "addr:street": "1st Avenue Northeast", "building": "retail", "dry_cleaning": "no", "laundry_service": "no", "name": "Suds Shop Laundromat", "opening_hours": "Mo-Su 06:00-22:00", "payment:cards": "no", "payment:coins": "yes", "payment:notes": "no", "self_service": "only", "shop": "laundry"}}, {"type": "way", "id": 582631043, "nodes": [5571742207, 5571742206, 5571742205, 5571742204, 5571742207], "tags": {"building": "yes", "name": "Wandering Hummingbird Massage", "shop": "massage"}}, {"type": "way", "id": 1011567579, "nodes": [2276392397, 9333120034, 9333120035, 9333120036, 2276392397], "tags": {"addr:city": "Issaquah", "addr:housenumber": "102", "addr:state": "WA", "addr:street": "Front Street South", "amenity": "cafe", "building": "yes", "cuisine": "coffee_shop", "name": "Koffee Sutra", "opening_hours": "Mo-Fr 05:30-18:00; Sa 06:00-18:00; Su 07:00-18:00", "outdoor_seating": "yes"}}, {"type": "way", "id": 1080836942, "nodes": [9906618760, 9906618761, 9906618762, 9906618763, 9906618764, 9906618765, 9906618760], "tags": {"access": "customers", "amenity": "parking", "parking": "surface"}}, {"type": "way", "id": 1080836943, "nodes": [9906618766, 9906618767, 9906618768, 9906618769, 9906618766], "tags": {"access": "customers", "amenity": "parking", "parking": "surface"}}, {"type": "way", "id": 1080836944, "nodes": [9906618770, 9906618771, 9906618772, 9906618773, 9906618770], "tags": {"amenity": "parking", "parking": "surface"}}, {"type": "way", "id": 1080836945, "nodes": [9906618775, 9906618776, 9906618777, 9906618778, 9906618775], "tags": {"amenity": "parking"}}, {"type": "way", "id": 1080836952, "nodes": [9906632618, 9906632619, 9906632620, 9906632621, 9906632622, 9906632623, 9906632624, 9906632625, 9906632618], "tags": {"amenity": "parking", "parking": "street_side"}}, {"type": "way", "id": 1080836953, "nodes": [9906632626, 9906632627, 9906632628, 9906632629, 9906632626], "tags": {"access": "customers", "amenity": "parking", "fee": "no", "parking": "surface"}}, {"type": "way", "id": 1080836954, "nodes": [9906632630, 9906632631, 9906632632, 9906632633, 9906632634, 9906632635, 9906632636, 9906632637, 9906632630], "tags": {"amenity": "parking"}}, {"type": "way", "id": 1080836955, "nodes": [9906632638, 9906632639, 9906632640, 9906632641, 9906632642, 9906632643, 9906632644, 9906632645, 9906632638], "tags": {"amenity": "parking"}}, {"type": "way", "id": 1080836956, "nodes": [9906632646, 9906632647, 9906632648, 9906632649, 9906632650, 9906632651, 9906632652, 9906632653, 9906632646], "tags": {"amenity": "parking"}}, {"type": "way", "id": 1080836957, "nodes": [9906632654, 9906632655, 9906632656, 9906632657, 9906632654], "tags": {"amenity": "parking"}}, {"type": "way", "id": 1080836958, "nodes": [9906632658, 9906632659, 9906632660, 9906632661, 9906632658], "tags": {"amenity": "parking"}}, {"type": "way", "id": 1080836959, "nodes": [9906632662, 9906632663, 9906632664, 9906632665, 9906632662], "tags": {"amenity": "parking"}}, {"type": "way", "id": 1080836960, "nodes": [9906632666, 9906632667, 9906632668, 9906632669, 9906632670, 9906632671, 9906632672, 9906632673, 9906632666], "tags": {"amenity": "parking"}}, {"type": "way", "id": 1080836961, "nodes": [9906632674, 9906632675, 9906632676, 9906632677, 9906632674], "tags": {"amenity": "parking"}}, {"type": "way", "id": 1080837694, "nodes": [9906622134, 9906622135, 9906622136, 9906622137, 9906622134], "tags": {"amenity": "parking", "parking": "street_side"}}, {"type": "way", "id": 1086569554, "nodes": [2274544635, 2274542661, 7010303479, 9956056862, 9956056859, 9956056860, 9956056861, 2274544634, 7010303476, 2274544635], "tags": {"addr:city": "Issaquah", "addr:housenumber": "379", "addr:postcode": "98027", "addr:state": "WA", "addr:street": "1st Place Southeast", "amenity": "school", "grades": "9-12", "mascot": "Griffins", "name": "Gibson Ek High School", "operator": "Issaquah School District 411", "operator:short": "ISD", "operator:type": "public", "operator:wikidata": "Q6088123", "religion": "none", "website": "https://gibsonek.isd411.org"}}, {"type": "way", "id": 1306468285, "nodes": [12099803099, 12099803100, 12099832501, 12099832502, 12099803099], "tags": {"amenity": "parking"}}, {"type": "way", "id": 1320480788, "nodes": [12219520350, 12219520351, 12219520352, 12219520353, 12219520350], "tags": {"amenity": "parking", "parking": "street_side"}}, {"type": "way", "id": 1320480789, "nodes": [12219520354, 12219520355, 12219520356, 12219520357, 12219520354], "tags": {"amenity": "parking", "parking": "street_side"}}, {"type": "way", "id": 1320480790, "nodes": [12219520358, 12219520359, 12219520360, 12219520361, 12219520362, 12219520363, 12219520364, 12219520365, 12219520358], "tags": {"amenity": "parking", "parking": "street_side"}}, {"type": "way", "id": 1320480791, "nodes": [12219520366, 12219520367, 12219520368, 12219520369, 12219520370, 12219520371, 12219520372, 12219520366], "tags": {"amenity": "parking", "parking": "street_side"}}, {"type": "way", "id": 1320480792, "nodes": [12219520373, 12219520374, 12219520375, 12219520376, 12219520377, 12219520373], "tags": {"amenity": "parking", "parking": "street_side"}}, {"type": "way", "id": 1320480793, "nodes": [12219520378, 12219520379, 12219520380, 12219520381, 12219520378], "tags": {"amenity": "parking", "parking": "street_side"}}, {"type": "way", "id": 1320480794, "nodes": [12219520382, 12219520383, 12219520384, 12219520385, 12219520386, 12219520387, 12219520382], "tags": {"amenity": "parking", "parking": "street_side"}}, {"type": "way", "id": 1320480795, "nodes": [12219520388, 12219520389, 12219520390, 12219520391, 12219520388], "tags": {"amenity": "parking", "parking": "street_side"}}, {"type": "way", "id": 1320480796, "nodes": [12219520392, 12219520393, 12219520394, 12219520395, 12219520392], "tags": {"amenity": "parking", "parking": "street_side"}}, {"type": "way", "id": 1320480797, "nodes": [12219520396, 12219520397, 12219520398, 12219520399, 12219520396], "tags": {"amenity": "parking", "parking": "street_side"}}, {"type": "way", "id": 1320480798, "nodes": [12219520400, 12219526601, 12219526602, 12219526603, 12219520400], "tags": {"amenity": "parking", "parking": "street_side"}}, {"type": "way", "id": 1320480799, "nodes": [12219526604, 12219526605, 12219526606, 12219526607, 12219526604], "tags": {"amenity": "parking", "parking": "street_side"}}, {"type": "way", "id": 1333386400, "nodes": [12336032647, 12336032648, 12336032649, 12336032650, 12336032647], "tags": {"amenity": "parking", "orientation": "diagonal", "parking": "both", "surface": "paved"}}, {"type": "relation", "id": 6362954, "members": [{"type": "way", "ref": 427741701, "role": "outer"}, {"type": "way", "ref": 376929508, "role": "outer"}], "tags": {"access": "yes", "amenity": "parking", "fee": "no", "name": "Issaquah Trails Center Parking", "parking": "surface", "type": "multipolygon"}}]}