{"version": 0.6, "generator": "Overpass API 0.7.62.8 e802775f", "osm3s": {"timestamp_osm_base": "2025-12-12T23:00:14Z", "copyright": "The data included in this document is from www.openstreetmap.org. The data is made available under ODbL."}, "elements": [{"type": "node", "id": 2341047487, "lat": 40.3043579, "lon": -105.0769182}, {"type": "node", "id": 2341178435, "lat": 40.2984078, "lon": -105.0819778, "tags": {"amenity": "place_of_worship", "denomination": "mormon", "internet_access": "wlan", "name": "The Church of Jesus Christ of Latter-day Saints", "religion": "christian", "website": "https://www.churchofjesuschrist.org"}}, {"type": "node", "id": 3810295392, "lat": 40.3142224, "lon": -105.0807837}, {"type": "node", "id": 3810295393, "lat": 40.3125978, "lon": -105.0807625}, {"type": "node", "id": 3810295394, "lat": 40.3126086, "lon": -105.0833178}, {"type": "node", "id": 3810295395, "lat": 40.3142197, "lon": -105.0833249}, {"type": "node", "id": 3810296519, "lat": 40.3025222, "lon": -105.081754}, {"type": "node", "id": 3810296520, "lat": 40.3025069, "lon": -105.0837565}, {"type": "node", "id": 3810296521, "lat": 40.3013631, "lon": -105.0837415}, {"type": "node", "id": 3810296522, "lat": 40.3009677, "lon": -105.0830877}, {"type": "node", "id": 3810296523, "lat": 40.3009819, "lon": -105.0812198}, {"type": "node", "id": 3810296524, "lat": 40.3021842, "lon": -105.0812355}, {"type": "node", "id": 3810296525, "lat": 40.3021803, "lon": -105.0817495}, {"type": "node", "id": 5336991301, "lat": 40.3050555, "lon": -105.0774279}, {"type": "node", "id": 5336991302, "lat": 40.3048535, "lon": -105.0774192}, {"type": "node", "id": 5336991303, "lat": 40.3048465, "lon": -105.0776972}, {"type": "node", "id": 5336991304, "lat": 40.3050485, "lon": -105.0777059}, {"type": "node", "id": 5336991305, "lat": 40.3045993, "lon": -105.0769579}, {"type": "node", "id": 5336991306, "lat": 40.3045969, "lon": -105.0771129}, {"type": "node", "id": 5336991307, "lat": 40.3044871, "lon": -105.0771081}, {"type": "node", "id": 5336991308, "lat": 40.3044874, "lon": -105.0771602}, {"type": "node", "id": 5336991309, "lat": 40.3044045, "lon": -105.0771591}, {"type": "node", "id": 5336991310, "lat": 40.3043544, "lon": -105.0771517}, {"type": "node", "id": 5336991311, "lat": 40.3043082, "lon": -105.0769178}, {"type": "node", "id": 5336991312, "lat": 40.3044899, "lon": -105.076921}, {"type": "node", "id": 5336991313, "lat": 40.3044889, "lon": -105.0769559}, {"type": "node", "id": 5336992244, "lat": 40.3046623, "lon": -105.0785531}, {"type": "node", "id": 5336992245, "lat": 40.3044704, "lon": -105.0785475}, {"type": "node", "id": 5336992246, "lat": 40.304466, "lon": -105.0788083}, {"type": "node", "id": 5336992247, "lat": 40.3046218, "lon": -105.0788128}, {"type": "node", "id": 5336992248, "lat": 40.3046195, "lon": -105.0789498}, {"type": "node", "id": 5336992249, "lat": 40.3046556, "lon": -105.0789509}, {"type": "node", "id": 5336992280, "lat": 40.3054556, "lon": -105.0802371}, {"type": "node", "id": 5336992281, "lat": 40.3052664, "lon": -105.0802279}, {"type": "node", "id": 5336992282, "lat": 40.3052742, "lon": -105.0799524}, {"type": "node", "id": 5336992283, "lat": 40.3054634, "lon": -105.0799616}, {"type": "node", "id": 5336992284, "lat": 40.3052885, "lon": -105.0802294}, {"type": "node", "id": 5336992287, "lat": 40.3054347, "lon": -105.0802343}, {"type": "node", "id": 5927892830, "lat": 40.2980581, "lon": -105.0885707}, {"type": "node", "id": 5927892831, "lat": 40.3016143, "lon": -105.0885633}, {"type": "node", "id": 5927892832, "lat": 40.3008228, "lon": -105.0844861}, {"type": "node", "id": 5927892833, "lat": 40.2999804, "lon": -105.083767}, {"type": "node", "id": 5927892834, "lat": 40.2980694, "lon": -105.083767}, {"type": "node", "id": 6444073442, "lat": 40.3043064, "lon": -105.0770254}, {"type": "node", "id": 6444073443, "lat": 40.3043437, "lon": -105.0770221}, {"type": "node", "id": 6444073444, "lat": 40.3043437, "lon": -105.0770482}, {"type": "node", "id": 6444073445, "lat": 40.3043105, "lon": -105.0770891}, {"type": "node", "id": 6444073446, "lat": 40.3043734, "lon": -105.077124}, {"type": "node", "id": 6444073447, "lat": 40.3044036, "lon": -105.077126}, {"type": "node", "id": 6824197995, "lat": 40.3050711, "lon": -105.0785991, "tags": {"addr:city": "Berthoud", "addr:housenumber": "307", "addr:postcode": "80513", "addr:state": "CO", "addr:street": "Mountain Avenue", "amenity": "fast_food", "brand": "Subway", "brand:wikidata": "Q244457", "cuisine": "sandwich", "drive_through": "no", "name": "Subway", "opening_hours": "Mo-Th 09:00-21:00; Fr-Sa 09:00-21:30; Su 09:00-21:00", "phone": "+1 970-532-9818", "takeaway": "yes", "website": "https://restaurants.subway.com/united-states/co/berthoud/307-mountain-ave"}}, {"type": "node", "id": 7082544254, "lat": 40.3065975, "lon": -105.0757931, "tags": {"addr:city": "Berthoud", "addr:housenumber": "602", "addr:postcode": "80513", "addr:street": "N 2nd", "amenity": "veterinary", "contact:phone": "+1-970-825-9604", "contact:website": "nocospayneuter.com", "description": "Low-cost Spay & Neuter Veterinary clinic.", "name": "NoCo Spay & Neuter", "opening_hours": "Mo-We 08:00-17:00"}}, {"type": "node", "id": 7604385249, "lat": 40.3043233, "lon": -105.078558, "tags": {"access": "yes", "amenity": "post_box", "brand": "FedEx", "drive_through": "no", "operator": "FedEx"}}, {"type": "node", "id": 9209812457, "lat": 40.3051284, "lon": -105.077371, "tags": {"addr:city": "Berthoud", "addr:housenumber": "269", "addr:postcode": "80513", "addr:state": "CO", "addr:street": "Mountain Avenue", "amenity": "restaurant", "cuisine": "pizza", "name": "Brick Oven Pizza"}}, {"type": "node", "id": 9209812458, "lat": 40.3051376, "lon": -105.0771457, "tags": {"addr:city": "Berthoud", "addr:housenumber": "265", "addr:postcode": "80513", "addr:state": "CO", "addr:street": "Mountain Avenue", "name": "Berthoud Wine & Spirits", "shop": "alcohol"}}, {"type": "node", "id": 9209841100, "lat": 40.3050004, "lon": -105.0758709, "tags": {"addr:city": "Berthoud", "addr:housenumber": "157", "addr:postcode": "80513", "addr:state": "CO", "addr:street": "Mountain Avenue", "alt_name": "ReStore", "brand": "Habitat for Humanity ReStore", "brand:wikidata": "Q108414596", "name": "Habitat for Humanity ReStore", "phone": "+1-970-532-2870", "second_hand": "yes", "shop": "charity", "short_name": "Habitat ReStore", "website": "https://berthoudhabitat.org/"}}, {"type": "node", "id": 12177465960, "lat": 40.3044823, "lon": -105.0768779, "tags": {"addr:city": "Berthoud", "addr:housenumber": "236", "addr:postcode": "80513", "addr:state": "CO", "addr:street": "Welch Avenue", "amenity": "polling_station", "location": "outdoor", "opening_hours": "24/7", "polling_station": "ballot_box"}}, {"type": "node", "id": 12446302287, "lat": 40.3043068, "lon": -105.0780781}, {"type": "node", "id": 12446302288, "lat": 40.3051025, "lon": -105.0780969}, {"type": "node", "id": 12446302289, "lat": 40.3050984, "lon": -105.0783007}, {"type": "node", "id": 12446302290, "lat": 40.3043047, "lon": -105.0783034}, {"type": "node", "id": 12446302291, "lat": 40.304266, "lon": -105.0781833}, {"type": "node", "id": 12875044281, "lat": 40.2983236, "lon": -105.0707323, "tags": {"addr:city": "Berthoud", "addr:housenumber": "208", "addr:postcode": "80513", "addr:state": "CO", "addr:street": "East Nebraska Avenue", "contact:facebook": "100083593651562", "contact:nextdoor": "leatherneck-appliance-berthoud-co", "language:en": "yes", "name": "Leatherneck Appliance, LLC", "opening_hours": "Mo-Fr 08:00-16:00", "phone": "+1-970-473-5783", "shop": "repair", "website": "https://leatherneckappliance.com"}}, {"type": "node", "id": 12880398733, "lat": 40.311389, "lon": -105.0764042, "tags": {"addr:city": "Berthoud", "addr:housenumber": "1015", "addr:postcode": "80513", "addr:state": "CO", "addr:street": "North 2nd Street", "name": "Livwell Dispensary", "opening_hours": "Mo-Su 08:00-23:00", "payment:cash": "yes", "phone": "+1-970-344-5060", "shop": "cannabis"}}, {"type": "node", "id": 12880398734, "lat": 40.3110957, "lon": -105.0766139, "tags": {"addr:city": "Berthoud", "addr:housenumber": "1005", "addr:postcode": "80513", "addr:state": "CO", "addr:street": "North 2nd Street", "name": "Sherpa Equipment Company", "opening_hours": "Mo-Th 07:00-17:00", "phone": "+1-970-660-8134", "shop": "car_parts"}}, {"type": "node", "id": 12880398735, "lat": 40.3122319, "lon": -105.0758306, "tags": {"addr:city": "Berthoud", "addr:housenumber": "1050", "addr:postcode": "80513", "addr:state": "CO", "addr:street": "North 2nd Street", "name": "Green Tree of Berthoud", "shop": "cannabis"}}, {"type": "node", "id": 12880398736, "lat": 40.3119562, "lon": -105.0758616, "tags": {"addr:city": "Berthoud", "addr:housenumber": "1020", "addr:postcode": "80513", "addr:state": "CO", "addr:street": "North 2nd Street", "name": "Hands On Auto Detail LLC", "shop": "car_repair"}}, {"type": "node", "id": 12880398737, "lat": 40.3129467, "lon": -105.0747079, "tags": {"addr:city": "Berthoud", "addr:housenumber": "110", "addr:postcode": "80513", "addr:state": "CO", "addr:street": "Bunyan Avenue", "amenity": "restaurant", "cuisine": "burger", "name": "Derby Grille", "phone": "+1-970-532-0986", "website": "https://www.derbygrille.com/"}}, {"type": "node", "id": 13034159300, "lat": 40.2980608, "lon": -105.087414, "tags": {"camera:type": "fixed", "direction": "330", "man_made": "surveillance", "manufacturer": "Flock Safety", "manufacturer:wikidata": "Q108485435", "surveillance:type": "ALPR"}}, {"type": "way", "id": 377646348, "nodes": [3810295392, 3810295393, 3810295394, 3810295395, 3810295392], "tags": {"amenity": "school", "name": "Berthoud Elementary School"}}, {"type": "way", "id": 377646369, "nodes": [3810296519, 3810296520, 3810296521, 3810296522, 3810296523, 3810296524, 3810296525, 3810296519], "tags": {"addr:city": "Berthoud", "addr:state": "CO", "amenity": "school", "name": "Ivy Stockwell Elementary School"}}, {"type": "way", "id": 552845345, "nodes": [5336991301, 5336991302, 5336991303, 5336991304, 5336991301], "tags": {"addr:city": "Berthoud", "addr:housenumber": "275", "addr:postcode": "80513", "addr:state": "CO", "addr:street": "Mountain Avenue", "amenity": "fire_station", "building": "yes", "name": "Berthoud Fire Department"}}, {"type": "way", "id": 552845346, "nodes": [5336991305, 5336991306, 5336991307, 5336991308, 5336991309, 6444073447, 6444073446, 5336991310, 6444073445, 6444073444, 6444073443, 6444073442, 5336991311, 2341047487, 5336991312, 5336991313, 5336991305], "tags": {"addr:city": "Berthoud", "addr:housenumber": "236", "addr:postcode": "80513", "addr:state": "CO", "addr:street": "Welch Avenue", "amenity": "library", "building": "yes", "contact:fax": "+1-970-532-4372", "contact:phone": "+1-970-532-2757", "contact:website": "https://berthoud.colibraries.org/", "name": "Berthoud Library", "opening_hours": "Mo-Tu 09:00-20:00; We-Fr 09:00-18:00; Sa 09:00-17:00", "source": "https://berthoud.colibraries.org/about-the-library/library-hours-and-holidays/"}}, {"type": "way", "id": 552845352, "nodes": [5336992244, 5336992245, 5336992246, 5336992247, 5336992248, 5336992249, 5336992244], "tags": {"addr:city": "Berthoud", "addr:housenumber": "425", "addr:postcode": "80513", "addr:state": "CO", "addr:street": "North 3rd Street", "amenity": "post_office", "brand": "United States Post Office", "brand:wikidata": "Q668687", "building": "public", "building:levels": "1", "name": "United States Post Office", "operator": "United States Postal Service", "operator:short": "USPS", "operator:type": "public", "operator:wikidata": "Q668687", "smoking": "no"}}, {"type": "way", "id": 552845360, "nodes": [5336992280, 5336992287, 5336992284, 5336992281, 5336992282, 5336992283, 5336992280], "tags": {"amenity": "restaurant", "building": "yes"}}, {"type": "way", "id": 627920250, "nodes": [5927892830, 5927892831, 5927892832, 5927892833, 5927892834, 13034159300, 5927892830], "tags": {"addr:city": "Berthoud", "addr:state": "CO", "amenity": "school", "mascot": "Spartans", "name": "Berthoud High School", "website": "https://bhs.tsd.org/"}}, {"type": "way", "id": 1345335977, "nodes": [12446302287, 12446302288, 12446302289, 12446302290, 12446302291, 12446302287], "tags": {"amenity": "parking"}}]}