{"version": 0.6, "generator": "Overpass API 0.7.62.8 e802775f", "osm3s": {"timestamp_osm_base": "2025-12-06T04:19:16Z", "copyright": "The data included in this document is from www.openstreetmap.org. The data is made available under ODbL."}, "elements": [{"type": "node", "id": 4440042457, "lat": 47.6942207, "lon": -114.1643122, "tags": {"addr:city": "Polson", "addr:housenumber": "201", "addr:postcode": "59860", "addr:state": "MT", "addr:street": "1st Street West", "name": "Harmsen Agency Inc", "office": "insurance", "phone": "+1 406 8832727", "website": "http://harmsenagencyinsurance.com"}}, {"type": "node", "id": 5859930004, "lat": 47.7010619, "lon": -114.1809844}, {"type": "node", "id": 5859930005, "lat": 47.701084, "lon": -114.1809471}, {"type": "node", "id": 5859930006, "lat": 47.7010312, "lon": -114.1808781}, {"type": "node", "id": 5859930007, "lat": 47.7010091, "lon": -114.1809154}, {"type": "node", "id": 5860094902, "lat": 47.6946406, "lon": -114.1611147}, {"type": "node", "id": 5860094903, "lat": 47.6949088, "lon": -114.1611154}, {"type": "node", "id": 5860094904, "lat": 47.6949083, "lon": -114.161518}, {"type": "node", "id": 5860094905, "lat": 47.6946401, "lon": -114.1615173}, {"type": "node", "id": 5860094929, "lat": 47.6947038, "lon": -114.1606759}, {"type": "node", "id": 5860094930, "lat": 47.6947024, "lon": -114.1604909}, {"type": "node", "id": 5860094931, "lat": 47.6948923, "lon": -114.1604879}, {"type": "node", "id": 5860094932, "lat": 47.6948936, "lon": -114.1606728}, {"type": "node", "id": 5860094983, "lat": 47.6950227, "lon": -114.1594767}, {"type": "node", "id": 5860094984, "lat": 47.6950214, "lon": -114.1593274}, {"type": "node", "id": 5860094985, "lat": 47.6951258, "lon": -114.1593254}, {"type": "node", "id": 5860094986, "lat": 47.6951271, "lon": -114.1594747}, {"type": "node", "id": 5860095033, "lat": 47.6947757, "lon": -114.160122}, {"type": "node", "id": 5860095034, "lat": 47.694775, "lon": -114.1600252}, {"type": "node", "id": 5860095035, "lat": 47.6948622, "lon": -114.1600238}, {"type": "node", "id": 5860095036, "lat": 47.6948629, "lon": -114.1601207}, {"type": "node", "id": 5860095047, "lat": 47.6943384, "lon": -114.1602079}, {"type": "node", "id": 5860095048, "lat": 47.6943415, "lon": -114.1599642}, {"type": "node", "id": 5860095049, "lat": 47.6940831, "lon": -114.1599571}, {"type": "node", "id": 5860095050, "lat": 47.69408, "lon": -114.1602008}, {"type": "node", "id": 6911604555, "lat": 47.6941671, "lon": -114.1628065}, {"type": "node", "id": 6911604556, "lat": 47.6941676, "lon": -114.1627196}, {"type": "node", "id": 6911604557, "lat": 47.6943031, "lon": -114.1627212}, {"type": "node", "id": 7475039288, "lat": 47.6951025, "lon": -114.1593258}, {"type": "node", "id": 7620417513, "lat": 47.6925859, "lon": -114.1473926}, {"type": "node", "id": 7620417514, "lat": 47.692564, "lon": -114.147673}, {"type": "node", "id": 7620417515, "lat": 47.6924925, "lon": -114.1476731}, {"type": "node", "id": 7620417516, "lat": 47.6924886, "lon": -114.1473928}, {"type": "node", "id": 7620730955, "lat": 47.6917429, "lon": -114.1454482}, {"type": "node", "id": 7620730956, "lat": 47.691741, "lon": -114.1452136}, {"type": "node", "id": 7620730957, "lat": 47.6916402, "lon": -114.1452154}, {"type": "node", "id": 7620730958, "lat": 47.691634, "lon": -114.1444424}, {"type": "node", "id": 7620730959, "lat": 47.6921338, "lon": -114.1444337}, {"type": "node", "id": 7620730960, "lat": 47.6921379, "lon": -114.1454411}, {"type": "node", "id": 8198278101, "lat": 47.6941476, "lon": -114.1620813, "tags": {"addr:city": "Polson", "addr:postcode": "59860", "addr:state": "MT", "name": "Beacon Tire Center", "shop": "tyres"}}, {"type": "node", "id": 8920069630, "lat": 47.6943013, "lon": -114.163049}, {"type": "node", "id": 8920069631, "lat": 47.6941658, "lon": -114.1630474}, {"type": "node", "id": 12015452324, "lat": 47.6925859, "lon": -114.1474525}, {"type": "node", "id": 12206166502, "lat": 47.6924887, "lon": -114.1475157}, {"type": "node", "id": 12206166503, "lat": 47.6924731, "lon": -114.1475157}, {"type": "node", "id": 12206166504, "lat": 47.6924731, "lon": -114.147564}, {"type": "node", "id": 12206166505, "lat": 47.692478, "lon": -114.147564}, {"type": "node", "id": 12206166506, "lat": 47.6924781, "lon": -114.1476176}, {"type": "node", "id": 12206166507, "lat": 47.6924925, "lon": -114.1476175}, {"type": "node", "id": 12206166508, "lat": 47.692564, "lon": -114.1475915}, {"type": "node", "id": 12206166509, "lat": 47.6925833, "lon": -114.1475915}, {"type": "node", "id": 12206166510, "lat": 47.6925833, "lon": -114.1475566}, {"type": "node", "id": 12206166511, "lat": 47.6925713, "lon": -114.1475566}, {"type": "node", "id": 12206166512, "lat": 47.6925712, "lon": -114.1474525}, {"type": "node", "id": 12475940263, "lat": 47.6921376, "lon": -114.1449146}, {"type": "node", "id": 12475940264, "lat": 47.6921346, "lon": -114.1450407}, {"type": "node", "id": 12475940265, "lat": 47.6921726, "lon": -114.14504}, {"type": "node", "id": 12475940266, "lat": 47.6921716, "lon": -114.144914}, {"type": "node", "id": 13295978786, "lat": 47.6938004, "lon": -114.163679, "tags": {"addr:city": "Polson", "addr:housenumber": "214", "addr:postcode": "59860", "addr:state": "MT", "addr:street": "Main Street", "check_date": "2025-11-11", "currency:XBT": "yes", "name": "Good Coffee Roasting Company", "opening_hours": "Mo-Fr 07:00-15:00; Sa-Su 08:00-15:00", "payment:lightning": "yes", "payment:lightning:operator": "square", "payment:lightning_contactless": "no", "payment:onchain": "no", "shop": "coffee"}}, {"type": "way", "id": 620202413, "nodes": [5859930004, 5859930005, 5859930006, 5859930007, 5859930004], "tags": {"building": "yes", "name": "Small Town Girl Coffee", "shop": "coffee"}}, {"type": "way", "id": 620221492, "nodes": [5860094902, 5860094903, 5860094904, 5860094905, 5860094902], "tags": {"brand": "NAPA Auto Parts", "brand:wikidata": "Q6970842", "building": "yes", "name": "NAPA Auto Parts", "shop": "car_parts"}}, {"type": "way", "id": 620221497, "nodes": [5860094929, 5860094930, 5860094931, 5860094932, 5860094929], "tags": {"addr:city": "Polson", "addr:housenumber": "49594", "addr:postcode": "59860", "addr:state": "MT", "addr:street": "US-93", "building": "yes", "name": "Polson Liquor Store", "shop": "alcohol"}}, {"type": "way", "id": 620221508, "nodes": [5860094983, 5860094984, 7475039288, 5860094985, 5860094986, 5860094983], "tags": {"addr:city": "Polson", "addr:housenumber": "208", "addr:postcode": "59860", "addr:state": "MT", "addr:street": "1st Avenue East", "building": "yes", "email": "cheeseme@flatheadlakecheese.com", "name": "Flathead Lake Cheese", "phone": "+1 406-883-0343", "shop": "cheese", "website": "https://flatheadlakecheese.com/"}}, {"type": "way", "id": 620221516, "nodes": [5860095033, 5860095034, 5860095035, 5860095036, 5860095033], "tags": {"addr:city": "Polson", "addr:housenumber": "105", "addr:postcode": "59860", "addr:state": "MT", "addr:street": "2nd Street East", "amenity": "restaurant", "building": "yes", "cuisine": "barbecue", "name": "Cherries BBQ Pit"}}, {"type": "way", "id": 620221519, "nodes": [5860095047, 5860095048, 5860095049, 5860095050, 5860095047], "tags": {"addr:city": "Polson", "addr:housenumber": "201", "addr:postcode": "59860", "addr:state": "MT", "addr:street": "2nd Street East", "building": "yes", "name": "Stutzman's Amish Crafted Furniture", "shop": "furniture"}}, {"type": "way", "id": 815933465, "nodes": [7620417513, 12015452324, 12206166512, 12206166511, 12206166510, 12206166509, 12206166508, 7620417514, 7620417515, 12206166507, 12206166506, 12206166505, 12206166504, 12206166503, 12206166502, 7620417516, 7620417513], "tags": {"addr:city": "Polson", "addr:housenumber": "50205", "addr:postcode": "59860", "addr:state": "MT", "addr:street": "3rd Avenue East", "amenity": "cafe", "brand": "Starbucks", "brand:wikidata": "Q37158", "building": "yes", "cuisine": "coffee_shop", "name": "Starbucks", "official_name": "Starbucks Coffee", "opening_hours": "Mo-Sa 06:00-18:00; Su 07:00-16:00", "phone": "+14065010225", "source": "microsoft/BuildingFootprints", "takeaway": "yes"}}, {"type": "way", "id": 815968091, "nodes": [7620730955, 7620730956, 7620730957, 7620730958, 7620730959, 12475940263, 12475940266, 12475940265, 12475940264, 7620730960, 7620730955], "tags": {"brand": "Super One Foods", "brand:wikidata": "Q17108733", "building": "yes", "name": "Super One Foods", "shop": "supermarket", "source": "microsoft/BuildingFootprints"}}, {"type": "way", "id": 964353807, "nodes": [8920069630, 8920069631, 6911604555, 6911604556, 6911604557, 8920069630], "tags": {"addr:city": "Polson", "addr:housenumber": "49493", "addr:postcode": "59860", "addr:state": "MT", "addr:street": "US Highway 93", "name": "Lake City Bakery & Eatery", "shop": "bakery"}}]}