{"version": 0.6, "generator": "Overpass API 0.7.62.8 e802775f", "osm3s": {"timestamp_osm_base": "2025-12-06T05:08:43Z", "copyright": "The data included in this document is from www.openstreetmap.org. The data is made available under ODbL."}, "elements": [{"type": "node", "id": 4330348051, "lat": 43.6800821, "lon": -111.9070084}, {"type": "node", "id": 5120916521, "lat": 43.673821, "lon": -111.9137383}, {"type": "node", "id": 5120916522, "lat": 43.673821, "lon": -111.9130011}, {"type": "node", "id": 5120916523, "lat": 43.6730145, "lon": -111.9129802}, {"type": "node", "id": 5120916524, "lat": 43.6730128, "lon": -111.9137217}, {"type": "node", "id": 5172104327, "lat": 43.6823475, "lon": -111.9105332, "tags": {"amenity": "restaurant", "name": "The Great Bambino"}}, {"type": "node", "id": 5172105173, "lat": 43.6823475, "lon": -111.911077, "tags": {"addr:city": "Rigby", "addr:housenumber": "205", "addr:postcode": "83442", "addr:state": "ID", "addr:street": "Stockham Boulevard", "amenity": "restaurant", "brand": "Pizza Hut", "brand:wikidata": "Q191615", "cuisine": "pizza", "name": "Pizza Hut", "phone": "+1 208-745-0460", "website": "https://locations.pizzahut.com/id/rigby/205-stockham-blvd"}}, {"type": "node", "id": 5288013153, "lat": 43.6698723, "lon": -111.9138768}, {"type": "node", "id": 5288013154, "lat": 43.669728, "lon": -111.9138768}, {"type": "node", "id": 5288013155, "lat": 43.6697281, "lon": -111.913748}, {"type": "node", "id": 5288013156, "lat": 43.6698712, "lon": -111.9137496}, {"type": "node", "id": 5288013157, "lat": 43.6697621, "lon": -111.9146385}, {"type": "node", "id": 5288013158, "lat": 43.669765, "lon": -111.914234}, {"type": "node", "id": 5288013159, "lat": 43.6696201, "lon": -111.9142281}, {"type": "node", "id": 5288013160, "lat": 43.6696215, "lon": -111.9140573}, {"type": "node", "id": 5288013161, "lat": 43.6693318, "lon": -111.9140514}, {"type": "node", "id": 5288013162, "lat": 43.6693403, "lon": -111.9146346}, {"type": "node", "id": 5288013163, "lat": 43.6693576, "lon": -111.9155768}, {"type": "node", "id": 5288013164, "lat": 43.669359, "lon": -111.9153894}, {"type": "node", "id": 5288013165, "lat": 43.6691833, "lon": -111.9153861}, {"type": "node", "id": 5288013166, "lat": 43.6691831, "lon": -111.9157749}, {"type": "node", "id": 5288013167, "lat": 43.6693577, "lon": -111.9157788}, {"type": "node", "id": 5288013172, "lat": 43.6706223, "lon": -111.9155802}, {"type": "node", "id": 5288013173, "lat": 43.6706239, "lon": -111.9154604}, {"type": "node", "id": 5288013174, "lat": 43.6705131, "lon": -111.9154577}, {"type": "node", "id": 5288013175, "lat": 43.6705116, "lon": -111.9155775}, {"type": "node", "id": 5288013180, "lat": 43.6720109, "lon": -111.9173014}, {"type": "node", "id": 5288013181, "lat": 43.6718063, "lon": -111.9172987}, {"type": "node", "id": 5288013182, "lat": 43.6718063, "lon": -111.9171848}, {"type": "node", "id": 5288013183, "lat": 43.672009, "lon": -111.9171834}, {"type": "node", "id": 5288013201, "lat": 43.6824302, "lon": -111.9097779}, {"type": "node", "id": 5288013202, "lat": 43.6823522, "lon": -111.9097763}, {"type": "node", "id": 5288013203, "lat": 43.6823499, "lon": -111.9096652}, {"type": "node", "id": 5288013204, "lat": 43.6822787, "lon": -111.9096637}, {"type": "node", "id": 5288013205, "lat": 43.6822777, "lon": -111.909391}, {"type": "node", "id": 5288013206, "lat": 43.6824245, "lon": -111.9093527}, {"type": "node", "id": 5288013207, "lat": 43.6751772, "lon": -111.9096207}, {"type": "node", "id": 5288013208, "lat": 43.6751751, "lon": -111.9094388}, {"type": "node", "id": 5288013209, "lat": 43.6750044, "lon": -111.9094359}, {"type": "node", "id": 5288013210, "lat": 43.6750044, "lon": -111.9096207}, {"type": "node", "id": 5292765093, "lat": 43.6720788, "lon": -111.9135774}, {"type": "node", "id": 5292765094, "lat": 43.6717465, "lon": -111.9135774}, {"type": "node", "id": 5292765095, "lat": 43.6717465, "lon": -111.9134869}, {"type": "node", "id": 5292765096, "lat": 43.6720799, "lon": -111.9134902}, {"type": "node", "id": 5292765097, "lat": 43.6718771, "lon": -111.9123496}, {"type": "node", "id": 5292765098, "lat": 43.6718771, "lon": -111.9120695}, {"type": "node", "id": 5292765099, "lat": 43.6717999, "lon": -111.9120661}, {"type": "node", "id": 5292765100, "lat": 43.6717975, "lon": -111.9123462}, {"type": "node", "id": 5292765101, "lat": 43.6720793, "lon": -111.9132032}, {"type": "node", "id": 5292765102, "lat": 43.6718844, "lon": -111.9132032}, {"type": "node", "id": 5292765103, "lat": 43.6718832, "lon": -111.9131214}, {"type": "node", "id": 5292765104, "lat": 43.6720793, "lon": -111.9131182}, {"type": "node", "id": 5292765111, "lat": 43.6706574, "lon": -111.9154612}, {"type": "node", "id": 5292765112, "lat": 43.6706618, "lon": -111.915114}, {"type": "node", "id": 5292765113, "lat": 43.6705333, "lon": -111.9151109}, {"type": "node", "id": 5292765114, "lat": 43.6705289, "lon": -111.9154581}, {"type": "node", "id": 5292765115, "lat": 43.6683576, "lon": -111.9153373}, {"type": "node", "id": 5292765116, "lat": 43.6681652, "lon": -111.9153373}, {"type": "node", "id": 5292765117, "lat": 43.668164, "lon": -111.9151383}, {"type": "node", "id": 5292765118, "lat": 43.6683576, "lon": -111.9151383}, {"type": "node", "id": 5292765119, "lat": 43.6685487, "lon": -111.9156239}, {"type": "node", "id": 5292765120, "lat": 43.6683874, "lon": -111.9156222}, {"type": "node", "id": 5292765621, "lat": 43.6683862, "lon": -111.9153253}, {"type": "node", "id": 5292765622, "lat": 43.6685487, "lon": -111.915327}, {"type": "node", "id": 5292765673, "lat": 43.6799814, "lon": -111.9094653}, {"type": "node", "id": 5292765674, "lat": 43.6786292, "lon": -111.9088707}, {"type": "node", "id": 5292765675, "lat": 43.6786192, "lon": -111.907376}, {"type": "node", "id": 5292765676, "lat": 43.6799352, "lon": -111.9076122}, {"type": "node", "id": 5316670967, "lat": 43.6696407, "lon": -111.9343845}, {"type": "node", "id": 5316670968, "lat": 43.6691558, "lon": -111.9343901}, {"type": "node", "id": 5316670969, "lat": 43.6691538, "lon": -111.9340872}, {"type": "node", "id": 5316670970, "lat": 43.6696386, "lon": -111.9340788}, {"type": "node", "id": 5316671291, "lat": 43.6716351, "lon": -111.9157377}, {"type": "node", "id": 5316671292, "lat": 43.6715081, "lon": -111.9157377}, {"type": "node", "id": 5316671293, "lat": 43.6715116, "lon": -111.9150806}, {"type": "node", "id": 5316671294, "lat": 43.6716385, "lon": -111.9150782}, {"type": "node", "id": 5316671295, "lat": 43.6720608, "lon": -111.9154537}, {"type": "node", "id": 5316671296, "lat": 43.6717918, "lon": -111.915466}, {"type": "node", "id": 5316671297, "lat": 43.6717941, "lon": -111.9151779}, {"type": "node", "id": 5316671298, "lat": 43.6720664, "lon": -111.9151655}, {"type": "node", "id": 5316671333, "lat": 43.6724417, "lon": -111.9121573}, {"type": "node", "id": 5316671334, "lat": 43.6723545, "lon": -111.9121573}, {"type": "node", "id": 5316671335, "lat": 43.6723545, "lon": -111.9120605}, {"type": "node", "id": 5316671336, "lat": 43.6724417, "lon": -111.9120645}, {"type": "node", "id": 5316671389, "lat": 43.6796479, "lon": -111.906981}, {"type": "node", "id": 5316671390, "lat": 43.6794345, "lon": -111.9069696}, {"type": "node", "id": 5316671391, "lat": 43.6794448, "lon": -111.9066025}, {"type": "node", "id": 5316671392, "lat": 43.6796054, "lon": -111.906611}, {"type": "node", "id": 5316671393, "lat": 43.6796007, "lon": -111.9067782}, {"type": "node", "id": 5316671394, "lat": 43.6796535, "lon": -111.906781}, {"type": "node", "id": 5316671396, "lat": 43.6798767, "lon": -111.9070094}, {"type": "node", "id": 5316671397, "lat": 43.6798757, "lon": -111.9066924}, {"type": "node", "id": 5316671398, "lat": 43.6800811, "lon": -111.9066904}, {"type": "node", "id": 5319348834, "lat": 43.673821, "lon": -111.9134907}, {"type": "node", "id": 5319348837, "lat": 43.673821, "lon": -111.91325}, {"type": "node", "id": 5319394735, "lat": 43.6720305, "lon": -111.9139961}, {"type": "node", "id": 5319394736, "lat": 43.6717838, "lon": -111.9139917}, {"type": "node", "id": 5319394737, "lat": 43.6717853, "lon": -111.9138312}, {"type": "node", "id": 5319394738, "lat": 43.672032, "lon": -111.9138357}, {"type": "node", "id": 5319394739, "lat": 43.6834723, "lon": -111.9085326}, {"type": "node", "id": 5319394740, "lat": 43.6834686, "lon": -111.9081577}, {"type": "node", "id": 5319394741, "lat": 43.6835447, "lon": -111.9081563}, {"type": "node", "id": 5319394742, "lat": 43.683543, "lon": -111.9079772}, {"type": "node", "id": 5319394743, "lat": 43.683199, "lon": -111.9079836}, {"type": "node", "id": 5319394744, "lat": 43.6832044, "lon": -111.9085376}, {"type": "node", "id": 5332227731, "lat": 43.672693, "lon": -111.9132003}, {"type": "node", "id": 5332227732, "lat": 43.6723486, "lon": -111.9131958}, {"type": "node", "id": 5332227733, "lat": 43.6723486, "lon": -111.9131075}, {"type": "node", "id": 5332227734, "lat": 43.672694, "lon": -111.913112}, {"type": "node", "id": 9589088157, "lat": 43.6811931, "lon": -111.908307}, {"type": "node", "id": 9589088158, "lat": 43.6810439, "lon": -111.9083054}, {"type": "node", "id": 9589088159, "lat": 43.6810411, "lon": -111.9087865}, {"type": "node", "id": 9589088160, "lat": 43.6811905, "lon": -111.9087881}, {"type": "node", "id": 9590347722, "lat": 43.6799741, "lon": -111.9091892}, {"type": "node", "id": 9590347723, "lat": 43.6798795, "lon": -111.9091933}, {"type": "node", "id": 9590347724, "lat": 43.6798797, "lon": -111.9089674}, {"type": "node", "id": 9590347725, "lat": 43.6799272, "lon": -111.9089725}, {"type": "node", "id": 9590347726, "lat": 43.6794915, "lon": -111.9094656}, {"type": "node", "id": 9590347727, "lat": 43.6794837, "lon": -111.9089073}, {"type": "node", "id": 9590347728, "lat": 43.6791083, "lon": -111.907468}, {"type": "node", "id": 9904016006, "lat": 43.6696595, "lon": -111.930409, "tags": {"addr:city": "Rigby", "addr:housenumber": "595", "addr:postcode": "83442", "addr:state": "ID", "addr:street": "West 1st South", "email": "axel@hydrogrindconcrete.com", "name": "HydroGrind Inc.", "opening_hours": "Mo-Sa 08:00-17:00; Su off", "phone": "+1-208-534-7130", "shop": "flooring", "website": "https://hydrogrindconcrete.com/"}}, {"type": "node", "id": 9919392646, "lat": 43.6653544, "lon": -111.9137075, "tags": {"addr:city": "Rigby", "addr:housenumber": "272", "addr:postcode": "83442", "addr:state": "ID", "addr:street": "North Yellowstone Highway", "name": "Yellowstone Lumber", "opening_hours": "Mo-Fr 07:30-17:30; Sa 09:00-16:00", "phone": "+1-208-745-8983", "shop": "hardware", "website": "https://www.yellowstonelumber.com/"}}, {"type": "node", "id": 12162796803, "lat": 43.6741707, "lon": -111.9102356}, {"type": "node", "id": 12162796804, "lat": 43.6741072, "lon": -111.9102356}, {"type": "node", "id": 12162796805, "lat": 43.6741093, "lon": -111.9103072}, {"type": "node", "id": 12162796806, "lat": 43.6739603, "lon": -111.9103072}, {"type": "node", "id": 12162796807, "lat": 43.6739614, "lon": -111.9102312}, {"type": "node", "id": 12162796808, "lat": 43.6738916, "lon": -111.9102283}, {"type": "node", "id": 12162796809, "lat": 43.6738926, "lon": -111.9104461}, {"type": "node", "id": 12162796810, "lat": 43.6741696, "lon": -111.9104402}, {"type": "node", "id": 12162796811, "lat": 43.6741397, "lon": -111.9102825, "tags": {"addr:city": "Rigby", "addr:housenumber": "217", "addr:postcode": "83442", "addr:state": "ID", "addr:street": "Farnsworth Way", "addr:unit": "Suit A", "name": "Country Cowlicks", "shop": "hairdresser"}}, {"type": "node", "id": 12162796812, "lat": 43.6739938, "lon": -111.910332, "tags": {"addr:city": "Rigby", "addr:housenumber": "255", "addr:postcode": "83442", "addr:state": "ID", "addr:street": "Farnsworth Way", "addr:unit": "Suit B", "name": "Rustic Roots", "shop": "furniture"}}, {"type": "node", "id": 12162796821, "lat": 43.6746864, "lon": -111.9098892}, {"type": "node", "id": 12162796822, "lat": 43.6746887, "lon": -111.9097009}, {"type": "node", "id": 12162796823, "lat": 43.6744386, "lon": -111.9096964}, {"type": "node", "id": 12162796824, "lat": 43.674445, "lon": -111.9098925}, {"type": "node", "id": 12162796825, "lat": 43.6730863, "lon": -111.9123464}, {"type": "node", "id": 12162796826, "lat": 43.6730882, "lon": -111.9121941}, {"type": "node", "id": 12162796827, "lat": 43.6728505, "lon": -111.9121929}, {"type": "node", "id": 12162796828, "lat": 43.6728496, "lon": -111.9123375}, {"type": "node", "id": 12162796830, "lat": 43.6729046, "lon": -111.912217, "tags": {"addr:city": "Rigby", "addr:housenumber": "133", "addr:postcode": "83442", "addr:state": "ID", "addr:street": "North Clark Street", "amenity": "restaurant", "cuisine": "mexican", "name": "Fiesta Ole'"}}, {"type": "node", "id": 12162796831, "lat": 43.6726744, "lon": -111.9141379}, {"type": "node", "id": 12162796832, "lat": 43.6726786, "lon": -111.9140448}, {"type": "node", "id": 12162796833, "lat": 43.6723616, "lon": -111.9140525}, {"type": "node", "id": 12162796834, "lat": 43.6723602, "lon": -111.9141534}, {"type": "node", "id": 12162796835, "lat": 43.6723855, "lon": -111.9141068, "tags": {"addr:city": "Rigby", "addr:housenumber": "129", "addr:postcode": "83442", "addr:state": "ID", "addr:street": "East Main Street", "name": "Holidae Fund and Games - Rigby", "phone": "+19864977958", "shop": "games"}}, {"type": "node", "id": 12162796836, "lat": 43.6725542, "lon": -111.914329}, {"type": "node", "id": 12162796837, "lat": 43.6725496, "lon": -111.9142605}, {"type": "node", "id": 12162796838, "lat": 43.6723633, "lon": -111.9142605}, {"type": "node", "id": 12162796839, "lat": 43.6723642, "lon": -111.9143353}, {"type": "node", "id": 12162796840, "lat": 43.6723743, "lon": -111.9142985, "tags": {"addr:city": "Rigby", "addr:housenumber": "123", "addr:postcode": "83442", "addr:state": "ID", "addr:street": "East Main Street", "name": "Jefferson Star", "office": "newspaper", "phone": "+1-208-745-8701", "website": "https://www.postregister.com/star/"}}, {"type": "node", "id": 12162796841, "lat": 43.67273, "lon": -111.9190123}, {"type": "node", "id": 12162796842, "lat": 43.6727407, "lon": -111.9184818}, {"type": "node", "id": 12162796843, "lat": 43.6725049, "lon": -111.9184848}, {"type": "node", "id": 12162796844, "lat": 43.6725114, "lon": -111.9190094}, {"type": "node", "id": 12162819958, "lat": 43.6736199, "lon": -111.9104084, "tags": {"addr:city": "Rigby", "addr:housenumber": "215", "addr:postcode": "83442", "addr:state": "ID", "addr:street": "Farnsworth Way", "name": "Thompson Land Surveying, Inc.", "office": "surveyor", "phone": "+12087458771", "website": "https://www.teidaho.com/"}}, {"type": "node", "id": 13157137186, "lat": 43.6781751, "lon": -111.90707}, {"type": "node", "id": 13157137187, "lat": 43.6780183, "lon": -111.9070734}, {"type": "node", "id": 13157137188, "lat": 43.6779757, "lon": -111.9070549}, {"type": "node", "id": 13157137189, "lat": 43.6779684, "lon": -111.9070061}, {"type": "node", "id": 13157137190, "lat": 43.6779806, "lon": -111.9069742}, {"type": "node", "id": 13157137191, "lat": 43.6791028, "lon": -111.9064614}, {"type": "node", "id": 13157137192, "lat": 43.679098, "lon": -111.906411}, {"type": "node", "id": 13157137193, "lat": 43.6793254, "lon": -111.9063303}, {"type": "node", "id": 13157137194, "lat": 43.6793533, "lon": -111.906406}, {"type": "node", "id": 13157137195, "lat": 43.6793472, "lon": -111.9072566}, {"type": "node", "id": 13157458199, "lat": 43.6833805, "lon": -111.9079802, "tags": {"entrance": "yes"}}, {"type": "way", "id": 526612514, "nodes": [5120916521, 5319348834, 5319348837, 5120916522, 5120916523, 5120916524, 5120916521], "tags": {"addr:city": "Rigby", "addr:housenumber": "150", "addr:postcode": "83442", "addr:state": "ID", "addr:street": "North State Street", "building": "yes", "name": "Broulim's", "opening_hours": "Mo-Sa 06:00-23:00", "phone": "+1 208-745-7771", "shop": "supermarket"}}, {"type": "way", "id": 547289177, "nodes": [5288013153, 5288013154, 5288013155, 5288013156, 5288013153], "tags": {"amenity": "cafe", "building": "yes", "name": "The Fizz Bizz"}}, {"type": "way", "id": 547289178, "nodes": [5288013157, 5288013158, 5288013159, 5288013160, 5288013161, 5288013162, 5288013157], "tags": {"addr:city": "Rigby", "addr:housenumber": "201", "addr:postcode": "83442-1425", "addr:state": "ID", "addr:street": "South State Street", "brand": "Ace Hardware", "brand:wikidata": "Q4672981", "building": "yes", "name": "Scotty's Ace Hardware", "opening_hours": "Mo-Sa 07:30-19:00", "phone": "+1 208-745-6498", "ref": "18653", "shop": "hardware"}}, {"type": "way", "id": 547289179, "nodes": [5288013163, 5288013164, 5288013165, 5288013166, 5288013167, 5288013163], "tags": {"brand": "Family Dollar", "brand:wikidata": "Q5433101", "building": "yes", "name": "Family Dollar", "shop": "variety_store"}}, {"type": "way", "id": 547289181, "nodes": [5288013172, 5288013173, 5292765114, 5288013174, 5288013175, 5288013172], "tags": {"amenity": "restaurant", "building": "yes", "name": "Fiesta Ole"}}, {"type": "way", "id": 547289183, "nodes": [5288013180, 5288013181, 5288013182, 5288013183, 5288013180], "tags": {"amenity": "restaurant", "building": "yes", "name": "Taqueria El Rancho"}}, {"type": "way", "id": 547289188, "nodes": [5288013201, 5288013202, 5288013203, 5288013204, 5288013205, 5288013206, 5288013201], "tags": {"amenity": "restaurant", "building": "yes", "name": "New Star"}}, {"type": "way", "id": 547289189, "nodes": [5288013207, 5288013208, 5288013209, 5288013210, 5288013207], "tags": {"building": "yes", "name": "Beloved Fashion", "shop": "clothes"}}, {"type": "way", "id": 547792139, "nodes": [5292765093, 5292765094, 5292765095, 5292765096, 5292765093], "tags": {"building": "yes", "name": "Caramel Tree", "shop": "confectionery"}}, {"type": "way", "id": 547792140, "nodes": [5292765097, 5292765098, 5292765099, 5292765100, 5292765097], "tags": {"amenity": "restaurant", "building": "yes", "name": "Lil' Mike's Bar-B-Que"}}, {"type": "way", "id": 547792141, "nodes": [5292765101, 5292765102, 5292765103, 5292765104, 5292765101], "tags": {"amenity": "bar", "building": "yes", "name": "Don's"}}, {"type": "way", "id": 547792143, "nodes": [5292765111, 5292765112, 5292765113, 5292765114, 5288013173, 5292765111], "tags": {"brand": "Good 2 Go", "brand:wikidata": "Q109826132", "building": "yes", "name": "Good 2 Go", "shop": "convenience"}}, {"type": "way", "id": 547792144, "nodes": [5292765115, 5292765116, 5292765117, 5292765118, 5292765115], "tags": {"amenity": "bar", "building": "yes", "name": "Dolly's"}}, {"type": "way", "id": 547792145, "nodes": [5292765119, 5292765120, 5292765621, 5292765622, 5292765119], "tags": {"brand": "NAPA Auto Parts", "brand:wikidata": "Q6970842", "building": "yes", "name": "NAPA Auto Parts", "shop": "car_parts"}}, {"type": "way", "id": 547792153, "nodes": [5292765673, 9590347726, 9590347727, 5292765674, 5292765675, 9590347728, 5292765676, 9590347725, 9590347724, 9590347723, 9590347722, 5292765673]}, {"type": "way", "id": 550457592, "nodes": [5316670967, 5316670968, 5316670969, 5316670970, 5316670967], "tags": {"building": "yes", "name": "Jefferson School District", "office": "yes"}}, {"type": "way", "id": 550457604, "nodes": [5316671291, 5316671292, 5316671293, 5316671294, 5316671291], "tags": {"brand": "Les Schwab Tire Center", "brand:wikidata": "Q6529977", "building": "yes", "name": "Les Schwab Tire Center", "shop": "tyres"}}, {"type": "way", "id": 550457605, "nodes": [5316671295, 5316671296, 5316671297, 5316671298, 5316671295], "tags": {"building": "yes", "name": "Eckersell", "shop": "funeral_directors"}}, {"type": "way", "id": 550457609, "nodes": [5316671333, 5316671334, 5316671335, 5316671336, 5316671333], "tags": {"building": "yes", "name": "Rocky Mountain Vape", "shop": "e-cigarette"}}, {"type": "way", "id": 550457618, "nodes": [5316671389, 5316671390, 5316671391, 5316671392, 5316671393, 5316671394, 5316671389], "tags": {"building": "yes", "name": "Bob's Kwik Services", "shop": "convenience"}}, {"type": "way", "id": 550457619, "nodes": [4330348051, 5316671396, 5316671397, 5316671398, 4330348051], "tags": {"addr:city": "Rigby", "addr:housenumber": "414", "addr:postcode": "83442", "addr:state": "ID", "addr:street": "Farnsworth Way", "brand": "O'Reilly Auto Parts", "brand:wikidata": "Q7071951", "building": "yes", "name": "O'Reilly Auto Parts", "shop": "car_parts", "website": "https://locations.oreillyauto.com/id/rigby/autoparts-5584.html"}}, {"type": "way", "id": 550756061, "nodes": [5319394735, 5319394736, 5319394737, 5319394738, 5319394735], "tags": {"brand": "Maverik", "brand:wikidata": "Q64149010", "building": "yes", "name": "Maverik", "shop": "convenience"}}, {"type": "way", "id": 550756062, "nodes": [5319394739, 5319394740, 5319394741, 5319394742, 13157458199, 5319394743, 5319394744, 5319394739], "tags": {"brand": "Point S", "brand:wikidata": "Q3393358", "building": "yes", "name": "Point S Ron's Tires and Motorsport", "shop": "car_repair"}}, {"type": "way", "id": 552244170, "nodes": [5332227731, 5332227732, 5332227733, 5332227734, 5332227731], "tags": {"building": "yes", "name": "Country Cottons", "shop": "copyshop"}}, {"type": "way", "id": 1041584044, "nodes": [9589088157, 9589088158, 9589088159, 9589088160, 9589088157], "tags": {"brand": "Conoco", "brand:wikidata": "Q109341187", "building": "yes", "name": "Conoco", "shop": "convenience"}}, {"type": "way", "id": 1314082386, "nodes": [12162796803, 12162796804, 12162796805, 12162796806, 12162796807, 12162796808, 12162796809, 12162796810, 12162796803], "tags": {"addr:city": "Rigby", "addr:housenumber": "255", "addr:postcode": "83442", "addr:state": "ID", "addr:street": "Farnsworth Way", "building": "yes", "shop": "yes"}}, {"type": "way", "id": 1314082388, "nodes": [12162796821, 12162796822, 12162796823, 12162796824, 12162796821], "tags": {"addr:city": "Rigby", "addr:housenumber": "289", "addr:postcode": "83442", "addr:state": "ID", "addr:street": "East 1st North", "building": "yes", "name": "Friendly Motors and Marine", "shop": "repair"}}, {"type": "way", "id": 1314082389, "nodes": [12162796825, 12162796826, 12162796827, 12162796828, 12162796825], "tags": {"building": "yes", "shop": "yes"}}, {"type": "way", "id": 1314082390, "nodes": [12162796831, 12162796832, 12162796833, 12162796834, 12162796831], "tags": {"addr:city": "Rigby", "addr:housenumber": "129", "addr:postcode": "83442", "addr:state": "ID", "addr:street": "East Main Street", "building": "yes", "shop": "games"}}, {"type": "way", "id": 1314082391, "nodes": [12162796836, 12162796837, 12162796838, 12162796839, 12162796836], "tags": {"addr:city": "Rigby", "addr:housenumber": "123", "addr:postcode": "83442", "addr:state": "ID", "addr:street": "East Main Street", "building": "yes", "office": "newspaper"}}, {"type": "way", "id": 1314082392, "nodes": [12162796841, 12162796842, 12162796843, 12162796844, 12162796841], "tags": {"addr:city": "Rigby", "addr:housenumber": "125", "addr:postcode": "83442", "addr:state": "ID", "addr:street": "North 1st West", "brand": "Dollar Tree", "brand:wikidata": "Q5289230", "building": "yes", "name": "Dollar Tree", "phone": "+19862226000", "shop": "variety_store"}}, {"type": "way", "id": 1431385476, "nodes": [13157137186, 13157137187, 13157137188, 13157137189, 13157137190, 13157137191, 13157137192, 13157137193, 13157137194, 13157137195, 13157137186]}, {"type": "relation", "id": 19625125, "members": [{"type": "way", "ref": 1431385476, "role": "outer"}, {"type": "way", "ref": 547792153, "role": "outer"}], "tags": {"name": "Tadd Jenkins Chevrolet", "shop": "car", "type": "multipolygon"}}]}