{"version": 0.6, "generator": "Overpass API 0.7.62.8 e802775f", "osm3s": {"timestamp_osm_base": "2025-12-12T18:21:51Z", "copyright": "The data included in this document is from www.openstreetmap.org. The data is made available under ODbL."}, "elements": [{"type": "node", "id": 366395943, "lat": 37.3505219, "lon": -108.5698498}, {"type": "node", "id": 1386797519, "lat": 37.3490915, "lon": -108.5680932}, {"type": "node", "id": 1386797520, "lat": 37.3490467, "lon": -108.5680934}, {"type": "node", "id": 1386797539, "lat": 37.3490488, "lon": -108.567911}, {"type": "node", "id": 1386797546, "lat": 37.3490915, "lon": -108.5681282}, {"type": "node", "id": 1386797554, "lat": 37.349326, "lon": -108.5679217}, {"type": "node", "id": 1860573319, "lat": 37.3484389, "lon": -108.5675972, "tags": {"addr:city": "Cortez", "addr:housenumber": "1300", "addr:state": "CO", "addr:street": "E Main St", "amenity": "fast_food", "brand": "Taco Bell", "brand:wikidata": "Q752941", "cuisine": "tex-mex", "drive_through": "yes", "name": "Taco Bell", "opening_hours": "Mo-Su 10:00-22:00", "opening_hours:drive_through": "Mo-Tu 08:00-24:00, We 09:00-24:00, Th-Su 08:00-24:00", "phone": "+1-970-565-7494", "takeaway": "yes", "website": "https://locations.tacobell.com/co/cortez/1300-east-main-street.html"}}, {"type": "node", "id": 2361126013, "lat": 37.3485322, "lon": -108.5709845, "tags": {"addr:city": "Cortez", "addr:housenumber": "1119", "addr:postcode": "81321", "addr:state": "CO", "addr:street": "East Main Street", "amenity": "restaurant", "brand": "Pizza Hut", "brand:wikidata": "Q191615", "cuisine": "pizza", "name": "Pizza Hut", "phone": "+1 970-565-4037", "website": "https://locations.pizzahut.com/co/cortez/1119-e-main-st"}}, {"type": "node", "id": 2526245692, "lat": 37.3484218, "lon": -108.5707109}, {"type": "node", "id": 2526245693, "lat": 37.3484231, "lon": -108.5705822}, {"type": "node", "id": 2526245712, "lat": 37.3485833, "lon": -108.5707133}, {"type": "node", "id": 2526245713, "lat": 37.3485845, "lon": -108.5705846}, {"type": "node", "id": 3290238782, "lat": 37.3494917, "lon": -108.5742007, "tags": {"entrance": "main"}}, {"type": "node", "id": 3290238813, "lat": 37.3494155, "lon": -108.5733616, "tags": {"entrance": "main"}}, {"type": "node", "id": 3291843909, "lat": 37.3491292, "lon": -108.5691086}, {"type": "node", "id": 3291843910, "lat": 37.3491316, "lon": -108.5689951}, {"type": "node", "id": 3291843912, "lat": 37.3492886, "lon": -108.5690002}, {"type": "node", "id": 3375051951, "lat": 37.3481604, "lon": -108.5641743}, {"type": "node", "id": 3375051952, "lat": 37.3481497, "lon": -108.5646142}, {"type": "node", "id": 3375051953, "lat": 37.3484632, "lon": -108.5646249}, {"type": "node", "id": 3375051954, "lat": 37.3484632, "lon": -108.5642172}, {"type": "node", "id": 3375051955, "lat": 37.3466784, "lon": -108.5626423}, {"type": "node", "id": 3375051957, "lat": 37.3467223, "lon": -108.5624185}, {"type": "node", "id": 3375051958, "lat": 37.3467245, "lon": -108.5623059}, {"type": "node", "id": 3375051959, "lat": 37.3466931, "lon": -108.5623049}, {"type": "node", "id": 3375051960, "lat": 37.3467042, "lon": -108.5617392}, {"type": "node", "id": 3375051961, "lat": 37.346735, "lon": -108.5617401}, {"type": "node", "id": 3375051962, "lat": 37.3467376, "lon": -108.5616084}, {"type": "node", "id": 3375051964, "lat": 37.3467001, "lon": -108.5614892}, {"type": "node", "id": 3375051965, "lat": 37.3465878, "lon": -108.5614857}, {"type": "node", "id": 3375051966, "lat": 37.3465962, "lon": -108.5610598}, {"type": "node", "id": 3375051967, "lat": 37.3465549, "lon": -108.5610585}, {"type": "node", "id": 3375051968, "lat": 37.3465599, "lon": -108.560808}, {"type": "node", "id": 3375051969, "lat": 37.3463603, "lon": -108.5608017}, {"type": "node", "id": 3375051970, "lat": 37.3463549, "lon": -108.5610737}, {"type": "node", "id": 3375051971, "lat": 37.3461111, "lon": -108.5610662}, {"type": "node", "id": 3375051972, "lat": 37.346116, "lon": -108.5608187}, {"type": "node", "id": 3375051973, "lat": 37.3459599, "lon": -108.5608138}, {"type": "node", "id": 3375051974, "lat": 37.3459546, "lon": -108.5610856}, {"type": "node", "id": 3375051975, "lat": 37.3459232, "lon": -108.5610846}, {"type": "node", "id": 3375051976, "lat": 37.3459209, "lon": -108.5611993}, {"type": "node", "id": 3375051977, "lat": 37.3457131, "lon": -108.5611929}, {"type": "node", "id": 3375051978, "lat": 37.3456768, "lon": -108.5630337}, {"type": "node", "id": 3375051979, "lat": 37.3457829, "lon": -108.563037}, {"type": "node", "id": 3375051980, "lat": 37.3457875, "lon": -108.5628008}, {"type": "node", "id": 3375051981, "lat": 37.3465611, "lon": -108.5628249}, {"type": "node", "id": 3375051982, "lat": 37.3465647, "lon": -108.5626388}, {"type": "node", "id": 3375051987, "lat": 37.3483363, "lon": -108.5607598}, {"type": "node", "id": 3375051988, "lat": 37.3470186, "lon": -108.5607223}, {"type": "node", "id": 3375051989, "lat": 37.3468608, "lon": -108.5606525}, {"type": "node", "id": 3375051990, "lat": 37.3468181, "lon": -108.5633133}, {"type": "node", "id": 3375051991, "lat": 37.3473555, "lon": -108.5633133}, {"type": "node", "id": 3375051992, "lat": 37.3473811, "lon": -108.5628412}, {"type": "node", "id": 3375054393, "lat": 37.3474664, "lon": -108.5627017}, {"type": "node", "id": 3375054394, "lat": 37.3475644, "lon": -108.5625998}, {"type": "node", "id": 3375054395, "lat": 37.347718, "lon": -108.5625408}, {"type": "node", "id": 3375054396, "lat": 37.3483022, "lon": -108.5625247}, {"type": "node", "id": 3375057975, "lat": 37.3506464, "lon": -108.5651401}, {"type": "node", "id": 3375057976, "lat": 37.3500877, "lon": -108.5651424}, {"type": "node", "id": 3375057977, "lat": 37.3500902, "lon": -108.5661053}, {"type": "node", "id": 3375057978, "lat": 37.3499867, "lon": -108.5649226}, {"type": "node", "id": 3375057979, "lat": 37.3493896, "lon": -108.5649172}, {"type": "node", "id": 3375057980, "lat": 37.3493406, "lon": -108.5649387}, {"type": "node", "id": 3375057981, "lat": 37.3492937, "lon": -108.5659338}, {"type": "node", "id": 3375057982, "lat": 37.3492532, "lon": -108.5659848}, {"type": "node", "id": 3375057983, "lat": 37.3492916, "lon": -108.5660089}, {"type": "node", "id": 3375057984, "lat": 37.3499803, "lon": -108.5660196}, {"type": "node", "id": 3375057985, "lat": 37.3506498, "lon": -108.5661376}, {"type": "node", "id": 3375057986, "lat": 37.3500592, "lon": -108.566135}, {"type": "node", "id": 3375057987, "lat": 37.3500528, "lon": -108.5666258}, {"type": "node", "id": 3375057988, "lat": 37.3499824, "lon": -108.5667787}, {"type": "node", "id": 3375057989, "lat": 37.3507521, "lon": -108.5667841}, {"type": "node", "id": 3375057990, "lat": 37.3507351, "lon": -108.566481}, {"type": "node", "id": 3375057991, "lat": 37.3507287, "lon": -108.5663817}, {"type": "node", "id": 3375057992, "lat": 37.3506413, "lon": -108.5663764}, {"type": "node", "id": 3375058022, "lat": 37.3507415, "lon": -108.5699464}, {"type": "node", "id": 3375058023, "lat": 37.3507408, "lon": -108.5695479}, {"type": "node", "id": 3375058024, "lat": 37.3506283, "lon": -108.5695492}, {"type": "node", "id": 3375058025, "lat": 37.350647, "lon": -108.569503}, {"type": "node", "id": 3375058026, "lat": 37.3506434, "lon": -108.5694421}, {"type": "node", "id": 3375058027, "lat": 37.3506285, "lon": -108.569418}, {"type": "node", "id": 3375058028, "lat": 37.3505965, "lon": -108.5694019}, {"type": "node", "id": 3375058029, "lat": 37.3505688, "lon": -108.5694019}, {"type": "node", "id": 3375058030, "lat": 37.3505389, "lon": -108.569426}, {"type": "node", "id": 3375058031, "lat": 37.3505368, "lon": -108.5693939}, {"type": "node", "id": 3375058032, "lat": 37.3500528, "lon": -108.5693831}, {"type": "node", "id": 3375058033, "lat": 37.3500528, "lon": -108.5696057}, {"type": "node", "id": 3375058034, "lat": 37.3502276, "lon": -108.5696057}, {"type": "node", "id": 3375058035, "lat": 37.3502319, "lon": -108.5698498}, {"type": "node", "id": 3375058037, "lat": 37.3505219, "lon": -108.5699491}, {"type": "node", "id": 3375088821, "lat": 37.3492061, "lon": -108.5784117}, {"type": "node", "id": 3375088822, "lat": 37.3488671, "lon": -108.5784016}, {"type": "node", "id": 3375088823, "lat": 37.3488656, "lon": -108.5784835}, {"type": "node", "id": 3375088824, "lat": 37.3492045, "lon": -108.5784936}, {"type": "node", "id": 3375088825, "lat": 37.3507138, "lon": -108.5778905}, {"type": "node", "id": 3375088826, "lat": 37.3503283, "lon": -108.5778823}, {"type": "node", "id": 3375088827, "lat": 37.3503363, "lon": -108.577293}, {"type": "node", "id": 3375088828, "lat": 37.3500731, "lon": -108.5772873}, {"type": "node", "id": 3375088829, "lat": 37.3500618, "lon": -108.5781211}, {"type": "node", "id": 3375088830, "lat": 37.3497164, "lon": -108.5782552}, {"type": "node", "id": 3375088831, "lat": 37.349099, "lon": -108.578242}, {"type": "node", "id": 3375088832, "lat": 37.3491125, "lon": -108.577243}, {"type": "node", "id": 3375088833, "lat": 37.3495937, "lon": -108.5772532}, {"type": "node", "id": 3375088834, "lat": 37.3496079, "lon": -108.5762038}, {"type": "node", "id": 3375088835, "lat": 37.3493048, "lon": -108.5761973}, {"type": "node", "id": 3375088836, "lat": 37.3493016, "lon": -108.5764353}, {"type": "node", "id": 3375088837, "lat": 37.3488596, "lon": -108.5764258}, {"type": "node", "id": 3375088838, "lat": 37.3488343, "lon": -108.5783017}, {"type": "node", "id": 3375088839, "lat": 37.3492584, "lon": -108.5783107}, {"type": "node", "id": 3375088840, "lat": 37.3492546, "lon": -108.5785909}, {"type": "node", "id": 3375088841, "lat": 37.3507039, "lon": -108.5786219}, {"type": "node", "id": 4331310199, "lat": 37.3490192, "lon": -108.579633, "tags": {"addr:housenumber": "400", "addr:street": "East Main Street", "amenity": "restaurant", "cuisine": "american;burger;mexican", "name": "Burger Boy's Drive In", "opening_hours": "Mo-Fr 07:00-19:00; Sa 10:30-18:00", "phone": "+1-970-565-7921", "postal_code": "81321"}}, {"type": "node", "id": 4451181789, "lat": 37.3457844, "lon": -108.5629578, "tags": {"access": "private", "amenity": "loading_dock", "entrance": "service"}}, {"type": "node", "id": 4524299950, "lat": 37.3486417, "lon": -108.557951}, {"type": "node", "id": 4524299951, "lat": 37.3486395, "lon": -108.557719}, {"type": "node", "id": 4524299952, "lat": 37.3488986, "lon": -108.5577151}, {"type": "node", "id": 4524299953, "lat": 37.3489008, "lon": -108.5579471}, {"type": "node", "id": 4827001922, "lat": 37.3484333, "lon": -108.5696992, "tags": {"name": "Speedy Wash Laundry Mat", "name:en": "Speedy Wash Laundry Mat", "shop": "laundry"}}, {"type": "node", "id": 4943261621, "lat": 37.3492393, "lon": -108.5630429, "tags": {"addr:city": "Cortez", "addr:housenumber": "1740", "addr:postcode": "81321", "addr:state": "CO", "addr:street": "East Main Street", "addr:unit": "1", "amenity": "restaurant", "cuisine": "mexican", "name": "Tequila's Family Mexican Restaurant and Cocktails", "opening_hours": "Mo-Th,Su 11:00-22:00; Fr-Sa 11:00-23:00", "phone": "+1-970-565-6868"}}, {"type": "node", "id": 5788265454, "lat": 37.3484497, "lon": -108.5702691, "tags": {"amenity": "restaurant", "internet_access": "wlan", "name": "J.fargo\u2018s Family Dining & Micro-Brewery"}}, {"type": "node", "id": 6388980669, "lat": 37.3467363, "lon": -108.5616755, "tags": {"entrance": "main"}}, {"type": "node", "id": 6388980670, "lat": 37.3467298, "lon": -108.5616082}, {"type": "node", "id": 6388980671, "lat": 37.346732, "lon": -108.5614967}, {"type": "node", "id": 6388980672, "lat": 37.3467, "lon": -108.5614957}, {"type": "node", "id": 6388980673, "lat": 37.3467233, "lon": -108.5623676, "tags": {"entrance": "main"}}, {"type": "node", "id": 6388980674, "lat": 37.346679, "lon": -108.5626101}, {"type": "node", "id": 6388980675, "lat": 37.3467121, "lon": -108.5626111}, {"type": "node", "id": 6388980676, "lat": 37.3467159, "lon": -108.5624183}, {"type": "node", "id": 6388980677, "lat": 37.3457585, "lon": -108.5611943, "tags": {"access": "private", "amenity": "loading_dock", "entrance": "service"}}, {"type": "node", "id": 7165214109, "lat": 37.3506661, "lon": -108.558373, "tags": {"addr:housenumber": "2212", "addr:street": "East Main Street", "addr:unit": "1", "name": "West Slope Liquors", "shop": "alcohol"}}, {"type": "node", "id": 7165219391, "lat": 37.3506488, "lon": -108.566103}, {"type": "node", "id": 7165219438, "lat": 37.3493972, "lon": -108.5665088}, {"type": "node", "id": 7165226955, "lat": 37.3484284, "lon": -108.573034, "tags": {"addr:city": "Cortez", "addr:housenumber": "921", "addr:postcode": "81321", "addr:state": "CO", "addr:street": "East Main Street", "brand": "Speedway", "brand:wikidata": "Q7575683", "name": "Speedway", "ref": "9499", "shop": "convenience", "website": "https://www.speedway.com/locations/CO/Cortez/921-E-Main-St"}}, {"type": "node", "id": 7165227259, "lat": 37.3492863, "lon": -108.5691138}, {"type": "node", "id": 7165235460, "lat": 37.3485098, "lon": -108.567113, "tags": {"addr:housenumber": "1423", "addr:street": "East Main Street", "addr:unit": "A", "alt_name": "Verizon Wireless", "brand": "Verizon", "brand:wikidata": "Q919641", "name": "Verizon", "shop": "mobile_phone"}}, {"type": "node", "id": 7165236091, "lat": 37.349146, "lon": -108.5673883, "tags": {"addr:city": "Cortez", "addr:housenumber": "1430", "addr:postcode": "81321", "addr:state": "CO", "addr:street": "East Main Street", "addr:unit": "2", "amenity": "restaurant", "cuisine": "thai", "name": "Thai Cortez", "opening_hours": "Mo-Sa 11:30-14:00,16:30-20:00", "phone": "+1-970-564-3151", "website": "https://thaicortez.com"}}, {"type": "node", "id": 7165236291, "lat": 37.3491468, "lon": -108.5672616, "tags": {"addr:city": "Cortez", "addr:housenumber": "1430", "addr:postcode": "81321", "addr:state": "CO", "addr:street": "East Main Street", "addr:unit": "1", "shop": "vacant"}}, {"type": "node", "id": 7165238550, "lat": 37.3487141, "lon": -108.561805}, {"type": "node", "id": 7165239219, "lat": 37.3509559, "lon": -108.5565377}, {"type": "node", "id": 7165239563, "lat": 37.3484603, "lon": -108.5694773, "tags": {"addr:city": "Cortez", "addr:housenumber": "1219", "addr:postcode": "81321", "addr:state": "CO", "addr:street": "East Main Street", "amenity": "fast_food", "brand": "Subway", "brand:wikidata": "Q244457", "cuisine": "sandwich", "name": "Subway", "opening_hours": "09:00-22:00", "phone": "+1 970-565-2412", "takeaway": "yes", "website": "https://restaurants.subway.com/united-states/co/cortez/1219-e-main-st"}}, {"type": "node", "id": 7165239566, "lat": 37.348373, "lon": -108.567959}, {"type": "node", "id": 7165241395, "lat": 37.3514642, "lon": -108.556423, "tags": {"addr:housenumber": "2226", "addr:street": "East Main Street", "brand": "H&R Block", "brand:wikidata": "Q5627799", "name": "H&R Block", "office": "tax_advisor"}}, {"type": "node", "id": 7165241417, "lat": 37.3509751, "lon": -108.557993, "tags": {"addr:housenumber": "2214", "addr:street": "East Main Street", "brand": "Family Dollar", "brand:wikidata": "Q5433101", "name": "Family Dollar", "shop": "variety_store"}}, {"type": "node", "id": 7165241418, "lat": 37.3511572, "lon": -108.557767, "tags": {"addr:housenumber": "2216", "addr:street": "East Main Street", "name": "Stage Clothing", "shop": "clothes"}}, {"type": "node", "id": 7165241424, "lat": 37.3514682, "lon": -108.556137, "tags": {"addr:housenumber": "2236", "addr:street": "East Main Street", "name": "Help-U-Sell Real Estate", "office": "estate_agent"}}, {"type": "node", "id": 7165241428, "lat": 37.3518984, "lon": -108.5554102, "tags": {"addr:city": "Cortez", "addr:housenumber": "2320", "addr:postcode": "81321", "addr:state": "CO", "addr:street": "East Main Street", "amenity": "fuel", "brand": "Speedway", "brand:wikidata": "Q7575683", "name": "Speedway", "ref": "9492", "website": "https://www.speedway.com/locations/CO/Cortez/2320-E-Main-St"}}, {"type": "node", "id": 7165241527, "lat": 37.350212, "lon": -108.5573391}, {"type": "node", "id": 7183043572, "lat": 37.344595, "lon": -108.5615334, "tags": {"addr:housenumber": "418", "addr:street": "South Sligo Street", "amenity": "school", "name": "Montezuma Cortez High School", "website": "https://www.cortez.k12.co.us/our-schools/mchs"}}, {"type": "node", "id": 7183044588, "lat": 37.3505523, "lon": -108.5570287}, {"type": "node", "id": 7183045105, "lat": 37.3485081, "lon": -108.567473, "tags": {"addr:housenumber": "1423", "addr:street": "East Main Street", "addr:unit": "E", "brand": "Great Clips", "brand:wikidata": "Q5598967", "name": "Great Clips", "shop": "hairdresser"}}, {"type": "node", "id": 7183045106, "lat": 37.3485133, "lon": -108.567198, "tags": {"addr:housenumber": "1423", "addr:street": "East Main Street", "addr:unit": "B", "amenity": "fast_food", "brand": "Papa Murphy's", "brand:wikidata": "Q7132349", "cuisine": "pizza", "name": "Papa Murphy's", "official_name": "Papa Murphy's Take 'N' Bake Pizza", "takeaway": "only"}}, {"type": "node", "id": 7183045354, "lat": 37.3484355, "lon": -108.5641743}, {"type": "node", "id": 7183045650, "lat": 37.348543, "lon": -108.563215}, {"type": "node", "id": 7183046161, "lat": 37.349595, "lon": -108.569571}, {"type": "node", "id": 7183046252, "lat": 37.347699, "lon": -108.559985}, {"type": "node", "id": 7183046303, "lat": 37.348426, "lon": -108.559376}, {"type": "node", "id": 7183046404, "lat": 37.3491536, "lon": -108.5789113, "tags": {"addr:city": "Cortez", "addr:housenumber": "17", "addr:postcode": "81321", "addr:state": "CO", "addr:street": "Harrison", "name": "The Pie Maker", "shop": "bakery", "website": "https://piemakerbakery.square.site/"}}, {"type": "node", "id": 7183047550, "lat": 37.3514644, "lon": -108.556471, "tags": {"addr:city": "Cortez", "addr:housenumber": "2224", "addr:postcode": "81321", "addr:state": "CO", "addr:street": "East Main Street", "amenity": "fast_food", "brand": "Domino's", "brand:wikidata": "Q839466", "cuisine": "pizza", "name": "Domino's", "opening_hours": "Mo-Th 10:00-24:00; Fr-Sa 10:00-01:00; Su 10:00-24:00", "phone": "+1 970-565-7373", "ref": "6363", "takeaway": "yes", "website": "https://pizza.dominos.com/colorado/cortez/2224-e-main-st"}}, {"type": "node", "id": 7183047557, "lat": 37.351812, "lon": -108.5576568, "tags": {"addr:city": "Cortez", "addr:housenumber": "2220", "addr:postcode": "81321", "addr:state": "CO", "addr:street": "East Main Street", "note": "Old WalMart", "shop": "vacant"}}, {"type": "node", "id": 7183047565, "lat": 37.349935, "lon": -108.5573795}, {"type": "node", "id": 7183048472, "lat": 37.349486, "lon": -108.561694}, {"type": "node", "id": 7183049218, "lat": 37.349326, "lon": -108.5681363}, {"type": "node", "id": 7265271341, "lat": 37.34989, "lon": -108.5576235}, {"type": "node", "id": 7265271343, "lat": 37.3498155, "lon": -108.55753}, {"type": "node", "id": 7265271344, "lat": 37.3500095, "lon": -108.557473}, {"type": "node", "id": 7265279447, "lat": 37.348565, "lon": -108.559376}, {"type": "node", "id": 7265279449, "lat": 37.348565, "lon": -108.559663}, {"type": "node", "id": 7265279450, "lat": 37.348426, "lon": -108.559663}, {"type": "node", "id": 7265279837, "lat": 37.349283, "lon": -108.569571}, {"type": "node", "id": 7265279839, "lat": 37.349283, "lon": -108.569818}, {"type": "node", "id": 7265279841, "lat": 37.349595, "lon": -108.569818}, {"type": "node", "id": 7265282183, "lat": 37.348542, "lon": -108.563478}, {"type": "node", "id": 7265282187, "lat": 37.348627, "lon": -108.563479}, {"type": "node", "id": 7265282189, "lat": 37.348628, "lon": -108.563346}, {"type": "node", "id": 7265282192, "lat": 37.348696, "lon": -108.563347}, {"type": "node", "id": 7265282195, "lat": 37.348697, "lon": -108.563217}, {"type": "node", "id": 7265283115, "lat": 37.3501341, "lon": -108.557241}, {"type": "node", "id": 7265283116, "lat": 37.350259, "lon": -108.5570839}, {"type": "node", "id": 7265283118, "lat": 37.3503369, "lon": -108.557182}, {"type": "node", "id": 7265292339, "lat": 37.349486, "lon": -108.561532}, {"type": "node", "id": 7265292341, "lat": 37.349214, "lon": -108.561534}, {"type": "node", "id": 7265292343, "lat": 37.349214, "lon": -108.561696}, {"type": "node", "id": 7265294399, "lat": 37.348373, "lon": -108.568099}, {"type": "node", "id": 7265294424, "lat": 37.348475, "lon": -108.568099}, {"type": "node", "id": 7265294427, "lat": 37.348475, "lon": -108.567959}, {"type": "node", "id": 7265297804, "lat": 37.347886, "lon": -108.559988}, {"type": "node", "id": 7265297805, "lat": 37.347887, "lon": -108.559903}, {"type": "node", "id": 7265297806, "lat": 37.347916, "lon": -108.559904}, {"type": "node", "id": 7265297807, "lat": 37.347917, "lon": -108.559755}, {"type": "node", "id": 7265297808, "lat": 37.347891, "lon": -108.559754}, {"type": "node", "id": 7265297809, "lat": 37.347892, "lon": -108.559669}, {"type": "node", "id": 7265297810, "lat": 37.347701, "lon": -108.559666}, {"type": "node", "id": 7265302446, "lat": 37.348905, "lon": -108.57941}, {"type": "node", "id": 7265302452, "lat": 37.349208, "lon": -108.579413}, {"type": "node", "id": 7265302453, "lat": 37.349177, "lon": -108.579244}, {"type": "node", "id": 7265302454, "lat": 37.349209, "lon": -108.579245}, {"type": "node", "id": 7265302455, "lat": 37.348835, "lon": -108.579135}, {"type": "node", "id": 7265302456, "lat": 37.349178, "lon": -108.57914}, {"type": "node", "id": 7265302457, "lat": 37.348906, "lon": -108.579329}, {"type": "node", "id": 7265302458, "lat": 37.348834, "lon": -108.579329}, {"type": "node", "id": 7265302809, "lat": 37.3486221, "lon": -108.5723005}, {"type": "node", "id": 7265302811, "lat": 37.3486221, "lon": -108.5721265}, {"type": "node", "id": 7265302812, "lat": 37.3483621, "lon": -108.5721255}, {"type": "node", "id": 7265302815, "lat": 37.3483611, "lon": -108.5722995}, {"type": "node", "id": 7265304392, "lat": 37.3493943, "lon": -108.5662631}, {"type": "node", "id": 7265304394, "lat": 37.3490542, "lon": -108.5663209}, {"type": "node", "id": 7265304396, "lat": 37.3490542, "lon": -108.5665068}, {"type": "node", "id": 7695388840, "lat": 37.3486683, "lon": -108.558314, "tags": {"amenity": "post_box", "brand": "FedEx", "brand:wikidata": "Q459477", "operator": "FedEx", "operator:type": "private", "operator:wikidata": "Q459477", "operator:wikipedia": "en:FedEx"}}, {"type": "node", "id": 7695388846, "lat": 37.3486998, "lon": -108.558354, "tags": {"amenity": "post_box", "brand": "UPS", "brand:wikidata": "Q155026", "official_name": "United Parcel Service", "operator": "UPS", "operator:type": "private", "operator:wikidata": "Q155026", "operator:wikipedia": "en:United Parcel Service"}}, {"type": "node", "id": 8248436616, "lat": 37.3478245, "lon": -108.5790567, "tags": {"addr:city": "Cortez", "addr:housenumber": "21", "addr:postcode": "81321", "addr:state": "CO", "addr:street": "South Harrison Street", "amenity": "car_wash", "name": "First Street Car Wash", "opening_hours": "24/7", "payment:coins": "yes", "self_service": "yes"}}, {"type": "node", "id": 8248477718, "lat": 37.34839, "lon": -108.579083, "tags": {"addr:city": "Cortez", "addr:housenumber": "439", "addr:postcode": "81321", "addr:state": "CO", "addr:street": "East Main Street", "amenity": "restaurant", "cuisine": "italian;pizza", "name": "Lotsa Pasta That'za Pizza", "opening_hours": "Tu-Sa 15:00-22:00", "phone": "+1-970-565-8500", "website": "http://lotsapastaandthatzapizza.com/"}}, {"type": "node", "id": 8984453170, "lat": 37.3486752, "lon": -108.5601608, "tags": {"addr:city": "Cortez", "addr:housenumber": "2021", "addr:postcode": "81321", "addr:state": "CO", "addr:street": "East Main Street", "amenity": "fuel", "brand": "Speedway", "brand:wikidata": "Q7575683", "compressed_air": "yes", "fuel:diesel": "yes", "fuel:gasoline": "yes", "fuel:octane_85": "no", "fuel:octane_86": "yes", "fuel:octane_87": "no", "fuel:octane_88": "yes", "fuel:octane_89": "no", "fuel:octane_90": "no", "fuel:octane_91": "yes", "name": "Speedway", "ref": "9496", "website": "https://www.speedway.com/locations/CO/Cortez/2021-East-Main-Street"}}, {"type": "node", "id": 8984453171, "lat": 37.3484833, "lon": -108.5601515, "tags": {"addr:city": "Cortez", "addr:housenumber": "2021", "addr:postcode": "81321", "addr:state": "CO", "addr:street": "East Main Street", "brand": "Speedway", "brand:wikidata": "Q7575683", "name": "Speedway", "ref": "9496", "shop": "convenience", "website": "https://www.speedway.com/locations/CO/Cortez/2021-East-Main-Street"}}, {"type": "node", "id": 8984487664, "lat": 37.3520292, "lon": -108.5555877, "tags": {"addr:city": "Cortez", "addr:housenumber": "2320", "addr:postcode": "81321", "addr:state": "CO", "addr:street": "East Main Street", "brand": "Speedway", "brand:wikidata": "Q7575683", "name": "Speedway", "ref": "9492", "shop": "convenience", "website": "https://www.speedway.com/locations/CO/Cortez/2320-E-Main-St"}}, {"type": "node", "id": 8984488452, "lat": 37.3485723, "lon": -108.573026, "tags": {"addr:city": "Cortez", "addr:housenumber": "921", "addr:postcode": "81321", "addr:state": "CO", "addr:street": "East Main Street", "amenity": "fuel", "brand": "Speedway", "brand:wikidata": "Q7575683", "name": "Speedway", "ref": "9499", "website": "https://www.speedway.com/locations/CO/Cortez/921-E-Main-St"}}, {"type": "node", "id": 9683823662, "lat": 37.3484553, "lon": -108.57497, "tags": {"addr:city": "Cortez", "addr:housenumber": "801", "addr:postcode": "81321", "addr:state": "CO", "addr:street": "East Main Street", "amenity": "restaurant", "bar": "yes", "cuisine": "mexican", "name": "Mi Mexico", "outdoor_seating": "yes", "phone": "+1-970-564-3702"}}, {"type": "node", "id": 9688030878, "lat": 37.3479913, "lon": -108.5751306}, {"type": "node", "id": 9688030879, "lat": 37.3483114, "lon": -108.5751359}, {"type": "node", "id": 9688030880, "lat": 37.3483147, "lon": -108.5748251}, {"type": "node", "id": 9688030881, "lat": 37.3479946, "lon": -108.5748198}, {"type": "node", "id": 9688037335, "lat": 37.3474742, "lon": -108.573761, "tags": {"access": "customers", "amenity": "toilets", "male": "yes", "toilets:disposal": "flush"}}, {"type": "node", "id": 9688037336, "lat": 37.3474934, "lon": -108.5737273, "tags": {"access": "customers", "amenity": "toilets", "female": "yes", "toilets:disposal": "flush"}}, {"type": "node", "id": 9688037344, "lat": 37.3483975, "lon": -108.572656}, {"type": "node", "id": 9688037345, "lat": 37.3486891, "lon": -108.5726596}, {"type": "node", "id": 9688037346, "lat": 37.3486917, "lon": -108.5723252}, {"type": "node", "id": 9688037347, "lat": 37.3484, "lon": -108.5723216}, {"type": "node", "id": 9968851206, "lat": 37.3499356, "lon": -108.5589334}, {"type": "node", "id": 9968851207, "lat": 37.3499303, "lon": -108.5581578}, {"type": "node", "id": 9968851208, "lat": 37.3497777, "lon": -108.5581436}, {"type": "node", "id": 9968851209, "lat": 37.3497743, "lon": -108.5583983}, {"type": "node", "id": 9968851210, "lat": 37.3498311, "lon": -108.558426}, {"type": "node", "id": 9968851211, "lat": 37.3498448, "lon": -108.5586244}, {"type": "node", "id": 9968851212, "lat": 37.349685, "lon": -108.5588665}, {"type": "node", "id": 9968851213, "lat": 37.3492488, "lon": -108.5588573}, {"type": "node", "id": 9968851214, "lat": 37.3492479, "lon": -108.5589188}, {"type": "node", "id": 10981540502, "lat": 37.3486406, "lon": -108.5578354, "tags": {"entrance": "main"}}, {"type": "node", "id": 11097236759, "lat": 37.3496382, "lon": -108.558865}, {"type": "node", "id": 11097236760, "lat": 37.349667, "lon": -108.5588656}, {"type": "node", "id": 11144533386, "lat": 37.3491736, "lon": -108.5701965, "tags": {"drive_through": "yes", "name": "Ziggi's Coffee", "note": "imagery with big tree beside building is outdated", "outdoor_seating": "yes", "shop": "coffee", "takeaway": "only"}}, {"type": "node", "id": 11917019853, "lat": 37.3508988, "lon": -108.5564635}, {"type": "node", "id": 11917019854, "lat": 37.3507495, "lon": -108.5566451}, {"type": "node", "id": 11917019855, "lat": 37.3506677, "lon": -108.5565387}, {"type": "node", "id": 11917019856, "lat": 37.3504338, "lon": -108.5568233}, {"type": "node", "id": 11917019857, "lat": 37.3504843, "lon": -108.556889}, {"type": "node", "id": 11917019858, "lat": 37.3504639, "lon": -108.5569137}, {"type": "node", "id": 11917019861, "lat": 37.3507296, "lon": -108.5568129}, {"type": "node", "id": 11917019862, "lat": 37.3506657, "lon": -108.5568907}, {"type": "node", "id": 12200392895, "lat": 37.3453856, "lon": -108.5634039}, {"type": "node", "id": 12200392896, "lat": 37.3417612, "lon": -108.5633356}, {"type": "node", "id": 12200392897, "lat": 37.3417564, "lon": -108.559923}, {"type": "node", "id": 12200392898, "lat": 37.3429491, "lon": -108.5597847}, {"type": "node", "id": 12200392899, "lat": 37.3433531, "lon": -108.5590326}, {"type": "node", "id": 12200392900, "lat": 37.3445296, "lon": -108.5594798}, {"type": "node", "id": 12200417201, "lat": 37.3454541, "lon": -108.5603098}, {"type": "node", "id": 12200417202, "lat": 37.3432619, "lon": -108.5622968}, {"type": "node", "id": 12200417203, "lat": 37.343208, "lon": -108.5631582}, {"type": "node", "id": 12200417204, "lat": 37.3440029, "lon": -108.5631574}, {"type": "node", "id": 12200417205, "lat": 37.3441038, "lon": -108.562788}, {"type": "node", "id": 12200417206, "lat": 37.3441486, "lon": -108.5627854}, {"type": "node", "id": 12200417207, "lat": 37.3441554, "lon": -108.562418}, {"type": "node", "id": 12200417208, "lat": 37.3441064, "lon": -108.5624164}, {"type": "node", "id": 12200417209, "lat": 37.3441052, "lon": -108.5623556}, {"type": "node", "id": 12200417210, "lat": 37.3440243, "lon": -108.5623587}, {"type": "node", "id": 12200417211, "lat": 37.3440219, "lon": -108.5622924}, {"type": "node", "id": 12200417212, "lat": 37.3432094, "lon": -108.5624968}, {"type": "node", "id": 12200417213, "lat": 37.3441081, "lon": -108.5629844}, {"type": "node", "id": 12200417214, "lat": 37.3440035, "lon": -108.5630913}, {"type": "node", "id": 12200417215, "lat": 37.3441059, "lon": -108.5628862}, {"type": "node", "id": 12525337833, "lat": 37.3504538, "lon": -108.5739313}, {"type": "node", "id": 12525337834, "lat": 37.3504535, "lon": -108.5736555}, {"type": "node", "id": 12525337835, "lat": 37.3499812, "lon": -108.5736487}, {"type": "node", "id": 12525337836, "lat": 37.3499834, "lon": -108.5731367}, {"type": "node", "id": 12525337837, "lat": 37.3494903, "lon": -108.5728544}, {"type": "node", "id": 12525337838, "lat": 37.3496822, "lon": -108.5728557}, {"type": "node", "id": 12525337839, "lat": 37.350139, "lon": -108.5729402}, {"type": "node", "id": 12525337840, "lat": 37.3501401, "lon": -108.5732333}, {"type": "node", "id": 12525337841, "lat": 37.3505896, "lon": -108.5743657}, {"type": "node", "id": 12525337886, "lat": 37.3493887, "lon": -108.5741795}, {"type": "node", "id": 12525337887, "lat": 37.3493793, "lon": -108.574167}, {"type": "node", "id": 12525337888, "lat": 37.349378, "lon": -108.5741487}, {"type": "node", "id": 12525337889, "lat": 37.3493836, "lon": -108.5741318}, {"type": "node", "id": 12525337890, "lat": 37.3493948, "lon": -108.57412}, {"type": "node", "id": 12525337891, "lat": 37.349409, "lon": -108.5741159}, {"type": "node", "id": 12525337892, "lat": 37.3494231, "lon": -108.5741206}, {"type": "node", "id": 12525337893, "lat": 37.3494339, "lon": -108.5741329}, {"type": "node", "id": 12525337894, "lat": 37.3494955, "lon": -108.5742046}, {"type": "node", "id": 12525337895, "lat": 37.3495088, "lon": -108.5742188}, {"type": "node", "id": 12525337896, "lat": 37.3495132, "lon": -108.57424}, {"type": "node", "id": 12525337897, "lat": 37.3495072, "lon": -108.5742606}, {"type": "node", "id": 12525337898, "lat": 37.349493, "lon": -108.5742732}, {"type": "node", "id": 12525337899, "lat": 37.3494756, "lon": -108.5742733}, {"type": "node", "id": 12525337900, "lat": 37.3494612, "lon": -108.574261}, {"type": "node", "id": 12525395201, "lat": 37.3493997, "lon": -108.5741917}, {"type": "node", "id": 12525395202, "lat": 37.3493863, "lon": -108.5733969}, {"type": "node", "id": 12525395203, "lat": 37.3494034, "lon": -108.573425}, {"type": "node", "id": 12525395204, "lat": 37.3494343, "lon": -108.5734244}, {"type": "node", "id": 12525395205, "lat": 37.3494471, "lon": -108.5733895}, {"type": "node", "id": 12525395206, "lat": 37.3494316, "lon": -108.573362}, {"type": "node", "id": 12525395207, "lat": 37.3493997, "lon": -108.573362}, {"type": "node", "id": 12525395418, "lat": 37.3499911, "lon": -108.5731367}, {"type": "node", "id": 12525395419, "lat": 37.3499571, "lon": -108.5731367}, {"type": "node", "id": 12525395420, "lat": 37.349923, "lon": -108.5731366}, {"type": "node", "id": 12525395421, "lat": 37.349889, "lon": -108.5731366}, {"type": "node", "id": 12525395422, "lat": 37.3498549, "lon": -108.5731366}, {"type": "node", "id": 12525395423, "lat": 37.3498208, "lon": -108.5731366}, {"type": "node", "id": 12525395424, "lat": 37.3497868, "lon": -108.5731365}, {"type": "node", "id": 12525395425, "lat": 37.3497527, "lon": -108.5731365}, {"type": "node", "id": 12525395426, "lat": 37.3497187, "lon": -108.5731365}, {"type": "node", "id": 12525395427, "lat": 37.3496846, "lon": -108.5731365}, {"type": "node", "id": 12525395428, "lat": 37.3496506, "lon": -108.5731364}, {"type": "node", "id": 12525395429, "lat": 37.3496165, "lon": -108.5731364}, {"type": "node", "id": 12525395430, "lat": 37.3495824, "lon": -108.5731364}, {"type": "node", "id": 12525395431, "lat": 37.349953, "lon": -108.5730708}, {"type": "node", "id": 12525395432, "lat": 37.3499181, "lon": -108.573071}, {"type": "node", "id": 12525395433, "lat": 37.3498832, "lon": -108.5730712}, {"type": "node", "id": 12525395434, "lat": 37.3498483, "lon": -108.5730714}, {"type": "node", "id": 12525395435, "lat": 37.3498134, "lon": -108.5730716}, {"type": "node", "id": 12525395436, "lat": 37.3497785, "lon": -108.5730718}, {"type": "node", "id": 12525395437, "lat": 37.3497436, "lon": -108.573072}, {"type": "node", "id": 12525395438, "lat": 37.3497087, "lon": -108.5730722}, {"type": "node", "id": 12525395439, "lat": 37.3496738, "lon": -108.5730724}, {"type": "node", "id": 12525395440, "lat": 37.3496389, "lon": -108.5730726}, {"type": "node", "id": 12525395441, "lat": 37.349604, "lon": -108.5730728}, {"type": "node", "id": 12525395442, "lat": 37.3495691, "lon": -108.573073}, {"type": "node", "id": 12525395443, "lat": 37.3495342, "lon": -108.5730731}, {"type": "node", "id": 12525395444, "lat": 37.3499879, "lon": -108.5730707}, {"type": "node", "id": 12525395445, "lat": 37.3500252, "lon": -108.5731367}, {"type": "node", "id": 12525395446, "lat": 37.3495484, "lon": -108.5731364}, {"type": "node", "id": 12525395447, "lat": 37.3494993, "lon": -108.5730733}, {"type": "node", "id": 12525395448, "lat": 37.349556, "lon": -108.5729174}, {"type": "node", "id": 12525395449, "lat": 37.3495929, "lon": -108.5729154}, {"type": "node", "id": 12525395450, "lat": 37.3496298, "lon": -108.5729134}, {"type": "node", "id": 12525395451, "lat": 37.3496189, "lon": -108.5730026}, {"type": "node", "id": 12525395452, "lat": 37.3496579, "lon": -108.5730013}, {"type": "node", "id": 12525395453, "lat": 37.349697, "lon": -108.5729999}, {"type": "node", "id": 12525395454, "lat": 37.3495798, "lon": -108.5730039}, {"type": "node", "id": 12525395455, "lat": 37.3495191, "lon": -108.5729194}, {"type": "node", "id": 12525395456, "lat": 37.3496667, "lon": -108.5729114}, {"type": "node", "id": 12525395457, "lat": 37.349736, "lon": -108.5729986}, {"type": "node", "id": 12525395458, "lat": 37.3498966, "lon": -108.5729399}, {"type": "node", "id": 12525395459, "lat": 37.3499308, "lon": -108.5729402}, {"type": "node", "id": 12525395460, "lat": 37.3499651, "lon": -108.5729406}, {"type": "node", "id": 12525395461, "lat": 37.3498537, "lon": -108.5730013}, {"type": "node", "id": 12525395462, "lat": 37.3498877, "lon": -108.5730019}, {"type": "node", "id": 12525395463, "lat": 37.3499216, "lon": -108.5730026}, {"type": "node", "id": 12525395464, "lat": 37.3498197, "lon": -108.5730006}, {"type": "node", "id": 12525395465, "lat": 37.3498623, "lon": -108.5729396}, {"type": "node", "id": 12525395466, "lat": 37.3499993, "lon": -108.5729409}, {"type": "node", "id": 12525395467, "lat": 37.3499556, "lon": -108.5730033}, {"type": "node", "id": 12525395468, "lat": 37.3500272, "lon": -108.5732945}, {"type": "node", "id": 12525395469, "lat": 37.3500271, "lon": -108.5733254}, {"type": "node", "id": 12525395470, "lat": 37.350027, "lon": -108.5733563}, {"type": "node", "id": 12525395471, "lat": 37.3500269, "lon": -108.5733872}, {"type": "node", "id": 12525395472, "lat": 37.3500268, "lon": -108.5734181}, {"type": "node", "id": 12525395473, "lat": 37.3500267, "lon": -108.573449}, {"type": "node", "id": 12525395474, "lat": 37.3500266, "lon": -108.5734799}, {"type": "node", "id": 12525395475, "lat": 37.3500265, "lon": -108.5735108}, {"type": "node", "id": 12525395476, "lat": 37.3500264, "lon": -108.5735418}, {"type": "node", "id": 12525395477, "lat": 37.3499843, "lon": -108.5732942}, {"type": "node", "id": 12525395478, "lat": 37.3499842, "lon": -108.5733252}, {"type": "node", "id": 12525395479, "lat": 37.3499841, "lon": -108.5733561}, {"type": "node", "id": 12525395480, "lat": 37.349984, "lon": -108.573387}, {"type": "node", "id": 12525395481, "lat": 37.3499839, "lon": -108.5734179}, {"type": "node", "id": 12525395482, "lat": 37.3499838, "lon": -108.5734488}, {"type": "node", "id": 12525395483, "lat": 37.3499837, "lon": -108.5734797}, {"type": "node", "id": 12525395484, "lat": 37.3499836, "lon": -108.5735106}, {"type": "node", "id": 12525395485, "lat": 37.3499835, "lon": -108.5735415}, {"type": "node", "id": 12525395486, "lat": 37.3499844, "lon": -108.5732633}, {"type": "node", "id": 12525395487, "lat": 37.3500273, "lon": -108.5732635}, {"type": "node", "id": 12525395488, "lat": 37.3500263, "lon": -108.5735727}, {"type": "node", "id": 12525395489, "lat": 37.3499834, "lon": -108.5735725}, {"type": "node", "id": 12525395490, "lat": 37.3500658, "lon": -108.5735962}, {"type": "node", "id": 12525395491, "lat": 37.3500911, "lon": -108.5735964}, {"type": "node", "id": 12525395492, "lat": 37.3501164, "lon": -108.5735967}, {"type": "node", "id": 12525395493, "lat": 37.3501417, "lon": -108.573597}, {"type": "node", "id": 12525395494, "lat": 37.350167, "lon": -108.5735973}, {"type": "node", "id": 12525395495, "lat": 37.3501924, "lon": -108.5735976}, {"type": "node", "id": 12525395496, "lat": 37.3502177, "lon": -108.5735979}, {"type": "node", "id": 12525395497, "lat": 37.350243, "lon": -108.5735982}, {"type": "node", "id": 12525395498, "lat": 37.3502683, "lon": -108.5735985}, {"type": "node", "id": 12525395504, "lat": 37.3500654, "lon": -108.5736511}, {"type": "node", "id": 12525395505, "lat": 37.3500907, "lon": -108.5736514}, {"type": "node", "id": 12525395506, "lat": 37.350116, "lon": -108.5736516}, {"type": "node", "id": 12525395507, "lat": 37.3501413, "lon": -108.5736519}, {"type": "node", "id": 12525395508, "lat": 37.3501666, "lon": -108.5736522}, {"type": "node", "id": 12525395509, "lat": 37.350192, "lon": -108.5736525}, {"type": "node", "id": 12525395510, "lat": 37.3502173, "lon": -108.5736528}, {"type": "node", "id": 12525395511, "lat": 37.3502426, "lon": -108.5736531}, {"type": "node", "id": 12525395512, "lat": 37.3502679, "lon": -108.5736534}, {"type": "node", "id": 12525395513, "lat": 37.3502932, "lon": -108.5736537}, {"type": "node", "id": 12525395514, "lat": 37.3503185, "lon": -108.573654}, {"type": "node", "id": 12525395515, "lat": 37.3503438, "lon": -108.5736542}, {"type": "node", "id": 12525395516, "lat": 37.3503691, "lon": -108.5736545}, {"type": "node", "id": 12525395517, "lat": 37.3503944, "lon": -108.5736548}, {"type": "node", "id": 12525395518, "lat": 37.3500401, "lon": -108.5736508}, {"type": "node", "id": 12525395519, "lat": 37.3500405, "lon": -108.5735959}, {"type": "node", "id": 12525395521, "lat": 37.3504197, "lon": -108.5736551}, {"type": "node", "id": 12525395522, "lat": 37.3501784, "lon": -108.5732342}, {"type": "node", "id": 12525395523, "lat": 37.3502032, "lon": -108.5732346}, {"type": "node", "id": 12525395524, "lat": 37.3502279, "lon": -108.5732349}, {"type": "node", "id": 12525395525, "lat": 37.3502527, "lon": -108.5732353}, {"type": "node", "id": 12525395526, "lat": 37.3502774, "lon": -108.5732357}, {"type": "node", "id": 12525395527, "lat": 37.3503022, "lon": -108.5732361}, {"type": "node", "id": 12525395528, "lat": 37.350327, "lon": -108.5732365}, {"type": "node", "id": 12525395529, "lat": 37.3503517, "lon": -108.5732369}, {"type": "node", "id": 12525395530, "lat": 37.3503765, "lon": -108.5732373}, {"type": "node", "id": 12525395531, "lat": 37.3504012, "lon": -108.5732377}, {"type": "node", "id": 12525395532, "lat": 37.350426, "lon": -108.5732381}, {"type": "node", "id": 12525395533, "lat": 37.3504508, "lon": -108.5732385}, {"type": "node", "id": 12525395534, "lat": 37.3504755, "lon": -108.5732389}, {"type": "node", "id": 12525395535, "lat": 37.3505003, "lon": -108.5732392}, {"type": "node", "id": 12525395536, "lat": 37.350525, "lon": -108.5732396}, {"type": "node", "id": 12525395537, "lat": 37.3505498, "lon": -108.57324}, {"type": "node", "id": 12525395538, "lat": 37.3505745, "lon": -108.5732404}, {"type": "node", "id": 12525395539, "lat": 37.3501779, "lon": -108.5732881}, {"type": "node", "id": 12525395540, "lat": 37.3502026, "lon": -108.5732885}, {"type": "node", "id": 12525395541, "lat": 37.3502274, "lon": -108.5732889}, {"type": "node", "id": 12525395542, "lat": 37.3502522, "lon": -108.5732893}, {"type": "node", "id": 12525395543, "lat": 37.3502769, "lon": -108.5732897}, {"type": "node", "id": 12525395544, "lat": 37.3503017, "lon": -108.5732901}, {"type": "node", "id": 12525395556, "lat": 37.3501531, "lon": -108.5732877}, {"type": "node", "id": 12525395557, "lat": 37.3501537, "lon": -108.5732338}, {"type": "node", "id": 12525395558, "lat": 37.3505993, "lon": -108.5732408}, {"type": "node", "id": 12525395559, "lat": 37.3505988, "lon": -108.5732948}, {"type": "node", "id": 12525395560, "lat": 37.3501346, "lon": -108.573377}, {"type": "node", "id": 12525395561, "lat": 37.3501581, "lon": -108.5733773}, {"type": "node", "id": 12525395562, "lat": 37.3501817, "lon": -108.5733776}, {"type": "node", "id": 12525395563, "lat": 37.3502053, "lon": -108.5733779}, {"type": "node", "id": 12525395564, "lat": 37.3502288, "lon": -108.5733782}, {"type": "node", "id": 12525395565, "lat": 37.3502524, "lon": -108.5733785}, {"type": "node", "id": 12525395566, "lat": 37.350276, "lon": -108.5733788}, {"type": "node", "id": 12525395575, "lat": 37.350134, "lon": -108.5734412}, {"type": "node", "id": 12525395576, "lat": 37.3501576, "lon": -108.5734415}, {"type": "node", "id": 12525395577, "lat": 37.3501812, "lon": -108.5734418}, {"type": "node", "id": 12525395578, "lat": 37.3502048, "lon": -108.5734421}, {"type": "node", "id": 12525395579, "lat": 37.3502283, "lon": -108.5734424}, {"type": "node", "id": 12525395580, "lat": 37.3502519, "lon": -108.5734427}, {"type": "node", "id": 12525395581, "lat": 37.3502755, "lon": -108.573443}, {"type": "node", "id": 12525395590, "lat": 37.3501335, "lon": -108.5735054}, {"type": "node", "id": 12525395591, "lat": 37.3501571, "lon": -108.5735057}, {"type": "node", "id": 12525395592, "lat": 37.3501807, "lon": -108.573506}, {"type": "node", "id": 12525395593, "lat": 37.3502043, "lon": -108.5735063}, {"type": "node", "id": 12525395594, "lat": 37.3502278, "lon": -108.5735066}, {"type": "node", "id": 12525395595, "lat": 37.3502514, "lon": -108.5735069}, {"type": "node", "id": 12525395596, "lat": 37.350275, "lon": -108.5735072}, {"type": "node", "id": 12525395605, "lat": 37.3501105, "lon": -108.5734409}, {"type": "node", "id": 12525395607, "lat": 37.35011, "lon": -108.5735051}, {"type": "node", "id": 12525395608, "lat": 37.350111, "lon": -108.5733767}, {"type": "node", "id": 12525395615, "lat": 37.3505986, "lon": -108.5735543}, {"type": "node", "id": 12525395616, "lat": 37.3505978, "lon": -108.5736293}, {"type": "node", "id": 12525395617, "lat": 37.350597, "lon": -108.5737043}, {"type": "node", "id": 12525395618, "lat": 37.3505962, "lon": -108.5737794}, {"type": "node", "id": 12525395621, "lat": 37.3505994, "lon": -108.5734792}, {"type": "node", "id": 12525395622, "lat": 37.3505954, "lon": -108.5738544}, {"type": "node", "id": 12525395636, "lat": 37.350494, "lon": -108.5739632}, {"type": "node", "id": 12525395637, "lat": 37.3504937, "lon": -108.573994}, {"type": "node", "id": 12525395638, "lat": 37.3504934, "lon": -108.5740248}, {"type": "node", "id": 12525395639, "lat": 37.3504932, "lon": -108.5740556}, {"type": "node", "id": 12525395640, "lat": 37.3504929, "lon": -108.5740864}, {"type": "node", "id": 12525395641, "lat": 37.3504927, "lon": -108.5741172}, {"type": "node", "id": 12525395642, "lat": 37.3504924, "lon": -108.574148}, {"type": "node", "id": 12525395643, "lat": 37.3504922, "lon": -108.5741788}, {"type": "node", "id": 12525395644, "lat": 37.3504919, "lon": -108.5742096}, {"type": "node", "id": 12525395645, "lat": 37.3504916, "lon": -108.5742404}, {"type": "node", "id": 12525395646, "lat": 37.3504914, "lon": -108.5742712}, {"type": "node", "id": 12525395647, "lat": 37.3504911, "lon": -108.574302}, {"type": "node", "id": 12525395648, "lat": 37.3504909, "lon": -108.5743328}, {"type": "node", "id": 12525395649, "lat": 37.3504942, "lon": -108.5739324}, {"type": "node", "id": 12525395651, "lat": 37.3505303, "lon": -108.5743641}, {"type": "node", "id": 12525395652, "lat": 37.3504906, "lon": -108.5743636}, {"type": "node", "id": 12525395660, "lat": 37.3504536, "lon": -108.5736845}, {"type": "node", "id": 12525395661, "lat": 37.3504537, "lon": -108.5737151}, {"type": "node", "id": 12525395662, "lat": 37.3504538, "lon": -108.5737457}, {"type": "node", "id": 12525395663, "lat": 37.3504539, "lon": -108.5737763}, {"type": "node", "id": 12525395664, "lat": 37.350454, "lon": -108.5738069}, {"type": "node", "id": 12525395668, "lat": 37.3504541, "lon": -108.5738375}, {"type": "node", "id": 12824835619, "lat": 37.3487232, "lon": -108.5615006}, {"type": "node", "id": 12824835620, "lat": 37.3484967, "lon": -108.5614899}, {"type": "node", "id": 12824835621, "lat": 37.3484876, "lon": -108.5617944}, {"type": "node", "id": 12824864726, "lat": 37.3496367, "lon": -108.5662177, "tags": {"access": "yes", "addr:city": "Cortez", "addr:country": "US", "addr:housenumber": "1510", "addr:postcode": "81321", "addr:state": "CO", "addr:street": "East Main Street", "amenity": "charging_station", "authentication:app": "yes", "bicycle": "no", "branch": "Cortez, CO", "brand": "Tesla Supercharger", "brand:website": "https://www.tesla.com/supercharger", "brand:wikidata": "Q17089620", "capacity": "8", "capacity:disabled": "1", "covered": "no", "description": "Non-Teslas can charge here. Charging cables use the Tesla MagicDock, so each cable contains both a NACS (Tesla) plug and a CCS Combo1 (type1_combo) adapter plug, but only one plug can be used at a time.", "ele": "1874", "fee": "yes", "frequency": "0", "maxstay": "no", "motorcar": "designated", "name": "Tesla Supercharger", "network": "Supercharger", "network:website": "https://www.tesla.com/supercharger", "network:wikidata": "Q17089620", "not:brand:wikidata": "Q478214", "opening_hours": "24/7", "operator": "Tesla", "operator:wikidata": "Q478214", "parking:fee": "no", "payment:app:tesla": "yes", "ref:plugshare": "841004", "ref:supercharge_info": "8575", "scooter": "no", "socket:nacs": "8", "socket:nacs:output": "325", "socket:type1_combo": "8", "socket:type1_combo:output": "325", "start_date": "2025-05-30", "website": "https://www.tesla.com/findus/location/supercharger/401980", "wheelchair": "yes"}}, {"type": "node", "id": 12877972290, "lat": 37.3495351, "lon": -108.5662835}, {"type": "node", "id": 12877972292, "lat": 37.3498314, "lon": -108.5662103}, {"type": "node", "id": 12877972293, "lat": 37.3498335, "lon": -108.5665037}, {"type": "node", "id": 12877972294, "lat": 37.3494114, "lon": -108.5665064}, {"type": "node", "id": 12877972295, "lat": 37.3494121, "lon": -108.5664125}, {"type": "node", "id": 12877972296, "lat": 37.3494689, "lon": -108.5663398}, {"type": "node", "id": 12877972297, "lat": 37.349392, "lon": -108.5662474}, {"type": "node", "id": 12877972298, "lat": 37.3494367, "lon": -108.5660556}, {"type": "node", "id": 12877972299, "lat": 37.3494374, "lon": -108.5661547}, {"type": "node", "id": 12878947437, "lat": 37.3493981, "lon": -108.5664131}, {"type": "node", "id": 12878947438, "lat": 37.3493366, "lon": -108.5663254}, {"type": "node", "id": 12878947439, "lat": 37.3494568, "lon": -108.5663383}, {"type": "node", "id": 12878947440, "lat": 37.3490341, "lon": -108.5660518}, {"type": "node", "id": 12878947441, "lat": 37.3490332, "lon": -108.566234}, {"type": "node", "id": 12878947442, "lat": 37.3490618, "lon": -108.566234}, {"type": "node", "id": 12878947443, "lat": 37.3490614, "lon": -108.5663141}, {"type": "node", "id": 12878947444, "lat": 37.3493301, "lon": -108.5663173}, {"type": "way", "id": 124658379, "nodes": [7183049218, 1386797554, 1386797539, 1386797520, 1386797519, 1386797546, 7183049218], "tags": {"addr:housenumber": "1322", "addr:state": "CO", "addr:street": "East Main Street", "amenity": "fast_food", "brand": "McDonald's", "brand:website": "https://www.mcdonalds.com/", "brand:wikidata": "Q38076", "building": "retail", "cuisine": "burger", "name": "McDonald's", "source": "Bing", "takeaway": "yes", "website": "https://www.mcdonalds.com/us/en-us/location/co/cortez/1322-e-main-st/5274.html"}}, {"type": "way", "id": 245417731, "nodes": [2526245712, 2526245713, 2526245693, 2526245692, 2526245712], "tags": {"addr:city": "Cortez", "addr:housenumber": "1127", "addr:postcode": "81321-3305", "addr:state": "CO", "addr:street": "East Main Street", "alt_name": "Dairy Queen", "amenity": "fast_food", "brand": "DQ Grill & Chill", "brand:wikidata": "Q1141226", "building": "retail", "cuisine": "ice_cream;burger", "drive_through": "yes", "name": "DQ Grill & Chill", "note": "labeled dq grill & chill but didnt see preset", "phone": "+1 970-565-9266", "takeaway": "yes", "website": "https://www.dairyqueen.com/locations/co/cortez/1127-e-main-st/1020"}}, {"type": "way", "id": 322416597, "nodes": [7165227259, 3291843909, 3291843910, 3291843912, 7165227259], "tags": {"addr:city": "Cortez", "addr:housenumber": "1300", "addr:postcode": "81321", "addr:state": "CO", "addr:street": "East Main Street", "amenity": "fast_food", "brand": "Taco Bell", "brand:wikidata": "Q752941", "building": "retail", "cuisine": "tex-mex", "name": "Taco Bell", "opening_hours": "Mo-Tu 08:00-24:00; We 09:00-24:00; Th-Su 08:00-24:00", "operator": "Yum! Brands", "phone": "+1 970-565-7494", "takeaway": "yes", "website": "https://locations.tacobell.com/co/cortez/1300-east-main-street.html"}}, {"type": "way", "id": 330539862, "nodes": [7183045354, 3375051951, 3375051952, 3375051953, 3375051954, 7183045354], "tags": {"addr:city": "Cortez", "addr:housenumber": "1671", "addr:postcode": "81321", "addr:state": "CO", "addr:street": "East Main Street", "brand": "Walgreens", "brand:wikidata": "Q1591889", "building": "retail", "name": "Walgreens", "opening_hours": "Mo-Su 09:00-21:00", "phone": "+1-970-564-9165", "shop": "chemist", "website": "https://www.walgreens.com/locator/walgreens-1671+e+main+st-cortez-co-81321/id=10370"}}, {"type": "way", "id": 330539863, "nodes": [6388980672, 3375051964, 3375051965, 3375051966, 3375051967, 3375051968, 3375051969, 3375051970, 3375051971, 3375051972, 3375051973, 3375051974, 3375051975, 3375051976, 6388980677, 3375051977, 3375051978, 3375051979, 4451181789, 3375051980, 3375051981, 3375051982, 3375051955, 6388980674, 6388980675, 6388980676, 3375051957, 6388980673, 3375051958, 3375051959, 3375051960, 3375051961, 6388980669, 3375051962, 6388980670, 6388980671, 6388980672], "tags": {"addr:city": "Cortez", "addr:country": "US", "addr:housenumber": "1835", "addr:postcode": "81321", "addr:state": "CO", "addr:street": "East Main Street", "brand": "Walmart", "brand:wikidata": "Q483551", "building": "retail", "check_date": "2025-05-11", "name": "Walmart Supercenter", "opening_hours": "Mo-Su 06:00-23:00", "operator": "Walmart", "operator:wikidata": "Q483551", "payment:app:walmart": "yes", "payment:apple_pay": "no", "payment:google_pay": "no", "payment:samsung_pay": "no", "phone": "+1-970-565-6138", "ref": "966", "ref:walmart": "966", "sensory_friendly:accommodation": "dimmed_light;static_screens;no_pa", "sensory_friendly:conditional": "yes @ 08:00-10:00", "shop": "supermarket", "website": "https://www.walmart.com/store/966-cortez-co"}}, {"type": "way", "id": 330539865, "nodes": [3375051987, 3375051988, 3375051989, 3375051990, 3375051991, 3375051992, 3375054393, 3375054394, 3375054395, 3375054396, 3375051987], "tags": {"access": "customers", "amenity": "parking", "fee": "no", "parking": "surface"}}, {"type": "way", "id": 330540259, "nodes": [7165219391, 3375057975, 3375057976, 3375057977, 7165219391], "tags": {"addr:city": "Cortez", "addr:housenumber": "1580", "addr:postcode": "81321", "addr:state": "CO", "addr:street": "East Main Street", "brand": "Safeway", "brand:wikidata": "Q1508234", "building": "retail", "name": "Safeway", "opening_hours": "Mo-Su 06:00-22:00", "phone": "+1-970-564-9590", "shop": "supermarket", "website": "https://local.safeway.com/safeway/co/cortez/1580-e-main-st.html"}}, {"type": "way", "id": 330540260, "nodes": [3375057978, 3375057979, 3375057980, 3375057981, 3375057982, 3375057983, 3375057984, 3375057978], "tags": {"amenity": "parking"}}, {"type": "way", "id": 330540261, "nodes": [3375057985, 3375057986, 3375057987, 3375057988, 3375057989, 3375057990, 3375057991, 3375057992, 3375057985], "tags": {"amenity": "parking"}}, {"type": "way", "id": 330540332, "nodes": [3375058022, 3375058023, 3375058024, 3375058025, 3375058026, 3375058027, 3375058028, 3375058029, 3375058030, 3375058031, 3375058032, 3375058033, 3375058034, 3375058035, 366395943, 3375058037, 3375058022], "tags": {"addr:city": "Cortez", "addr:housenumber": "123", "addr:postcode": "81321", "addr:state": "CO", "addr:street": "Roger Smith Avenue", "amenity": "townhall", "building": "yes", "gnis:feature_id": "1795371", "name": "Cortez City Hall", "townhall:type": "city"}}, {"type": "way", "id": 330543390, "nodes": [3375088821, 3375088822, 3375088823, 3375088824, 3375088821], "tags": {"amenity": "fuel", "brand": "City Market", "building": "yes", "fuel:diesel": "yes", "fuel:gasoline": "yes", "fuel:octane_85": "yes", "fuel:octane_86": "no", "fuel:octane_87": "yes", "fuel:octane_88": "no", "fuel:octane_89": "no", "fuel:octane_90": "no", "fuel:octane_91": "yes", "large_vehicles": "yes", "payment:cards": "yes", "payment:contactless": "no", "self_service": "yes"}}, {"type": "way", "id": 330543391, "nodes": [3375088825, 3375088826, 3375088827, 3375088828, 3375088829, 3375088830, 3375088831, 3375088832, 3375088833, 3375088834, 3375088835, 3375088836, 3375088837, 3375088838, 3375088839, 3375088840, 3375088841, 3375088825], "tags": {"amenity": "parking"}}, {"type": "way", "id": 456150190, "nodes": [4524299953, 4524299952, 4524299951, 10981540502, 4524299950, 4524299953], "tags": {"addr:city": "Cortez", "addr:housenumber": "2121", "addr:postcode": "81321", "addr:state": "CO", "addr:street": "East Main Street", "amenity": "restaurant", "building": "retail", "name": "Destination Grill", "outdoor_seating": "patio", "phone": "+1-970-516-1111", "website": "https://www.facebook.com/dgrillcortez/"}}, {"type": "way", "id": 778439381, "nodes": [7183046303, 7265279447, 7265279449, 7265279450, 7183046303], "tags": {"addr:city": "Cortez", "addr:housenumber": "2059", "addr:postcode": "81321", "addr:state": "CO", "addr:street": "East Main Street", "amenity": "restaurant", "brand": "Denny's", "brand:wikidata": "Q1189695", "building": "restaurant", "cuisine": "american", "name": "Denny's", "opening_hours": "24/7", "phone": "+1-970-564-0832", "website": "https://locations.dennys.com/CO/CORTEZ/247170"}}, {"type": "way", "id": 778439472, "nodes": [7183046161, 7265279841, 7265279839, 7265279837, 7183046161], "tags": {"addr:housenumber": "1222", "addr:state": "CO", "addr:street": "East Main Street", "brand": "AutoZone", "brand:wikidata": "Q4826087", "building": "yes", "name": "AutoZone", "shop": "car_parts", "website": "https://www.autozone.com/locations/co/cortez/1222-e-main-st.html"}}, {"type": "way", "id": 778439901, "nodes": [7183045650, 7265282195, 7265282192, 7265282189, 7265282187, 7265282183, 7183045650], "tags": {"addr:city": "Cortez", "addr:housenumber": "5", "addr:postcode": "81321", "addr:state": "CO", "addr:street": "South Veach Street", "amenity": "restaurant", "building": "retail", "cuisine": "steak_house", "name": "Shiloh Steakhouse", "phone": "+1-970-565-6560"}}, {"type": "way", "id": 778440080, "nodes": [7165241527, 7265283115, 7265283116, 7265283118, 7165241527], "tags": {"addr:city": "Cortez", "addr:housenumber": "2222", "addr:postcode": "81321", "addr:state": "CO", "addr:street": "East Main Street", "alt_name": "Kentucky Fried Chicken", "amenity": "fast_food", "brand": "KFC", "brand:wikidata": "Q524757", "building": "yes", "cuisine": "chicken", "name": "KFC", "takeaway": "yes", "website": "https://locations.kfc.com/co/cortez/2222-east-main-street"}}, {"type": "way", "id": 778441819, "nodes": [7183048472, 7265292343, 7265292341, 7265292339, 7183048472], "tags": {"addr:housenumber": "1856", "addr:state": "CO", "addr:street": "East Main Street", "brand": "Big O Tires", "brand:wikidata": "Q4906085", "building": "yes", "name": "Big O Tires", "shop": "tyres"}}, {"type": "way", "id": 778442225, "nodes": [7165239566, 7265294427, 7265294424, 7265294399, 7165239566], "tags": {"addr:housenumber": "1401", "addr:state": "CO", "addr:street": "East Main Street", "building": "yes", "name": "West Slope Liquors", "shop": "alcohol"}}, {"type": "way", "id": 778442928, "nodes": [7183046252, 7265297810, 7265297809, 7265297808, 7265297807, 7265297806, 7265297805, 7265297804, 7183046252], "tags": {"addr:city": "Cortez", "addr:housenumber": "60", "addr:postcode": "81321", "addr:state": "CO", "addr:street": "South Cactus Street", "building": "government_office", "government": "environment", "name": "Dolores Water Conservancy District", "office": "government", "phone": "+1-970-565-7562", "website": "https://www.doloreswater.com"}}, {"type": "way", "id": 778443062, "nodes": [7183047565, 7265271344, 7265271341, 7265271343, 7183047565], "tags": {"addr:housenumber": "2218", "addr:state": "CO", "addr:street": "East Main Street", "building": "yes", "name": "Century 21 West Slope", "office": "estate_agent"}}, {"type": "way", "id": 778443808, "nodes": [7265302446, 7265302457, 7265302458, 7265302455, 7265302456, 7265302453, 7265302454, 7265302452, 7265302446], "tags": {"addr:housenumber": "444", "addr:state": "CO", "addr:street": "East Main Street", "building": "retail", "name": "Methodist Thrift Shop", "opening_hours": "Tu-Sa 10:00-16:00", "shop": "second_hand"}}, {"type": "way", "id": 778443894, "nodes": [7265302815, 7265302812, 7265302811, 7265302809, 7265302815], "tags": {"building": "yes", "shop": "cannabis"}}, {"type": "way", "id": 778444207, "nodes": [7165219438, 7265304396, 7265304394, 12878947438, 7265304392, 12878947439, 12878947437, 7165219438], "tags": {"addr:city": "Cortez", "addr:housenumber": "1510", "addr:postcode": "81321", "addr:state": "CO", "addr:street": "East Main Street", "amenity": "bank", "atm": "yes", "building": "bank", "drive_through": "yes", "name": "First Southwest Bank", "opening_hours": "Mo-Fr 08:30-17:00", "opening_hours:drive_through": "Mo-Th 08:00-17:00; Fr 08:00-18:00", "phone": "+1-866-641-3792", "website": "https://www.fswb.bank/locations"}}, {"type": "way", "id": 1054214156, "nodes": [9688037344, 9688037345, 9688037346, 9688037347, 9688037344], "tags": {"amenity": "parking"}}, {"type": "way", "id": 1054214778, "nodes": [9688030878, 9688030879, 9688030880, 9688030881, 9688030878], "tags": {"amenity": "parking"}}, {"type": "way", "id": 1088028847, "nodes": [9968851206, 9968851207, 9968851208, 9968851209, 9968851210, 9968851211, 9968851212, 11097236760, 11097236759, 9968851213, 9968851214, 9968851206], "tags": {"access": "customers", "amenity": "parking", "parking": "surface"}}, {"type": "way", "id": 1284550637, "nodes": [7183044588, 11917019862, 11917019861, 7165239219, 11917019853, 11917019854, 11917019855, 11917019856, 11917019857, 11917019858, 7183044588], "tags": {"addr:housenumber": "2258", "addr:street": "East Main Street", "amenity": "bank", "building": "yes", "drive_through": "yes", "name": "First National Bank, Cortez", "website": "https://www.fnbcortez.com/"}}, {"type": "way", "id": 1318238235, "nodes": [12200392895, 12200392896, 12200392897, 12200392898, 12200392899, 12200392900, 12200417201, 12200392895], "tags": {"amenity": "school"}}, {"type": "way", "id": 1318238236, "nodes": [12200417202, 12200417212, 12200417203, 12200417204, 12200417214, 12200417213, 12200417215, 12200417205, 12200417206, 12200417207, 12200417208, 12200417209, 12200417210, 12200417211, 12200417202], "tags": {"amenity": "parking"}}, {"type": "way", "id": 1353571958, "nodes": [12525395651, 12525337841, 12525395622, 12525395618, 12525395617, 12525395616, 12525395615, 12525395621, 12525395559, 12525395558, 12525395538, 12525395537, 12525395536, 12525395535, 12525395534, 12525395533, 12525395532, 12525395531, 12525395530, 12525395529, 12525395528, 12525395527, 12525395526, 12525395525, 12525395524, 12525395523, 12525395522, 12525395557, 12525337840, 12525337839, 12525395466, 12525395460, 12525395459, 12525395458, 12525395465, 12525395464, 12525337838, 12525337837, 12525395447, 12525395446, 12525395430, 12525395429, 12525395428, 12525395427, 12525395426, 12525395425, 12525395424, 12525395423, 12525395422, 12525395421, 12525395420, 12525395419, 12525337836, 12525395486, 12525395477, 12525395478, 12525395479, 12525395480, 12525395481, 12525395482, 12525395483, 12525395484, 12525395485, 12525395489, 12525337835, 12525395518, 12525395504, 12525395505, 12525395506, 12525395507, 12525395508, 12525395509, 12525395510, 12525395511, 12525395512, 12525395513, 12525395514, 12525395515, 12525395516, 12525395517, 12525395521, 12525337834, 12525395660, 12525395661, 12525395662, 12525395663, 12525395664, 12525395668, 12525337833, 12525395649, 12525395636, 12525395637, 12525395638, 12525395639, 12525395640, 12525395641, 12525395642, 12525395643, 12525395644, 12525395645, 12525395646, 12525395647, 12525395648, 12525395652, 12525395651], "tags": {"amenity": "parking", "parking": "surface", "surface": "asphalt"}}, {"type": "way", "id": 1353571963, "nodes": [12525395201, 12525337900, 12525337899, 12525337898, 12525337897, 12525337896, 12525337895, 12525337894, 3290238782, 12525337893, 12525337892, 12525337891, 12525337890, 12525337889, 12525337888, 12525337887, 12525337886, 12525395201], "tags": {"amenity": "stage", "outdoor": "yes"}}, {"type": "way", "id": 1353571964, "nodes": [12525395207, 3290238813, 12525395206, 12525395205, 12525395204, 12525395203, 12525395202, 12525395207], "tags": {"amenity": "shelter", "building": "roof", "shelter_type": "picnic_shelter", "wheelchair": "yes"}}, {"type": "way", "id": 1353571980, "nodes": [12525395431, 12525395418, 12525395445, 12525395444, 12525395431], "tags": {"amenity": "parking_space", "parking": "surface", "surface": "asphalt"}}, {"type": "way", "id": 1353571981, "nodes": [12525395432, 12525395419, 12525337836, 12525395418, 12525395431, 12525395432], "tags": {"amenity": "parking_space", "parking": "surface", "surface": "asphalt"}}, {"type": "way", "id": 1353571982, "nodes": [12525395433, 12525395420, 12525395419, 12525395432, 12525395433], "tags": {"amenity": "parking_space", "parking": "surface", "surface": "asphalt"}}, {"type": "way", "id": 1353571983, "nodes": [12525395434, 12525395421, 12525395420, 12525395433, 12525395434], "tags": {"amenity": "parking_space", "parking": "surface", "surface": "asphalt"}}, {"type": "way", "id": 1353571984, "nodes": [12525395435, 12525395422, 12525395421, 12525395434, 12525395435], "tags": {"amenity": "parking_space", "parking": "surface", "surface": "asphalt"}}, {"type": "way", "id": 1353571985, "nodes": [12525395436, 12525395423, 12525395422, 12525395435, 12525395436], "tags": {"amenity": "parking_space", "parking": "surface", "surface": "asphalt"}}, {"type": "way", "id": 1353571986, "nodes": [12525395437, 12525395424, 12525395423, 12525395436, 12525395437], "tags": {"amenity": "parking_space", "parking": "surface", "surface": "asphalt"}}, {"type": "way", "id": 1353571987, "nodes": [12525395438, 12525395425, 12525395424, 12525395437, 12525395438], "tags": {"amenity": "parking_space", "parking": "surface", "surface": "asphalt"}}, {"type": "way", "id": 1353571988, "nodes": [12525395439, 12525395426, 12525395425, 12525395438, 12525395439], "tags": {"amenity": "parking_space", "parking": "surface", "surface": "asphalt"}}, {"type": "way", "id": 1353571989, "nodes": [12525395440, 12525395427, 12525395426, 12525395439, 12525395440], "tags": {"amenity": "parking_space", "parking": "surface", "surface": "asphalt"}}, {"type": "way", "id": 1353571990, "nodes": [12525395441, 12525395428, 12525395427, 12525395440, 12525395441], "tags": {"amenity": "parking_space", "parking": "surface", "surface": "asphalt"}}, {"type": "way", "id": 1353571991, "nodes": [12525395442, 12525395429, 12525395428, 12525395441, 12525395442], "tags": {"amenity": "parking_space", "parking": "surface", "surface": "asphalt"}}, {"type": "way", "id": 1353571992, "nodes": [12525395443, 12525395430, 12525395429, 12525395442, 12525395443], "tags": {"amenity": "parking_space", "parking": "surface", "surface": "asphalt"}}, {"type": "way", "id": 1353571993, "nodes": [12525395447, 12525395446, 12525395430, 12525395443, 12525395447], "tags": {"amenity": "parking_space", "parking": "surface", "surface": "asphalt"}}, {"type": "way", "id": 1353571994, "nodes": [12525395451, 12525395448, 12525395455, 12525395454, 12525395451], "tags": {"amenity": "parking_space", "parking": "surface", "surface": "asphalt"}}, {"type": "way", "id": 1353571995, "nodes": [12525395452, 12525395449, 12525395448, 12525395451, 12525395452], "tags": {"amenity": "parking_space", "parking": "surface", "surface": "asphalt"}}, {"type": "way", "id": 1353571996, "nodes": [12525395453, 12525395450, 12525395449, 12525395452, 12525395453], "tags": {"amenity": "parking_space", "parking": "surface", "surface": "asphalt"}}, {"type": "way", "id": 1353571997, "nodes": [12525395457, 12525395456, 12525395450, 12525395453, 12525395457], "tags": {"amenity": "parking_space", "parking": "surface", "surface": "asphalt"}}, {"type": "way", "id": 1353571998, "nodes": [12525395461, 12525395458, 12525395465, 12525395464, 12525395461], "tags": {"amenity": "parking_space", "parking": "surface", "surface": "asphalt"}}, {"type": "way", "id": 1353571999, "nodes": [12525395462, 12525395459, 12525395458, 12525395461, 12525395462], "tags": {"amenity": "parking_space", "parking": "surface", "surface": "asphalt"}}, {"type": "way", "id": 1353572000, "nodes": [12525395463, 12525395460, 12525395459, 12525395462, 12525395463], "tags": {"amenity": "parking_space", "parking": "surface", "surface": "asphalt"}}, {"type": "way", "id": 1353572001, "nodes": [12525395467, 12525395466, 12525395460, 12525395463, 12525395467], "tags": {"amenity": "parking_space", "parking": "surface", "surface": "asphalt"}}, {"type": "way", "id": 1353572002, "nodes": [12525395477, 12525395468, 12525395487, 12525395486, 12525395477], "tags": {"amenity": "parking_space", "parking": "surface", "surface": "asphalt"}}, {"type": "way", "id": 1353572003, "nodes": [12525395478, 12525395469, 12525395468, 12525395477, 12525395478], "tags": {"amenity": "parking_space", "parking": "surface", "surface": "asphalt"}}, {"type": "way", "id": 1353572004, "nodes": [12525395479, 12525395470, 12525395469, 12525395478, 12525395479], "tags": {"amenity": "parking_space", "parking": "surface", "surface": "asphalt"}}, {"type": "way", "id": 1353572005, "nodes": [12525395480, 12525395471, 12525395470, 12525395479, 12525395480], "tags": {"amenity": "parking_space", "parking": "surface", "surface": "asphalt"}}, {"type": "way", "id": 1353572006, "nodes": [12525395481, 12525395472, 12525395471, 12525395480, 12525395481], "tags": {"amenity": "parking_space", "parking": "surface", "surface": "asphalt"}}, {"type": "way", "id": 1353572007, "nodes": [12525395482, 12525395473, 12525395472, 12525395481, 12525395482], "tags": {"amenity": "parking_space", "parking": "surface", "surface": "asphalt"}}, {"type": "way", "id": 1353572008, "nodes": [12525395483, 12525395474, 12525395473, 12525395482, 12525395483], "tags": {"amenity": "parking_space", "parking": "surface", "surface": "asphalt"}}, {"type": "way", "id": 1353572009, "nodes": [12525395484, 12525395475, 12525395474, 12525395483, 12525395484], "tags": {"amenity": "parking_space", "parking": "surface", "surface": "asphalt"}}, {"type": "way", "id": 1353572010, "nodes": [12525395485, 12525395476, 12525395475, 12525395484, 12525395485], "tags": {"amenity": "parking_space", "parking": "surface", "surface": "asphalt"}}, {"type": "way", "id": 1353572011, "nodes": [12525395489, 12525395488, 12525395476, 12525395485, 12525395489], "tags": {"amenity": "parking_space", "parking": "surface", "surface": "asphalt"}}, {"type": "way", "id": 1353572012, "nodes": [12525395504, 12525395490, 12525395519, 12525395518, 12525395504], "tags": {"amenity": "parking_space", "parking": "surface", "surface": "asphalt"}}, {"type": "way", "id": 1353572013, "nodes": [12525395505, 12525395491, 12525395490, 12525395504, 12525395505], "tags": {"amenity": "parking_space", "parking": "surface", "surface": "asphalt"}}, {"type": "way", "id": 1353572014, "nodes": [12525395506, 12525395492, 12525395491, 12525395505, 12525395506], "tags": {"amenity": "parking_space", "parking": "surface", "surface": "asphalt"}}, {"type": "way", "id": 1353572015, "nodes": [12525395507, 12525395493, 12525395492, 12525395506, 12525395507], "tags": {"amenity": "parking_space", "parking": "surface", "surface": "asphalt"}}, {"type": "way", "id": 1353572016, "nodes": [12525395508, 12525395494, 12525395493, 12525395507, 12525395508], "tags": {"amenity": "parking_space", "parking": "surface", "surface": "asphalt"}}, {"type": "way", "id": 1353572017, "nodes": [12525395509, 12525395495, 12525395494, 12525395508, 12525395509], "tags": {"amenity": "parking_space", "parking": "surface", "surface": "asphalt"}}, {"type": "way", "id": 1353572018, "nodes": [12525395510, 12525395496, 12525395495, 12525395509, 12525395510], "tags": {"amenity": "parking_space", "parking": "surface", "surface": "asphalt"}}, {"type": "way", "id": 1353572019, "nodes": [12525395511, 12525395497, 12525395496, 12525395510, 12525395511], "tags": {"amenity": "parking_space", "parking": "surface", "surface": "asphalt"}}, {"type": "way", "id": 1353572020, "nodes": [12525395512, 12525395498, 12525395497, 12525395511, 12525395512], "tags": {"amenity": "parking_space", "parking": "surface", "surface": "asphalt"}}, {"type": "way", "id": 1353572027, "nodes": [12525395539, 12525395522, 12525395557, 12525395556, 12525395539], "tags": {"amenity": "parking_space", "parking": "surface", "surface": "asphalt"}}, {"type": "way", "id": 1353572028, "nodes": [12525395540, 12525395523, 12525395522, 12525395539, 12525395540], "tags": {"amenity": "parking_space", "parking": "surface", "surface": "asphalt"}}, {"type": "way", "id": 1353572029, "nodes": [12525395541, 12525395524, 12525395523, 12525395540, 12525395541], "tags": {"amenity": "parking_space", "parking": "surface", "surface": "asphalt"}}, {"type": "way", "id": 1353572030, "nodes": [12525395542, 12525395525, 12525395524, 12525395541, 12525395542], "tags": {"amenity": "parking_space", "parking": "surface", "surface": "asphalt"}}, {"type": "way", "id": 1353572031, "nodes": [12525395543, 12525395526, 12525395525, 12525395542, 12525395543], "tags": {"amenity": "parking_space", "parking": "surface", "surface": "asphalt"}}, {"type": "way", "id": 1353572032, "nodes": [12525395544, 12525395527, 12525395526, 12525395543, 12525395544], "tags": {"amenity": "parking_space", "parking": "surface", "surface": "asphalt"}}, {"type": "way", "id": 1353572045, "nodes": [12525395575, 12525395560, 12525395608, 12525395605, 12525395575], "tags": {"amenity": "parking_space", "parking": "surface", "surface": "asphalt"}}, {"type": "way", "id": 1353572046, "nodes": [12525395576, 12525395561, 12525395560, 12525395575, 12525395576], "tags": {"amenity": "parking_space", "parking": "surface", "surface": "asphalt"}}, {"type": "way", "id": 1353572047, "nodes": [12525395577, 12525395562, 12525395561, 12525395576, 12525395577], "tags": {"amenity": "parking_space", "parking": "surface", "surface": "asphalt"}}, {"type": "way", "id": 1353572048, "nodes": [12525395578, 12525395563, 12525395562, 12525395577, 12525395578], "tags": {"amenity": "parking_space", "parking": "surface", "surface": "asphalt"}}, {"type": "way", "id": 1353572049, "nodes": [12525395579, 12525395564, 12525395563, 12525395578, 12525395579], "tags": {"amenity": "parking_space", "parking": "surface", "surface": "asphalt"}}, {"type": "way", "id": 1353572050, "nodes": [12525395580, 12525395565, 12525395564, 12525395579, 12525395580], "tags": {"amenity": "parking_space", "parking": "surface", "surface": "asphalt"}}, {"type": "way", "id": 1353572051, "nodes": [12525395581, 12525395566, 12525395565, 12525395580, 12525395581], "tags": {"amenity": "parking_space", "parking": "surface", "surface": "asphalt"}}, {"type": "way", "id": 1353572061, "nodes": [12525395590, 12525395575, 12525395605, 12525395607, 12525395590], "tags": {"amenity": "parking_space", "parking": "surface", "surface": "asphalt"}}, {"type": "way", "id": 1353572062, "nodes": [12525395591, 12525395576, 12525395575, 12525395590, 12525395591], "tags": {"amenity": "parking_space", "parking": "surface", "surface": "asphalt"}}, {"type": "way", "id": 1353572063, "nodes": [12525395592, 12525395577, 12525395576, 12525395591, 12525395592], "tags": {"amenity": "parking_space", "parking": "surface", "surface": "asphalt"}}, {"type": "way", "id": 1353572064, "nodes": [12525395593, 12525395578, 12525395577, 12525395592, 12525395593], "tags": {"amenity": "parking_space", "parking": "surface", "surface": "asphalt"}}, {"type": "way", "id": 1353572065, "nodes": [12525395594, 12525395579, 12525395578, 12525395593, 12525395594], "tags": {"amenity": "parking_space", "parking": "surface", "surface": "asphalt"}}, {"type": "way", "id": 1353572066, "nodes": [12525395595, 12525395580, 12525395579, 12525395594, 12525395595], "tags": {"amenity": "parking_space", "parking": "surface", "surface": "asphalt"}}, {"type": "way", "id": 1353572067, "nodes": [12525395596, 12525395581, 12525395580, 12525395595, 12525395596], "tags": {"amenity": "parking_space", "parking": "surface", "surface": "asphalt"}}, {"type": "way", "id": 1385212642, "nodes": [7165238550, 12824835619, 12824835620, 12824835621, 7165238550], "tags": {"addr:city": "Cortez", "addr:housenumber": "1853", "addr:postcode": "81321", "addr:state": "CO", "addr:street": "East Main Street", "brand": "O'Reilly Auto Parts", "brand:wikidata": "Q7071951", "building": "retail", "name": "O'Reilly Auto Parts", "phone": "+1-970-565-4122", "shop": "car_parts", "website": "https://locations.oreillyauto.com/co/cortez/autoparts-4702.html"}}, {"type": "way", "id": 1391250709, "nodes": [12877972290, 12877972292, 12877972293, 12877972294, 12877972295, 12877972296, 12877972297, 12878947444, 12878947443, 12878947442, 12878947441, 12878947440, 12877972298, 12877972299, 12877972290], "tags": {"amenity": "parking"}}]}