{"version": 0.6, "generator": "Overpass API 0.7.62.8 e802775f", "osm3s": {"timestamp_osm_base": "2025-12-12T23:57:43Z", "copyright": "The data included in this document is from www.openstreetmap.org. The data is made available under ODbL."}, "elements": [{"type": "node", "id": 7527297360, "lat": 39.3004564, "lon": -102.6045089}, {"type": "node", "id": 7620723491, "lat": 39.2972151, "lon": -102.605224, "tags": {"addr:city": "Stratton", "addr:housenumber": "814", "addr:postcode": "80836", "addr:state": "CO", "addr:street": "Colorado Avenue", "amenity": "fuel", "brand": "Conoco", "brand:wikidata": "Q109341187", "name": "Conoco", "website": "https://www.conoco.com/station/CON-BY-FOOD-N-GAS-MART-0000870180/"}}, {"type": "node", "id": 7620723492, "lat": 39.297249, "lon": -102.6053841, "tags": {"addr:city": "Stratton", "addr:housenumber": "814", "addr:postcode": "80836", "addr:state": "CO", "addr:street": "Colorado Avenue", "brand": "Conoco", "brand:wikidata": "Q109341187", "name": "Conoco", "shop": "convenience"}}, {"type": "node", "id": 7620723493, "lat": 39.2970755, "lon": -102.6046933, "tags": {"addr:city": "Stratton", "addr:housenumber": "913", "addr:postcode": "80836", "addr:state": "CO", "addr:street": "Colorado Avenue", "amenity": "fuel", "brand": "Cenex", "brand:wikidata": "Q5011381", "name": "Cenex"}}, {"type": "node", "id": 7620723494, "lat": 39.2968254, "lon": -102.6045348, "tags": {"addr:city": "Stratton", "addr:housenumber": "913", "addr:postcode": "80836", "addr:state": "CO", "addr:street": "Colorado Avenue", "name": "Convenience Mart", "shop": "convenience"}}, {"type": "node", "id": 7620723495, "lat": 39.2962562, "lon": -102.604829}, {"type": "node", "id": 7620723496, "lat": 39.2962681, "lon": -102.6045825}, {"type": "node", "id": 7620723497, "lat": 39.2963229, "lon": -102.6044068}, {"type": "node", "id": 7620723498, "lat": 39.2964326, "lon": -102.6042897}, {"type": "node", "id": 7620723499, "lat": 39.2961656, "lon": -102.6042189}, {"type": "node", "id": 7620723500, "lat": 39.2954836, "lon": -102.604225}, {"type": "node", "id": 7620723501, "lat": 39.2954788, "lon": -102.6046256}, {"type": "node", "id": 7620723502, "lat": 39.295517, "lon": -102.6047396}, {"type": "node", "id": 7620723503, "lat": 39.2980519, "lon": -102.6046496}, {"type": "node", "id": 7620723504, "lat": 39.2980517, "lon": -102.6045073}, {"type": "node", "id": 7620723505, "lat": 39.2979231, "lon": -102.6045076}, {"type": "node", "id": 7620723506, "lat": 39.2979232, "lon": -102.6045835}, {"type": "node", "id": 7620723507, "lat": 39.297935, "lon": -102.6045834}, {"type": "node", "id": 7620723508, "lat": 39.2979351, "lon": -102.6046499}, {"type": "node", "id": 7620723523, "lat": 39.2991903, "lon": -102.6041557}, {"type": "node", "id": 7620723524, "lat": 39.2991765, "lon": -102.6041384}, {"type": "node", "id": 7620723525, "lat": 39.2991761, "lon": -102.6041115}, {"type": "node", "id": 7620723526, "lat": 39.2991899, "lon": -102.6040932}, {"type": "node", "id": 7620723527, "lat": 39.2992119, "lon": -102.6040932}, {"type": "node", "id": 7620723528, "lat": 39.2992245, "lon": -102.6041105}, {"type": "node", "id": 7620723529, "lat": 39.2992249, "lon": -102.6041389}, {"type": "node", "id": 7620723530, "lat": 39.2992131, "lon": -102.6041557}, {"type": "node", "id": 7620723532, "lat": 39.300457, "lon": -102.6043924}, {"type": "node", "id": 7620723533, "lat": 39.3002897, "lon": -102.6043909}, {"type": "node", "id": 7620723534, "lat": 39.3002891, "lon": -102.6045138}, {"type": "node", "id": 7620723535, "lat": 39.3003041, "lon": -102.6045139}, {"type": "node", "id": 7620723536, "lat": 39.3003025, "lon": -102.6048027}, {"type": "node", "id": 7620723537, "lat": 39.3004299, "lon": -102.6048038}, {"type": "node", "id": 7620723538, "lat": 39.3004315, "lon": -102.6045087}, {"type": "node", "id": 12219558849, "lat": 39.3045312, "lon": -102.6051995, "tags": {"branch": "Stratton", "check_date": "2024-10-03", "check_date:opening_hours": "2024-10-03", "name": "Stop & Shop Supermarket", "not:brand:wikidata": "Q3658429", "opening_hours": "Mo-Sa 07:00-18:30; Su 09:00-14:00", "phone": "+1 719 348-5518", "shop": "supermarket", "website": "https://stratton.stopnshopsuper.com/"}}, {"type": "way", "id": 815967121, "nodes": [7620723495, 7620723496, 7620723497, 7620723498, 7620723499, 7620723500, 7620723501, 7620723502, 7620723495], "tags": {"amenity": "parking"}}, {"type": "way", "id": 815967122, "nodes": [7620723503, 7620723504, 7620723505, 7620723506, 7620723507, 7620723508, 7620723503], "tags": {"addr:city": "Stratton", "addr:housenumber": "471", "addr:postcode": "80836", "addr:state": "CO", "addr:street": "Colorado Avenue", "amenity": "restaurant", "building": "yes", "cuisine": "american", "name": "Handi's"}}, {"type": "way", "id": 815967127, "nodes": [7620723523, 7620723524, 7620723525, 7620723526, 7620723527, 7620723528, 7620723529, 7620723530, 7620723523], "tags": {"amenity": "shelter", "building": "yes", "shelter_type": "gazebo"}}, {"type": "way", "id": 815967128, "nodes": [7527297360, 7620723532, 7620723533, 7620723534, 7620723535, 7620723536, 7620723537, 7620723538, 7527297360], "tags": {"addr:city": "Stratton", "addr:housenumber": "513", "addr:postcode": "80836", "addr:state": "CO", "addr:street": "Colorado Avenue", "amenity": "place_of_worship", "building": "church", "denomination": "roman_catholic", "diocese": "Colorado Springs", "name": "Saint Charles Borromeo Catholic Church", "phone": "+1-719-348-5336", "religion": "christian", "website": "http://www.stcharlesborromeocos.org"}}]}