{"version": 0.6, "generator": "Overpass API 0.7.62.8 e802775f", "osm3s": {"timestamp_osm_base": "2025-12-06T08:25:59Z", "copyright": "The data included in this document is from www.openstreetmap.org. The data is made available under ODbL."}, "elements": [{"type": "node", "id": 357970207, "lat": 45.291689, "lon": -108.9160139, "tags": {"addr:city": "Bridger", "addr:housenumber": "410", "addr:postcode": "59014", "addr:street": "South 2nd Street", "amenity": "doctors", "gnis:feature_id": "1726545", "name": "RiverStone Health Clinic \u2013 Bridger", "old_name": "Clarks Fork Medical Center", "opening_hours": "Mo,We,Th 08:00-17:00", "operator": "RiverStone Health", "phone": "+1 406 662 3740", "website": "https://riverstonehealth.org/locations/riverstone-health-clinic-bridger/"}}, {"type": "node", "id": 357970219, "lat": 45.295503, "lon": -108.9109764, "tags": {"ele": "1115", "gnis:feature_id": "1726565", "leisure": "park", "name": "Bridger City Park", "wikidata": "Q49475751"}}, {"type": "node", "id": 357970250, "lat": 45.2957807, "lon": -108.9137544, "tags": {"ele": "1117", "gnis:feature_id": "1726592", "leisure": "park", "name": "Memorial Park", "wikidata": "Q49524977"}}, {"type": "node", "id": 357970253, "lat": 45.2957807, "lon": -108.9137544, "tags": {"ele": "1117", "gnis:feature_id": "1726593", "leisure": "park", "name": "Jim Bridger Park", "wikidata": "Q49507734"}}, {"type": "node", "id": 357970334, "lat": 45.2957807, "lon": -108.9112543, "tags": {"amenity": "place_of_worship", "denomination": "baptist", "ele": "1115", "gnis:feature_id": "1726618", "name": "Bridger Baptist Church", "religion": "christian"}}, {"type": "node", "id": 357970336, "lat": 45.2923803, "lon": -108.9159976, "tags": {"addr:city": "Bridger", "addr:housenumber": "402", "addr:postcode": "59014", "addr:street": "South 2nd Street", "amenity": "place_of_worship", "denomination": "seventh_day_adventist", "gnis:feature_id": "1726619", "name": "Bridger Church", "religion": "christian", "website": "https://bridgermt.adventistchurch.org/"}}, {"type": "node", "id": 357970339, "lat": 45.2955029, "lon": -108.91681, "tags": {"amenity": "place_of_worship", "denomination": "methodist", "ele": "1123", "gnis:feature_id": "1726620", "name": "Bridger United Methodist Church", "religion": "christian"}}, {"type": "node", "id": 357970341, "lat": 45.2946695, "lon": -108.91681, "tags": {"amenity": "place_of_worship", "ele": "1123", "gnis:feature_id": "1726621", "name": "Church of the Good Shepherd", "religion": "christian"}}, {"type": "node", "id": 357970344, "lat": 45.2924473, "lon": -108.9173655, "tags": {"amenity": "place_of_worship", "denomination": "lutheran", "ele": "1124", "gnis:feature_id": "1726622", "name": "Saint Pauls Lutheran Church", "religion": "christian"}}, {"type": "node", "id": 357970552, "lat": 45.2977251, "lon": -108.9193101, "tags": {"amenity": "school", "ele": "1125", "gnis:feature_id": "1726815", "name": "Bridger Public Schools"}}, {"type": "node", "id": 366093159, "lat": 45.2941595, "lon": -108.9115524, "tags": {"addr:city": "Bridger", "addr:housenumber": "210", "addr:postcode": "59014", "addr:state": "MT", "addr:street": "South C Street", "amenity": "fire_station", "ele": "1117", "gnis:feature_id": "1726686", "name": "Bridger Fire Department", "phone": "+1 406-662-3554", "source": "USGS Geonames"}}, {"type": "node", "id": 366093302, "lat": 45.2960584, "lon": -108.9159767, "tags": {"addr:state": "MT", "amenity": "library", "ele": "1122", "gnis:feature_id": "1726538", "name": "Bridger Public Library", "source": "USGS Geonames"}}, {"type": "node", "id": 1445844298, "lat": 45.2964752, "lon": -108.9107001, "tags": {"addr:housenumber": "406-662-9847", "addr:street": "addr:full", "amenity": "recycling", "name": "Collective Recyclers Community Drop-off"}}, {"type": "node", "id": 1445844309, "lat": 45.2970339, "lon": -108.9116356}, {"type": "node", "id": 1445844316, "lat": 45.2964903, "lon": -108.9115155, "tags": {"leisure": "playground"}}, {"type": "node", "id": 1445844332, "lat": 45.2959733, "lon": -108.9108503, "tags": {"tourism": "camp_site"}}, {"type": "node", "id": 1445844344, "lat": 45.2962488, "lon": -108.9109147, "tags": {"tourism": "picnic_site"}}, {"type": "node", "id": 1445844348, "lat": 45.2969205, "lon": -108.9096916, "tags": {"addr:housenumber": "406-662-9847", "addr:street": "addr:full", "amenity": "recycling", "name": "Collective Recyclers Main Address/Company Entrance"}}, {"type": "node", "id": 4913910492, "lat": 45.2970339, "lon": -108.9114616}, {"type": "node", "id": 4913910493, "lat": 45.2969363, "lon": -108.9114615}, {"type": "node", "id": 4913910494, "lat": 45.2969361, "lon": -108.9117556}, {"type": "node", "id": 4913910495, "lat": 45.297134, "lon": -108.9117557}, {"type": "node", "id": 4913910496, "lat": 45.2971341, "lon": -108.9116357}, {"type": "node", "id": 7618175985, "lat": 45.2944963, "lon": -108.9183023}, {"type": "node", "id": 7618175986, "lat": 45.294496, "lon": -108.9183302}, {"type": "node", "id": 7618175987, "lat": 45.2943835, "lon": -108.9181679}, {"type": "node", "id": 7618175988, "lat": 45.2943655, "lon": -108.9181675}, {"type": "node", "id": 7618175989, "lat": 45.2943818, "lon": -108.9183277}, {"type": "node", "id": 7618175990, "lat": 45.2943675, "lon": -108.9179786}, {"type": "node", "id": 7618175991, "lat": 45.2945356, "lon": -108.9179823}, {"type": "node", "id": 7618175992, "lat": 45.2945321, "lon": -108.9183031}, {"type": "node", "id": 8153169299, "lat": 45.2955658, "lon": -108.9099864}, {"type": "node", "id": 8153169300, "lat": 45.2953274, "lon": -108.9100231}, {"type": "node", "id": 8153169301, "lat": 45.2953185, "lon": -108.909906}, {"type": "node", "id": 8153169302, "lat": 45.2954734, "lon": -108.9098822}, {"type": "node", "id": 8153169303, "lat": 45.2954657, "lon": -108.9097805}, {"type": "node", "id": 8153169304, "lat": 45.2955491, "lon": -108.9097677}, {"type": "node", "id": 8153201892, "lat": 45.2964483, "lon": -108.9139066}, {"type": "node", "id": 8153201893, "lat": 45.29632, "lon": -108.9139087}, {"type": "node", "id": 8153201894, "lat": 45.2963185, "lon": -108.9136234}, {"type": "node", "id": 8153201895, "lat": 45.2964483, "lon": -108.9136234}, {"type": "node", "id": 8153211995, "lat": 45.2976197, "lon": -108.9136751}, {"type": "node", "id": 8153211996, "lat": 45.2972591, "lon": -108.9136704}, {"type": "node", "id": 8153211997, "lat": 45.2972603, "lon": -108.9134687}, {"type": "node", "id": 8153211998, "lat": 45.297621, "lon": -108.9134732}, {"type": "node", "id": 8153250140, "lat": 45.2963873, "lon": -108.913767, "tags": {"addr:city": "Bridger", "addr:housenumber": "113", "addr:state": "MT", "addr:street": "North Main Street", "amenity": "post_office", "ele": "1117", "gnis:feature_id": "1726670", "name": "Bridger Post Office", "operator": "United States Postal Service", "operator:short": "USPS", "operator:type": "public", "operator:website": "https://www.usps.com", "operator:wikidata": "Q668687", "operator:wikipedia": "en:United States Postal Service"}}, {"type": "node", "id": 8153252409, "lat": 45.2960677, "lon": -108.9139392}, {"type": "node", "id": 8153252410, "lat": 45.2960706, "lon": -108.9134572}, {"type": "node", "id": 8153252411, "lat": 45.2959926, "lon": -108.9134563}, {"type": "node", "id": 8153252412, "lat": 45.2959911, "lon": -108.913698}, {"type": "node", "id": 8153252413, "lat": 45.2959223, "lon": -108.9136972}, {"type": "node", "id": 8153252414, "lat": 45.2959209, "lon": -108.9139374}, {"type": "node", "id": 8153252415, "lat": 45.2960133, "lon": -108.913759, "tags": {"addr:city": "Bridger", "addr:housenumber": "105", "addr:postcode": "59014", "addr:state": "MT", "addr:street": "North Main Street", "name": "Valley Foods", "opening_hours": "Mo-Sa 08:00-20:00, Su 09:00-19:00", "phone": "+1 406-662-3591", "shop": "supermarket", "website": "https://valley-foods.edan.io/"}}, {"type": "node", "id": 8153299360, "lat": 45.2955113, "lon": -108.9098833, "tags": {"addr:city": "Bridger", "addr:housenumber": "108", "addr:postcode": "59014", "addr:state": "MT", "addr:street": "South D Street", "amenity": "police", "name": "Bridger Police", "phone": "+1 406-662-3116", "website": "http://www.bridgerpolicedepartment.com/"}}, {"type": "node", "id": 8153313899, "lat": 45.2942394, "lon": -108.9116501}, {"type": "node", "id": 8153313900, "lat": 45.2942409, "lon": -108.911502}, {"type": "node", "id": 8153313901, "lat": 45.2938847, "lon": -108.9114849}, {"type": "node", "id": 8153313902, "lat": 45.2938847, "lon": -108.9116479}, {"type": "node", "id": 8153325232, "lat": 45.2974394, "lon": -108.9135835, "tags": {"addr:city": "Bridger", "addr:housenumber": "209", "addr:postcode": "59014", "addr:state": "MT", "addr:street": "North Main Street", "amenity": "fuel", "name": "Bridger C-Store & Farm Store", "opening_hours": "Mo-Su 05:00-21:00", "phone": "+1 406-662-3623", "self_service": "yes", "website": "https://www.tandcsupply.com/convenience-stores/"}}, {"type": "node", "id": 9153754975, "lat": 45.296646, "lon": -108.914317}, {"type": "node", "id": 9153754976, "lat": 45.2965675, "lon": -108.9143159}, {"type": "node", "id": 9153754977, "lat": 45.2965649, "lon": -108.914692}, {"type": "node", "id": 9153754978, "lat": 45.2964705, "lon": -108.9146907}, {"type": "node", "id": 9153754979, "lat": 45.2964696, "lon": -108.9148052}, {"type": "node", "id": 9153754980, "lat": 45.2966425, "lon": -108.9148076}, {"type": "node", "id": 9328108001, "lat": 45.2973836, "lon": -108.9116759}, {"type": "node", "id": 9328108002, "lat": 45.2972723, "lon": -108.9116812}, {"type": "node", "id": 9328108003, "lat": 45.2972723, "lon": -108.911362}, {"type": "node", "id": 9328108004, "lat": 45.2973968, "lon": -108.9113728}, {"type": "node", "id": 9328179443, "lat": 45.2966832, "lon": -108.9206933}, {"type": "node", "id": 9328179444, "lat": 45.2949303, "lon": -108.9207264}, {"type": "node", "id": 9328179445, "lat": 45.2949349, "lon": -108.9198208}, {"type": "node", "id": 9328179446, "lat": 45.2965391, "lon": -108.9200257}, {"type": "node", "id": 9954039177, "lat": 45.2950227, "lon": -108.9139356}, {"type": "node", "id": 9954039178, "lat": 45.2950255, "lon": -108.9136352}, {"type": "node", "id": 9954039179, "lat": 45.2949425, "lon": -108.9136337}, {"type": "node", "id": 9954039180, "lat": 45.2949398, "lon": -108.9139341}, {"type": "way", "id": 500297367, "nodes": [1445844309, 4913910496, 4913910495, 4913910494, 4913910493, 4913910492, 1445844309], "tags": {"leisure": "swimming_pool"}}, {"type": "way", "id": 815705462, "nodes": [7618175992, 7618175991, 7618175990, 7618175988, 7618175987, 7618175989, 7618175986, 7618175985, 7618175992], "tags": {"addr:city": "Bridger", "addr:housenumber": "209", "addr:postcode": "59014", "addr:state": "MT", "addr:street": "South 4th Street", "amenity": "place_of_worship", "building": "church", "denomination": "roman_catholic", "description": "Mailing Address: PO Box 309 Bridger, MT 59014", "diocese": "Great Falls-Billings", "ele": "1126", "gnis:feature_id": "1726623", "name": "Sacred Heart Catholic Church", "phone": "+1 406-662-3550", "religion": "christian"}}, {"type": "way", "id": 875996646, "nodes": [8153169299, 8153169300, 8153169301, 8153169302, 8153169303, 8153169304, 8153169299], "tags": {"addr:city": "Bridger", "addr:housenumber": "108", "addr:postcode": "59014", "addr:state": "MT", "addr:street": "South D Street", "amenity": "townhall", "building": "yes", "name": "Bridger Town Hall/Police", "townhall:type": "town"}}, {"type": "way", "id": 875999406, "nodes": [8153211995, 8153211996, 8153211997, 8153211998, 8153211995], "tags": {"addr:city": "Bridger", "addr:housenumber": "209", "addr:postcode": "59014", "addr:state": "MT", "addr:street": "North Main Street", "building": "yes", "description": "Includes Farm Store, Gas Station, and Deli", "name": "Bridger C-Store & Farm Store", "phone": "+1 406-662-3623", "shop": "convenience", "website": "https://www.tandcsupply.com/convenience-stores/"}}, {"type": "way", "id": 876000653, "nodes": [8153201892, 8153201893, 8153201894, 8153201895, 8153201892], "tags": {"addr:city": "Bridger", "addr:housenumber": "113", "addr:postcode": "59014", "addr:state": "MT", "addr:street": "North Main Street", "amenity": "post_office", "building": "yes", "name": "United States Postal Service", "operator": "United States Postal Service", "operator:short": "USPS", "operator:type": "public", "operator:website": "https://www.usps.com", "operator:wikidata": "Q668687", "operator:wikipedia": "en:United States Postal Service"}}, {"type": "way", "id": 876004356, "nodes": [8153252409, 8153252410, 8153252411, 8153252412, 8153252413, 8153252414, 8153252409], "tags": {"addr:city": "Bridger", "addr:housenumber": "105", "addr:postcode": "59014", "addr:state": "MT", "addr:street": "North Main Street", "building": "yes", "name": "Valley Foods", "opening_hours": "Mo-Sa 08:00-20:00, Su 09:00-19:00", "phone": "+1 406-662-3591", "shop": "supermarket", "website": "https://valley-foods.edan.io/"}}, {"type": "way", "id": 876007706, "nodes": [8153313899, 8153313900, 8153313901, 8153313902, 8153313899], "tags": {"addr:city": "Bridger", "addr:housenumber": "210", "addr:postcode": "59014", "addr:state": "MT", "addr:street": "South C Street", "amenity": "fire_station", "building": "yes", "name": "Bridger Fire Department", "phone": "+1 406-662-3554"}}, {"type": "way", "id": 990647211, "nodes": [9153754975, 9153754976, 9153754977, 9153754978, 9153754979, 9153754980, 9153754975], "tags": {"addr:city": "Bridger", "addr:housenumber": "120", "addr:postcode": "59014", "addr:state": "MT", "addr:street": "North Main Street", "building": "yes", "name": "Bridger Motel", "tourism": "motel"}}, {"type": "way", "id": 1011076949, "nodes": [9328108001, 9328108002, 9328108003, 9328108004, 9328108001], "tags": {"leisure": "park", "name": "Bridger Basketball Court"}}, {"type": "way", "id": 1011078168, "nodes": [9328179443, 9328179444, 9328179445, 9328179446, 9328179443], "tags": {"leisure": "park", "name": "Bridger Elementary School Park"}}, {"type": "way", "id": 1086353990, "nodes": [9954039177, 9954039178, 9954039179, 9954039180, 9954039177], "tags": {"amenity": "bar", "building": "yes", "name": "Dry Creek Saloon"}}]}