{"version": 0.6, "generator": "Overpass API 0.7.62.8 e802775f", "osm3s": {"timestamp_osm_base": "2025-12-06T19:46:00Z", "copyright": "The data included in this document is from www.openstreetmap.org. The data is made available under ODbL."}, "elements": [{"type": "node", "id": 941373330, "lat": 47.606924, "lon": -122.3137639}, {"type": "node", "id": 941373331, "lat": 47.606923, "lon": -122.3135648}, {"type": "node", "id": 941373334, "lat": 47.6066901, "lon": -122.3134674}, {"type": "node", "id": 1735843878, "lat": 47.6390214, "lon": -122.3256831, "tags": {"addr:housenumber": "2228", "addr:street": "Eastlake Avenue East", "addr:unit": "C", "leisure": "fitness_centre", "name": "Eastlake Fitness"}}, {"type": "node", "id": 1984796770, "lat": 47.6324268, "lon": -122.3588814}, {"type": "node", "id": 1984796771, "lat": 47.6324291, "lon": -122.3584908}, {"type": "node", "id": 1984796773, "lat": 47.6324559, "lon": -122.3589678}, {"type": "node", "id": 1984796778, "lat": 47.632584, "lon": -122.3589678}, {"type": "node", "id": 1984796779, "lat": 47.6325863, "lon": -122.3584926}, {"type": "node", "id": 2077157839, "lat": 47.6237338, "lon": -122.3211155, "tags": {"addr:city": "Seattle", "addr:country": "US", "addr:housenumber": "519", "addr:postcode": "98102", "addr:state": "WA", "addr:street": "Broadway East", "addr:unit": "8", "brand": "Orangetheory Fitness", "brand:wikidata": "Q25005163", "check_date": "2025-07-19", "contact:phone": "+1-206-467-1690", "leisure": "fitness_centre", "name": "Orangetheory Fitness", "ref": "1743"}}, {"type": "node", "id": 2077272341, "lat": 47.6207518, "lon": -122.321085, "tags": {"addr:city": "Seattle", "addr:country": "US", "addr:housenumber": "227", "addr:postcode": "98102", "addr:state": "WA", "addr:street": "Broadway East", "check_date:opening_hours": "2024-03-18", "contact:website": "https://www.localfitseattle.com/broadway-location", "leisure": "fitness_centre", "level": "1", "name": "Local Fit", "old_name": "IanFitness", "opening_hours": "07:00-22:00", "phone": "+1-401-371-6611"}}, {"type": "node", "id": 2077272346, "lat": 47.6208985, "lon": -122.3214676, "tags": {"addr:city": "Seattle", "addr:country": "US", "addr:housenumber": "229", "addr:postcode": "98102", "addr:state": "WA", "addr:street": "Broadway East", "leisure": "fitness_centre", "name": "Fit 321 Go", "sport": "fitness"}}, {"type": "node", "id": 2131716936, "lat": 47.6245459, "lon": -122.3207298, "tags": {"addr:city": "Seattle", "addr:housenumber": "606", "addr:postcode": "98102", "addr:street": "Broadway East", "addr:unit": "A", "check_date": "2024-10-28", "leisure": "fitness_centre", "name": "Tribe Fitness", "source": "King County GIS"}}, {"type": "node", "id": 2158667692, "lat": 47.6232509, "lon": -122.3211942, "tags": {"addr:city": "Seattle", "addr:housenumber": "501", "addr:postcode": "98102", "addr:street": "Broadway East", "brand": "CorePower Yoga", "brand:wikidata": "Q21015663", "check_date": "2024-08-07", "leisure": "fitness_centre", "name": "CorePower Yoga", "sport": "yoga"}}, {"type": "node", "id": 2158761236, "lat": 47.6146027, "lon": -122.317992, "tags": {"addr:city": "Seattle", "addr:housenumber": "1516", "addr:postcode": "98122", "addr:street": "11th Avenue", "check_date": "2024-10-15", "leisure": "fitness_centre", "name": "Rain City Fit", "opening_hours": "Mo-Su 04:00-24:00", "source": "King County GIS;https://www.raincityfit.com/#home", "website": "https://www.raincityfit.com"}}, {"type": "node", "id": 2158768606, "lat": 47.6145597, "lon": -122.3285576, "tags": {"addr:city": "Seattle", "addr:housenumber": "1533", "addr:postcode": "98101", "addr:street": "Minor Avenue", "check_date": "2023-05-26", "leisure": "fitness_centre", "name": "The Rep Room", "source": "King County GIS"}}, {"type": "node", "id": 2158768645, "lat": 47.6158399, "lon": -122.3235763, "tags": {"addr:city": "Seattle", "addr:country": "US", "addr:housenumber": "1617", "addr:postcode": "98122", "addr:state": "WA", "addr:street": "Boylston Avenue", "bar": "yes", "branch": "Capitol Hill", "contact:email": "epicexperience@henrysgymnasium.com", "contact:phone": "+1-206-644-7797", "contact:website": "https://henrysgymnasium.com/capitol-hill/", "leisure": "fitness_centre", "lgbtq": "welcome", "lgbtq:signed": "yes", "name": "Henry's Gymnasium", "old_name": "Office Nomads", "opening_hours": "Mo-Fr 06:00-22:00; Sa,Su 08:00-18:00", "sport": "fitness"}}, {"type": "node", "id": 2159222951, "lat": 47.6157902, "lon": -122.323575, "tags": {"addr:city": "Seattle", "addr:housenumber": "1617 Lower", "addr:postcode": "98122", "addr:street": "Boylston Avenue", "addr:unit": "Lower", "leisure": "fitness_centre", "name": "Urban Fit", "source": "King County GIS"}}, {"type": "node", "id": 2268991749, "lat": 47.6206422, "lon": -122.3426119}, {"type": "node", "id": 2268991750, "lat": 47.6206416, "lon": -122.3430201}, {"type": "node", "id": 2268991769, "lat": 47.6208063, "lon": -122.3430181}, {"type": "node", "id": 2268991774, "lat": 47.6208061, "lon": -122.3426097}, {"type": "node", "id": 2312065996, "lat": 47.6186876, "lon": -122.3382439, "tags": {"addr:city": "Seattle", "addr:housenumber": "112", "addr:postcode": "98109", "addr:state": "WA", "addr:street": "Westlake Avenue North", "brand": "Barry's", "brand:wikidata": "Q96373178", "check_date": "2023-04-07", "disused:name": "Ligne Roset", "disused:shop": "furniture", "leisure": "fitness_centre", "name": "Barry's", "website": "https://www.barrysbootcamp.com/studio/seattle/"}}, {"type": "node", "id": 2326560217, "lat": 47.6276346, "lon": -122.3412292, "tags": {"addr:city": "Seattle", "addr:housenumber": "915", "addr:postcode": "98109", "addr:state": "WA", "addr:street": "8th Avenue North", "leisure": "fitness_centre", "name": "Pro Fit Training Gym", "source": "King County GIS;data.seattle.gov", "website": "http://profittraininggym.com"}}, {"type": "node", "id": 2326627187, "lat": 47.618061, "lon": -122.3548486, "tags": {"addr:city": "Seattle", "addr:housenumber": "3025", "addr:postcode": "98121", "addr:state": "WA", "addr:street": "1st Avenue", "branch": "Belltown", "brand": "CrossFit", "brand:wikidata": "Q2072840", "leisure": "fitness_centre", "name": "CrossFit", "source": "King County GIS;data.seattle.gov", "website": "https://crossfitbelltown.com/"}}, {"type": "node", "id": 2327625174, "lat": 47.6157824, "lon": -122.3492097, "tags": {"abbr_name": "NWS", "addr:city": "Seattle", "addr:country": "US", "addr:housenumber": "116", "addr:postcode": "98121", "addr:state": "WA", "addr:street": "Vine Street", "branch": "Seattle", "check_date": "2025-04-26", "contact:phone": "+1-206-590-7278", "contact:website": "https://nwstrong.com/", "leisure": "fitness_centre", "name": "Northwest Strong"}}, {"type": "node", "id": 2327652064, "lat": 47.6182378, "lon": -122.3451569, "tags": {"addr:city": "Seattle", "addr:housenumber": "2517", "addr:postcode": "98121", "addr:state": "WA", "addr:street": "6th Avenue", "check_date": "2023-09-30", "leisure": "fitness_centre", "name": "Transform 180 Training", "source": "King County GIS;data.seattle.gov"}}, {"type": "node", "id": 2327652070, "lat": 47.6169599, "lon": -122.3469791, "tags": {"addr:city": "Seattle", "addr:housenumber": "2521", "addr:postcode": "98121", "addr:state": "WA", "addr:street": "4th Avenue", "leisure": "fitness_centre", "name": "Demco Fitness", "source": "King County GIS;data.seattle.gov"}}, {"type": "node", "id": 2327741486, "lat": 47.6125881, "lon": -122.3388386, "tags": {"addr:city": "Seattle", "addr:housenumber": "1900", "addr:postcode": "98101", "addr:state": "WA", "addr:street": "4th Avenue", "check_date": "2023-09-23", "leisure": "fitness_centre", "name": "Urban Yoga Spa", "source": "King County GIS;data.seattle.gov", "sport": "yoga", "website": "https://www.urbanyogaspa.com/"}}, {"type": "node", "id": 2351695731, "lat": 47.6016119, "lon": -122.334764, "tags": {"addr:city": "Seattle", "addr:housenumber": "89", "addr:postcode": "98104", "addr:state": "WA", "addr:street": "Yesler Way", "addr:unit": "304", "leisure": "fitness_centre", "name": "Bodytonic Pilates", "source": "King County GIS;data.seattle.gov", "website": "https://www.bodytonicpilates.com/"}}, {"type": "node", "id": 2351712366, "lat": 47.5995747, "lon": -122.3339675, "tags": {"addr:city": "Seattle", "addr:housenumber": "314", "addr:postcode": "98104", "addr:state": "WA", "addr:street": "1st Avenue South", "leisure": "fitness_centre", "name": "Kinesia Pilates", "phone": "+1-206-937-6070", "source": "Pioneer Square Association;King County GIS;data.seattle.gov", "sport": "pilates", "website": "https://backalleybikerepair.com/"}}, {"type": "node", "id": 2354406521, "lat": 47.6015942, "lon": -122.3347652, "tags": {"addr:city": "Seattle", "addr:housenumber": "89", "addr:postcode": "98104", "addr:state": "WA", "addr:street": "Yesler Way", "addr:unit": "303", "leisure": "fitness_centre", "name": "The Exercise Space", "phone": "+1-206-388-7428", "source": "Pioneer Square Association", "website": "http://theexercisespace.com"}}, {"type": "node", "id": 2375459055, "lat": 47.6053834, "lon": -122.324238, "tags": {"addr:city": "Seattle", "addr:housenumber": "504", "addr:postcode": "98104", "addr:state": "WA", "addr:street": "9th Avenue", "leisure": "fitness_centre", "name": "Ampersand Fitness Gym", "opening_hours": "24/7", "phone": "+1-206-462-4308", "source": "King County GIS;data.seattle.gov", "sport": "fitness", "website": "https://www.ampersandfitnessgym.com/"}}, {"type": "node", "id": 2384460240, "lat": 47.6149952, "lon": -122.312577, "tags": {"addr:city": "Seattle", "addr:housenumber": "1540", "addr:postcode": "98122", "addr:street": "15th Avenue", "description": "Yoga", "leisure": "fitness_centre", "name": "Seattle Yoga Arts", "phone": "+1-206-440-3191", "source": "King County GIS;data.seattle.gov", "sport": "yoga", "website": "https://www.seattleyogaarts.com/"}}, {"type": "node", "id": 2399978696, "lat": 47.6220981, "lon": -122.3306071, "tags": {"addr:city": "Seattle", "addr:housenumber": "1288", "addr:postcode": "98109", "addr:state": "WA", "addr:street": "Harrison Street", "brand": "CycleBar", "brand:wikidata": "Q121459827", "leisure": "fitness_centre", "name": "CycleBar", "source": "King County GIS;data.seattle.gov", "sport": "cycling"}}, {"type": "node", "id": 2399978719, "lat": 47.6226903, "lon": -122.3345513, "tags": {"addr:city": "Seattle", "addr:country": "US", "addr:housenumber": "413", "addr:postcode": "98109", "addr:state": "WA", "addr:street": "Fairview Avenue North", "check_date": "2024-07-20", "contact:email": "slu@clubpilates.com", "contact:phone": "+1-206-294-5944", "contact:website": "https://www.clubpilates.com/", "leisure": "fitness_centre", "opening_hours": "Mo 07:00-11:00,15:00-21:00; Tu 06:00-12:30,16:00-21:00; We 06:00-10:00,15:00-21:00; Th 06:00-12:00,16:00-21:00; Fr 06:30-13:30,16:00-19:00; Sa,Su 08:00-16:00", "sport": "pilates"}}, {"type": "node", "id": 2399978729, "lat": 47.6227332, "lon": -122.3345844, "tags": {"addr:city": "Seattle", "addr:country": "US", "addr:housenumber": "419", "addr:postcode": "98109", "addr:state": "WA", "addr:street": "Fairview Avenue North", "check_date": "2024-07-20", "contact:email": "southlakeunion@therowhouse.com", "contact:phone": "+1-206-338-6007", "contact:website": "https://www.therowhouse.com/", "leisure": "fitness_centre", "name": "Row House", "opening_hours": "Mo-Fr 06:00-20:00; Sa 08:30-12:00; Su 08:30-13:00", "sport": "indoor_rowing"}}, {"type": "node", "id": 2400859030, "lat": 47.6253458, "lon": -122.3561735, "tags": {"addr:city": "Seattle", "addr:housenumber": "11", "addr:postcode": "98109", "addr:state": "WA", "addr:street": "Roy Street", "leisure": "fitness_centre", "name": "Henry's Gymnasium", "source": "King County GIS;data.seattle.gov"}}, {"type": "node", "id": 2400948556, "lat": 47.6193258, "lon": -122.3583135, "tags": {"addr:city": "Seattle", "addr:housenumber": "130", "addr:postcode": "98119", "addr:state": "WA", "addr:street": "Western Avenue West", "leisure": "fitness_centre", "name": "Arthur Murray Dance Studio", "source": "King County GIS;data.seattle.gov", "sport": "dance", "website": "http://www.danceinseattle.com"}}, {"type": "node", "id": 2400948634, "lat": 47.6210901, "lon": -122.360427, "tags": {"addr:city": "Seattle", "addr:housenumber": "300", "addr:postcode": "98119", "addr:state": "WA", "addr:street": "3rd Avenue West", "brand": "CorePower Yoga", "brand:wikidata": "Q21015663", "leisure": "fitness_centre", "name": "CorePower Yoga", "source": "King County GIS;data.seattle.gov", "sport": "yoga", "website": "https://www.corepoweryoga.com/"}}, {"type": "node", "id": 2400976414, "lat": 47.6235537, "lon": -122.3552558, "tags": {"addr:city": "Seattle", "addr:housenumber": "508", "addr:postcode": "98109", "addr:state": "WA", "addr:street": "1st Avenue North", "leisure": "fitness_centre", "name": "Coreo Fitness", "source": "King County GIS;data.seattle.gov", "sport": "bungee", "website": "https://www.coreofitness.com"}}, {"type": "node", "id": 2404255649, "lat": 47.6060944, "lon": -122.339265, "tags": {"addr:city": "Seattle", "addr:housenumber": "1223", "addr:postcode": "98101", "addr:state": "WA", "addr:street": "Western Avenue", "leisure": "fitness_centre", "name": "Riot Athletics", "source": "King County GIS;data.seattle.gov", "website": "https://www.riotathletics.com/"}}, {"type": "node", "id": 2869633001, "lat": 47.6187422, "lon": -122.354479, "tags": {"addr:city": "Seattle", "addr:housenumber": "124", "addr:postcode": "98109", "addr:state": "WA", "addr:street": "Denny Way", "branch": "Queen Anne", "brand": "Club Pilates", "brand:wikidata": "Q109328844", "check_date": "2025-11-22", "leisure": "fitness_centre", "name": "Club Pilates", "payment:cash": "yes", "payment:credit_cards": "yes", "payment:debit_cards": "yes", "source": "King County GIS;data.seattle.gov", "sport": "pilates", "website": "https://www.clubpilates.com/location/queenanne"}}, {"type": "node", "id": 2968389935, "lat": 47.6171087, "lon": -122.3484709, "tags": {"addr:housenumber": "2612", "addr:state": "WA", "addr:street": "3rd Avenue", "check_date": "2024-05-08", "leisure": "fitness_centre", "name": "Atlas Pilates", "sport": "fitness", "website": "https://atlaspilates.com/"}}, {"type": "node", "id": 3006168317, "lat": 47.6155142, "lon": -122.3406482, "tags": {"addr:city": "Seattle", "addr:housenumber": "2139", "addr:postcode": "98121", "addr:state": "WA", "addr:street": "6th Avenue", "leisure": "fitness_centre", "source:addr:id": "1014067"}}, {"type": "node", "id": 3068644632, "lat": 47.614231, "lon": -122.3451518, "tags": {"leisure": "fitness_centre", "name": "Elliott Bay CrossFit"}}, {"type": "node", "id": 3169474161, "lat": 47.6179931, "lon": -122.3308673, "tags": {"brand": "24 Hour Fitness", "brand:wikidata": "Q4631849", "leisure": "fitness_centre", "name": "24 Hour Fitness", "opening_hours": "Mo-Su 00:00+", "sport": "fitness", "website": "https://www.24hourfitness.com/"}}, {"type": "node", "id": 3665233026, "lat": 47.6001652, "lon": -122.3336215, "tags": {"addr:housenumber": "214", "addr:state": "WA", "addr:street": "1st Avenue South", "addr:unit": "G7", "contact:email": "hello@kinesiapilates.com", "contact:facebook": "https://www.facebook.com/kinesiastudio", "contact:instagram": "https://www.instagram.com/kinesia_pilates/", "contact:phone": "+1-206-567-1538", "contact:youtube": "https://www.youtube.com/channel/UC4XpJ3TEVGbOEphwHNunQdA", "fixme": "Has this buisness moved to 314 1st ave S?", "leisure": "fitness_centre", "name": "Kinesia Pilates", "sport": "pilates", "website": "https://www.kinesiapilates.com/"}}, {"type": "node", "id": 3881573099, "lat": 47.6178958, "lon": -122.3376665, "tags": {"addr:city": "Seattle", "addr:housenumber": "900", "addr:postcode": "98121", "addr:state": "WA", "addr:street": "Lenora Street", "addr:unit": "128", "check_date": "2023-10-24", "leisure": "fitness_centre", "level": "1", "name": "Dryp Yoga", "sport": "yoga"}}, {"type": "node", "id": 4055741872, "lat": 47.6068985, "lon": -122.3134687}, {"type": "node", "id": 4055741873, "lat": 47.6068987, "lon": -122.3135646}, {"type": "node", "id": 4243769189, "lat": 47.6158686, "lon": -122.326568, "tags": {"addr:city": "Seattle", "addr:country": "US", "addr:housenumber": "1618", "addr:state": "WA", "addr:street": "Bellevue Avenue", "addr:unit": "2", "check_date": "2024-08-07", "leisure": "fitness_centre", "name": "Cap Hill Fitness", "opening_hours": "Mo-Su 05:00-23:00", "sport": "fitness"}}, {"type": "node", "id": 4351936891, "lat": 47.6251083, "lon": -122.347267, "tags": {"addr:city": "Seattle", "addr:housenumber": "500", "addr:postcode": "98109", "addr:state": "WA", "addr:street": "Mercer Street", "brand": "Pure Barre", "brand:wikidata": "Q86707084", "leisure": "fitness_centre", "name": "Pure Barre", "source": "King County GIS", "sport": "barre"}}, {"type": "node", "id": 4351979289, "lat": 47.6250009, "lon": -122.3472714, "tags": {"addr:city": "Seattle", "addr:housenumber": "500", "addr:postcode": "98109", "addr:state": "WA", "addr:street": "Mercer Street", "brand": "Orangetheory Fitness", "brand:wikidata": "Q25005163", "leisure": "fitness_centre", "name": "Orangetheory Fitness", "phone": "+1-206-282-0557", "ref": "1339", "source": "King County GIS"}}, {"type": "node", "id": 4617448917, "lat": 47.6099826, "lon": -122.3327334, "tags": {"leisure": "fitness_centre", "noname": "yes"}}, {"type": "node", "id": 4639109919, "lat": 47.6108904, "lon": -122.3440564, "tags": {"check_date": "2024-02-24", "leisure": "fitness_centre", "name": "Seattle Athletic Club"}}, {"type": "node", "id": 4813783744, "lat": 47.6164528, "lon": -122.3433836, "tags": {"addr:city": "Seattle", "addr:housenumber": "2310", "addr:postcode": "98121", "addr:state": "WA", "addr:street": "5th Avenue", "addr:unit": "3", "brand": "Orangetheory Fitness", "brand:wikidata": "Q25005163", "check_date": "2023-04-09", "leisure": "fitness_centre", "name": "Orangetheory Fitness", "phone": "+1-206-855-5089", "ref": "2076"}}, {"type": "node", "id": 5067774828, "lat": 47.6191017, "lon": -122.3584891, "tags": {"leisure": "fitness_centre", "name": "Soul Fitness Club", "name:en": "Soul Fitness Club"}}, {"type": "node", "id": 5080055921, "lat": 47.6282885, "lon": -122.341252, "tags": {"leisure": "fitness_centre", "name": "KMS", "name:en": "KMS"}}, {"type": "node", "id": 5080608021, "lat": 47.620996, "lon": -122.3339604, "tags": {"addr:housenumber": "300", "addr:state": "WA", "addr:street": "Fairview Avenue North", "check_date": "2023-06-08", "leisure": "fitness_centre", "name": "Transform 180"}}, {"type": "node", "id": 5101017264, "lat": 47.6208213, "lon": -122.356917, "tags": {"addr:city": "Seattle", "addr:housenumber": "229", "addr:postcode": "98109", "addr:state": "WA", "addr:street": "Queen Anne Avenue North", "contact:email": "accounts@studio3fit.com", "leisure": "fitness_centre", "name": "Studio 3 Fit", "phone": "+1-206-487-3373", "sport": "exercise;yoga;cycling;pilates", "website": "https://www.studio3fit.com/"}}, {"type": "node", "id": 5199218716, "lat": 47.6154337, "lon": -122.3146842, "tags": {"addr:city": "Seattle", "addr:country": "US", "addr:housenumber": "1318", "addr:postcode": "98122", "addr:state": "WA", "addr:street": "East Pine Street", "addr:unit": "B", "check_date": "2025-03-19", "leisure": "fitness_centre", "lgbtq": "welcome", "lgbtq:signed": "yes", "name": "RCF Barbell Club", "opening_hours": "24/7"}}, {"type": "node", "id": 5583038825, "lat": 47.6171508, "lon": -122.337356, "tags": {"addr:city": "Seattle", "addr:housenumber": "2105", "addr:postcode": "98121", "addr:state": "WA", "addr:street": "9th Avenue", "brand": "SoulCycle", "brand:wikidata": "Q17084730", "leisure": "fitness_centre", "name": "SoulCycle", "phone": "+1-206-880-7880", "sport": "cycling", "website": "https://www.soul-cycle.com/"}}, {"type": "node", "id": 5599290821, "lat": 47.6176196, "lon": -122.3461055, "tags": {"addr:housenumber": "2517", "addr:state": "WA", "leisure": "fitness_centre", "name": "Emerald City Pilates", "phone": "+1-206-992-4814", "website": "emeraldcitypilates.com"}}, {"type": "node", "id": 5599440522, "lat": 47.6191695, "lon": -122.3482305, "tags": {"leisure": "fitness_centre", "name": "Ideal U Fitness"}}, {"type": "node", "id": 5625223041, "lat": 47.6157236, "lon": -122.3362957, "tags": {"addr:city": "Seattle", "addr:housenumber": "1918", "addr:postcode": "98101", "addr:state": "WA", "addr:street": "8th Avenue", "addr:unit": "150", "leisure": "fitness_centre", "name": "Pandora Fitness", "phone": "+1-206-726-3672", "website": "https://www.pandorafitness.com/"}}, {"type": "node", "id": 7862540792, "lat": 47.6073967, "lon": -122.3391822, "tags": {"addr:city": "Seattle", "addr:housenumber": "99", "addr:postcode": "98101", "addr:state": "WA", "addr:street": "Union Street", "description": "The fitness center for the Four Seasons Hotel in Seattle.", "leisure": "fitness_centre", "opening_hours": "24/7", "sauna": "yes", "source": "local knowledge", "website": "https://www.fourseasons.com/seattle/services-and-amenities/fitness/"}}, {"type": "node", "id": 9161445219, "lat": 47.6385188, "lon": -122.3261132, "tags": {"addr:housenumber": "2201", "addr:street": "Eastlake Avenue East", "addr:unit": "B", "leisure": "fitness_centre", "name": "Datza", "sport": "yoga", "website": "https://datzastudios.com"}}, {"type": "node", "id": 9660956424, "lat": 47.6230127, "lon": -122.3296614, "tags": {"leisure": "fitness_centre", "name": "Big Iron Gym"}}, {"type": "node", "id": 9932395218, "lat": 47.6207723, "lon": -122.3408999, "tags": {"leisure": "fitness_centre", "name": "ISMMA", "official_name": "Ivan Salaverry Mixed Martial Arts"}}, {"type": "node", "id": 10561668574, "lat": 47.6069245, "lon": -122.3139231}, {"type": "node", "id": 10561668575, "lat": 47.6068771, "lon": -122.3139229}, {"type": "node", "id": 10561668576, "lat": 47.6068771, "lon": -122.3139801}, {"type": "node", "id": 10561668577, "lat": 47.6066934, "lon": -122.3139837}, {"type": "node", "id": 10561668578, "lat": 47.606693, "lon": -122.3139219}, {"type": "node", "id": 10561668579, "lat": 47.606692, "lon": -122.3137653}, {"type": "node", "id": 10561668580, "lat": 47.6066782, "lon": -122.313922}, {"type": "node", "id": 10561668581, "lat": 47.6066773, "lon": -122.3137652}, {"type": "node", "id": 10978233485, "lat": 47.618381, "lon": -122.3486066, "tags": {"leisure": "fitness_centre", "name": "Breathe", "sport": "yoga"}}, {"type": "node", "id": 10981682830, "lat": 47.6136117, "lon": -122.3183656, "tags": {"addr:city": "Seattle", "addr:housenumber": "1419", "addr:postcode": "98122", "addr:state": "WA", "addr:street": "11th Avenue", "leisure": "fitness_centre"}}, {"type": "node", "id": 11214850366, "lat": 47.6127427, "lon": -122.3391547, "tags": {"addr:housenumber": "1918", "addr:street": "4th Avenue", "check_date": "2025-06-24", "leisure": "fitness_centre", "name": "Rowdy Box"}}, {"type": "node", "id": 11974443109, "lat": 47.6177391, "lon": -122.3206039, "tags": {"brand": "[solidcore]", "brand:wikidata": "Q124429271", "check_date": "2024-08-13", "leisure": "fitness_centre", "lgbtq": "welcome", "lgbtq:signed": "yes", "name": "Solidcore"}}, {"type": "node", "id": 12091163594, "lat": 47.6144474, "lon": -122.3253403, "tags": {"addr:city": "Seattle", "addr:housenumber": "1500", "addr:postcode": "98122", "addr:state": "WA", "addr:street": "Summit Avenue", "branch": "Capitol Hill", "check_date": "2024-08-03", "leisure": "fitness_centre", "name": "local FIT", "sport": "fitness"}}, {"type": "node", "id": 12626728185, "lat": 47.6170363, "lon": -122.3312457, "tags": {"addr:housenumber": "1823", "addr:street": "Minor Avenue", "addr:unit": "101", "check_date": "2025-02-28", "leisure": "fitness_centre", "name": "SHRED415"}}, {"type": "node", "id": 12782006301, "lat": 47.6134662, "lon": -122.3170221, "tags": {"addr:housenumber": "1415", "addr:postcode": "98122", "addr:street": "12th Avenue", "leisure": "fitness_centre", "name": "Foundation CrossFit", "opening_hours": "Su 10:00-12:00; Mo-Th 06:00-20:30; Fr 06:00-19:30; Sa 09:00-13:00", "phone": "+1-206-414-9348", "website": "http://foundationcrossfit.com"}}, {"type": "node", "id": 12919662055, "lat": 47.6218152, "lon": -122.3314594, "tags": {"addr:city": "Seattle", "addr:housenumber": "1251", "addr:postcode": "98109", "addr:state": "WA", "addr:street": "Harrison Street", "amenity": "bar", "drink": "juice", "leisure": "fitness_centre", "name": "Drift Yoga + Juice Bar", "phone": "+1-206-618-3928", "sport": "yoga", "website": "https://www.driftyogajuicebar.com"}}, {"type": "node", "id": 13126587326, "lat": 47.6349994, "lon": -122.3250099, "tags": {"brand": "F45 Training", "brand:wikidata": "Q64390973", "leisure": "fitness_centre", "name": "F45 Training", "short_name": "F45"}}, {"type": "node", "id": 13325042096, "lat": 47.618861, "lon": -122.3480548, "tags": {"check_date": "2025-11-22", "email": "training@transform180training.com", "leisure": "fitness_centre", "name": "Transform 180", "opening_hours": "24/7", "phone": "+1 206-755-5004", "website": "https://transform180training.com/?", "wheelchair": "limited"}}, {"type": "way", "id": 187838318, "nodes": [1984796778, 1984796779, 1984796771, 1984796770, 1984796773, 1984796778], "tags": {"addr:city": "Seattle", "addr:housenumber": "110", "addr:postcode": "98119", "addr:state": "WA", "addr:street": "West Galer Street", "branch": "Seattle (Upper Queen Anne)", "brand": "Anytime Fitness", "brand:wikidata": "Q4778364", "building": "yes", "leisure": "fitness_centre", "name": "Anytime Fitness", "opening_hours": "24/7", "phone": "+1-206-535-7573", "ref": "3783", "website": "https://www.anytimefitness.com/gyms/3783/seattle-wa-98119/"}}, {"type": "way", "id": 217604433, "nodes": [2268991749, 2268991750, 2268991769, 2268991774, 2268991749], "tags": {"addr:city": "Seattle", "addr:housenumber": "231", "addr:postcode": "98109", "addr:state": "WA", "addr:street": "Dexter Avenue North", "building": "yes", "leisure": "fitness_centre", "name": "Industrious", "phone": "+1-206-420-4793", "source": "King County GIS;data.seattle.gov", "start_date": "1950", "website": "https://workhardlivefit.com/south-lake-union/"}}, {"type": "way", "id": 1132697773, "nodes": [941373330, 10561668574, 10561668575, 10561668576, 10561668577, 10561668578, 10561668580, 10561668581, 10561668579, 941373334, 4055741872, 4055741873, 941373331, 941373330], "tags": {"addr:city": "Seattle", "addr:housenumber": "550", "addr:postcode": "98122", "addr:state": "WA", "addr:street": "14th Avenue", "building": "yes", "leisure": "fitness_centre", "name": "William F. Eisminger Fitness Center", "source": "https://www.seattleu.edu/facilities/design-and-construction/past-construction-and-renovation-projects/#FitnessCenter;https://issuu.com/seattle_university/docs/winter2011sum", "start_date": "2011"}}]}