{"version": 0.6, "generator": "Overpass API 0.7.62.8 e802775f", "osm3s": {"timestamp_osm_base": "2025-12-08T22:33:04Z", "copyright": "The data included in this document is from www.openstreetmap.org. The data is made available under ODbL."}, "elements": [{"type": "node", "id": 4823415218, "lat": 45.8259823, "lon": -108.401471, "tags": {"addr:city": "Billings", "addr:housenumber": "3255", "addr:postcode": "59101", "addr:state": "MT", "addr:street": "North Frontage Road", "brand": "Peterbilt", "brand:wikidata": "Q944640", "name": "Montana Peterbilt", "phone": "+1-800-548-7561", "service:vehicle:body_repair": "yes", "shop": "truck", "website": "https://www.montanapeterbilt.com/"}}, {"type": "node", "id": 11167419973, "lat": 45.8266101, "lon": -108.4019712, "tags": {"amenity": "charging_station", "authentication:app": "yes", "bicycle": "no", "brand": "Tesla Supercharger", "brand:en": "Tesla Supercharger", "brand:website": "https://www.tesla.com/supercharger", "brand:wikidata": "Q17089620", "bus": "no", "fee": "yes", "frequency": "0", "hgv": "no", "maxstay": "no", "motorcar": "designated", "name": "Tesla Supercharger", "network": "Supercharger", "network:website": "https://www.tesla.com/supercharger", "network:wikidata": "Q17089620", "note": "This Tesla Supercharger was edited or added by the June 2025 import from supercharge.info... if you have any questions, comments, or concerns, please reach out to the US Slack / Forum", "opening_hours": "24/7", "operator": "Tesla, Inc.", "operator:wikidata": "Q478214", "operator:wikipedia": "en:Tesla, Inc.", "payment:app:tesla": "yes", "reservation": "no", "scooter": "no", "source": "https://supercharge.info"}}]}