{"version": 0.6, "generator": "Overpass API 0.7.62.8 e802775f", "osm3s": {"timestamp_osm_base": "2025-12-06T19:52:04Z", "copyright": "The data included in this document is from www.openstreetmap.org. The data is made available under ODbL."}, "elements": [{"type": "node", "id": 1081984002, "lat": 47.6614669, "lon": -122.3178014, "tags": {"addr:city": "Seattle", "addr:housenumber": "4501", "addr:postcode": "98105", "addr:state": "WA", "addr:street": "Roosevelt Way Northeast", "leisure": "fitness_centre", "name": "Industrious", "source": "bing;survey", "website": "https://udistrict.workhardlivefit.com/"}}, {"type": "node", "id": 1128319551, "lat": 47.6756398, "lon": -122.3171164, "tags": {"addr:city": "Seattle", "addr:country": "US", "addr:housenumber": "6416", "addr:postcode": "98115", "addr:state": "WA", "addr:street": "Roosevelt Way Northeast", "brand": "LA Fitness", "brand:wikidata": "Q6457180", "check_date": "2025-10-02", "leisure": "fitness_centre", "name": "LA Fitness", "opening_hours": "Mo-Th 05:00-23:00; Fr 05:00-22:00; Sa,Su 08:00-20:00", "phone": "+1-206-257-7687", "website": "https://www.lafitness.com/Pages/clubhome.aspx?clubid=1334"}}, {"type": "node", "id": 1411674845, "lat": 47.6585538, "lon": -122.3133678, "tags": {"addr:city": "Seattle", "addr:housenumber": "4205", "addr:postcode": "98105", "addr:street": "University Way Northeast", "check_date": "2025-11-21", "check_date:opening_hours": "2024-02-15", "leisure": "fitness_centre", "level": "1", "name": "Open Flight Studio", "opening_hours:signed": "no", "website": "http://www.openflightstudio.org/"}}, {"type": "node", "id": 2134331822, "lat": 47.6612158, "lon": -122.3244589, "tags": {"addr:city": "Seattle", "addr:housenumber": "313", "addr:postcode": "98105", "addr:street": "Northeast 45th Street", "check_date:opening_hours": "2024-09-09", "leisure": "fitness_centre", "name": "Commune Yoga", "opening_hours:signed": "no", "source": "King County GIS", "sport": "yoga", "website": "https://www.communeyoga.com/"}}, {"type": "node", "id": 2270078936, "lat": 47.6475948, "lon": -122.3179192, "tags": {"addr:city": "Seattle", "addr:housenumber": "2925", "addr:postcode": "98102", "addr:street": "Fuhrman Avenue East", "leisure": "fitness_centre", "name": "Strength Studio", "source": "King County GIS;data.seattle.gov", "website": "http://strength-studio.com"}}, {"type": "node", "id": 2270112963, "lat": 47.641085, "lon": -122.3202154, "tags": {"addr:city": "Seattle", "addr:housenumber": "2351", "addr:postcode": "98102", "addr:street": "10th Avenue East", "leisure": "fitness_centre", "name": "Pilates on 10th", "source": "King County GIS;data.seattle.gov", "sport": "pilates", "website": "https://www.pilateson10th.com"}}, {"type": "node", "id": 2299958877, "lat": 47.675454, "lon": -122.3032764}, {"type": "node", "id": 2299958887, "lat": 47.675458, "lon": -122.3030997}, {"type": "node", "id": 2299959029, "lat": 47.6755161, "lon": -122.3032775}, {"type": "node", "id": 2299959030, "lat": 47.6755163, "lon": -122.3032694}, {"type": "node", "id": 2299959329, "lat": 47.6756939, "lon": -122.3032663}, {"type": "node", "id": 2299959330, "lat": 47.6756941, "lon": -122.30325}, {"type": "node", "id": 2299959339, "lat": 47.675699, "lon": -122.303104}, {"type": "node", "id": 2299959340, "lat": 47.6756991, "lon": -122.3031254}, {"type": "node", "id": 2299959341, "lat": 47.6756999, "lon": -122.3031636}, {"type": "node", "id": 2299959342, "lat": 47.6757002, "lon": -122.3032075}, {"type": "node", "id": 2299959345, "lat": 47.6757009, "lon": -122.3032495}, {"type": "node", "id": 2299959346, "lat": 47.675701, "lon": -122.3032445}, {"type": "node", "id": 2299959347, "lat": 47.6757029, "lon": -122.3031637}, {"type": "node", "id": 2299959349, "lat": 47.6757042, "lon": -122.3031255}, {"type": "node", "id": 2299959351, "lat": 47.6757061, "lon": -122.3032089}, {"type": "node", "id": 2299959352, "lat": 47.6757065, "lon": -122.3032409}, {"type": "node", "id": 2299959357, "lat": 47.6757089, "lon": -122.3031551}, {"type": "node", "id": 2299959359, "lat": 47.6757092, "lon": -122.3031313}, {"type": "node", "id": 2299959360, "lat": 47.6757092, "lon": -122.3032322}, {"type": "node", "id": 2299959362, "lat": 47.6757094, "lon": -122.3032166}, {"type": "node", "id": 2323794477, "lat": 47.6614617, "lon": -122.3129642, "tags": {"addr:city": "Seattle", "addr:housenumber": "4502", "addr:postcode": "98105", "addr:street": "University Way Northeast", "check_date": "2025-11-21", "check_date:opening_hours": "2025-08-05", "leisure": "fitness_centre", "name": "Seattle Bouldering Project", "opening_hours": "Mo-Fr 06:00-22:00; Sa,Su 07:00-22:00", "sport": "climbing", "wheelchair": "limited"}}, {"type": "node", "id": 2430646842, "lat": 47.66646, "lon": -122.3011169, "tags": {"addr:unit": "1", "leisure": "fitness_centre", "name": "Dahn Yoga", "phone": "+1-206-223-9642", "sport": "yoga", "website": "http://www.dahnyoga.com/ravennapark"}}, {"type": "node", "id": 2434504246, "lat": 47.6751996, "lon": -122.3171867, "tags": {"addr:city": "Seattle", "addr:housenumber": "6408", "addr:postcode": "98115", "addr:street": "Roosevelt Way Northeast", "brand": "Barre3", "brand:wikidata": "Q120601241", "leisure": "fitness_centre", "name": "Barre3", "sport": "barre", "website": "https://barre3.com/"}}, {"type": "node", "id": 2434504344, "lat": 47.6764401, "lon": -122.3172087, "tags": {"addr:city": "Seattle", "addr:country": "US", "addr:housenumber": "6516", "addr:postcode": "98115", "addr:state": "WA", "addr:street": "Roosevelt Way Northeast", "check_date": "2025-06-06", "contact:phone": "+1-206-432-9653", "leisure": "fitness_centre", "name": "Emerald City Boxing Gym", "website": "https://emeraldcityboxinggym.com/"}}, {"type": "node", "id": 2434504356, "lat": 47.6763647, "lon": -122.3175699, "tags": {"addr:city": "Seattle", "addr:housenumber": "6521", "addr:postcode": "98115", "addr:street": "Roosevelt Way Northeast", "check_date": "2024-11-25", "leisure": "fitness_centre", "name": "Shefayoga", "sport": "yoga"}}, {"type": "node", "id": 2462325069, "lat": 47.6756717, "lon": -122.3042756, "tags": {"addr:city": "Seattle", "addr:housenumber": "2201", "addr:postcode": "98115", "addr:street": "Northeast 65th Street", "check_date:opening_hours": "2024-07-15", "contact:mobile": "+12063388652", "contact:phone": "+1-206-297-6263", "contact:website": "https://www.vitalitypilates.com/", "leisure": "fitness_centre", "name": "Vitality Pilates", "opening_hours:signed": "no", "sport": "pilates"}}, {"type": "node", "id": 2462325455, "lat": 47.6646832, "lon": -122.2980435, "tags": {"addr:city": "Seattle", "addr:housenumber": "2688", "addr:postcode": "98105", "addr:street": "Northeast 49th Street", "checked_exists:date": "2016-04-27", "leisure": "fitness_centre", "level": "1", "name": "Metropolitan Pilates", "source": "King County GIS;data.seattle.gov", "website": "https://metropolitanpilates.com/"}}, {"type": "node", "id": 2462325836, "lat": 47.6686388, "lon": -122.290519, "tags": {"addr:city": "Seattle", "addr:housenumber": "3422", "addr:postcode": "98105", "addr:street": "Northeast 55th Street", "leisure": "fitness_centre", "name": "Project Fortius", "opening_hours": "\"varies by class schedule\"", "phone": "+1-206-250-2211", "source": "King County GIS;data.seattle.gov", "sport": "fitness", "website": "https://www.projectfortius.com/"}}, {"type": "node", "id": 2462325871, "lat": 47.6621305, "lon": -122.2938153, "tags": {"addr:city": "Seattle", "addr:housenumber": "4535", "addr:postcode": "98105", "addr:street": "Union Bay Place Northeast", "check_date": "2024-08-24", "leisure": "fitness_centre", "name": "CrossFit Deliverance", "source": "King County GIS;data.seattle.gov", "website": "https://crossfitdeliverance.com"}}, {"type": "node", "id": 2462327455, "lat": 47.681778, "lon": -122.290649, "tags": {"addr:city": "Seattle", "addr:housenumber": "7317", "addr:postcode": "98115", "addr:state": "WA", "addr:street": "35th Avenue Northeast", "brand": "Orangetheory Fitness", "brand:wikidata": "Q25005163", "check_date": "2025-10-31", "leisure": "fitness_centre", "name": "Orangetheory Fitness", "phone": "+1-206-330-0502", "ref": "2097", "source": "King County GIS;data.seattle.gov", "website": "https://www.orangetheory.com/en-us/locations/washington/seattle/7317-35th-avenue-ne/"}}, {"type": "node", "id": 2921332501, "lat": 47.6760167, "lon": -122.303639, "tags": {"leisure": "fitness_centre", "name": "Collegiate Elites Sports Training", "opening_hours": "\"by appointment\""}}, {"type": "node", "id": 3033578670, "lat": 47.6701307, "lon": -122.3132586, "tags": {"addr:housenumber": "5623", "addr:street": "University Way Northeast", "alt_name": "Inside Out Yoga", "check_date": "2025-09-08", "leisure": "fitness_centre", "name": "Insideout Yoga", "opening_hours": "\"online only\"", "sport": "yoga", "website": "https://healingyogacenter.com/"}}, {"type": "node", "id": 4371653092, "lat": 47.6449682, "lon": -122.3255319, "tags": {"addr:city": "Seattle", "addr:housenumber": "2712", "addr:postcode": "98102", "addr:street": "Eastlake Avenue East", "addr:unit": "B", "leisure": "fitness_centre", "name": "Union Pilates", "source": "King County GIS;data.seattle.gov", "website": "https://www.unionpilates.com"}}, {"type": "node", "id": 7076802132, "lat": 47.6644334, "lon": -122.297834, "tags": {"brand": "SoulCycle", "brand:wikidata": "Q17084730", "leisure": "fitness_centre", "name": "SoulCycle", "sport": "cycling"}}, {"type": "node", "id": 11105562070, "lat": 47.6627994, "lon": -122.2941729, "tags": {"addr:housenumber": "4602", "addr:street": "Union Bay Place Northeast", "brand": "Pure Barre", "brand:wikidata": "Q86707084", "check_date": "2023-08-10", "leisure": "fitness_centre", "name": "Pure Barre"}}, {"type": "node", "id": 11105562074, "lat": 47.6649953, "lon": -122.2954193, "tags": {"check_date": "2023-08-10", "leisure": "fitness_centre", "name": "Sama Fitness", "sport": "yoga", "website": "https://samafit.com"}}, {"type": "node", "id": 11160050275, "lat": 47.6778569, "lon": -122.3265772, "tags": {"addr:housenumber": "6869", "addr:street": "Woodlawn Avenue Northeast", "addr:unit": "100", "check_date": "2023-08-31", "leisure": "fitness_centre", "name": "Yoga by Fran Gallo", "sport": "yoga", "website": "https://frangallo.com"}}, {"type": "node", "id": 11406437361, "lat": 47.6643949, "lon": -122.3311925, "tags": {"addr:city": "Seattle", "addr:country": "US", "addr:housenumber": "4649", "addr:postcode": "98103", "addr:state": "WA", "addr:street": "Sunnyside Avenue North", "addr:unit": "440", "check_date": "2024-08-10", "contact:email": "info@gyrotonicmc.com", "contact:instagram": "https://www.instagram.com/explore/locations/596979822/gyrotonic-movement-center/", "contact:phone": "+1-206-547-5880", "contact:website": "https://gyrotonicmc.com", "healthcare": "physiotherapist", "leisure": "fitness_centre", "level": "3", "level:ref": "4", "name": "Gyrotonic Movement Center"}}, {"type": "node", "id": 12533637801, "lat": 47.6667738, "lon": -122.3008251, "tags": {"addr:housenumber": "5101", "addr:postcode": "98105", "addr:street": "25th Avenue Northeast", "leisure": "fitness_centre", "name": "Studio 45", "opening_hours": "Mo-Fr 06:00-19:30; Sa 07:30-13:00; Su 08:00-12:00", "phone": "+1-762-233-4545", "website": "https://www.studio45.com/"}}, {"type": "node", "id": 12732138927, "lat": 47.653792, "lon": -122.3005737, "tags": {"leisure": "fitness_centre", "ref": "B"}}, {"type": "node", "id": 12732138928, "lat": 47.6539005, "lon": -122.3013724, "tags": {"leisure": "fitness_centre", "ref": "A"}}, {"type": "node", "id": 12732138929, "lat": 47.6533626, "lon": -122.3015301, "tags": {"leisure": "fitness_centre", "ref": "D"}}, {"type": "node", "id": 12732138930, "lat": 47.6532545, "lon": -122.3007346, "tags": {"leisure": "fitness_centre", "ref": "C"}}, {"type": "node", "id": 13323577007, "lat": 47.6628892, "lon": -122.3128617, "tags": {"addr:unit": "221", "branch": "Seattle", "check_date": "2025-11-21", "leisure": "fitness_centre", "name": "The Yoga Shala", "sport": "yoga"}}, {"type": "way", "id": 220924931, "nodes": [2299959339, 2299958887, 2299958877, 2299959029, 2299959030, 2299959329, 2299959330, 2299959345, 2299959346, 2299959352, 2299959360, 2299959362, 2299959351, 2299959342, 2299959341, 2299959347, 2299959357, 2299959359, 2299959349, 2299959340, 2299959339], "tags": {"addr:city": "Seattle", "addr:housenumber": "2261", "addr:postcode": "98115", "addr:street": "Northeast 65th Street", "building": "yes", "leisure": "fitness_centre", "name": "The Center for Yoga", "opening_hours": "\"open on|y at scheduled class times\"", "source": "King County GIS;data.seattle.gov", "sport": "yoga"}}]}