{"version": 0.6, "generator": "Overpass API 0.7.62.8 e802775f", "osm3s": {"timestamp_osm_base": "2025-12-06T05:16:58Z", "copyright": "The data included in this document is from www.openstreetmap.org. The data is made available under ODbL."}, "elements": [{"type": "node", "id": 1724967655, "lat": 43.6662829, "lon": -116.409855}, {"type": "node", "id": 1724967658, "lat": 43.6654942, "lon": -116.4122302}, {"type": "node", "id": 1724967661, "lat": 43.6654554, "lon": -116.4105231}, {"type": "node", "id": 1724967663, "lat": 43.6654551, "lon": -116.4100874}, {"type": "node", "id": 1724967665, "lat": 43.6654928, "lon": -116.4117846}, {"type": "node", "id": 1724967669, "lat": 43.6663279, "lon": -116.4110436}, {"type": "node", "id": 1724967672, "lat": 43.6654216, "lon": -116.4105231}, {"type": "node", "id": 1724967676, "lat": 43.6662862, "lon": -116.4109352}, {"type": "node", "id": 1724967677, "lat": 43.666286, "lon": -116.4110814}, {"type": "node", "id": 1724967678, "lat": 43.6654219, "lon": -116.4107395}, {"type": "node", "id": 1724967680, "lat": 43.6654577, "lon": -116.4115454}, {"type": "node", "id": 1724967682, "lat": 43.6654219, "lon": -116.4115456}, {"type": "node", "id": 1724967685, "lat": 43.6654896, "lon": -116.4107393}, {"type": "node", "id": 1724967687, "lat": 43.6663279, "lon": -116.4109486}, {"type": "node", "id": 6593378616, "lat": 43.6633075, "lon": -116.4082945, "tags": {"addr:city": "Eagle", "addr:housenumber": "4363", "addr:postcode": "83616", "addr:state": "ID", "addr:street": "West Gray Fox Street", "addr:unit": "115", "amenity": "restaurant", "brand": "Blaze Pizza", "brand:wikidata": "Q23016666", "cuisine": "pizza", "name": "Blaze Pizza", "wheelchair": "yes"}}, {"type": "node", "id": 8067471062, "lat": 43.6632982, "lon": -116.408161, "tags": {"addr:city": "Eagle", "addr:housenumber": "4363", "addr:postcode": "83616", "addr:state": "ID", "addr:street": "West Gray Fox Street", "addr:unit": "110", "amenity": "restaurant", "name": "Roxberry Juice Co", "wheelchair": "yes"}}, {"type": "node", "id": 8067471074, "lat": 43.663542, "lon": -116.4087615}, {"type": "node", "id": 8067471075, "lat": 43.6632202, "lon": -116.408762}, {"type": "node", "id": 8067471076, "lat": 43.6632204, "lon": -116.4090194}, {"type": "node", "id": 8067580787, "lat": 43.6632991, "lon": -116.408033, "tags": {"addr:city": "Eagle", "addr:housenumber": "4363", "addr:postcode": "83616", "addr:state": "ID", "addr:street": "West Gray Fox Street", "addr:unit": "105", "brand": "Great Harvest Bread Company", "brand:wikidata": "Q5599297", "name": "Great Harvest Bread Company", "shop": "bakery", "wheelchair": "yes"}}, {"type": "node", "id": 8067580789, "lat": 43.6633774, "lon": -116.4132951, "tags": {"addr:city": "Meridian", "addr:housenumber": "6500", "addr:postcode": "83646", "addr:state": "ID", "addr:street": "North Linder Road", "addr:unit": "100", "amenity": "restaurant", "name": "Tavern at Eagle Island", "wheelchair": "yes"}}, {"type": "node", "id": 8067580792, "lat": 43.6636841, "lon": -116.4132968, "tags": {"addr:city": "Meridian", "addr:housenumber": "6500", "addr:postcode": "83646", "addr:state": "ID", "addr:street": "North Linder Road", "addr:unit": "110", "name": "Cookie Cutters", "shop": "hairdresser", "wheelchair": "yes"}}, {"type": "node", "id": 8067580813, "lat": 43.6661596, "lon": -116.4131269}, {"type": "node", "id": 8067580814, "lat": 43.666312, "lon": -116.413128}, {"type": "node", "id": 8067580815, "lat": 43.666311, "lon": -116.4134026}, {"type": "node", "id": 8067580816, "lat": 43.6654226, "lon": -116.411785}, {"type": "node", "id": 8067580817, "lat": 43.6654574, "lon": -116.4114177}, {"type": "node", "id": 8067580818, "lat": 43.6654906, "lon": -116.4114175}, {"type": "node", "id": 8067580819, "lat": 43.6654915, "lon": -116.4098725}, {"type": "node", "id": 8067580820, "lat": 43.6654916, "lon": -116.4100873}, {"type": "node", "id": 8067580829, "lat": 43.6656729, "lon": -116.4122291}, {"type": "node", "id": 8067580835, "lat": 43.664063, "lon": -116.409153, "tags": {"beauty": "tanning", "shop": "beauty", "wheelchair": "yes"}}, {"type": "node", "id": 8067580837, "lat": 43.6634422, "lon": -116.4115956}, {"type": "node", "id": 8067580838, "lat": 43.6632534, "lon": -116.4115949}, {"type": "node", "id": 8067580839, "lat": 43.6632532, "lon": -116.4117085}, {"type": "node", "id": 8067580840, "lat": 43.6633086, "lon": -116.4117087}, {"type": "node", "id": 8067580841, "lat": 43.6633085, "lon": -116.4117324}, {"type": "node", "id": 8067580842, "lat": 43.6633386, "lon": -116.4117325}, {"type": "node", "id": 8067580843, "lat": 43.6633386, "lon": -116.4117087}, {"type": "node", "id": 8331494057, "lat": 43.6625567, "lon": -116.407872}, {"type": "node", "id": 8331516993, "lat": 43.6661585, "lon": -116.413401}, {"type": "node", "id": 8331516996, "lat": 43.663442, "lon": -116.411709}, {"type": "node", "id": 8331517002, "lat": 43.6635422, "lon": -116.409018}, {"type": "node", "id": 8331517718, "lat": 43.6662895, "lon": -116.412225}, {"type": "node", "id": 8331517719, "lat": 43.6655538, "lon": -116.410358, "tags": {"addr:city": "Meridian", "addr:housenumber": "1388", "addr:postcode": "83646", "addr:state": "ID", "addr:street": "West Chinden Boulevard", "brand": "Great Clips", "brand:wikidata": "Q5598967", "name": "Great Clips", "shop": "hairdresser", "wheelchair": "yes"}}, {"type": "node", "id": 8331517720, "lat": 43.6655534, "lon": -116.4102585, "tags": {"addr:city": "Meridian", "addr:housenumber": "1382", "addr:postcode": "83646", "addr:state": "ID", "addr:street": "West Chinden Boulevard", "beauty": "waxing", "brand": "European Wax Center", "brand:wikidata": "Q5413426", "name": "European Wax Center", "shop": "beauty", "website": "https://locations.waxcenter.com/id/meridian/meridian-0275.html", "wheelchair": "yes"}}, {"type": "node", "id": 8331517721, "lat": 43.6655514, "lon": -116.4101552, "tags": {"addr:city": "Meridian", "addr:housenumber": "1376", "addr:postcode": "83646", "addr:state": "ID", "addr:street": "West Chinden Boulevard", "beauty": "nails;spa", "name": "New Nail & Spa", "phone": "+1-208-895-7878", "shop": "beauty"}}, {"type": "node", "id": 8672348223, "lat": 43.6638786, "lon": -116.414192, "tags": {"addr:city": "Meridian", "addr:housenumber": "1653", "addr:postcode": "83646", "addr:state": "ID", "addr:street": "West Island Green Drive", "addr:unit": "100", "name": "Idaho State Liquor Store", "operator": "State of Idaho", "shop": "alcohol"}}, {"type": "node", "id": 8672352669, "lat": 43.6640429, "lon": -116.409368, "tags": {"addr:city": "Meridian", "addr:housenumber": "1240", "addr:postcode": "83646", "addr:state": "ID", "addr:street": "West Chinden Boulevard", "addr:unit": "100", "amenity": "restaurant", "cuisine": "burger", "name": "Boise Fry Company", "wheelchair": "yes"}}, {"type": "node", "id": 8672354993, "lat": 43.6632623, "lon": -116.412739, "tags": {"addr:city": "Meridian", "addr:housenumber": "1520", "addr:postcode": "83646", "addr:state": "ID", "addr:street": "West Chinden Boulevard", "addr:unit": "100", "brand": "AT&T", "brand:wikidata": "Q298594", "name": "AT&T", "shop": "mobile_phone"}}, {"type": "node", "id": 8672354994, "lat": 43.6632608, "lon": -116.41287, "tags": {"addr:city": "Meridian", "addr:housenumber": "1520", "addr:postcode": "83646", "addr:state": "ID", "addr:street": "West Chinden Boulevard", "addr:unit": "102", "brand": "Sport Clips", "brand:wikidata": "Q7579310", "name": "Sport Clips", "shop": "hairdresser", "wheelchair": "yes"}}, {"type": "node", "id": 8672355000, "lat": 43.6634985, "lon": -116.4132958, "tags": {"addr:city": "Meridian", "addr:housenumber": "6500", "addr:postcode": "83646", "addr:state": "ID", "addr:street": "North Linder Road", "addr:unit": "104", "name": "Lashed", "shop": "beauty", "wheelchair": "yes"}}, {"type": "node", "id": 8674933309, "lat": 43.6656671, "lon": -116.4115777, "tags": {"amenity": "cafe", "branch": "Fred Meyer Eagle Island 685", "brand": "Starbucks", "brand:wikidata": "Q37158", "cuisine": "coffee_shop", "name": "Starbucks", "official_name": "Starbucks Coffee", "phone": "+1 208-893-6000", "ref": "113739", "takeaway": "yes", "website": "https://www.starbucks.com/store-locator/store/113739/fred-meyer-eagle-island-685-1400-w-chinden-meridian-id-83646-us", "wheelchair": "yes"}}, {"type": "node", "id": 8674933311, "lat": 43.6656032, "lon": -116.4124629, "tags": {"addr:city": "Meridian", "addr:housenumber": "6700", "addr:postcode": "83646", "addr:state": "ID", "addr:street": "North Linder Road", "addr:unit": "108", "name": "GoWireless", "shop": "mobile_phone", "wheelchair": "yes"}}, {"type": "node", "id": 8674933312, "lat": 43.6658172, "lon": -116.4126466, "tags": {"addr:city": "Meridian", "addr:housenumber": "6700", "addr:postcode": "83646", "addr:state": "ID", "addr:street": "North Linder Road", "addr:unit": "156A", "amenity": "post_office", "brand": "The UPS Store", "brand:wikidata": "Q7771029", "name": "The UPS Store", "operator": "The UPS Store", "operator:type": "private", "operator:wikidata": "Q7771029", "operator:wikipedia": "en:The UPS Store", "shop": "copyshop", "short_name": "UPS", "wheelchair": "yes"}}, {"type": "node", "id": 8674933313, "lat": 43.6661009, "lon": -116.4126328, "tags": {"addr:city": "Meridian", "addr:housenumber": "6700", "addr:postcode": "83646", "addr:state": "ID", "addr:street": "North Linder Road", "addr:unit": "192", "air_conditioning": "yes", "amenity": "restaurant", "cuisine": "italian;american", "email": "marketing@torrorg.com", "name": "Nick's Italian Ristorante", "phone": "+1-208-501-8567", "reservation": "yes", "website": "https://eatnicksitalian.com/", "wheelchair": "yes"}}, {"type": "node", "id": 8674933314, "lat": 43.6658688, "lon": -116.4126457, "tags": {"addr:city": "Meridian", "addr:housenumber": "6700", "addr:postcode": "83646", "addr:state": "ID", "addr:street": "North Linder Road", "addr:unit": "162", "brand": "H&R Block", "brand:wikidata": "Q5627799", "name": "H&R Block", "office": "tax_advisor"}}, {"type": "node", "id": 9622735505, "lat": 43.6656874, "lon": -116.4126488, "tags": {"addr:city": "Meridian", "addr:housenumber": "6700", "addr:postcode": "83646", "addr:state": "ID", "addr:street": "North Linder Road", "addr:unit": "144", "name": "Green Leaf Cleaners", "shop": "dry_cleaning", "wheelchair": "yes"}}, {"type": "node", "id": 9622735506, "lat": 43.6657699, "lon": -116.4126474, "tags": {"addr:city": "Meridian", "addr:housenumber": "6700", "addr:postcode": "83646", "addr:state": "ID", "addr:street": "North Linder Road", "addr:unit": "150", "beauty": "nails;waxing", "name": "TipTop Nails & Spa", "shop": "beauty"}}, {"type": "node", "id": 9622735507, "lat": 43.6659086, "lon": -116.412645, "tags": {"name": "Zuzu's Petals", "shop": "clothes", "wheelchair": "yes"}}, {"type": "node", "id": 10288463243, "lat": 43.6625563, "lon": -116.4074952}, {"type": "node", "id": 10288463244, "lat": 43.6624253, "lon": -116.4074955}, {"type": "node", "id": 10288463245, "lat": 43.6624256, "lon": -116.4078514}, {"type": "node", "id": 10288463246, "lat": 43.6625105, "lon": -116.4078512}, {"type": "node", "id": 10288463247, "lat": 43.6625105, "lon": -116.407873}, {"type": "way", "id": 160442576, "nodes": [8331517718, 1724967677, 1724967669, 1724967687, 1724967676, 1724967655, 8067580819, 8067580820, 1724967663, 1724967661, 1724967672, 1724967678, 1724967685, 8067580818, 8067580817, 1724967680, 1724967682, 8067580816, 1724967665, 1724967658, 8067580829, 8331517718], "tags": {"addr:city": "Meridian", "addr:housenumber": "1400", "addr:postcode": "83646", "addr:state": "ID", "addr:street": "West Chinden Boulevard", "branch": "Eagle Island", "brand": "Fred Meyer", "brand:wikidata": "Q5495932", "building": "yes", "name": "Fred Meyer", "opening_hours": "Mo-Su 07:00-23:00", "phone": "+1 208-893-6000", "ref": "7010068510", "shop": "supermarket", "website": "https://www.fredmeyer.com/stores/grocery/id/meridian/eagle-island/701/00685", "wheelchair": "yes"}}, {"type": "way", "id": 865541706, "nodes": [8331517002, 8067471074, 8067471075, 8067471076, 8331517002], "tags": {"addr:city": "Meridian", "addr:housenumber": "1200", "addr:postcode": "83646", "addr:state": "ID", "addr:street": "West Chinden Boulevard", "brand": "O'Reilly Auto Parts", "brand:wikidata": "Q7071951", "building": "yes", "name": "O'Reilly Auto Parts", "shop": "car_parts", "website": "https://locations.oreillyauto.com/id/eagle/autoparts-6322.html", "wheelchair": "yes"}}, {"type": "way", "id": 865541711, "nodes": [8331516993, 8067580813, 8067580814, 8067580815, 8331516993], "tags": {"addr:city": "Meridian", "addr:housenumber": "6780", "addr:postcode": "83646", "addr:state": "ID", "addr:street": "North Linder Road", "brand": "Sherwin-Williams", "brand:wikidata": "Q48881", "building": "yes", "name": "Sherwin-Williams", "shop": "paint"}}, {"type": "way", "id": 865541714, "nodes": [8331516996, 8067580837, 8067580838, 8067580839, 8067580840, 8067580841, 8067580842, 8067580843, 8331516996], "tags": {"addr:city": "Meridian", "addr:housenumber": "1480", "addr:postcode": "83646", "addr:state": "ID", "addr:street": "West Chinden Boulevard", "amenity": "cafe", "branch": "Chinden and Linder", "brand": "Starbucks", "brand:wikidata": "Q37158", "building": "yes", "cuisine": "coffee_shop", "name": "Starbucks", "official_name": "Starbucks Coffee", "phone": "+1 208-288-2227", "ref": "1027828", "takeaway": "yes", "website": "https://www.starbucks.com/store-locator/store/1027828/chinden-and-linder-1480-w-chinden-blvd-meridian-id-836465328-us", "wheelchair": "yes"}}, {"type": "way", "id": 1125068234, "nodes": [8331494057, 10288463243, 10288463244, 10288463245, 10288463246, 10288463247, 8331494057], "tags": {"addr:city": "Meridian", "addr:housenumber": "1133", "addr:postcode": "83646", "addr:state": "ID", "addr:street": "West Chinden Boulevard", "brand": "Jacksons", "brand:wikidata": "Q64617393", "building": "yes", "name": "Jacksons", "ref": "200", "shop": "convenience"}}]}