{"version": 0.6, "generator": "Overpass API 0.7.62.8 e802775f", "osm3s": {"timestamp_osm_base": "2025-12-06T04:20:15Z", "copyright": "The data included in this document is from www.openstreetmap.org. The data is made available under ODbL."}, "elements": [{"type": "node", "id": 2030947124, "lat": 47.0674368, "lon": -109.4265102}, {"type": "node", "id": 2030947129, "lat": 47.0675367, "lon": -109.4266507}, {"type": "node", "id": 2030947132, "lat": 47.0675552, "lon": -109.4266224}, {"type": "node", "id": 2030947144, "lat": 47.0675996, "lon": -109.4266847}, {"type": "node", "id": 2030947169, "lat": 47.0677297, "lon": -109.4260612}, {"type": "node", "id": 2030947173, "lat": 47.067874, "lon": -109.4262641}, {"type": "node", "id": 2030947478, "lat": 47.0706413, "lon": -109.4002614}, {"type": "node", "id": 2030947479, "lat": 47.0706596, "lon": -109.4010839}, {"type": "node", "id": 2030947490, "lat": 47.0709354, "lon": -109.4002472}, {"type": "node", "id": 2030947492, "lat": 47.0709538, "lon": -109.4010697}, {"type": "node", "id": 2705315568, "lat": 47.0649159, "lon": -109.4236907}, {"type": "node", "id": 2705315571, "lat": 47.0650298, "lon": -109.4235204}, {"type": "node", "id": 2705315572, "lat": 47.0651172, "lon": -109.4239806}, {"type": "node", "id": 2705315575, "lat": 47.065231, "lon": -109.4238103}, {"type": "node", "id": 4611395795, "lat": 47.0637844, "lon": -109.419915, "tags": {"addr:city": "Lewistown", "addr:housenumber": "612", "addr:postcode": "59457", "addr:state": "MT", "addr:street": "1st Ave S", "name": "Custom Cuts", "phone": "+1 406-538-5932", "shop": "butcher", "website": "https://www.customcutsmt.com/"}}, {"type": "node", "id": 7274693761, "lat": 47.0654229, "lon": -109.422787, "tags": {"addr:city": "Lewistown", "addr:housenumber": "117", "addr:postcode": "59457", "addr:state": "MT", "addr:street": "West Janeaux Street", "brand": "Albertsons", "brand:wikidata": "Q2831861", "name": "Albertsons", "opening_hours": "Mo-Fr 06:00-22:00; Sa 06:00-22:00; Su 06:00-22:00", "payment:cash": "yes", "payment:credit_cards": "yes", "phone": "+1 406-538-5454", "shop": "supermarket", "website": "https://local.albertsons.com/mt/lewistown/117-w-janeaux-st.html"}}, {"type": "node", "id": 7274693945, "lat": 47.0660936, "lon": -109.4253275}, {"type": "node", "id": 7274693950, "lat": 47.0662006, "lon": -109.4254781}, {"type": "node", "id": 7274693951, "lat": 47.0661807, "lon": -109.4251736}, {"type": "node", "id": 7274693952, "lat": 47.0660866, "lon": -109.4253177}, {"type": "node", "id": 7274693953, "lat": 47.066252, "lon": -109.4255504}, {"type": "node", "id": 7426829869, "lat": 47.066807, "lon": -109.42443}, {"type": "node", "id": 7426829870, "lat": 47.066863, "lon": -109.424348}, {"type": "node", "id": 7426829871, "lat": 47.066957, "lon": -109.424487}, {"type": "node", "id": 7426829872, "lat": 47.066901, "lon": -109.424568}, {"type": "node", "id": 7426829992, "lat": 47.0707398, "lon": -109.4165453}, {"type": "node", "id": 7426829993, "lat": 47.0707412, "lon": -109.4163469}, {"type": "node", "id": 7426829994, "lat": 47.0708239, "lon": -109.4163481}, {"type": "node", "id": 7426829995, "lat": 47.0708221, "lon": -109.4166324}, {"type": "node", "id": 7426829996, "lat": 47.0707662, "lon": -109.4166316}, {"type": "node", "id": 7426829997, "lat": 47.0707668, "lon": -109.4165457}, {"type": "node", "id": 7681391465, "lat": 47.056136, "lon": -109.441499}, {"type": "node", "id": 7681391466, "lat": 47.056135, "lon": -109.441349}, {"type": "node", "id": 7681391467, "lat": 47.056407, "lon": -109.441347}, {"type": "node", "id": 7681391468, "lat": 47.056408, "lon": -109.441497}, {"type": "node", "id": 7681391479, "lat": 47.0550954, "lon": -109.4414441}, {"type": "node", "id": 7681391480, "lat": 47.0546464, "lon": -109.4414431}, {"type": "node", "id": 7681391481, "lat": 47.0546464, "lon": -109.4411841}, {"type": "node", "id": 7681391482, "lat": 47.0548044, "lon": -109.4411841}, {"type": "node", "id": 7681391483, "lat": 47.0548044, "lon": -109.4408561}, {"type": "node", "id": 7681391484, "lat": 47.0549414, "lon": -109.4408561}, {"type": "node", "id": 7681404285, "lat": 47.0549404, "lon": -109.4411861}, {"type": "node", "id": 7681404286, "lat": 47.0550964, "lon": -109.4411861}, {"type": "node", "id": 7681404287, "lat": 47.057079, "lon": -109.4493667}, {"type": "node", "id": 7681404288, "lat": 47.0566126, "lon": -109.4493683}, {"type": "node", "id": 7681404289, "lat": 47.0566118, "lon": -109.4488348}, {"type": "node", "id": 7681404290, "lat": 47.0570782, "lon": -109.4488331}, {"type": "node", "id": 7681481724, "lat": 47.0655754, "lon": -109.4247034, "tags": {"addr:city": "Lewistown", "addr:state": "MT", "name": "Sport Center", "payment:cash": "yes", "payment:credit_cards": "yes", "shop": "sports"}}, {"type": "node", "id": 7725613392, "lat": 47.0676206, "lon": -109.4240698, "tags": {"addr:city": "Lewistown", "addr:state": "MT", "addr:street": "East Broadway Street", "name": "First Avenue Coin Laundry", "payment:coins": "yes", "self_service": "yes", "shop": "laundry"}}, {"type": "node", "id": 7725613482, "lat": 47.0656381, "lon": -109.4254695, "tags": {"addr:city": "Lewistown", "addr:housenumber": "217", "addr:postcode": "59457", "addr:state": "MT", "addr:street": "West Main Street", "contact:phone": "+1 406-535-4999", "name": "Rising Trout Cafe & Bookstore", "payment:cash": "yes", "payment:credit_cards": "yes", "payment:debit_cards": "yes", "shop": "coffee"}}, {"type": "node", "id": 7725647962, "lat": 47.057084, "lon": -109.439299}, {"type": "node", "id": 7725647963, "lat": 47.05721, "lon": -109.439103}, {"type": "node", "id": 7725647964, "lat": 47.057306, "lon": -109.439235}, {"type": "node", "id": 7725647965, "lat": 47.057181, "lon": -109.439432}, {"type": "node", "id": 7725648007, "lat": 47.056389, "lon": -109.441725}, {"type": "node", "id": 7725648008, "lat": 47.056391, "lon": -109.442026}, {"type": "node", "id": 7725648009, "lat": 47.056076, "lon": -109.442031}, {"type": "node", "id": 7725648010, "lat": 47.056075, "lon": -109.441768}, {"type": "node", "id": 7725648011, "lat": 47.056163, "lon": -109.441767}, {"type": "node", "id": 7725648012, "lat": 47.056163, "lon": -109.441728}, {"type": "node", "id": 7729713991, "lat": 47.071188, "lon": -109.404279}, {"type": "node", "id": 7729713992, "lat": 47.07119, "lon": -109.404408}, {"type": "node", "id": 7729713993, "lat": 47.070435, "lon": -109.404439}, {"type": "node", "id": 7729713994, "lat": 47.070432, "lon": -109.404311}, {"type": "node", "id": 7729713995, "lat": 47.070429, "lon": -109.404228}, {"type": "node", "id": 7729713996, "lat": 47.070428, "lon": -109.404156}, {"type": "node", "id": 7729713997, "lat": 47.070816, "lon": -109.404142}, {"type": "node", "id": 7729713998, "lat": 47.070817, "lon": -109.404215}, {"type": "node", "id": 7729713999, "lat": 47.070421, "lon": -109.403914}, {"type": "node", "id": 7729714000, "lat": 47.070808, "lon": -109.4039}, {"type": "node", "id": 7729714001, "lat": 47.070811, "lon": -109.404051}, {"type": "node", "id": 7729714002, "lat": 47.070424, "lon": -109.404064}, {"type": "node", "id": 7729714003, "lat": 47.071182, "lon": -109.404118}, {"type": "node", "id": 7729714004, "lat": 47.071182, "lon": -109.40419}, {"type": "node", "id": 7729714005, "lat": 47.070908, "lon": -109.404195}, {"type": "node", "id": 7729714006, "lat": 47.070908, "lon": -109.404123}, {"type": "node", "id": 7729714007, "lat": 47.071337, "lon": -109.404597}, {"type": "node", "id": 7729714008, "lat": 47.071279, "lon": -109.404593}, {"type": "node", "id": 7729714009, "lat": 47.071293, "lon": -109.404071}, {"type": "node", "id": 7729714010, "lat": 47.07135, "lon": -109.404074}, {"type": "node", "id": 7729714021, "lat": 47.0705207, "lon": -109.4091825}, {"type": "node", "id": 7729714022, "lat": 47.0703438, "lon": -109.4091784}, {"type": "node", "id": 7729714023, "lat": 47.0703464, "lon": -109.408937}, {"type": "node", "id": 7729714024, "lat": 47.070504, "lon": -109.4089407}, {"type": "node", "id": 7729714025, "lat": 47.0705034, "lon": -109.4089938}, {"type": "node", "id": 7729714026, "lat": 47.070438, "lon": -109.4089923}, {"type": "node", "id": 7729714027, "lat": 47.0704369, "lon": -109.4090931}, {"type": "node", "id": 7729714028, "lat": 47.0705216, "lon": -109.409095}, {"type": "node", "id": 7729714033, "lat": 47.0696229, "lon": -109.4097204}, {"type": "node", "id": 7729714034, "lat": 47.0698081, "lon": -109.4097167}, {"type": "node", "id": 7729714035, "lat": 47.0698127, "lon": -109.4102166}, {"type": "node", "id": 7729714036, "lat": 47.0696276, "lon": -109.4102203}, {"type": "node", "id": 7729832965, "lat": 47.0665232, "lon": -109.427296, "tags": {"addr:city": "Lewistown", "addr:postcode": "59457", "addr:state": "MT", "name": "Post Office Barbershop", "shop": "hairdresser"}}, {"type": "node", "id": 7729832966, "lat": 47.0664014, "lon": -109.4271171, "tags": {"shop": "funeral_directors"}}, {"type": "node", "id": 7729878909, "lat": 47.0663128, "lon": -109.4265596, "tags": {"name": "Mid-Rivers Communications", "office": "telecommunication", "website": "https://www.midrivers.com"}}, {"type": "node", "id": 7729878910, "lat": 47.0662289, "lon": -109.426688, "tags": {"addr:city": "Lewistown", "addr:postcode": "59457", "addr:state": "MT", "addr:street": "West Broadway Street", "name": "KS Property Management", "office": "estate_agent", "website": "https://kspropertymanagement.biz"}}, {"type": "node", "id": 7729878999, "lat": 47.0694626, "lon": -109.4270421, "tags": {"addr:city": "Lewistown", "addr:state": "MT", "name": "Lewistown Sports", "shop": "sports"}}, {"type": "node", "id": 7729938052, "lat": 47.0630891, "lon": -109.429821, "tags": {"addr:city": "Lewistown", "addr:housenumber": "618", "addr:state": "MT", "addr:street": "West Main Street", "amenity": "cafe", "cuisine": "coffee_shop", "internet_access": "yes", "name": "six18 coffee", "opening_hours": "Mo-Sa 07:00-14:00", "phone": "+1-406-538-5262"}}, {"type": "node", "id": 7729938066, "lat": 47.0631655, "lon": -109.4291568, "tags": {"name": "Creel Funeral Home", "shop": "funeral_directors"}}, {"type": "node", "id": 7732476714, "lat": 47.0691854, "lon": -109.4215407, "tags": {"addr:city": "Lewistown", "addr:housenumber": "320", "addr:postcode": "59457", "addr:state": "MT", "addr:street": "East Main Street", "agrarian": "seed;tools;feed", "name": "Fleet Supply", "shop": "agrarian"}}, {"type": "node", "id": 7732506794, "lat": 47.0689588, "lon": -109.4046966, "tags": {"addr:city": "Lewistown", "addr:housenumber": "815", "addr:postcode": "59457", "addr:state": "MT", "addr:street": "Northeast Main Street", "brand": "Ace Hardware", "brand:wikidata": "Q4672981", "name": "Ace Hardware", "opening_hours": "Mo-Sa 08:00-18:00; Su 10:00-16:00", "phone": "+1 406-538-4000", "ref": "10376", "shop": "doityourself"}}, {"type": "node", "id": 7760126131, "lat": 47.0664189, "lon": -109.422782}, {"type": "node", "id": 7760126132, "lat": 47.0662411, "lon": -109.4225283}, {"type": "node", "id": 7760126134, "lat": 47.066421, "lon": -109.422482}, {"type": "node", "id": 7760126135, "lat": 47.066548, "lon": -109.422291}, {"type": "node", "id": 7760126136, "lat": 47.06665, "lon": -109.422437}, {"type": "node", "id": 7760126152, "lat": 47.0666717, "lon": -109.423915, "tags": {"addr:city": "Lewistown", "addr:postcode": "59457", "addr:state": "MT", "addr:street": "West Main Street", "shop": "tattoo"}}, {"type": "node", "id": 7760126153, "lat": 47.0658908, "lon": -109.4250216, "tags": {"addr:city": "Lewistown", "addr:housenumber": "104", "addr:postcode": "59457", "addr:state": "MT", "addr:street": "2nd Avenue South", "amenity": "restaurant", "cuisine": "pizza;sandwich", "name": "Brooks Market", "phone": "+1 406-535-6600", "website": "https://brooksmarket.com/"}}, {"type": "node", "id": 7760126154, "lat": 47.0652119, "lon": -109.4260805, "tags": {"addr:city": "Lewistown", "addr:housenumber": "301", "addr:postcode": "59457", "addr:state": "MT", "addr:street": "West Main Street", "brand": "True Value", "brand:wikidata": "Q7847545", "name": "True Value", "opening_hours": "Mo-Sa 08:00-18:00", "payment:cash": "yes", "payment:cheque": "yes", "payment:credit_cards": "yes", "phone": "+1 406-538-5902", "shop": "hardware"}}, {"type": "node", "id": 7760126155, "lat": 47.0651321, "lon": -109.4252488, "tags": {"shop": "paint"}}, {"type": "node", "id": 7760126160, "lat": 47.0640451, "lon": -109.4294208, "tags": {"shop": "car_repair"}}, {"type": "node", "id": 7760126167, "lat": 47.0672642, "lon": -109.4238785, "tags": {"addr:city": "Lewistown", "addr:state": "MT", "second_hand": "only", "shop": "car"}}, {"type": "node", "id": 7779162750, "lat": 47.058516, "lon": -109.436891}, {"type": "node", "id": 7779162751, "lat": 47.058593, "lon": -109.437001}, {"type": "node", "id": 7779162752, "lat": 47.05856, "lon": -109.437051}, {"type": "node", "id": 7779162753, "lat": 47.058563, "lon": -109.437055}, {"type": "node", "id": 7779162754, "lat": 47.058464, "lon": -109.437205}, {"type": "node", "id": 7779162755, "lat": 47.058384, "lon": -109.437091}, {"type": "node", "id": 7779178515, "lat": 47.069829, "lon": -109.408176}, {"type": "node", "id": 7779178516, "lat": 47.069828, "lon": -109.408217}, {"type": "node", "id": 7779178517, "lat": 47.069767, "lon": -109.408213}, {"type": "node", "id": 7779178518, "lat": 47.069771, "lon": -109.408049}, {"type": "node", "id": 7779178519, "lat": 47.069811, "lon": -109.408051}, {"type": "node", "id": 7779178520, "lat": 47.069813, "lon": -109.407993}, {"type": "node", "id": 7779178521, "lat": 47.069862, "lon": -109.407996}, {"type": "node", "id": 7779178522, "lat": 47.069862, "lon": -109.408001}, {"type": "node", "id": 7779178523, "lat": 47.069898, "lon": -109.408003}, {"type": "node", "id": 7779178524, "lat": 47.069894, "lon": -109.40818}, {"type": "node", "id": 7779534687, "lat": 47.067196, "lon": -109.42252}, {"type": "node", "id": 7779534688, "lat": 47.067129, "lon": -109.42262}, {"type": "node", "id": 7779534689, "lat": 47.067018, "lon": -109.422459}, {"type": "node", "id": 7782788958, "lat": 47.0648591, "lon": -109.421308, "tags": {"addr:city": "Lewistown", "addr:housenumber": "406", "addr:postcode": "59457", "addr:state": "MT", "addr:street": "1st Avenue South", "name": "Snowy Mountain Mudd", "shop": "coffee"}}, {"type": "node", "id": 7782860643, "lat": 47.069292, "lon": -109.419646}, {"type": "node", "id": 7782860644, "lat": 47.069355, "lon": -109.419739}, {"type": "node", "id": 7782860645, "lat": 47.069262, "lon": -109.419876}, {"type": "node", "id": 7782860646, "lat": 47.069199, "lon": -109.419783}, {"type": "node", "id": 7782908866, "lat": 47.068008, "lon": -109.423957}, {"type": "node", "id": 7782908867, "lat": 47.068109, "lon": -109.424104}, {"type": "node", "id": 7782908868, "lat": 47.06802, "lon": -109.424234}, {"type": "node", "id": 7782908869, "lat": 47.067919, "lon": -109.424087}, {"type": "node", "id": 7792766702, "lat": 47.065256, "lon": -109.426628, "tags": {"addr:city": "Lewistown", "addr:housenumber": "312", "addr:state": "MT", "addr:street": "West Main Street", "name": "Forgotten Willows", "phone": "+1 406-366-3549", "shop": "tea"}}, {"type": "node", "id": 7797394552, "lat": 47.0636939, "lon": -109.426594}, {"type": "node", "id": 7797394553, "lat": 47.0636784, "lon": -109.426571}, {"type": "node", "id": 7797394554, "lat": 47.0637103, "lon": -109.426525}, {"type": "node", "id": 7797394555, "lat": 47.0636439, "lon": -109.4264259}, {"type": "node", "id": 7797394556, "lat": 47.063702, "lon": -109.4263419}, {"type": "node", "id": 7797394557, "lat": 47.0638727, "lon": -109.4265964}, {"type": "node", "id": 7797394558, "lat": 47.0637654, "lon": -109.4267515}, {"type": "node", "id": 7802406529, "lat": 47.0628303, "lon": -109.4199429}, {"type": "node", "id": 7802406530, "lat": 47.062746, "lon": -109.4198248}, {"type": "node", "id": 7802406531, "lat": 47.062964, "lon": -109.4194892}, {"type": "node", "id": 7802406532, "lat": 47.0630484, "lon": -109.4196073}, {"type": "node", "id": 7802406533, "lat": 47.0629888, "lon": -109.4201595}, {"type": "node", "id": 7802406534, "lat": 47.0629454, "lon": -109.4200977}, {"type": "node", "id": 7802406535, "lat": 47.0631643, "lon": -109.4197666}, {"type": "node", "id": 7802406536, "lat": 47.0632077, "lon": -109.4198285}, {"type": "node", "id": 7802406537, "lat": 47.0632811, "lon": -109.4199303}, {"type": "node", "id": 7802406538, "lat": 47.0630536, "lon": -109.4202709}, {"type": "node", "id": 7802406539, "lat": 47.0630114, "lon": -109.4202102}, {"type": "node", "id": 7802406540, "lat": 47.063239, "lon": -109.4198697}, {"type": "node", "id": 7802406541, "lat": 47.0631285, "lon": -109.4197101}, {"type": "node", "id": 7802406542, "lat": 47.0629062, "lon": -109.4200349}, {"type": "node", "id": 7802406543, "lat": 47.0628621, "lon": -109.4199698}, {"type": "node", "id": 7802406544, "lat": 47.0630844, "lon": -109.4196451}, {"type": "node", "id": 7837769018, "lat": 47.0663446, "lon": -109.424993, "tags": {"addr:city": "Lewistown", "addr:housenumber": "124", "addr:postcode": "59457", "addr:state": "MT", "addr:street": "West Main Street", "amenity": "bar", "name": "Eagles Club", "phone": "+1 406-535-5145"}}, {"type": "node", "id": 7837769019, "lat": 47.066346, "lon": -109.425406}, {"type": "node", "id": 7837769028, "lat": 47.0649076, "lon": -109.4281317, "tags": {"addr:city": "Lewistown", "addr:postcode": "59457", "addr:state": "MT", "addr:street": "West Broadway Street", "shop": "tobacco"}}, {"type": "node", "id": 7838104578, "lat": 47.0666607, "lon": -109.42604, "tags": {"addr:city": "Lewistown", "addr:postcode": "59457", "addr:state": "MT", "addr:street": "West Broadway Street", "shop": "flooring"}}, {"type": "node", "id": 7841780608, "lat": 47.0707426, "lon": -109.4069614, "tags": {"brand": "U-Haul", "brand:wikidata": "Q7862902", "name": "U-Haul", "shop": "rental"}}, {"type": "node", "id": 7900736002, "lat": 47.0569809, "lon": -109.4400478, "tags": {"addr:city": "Lewistown", "addr:housenumber": "120", "addr:postcode": "59457", "addr:state": "MT", "addr:street": "Wunderlin Street", "addr:unit": "2", "name": "American Welding & Gas", "shop": "gas"}}, {"type": "node", "id": 7900736003, "lat": 47.05688, "lon": -109.4400464, "tags": {"addr:city": "Lewistown", "addr:postcode": "59457", "addr:state": "MT", "addr:street": "Wunderlin Street", "name": "406 Design", "shop": "clothes", "website": "https://www.406designmt.com/"}}, {"type": "node", "id": 7946438411, "lat": 47.0636766, "lon": -109.426619}, {"type": "node", "id": 7946438412, "lat": 47.0650765, "lon": -109.4269221, "tags": {"addr:city": "Lewistown", "addr:housenumber": "322", "addr:postcode": "59457", "addr:state": "MT", "addr:street": "West Main Street", "amenity": "cafe", "cuisine": "coffee_shop", "name": "Coffee Cup", "outdoor_seating": "no", "phone": "+1 406-535-2690", "website": "https://www.facebook.com/coffeecupthe/"}}, {"type": "node", "id": 7946438414, "lat": 47.0650435, "lon": -109.4285205, "tags": {"addr:city": "Lewistown", "addr:postcode": "59457", "addr:state": "MT", "addr:street": "West Broadway Street", "shop": "second_hand"}}, {"type": "node", "id": 7946438415, "lat": 47.0647676, "lon": -109.4274257, "tags": {"addr:city": "Lewistown", "addr:housenumber": "408", "addr:postcode": "59457", "addr:state": "MT", "addr:street": "West Main Street", "name": "Moccasin Mountain Art and Gifts", "phone": "+1-406-538-5125", "shop": "gift", "website": "https://www.moccasinmountainart.com/"}}, {"type": "node", "id": 7946438416, "lat": 47.0647023, "lon": -109.4275013, "tags": {"addr:city": "Lewistown", "addr:housenumber": "408", "addr:postcode": "59457", "addr:state": "MT", "addr:street": "West Main Street", "name": "Shobe Auction & Realty", "office": "estate_agent", "phone": "+1-406-538-5125", "website": "https://www.shobeauction.com/"}}, {"type": "node", "id": 7946438420, "lat": 47.0642322, "lon": -109.427582, "tags": {"addr:city": "Lewistown", "addr:housenumber": "417", "addr:postcode": "59457", "addr:state": "MT", "addr:street": "West Main Street", "name": "Keystone Christian Bookstore", "religion": "christian", "shop": "religion", "website": "https://keystonebookstore.com/"}}, {"type": "node", "id": 7946438421, "lat": 47.0645401, "lon": -109.4277636, "tags": {"addr:city": "Lewistown", "addr:housenumber": "416", "addr:postcode": "59457", "addr:state": "MT", "addr:street": "West Main Street", "amenity": "restaurant", "cuisine": "mexican", "name": "El Rancho Alegre", "phone": "+1-406-535-5404"}}, {"type": "node", "id": 7946438422, "lat": 47.0641048, "lon": -109.4283644, "tags": {"addr:city": "Lewistown", "addr:housenumber": "502", "addr:postcode": "59457", "addr:state": "MT", "addr:street": "West Main Street", "clothes": "women", "name": "Blue Stone Boutique", "phone": "+1-406-535-2583", "shop": "clothes", "website": "https://www.bluestone406.net/"}}, {"type": "node", "id": 7946438423, "lat": 47.0659399, "lon": -109.425607, "tags": {"addr:city": "Lewistown", "addr:housenumber": "208 1/2", "addr:postcode": "59457", "addr:state": "MT", "addr:street": "West Main Street", "name": "Angelina's Beauty Spot", "phone": "+1-406-538-2481", "shop": "hairdresser", "website": "https://angelinasbeautyspot.com/"}}, {"type": "node", "id": 7946438431, "lat": 47.0662753, "lon": -109.4244809, "tags": {"addr:city": "Lewistown", "addr:housenumber": "117", "addr:postcode": "59457", "addr:state": "MT", "addr:street": "West Main Street", "beauty": "tanning", "name": "Big Spring Spa", "shop": "beauty", "website": "http://www.bigspringspa.com/"}}, {"type": "node", "id": 7946438432, "lat": 47.0658134, "lon": -109.425167, "tags": {"addr:city": "Lewistown", "addr:housenumber": "209", "addr:postcode": "59457", "addr:state": "MT", "addr:street": "West Main Street", "name": "Country Junction", "payment:cash": "yes", "payment:credit_cards": "yes", "phone": "+1-406-535-8402", "shop": "gift", "website": "https://www.countryjunctionmt.com/"}}, {"type": "node", "id": 7946443218, "lat": 47.066343, "lon": -109.422371}, {"type": "node", "id": 7946443219, "lat": 47.0671761, "lon": -109.4231205, "tags": {"addr:city": "Lewistown", "addr:housenumber": "115", "addr:postcode": "59457", "addr:state": "MT", "addr:street": "Northeast Main Street", "name": "Greater Montana Land Company", "office": "estate_agent", "phone": "+1-406-538-5448", "website": "http://www.greatermontanalandcompany.com/"}}, {"type": "node", "id": 7946443221, "lat": 47.0672146, "lon": -109.4230116, "tags": {"addr:city": "Lewistown", "addr:state": "MT", "addr:street": "Northeast Main Street", "name": "Eyecare Associated", "phone": "+1-406-535-5488", "shop": "optician"}}, {"type": "node", "id": 7946443222, "lat": 47.0674758, "lon": -109.423504, "tags": {"addr:city": "Lewistown", "addr:postcode": "59457", "addr:state": "MT", "name": "OK Tire", "shop": "tyres"}}, {"type": "node", "id": 7946443224, "lat": 47.0652956, "lon": -109.421393, "tags": {"addr:city": "Lewistown", "addr:housenumber": "403", "addr:postcode": "59457", "addr:state": "MT", "addr:street": "1st Avenue South", "brand": "NAPA Auto Parts", "brand:wikidata": "Q6970842", "name": "NAPA Auto Parts", "shop": "car_parts"}}, {"type": "node", "id": 7946443230, "lat": 47.0629806, "lon": -109.4173649, "tags": {"addr:city": "Lewistown", "addr:housenumber": "94", "addr:postcode": "59457", "addr:state": "MT", "addr:street": "Upper Spring Creek Road", "name": "Lewistown Propane & Fertilizer", "phone": "+1-406-538-8791", "shop": "gas", "website": "https://www.lewistownpropane.com/"}}, {"type": "node", "id": 7946443231, "lat": 47.067084, "lon": -109.422359}, {"type": "node", "id": 7946459291, "lat": 47.0703059, "lon": -109.4154478, "tags": {"addr:city": "Lewistown", "addr:housenumber": "301", "addr:postcode": "59457", "addr:state": "MT", "addr:street": "Northeast Main Street", "name": "Farm Bureau Financial SErvices", "office": "insurance", "phone": "+1-406-538-3817", "website": "https://jeaninependergrassmt.fbfsagents.com/"}}, {"type": "node", "id": 8008146221, "lat": 47.0630101, "lon": -109.4301757, "tags": {"addr:city": "Lewistown", "addr:postcode": "59457", "addr:state": "MT", "shop": "car_repair"}}, {"type": "node", "id": 8784656279, "lat": 47.066506, "lon": -109.424767, "tags": {"addr:city": "Lewistown", "addr:housenumber": "122", "addr:postcode": "59457", "addr:state": "MT", "addr:street": "West Main Street", "air_conditioning": "yes", "amenity": "cafe", "capacity": "48", "cuisine": "coffee_shop;sandwich", "delivery": "yes", "description": "custom cakes, fresh baked bread daily, fresh pastries. Breakfast and lunch.  We deliver too.", "internet_access": "wlan", "internet_access:fee": "customers", "internet_access:ssid": "Midrivers", "name": "Parr Creek Bakery and Cafe", "opening_hours": "Tu-Sa 07:00-14:00", "phone": "+1 406-535-2867"}}, {"type": "node", "id": 11401946456, "lat": 47.0651537, "lon": -109.4267504, "tags": {"addr:housenumber": "318", "addr:street": "West Main Street", "name": "Simple Style and Then Some", "shop": "clothes"}}, {"type": "node", "id": 11401978195, "lat": 47.0651007, "lon": -109.4262622, "tags": {"addr:housenumber": "309", "addr:street": "West Main Street", "name": "Studio Milan", "phone": "+1 406-535-2877", "shop": "hairdresser"}}, {"type": "node", "id": 12819204968, "lat": 47.0705584, "lon": -109.4026199}, {"type": "node", "id": 12819204969, "lat": 47.0703062, "lon": -109.4026281}, {"type": "node", "id": 12819204970, "lat": 47.0702998, "lon": -109.4021999}, {"type": "node", "id": 12819204971, "lat": 47.0705521, "lon": -109.4021917}, {"type": "way", "id": 192542360, "nodes": [2030947479, 2030947492, 2030947490, 2030947478, 2030947479], "tags": {"addr:city": "Lewistown", "addr:housenumber": "920", "addr:postcode": "59457", "addr:state": "MT", "addr:street": "NE Main Street", "building": "yes", "building:levels": "1", "government": "public_service", "name": "Bureau of Land Management - Lewistown Field Office", "office": "government"}}, {"type": "way", "id": 192542374, "nodes": [2030947144, 2030947173, 2030947169, 2030947124, 2030947129, 2030947132, 2030947144], "tags": {"building": "yes", "office": "yes"}}, {"type": "way", "id": 264876560, "nodes": [2705315575, 2705315571, 2705315568, 2705315572, 2705315575], "tags": {"addr:city": "Lewistown", "addr:state": "MT", "building": "yes", "name": "K&R", "shop": "car_repair"}}, {"type": "way", "id": 779129224, "nodes": [7837769019, 7274693953, 7274693950, 7274693945, 7274693952, 7274693951, 7837769019], "tags": {"addr:city": "Lewistown", "addr:postcode": "59457", "addr:state": "MT", "addr:street": "West Main Street", "amenity": "bar", "building": "retail", "name": "Montana Tavern"}}, {"type": "way", "id": 793960403, "nodes": [7426829869, 7426829870, 7426829871, 7426829872, 7426829869], "tags": {"building": "yes", "shop": "convenience", "source": "microsoft/BuildingFootprints"}}, {"type": "way", "id": 793960424, "nodes": [7426829992, 7426829993, 7426829994, 7426829995, 7426829996, 7426829997, 7426829992], "tags": {"addr:city": "Lewistown", "addr:housenumber": "204", "addr:postcode": "59457", "addr:state": "MT", "addr:street": "Northeast Main Street", "building": "yes", "name": "Big Spring Realty", "office": "estate_agent", "source": "microsoft/BuildingFootprints"}}, {"type": "way", "id": 822689882, "nodes": [7681391465, 7681391466, 7681391467, 7681391468, 7681391465], "tags": {"addr:city": "Lewistown", "addr:housenumber": "1640", "addr:postcode": "59457", "addr:state": "MT", "addr:street": "West Main Street", "amenity": "restaurant", "brand": "Pizza Hut", "brand:wikidata": "Q191615", "building": "yes", "cuisine": "pizza", "name": "Pizza Hut", "phone": "+1 406-538-5472", "website": "https://locations.pizzahut.com/mt/lewistown/1640-w-main-st"}}, {"type": "way", "id": 822689885, "nodes": [7681391479, 7681391480, 7681391481, 7681391482, 7681391483, 7681391484, 7681404285, 7681404286, 7681391479], "tags": {"building": "yes", "office": "government", "source": "microsoft/BuildingFootprints"}}, {"type": "way", "id": 822689886, "nodes": [7681404287, 7681404288, 7681404289, 7681404290, 7681404287], "tags": {"addr:city": "Lewistown", "addr:housenumber": "1814", "addr:postcode": "59457", "addr:state": "MT", "addr:street": "West Main Street", "brand": "Tractor Supply Company", "brand:wikidata": "Q15109925", "building": "yes", "name": "Tractor Supply Company", "opening_hours": "Mo-Sa 08:00-21:00; Su 09:00-19:00", "phone": "+1 406-538-3800", "ref": "2032", "shop": "country_store"}}, {"type": "way", "id": 827512820, "nodes": [7725647962, 7725647963, 7725647964, 7725647965, 7725647962], "tags": {"building": "yes", "shop": "convenience", "source": "microsoft/BuildingFootprints"}}, {"type": "way", "id": 827512828, "nodes": [7725648007, 7725648008, 7725648009, 7725648010, 7725648011, 7725648012, 7725648007], "tags": {"amenity": "restaurant", "building": "yes", "source": "microsoft/BuildingFootprints"}}, {"type": "way", "id": 827986706, "nodes": [7729713991, 7729713992, 7729713993, 7729713994, 7729713991], "tags": {"building": "yes", "shop": "storage_rental", "source": "microsoft/BuildingFootprints"}}, {"type": "way", "id": 827986707, "nodes": [7729713995, 7729713996, 7729713997, 7729713998, 7729713995], "tags": {"building": "yes", "shop": "storage_rental", "source": "microsoft/BuildingFootprints"}}, {"type": "way", "id": 827986708, "nodes": [7729713999, 7729714000, 7729714001, 7729714002, 7729713999], "tags": {"building": "yes", "shop": "storage_rental", "source": "microsoft/BuildingFootprints"}}, {"type": "way", "id": 827986709, "nodes": [7729714003, 7729714004, 7729714005, 7729714006, 7729714003], "tags": {"building": "yes", "shop": "storage_rental", "source": "microsoft/BuildingFootprints"}}, {"type": "way", "id": 827986710, "nodes": [7729714007, 7729714008, 7729714009, 7729714010, 7729714007], "tags": {"building": "yes", "shop": "storage_rental", "source": "microsoft/BuildingFootprints"}}, {"type": "way", "id": 827986712, "nodes": [7729714021, 7729714022, 7729714023, 7729714024, 7729714025, 7729714026, 7729714027, 7729714028, 7729714021], "tags": {"addr:city": "Lewistown", "addr:postcode": "59457", "addr:state": "MT", "amenity": "restaurant", "building": "yes", "cuisine": "pizza", "fixme": "website no longer active, does it still exist?", "name": "Little Big Men Pizza"}}, {"type": "way", "id": 827986715, "nodes": [7729714033, 7729714034, 7729714035, 7729714036, 7729714033], "tags": {"addr:city": "Lewistown", "addr:state": "MT", "addr:street": "Northeast Main Street", "building": "yes", "office": "government"}}, {"type": "way", "id": 831101559, "nodes": [7760126131, 7760126132, 7946443218, 7760126134, 7760126135, 7760126136, 7760126131], "tags": {"addr:city": "Lewistown", "addr:housenumber": "207", "addr:state": "MT", "addr:street": "1st Avenue South", "brand": "Carquest", "brand:wikidata": "Q5045948", "building": "retail", "name": "Carquest", "official_name": "Carquest Auto Parts", "shop": "car_parts", "source": "microsoft/BuildingFootprints"}}, {"type": "way", "id": 833315010, "nodes": [7779162750, 7779162751, 7779162752, 7779162753, 7779162754, 7779162755, 7779162750], "tags": {"building": "yes", "shop": "telecommunication", "source": "microsoft/BuildingFootprints"}}, {"type": "way", "id": 833317172, "nodes": [7779178515, 7779178516, 7779178517, 7779178518, 7779178519, 7779178520, 7779178521, 7779178522, 7779178523, 7779178524, 7779178515], "tags": {"amenity": "restaurant", "building": "yes", "cuisine": "steak_house", "name": "Harry's Place", "source": "microsoft/BuildingFootprints"}}, {"type": "way", "id": 833363144, "nodes": [7946443231, 7779534687, 7779534688, 7779534689, 7946443231], "tags": {"addr:city": "Lewistown", "addr:housenumber": "110", "addr:postcode": "59457", "addr:state": "MT", "addr:street": "South Daws Street", "building": "commercial", "name": "McKenna Agency Real Estate & Insurance", "office": "estate_agent", "source": "microsoft/BuildingFootprints", "website": "https://www.mckennaagency.com/"}}, {"type": "way", "id": 833738527, "nodes": [7782860643, 7782860644, 7782860645, 7782860646, 7782860643], "tags": {"addr:city": "Lewistown", "addr:postcode": "59457", "addr:state": "MT", "building": "yes", "second_hand": "only", "shop": "car", "source": "microsoft/BuildingFootprints"}}, {"type": "way", "id": 833741866, "nodes": [7782908866, 7782908867, 7782908868, 7782908869, 7782908866], "tags": {"building": "yes", "shop": "locksmith", "source": "microsoft/BuildingFootprints"}}, {"type": "way", "id": 835362609, "nodes": [7946438411, 7797394552, 7797394553, 7797394554, 7797394555, 7797394556, 7797394557, 7797394558, 7946438411], "tags": {"addr:city": "Lewistown", "addr:housenumber": "415", "addr:postcode": "59457", "addr:state": "MT", "addr:street": "West Janeaux Street", "building": "retail", "name": "C + V Home", "phone": "+1 406-366-3604", "shop": "interior_decoration", "website": "https://www.cvhomemt.com/"}}, {"type": "way", "id": 835921370, "nodes": [7802406529, 7802406530, 7802406531, 7802406532, 7802406529], "tags": {"building": "yes", "shop": "storage_rental"}}, {"type": "way", "id": 835921371, "nodes": [7802406533, 7802406534, 7802406535, 7802406536, 7802406533], "tags": {"building": "yes", "shop": "storage_rental"}}, {"type": "way", "id": 835921372, "nodes": [7802406537, 7802406538, 7802406539, 7802406540, 7802406537], "tags": {"building": "yes", "shop": "storage_rental"}}, {"type": "way", "id": 835921373, "nodes": [7802406541, 7802406542, 7802406543, 7802406544, 7802406541], "tags": {"building": "yes", "shop": "storage_rental"}}, {"type": "way", "id": 1384580145, "nodes": [12819204968, 12819204969, 12819204970, 12819204971, 12819204968], "tags": {"addr:city": "Lewistown", "addr:housenumber": "40", "addr:postcode": "59457", "addr:state": "MT", "addr:street": "Cattail Drive", "brand": "Family Dollar", "brand:wikidata": "Q5433101", "building": "yes", "name": "Family Dollar", "opening_hours": "Mo-Su 08:00-21:00", "phone": "+1 406-708-4510", "shop": "variety_store"}}]}