{"version": 0.6, "generator": "Overpass API 0.7.62.8 e802775f", "osm3s": {"timestamp_osm_base": "2025-12-13T01:34:24Z", "copyright": "The data included in this document is from www.openstreetmap.org. The data is made available under ODbL."}, "elements": [{"type": "node", "id": 358952817, "lat": 39.5349, "lon": -105.01133, "tags": {"amenity": "school", "ele": "1739", "gnis:feature_id": "2439161", "name": "ThunderRidge High School", "wikidata": "Q7798893", "wikipedia": "en:ThunderRidge High School"}}, {"type": "node", "id": 358952824, "lat": 39.53268, "lon": -105.00835, "tags": {"amenity": "school", "ele": "1740", "gnis:feature_id": "2439164", "name": "Ranch View Middle School"}}, {"type": "node", "id": 358952930, "lat": 39.5246202, "lon": -105.0036063}, {"type": "node", "id": 652377944, "lat": 39.5302751, "lon": -105.02407}, {"type": "node", "id": 652377945, "lat": 39.5303351, "lon": -105.0241799}, {"type": "node", "id": 652377946, "lat": 39.5304799, "lon": -105.0241665}, {"type": "node", "id": 652377947, "lat": 39.5307074, "lon": -105.0241102}, {"type": "node", "id": 652377948, "lat": 39.5307633, "lon": -105.0239654}, {"type": "node", "id": 652378970, "lat": 39.5284339, "lon": -105.0226032}, {"type": "node", "id": 652378972, "lat": 39.5282903, "lon": -105.022075}, {"type": "node", "id": 652378973, "lat": 39.5282563, "lon": -105.0218349}, {"type": "node", "id": 652378974, "lat": 39.5282321, "lon": -105.0215462}, {"type": "node", "id": 652378975, "lat": 39.5282125, "lon": -105.0196416}, {"type": "node", "id": 652378976, "lat": 39.5268926, "lon": -105.0196577}, {"type": "node", "id": 652378977, "lat": 39.5269029, "lon": -105.0203283}, {"type": "node", "id": 652378978, "lat": 39.5267953, "lon": -105.0205643}, {"type": "node", "id": 652378979, "lat": 39.5268057, "lon": -105.0219483}, {"type": "node", "id": 652378980, "lat": 39.5268181, "lon": -105.0221066}, {"type": "node", "id": 652378981, "lat": 39.5268843, "lon": -105.0222434}, {"type": "node", "id": 652378982, "lat": 39.5270001, "lon": -105.0223346}, {"type": "node", "id": 652378983, "lat": 39.5269292, "lon": -105.0227164}, {"type": "node", "id": 652378984, "lat": 39.5269942, "lon": -105.0227383}, {"type": "node", "id": 652378985, "lat": 39.5280847, "lon": -105.0227354}, {"type": "node", "id": 652378986, "lat": 39.5284235, "lon": -105.0226488}, {"type": "node", "id": 652379029, "lat": 39.5271815, "lon": -105.0221364}, {"type": "node", "id": 652379030, "lat": 39.5271394, "lon": -105.0220027}, {"type": "node", "id": 652379031, "lat": 39.5271164, "lon": -105.0217038}, {"type": "node", "id": 652379032, "lat": 39.5271483, "lon": -105.0215254}, {"type": "node", "id": 652379033, "lat": 39.5270859, "lon": -105.0214906}, {"type": "node", "id": 652379034, "lat": 39.5269993, "lon": -105.0214492}, {"type": "node", "id": 652379035, "lat": 39.5269816, "lon": -105.0212394}, {"type": "node", "id": 652379036, "lat": 39.5269566, "lon": -105.0213748}, {"type": "node", "id": 652379037, "lat": 39.5269173, "lon": -105.0215479}, {"type": "node", "id": 652379038, "lat": 39.5269029, "lon": -105.0216989}, {"type": "node", "id": 652379039, "lat": 39.5268967, "lon": -105.0218384}, {"type": "node", "id": 652379040, "lat": 39.5269579, "lon": -105.0221828}, {"type": "node", "id": 652379041, "lat": 39.527103, "lon": -105.0222165}, {"type": "node", "id": 652380654, "lat": 39.5285621, "lon": -105.0168495}, {"type": "node", "id": 652380655, "lat": 39.5285931, "lon": -105.0166859}, {"type": "node", "id": 652380656, "lat": 39.5285766, "lon": -105.0165222}, {"type": "node", "id": 652380657, "lat": 39.5284132, "lon": -105.0165759}, {"type": "node", "id": 652380658, "lat": 39.5284256, "lon": -105.0167475}, {"type": "node", "id": 653991875, "lat": 39.5389809, "lon": -105.0037253}, {"type": "node", "id": 653991876, "lat": 39.5389788, "lon": -105.0018156}, {"type": "node", "id": 653991877, "lat": 39.5411569, "lon": -105.0018237}, {"type": "node", "id": 653991878, "lat": 39.5415271, "lon": -105.002293}, {"type": "node", "id": 653991879, "lat": 39.5413224, "lon": -105.00269}, {"type": "node", "id": 653991881, "lat": 39.5410659, "lon": -105.0032989}, {"type": "node", "id": 653991882, "lat": 39.5409356, "lon": -105.0038085}, {"type": "node", "id": 653991883, "lat": 39.540888, "lon": -105.0038434}, {"type": "node", "id": 653991884, "lat": 39.5404929, "lon": -105.0037227}, {"type": "node", "id": 653992210, "lat": 39.5349617, "lon": -105.0064102}, {"type": "node", "id": 653992211, "lat": 39.5354871, "lon": -105.0071398}, {"type": "node", "id": 653992212, "lat": 39.5374109, "lon": -105.0086418}, {"type": "node", "id": 653992213, "lat": 39.5377087, "lon": -105.0090388}, {"type": "node", "id": 653992214, "lat": 39.5381266, "lon": -105.0091702}, {"type": "node", "id": 653992215, "lat": 39.5384844, "lon": -105.0093741}, {"type": "node", "id": 653992381, "lat": 39.5358026, "lon": -104.999344}, {"type": "node", "id": 653992385, "lat": 39.5356866, "lon": -104.9997315}, {"type": "node", "id": 653992386, "lat": 39.5356816, "lon": -104.999631}, {"type": "node", "id": 653992387, "lat": 39.5357002, "lon": -104.999525}, {"type": "node", "id": 653992388, "lat": 39.5357385, "lon": -104.9994338}, {"type": "node", "id": 653992389, "lat": 39.5359009, "lon": -104.9992796}, {"type": "node", "id": 653992390, "lat": 39.5359856, "lon": -104.999238}, {"type": "node", "id": 653992391, "lat": 39.5360766, "lon": -104.9992541}, {"type": "node", "id": 653992392, "lat": 39.5361269, "lon": -104.9992825}, {"type": "node", "id": 653992394, "lat": 39.5361035, "lon": -104.9993694}, {"type": "node", "id": 653992395, "lat": 39.5357622, "lon": -104.9997128}, {"type": "node", "id": 653992396, "lat": 39.535756, "lon": -104.9995974}, {"type": "node", "id": 653992397, "lat": 39.5357829, "lon": -104.9995035}, {"type": "node", "id": 653992398, "lat": 39.5358222, "lon": -104.9994258}, {"type": "node", "id": 653992399, "lat": 39.5358987, "lon": -104.9993533}, {"type": "node", "id": 653992400, "lat": 39.5359794, "lon": -104.9993212}, {"type": "node", "id": 653992401, "lat": 39.5360415, "lon": -104.9993319}, {"type": "node", "id": 4660017424, "lat": 39.5233132, "lon": -105.0006921}, {"type": "node", "id": 4660017425, "lat": 39.5244587, "lon": -105.0006737}, {"type": "node", "id": 4660079636, "lat": 39.5390643, "lon": -105.0109692}, {"type": "node", "id": 4660079637, "lat": 39.538686, "lon": -105.0103348}, {"type": "node", "id": 4660079638, "lat": 39.5384015, "lon": -105.0106228}, {"type": "node", "id": 4660079639, "lat": 39.5387867, "lon": -105.0112707}, {"type": "node", "id": 4660079640, "lat": 39.5382006, "lon": -105.0107315}, {"type": "node", "id": 4660079641, "lat": 39.5379874, "lon": -105.0103921}, {"type": "node", "id": 4660079642, "lat": 39.5378824, "lon": -105.0105018}, {"type": "node", "id": 4660079643, "lat": 39.5379372, "lon": -105.0105892}, {"type": "node", "id": 4660079644, "lat": 39.5378259, "lon": -105.0107193}, {"type": "node", "id": 4660079645, "lat": 39.5377946, "lon": -105.0106746}, {"type": "node", "id": 4660079646, "lat": 39.5376974, "lon": -105.0107844}, {"type": "node", "id": 4660079647, "lat": 39.5377193, "lon": -105.010823}, {"type": "node", "id": 4660079648, "lat": 39.5376409, "lon": -105.0109104}, {"type": "node", "id": 4660079649, "lat": 39.5376786, "lon": -105.0109714}, {"type": "node", "id": 4660079650, "lat": 39.5376535, "lon": -105.0110019}, {"type": "node", "id": 4660079651, "lat": 39.537735, "lon": -105.0111279}, {"type": "node", "id": 4660079652, "lat": 39.5377554, "lon": -105.0111055}, {"type": "node", "id": 4660079653, "lat": 39.537793, "lon": -105.0111604}, {"type": "node", "id": 4660079654, "lat": 39.5378871, "lon": -105.011075}, {"type": "node", "id": 4660079655, "lat": 39.5379074, "lon": -105.0111137}, {"type": "node", "id": 4660079656, "lat": 39.5379999, "lon": -105.0110242}, {"type": "node", "id": 4660079657, "lat": 39.5379654, "lon": -105.0109612}, {"type": "node", "id": 4660079658, "lat": 39.5381144, "lon": -105.0108189}, {"type": "node", "id": 4660079659, "lat": 39.5381379, "lon": -105.0108413}, {"type": "node", "id": 4660079660, "lat": 39.5381739, "lon": -105.0108108}, {"type": "node", "id": 4660079661, "lat": 39.5381551, "lon": -105.0107722}, {"type": "node", "id": 4758972480, "lat": 39.5370487, "lon": -105.0140433}, {"type": "node", "id": 4758972481, "lat": 39.5370962, "lon": -105.0133883}, {"type": "node", "id": 4758972482, "lat": 39.5366963, "lon": -105.0133453}, {"type": "node", "id": 4758972483, "lat": 39.5367116, "lon": -105.0130763}, {"type": "node", "id": 4758972484, "lat": 39.5365913, "lon": -105.0130633}, {"type": "node", "id": 4758972485, "lat": 39.536578, "lon": -105.0132183}, {"type": "node", "id": 4758972486, "lat": 39.5361154, "lon": -105.0131463}, {"type": "node", "id": 4758972491, "lat": 39.5360844, "lon": -105.0138038}, {"type": "node", "id": 4758972492, "lat": 39.5362688, "lon": -105.0138703}, {"type": "node", "id": 4758972493, "lat": 39.5362718, "lon": -105.0139243}, {"type": "node", "id": 4758972494, "lat": 39.5363145, "lon": -105.0139243}, {"type": "node", "id": 4758972495, "lat": 39.536316, "lon": -105.0139973}, {"type": "node", "id": 4758972496, "lat": 39.5363883, "lon": -105.0140083}, {"type": "node", "id": 4758972497, "lat": 39.5364797, "lon": -105.0140203}, {"type": "node", "id": 4758972498, "lat": 39.5365564, "lon": -105.0140313}, {"type": "node", "id": 4758972499, "lat": 39.5365653, "lon": -105.0139583}, {"type": "node", "id": 4758972500, "lat": 39.536614, "lon": -105.0139663}, {"type": "node", "id": 4758972501, "lat": 39.5366199, "lon": -105.0139073}, {"type": "node", "id": 4758972502, "lat": 39.5369724, "lon": -105.0139603}, {"type": "node", "id": 4758972503, "lat": 39.5369695, "lon": -105.0140353}, {"type": "node", "id": 4758972504, "lat": 39.537065, "lon": -105.0137305}, {"type": "node", "id": 4758972519, "lat": 39.5370487, "lon": -105.0140268}, {"type": "node", "id": 4758972559, "lat": 39.5369373, "lon": -105.0155481}, {"type": "node", "id": 4758972560, "lat": 39.5368834, "lon": -105.0154549}, {"type": "node", "id": 4758972561, "lat": 39.5368307, "lon": -105.01535}, {"type": "node", "id": 4758972562, "lat": 39.5366574, "lon": -105.0155265}, {"type": "node", "id": 4758972563, "lat": 39.5367768, "lon": -105.0157129}, {"type": "node", "id": 4758972564, "lat": 39.537464, "lon": -105.0149216}, {"type": "node", "id": 4758972565, "lat": 39.5373895, "lon": -105.0148026}, {"type": "node", "id": 4758972566, "lat": 39.5371211, "lon": -105.0150796}, {"type": "node", "id": 4758972567, "lat": 39.537202, "lon": -105.0151976}, {"type": "node", "id": 4783911529, "lat": 39.5369392, "lon": -105.0111176}, {"type": "node", "id": 4783911548, "lat": 39.5345346, "lon": -105.0137112}, {"type": "node", "id": 4783911549, "lat": 39.534564, "lon": -105.0048731}, {"type": "node", "id": 4783911550, "lat": 39.534543, "lon": -105.0047919}, {"type": "node", "id": 4783911551, "lat": 39.5343571, "lon": -105.0050475}, {"type": "node", "id": 4783911552, "lat": 39.5341603, "lon": -105.0050901}, {"type": "node", "id": 4783911553, "lat": 39.534072, "lon": -105.0052493}, {"type": "node", "id": 4783911554, "lat": 39.533873, "lon": -105.0055003}, {"type": "node", "id": 4783911555, "lat": 39.5336926, "lon": -105.005667}, {"type": "node", "id": 4783911556, "lat": 39.5334977, "lon": -105.0057694}, {"type": "node", "id": 4783911557, "lat": 39.5333126, "lon": -105.0058831}, {"type": "node", "id": 4783911558, "lat": 39.5332557, "lon": -105.0060791}, {"type": "node", "id": 4783911559, "lat": 39.5330746, "lon": -105.0064454}, {"type": "node", "id": 4783911560, "lat": 39.5328043, "lon": -105.0067648}, {"type": "node", "id": 4783911561, "lat": 39.5325307, "lon": -105.0070556}, {"type": "node", "id": 4783911562, "lat": 39.5322254, "lon": -105.0073571}, {"type": "node", "id": 4783911563, "lat": 39.5320682, "lon": -105.00748}, {"type": "node", "id": 4783911564, "lat": 39.5318516, "lon": -105.0076009}, {"type": "node", "id": 4783911565, "lat": 39.5316063, "lon": -105.0079901}, {"type": "node", "id": 4783911566, "lat": 39.5313185, "lon": -105.0083181}, {"type": "node", "id": 4783911567, "lat": 39.531182, "lon": -105.0084322}, {"type": "node", "id": 5292731731, "lat": 39.5358047, "lon": -105.014134, "tags": {"addr:city": "Highlands Ranch", "addr:housenumber": "2201", "addr:postcode": "80129", "addr:state": "CO", "addr:street": "Wildcat Reserve Parkway", "amenity": "dentist", "email": "myhighlandsdental@yahoo.com", "healthcare": "dentist", "name": "Highlands Dental", "phone": "+1-303-220-1122", "start_date": "2007", "website": "https://www.myhighlandsdental.com/"}}, {"type": "node", "id": 6068838154, "lat": 39.536467, "lon": -105.0160171, "tags": {"addr:city": "Highlands Ranch", "addr:housenumber": "2223", "addr:postcode": "80129", "addr:state": "CO", "addr:street": "Wildcat Reserve Parkway", "amenity": "restaurant", "cuisine": "asian", "name": "Little Holly\u2019s Asia Cafe", "opening_hours": "11:00-22:00", "smoking": "no", "takeaway": "yes"}}, {"type": "node", "id": 6068838155, "lat": 39.5361545, "lon": -105.0159645, "tags": {"addr:city": "Highlands Ranch", "addr:housenumber": "2223", "addr:postcode": "80129", "addr:state": "CO", "addr:street": "Wildcat Reserve Parkway", "addr:unit": "G-1", "name": "Douglas County Motor Vehicle", "office": "government", "opening_hours": "Mo-Fr 08:00-17:00"}}, {"type": "node", "id": 6068901835, "lat": 39.5358216, "lon": -105.015369, "tags": {"addr:city": "Highlands Ranch", "addr:housenumber": "2229", "addr:postcode": "80129", "addr:state": "CO", "addr:street": "Wildcat Reserve Parkway", "name": "Wag N Wash", "opening_hours": "Mo-Sa 09:00-20:00, Su 10:00-18:00", "phone": "+1-720-344-9274", "shop": "pet_grooming"}}, {"type": "node", "id": 6068901836, "lat": 39.5355806, "lon": -105.014957, "tags": {"addr:city": "Highlands Ranch", "addr:housenumber": "2229", "addr:postcode": "80129", "addr:state": "CO", "addr:street": "Wildcat Reserve Parkway", "addr:unit": "A1", "amenity": "restaurant", "cuisine": "pizza", "name": "Abo\u2019s Pizza", "opening_hours": "Sa-Th 10:00-22:00, Fr 10:00-23:00", "phone": "+1-303-470-9999"}}, {"type": "node", "id": 6068901837, "lat": 39.5357648, "lon": -105.015192, "tags": {"addr:city": "Highlands Ranch", "addr:housenumber": "2229", "addr:postcode": "80129", "addr:state": "CO", "addr:street": "Wildcat Reserve Parkway", "addr:unit": "85", "beauty": "nails", "name": "Magic Nails", "opening_hours": "Mo-Sa 09:00-19:00, Su 11:00-17:00", "phone": "+1-303-791-5823", "shop": "beauty"}}, {"type": "node", "id": 6068901838, "lat": 39.5362871, "lon": -105.01595, "tags": {"addr:city": "Highlands Ranch", "addr:housenumber": "2223", "addr:postcode": "80129", "addr:state": "CO", "addr:street": "Wildcat Reserve Parkway", "brand": "H&R Block", "brand:wikidata": "Q5627799", "name": "H&R Block", "office": "tax_advisor", "phone": "+1-303-471-4174"}}, {"type": "node", "id": 6068901839, "lat": 39.5357018, "lon": -105.015085, "tags": {"addr:city": "Highlands Ranch", "addr:housenumber": "2229", "addr:postcode": "80129", "addr:state": "CO", "addr:street": "Wildcat Reserve Parkway", "amenity": "fast_food", "brand": "Subway", "brand:wikidata": "Q244457", "cuisine": "sandwich", "fixme:atp": "no ATP match, check if still exists", "name": "Subway", "opening_hours": "Mo-Fr 07:00-17:00", "phone": "+1 303-387-2184", "takeaway": "yes"}}, {"type": "node", "id": 6068901840, "lat": 39.5368258, "lon": -105.0156564, "tags": {"amenity": "atm", "drive_through": "yes"}}, {"type": "node", "id": 6068917365, "lat": 39.5360442, "lon": -105.013904, "tags": {"addr:city": "Highlands Ranch", "addr:housenumber": "2201", "addr:postcode": "80129", "addr:state": "CO", "addr:street": "Wildcat Reserve Parkway", "brand": "Great Clips", "brand:wikidata": "Q5598967", "name": "Great Clips", "opening_hours": "Mo-Fr 09:00-21:00, Sa 08:00-17:00, Su 10:00-17:00", "phone": "+1-303-346-1563", "shop": "hairdresser"}}, {"type": "node", "id": 6068917366, "lat": 39.5360813, "lon": -105.0138447}, {"type": "node", "id": 6068917367, "lat": 39.5359656, "lon": -105.013961, "tags": {"addr:city": "Highlands Ranch", "addr:housenumber": "2201", "addr:postcode": "80129", "addr:state": "CO", "addr:street": "Wildcat Reserve Parkway", "name": "Dependable Cleaners", "opening_hours": "Mo-Fr 06:00-10:00, Sa 08:00-18:00, Su 10:00-16:00", "phone": "+1-303-470-0350", "shop": "dry_cleaning"}}, {"type": "node", "id": 6068917368, "lat": 39.5358718, "lon": -105.014081, "tags": {"addr:city": "Highlands Ranch", "addr:housenumber": "2201", "addr:postcode": "80129", "addr:state": "CO", "addr:street": "Wildcat Reserve Parkway", "name": "Eileen\u2019s Colossal Cookies", "opening_hours": "Mo-Fr 08:00-18:00, Sa 08:00-17:00", "phone": "+1-303-638-0002", "shop": "bakery"}}, {"type": "node", "id": 6068917369, "lat": 39.5360665, "lon": -105.0138008}, {"type": "node", "id": 6068946643, "lat": 39.5372115, "lon": -105.014063, "tags": {"addr:city": "Highlands Ranch", "addr:housenumber": "2209", "addr:postcode": "80129", "addr:state": "CO", "addr:street": "Wildcat Reserve Parkway", "drive_through": "no", "name": "Westside Liquor", "opening_hours": "Mo-Th 09:00-21:00, Fr-Sa 09:00-22:00, Su 09:00-20:00", "phone": "+1-303-346-3400", "shop": "alcohol"}}, {"type": "node", "id": 6068946645, "lat": 39.5374123, "lon": -105.014069, "tags": {"addr:city": "Highlands Ranch", "addr:housenumber": "2209", "addr:postcode": "80129", "addr:state": "CO", "addr:street": "Wildcat Reserve Parkway", "amenity": "fast_food", "brand": "Chipotle", "brand:wikidata": "Q465751", "cuisine": "mexican", "name": "Chipotle", "official_name": "Chipotle Mexican Grill", "opening_hours": "10:45-22:00", "phone": "+1 303-470-6300", "takeaway": "yes", "website": "https://locations.chipotle.com/co/highlands-ranch/2209-w-wildcat-reserve-pkwy"}}, {"type": "node", "id": 6069469733, "lat": 39.5357505, "lon": -105.0142065, "tags": {"addr:city": "Highlands Ranch", "addr:housenumber": "2201", "addr:postcode": "80129", "addr:state": "CO", "addr:street": "Wildcat Reserve Parkway", "addr:unit": "C9", "amenity": "dojo", "name": "Impact Taekwondo", "opening_hours": "Mo-Th 15:00-22:30, Fr 15:00-19:00, Sa 09:00-12:00"}}, {"type": "node", "id": 7504106949, "lat": 39.5381156, "lon": -105.0135389, "tags": {"amenity": "parking"}}, {"type": "node", "id": 7504106950, "lat": 39.5373337, "lon": -105.0126216, "tags": {"amenity": "parking"}}, {"type": "node", "id": 8082384774, "lat": 39.5284106, "lon": -105.0225423}, {"type": "node", "id": 8082384779, "lat": 39.528394, "lon": -105.0226816}, {"type": "node", "id": 8082384780, "lat": 39.5282519, "lon": -105.0227304}, {"type": "node", "id": 8082384781, "lat": 39.5275161, "lon": -105.0227369}, {"type": "node", "id": 8082413196, "lat": 39.5271737, "lon": -105.0210074}, {"type": "node", "id": 8082415736, "lat": 39.5274814, "lon": -105.0227315}, {"type": "node", "id": 8082415740, "lat": 39.5270606, "lon": -105.0221311}, {"type": "node", "id": 8082415741, "lat": 39.5269163, "lon": -105.0220094}, {"type": "node", "id": 8082415742, "lat": 39.5269955, "lon": -105.0210648}, {"type": "node", "id": 8082415743, "lat": 39.5270002, "lon": -105.0208677}, {"type": "node", "id": 8082415744, "lat": 39.5270354, "lon": -105.0208627}, {"type": "node", "id": 8082415745, "lat": 39.5270475, "lon": -105.020848}, {"type": "node", "id": 8082415746, "lat": 39.5270544, "lon": -105.0208243}, {"type": "node", "id": 8082415747, "lat": 39.5271166, "lon": -105.0208257}, {"type": "node", "id": 8082415748, "lat": 39.5271273, "lon": -105.0208529}, {"type": "node", "id": 8082415749, "lat": 39.5271711, "lon": -105.0208624}, {"type": "node", "id": 8082415750, "lat": 39.5271742, "lon": -105.0209982}, {"type": "node", "id": 8082415751, "lat": 39.5271663, "lon": -105.0211444}, {"type": "node", "id": 8082415752, "lat": 39.5271177, "lon": -105.0211393}, {"type": "node", "id": 8082415753, "lat": 39.5270495, "lon": -105.0211265}, {"type": "node", "id": 8082415754, "lat": 39.5271118, "lon": -105.0218334}, {"type": "node", "id": 8336479960, "lat": 39.5318698, "lon": -105.0314819, "tags": {"amenity": "bench", "backrest": "yes", "colour": "black", "material": "metal"}}, {"type": "node", "id": 8339667735, "lat": 39.5307137, "lon": -105.0247305}, {"type": "node", "id": 8339667736, "lat": 39.530729, "lon": -105.0247107}, {"type": "node", "id": 8339667737, "lat": 39.5307148, "lon": -105.0246922}, {"type": "node", "id": 8339667738, "lat": 39.5306995, "lon": -105.0247119}, {"type": "node", "id": 8339677041, "lat": 39.5297052, "lon": -105.0264292, "tags": {"amenity": "bench", "backrest": "yes"}}, {"type": "node", "id": 8339677042, "lat": 39.5310048, "lon": -105.0256559, "tags": {"amenity": "bench", "backrest": "yes"}}, {"type": "node", "id": 8339677043, "lat": 39.5310182, "lon": -105.0252709, "tags": {"amenity": "bench", "backrest": "yes"}}, {"type": "node", "id": 8343887691, "lat": 39.532733, "lon": -105.0303331, "tags": {"amenity": "vending_machine", "vending": "excrement_bags"}}, {"type": "node", "id": 8343887692, "lat": 39.5314654, "lon": -105.025711, "tags": {"amenity": "vending_machine", "vending": "excrement_bags"}}, {"type": "node", "id": 8594036658, "lat": 39.5358283, "lon": -105.0155464}, {"type": "node", "id": 8594036659, "lat": 39.535944, "lon": -105.0154344}, {"type": "node", "id": 8594036660, "lat": 39.5354576, "lon": -105.0145148}, {"type": "node", "id": 8594036661, "lat": 39.5367627, "lon": -105.0157918}, {"type": "node", "id": 8594036662, "lat": 39.5360562, "lon": -105.0158985}, {"type": "node", "id": 8594036663, "lat": 39.5363193, "lon": -105.015777}, {"type": "node", "id": 8594036664, "lat": 39.5365887, "lon": -105.015981}, {"type": "node", "id": 8594036665, "lat": 39.5365563, "lon": -105.0154392}, {"type": "node", "id": 8594036666, "lat": 39.5368451, "lon": -105.0151283}, {"type": "node", "id": 8594036667, "lat": 39.5369148, "lon": -105.0142834}, {"type": "node", "id": 8594036668, "lat": 39.5366356, "lon": -105.014028}, {"type": "node", "id": 8594036669, "lat": 39.5372743, "lon": -105.0144516}, {"type": "node", "id": 8594036670, "lat": 39.5374284, "lon": -105.014316}, {"type": "node", "id": 8594036671, "lat": 39.5373278, "lon": -105.014512}, {"type": "node", "id": 8594036672, "lat": 39.5371007, "lon": -105.0141073}, {"type": "node", "id": 8594036673, "lat": 39.5360315, "lon": -105.0140008}, {"type": "node", "id": 8594036674, "lat": 39.5353, "lon": -105.0147101}, {"type": "node", "id": 8594036675, "lat": 39.5350808, "lon": -105.0144824}, {"type": "node", "id": 8594036676, "lat": 39.536089, "lon": -105.0133412}, {"type": "node", "id": 8594036677, "lat": 39.536073, "lon": -105.0135605}, {"type": "node", "id": 8594036678, "lat": 39.5354038, "lon": -105.0142312}, {"type": "node", "id": 8594036679, "lat": 39.5356152, "lon": -105.0144453}, {"type": "node", "id": 8594036681, "lat": 39.5369734, "lon": -105.0154866}, {"type": "node", "id": 8594036682, "lat": 39.5371385, "lon": -105.015359}, {"type": "node", "id": 9345102110, "lat": 39.5277635, "lon": -105.0149581}, {"type": "node", "id": 9345102111, "lat": 39.5278068, "lon": -105.0148931}, {"type": "node", "id": 9345102112, "lat": 39.5277569, "lon": -105.0148371}, {"type": "node", "id": 9345102113, "lat": 39.5277136, "lon": -105.0149011}, {"type": "node", "id": 9969031631, "lat": 39.5229247, "lon": -105.0173443, "tags": {"amenity": "bench"}}, {"type": "node", "id": 9969031632, "lat": 39.5224924, "lon": -105.0129868, "tags": {"amenity": "bench"}}, {"type": "node", "id": 10309985668, "lat": 39.5374236, "lon": -105.0123299}, {"type": "node", "id": 10309985669, "lat": 39.5374932, "lon": -105.0123384}, {"type": "node", "id": 10309985670, "lat": 39.5374991, "lon": -105.0122574}, {"type": "node", "id": 10309985671, "lat": 39.5375463, "lon": -105.0122061}, {"type": "node", "id": 10309985672, "lat": 39.5375102, "lon": -105.0121504}, {"type": "node", "id": 10309985673, "lat": 39.5374321, "lon": -105.0122132}, {"type": "node", "id": 10309985674, "lat": 39.5375017, "lon": -105.0121373}, {"type": "node", "id": 10310073004, "lat": 39.5385493, "lon": -105.0137325}, {"type": "node", "id": 10310073005, "lat": 39.5382478, "lon": -105.0140543}, {"type": "node", "id": 10310073006, "lat": 39.5382158, "lon": -105.0140034}, {"type": "node", "id": 10310073007, "lat": 39.5381817, "lon": -105.0140382}, {"type": "node", "id": 10310073008, "lat": 39.5381361, "lon": -105.0139712}, {"type": "node", "id": 10310101709, "lat": 39.5381356, "lon": -105.0139336}, {"type": "node", "id": 10310101710, "lat": 39.5377312, "lon": -105.0138753}, {"type": "node", "id": 10310101711, "lat": 39.5377659, "lon": -105.0135045}, {"type": "node", "id": 10310101712, "lat": 39.5377561, "lon": -105.0133818}, {"type": "node", "id": 10310101713, "lat": 39.5377752, "lon": -105.013255}, {"type": "node", "id": 10310101714, "lat": 39.537799, "lon": -105.0132255}, {"type": "node", "id": 10310101715, "lat": 39.5382835, "lon": -105.0132912}, {"type": "node", "id": 10310101716, "lat": 39.5382784, "lon": -105.0133523}, {"type": "node", "id": 10310101717, "lat": 39.538343, "lon": -105.013361}, {"type": "node", "id": 10310101718, "lat": 39.5384361, "lon": -105.0132704}, {"type": "node", "id": 10310101719, "lat": 39.5385747, "lon": -105.013489}, {"type": "node", "id": 10310101720, "lat": 39.5385405, "lon": -105.0135226}, {"type": "node", "id": 10310101721, "lat": 39.5385535, "lon": -105.0135635}, {"type": "node", "id": 10310101722, "lat": 39.5385576, "lon": -105.0135983}, {"type": "node", "id": 10310101723, "lat": 39.5385514, "lon": -105.0136339}, {"type": "node", "id": 10310101724, "lat": 39.5385188, "lon": -105.0136842}, {"type": "node", "id": 10310101725, "lat": 39.5374775, "lon": -105.012977}, {"type": "node", "id": 10310101726, "lat": 39.5374307, "lon": -105.0129589}, {"type": "node", "id": 10310101727, "lat": 39.536967, "lon": -105.0128993}, {"type": "node", "id": 10310101728, "lat": 39.5370417, "lon": -105.0120033}, {"type": "node", "id": 10310101729, "lat": 39.5371872, "lon": -105.0120167}, {"type": "node", "id": 10310101730, "lat": 39.5373506, "lon": -105.0122665}, {"type": "node", "id": 10310101731, "lat": 39.537514, "lon": -105.0125321}, {"type": "node", "id": 10310101732, "lat": 39.5343063, "lon": -105.0094514}, {"type": "node", "id": 10310101733, "lat": 39.5341957, "lon": -105.0097299}, {"type": "node", "id": 10310101734, "lat": 39.5341456, "lon": -105.0097004}, {"type": "node", "id": 10310101735, "lat": 39.5340319, "lon": -105.009986}, {"type": "node", "id": 10310101736, "lat": 39.5339645, "lon": -105.0101232}, {"type": "node", "id": 10310101737, "lat": 39.5338838, "lon": -105.0102543}, {"type": "node", "id": 10310101738, "lat": 39.5337679, "lon": -105.0103746}, {"type": "node", "id": 10310101739, "lat": 39.5336715, "lon": -105.0102322}, {"type": "node", "id": 10310101740, "lat": 39.5336013, "lon": -105.010154}, {"type": "node", "id": 10310101741, "lat": 39.5335716, "lon": -105.0102018}, {"type": "node", "id": 10310101742, "lat": 39.5329285, "lon": -105.0097648}, {"type": "node", "id": 10310101743, "lat": 39.532884, "lon": -105.0097045}, {"type": "node", "id": 10310101744, "lat": 39.5328633, "lon": -105.0096254}, {"type": "node", "id": 10310101745, "lat": 39.5328629, "lon": -105.0095649}, {"type": "node", "id": 10310101746, "lat": 39.5328743, "lon": -105.0094965}, {"type": "node", "id": 10310101747, "lat": 39.5329055, "lon": -105.0094404}, {"type": "node", "id": 10310101748, "lat": 39.5329494, "lon": -105.0093998}, {"type": "node", "id": 10310101749, "lat": 39.5330098, "lon": -105.0093754}, {"type": "node", "id": 10310101750, "lat": 39.5330537, "lon": -105.0092829}, {"type": "node", "id": 10310101751, "lat": 39.5330129, "lon": -105.0092534}, {"type": "node", "id": 10310101752, "lat": 39.5332716, "lon": -105.0086172}, {"type": "node", "id": 10310101753, "lat": 39.5341166, "lon": -105.0092057}, {"type": "node", "id": 10310101754, "lat": 39.5342609, "lon": -105.0092382}, {"type": "node", "id": 10310101755, "lat": 39.5343408, "lon": -105.0092971}, {"type": "node", "id": 10310101756, "lat": 39.5342883, "lon": -105.0094262}, {"type": "node", "id": 11180350463, "lat": 39.5340618, "lon": -105.0114477}, {"type": "node", "id": 11180350464, "lat": 39.5337674, "lon": -105.0117567}, {"type": "node", "id": 11180350465, "lat": 39.5337412, "lon": -105.0117155}, {"type": "node", "id": 11180350466, "lat": 39.5337716, "lon": -105.0115292}, {"type": "node", "id": 11180350467, "lat": 39.5337412, "lon": -105.0114772}, {"type": "node", "id": 11180350468, "lat": 39.533755, "lon": -105.0114593}, {"type": "node", "id": 11180350469, "lat": 39.5337273, "lon": -105.0114091}, {"type": "node", "id": 11180350470, "lat": 39.5340355, "lon": -105.0110884}, {"type": "node", "id": 11180350471, "lat": 39.5341063, "lon": -105.0112039}, {"type": "node", "id": 11180350472, "lat": 39.5340536, "lon": -105.0113765}, {"type": "node", "id": 11180350473, "lat": 39.5340478, "lon": -105.0113877}, {"type": "node", "id": 11180350474, "lat": 39.5340449, "lon": -105.0114005}, {"type": "node", "id": 11180350475, "lat": 39.5340438, "lon": -105.0114155}, {"type": "node", "id": 11180350476, "lat": 39.5340449, "lon": -105.0114245}, {"type": "node", "id": 11180350477, "lat": 39.5346042, "lon": -105.013204}, {"type": "node", "id": 11180350478, "lat": 39.5348508, "lon": -105.0129475}, {"type": "node", "id": 11180350479, "lat": 39.5342746, "lon": -105.0120294}, {"type": "node", "id": 11180350480, "lat": 39.5343837, "lon": -105.0118025}, {"type": "node", "id": 11180350481, "lat": 39.5343223, "lon": -105.0117023}, {"type": "node", "id": 11180350482, "lat": 39.5343234, "lon": -105.011605}, {"type": "node", "id": 11180350483, "lat": 39.5342552, "lon": -105.0114915}, {"type": "node", "id": 11180350484, "lat": 39.5341359, "lon": -105.0115092}, {"type": "node", "id": 11180350485, "lat": 39.534127, "lon": -105.0115152}, {"type": "node", "id": 11180350486, "lat": 39.5341176, "lon": -105.0115158}, {"type": "node", "id": 11180350487, "lat": 39.5341092, "lon": -105.0115126}, {"type": "node", "id": 11180350488, "lat": 39.5341043, "lon": -105.0115088}, {"type": "node", "id": 11180350489, "lat": 39.534087, "lon": -105.0114793}, {"type": "node", "id": 11180350490, "lat": 39.5337889, "lon": -105.0117917}, {"type": "node", "id": 11180350491, "lat": 39.5338166, "lon": -105.0118374}, {"type": "node", "id": 11180350492, "lat": 39.5337965, "lon": -105.0119714}, {"type": "node", "id": 11180350493, "lat": 39.534552, "lon": -105.0131769}, {"type": "node", "id": 11180350497, "lat": 39.533078, "lon": -105.0114781}, {"type": "node", "id": 11180350498, "lat": 39.5328144, "lon": -105.0109698}, {"type": "node", "id": 11180350516, "lat": 39.5365498, "lon": -105.0159212}, {"type": "node", "id": 11180350517, "lat": 39.5365099, "lon": -105.0159526}, {"type": "node", "id": 11180350518, "lat": 39.5364683, "lon": -105.0158871}, {"type": "node", "id": 11180350519, "lat": 39.5364027, "lon": -105.0158246}, {"type": "node", "id": 11180350520, "lat": 39.5363499, "lon": -105.0154967}, {"type": "node", "id": 11180350521, "lat": 39.5362822, "lon": -105.015489}, {"type": "node", "id": 11180350522, "lat": 39.5362701, "lon": -105.0157716}, {"type": "node", "id": 11180350523, "lat": 39.5362244, "lon": -105.0157754}, {"type": "node", "id": 11180350524, "lat": 39.5361761, "lon": -105.0157939}, {"type": "node", "id": 11180350525, "lat": 39.5361302, "lon": -105.0158214}, {"type": "node", "id": 11180350526, "lat": 39.535987, "lon": -105.0158946}, {"type": "node", "id": 11180350527, "lat": 39.5360241, "lon": -105.0158502}, {"type": "node", "id": 11180350528, "lat": 39.5358745, "lon": -105.0156261}, {"type": "node", "id": 11180350529, "lat": 39.5358745, "lon": -105.0157322}, {"type": "node", "id": 11180350530, "lat": 39.535952, "lon": -105.0154044}, {"type": "node", "id": 11180350531, "lat": 39.5359839, "lon": -105.0154968}, {"type": "node", "id": 11180350532, "lat": 39.5359911, "lon": -105.0153633}, {"type": "node", "id": 11180350533, "lat": 39.5360345, "lon": -105.0154486}, {"type": "node", "id": 11180350534, "lat": 39.5360318, "lon": -105.0154245}, {"type": "node", "id": 11180350535, "lat": 39.5355952, "lon": -105.0148324}, {"type": "node", "id": 11180350536, "lat": 39.5356299, "lon": -105.0147913}, {"type": "node", "id": 11180350537, "lat": 39.5354232, "lon": -105.0145095}, {"type": "node", "id": 11180350538, "lat": 39.5354501, "lon": -105.0145554}, {"type": "node", "id": 11180350539, "lat": 39.5352634, "lon": -105.0146452}, {"type": "node", "id": 11180350540, "lat": 39.5352179, "lon": -105.0146968}, {"type": "node", "id": 11180350541, "lat": 39.5351187, "lon": -105.014433}, {"type": "node", "id": 11180350542, "lat": 39.5350876, "lon": -105.0143754}, {"type": "node", "id": 11180350543, "lat": 39.5358323, "lon": -105.0135875}, {"type": "node", "id": 11180350544, "lat": 39.5360228, "lon": -105.0135571}, {"type": "node", "id": 11180350545, "lat": 39.5360432, "lon": -105.0133376}, {"type": "node", "id": 11180350546, "lat": 39.5358666, "lon": -105.0136445}, {"type": "node", "id": 11180350547, "lat": 39.5358762, "lon": -105.0136425}, {"type": "node", "id": 11180350548, "lat": 39.5354568, "lon": -105.0142489}, {"type": "node", "id": 11180350549, "lat": 39.5354163, "lon": -105.0142903}, {"type": "node", "id": 11180350550, "lat": 39.5354056, "lon": -105.0142821}, {"type": "node", "id": 11180350551, "lat": 39.535399, "lon": -105.0142608}, {"type": "node", "id": 11180350552, "lat": 39.5355646, "lon": -105.0144175}, {"type": "node", "id": 11180350553, "lat": 39.5355258, "lon": -105.0144639}, {"type": "node", "id": 11180350554, "lat": 39.5356454, "lon": -105.0144888}, {"type": "node", "id": 11180350555, "lat": 39.5356192, "lon": -105.0145084}, {"type": "node", "id": 11180350556, "lat": 39.5355534, "lon": -105.0145072}, {"type": "node", "id": 11180350557, "lat": 39.5355933, "lon": -105.0145165}, {"type": "node", "id": 11180350558, "lat": 39.5362058, "lon": -105.0139949}, {"type": "node", "id": 11180350559, "lat": 39.5362035, "lon": -105.0140538}, {"type": "node", "id": 11180350560, "lat": 39.5363523, "lon": -105.014075}, {"type": "node", "id": 11180350561, "lat": 39.5363545, "lon": -105.0153179}, {"type": "node", "id": 11180350562, "lat": 39.5363024, "lon": -105.0153479}, {"type": "node", "id": 11180350563, "lat": 39.536348, "lon": -105.0147543}, {"type": "node", "id": 11180350564, "lat": 39.5363456, "lon": -105.0148003}, {"type": "node", "id": 11180350565, "lat": 39.5362985, "lon": -105.0147587}, {"type": "node", "id": 11180350566, "lat": 39.5363075, "lon": -105.0147213}, {"type": "node", "id": 11180350567, "lat": 39.5363, "lon": -105.0147322}, {"type": "node", "id": 11180350568, "lat": 39.5362994, "lon": -105.0153881}, {"type": "node", "id": 11180350569, "lat": 39.5362561, "lon": -105.015388}, {"type": "node", "id": 11180350570, "lat": 39.5362562, "lon": -105.0153088}, {"type": "node", "id": 11180350571, "lat": 39.5362516, "lon": -105.0153719}, {"type": "node", "id": 11180350572, "lat": 39.5363488, "lon": -105.0153941}, {"type": "node", "id": 11180350573, "lat": 39.5363848, "lon": -105.0154039}, {"type": "node", "id": 11180350574, "lat": 39.5363983, "lon": -105.0153511}, {"type": "node", "id": 11180350575, "lat": 39.5364029, "lon": -105.0153755}, {"type": "node", "id": 11180350576, "lat": 39.5363965, "lon": -105.0153982}, {"type": "node", "id": 11180350577, "lat": 39.5363931, "lon": -105.0148463}, {"type": "node", "id": 11180350578, "lat": 39.5363946, "lon": -105.0147997}, {"type": "node", "id": 11180350579, "lat": 39.5364323, "lon": -105.0148801}, {"type": "node", "id": 11180350580, "lat": 39.5364391, "lon": -105.0148399}, {"type": "node", "id": 11180350581, "lat": 39.5364426, "lon": -105.0148728}, {"type": "node", "id": 11180350582, "lat": 39.5363896, "lon": -105.014248}, {"type": "node", "id": 11180350583, "lat": 39.536344, "lon": -105.0142046}, {"type": "node", "id": 11180350584, "lat": 39.5363442, "lon": -105.0141828}, {"type": "node", "id": 11180350585, "lat": 39.5364416, "lon": -105.014222}, {"type": "node", "id": 11180350586, "lat": 39.5364853, "lon": -105.0142561}, {"type": "node", "id": 11180350587, "lat": 39.5364931, "lon": -105.0142407}, {"type": "node", "id": 11180350588, "lat": 39.5366298, "lon": -105.0141048}, {"type": "node", "id": 11180350589, "lat": 39.5373596, "lon": -105.0144682}, {"type": "node", "id": 11180350590, "lat": 39.5372089, "lon": -105.0144049}, {"type": "node", "id": 11180350591, "lat": 39.5371435, "lon": -105.0143645}, {"type": "node", "id": 11180350592, "lat": 39.5370734, "lon": -105.0143376}, {"type": "node", "id": 11180350593, "lat": 39.5370006, "lon": -105.0143258}, {"type": "node", "id": 11180350594, "lat": 39.5370075, "lon": -105.0142553}, {"type": "node", "id": 11180350595, "lat": 39.5368792, "lon": -105.0142405}, {"type": "node", "id": 11180350596, "lat": 39.5368668, "lon": -105.014307}, {"type": "node", "id": 11180350597, "lat": 39.5368658, "lon": -105.0142525}, {"type": "node", "id": 11180350598, "lat": 39.536864, "lon": -105.0142963}, {"type": "node", "id": 11180350599, "lat": 39.5370079, "lon": -105.0151714}, {"type": "node", "id": 11180350600, "lat": 39.5369665, "lon": -105.0152144}, {"type": "node", "id": 11180350601, "lat": 39.5368009, "lon": -105.0151493}, {"type": "node", "id": 11180350602, "lat": 39.5368651, "lon": -105.0153162}, {"type": "node", "id": 11180350603, "lat": 39.537094, "lon": -105.0154066}, {"type": "node", "id": 11180350604, "lat": 39.5367939, "lon": -105.015164}, {"type": "node", "id": 11180350605, "lat": 39.5367923, "lon": -105.0151782}, {"type": "node", "id": 11180350606, "lat": 39.5367988, "lon": -105.0151912}, {"type": "node", "id": 11180350607, "lat": 39.5373948, "lon": -105.0143602}, {"type": "node", "id": 11180350608, "lat": 39.5373628, "lon": -105.0142533}, {"type": "node", "id": 11180350609, "lat": 39.5373174, "lon": -105.0142157}, {"type": "node", "id": 11180350610, "lat": 39.5372471, "lon": -105.0141733}, {"type": "node", "id": 11180350611, "lat": 39.5371731, "lon": -105.0141367}, {"type": "node", "id": 11180350612, "lat": 39.5369299, "lon": -105.0140685}, {"type": "node", "id": 11180350613, "lat": 39.5370271, "lon": -105.0140879}, {"type": "node", "id": 11180350614, "lat": 39.5369244, "lon": -105.0141385}, {"type": "node", "id": 11180350615, "lat": 39.5370209, "lon": -105.0141501}, {"type": "node", "id": 12164069364, "lat": 39.5245011, "lon": -105.0026361}, {"type": "node", "id": 12164069365, "lat": 39.5245026, "lon": -105.0021272}, {"type": "node", "id": 12164069366, "lat": 39.5246013, "lon": -105.0020059}, {"type": "node", "id": 12164069367, "lat": 39.5246087, "lon": -105.0018553}, {"type": "node", "id": 12164069368, "lat": 39.5245425, "lon": -105.0016562}, {"type": "node", "id": 12164069369, "lat": 39.5244701, "lon": -105.001605}, {"type": "node", "id": 12164069370, "lat": 39.5233077, "lon": -105.0035767}, {"type": "node", "id": 12164069371, "lat": 39.5233735, "lon": -105.0036376}, {"type": "node", "id": 12164069374, "lat": 39.5236889, "lon": -105.0006861}, {"type": "node", "id": 12164069375, "lat": 39.5244683, "lon": -105.0014579}, {"type": "node", "id": 12187386863, "lat": 39.5360007, "lon": -105.0156863, "tags": {"amenity": "polling_station", "location": "outdoor", "opening_hours": "24/7", "polling_station": "ballot_box"}}, {"type": "node", "id": 12919653127, "lat": 39.5305219, "lon": -105.0246968}, {"type": "node", "id": 12919653128, "lat": 39.5304735, "lon": -105.0246588}, {"type": "node", "id": 12919653129, "lat": 39.5304979, "lon": -105.0245987}, {"type": "node", "id": 12919653130, "lat": 39.5305467, "lon": -105.0246368}, {"type": "way", "id": 51132934, "nodes": [652377944, 652377945, 652377946, 652377947, 652377948, 652377944], "tags": {"amenity": "parking"}}, {"type": "way", "id": 51133037, "nodes": [652378970, 8082384774, 652378972, 652378973, 652378974, 652378975, 652378976, 652378977, 652378978, 652378979, 652378980, 652378981, 652378982, 652378983, 652378984, 8082415736, 8082384781, 652378985, 8082384780, 8082384779, 652378986, 652378970], "tags": {"amenity": "school", "ele": "1741", "gnis:feature_id": "2439160", "name": "Coyote Creek Elementary School"}}, {"type": "way", "id": 51133043, "nodes": [652379029, 652379030, 8082415754, 652379031, 652379032, 652379033, 652379034, 8082415753, 8082415752, 8082415751, 8082413196, 8082415750, 8082415749, 8082415748, 8082415747, 8082415746, 8082415745, 8082415744, 8082415743, 8082415742, 652379035, 652379036, 652379037, 652379038, 652379039, 8082415741, 652379040, 8082415740, 652379041, 652379029], "tags": {"amenity": "parking"}}, {"type": "way", "id": 51133301, "nodes": [652380654, 652380655, 652380656, 652380657, 652380658, 652380654], "tags": {"amenity": "parking"}}, {"type": "way", "id": 51251910, "nodes": [653991875, 653991876, 653991877, 653991878, 653991879, 653991881, 653991882, 653991883, 653991884, 653991875], "tags": {"amenity": "school"}}, {"type": "way", "id": 51251932, "nodes": [653992394, 653992392, 653992391, 653992390, 653992389, 653992381, 653992388, 653992387, 653992386, 653992385, 653992395, 653992396, 653992397, 653992398, 653992399, 653992400, 653992401, 653992394], "tags": {"amenity": "parking"}}, {"type": "way", "id": 471856248, "nodes": [4660079636, 4660079637, 4660079638, 4660079639, 4660079636], "tags": {"addr:city": "Highlands Ranch", "addr:housenumber": "9800", "addr:postcode": "80129", "addr:state": "CO", "addr:street": "South Foothills Canyon Boulevard", "amenity": "place_of_worship", "building": "yes", "denomination": "mormon", "name": "LDS Stake Center", "religion": "christian"}}, {"type": "way", "id": 471856251, "nodes": [4660079640, 4660079641, 4660079642, 4660079643, 4660079644, 4660079645, 4660079646, 4660079647, 4660079648, 4660079649, 4660079650, 4660079651, 4660079652, 4660079653, 4660079654, 4660079655, 4660079656, 4660079657, 4660079658, 4660079659, 4660079660, 4660079661, 4660079640], "tags": {"addr:city": "Highlands Ranch", "addr:housenumber": "9800", "addr:postcode": "80129", "addr:state": "CO", "addr:street": "South Foothills Canyon Boulevard", "amenity": "place_of_worship", "building": "yes", "denomination": "mormon", "name": "LDS (Mormon) Church Building", "religion": "christian"}}, {"type": "way", "id": 483144672, "nodes": [4758972480, 4758972519, 4758972504, 4758972481, 4758972482, 4758972483, 4758972484, 4758972485, 4758972486, 6068917369, 4758972491, 6068917366, 4758972492, 4758972493, 4758972494, 4758972495, 4758972496, 4758972497, 4758972498, 4758972499, 4758972500, 4758972501, 4758972502, 4758972503, 4758972480], "tags": {"brand": "King Soopers", "brand:wikidata": "Q6412065", "building": "yes", "name": "King Soopers", "shop": "supermarket"}}, {"type": "way", "id": 483144677, "nodes": [4758972559, 4758972560, 4758972561, 4758972562, 4758972563, 4758972559], "tags": {"addr:city": "Highlands Ranch", "addr:housenumber": "2219", "addr:postcode": "80129", "addr:state": "CO", "addr:street": "Wildcat Reserve Parkway", "amenity": "bank", "brand": "First Bank", "brand:wikidata": "Q5452217", "building": "yes", "drive_through": "no", "name": "First Bank", "opening_hours": "Mo-Fr 09:00-18:00, Sa 09:00-12:00", "short_name": "1STBank"}}, {"type": "way", "id": 483144678, "nodes": [4758972564, 4758972565, 4758972566, 4758972567, 4758972564], "tags": {"addr:city": "Highlands Ranch", "addr:housenumber": "2215", "addr:postcode": "80129", "addr:state": "CO", "addr:street": "Wildcat Reserve Parkway", "amenity": "fuel", "brand": "King Soopers", "brand:wikidata": "Q6412065", "building": "yes", "name": "King Soopers Fuel Center"}}, {"type": "way", "id": 485611139, "nodes": [4783911548, 4783911529, 653992215, 653992214, 653992213, 653992212, 653992211, 653992210, 4783911549, 4783911550, 4783911551, 4783911552, 4783911553, 4783911554, 4783911555, 4783911556, 4783911557, 4783911558, 4783911559, 4783911560, 4783911561, 4783911562, 4783911563, 4783911564, 4783911565, 4783911566, 4783911567, 11180350498, 11180350497, 4783911548], "tags": {"amenity": "school"}}, {"type": "way", "id": 897250627, "nodes": [8339667735, 8339667736, 8339667737, 8339667738, 8339667735], "tags": {"amenity": "toilets", "building": "yes", "toilets:disposal": "pitlatrine"}}, {"type": "way", "id": 926070390, "nodes": [8594036658, 8594036659, 11180350531, 11180350533, 11180350534, 11180350532, 11180350530, 11180350535, 11180350536, 8594036660, 11180350537, 11180350538, 8594036674, 11180350539, 11180350540, 8594036675, 11180350541, 11180350542, 11180350543, 11180350546, 11180350547, 11180350545, 8594036676, 8594036677, 11180350544, 8594036678, 11180350551, 11180350550, 11180350549, 11180350548, 11180350552, 11180350553, 11180350556, 11180350557, 11180350555, 11180350554, 8594036679, 8594036673, 11180350558, 11180350559, 11180350560, 11180350584, 11180350583, 11180350582, 11180350563, 11180350566, 11180350567, 11180350565, 11180350564, 11180350562, 11180350570, 11180350571, 11180350569, 11180350568, 11180350572, 11180350573, 11180350576, 11180350575, 11180350574, 11180350561, 11180350577, 11180350579, 11180350581, 11180350580, 11180350578, 11180350585, 11180350586, 11180350587, 11180350588, 8594036668, 11180350612, 11180350614, 11180350615, 11180350613, 8594036672, 11180350611, 11180350610, 11180350609, 11180350608, 8594036670, 11180350607, 11180350589, 8594036671, 8594036669, 11180350590, 11180350591, 11180350592, 11180350593, 11180350594, 11180350595, 11180350597, 11180350598, 11180350596, 8594036667, 8594036666, 11180350601, 11180350604, 11180350605, 11180350606, 11180350600, 11180350599, 8594036682, 11180350603, 8594036681, 11180350602, 8594036665, 8594036661, 8594036664, 11180350516, 11180350517, 11180350518, 11180350519, 8594036663, 11180350520, 11180350521, 11180350522, 11180350523, 11180350524, 11180350525, 8594036662, 11180350527, 11180350526, 11180350529, 11180350528, 8594036658], "tags": {"amenity": "parking"}}, {"type": "way", "id": 1012927564, "nodes": [9345102110, 9345102111, 9345102112, 9345102113, 9345102110], "tags": {"amenity": "shelter", "building": "yes"}}, {"type": "way", "id": 1127648667, "nodes": [10309985669, 10309985668, 10309985673, 10309985674, 10309985672, 10309985671, 10309985670, 10309985669], "tags": {"amenity": "shelter", "building": "yes"}}, {"type": "way", "id": 1127661208, "nodes": [10310073004, 10310073005, 10310073006, 10310073007, 10310073008, 10310101709, 10310101710, 10310101711, 10310101712, 10310101713, 10310101714, 10310101715, 10310101716, 10310101717, 10310101718, 10310101719, 10310101720, 10310101721, 10310101722, 10310101723, 10310101724, 10310073004], "tags": {"amenity": "parking"}}, {"type": "way", "id": 1127661209, "nodes": [10310101725, 10310101726, 10310101727, 10310101728, 10310101729, 10310101730, 10310101731, 10310101725], "tags": {"amenity": "parking"}}, {"type": "way", "id": 1127661210, "nodes": [10310101732, 10310101733, 10310101734, 10310101735, 10310101736, 10310101737, 10310101738, 10310101739, 10310101740, 10310101741, 10310101742, 10310101743, 10310101744, 10310101745, 10310101746, 10310101747, 10310101748, 10310101749, 10310101750, 10310101751, 10310101752, 10310101753, 10310101754, 10310101755, 10310101756, 10310101732], "tags": {"amenity": "parking"}}, {"type": "way", "id": 1206530020, "nodes": [11180350463, 11180350464, 11180350465, 11180350466, 11180350467, 11180350468, 11180350469, 11180350470, 11180350471, 11180350472, 11180350473, 11180350474, 11180350475, 11180350476, 11180350463], "tags": {"amenity": "parking", "capacity:disabled": "3", "parking": "surface"}}, {"type": "way", "id": 1206530021, "nodes": [11180350477, 11180350478, 11180350479, 11180350480, 11180350481, 11180350482, 11180350483, 11180350484, 11180350485, 11180350486, 11180350487, 11180350488, 11180350489, 11180350490, 11180350491, 11180350492, 11180350493, 11180350477], "tags": {"amenity": "parking", "capacity:disabled": "6"}}, {"type": "way", "id": 1314212215, "nodes": [358952930, 12164069364, 12164069365, 12164069366, 12164069367, 12164069368, 12164069369, 12164069375, 4660017425, 12164069374, 4660017424, 12164069370, 12164069371, 358952930], "tags": {"amenity": "school", "ele": "1751", "gnis:feature_id": "2439203", "name": "Stone Mountain Elementary School"}}, {"type": "way", "id": 1395767132, "nodes": [12919653127, 12919653128, 12919653129, 12919653130, 12919653127], "tags": {"amenity": "shelter", "bin": "yes", "building": "yes", "lit": "no", "shelter_type": "picnic_shelter"}}]}