{"version": 0.6, "generator": "Overpass API 0.7.62.8 e802775f", "osm3s": {"timestamp_osm_base": "2025-12-07T00:36:31Z", "copyright": "The data included in this document is from www.openstreetmap.org. The data is made available under ODbL."}, "elements": [{"type": "node", "id": 48551885, "lat": 47.5905297, "lon": -122.7026174}, {"type": "node", "id": 48551887, "lat": 47.591427, "lon": -122.702554}, {"type": "node", "id": 356542655, "lat": 47.5984274, "lon": -122.7084789, "tags": {"amenity": "school", "ele": "12", "gnis:feature_id": "1514100", "name": "Bremerton Christian School"}}, {"type": "node", "id": 356542770, "lat": 47.5869491, "lon": -122.7185591, "tags": {"addr:city": "Bremerton", "addr:housenumber": "5088", "addr:postcode": "98312", "addr:state": "WA", "addr:street": "Northwest Taylor Road", "amenity": "school", "ele": "33", "gnis:feature_id": "1514245", "name": "Kitsap Seventh Day Adventist School"}}, {"type": "node", "id": 356549695, "lat": 47.5993103, "lon": -122.7092993}, {"type": "node", "id": 1858138093, "lat": 47.6000662, "lon": -122.7098374}, {"type": "node", "id": 1858138094, "lat": 47.6000621, "lon": -122.7099487}, {"type": "node", "id": 1858138095, "lat": 47.6000705, "lon": -122.7097183}, {"type": "node", "id": 1858138096, "lat": 47.6003158, "lon": -122.7097381}, {"type": "node", "id": 1858138097, "lat": 47.6003074, "lon": -122.7099686}, {"type": "node", "id": 3598774348, "lat": 47.5993407, "lon": -122.7073673}, {"type": "node", "id": 3598774349, "lat": 47.5998908, "lon": -122.7071246}, {"type": "node", "id": 4630859885, "lat": 47.5897561, "lon": -122.7137346}, {"type": "node", "id": 4630859886, "lat": 47.5896902, "lon": -122.713676}, {"type": "node", "id": 4630859887, "lat": 47.5897078, "lon": -122.7135489}, {"type": "node", "id": 4630859888, "lat": 47.5898, "lon": -122.7135066}, {"type": "node", "id": 4630871295, "lat": 47.5963957, "lon": -122.7096832}, {"type": "node", "id": 4630871296, "lat": 47.5964531, "lon": -122.7096826}, {"type": "node", "id": 4630871297, "lat": 47.5964544, "lon": -122.7099435}, {"type": "node", "id": 4630871298, "lat": 47.5962827, "lon": -122.7099453}, {"type": "node", "id": 4630871299, "lat": 47.5962805, "lon": -122.7094903}, {"type": "node", "id": 4630871300, "lat": 47.5963947, "lon": -122.7094891}, {"type": "node", "id": 4630871301, "lat": 47.5968083, "lon": -122.7087}, {"type": "node", "id": 4630871302, "lat": 47.596626, "lon": -122.7087}, {"type": "node", "id": 4630871303, "lat": 47.596626, "lon": -122.7084297}, {"type": "node", "id": 4630871304, "lat": 47.5968083, "lon": -122.7084297}, {"type": "node", "id": 4630871305, "lat": 47.5802588, "lon": -122.7051368}, {"type": "node", "id": 4630871306, "lat": 47.5804562, "lon": -122.7049391}, {"type": "node", "id": 4630871307, "lat": 47.5804748, "lon": -122.7049826}, {"type": "node", "id": 4630871308, "lat": 47.5804935, "lon": -122.7049687}, {"type": "node", "id": 4630871309, "lat": 47.5805535, "lon": -122.7051012}, {"type": "node", "id": 4630871310, "lat": 47.5805188, "lon": -122.7051329}, {"type": "node", "id": 4630871311, "lat": 47.5805442, "lon": -122.7051803}, {"type": "node", "id": 4630871312, "lat": 47.5804708, "lon": -122.7052574}, {"type": "node", "id": 4630871313, "lat": 47.5804602, "lon": -122.7052337}, {"type": "node", "id": 4630871314, "lat": 47.5803468, "lon": -122.7053385}, {"type": "node", "id": 4630871315, "lat": 47.5807322, "lon": -122.7044843}, {"type": "node", "id": 4630871316, "lat": 47.5803258, "lon": -122.7048672}, {"type": "node", "id": 4630871317, "lat": 47.5801393, "lon": -122.7044364}, {"type": "node", "id": 4630871318, "lat": 47.5802621, "lon": -122.7043195}, {"type": "node", "id": 4630871319, "lat": 47.5804261, "lon": -122.704166}, {"type": "node", "id": 4630871320, "lat": 47.5804628, "lon": -122.70417}, {"type": "node", "id": 4630871321, "lat": 47.5805095, "lon": -122.7042807}, {"type": "node", "id": 4630871322, "lat": 47.5806082, "lon": -122.7041898}, {"type": "node", "id": 4630871323, "lat": 47.5806127, "lon": -122.704202}, {"type": "node", "id": 4630871324, "lat": 47.5806389, "lon": -122.7041759}, {"type": "node", "id": 4630871325, "lat": 47.5807002, "lon": -122.7043143}, {"type": "node", "id": 4630871326, "lat": 47.5806727, "lon": -122.7043395}, {"type": "node", "id": 4630871327, "lat": 47.5804361, "lon": -122.7041932}, {"type": "node", "id": 4636766536, "lat": 47.5952072, "lon": -122.7097901}, {"type": "node", "id": 4636766537, "lat": 47.595206, "lon": -122.7096879}, {"type": "node", "id": 4636766538, "lat": 47.5951969, "lon": -122.7096879}, {"type": "node", "id": 4636766539, "lat": 47.5951966, "lon": -122.7096505}, {"type": "node", "id": 4636766540, "lat": 47.5952265, "lon": -122.7096505}, {"type": "node", "id": 4636766541, "lat": 47.5952269, "lon": -122.7096657}, {"type": "node", "id": 4636766542, "lat": 47.5952906, "lon": -122.7096663}, {"type": "node", "id": 4636766543, "lat": 47.5952914, "lon": -122.7097901}, {"type": "node", "id": 4636766544, "lat": 47.5952603, "lon": -122.7097906}, {"type": "node", "id": 4636766545, "lat": 47.5952599, "lon": -122.7097702}, {"type": "node", "id": 4636766546, "lat": 47.5952292, "lon": -122.7097702}, {"type": "node", "id": 4636766547, "lat": 47.5952292, "lon": -122.7097901}, {"type": "node", "id": 4636766556, "lat": 47.5959577, "lon": -122.7088033}, {"type": "node", "id": 4636766557, "lat": 47.5956936, "lon": -122.7088168}, {"type": "node", "id": 4636766558, "lat": 47.5956982, "lon": -122.708967}, {"type": "node", "id": 4636766559, "lat": 47.5958266, "lon": -122.7089589}, {"type": "node", "id": 4636766560, "lat": 47.5958264, "lon": -122.7089366}, {"type": "node", "id": 4636766561, "lat": 47.5959008, "lon": -122.7089354}, {"type": "node", "id": 4636766562, "lat": 47.5959002, "lon": -122.7089175}, {"type": "node", "id": 4636766563, "lat": 47.5959579, "lon": -122.7089167}, {"type": "node", "id": 4636766564, "lat": 47.5963576, "lon": -122.7089633}, {"type": "node", "id": 4636766565, "lat": 47.596326, "lon": -122.7088681}, {"type": "node", "id": 4636766566, "lat": 47.5962817, "lon": -122.7088976}, {"type": "node", "id": 4636766567, "lat": 47.5963151, "lon": -122.7089928}, {"type": "node", "id": 4636766568, "lat": 47.5959327, "lon": -122.7087967}, {"type": "node", "id": 4636766569, "lat": 47.5958351, "lon": -122.7088021}, {"type": "node", "id": 4636766570, "lat": 47.5958333, "lon": -122.7086277}, {"type": "node", "id": 4636766571, "lat": 47.5957808, "lon": -122.7086291}, {"type": "node", "id": 4636766572, "lat": 47.5957799, "lon": -122.7085701}, {"type": "node", "id": 4636766573, "lat": 47.5958323, "lon": -122.7085687}, {"type": "node", "id": 4636766574, "lat": 47.5958323, "lon": -122.7085567}, {"type": "node", "id": 4636766575, "lat": 47.5959291, "lon": -122.708554}, {"type": "node", "id": 4636766576, "lat": 47.5960799, "lon": -122.7083667}, {"type": "node", "id": 4636766577, "lat": 47.5958922, "lon": -122.7083804}, {"type": "node", "id": 4636766578, "lat": 47.5958904, "lon": -122.7083211}, {"type": "node", "id": 4636766579, "lat": 47.5958656, "lon": -122.708323}, {"type": "node", "id": 4636766580, "lat": 47.5958602, "lon": -122.708182}, {"type": "node", "id": 4636766581, "lat": 47.5958933, "lon": -122.7081798}, {"type": "node", "id": 4636766582, "lat": 47.5958911, "lon": -122.7081208}, {"type": "node", "id": 4636766583, "lat": 47.5959477, "lon": -122.708116}, {"type": "node", "id": 4636766584, "lat": 47.5959472, "lon": -122.7081034}, {"type": "node", "id": 4636766585, "lat": 47.5960091, "lon": -122.7080972}, {"type": "node", "id": 4636766586, "lat": 47.5960098, "lon": -122.7081103}, {"type": "node", "id": 4636766587, "lat": 47.5960612, "lon": -122.708106}, {"type": "node", "id": 4636766588, "lat": 47.5960639, "lon": -122.7081664}, {"type": "node", "id": 4636766589, "lat": 47.5960774, "lon": -122.7081651}, {"type": "node", "id": 4636766590, "lat": 47.5960778, "lon": -122.7083328}, {"type": "node", "id": 4636766591, "lat": 47.5960843, "lon": -122.708332}, {"type": "node", "id": 4636766592, "lat": 47.5965809, "lon": -122.7098108}, {"type": "node", "id": 4636766593, "lat": 47.5965094, "lon": -122.7098108}, {"type": "node", "id": 4636766594, "lat": 47.5965094, "lon": -122.709665}, {"type": "node", "id": 4636766595, "lat": 47.5965794, "lon": -122.709665}, {"type": "node", "id": 4636766596, "lat": 47.5965645, "lon": -122.7087792}, {"type": "node", "id": 4636766597, "lat": 47.5964766, "lon": -122.7086554}, {"type": "node", "id": 4636766598, "lat": 47.5963664, "lon": -122.7088344}, {"type": "node", "id": 4636766599, "lat": 47.5964498, "lon": -122.7089559}, {"type": "node", "id": 4636766711, "lat": 47.5899837, "lon": -122.7017162}, {"type": "node", "id": 4636766712, "lat": 47.5899375, "lon": -122.7017198}, {"type": "node", "id": 4636766713, "lat": 47.5899145, "lon": -122.7017584}, {"type": "node", "id": 4636766714, "lat": 47.5898752, "lon": -122.7019767}, {"type": "node", "id": 4636766715, "lat": 47.5898727, "lon": -122.7021187}, {"type": "node", "id": 4636766716, "lat": 47.5899046, "lon": -122.7022387}, {"type": "node", "id": 4636766717, "lat": 47.589939, "lon": -122.7022933}, {"type": "node", "id": 4636766718, "lat": 47.5901666, "lon": -122.7023835}, {"type": "node", "id": 4636766719, "lat": 47.5911814, "lon": -122.7019312}, {"type": "node", "id": 4636766720, "lat": 47.5904084, "lon": -122.7017493}, {"type": "node", "id": 4636766721, "lat": 47.5903838, "lon": -122.7018657}, {"type": "node", "id": 4636819359, "lat": 47.5858724, "lon": -122.7184276, "tags": {"addr:city": "Bremerton", "addr:housenumber": "4949", "addr:postcode": "98312", "addr:state": "WA", "addr:street": "Northwest Taylor Road", "amenity": "place_of_worship", "denomination": "seventh_day_adventist", "name": "Bremerton Seventh-Day Adventist Church", "religion": "christian"}}, {"type": "node", "id": 4636819360, "lat": 47.58766, "lon": -122.7185477, "tags": {"addr:city": "Bremerton", "addr:housenumber": "5112", "addr:postcode": "98312", "addr:state": "WA", "addr:street": "Northwest Taylor Road", "amenity": "social_facility", "name": "Holly Ridge Center", "social_facility:for": "disabled"}}, {"type": "node", "id": 4636819361, "lat": 47.5887349, "lon": -122.7192028, "tags": {"addr:city": "Bremerton", "addr:housenumber": "2075", "addr:postcode": "98312", "addr:state": "WA", "addr:street": "Seabeck Highway Northwest", "landuse": "plant_nursery", "name": "Rodgers Country Nursery & Gardens", "shop": "garden_centre"}}, {"type": "node", "id": 5623170979, "lat": 47.5809064, "lon": -122.7054413}, {"type": "node", "id": 5623170980, "lat": 47.5809066, "lon": -122.7047562}, {"type": "node", "id": 5623170981, "lat": 47.5806968, "lon": -122.7047936}, {"type": "node", "id": 5623170982, "lat": 47.5806259, "lon": -122.7047165}, {"type": "node", "id": 5623170983, "lat": 47.5804479, "lon": -122.7048823}, {"type": "node", "id": 5623170984, "lat": 47.5801418, "lon": -122.7051451}, {"type": "node", "id": 5623170985, "lat": 47.5802808, "lon": -122.7054245}, {"type": "node", "id": 5623170986, "lat": 47.5805712, "lon": -122.7052289}, {"type": "node", "id": 5623170987, "lat": 47.580488, "lon": -122.7053067}, {"type": "node", "id": 5623170988, "lat": 47.5803597, "lon": -122.7054567}, {"type": "node", "id": 5623170989, "lat": 47.5803433, "lon": -122.7053778}, {"type": "node", "id": 5623171075, "lat": 47.5816751, "lon": -122.7025303}, {"type": "node", "id": 5623171076, "lat": 47.5822179, "lon": -122.702533}, {"type": "node", "id": 5623171077, "lat": 47.581676, "lon": -122.7021253}, {"type": "node", "id": 5623171078, "lat": 47.5822188, "lon": -122.702128}, {"type": "node", "id": 5623340299, "lat": 47.5854167, "lon": -122.7059197}, {"type": "node", "id": 5623340306, "lat": 47.5850766, "lon": -122.7053727}, {"type": "node", "id": 5623340307, "lat": 47.5851081, "lon": -122.7053727}, {"type": "node", "id": 5623340308, "lat": 47.5851078, "lon": -122.706024}, {"type": "node", "id": 5623340309, "lat": 47.5852087, "lon": -122.7060241}, {"type": "node", "id": 5623340310, "lat": 47.5852088, "lon": -122.7059195}, {"type": "node", "id": 5623340311, "lat": 47.5854922, "lon": -122.7053459}, {"type": "node", "id": 5623340312, "lat": 47.5854167, "lon": -122.7053419}, {"type": "node", "id": 5623340313, "lat": 47.5850309, "lon": -122.7053734}, {"type": "node", "id": 5623340314, "lat": 47.585035, "lon": -122.7061326}, {"type": "node", "id": 5623340315, "lat": 47.5855649, "lon": -122.7061153}, {"type": "node", "id": 5623340316, "lat": 47.5855293, "lon": -122.7059405}, {"type": "node", "id": 5623340317, "lat": 47.5855114, "lon": -122.7057372}, {"type": "node", "id": 5623340318, "lat": 47.5854957, "lon": -122.7055136}, {"type": "node", "id": 5623340326, "lat": 47.5853279, "lon": -122.706123}, {"type": "node", "id": 6965618400, "lat": 47.5908345, "lon": -122.7025959}, {"type": "node", "id": 6965618402, "lat": 47.5906289, "lon": -122.7026104}, {"type": "node", "id": 7281224448, "lat": 47.5801125, "lon": -122.7176383}, {"type": "node", "id": 7281224449, "lat": 47.5803566, "lon": -122.717698}, {"type": "node", "id": 7281224450, "lat": 47.5805852, "lon": -122.7181663}, {"type": "node", "id": 7281224451, "lat": 47.5806891, "lon": -122.7186223}, {"type": "node", "id": 7281224452, "lat": 47.5802818, "lon": -122.7187517}, {"type": "node", "id": 7281224453, "lat": 47.5801321, "lon": -122.7185977}, {"type": "node", "id": 7281224454, "lat": 47.5800573, "lon": -122.7182218}, {"type": "node", "id": 7281224455, "lat": 47.5800365, "lon": -122.7178582}, {"type": "node", "id": 11872410662, "lat": 47.5868209, "lon": -122.7021765}, {"type": "node", "id": 11872410663, "lat": 47.5867854, "lon": -122.7021906}, {"type": "node", "id": 11872410664, "lat": 47.5867781, "lon": -122.7021504}, {"type": "node", "id": 11872410665, "lat": 47.5868137, "lon": -122.7021363}, {"type": "node", "id": 13317058518, "lat": 47.5998815, "lon": -122.707287}, {"type": "node", "id": 13317058519, "lat": 47.6007169, "lon": -122.7072903}, {"type": "node", "id": 13317058520, "lat": 47.6007011, "lon": -122.7093629}, {"type": "way", "id": 175178126, "nodes": [1858138096, 1858138095, 1858138093, 1858138094, 1858138097, 1858138096], "tags": {"addr:city": "Bremerton", "addr:housenumber": "4065", "addr:postcode": "98312", "addr:street": "Chico Way Northwest", "amenity": "fire_station", "building": "yes", "name": "Station 64 - Chico"}}, {"type": "way", "id": 468562514, "nodes": [4630859885, 4630859886, 4630859887, 4630859888, 4630859885], "tags": {"addr:city": "Bremerton", "addr:housenumber": "1815", "addr:postcode": "98312", "addr:state": "WA", "addr:street": "Seabeck Highway Northwest", "building": "yes", "name": "Triangle Import Repair", "opening_hours": "Mo-Fr 08:00-17:00", "shop": "car_repair"}}, {"type": "way", "id": 468563471, "nodes": [4630871295, 4630871296, 4630871297, 4630871298, 4630871299, 4630871300, 4630871295], "tags": {"addr:city": "Bremerton", "addr:housenumber": "3629", "addr:postcode": "98312", "addr:state": "WA", "addr:street": "Chico Way Northwest", "building": "yes", "name": "Hank's Grocery", "opening_hours": "Mo-Sa 06:00-23:00; Su 06:00-22:00", "shop": "convenience"}}, {"type": "way", "id": 468563472, "nodes": [4630871301, 4630871302, 4630871303, 4630871304, 4630871301], "tags": {"addr:city": "Bremerton", "addr:housenumber": "3600", "addr:postcode": "98312", "addr:state": "WA", "addr:street": "Chico Way Northwest", "building": "yes", "opening_hours": "09:00-17:00", "shop": "convenience"}}, {"type": "way", "id": 468563473, "nodes": [4630871305, 4630871306, 4630871307, 4630871308, 4630871309, 4630871310, 4630871311, 4630871312, 4630871313, 4630871314, 4630871305], "tags": {"addr:city": "Bremerton", "addr:housenumber": "6812", "addr:postcode": "98312", "addr:state": "WA", "addr:street": "Kitsap Way", "amenity": "bar", "building": "yes", "contact:phone": "+1 360-377-2116", "name": "The Garage Bar & Grill", "opening_hours": "06:00-02:00", "outdoor_seating": "patio", "smoking": "outside"}}, {"type": "way", "id": 468563474, "nodes": [4630871319, 4630871327, 4630871320, 4630871321, 4630871322, 4630871323, 4630871324, 4630871325, 4630871326]}, {"type": "way", "id": 468563475, "nodes": [4630871326, 4630871315, 4630871316, 4630871317, 4630871318, 4630871319]}, {"type": "way", "id": 469327837, "nodes": [4636766536, 4636766537, 4636766538, 4636766539, 4636766540, 4636766541, 4636766542, 4636766543, 4636766544, 4636766545, 4636766546, 4636766547, 4636766536], "tags": {"addr:city": "Bremerton", "addr:housenumber": "3523", "addr:postcode": "98312", "addr:state": "WA", "addr:street": "Chico Way Northwest", "amenity": "restaurant", "building": "yes", "cuisine": "pizza", "delivery": "yes", "name": "Seabeck Pizza", "opening_hours": "Su-Th 11:00-20:300; Fr-Sa 11:00-21:00", "outdoor_seating": "no", "smoking": "no", "takeaway": "yes"}}, {"type": "way", "id": 469327839, "nodes": [4636766556, 4636766557, 4636766558, 4636766559, 4636766560, 4636766561, 4636766562, 4636766563, 4636766556], "tags": {"addr:city": "Bremerton", "addr:housenumber": "3420", "addr:postcode": "98312", "addr:state": "WA", "addr:street": "Chico Way Northwest", "building": "yes", "name": "Town & Country Auto Repair", "opening_hours": "Mo-Fr 07:00-17:00", "shop": "car_repair"}}, {"type": "way", "id": 469327840, "nodes": [4636766564, 4636766565, 4636766566, 4636766567, 4636766564], "tags": {"addr:city": "Bremerton", "addr:housenumber": "3588", "addr:postcode": "98312", "addr:state": "WA", "addr:street": "Chico Way Northwest", "amenity": "cafe", "building": "yes", "cuisine": "coffee_shop", "name": "Sugar Shack", "opening_hours": "Mo-Fr 05:30-18:00; Sa 06:00-18:00; Su 07:00-14:00"}}, {"type": "way", "id": 469327841, "nodes": [4636766568, 4636766569, 4636766570, 4636766571, 4636766572, 4636766573, 4636766574, 4636766575, 4636766568], "tags": {"addr:city": "Bremerton", "addr:housenumber": "2165", "addr:postcode": "98312", "addr:state": "WA", "addr:street": "Erlands Point Road Northwest", "building": "yes", "name": "DC Engineering", "phone": "+1-360-377-6111", "shop": "car_parts"}}, {"type": "way", "id": 469327842, "nodes": [4636766576, 4636766577, 4636766578, 4636766579, 4636766580, 4636766581, 4636766582, 4636766583, 4636766584, 4636766585, 4636766586, 4636766587, 4636766588, 4636766589, 4636766591, 4636766590, 4636766576], "tags": {"addr:city": "Bremerton", "addr:housenumber": "2171", "addr:postcode": "98312", "addr:state": "WA", "addr:street": "Erlands Point Road Northwest", "amenity": "bar", "building": "yes", "name": "The 19th Hole Bar & Grill", "opening_hours": "Mo-Fr 11:00-02:00; Sa-Su 08:00-02:00"}}, {"type": "way", "id": 469327843, "nodes": [4636766592, 4636766593, 4636766594, 4636766595, 4636766592], "tags": {"amenity": "fuel", "building": "roof", "name": "Hank's"}}, {"type": "way", "id": 469327844, "nodes": [4636766596, 4636766597, 4636766598, 4636766599, 4636766596], "tags": {"amenity": "fuel", "building": "roof"}}, {"type": "way", "id": 469327850, "nodes": [4636766711, 4636766712, 4636766713, 4636766714, 4636766715, 4636766716, 4636766717, 4636766718, 48551885, 6965618402, 6965618400, 48551887, 4636766719, 4636766720, 4636766721, 4636766711], "tags": {"amenity": "parking"}}, {"type": "way", "id": 588803729, "nodes": [5623170979, 5623170980, 5623170981, 5623170982, 5623170983, 5623170984, 5623170985, 4630871314, 4630871305, 4630871306, 4630871308, 4630871309, 4630871311, 5623170986, 5623170987, 5623170989, 5623170988, 5623170979], "tags": {"amenity": "parking"}}, {"type": "way", "id": 588803747, "nodes": [5623171076, 5623171078, 5623171077, 5623171075, 5623171076], "tags": {"building": "yes", "name": "Puget Sound Energy", "office": "energy_supplier"}}, {"type": "way", "id": 588821200, "nodes": [5623340311, 5623340312, 5623340299, 5623340310, 5623340309, 5623340308, 5623340307, 5623340306, 5623340313, 5623340314, 5623340326, 5623340315, 5623340316, 5623340317, 5623340318, 5623340311], "tags": {"amenity": "parking"}}, {"type": "way", "id": 779732500, "nodes": [7281224448, 7281224449, 7281224450, 7281224451, 7281224452, 7281224453, 7281224454, 7281224455, 7281224448], "tags": {"amenity": "parking", "parking": "surface", "surface": "unpaved"}}, {"type": "way", "id": 1278863591, "nodes": [11872410662, 11872410663, 11872410664, 11872410665, 11872410662], "tags": {"amenity": "toilets", "building": "yes"}}, {"type": "way", "id": 1452039455, "nodes": [356549695, 3598774348, 3598774349, 13317058518, 13317058519, 13317058520, 356549695], "tags": {"amenity": "school", "education": "school", "ele": "13", "gnis:feature_id": "1533436", "name": "Chico Elementary School", "toilets:wheelchair": "yes", "wheelchair": "yes"}}, {"type": "relation", "id": 6907998, "members": [{"type": "way", "ref": 468563474, "role": "outer"}, {"type": "way", "ref": 468563475, "role": "outer"}], "tags": {"addr:city": "Bremerton", "addr:housenumber": "6724", "addr:postcode": "98312", "addr:state": "WA", "addr:street": "Kitsap Way", "building": "yes", "name": "Red Apple Markets", "opening_hours": "06:00-23:00", "shop": "supermarket", "type": "multipolygon"}}]}