{"version": 0.6, "generator": "Overpass API 0.7.62.8 e802775f", "osm3s": {"timestamp_osm_base": "2025-12-07T00:07:35Z", "copyright": "The data included in this document is from www.openstreetmap.org. The data is made available under ODbL."}, "elements": [{"type": "node", "id": 5413679180, "lat": 47.0426202, "lon": -124.1566618}, {"type": "node", "id": 5413679181, "lat": 47.0425225, "lon": -124.15665}, {"type": "node", "id": 5413679182, "lat": 47.042506, "lon": -124.1569459}, {"type": "node", "id": 5413679183, "lat": 47.0424551, "lon": -124.1569398}, {"type": "node", "id": 5413679184, "lat": 47.0424523, "lon": -124.1569903}, {"type": "node", "id": 5413679185, "lat": 47.0422964, "lon": -124.1569715}, {"type": "node", "id": 5413679186, "lat": 47.0422864, "lon": -124.1571465}, {"type": "node", "id": 5413679187, "lat": 47.0427039, "lon": -124.1571968}, {"type": "node", "id": 5413679188, "lat": 47.042714, "lon": -124.1570162}, {"type": "node", "id": 5413679189, "lat": 47.0426011, "lon": -124.1570026}, {"type": "node", "id": 5413679190, "lat": 47.0422937, "lon": -124.1570274}, {"type": "node", "id": 5413679193, "lat": 47.0422892, "lon": -124.1570967}, {"type": "node", "id": 5413679210, "lat": 47.0422444, "lon": -124.1571503}, {"type": "node", "id": 5413679212, "lat": 47.0425074, "lon": -124.1569194}, {"type": "node", "id": 5413679213, "lat": 47.0425192, "lon": -124.1567089}, {"type": "node", "id": 5413679214, "lat": 47.0424918, "lon": -124.1567004}, {"type": "node", "id": 5413679215, "lat": 47.0424918, "lon": -124.1566294}, {"type": "node", "id": 5413679216, "lat": 47.0421412, "lon": -124.15659}, {"type": "node", "id": 5413679217, "lat": 47.0421434, "lon": -124.156953}, {"type": "node", "id": 5413679218, "lat": 47.042423, "lon": -124.1569868}, {"type": "node", "id": 5413679219, "lat": 47.0424299, "lon": -124.1569135}, {"type": "node", "id": 5413679220, "lat": 47.0422288, "lon": -124.1571517}, {"type": "node", "id": 5413679721, "lat": 47.0422282, "lon": -124.1569737}, {"type": "node", "id": 5413679722, "lat": 47.0421699, "lon": -124.1569741}, {"type": "node", "id": 5413679723, "lat": 47.0421705, "lon": -124.1571522}, {"type": "node", "id": 5413679724, "lat": 47.0421756, "lon": -124.1572587}, {"type": "node", "id": 5413679725, "lat": 47.0427026, "lon": -124.1573091}, {"type": "node", "id": 5413679727, "lat": 47.043637, "lon": -124.1583303}, {"type": "node", "id": 5413679728, "lat": 47.0435748, "lon": -124.1583216}, {"type": "node", "id": 5413679729, "lat": 47.0435891, "lon": -124.1580999}, {"type": "node", "id": 5413679730, "lat": 47.0436513, "lon": -124.1581085}, {"type": "node", "id": 5413679731, "lat": 47.0439434, "lon": -124.1580515}, {"type": "node", "id": 5413679751, "lat": 47.0436598, "lon": -124.1579982}, {"type": "node", "id": 5413679758, "lat": 47.0431735, "lon": -124.1547571}, {"type": "node", "id": 5413679759, "lat": 47.0431626, "lon": -124.1546448}, {"type": "node", "id": 5413679760, "lat": 47.0430508, "lon": -124.1546682}, {"type": "node", "id": 5413679761, "lat": 47.0430617, "lon": -124.1547805}, {"type": "node", "id": 5413679762, "lat": 47.0430297, "lon": -124.1550309}, {"type": "node", "id": 5413679763, "lat": 47.0429029, "lon": -124.1550466}, {"type": "node", "id": 5413679764, "lat": 47.0428869, "lon": -124.1548742}, {"type": "node", "id": 5413679765, "lat": 47.0429603, "lon": -124.1548663}, {"type": "node", "id": 5413679766, "lat": 47.0429563, "lon": -124.154835}, {"type": "node", "id": 5413679767, "lat": 47.0430137, "lon": -124.1548272}, {"type": "node", "id": 5413679792, "lat": 47.0430858, "lon": -124.1535272}, {"type": "node", "id": 5413679793, "lat": 47.0430839, "lon": -124.1533396}, {"type": "node", "id": 5413679794, "lat": 47.0428362, "lon": -124.153345}, {"type": "node", "id": 5413679795, "lat": 47.0428381, "lon": -124.1535326}, {"type": "node", "id": 5413679817, "lat": 47.0438857, "lon": -124.155967}, {"type": "node", "id": 5413679818, "lat": 47.0438013, "lon": -124.1558147}, {"type": "node", "id": 5413679819, "lat": 47.0441395, "lon": -124.1554115}, {"type": "node", "id": 5413679820, "lat": 47.0442238, "lon": -124.1555637}, {"type": "node", "id": 5413679940, "lat": 47.0442816, "lon": -124.1564046}, {"type": "node", "id": 5413679941, "lat": 47.0442093, "lon": -124.156264}, {"type": "node", "id": 5413679942, "lat": 47.0440726, "lon": -124.1564153}, {"type": "node", "id": 5413679943, "lat": 47.0441448, "lon": -124.1565559}, {"type": "node", "id": 5413679945, "lat": 47.0443786, "lon": -124.1563826}, {"type": "node", "id": 5413679948, "lat": 47.0439409, "lon": -124.1565189}, {"type": "node", "id": 5413679949, "lat": 47.0440512, "lon": -124.1563983}, {"type": "node", "id": 5413679950, "lat": 47.0441498, "lon": -124.1565924}, {"type": "node", "id": 5413679951, "lat": 47.0440394, "lon": -124.1567131}, {"type": "node", "id": 5413679957, "lat": 47.0441903, "lon": -124.1561376}, {"type": "node", "id": 5413679958, "lat": 47.0438994, "lon": -124.1561359}, {"type": "node", "id": 5413679959, "lat": 47.0438255, "lon": -124.1562113}, {"type": "node", "id": 5413679960, "lat": 47.0439007, "lon": -124.15637}, {"type": "node", "id": 5413679961, "lat": 47.0439746, "lon": -124.1562946}, {"type": "node", "id": 5413679962, "lat": 47.0440584, "lon": -124.1563906}, {"type": "node", "id": 5413679963, "lat": 47.0440213, "lon": -124.1563142}, {"type": "node", "id": 5413679964, "lat": 47.0441776, "lon": -124.1560816}, {"type": "node", "id": 5413679965, "lat": 47.0443192, "lon": -124.1559336}, {"type": "node", "id": 5413679966, "lat": 47.0443744, "lon": -124.1560847}, {"type": "node", "id": 5413679970, "lat": 47.0444947, "lon": -124.1563407}, {"type": "node", "id": 5413679971, "lat": 47.0442226, "lon": -124.1562383}, {"type": "node", "id": 5413679972, "lat": 47.0443189, "lon": -124.1564431}, {"type": "node", "id": 5413679973, "lat": 47.0444027, "lon": -124.1564338}, {"type": "node", "id": 5413679979, "lat": 47.0444475, "lon": -124.1563884}, {"type": "node", "id": 5413679983, "lat": 47.0444312, "lon": -124.1570636}, {"type": "node", "id": 5413679984, "lat": 47.0444952, "lon": -124.1569953}, {"type": "node", "id": 5413679985, "lat": 47.0444862, "lon": -124.1569772}, {"type": "node", "id": 5413679986, "lat": 47.044505, "lon": -124.1569571}, {"type": "node", "id": 5413679987, "lat": 47.0444079, "lon": -124.1567612}, {"type": "node", "id": 5413679988, "lat": 47.0443252, "lon": -124.1568495}, {"type": "node", "id": 5413679989, "lat": 47.0443801, "lon": -124.1570776}, {"type": "node", "id": 5413679990, "lat": 47.0443357, "lon": -124.1571276}, {"type": "node", "id": 5413679991, "lat": 47.0442471, "lon": -124.1569579}, {"type": "node", "id": 5413679992, "lat": 47.0443238, "lon": -124.1568716}, {"type": "node", "id": 5413679993, "lat": 47.0443595, "lon": -124.1569399}, {"type": "node", "id": 5413679994, "lat": 47.0443272, "lon": -124.1569763}, {"type": "node", "id": 5413680003, "lat": 47.0421424, "lon": -124.1567827}, {"type": "node", "id": 7747111085, "lat": 47.0427285, "lon": -124.1590159, "tags": {"check_date": "2025-08-29", "name": "Q Mart", "opening_hours": "06:00-21:00", "shop": "tobacco"}}, {"type": "node", "id": 7747111185, "lat": 47.0446897, "lon": -124.1572217, "tags": {"check_date": "2025-08-29", "name": "Dependable Glass & Screens", "shop": "hardware"}}, {"type": "node", "id": 7747111186, "lat": 47.0436278, "lon": -124.1534756, "tags": {"check_date": "2025-08-29", "name": "North Beach RV", "shop": "caravan"}}, {"type": "node", "id": 13107700039, "lat": 47.0429606, "lon": -124.1537683, "tags": {"check_date": "2025-08-29", "name": "Speedworx Auto Group", "shop": "car"}}, {"type": "node", "id": 13107700040, "lat": 47.0429602, "lon": -124.1536784, "tags": {"check_date": "2025-08-29", "name": "No No's Towing", "shop": "car_repair"}}, {"type": "way", "id": 561430043, "nodes": [5413679180, 5413679181, 5413679213, 5413679212, 5413679182, 5413679183, 5413679184, 5413679218, 5413679185, 5413679190, 5413679193, 5413679186, 5413679187, 5413679188, 5413679189, 5413679180], "tags": {"addr:city": "Hoquiam", "addr:housenumber": "15", "addr:postcode": "98550", "addr:state": "WA", "addr:street": "Patrick Way", "amenity": "place_of_worship", "building": "yes", "denomination": "roman_catholic", "name": "St. Jerome Church", "religion": "christian", "service_times": "Sa 17:00; Su 11:00; Tu,Th 9:00", "website": "https://www.ghcatholic.org/stjerome.html"}}, {"type": "way", "id": 561430049, "nodes": [5413679212, 5413679213, 5413679214, 5413679215, 5413679216, 5413680003, 5413679217, 5413679185, 5413679218, 5413679219, 5413679212], "tags": {"access": "private", "amenity": "parking"}}, {"type": "way", "id": 561430050, "nodes": [5413679220, 5413679721, 5413679722, 5413679723, 5413679220], "tags": {"access": "private", "amenity": "parking"}}, {"type": "way", "id": 561430051, "nodes": [5413679724, 5413679723, 5413679210, 5413679186, 5413679187, 5413679725, 5413679724], "tags": {"access": "private", "amenity": "parking"}}, {"type": "way", "id": 561430052, "nodes": [5413679727, 5413679728, 5413679729, 5413679730, 5413679727], "tags": {"amenity": "parking", "parking": "surface"}}, {"type": "way", "id": 561430060, "nodes": [5413679731, 5413679751, 5413679727, 5413679731], "tags": {"amenity": "parking"}}, {"type": "way", "id": 561430064, "nodes": [5413679758, 5413679759, 5413679760, 5413679761, 5413679758], "tags": {"addr:city": "Hoquiam", "addr:housenumber": "2275", "addr:postcode": "98550", "addr:state": "WA", "addr:street": "State Route 109", "amenity": "fuel", "brand": "Sinclair", "brand:wikidata": "Q1290900", "building": "roof", "check_date": "2025-08-29", "name": "Sinclair", "website": "https://www.76.com/station/U76-HOQUIAM-76-0000894646/"}}, {"type": "way", "id": 561430065, "nodes": [5413679762, 5413679763, 5413679764, 5413679765, 5413679766, 5413679767, 5413679762], "tags": {"building": "yes", "name": "Food Mart", "shop": "convenience"}}, {"type": "way", "id": 561430070, "nodes": [5413679792, 5413679793, 5413679794, 5413679795, 5413679792], "tags": {"addr:city": "Hoquiam", "addr:housenumber": "22", "addr:postcode": "98550", "addr:state": "WA", "addr:street": "Hale Avenue", "brand": "NAPA Auto Parts", "brand:wikidata": "Q6970842", "building": "yes", "name": "NAPA Auto Parts", "opening_hours": "Mo-Fr 08:00-18:00; Sa 08:00-17:00; Su 09:00-16:00", "operator": "Harbor Auto & Truck Parts", "shop": "car_parts"}}, {"type": "way", "id": 561430077, "nodes": [5413679817, 5413679818, 5413679819, 5413679820, 5413679817], "tags": {"addr:city": "Hoquiam", "addr:housenumber": "2280", "addr:postcode": "98550", "addr:state": "WA", "addr:street": "State Route 109", "building": "yes", "name": "North Coast Mini-Storage", "shop": "storage_rental"}}, {"type": "way", "id": 561430084, "nodes": [5413679940, 5413679941, 5413679942, 5413679943, 5413679940], "tags": {"addr:city": "Hoquiam", "addr:housenumber": "2294", "addr:postcode": "98550", "addr:state": "WA", "addr:street": "State Route 109", "building": "yes", "building:levels": "1", "check_date": "2025-08-29", "name": "The Weed Shack", "opening_hours": "Su-Th 09:00-19:00; Fr-Sa 09:00-21:00", "shop": "cannabis", "website": "http://www.theweedshack502.com/"}}, {"type": "way", "id": 561430087, "nodes": [5413679948, 5413679949, 5413679950, 5413679951, 5413679948], "tags": {"amenity": "parking"}}, {"type": "way", "id": 561430089, "nodes": [5413679958, 5413679959, 5413679960, 5413679961, 5413679958], "tags": {"amenity": "parking"}}, {"type": "way", "id": 561430090, "nodes": [5413679962, 5413679963, 5413679957, 5413679964, 5413679965, 5413679966, 5413679971, 5413679962], "tags": {"amenity": "parking"}}, {"type": "way", "id": 561430092, "nodes": [5413679970, 5413679966, 5413679971, 5413679972, 5413679945, 5413679973, 5413679979, 5413679970], "tags": {"amenity": "parking"}}, {"type": "way", "id": 561430096, "nodes": [5413679983, 5413679984, 5413679985, 5413679986, 5413679987, 5413679988, 5413679983], "tags": {"building": "yes", "check_date": "2025-08-29", "name": "Food Mart", "shop": "convenience"}}, {"type": "way", "id": 561430097, "nodes": [5413679989, 5413679990, 5413679991, 5413679992, 5413679993, 5413679994, 5413679989], "tags": {"addr:city": "Hoquiam", "addr:housenumber": "2298", "addr:postcode": "98550", "addr:state": "WA", "addr:street": "State Route 109", "amenity": "fuel", "brand": "Chevron", "brand:wikidata": "Q319642", "building": "roof", "name": "Chevron"}}]}