{"version": 0.6, "generator": "Overpass API 0.7.62.8 e802775f", "osm3s": {"timestamp_osm_base": "2025-10-31T07:32:51Z", "copyright": "The data included in this document is from www.openstreetmap.org. The data is made available under ODbL."}, "elements": [{"type": "node", "id": 357287192, "lat": 45.6228887, "lon": -123.3751154, "tags": {"addr:state": "OR", "ele": "494", "gnis:feature_id": "1126262", "leisure": "park", "name": "Rogers Forest Park"}}, {"type": "node", "id": 357296961, "lat": 45.4887187, "lon": -123.63873, "tags": {"addr:state": "OR", "ele": "54", "gnis:feature_id": "1132122", "leisure": "park", "name": "Demoley Wilson County Park"}}, {"type": "node", "id": 357296970, "lat": 45.4553852, "lon": -123.6720633, "tags": {"addr:state": "OR", "ele": "64", "gnis:feature_id": "1132124", "leisure": "park", "name": "Peninsula Day-Use Area"}}, {"type": "node", "id": 357296979, "lat": 45.4411262, "lon": -123.6110756, "tags": {"addr:state": "OR", "ele": "119", "gnis:feature_id": "1132131", "leisure": "park", "name": "Trask County Park"}}, {"type": "node", "id": 357303178, "lat": 45.6048318, "lon": -123.5484524, "tags": {"addr:state": "OR", "ele": "207", "gnis:feature_id": "1134430", "leisure": "park", "name": "Diamond Mill OHV Staging Area", "wikidata": "Q49483166"}}, {"type": "node", "id": 357349556, "lat": 45.4956634, "lon": -123.6026181, "tags": {"addr:state": "OR", "ele": "69", "gnis:feature_id": "1851900", "leisure": "park", "name": "Wilson River Highway Forest State Park"}}, {"type": "node", "id": 357354866, "lat": 45.4923298, "lon": -123.6303966, "tags": {"addr:state": "OR", "ele": "69", "gnis:feature_id": "2058158", "leisure": "park", "name": "Charles Sprague Memorial Wayside"}}, {"type": "node", "id": 357354872, "lat": 45.5370531, "lon": -123.5673403, "tags": {"addr:state": "OR", "ele": "162", "gnis:feature_id": "2058159", "leisure": "park", "name": "Jordan Creek OHV Staging Area", "wikidata": "Q49508784"}}, {"type": "node", "id": 357354876, "lat": 45.5870546, "lon": -123.442894, "tags": {"addr:state": "OR", "ele": "376", "gnis:feature_id": "2058160", "leisure": "park", "name": "Lyda Camp OHV Staging Area"}}, {"type": "node", "id": 357354890, "lat": 45.4484412, "lon": -123.6306731, "tags": {"addr:state": "OR", "ele": "75", "gnis:feature_id": "2058164", "leisure": "park", "name": "Stones Road Boat Launch"}}, {"type": "node", "id": 12016657042, "lat": 45.6109285, "lon": -123.3626518, "tags": {"access": "permissive", "leisure": "pitch", "name": "Beaver Dam Pit", "note": "Range is an active working gravel pit. May be closed for agency operations.", "sport": "shooting"}}]}