{"version": 0.6, "generator": "Overpass API 0.7.62.8 e802775f", "osm3s": {"timestamp_osm_base": "2025-12-06T05:43:44Z", "copyright": "The data included in this document is from www.openstreetmap.org. The data is made available under ODbL."}, "elements": [{"type": "node", "id": 3119150266, "lat": 47.471519, "lon": -115.92106}, {"type": "node", "id": 3119150267, "lat": 47.4715289, "lon": -115.9203942}, {"type": "node", "id": 3119150268, "lat": 47.4712072, "lon": -115.92039}, {"type": "node", "id": 3119150269, "lat": 47.4712376, "lon": -115.9210556}, {"type": "node", "id": 3119185796, "lat": 47.471985, "lon": -115.9247078}, {"type": "node", "id": 3119185797, "lat": 47.4717019, "lon": -115.9247049}, {"type": "node", "id": 3121532192, "lat": 47.4725421, "lon": -115.9262134}, {"type": "node", "id": 3121532197, "lat": 47.4727955, "lon": -115.9262125}, {"type": "node", "id": 3123326978, "lat": 47.4707556, "lon": -115.9212809}, {"type": "node", "id": 3123327012, "lat": 47.4720512, "lon": -115.924289}, {"type": "node", "id": 3123327013, "lat": 47.4720491, "lon": -115.9249051}, {"type": "node", "id": 3123327024, "lat": 47.4723323, "lon": -115.9249059}, {"type": "node", "id": 3123327027, "lat": 47.4723361, "lon": -115.9242933}, {"type": "node", "id": 3155500568, "lat": 47.4725159, "lon": -115.9262135}, {"type": "node", "id": 3155500569, "lat": 47.472516, "lon": -115.9263185}, {"type": "node", "id": 3155500570, "lat": 47.4727956, "lon": -115.9263175}, {"type": "node", "id": 3833365860, "lat": 47.4748535, "lon": -115.9228761, "tags": {"addr:city": "Wallace", "addr:housenumber": "108", "addr:postcode": "83873", "addr:state": "ID", "addr:street": "Nine Mile Creek Road", "amenity": "restaurant", "name": "City Limits Pub & Grill"}}, {"type": "node", "id": 4653825513, "lat": 47.4712163, "lon": -115.9203575}, {"type": "node", "id": 4653912874, "lat": 47.4715139, "lon": -115.9215576}, {"type": "node", "id": 4653912875, "lat": 47.4715173, "lon": -115.9212503}, {"type": "node", "id": 4653912876, "lat": 47.4712364, "lon": -115.9212506}, {"type": "node", "id": 4653912877, "lat": 47.4712353, "lon": -115.9215526}, {"type": "node", "id": 4653912878, "lat": 47.4710207, "lon": -115.9222922}, {"type": "node", "id": 4653912879, "lat": 47.4710299, "lon": -115.9214162}, {"type": "node", "id": 4653912881, "lat": 47.4707458, "lon": -115.9222858}, {"type": "node", "id": 4653912890, "lat": 47.476162, "lon": -115.932034}, {"type": "node", "id": 4653912891, "lat": 47.4760626, "lon": -115.9322138}, {"type": "node", "id": 4653912892, "lat": 47.4758085, "lon": -115.9319102}, {"type": "node", "id": 4653912893, "lat": 47.4758369, "lon": -115.9318448}, {"type": "node", "id": 4653912894, "lat": 47.4757521, "lon": -115.9317388}, {"type": "node", "id": 4653912895, "lat": 47.4758513, "lon": -115.931561}, {"type": "node", "id": 4658099123, "lat": 47.4719853, "lon": -115.9246074}, {"type": "node", "id": 4658099124, "lat": 47.4717024, "lon": -115.9246046}, {"type": "node", "id": 4658099125, "lat": 47.4723323, "lon": -115.9248108}, {"type": "node", "id": 4658099126, "lat": 47.4720485, "lon": -115.9248077}, {"type": "node", "id": 5019014035, "lat": 47.4764447, "lon": -115.9333603}, {"type": "node", "id": 5019014036, "lat": 47.4762969, "lon": -115.9332101}, {"type": "node", "id": 5019014037, "lat": 47.4764275, "lon": -115.9331109}, {"type": "node", "id": 5019014038, "lat": 47.4764891, "lon": -115.9333254}, {"type": "node", "id": 5813463578, "lat": 47.4725628, "lon": -115.924139, "tags": {"amenity": "cafe", "name": "6th and Cedar", "opening_hours": "Mo-Su 07:00-15:00"}}, {"type": "node", "id": 6964284899, "lat": 47.4720507, "lon": -115.9246046}, {"type": "node", "id": 6964284900, "lat": 47.47205, "lon": -115.924706}, {"type": "node", "id": 6964284901, "lat": 47.472333, "lon": -115.9246089}, {"type": "node", "id": 6964284902, "lat": 47.4723323, "lon": -115.9247103}, {"type": "node", "id": 6964284903, "lat": 47.4720508, "lon": -115.9245011}, {"type": "node", "id": 6964284904, "lat": 47.472334, "lon": -115.9245051}, {"type": "node", "id": 6964284905, "lat": 47.4720515, "lon": -115.9243959}, {"type": "node", "id": 6964284906, "lat": 47.4723346, "lon": -115.9243999}, {"type": "node", "id": 8333909310, "lat": 47.4731451, "lon": -115.9248936}, {"type": "node", "id": 8333909311, "lat": 47.4728638, "lon": -115.9248907}, {"type": "node", "id": 8391220355, "lat": 47.4729109, "lon": -115.9257728}, {"type": "node", "id": 8391220356, "lat": 47.472909, "lon": -115.9258938}, {"type": "node", "id": 8391220357, "lat": 47.4730429, "lon": -115.9258983}, {"type": "node", "id": 8391220358, "lat": 47.4730426, "lon": -115.9259131}, {"type": "node", "id": 8391220359, "lat": 47.4731077, "lon": -115.9259149}, {"type": "node", "id": 8391220360, "lat": 47.4731092, "lon": -115.9258218}, {"type": "node", "id": 8391220361, "lat": 47.4730639, "lon": -115.9258203}, {"type": "node", "id": 8391220362, "lat": 47.4730643, "lon": -115.9257912}, {"type": "node", "id": 8391220363, "lat": 47.4729921, "lon": -115.9257887}, {"type": "node", "id": 8391220364, "lat": 47.4729891, "lon": -115.9257754}, {"type": "node", "id": 8391220365, "lat": 47.4731449, "lon": -115.9251049}, {"type": "node", "id": 8391220366, "lat": 47.4728622, "lon": -115.9251014}, {"type": "node", "id": 8391220367, "lat": 47.4730284, "lon": -115.9251041}, {"type": "node", "id": 8391220368, "lat": 47.4730286, "lon": -115.925195}, {"type": "node", "id": 8391220369, "lat": 47.4729733, "lon": -115.9252407}, {"type": "node", "id": 8391220370, "lat": 47.4729641, "lon": -115.9252162}, {"type": "node", "id": 8391220371, "lat": 47.4728775, "lon": -115.9252166}, {"type": "node", "id": 8391220372, "lat": 47.4728773, "lon": -115.9251021}, {"type": "node", "id": 8391220373, "lat": 47.4725311, "lon": -115.9244901}, {"type": "node", "id": 8391220375, "lat": 47.4725318, "lon": -115.9243914}, {"type": "node", "id": 8391220376, "lat": 47.472723, "lon": -115.9243941}, {"type": "node", "id": 8391220377, "lat": 47.4727224, "lon": -115.924493}, {"type": "node", "id": 8423456216, "lat": 47.4713338, "lon": -115.9203922}, {"type": "node", "id": 8423480917, "lat": 47.4713339, "lon": -115.9203583}, {"type": "node", "id": 8423480918, "lat": 47.4712068, "lon": -115.9204793}, {"type": "node", "id": 8423480919, "lat": 47.4712347, "lon": -115.9204795}, {"type": "node", "id": 8426851071, "lat": 47.4727236, "lon": -115.9242952}, {"type": "node", "id": 8426851072, "lat": 47.4725324, "lon": -115.9242926}, {"type": "node", "id": 8427126837, "lat": 47.4708253, "lon": -115.9212814}, {"type": "node", "id": 8427126839, "lat": 47.4708259, "lon": -115.9214125}, {"type": "node", "id": 8427126840, "lat": 47.4708799, "lon": -115.9214137}, {"type": "node", "id": 8427126841, "lat": 47.4708796, "lon": -115.9214438}, {"type": "node", "id": 8427126842, "lat": 47.4709292, "lon": -115.9214449}, {"type": "node", "id": 8427126843, "lat": 47.4709296, "lon": -115.9214139}, {"type": "node", "id": 8427126844, "lat": 47.4710131, "lon": -115.9214159}, {"type": "node", "id": 8429196286, "lat": 47.4717397, "lon": -115.9256439, "tags": {"shop": "yes"}}, {"type": "node", "id": 8429196287, "lat": 47.471805, "lon": -115.9256495, "tags": {"name": "Eureka Sally", "shop": "chocolate"}}, {"type": "node", "id": 8429196288, "lat": 47.4718901, "lon": -115.925651, "tags": {"name": "Dan's Tattoo Shop", "opening_hours": "Mo-Su 11:00-19:00", "phone": "+1 208-771-1717", "shop": "tattoo"}}, {"type": "node", "id": 8429196289, "lat": 47.4719486, "lon": -115.9256529, "tags": {"shop": "yes"}}, {"type": "node", "id": 8429196290, "lat": 47.4719609, "lon": -115.924117, "tags": {"addr:city": "Wallace", "addr:housenumber": "420", "addr:postcode": "83873", "addr:state": "ID", "addr:street": "6th Street", "name": "Avista", "office": "energy_supplier"}}, {"type": "node", "id": 8429196291, "lat": 47.4719579, "lon": -115.923773, "tags": {"addr:city": "Wallace", "addr:housenumber": "413", "addr:postcode": "83873", "addr:state": "ID", "addr:street": "6th Street", "name": "Past-Present Shoppe", "shop": "collector"}}, {"type": "node", "id": 8429196293, "lat": 47.4723108, "lon": -115.9234403, "tags": {"addr:city": "Wallace", "addr:housenumber": "606", "addr:postcode": "83873", "addr:state": "ID", "addr:street": "Cedar Street", "name": "East Shoshone Water District", "office": "water_utility"}}, {"type": "node", "id": 8429196294, "lat": 47.4723106, "lon": -115.9233926, "tags": {"addr:city": "Wallace", "addr:housenumber": "608", "addr:postcode": "83873", "addr:state": "ID", "addr:street": "Cedar Street", "name": "Best Little Hair House", "opening_hours:signed": "no", "phone": "+1-208-752-0204", "shop": "hairdresser"}}, {"type": "node", "id": 8429196297, "lat": 47.4722975, "lon": -115.9237688, "tags": {"amenity": "cafe", "name": "Blackboard Cafe"}}, {"type": "node", "id": 8429196299, "lat": 47.4721902, "lon": -115.9237691, "tags": {"name": "Fox & Hare Mountain Wear", "shop": "clothes"}}, {"type": "node", "id": 8429196300, "lat": 47.4722276, "lon": -115.9237683, "tags": {"name": "Todd's Bookstore and Coffee", "shop": "books"}}, {"type": "node", "id": 8429196301, "lat": 47.4718091, "lon": -115.924125, "tags": {"addr:city": "Wallace", "addr:housenumber": "418", "addr:postcode": "83873", "addr:state": "ID", "addr:street": "6th Street", "name": "Johnson's Gems", "shop": "collector"}}, {"type": "node", "id": 8429318542, "lat": 47.4733784, "lon": -115.924119, "tags": {"amenity": "bar", "name": "The Gem Bar"}}, {"type": "node", "id": 8429318543, "lat": 47.4734562, "lon": -115.924119, "tags": {"amenity": "restaurant", "cuisine": "steak_house", "name": "Albi's Steakhouse", "opening_hours": "closed"}}, {"type": "node", "id": 8464357597, "lat": 47.4735185, "lon": -115.925205, "tags": {"amenity": "restaurant", "cuisine": "barbecue;tacos;burrito;sandwich", "diet:meat": "yes", "name": "Slab Meat Company", "opening_hours": "Mo-Tu 08:00-18:00; Th-Sa 08:00-18:00; Su 09:00-17:00", "website": "https://www.slabmeatbbq.com"}}, {"type": "node", "id": 8491977949, "lat": 47.4717161, "lon": -115.9244787, "tags": {"name": "Hendrixson Real Estate", "office": "estate_agent", "phone": "+1-208-512-1294", "website": "https://hendrixsonrealestate.com/"}}, {"type": "node", "id": 8505016617, "lat": 47.4725561, "lon": -115.9237576, "tags": {"amenity": "bar", "name": "Silver Corner", "opening_hours": "Tu-Sa 05:00-24:00"}}, {"type": "node", "id": 8505175642, "lat": 47.4714883, "lon": -115.9236441, "tags": {"addr:city": "Wallace", "addr:housenumber": "604", "addr:postcode": "83873", "addr:state": "ID", "addr:street": "Bank Street", "name": "Funky Monkey", "shop": "gift", "website": "https://www.facebook.com/historicwallaceidaho/"}}, {"type": "node", "id": 8505175643, "lat": 47.471491, "lon": -115.9235382, "tags": {"name": "Idaho Silver Shop", "opening_hours": "Mo-Su 10:00-17:30", "shop": "jewelry", "website": "https://www.facebook.com/idahosilvershop/"}}, {"type": "node", "id": 8505175644, "lat": 47.4714902, "lon": -115.9233813, "tags": {"addr:city": "Wallace", "addr:housenumber": "608", "addr:postcode": "83873", "addr:state": "ID", "addr:street": "Bank Street", "amenity": "restaurant", "name": "1313 Club", "phone": "+1-208-752-9391", "website": "https://www.1313club.com/"}}, {"type": "node", "id": 8505179489, "lat": 47.4714924, "lon": -115.9229776, "tags": {"addr:city": "Wallace", "addr:housenumber": "618", "addr:state": "ID", "addr:street": "Bank Street", "name": "Sol & Serre", "opening_hours": "\"appointment only\"", "shop": "florist", "website": "https://www.facebook.com/sol.and.serre/"}}, {"type": "node", "id": 8507462361, "lat": 47.4717162, "lon": -115.924427, "tags": {"addr:city": "Wallace", "addr:housenumber": "517 1/2", "addr:postcode": "83873", "addr:state": "ID", "addr:street": "Bank Street", "amenity": "restaurant", "cuisine": "mexican", "name": "Muchachos Tacos", "phone": "+1-208-661-2062"}}, {"type": "node", "id": 8507830473, "lat": 47.4714832, "lon": -115.9245033, "tags": {"addr:city": "Wallace", "addr:housenumber": "516", "addr:postcode": "83873", "addr:state": "ID", "addr:street": "Bank Street", "amenity": "restaurant", "name": "The Fainting Goat"}}, {"type": "node", "id": 8507830474, "lat": 47.47149, "lon": -115.9237531, "tags": {"name": "Rossi Insurance", "office": "insurance", "opening_hours": "Mo-Fr 08:30-16:30", "website": "https://rossi-insurance.com/"}}, {"type": "node", "id": 8804458281, "lat": 47.4714785, "lon": -115.9252349, "tags": {"addr:city": "Wallace", "addr:housenumber": "504", "addr:postcode": "83873", "addr:state": "ID", "addr:street": "Bank Street", "name": "North Idaho Trading Co.", "opening_hours": "Mo-Su 09:00-17:00", "shop": "pawnbroker", "website": "https://www.facebook.com/northidahotrading"}}, {"type": "node", "id": 8804508626, "lat": 47.4714948, "lon": -115.9227733, "tags": {"addr:city": "Wallace", "addr:housenumber": "612", "addr:postcode": "83873", "addr:state": "ID", "addr:street": "Bank Street", "amenity": "restaurant", "brand": "Pizza Factory", "brand:wikidata": "Q39054369", "cuisine": "pizza", "name": "Pizza Factory", "opening_hours": "Su-Th 11:00-20:00; Fr,Sa 11:00-21:00", "phone": "+1-208-753-9003", "website": "https://wallace.pizzafactory.com/"}}, {"type": "node", "id": 9618866574, "lat": 47.4731235, "lon": -115.9246168, "tags": {"addr:city": "Wallace", "addr:housenumber": "516", "addr:postcode": "83873", "addr:state": "ID", "addr:street": "Pine Street", "name": "Pressed on Pine", "phone": "+1-208-556-3950", "shop": "craft"}}, {"type": "node", "id": 9771106503, "lat": 47.472313, "lon": -115.9251227, "tags": {"addr:city": "Wallace", "addr:housenumber": "500", "addr:postcode": "83873", "addr:state": "ID", "addr:street": "Cedar Street", "amenity": "cafe", "name": "Brooks Restaurant"}}, {"type": "node", "id": 9771106504, "lat": 47.4723116, "lon": -115.9250026, "tags": {"addr:city": "Wallace", "addr:housenumber": "500", "addr:postcode": "83873", "addr:state": "ID", "addr:street": "Cedar Street", "amenity": "bar", "name": "Brooks Garden Lounge"}}, {"type": "node", "id": 9945917986, "lat": 47.4718816, "lon": -115.9241153, "tags": {"addr:city": "Wallace", "addr:housenumber": "416", "addr:postcode": "83873", "addr:state": "ID", "addr:street": "6th Street", "shop": "yes"}}, {"type": "node", "id": 10213409834, "lat": 47.4722415, "lon": -115.9258128}, {"type": "node", "id": 10213409835, "lat": 47.4722415, "lon": -115.9257345}, {"type": "node", "id": 10213409836, "lat": 47.4721093, "lon": -115.9257317}, {"type": "node", "id": 10213409837, "lat": 47.4721093, "lon": -115.9258086}, {"type": "node", "id": 10656424896, "lat": 47.472541, "lon": -115.9232288, "tags": {"addr:city": "Wallace", "addr:housenumber": "611", "addr:postcode": "83873", "addr:state": "ID", "addr:street": "Cedar Street", "name": "Johnson's Gems", "shop": "collector"}}, {"type": "node", "id": 10882278072, "lat": 47.471479, "lon": -115.9231827, "tags": {"addr:city": "Wallace", "addr:housenumber": "610", "addr:postcode": "83873", "addr:state": "ID", "addr:street": "Bank Street", "amenity": "bar", "description": "A microbrewery and tasting room.", "name": "Wallace Brewing", "opening_hours": "Su-We 12:00-18:00, Th 12:00-19:00, Fr-Sa 12:00-20:00", "opening_hours:url": "https://wallacebrewing.com/contact/", "website": "https://wallacebrewing.com/"}}, {"type": "node", "id": 12355171302, "lat": 47.4735547, "lon": -115.9257134, "tags": {"addr:city": "Wallace", "addr:housenumber": "425", "addr:postcode": "83873", "addr:state": "ID", "addr:street": "Pine Street", "bicycle_rental": "shop", "name": "Bike Wallace", "phone": "+1-208-610-1584", "service:bicycle:coffee": "yes", "service:bicycle:rental": "yes", "service:bicycle:repair": "yes", "service:bicycle:service": "yes", "shop": "bicycle", "website": "https://bikewallace.com"}}, {"type": "way", "id": 306888877, "nodes": [3119150266, 3119150267, 8423456216, 8423480917, 4653825513, 3119150268, 8423480918, 8423480919, 3119150269, 3119150266], "tags": {"addr:city": "wallace", "addr:housenumber": "800", "addr:postcode": "83873", "addr:state": "ID", "addr:street": "Bank Street", "building": "retail", "building:levels": "2", "name": "Harvest Foods", "opening_hours": "Mo-Su 07:00-21:00", "phone": "+1 208-752-1233", "shop": "supermarket", "website": "https://harvestfoodsnw.com/"}}, {"type": "way", "id": 310172778, "nodes": [3121532197, 3121532192, 3155500568, 3155500569, 3155500570, 3121532197], "tags": {"building": "yes", "building:levels": "1", "name": "H.F. Magnuson & Company Certified Public Accountants", "nohousenumber": "yes", "office": "accountant"}}, {"type": "way", "id": 471224591, "nodes": [4653912874, 4653912875, 4653912876, 4653912877, 4653912874], "tags": {"addr:city": "Wallace", "addr:housenumber": "716", "addr:postcode": "83873-2304", "addr:state": "ID", "addr:street": "Bank Street", "brand": "Ace Hardware", "brand:wikidata": "Q4672981", "building": "retail", "building:levels": "2", "name": "Ace Hardware", "opening_hours": "Mo-Fr 07:00-17:00; Sa 08:00-17:00", "phone": "+1 208-556-1164", "ref": "16859", "shop": "doityourself"}}, {"type": "way", "id": 471224593, "nodes": [4653912878, 4653912879, 8427126844, 8427126843, 8427126842, 8427126841, 8427126840, 8427126839, 8427126837, 3123326978, 4653912881, 4653912878], "tags": {"building": "yes", "name": "Lumber Yard", "shop": "hardware"}}, {"type": "way", "id": 471224597, "nodes": [4653912890, 4653912891, 4653912892, 4653912893, 4653912894, 4653912895, 4653912890], "tags": {"amenity": "restaurant", "building": "yes", "name": "The Trailside Cafe", "phone": "+1 208-752-1252", "website": "https://www.thewallaceinn.com/dining"}}, {"type": "way", "id": 471649353, "nodes": [3119185796, 4658099123, 4658099124, 3119185797, 3119185796], "tags": {"building": "yes", "name": "The Woodland Market", "opening_hours:signed": "no", "shop": "craft", "website": "https://www.woodlandmarketandstudio.com/"}}, {"type": "way", "id": 471649354, "nodes": [3123327024, 4658099125, 4658099126, 3123327013, 3123327024], "tags": {"addr:city": "Wallace", "addr:housenumber": "510", "addr:postcode": "83873", "addr:state": "ID", "addr:street": "Cedar Street", "building": "retail", "name": "Farm Bureau Insurance", "office": "insurance", "phone": "+1 208-556-4620", "website": "https://www.idahofarmbureauinsurance.com"}}, {"type": "way", "id": 513440132, "nodes": [5019014038, 5019014037, 5019014036, 5019014035, 5019014038], "tags": {"building": "retail", "name": "Super Stop", "shop": "convenience"}}, {"type": "way", "id": 744112243, "nodes": [4658099125, 6964284902, 6964284900, 4658099126, 4658099125], "tags": {"addr:city": "Wallace", "addr:housenumber": "512", "addr:postcode": "83873", "addr:state": "ID", "addr:street": "Cedar Street", "building": "yes", "name": "Schwartz Law", "office": "lawyer"}}, {"type": "way", "id": 744112244, "nodes": [6964284902, 6964284901, 6964284899, 6964284900, 6964284902], "tags": {"addr:city": "Wallace", "addr:housenumber": "514", "addr:postcode": "83873", "addr:state": "ID", "addr:street": "Cedar Street", "amenity": "bar", "building": "yes", "name": "Metals", "phone": "+1 208-752-5213"}}, {"type": "way", "id": 744112246, "nodes": [6964284906, 6964284904, 6964284903, 6964284905, 6964284906], "tags": {"addr:city": "Wallace", "addr:housenumber": "518", "addr:postcode": "83873", "addr:state": "ID", "addr:street": "Cedar Street", "building": "yes", "name": "Fonk's Fabulous Finds", "shop": "second_hand"}}, {"type": "way", "id": 744112247, "nodes": [3123327027, 6964284906, 6964284905, 3123327012, 3123327027], "tags": {"addr:housenumber": "520", "addr:state": "ID", "addr:street": "Cedar Street", "building": "yes", "name": "Wallace Fly Shop", "opening_hours": "24/7 closed", "shop": "fishing"}}, {"type": "way", "id": 903475328, "nodes": [8391220355, 8391220356, 8391220357, 8391220358, 8391220359, 8391220360, 8391220361, 8391220362, 8391220363, 8391220364, 8391220355], "tags": {"addr:city": "Wallace", "addr:housenumber": "302", "addr:postcode": "83873", "addr:state": "ID", "addr:street": "5th Street", "amenity": "restaurant", "building": "yes", "building:levels": "1", "name": "Red Light Garage", "phone": "+1 208-556-0575", "website": "https://www.redlightgarage.com/"}}, {"type": "way", "id": 903475330, "nodes": [8333909310, 8391220365, 8391220367, 8391220372, 8391220366, 8333909311, 8333909310], "tags": {"addr:city": "Wallace", "addr:housenumber": "510", "addr:postcode": "83873", "addr:state": "ID", "addr:street": "Pine Street", "building": "yes", "name": "Grey Ghost Armory", "shop": "weapons"}}, {"type": "way", "id": 903475331, "nodes": [8391220367, 8391220368, 8391220369, 8391220370, 8391220371, 8391220372, 8391220367], "tags": {"addr:city": "Wallace", "addr:housenumber": "301", "addr:postcode": "83873", "addr:state": "ID", "addr:street": "5th Street", "building": "yes", "name": "Mountain Meadow Adventure Rentals", "shop": "rental", "website": "https://www.mountainmeadowrentals.com/"}}, {"type": "way", "id": 903475334, "nodes": [8391220373, 8391220375, 8391220376, 8391220377, 8391220373], "tags": {"addr:city": "Wallace", "addr:housenumber": "519", "addr:postcode": "83873", "addr:state": "ID", "addr:street": "Cedar Street", "amenity": "restaurant", "building": "yes", "building:levels": "1", "name": "Mom's Vintage Eatery"}}, {"type": "way", "id": 907519570, "nodes": [8391220376, 8426851071, 8426851072, 8391220375, 8391220376], "tags": {"building": "yes", "self_service": "yes", "shop": "laundry"}}, {"type": "way", "id": 1116716076, "nodes": [10213409834, 10213409835, 10213409836, 10213409837, 10213409834], "tags": {"amenity": "cafe", "building": "yes", "cuisine": "coffee_shop", "name": "1910 Coffee Co", "takeaway": "only"}}]}