{"version": 0.6, "generator": "Overpass API 0.7.62.8 e802775f", "osm3s": {"timestamp_osm_base": "2025-12-06T20:55:30Z", "copyright": "The data included in this document is from www.openstreetmap.org. The data is made available under ODbL."}, "elements": [{"type": "node", "id": 243586638, "lat": 48.4733966, "lon": -122.605155, "tags": {"barrier": "gate", "bicycle": "yes", "description": "gate blocking 4 wheel access to trails by all but park staff and game warden.  Modal filter allowing foot, bicycle, motorbike, and horse access located on either side of the gate, but west side is the better path.", "foot": "yes", "horse": "yes", "locked": "yes", "material": "metal", "wheelchair": "no"}}, {"type": "node", "id": 243586639, "lat": 48.4737991, "lon": -122.605143}, {"type": "node", "id": 243598350, "lat": 48.4540237, "lon": -122.6253721}, {"type": "node", "id": 243598354, "lat": 48.4536141, "lon": -122.626457}, {"type": "node", "id": 243598355, "lat": 48.4535634, "lon": -122.6265843}, {"type": "node", "id": 427840490, "lat": 48.454115, "lon": -122.6255473}, {"type": "node", "id": 427840491, "lat": 48.4542345, "lon": -122.6253241}, {"type": "node", "id": 427840492, "lat": 48.4542573, "lon": -122.625058}, {"type": "node", "id": 427840493, "lat": 48.4541003, "lon": -122.6249652}, {"type": "node", "id": 427840494, "lat": 48.454092, "lon": -122.6252371}, {"type": "node", "id": 427840548, "lat": 48.4537252, "lon": -122.6264729}, {"type": "node", "id": 427840549, "lat": 48.4535514, "lon": -122.6262425}, {"type": "node", "id": 427840550, "lat": 48.4534717, "lon": -122.6263541}, {"type": "node", "id": 2195276453, "lat": 48.4632066, "lon": -122.5822121}, {"type": "node", "id": 2195276457, "lat": 48.4633791, "lon": -122.5825042}, {"type": "node", "id": 2195276458, "lat": 48.4633806, "lon": -122.5822142}, {"type": "node", "id": 2195276461, "lat": 48.4635394, "lon": -122.5827228}, {"type": "node", "id": 2195276462, "lat": 48.4635405, "lon": -122.5825061}, {"type": "node", "id": 2474780604, "lat": 48.461581, "lon": -122.5823056, "tags": {"amenity": "fuel", "brand": "Texaco", "brand:wikidata": "Q775060", "check_date": "2025-03-01", "name": "Texaco"}}, {"type": "node", "id": 3750178454, "lat": 48.4611759, "lon": -122.5823685}, {"type": "node", "id": 3891132764, "lat": 48.4644733, "lon": -122.6062654, "tags": {"access": "yes", "amenity": "toilets", "changing_table": "yes", "toilets:disposal": "pitlatrine", "toilets:handwashing": "no", "unisex": "yes"}}, {"type": "node", "id": 4381393890, "lat": 48.4638231, "lon": -122.5835152, "tags": {"addr:city": "Anacortes", "addr:housenumber": "12356", "addr:postcode": "98221", "addr:state": "WA", "addr:street": "South Fidalgo Bay Road", "brand": "Suburban Propane", "brand:wikidata": "Q120122434", "name": "Suburban Propane", "name:en": "Suburban Propane", "shop": "gas", "website": "https://www.suburbanpropane.com/locations/anacortes-wa/"}}, {"type": "node", "id": 5749819327, "lat": 48.4735148, "lon": -122.6055629}, {"type": "node", "id": 5749819329, "lat": 48.4737105, "lon": -122.6048836}, {"type": "node", "id": 5749819337, "lat": 48.4738433, "lon": -122.6053446}, {"type": "node", "id": 5749819339, "lat": 48.47338, "lon": -122.6050963}, {"type": "node", "id": 5888447592, "lat": 48.4632067, "lon": -122.5824317}, {"type": "node", "id": 5888447597, "lat": 48.4632233, "lon": -122.5824291}, {"type": "node", "id": 5888447598, "lat": 48.4632281, "lon": -122.5827215}, {"type": "node", "id": 5894747030, "lat": 48.4628474, "lon": -122.5833723}, {"type": "node", "id": 5894747031, "lat": 48.4627537, "lon": -122.5834447}, {"type": "node", "id": 5894747032, "lat": 48.4627061, "lon": -122.5833045}, {"type": "node", "id": 5894747033, "lat": 48.4627997, "lon": -122.5832321}, {"type": "node", "id": 6001434686, "lat": 48.4616983, "lon": -122.5825796, "tags": {"addr:city": "Anacortes", "addr:housenumber": "7601", "addr:postcode": "98221", "addr:street": "State Route 20", "check_date": "2025-03-01", "name": "The Corner Food Mart", "opening_hours": "24/7", "shop": "convenience"}}, {"type": "node", "id": 7342299680, "lat": 48.4753316, "lon": -122.6278762, "tags": {"amenity": "toilets", "toilets:disposal": "pitlatrine", "unisex": "yes"}}, {"type": "node", "id": 7342311394, "lat": 48.4786452, "lon": -122.6303748, "tags": {"amenity": "bench", "material": "wood", "seats": "2"}}, {"type": "node", "id": 7342311395, "lat": 48.4788417, "lon": -122.6292503, "tags": {"amenity": "bench"}}, {"type": "node", "id": 8596182446, "lat": 48.4831054, "lon": -122.5913684}, {"type": "node", "id": 8596182447, "lat": 48.4830809, "lon": -122.5913904}, {"type": "node", "id": 8596182448, "lat": 48.4829013, "lon": -122.5909353}, {"type": "node", "id": 8596182449, "lat": 48.4829259, "lon": -122.5909132}, {"type": "node", "id": 8596182450, "lat": 48.4829248, "lon": -122.5916566, "tags": {"access": "yes", "amenity": "toilets", "toilets:disposal": "chemical", "unisex": "yes", "wheelchair": "yes"}}, {"type": "node", "id": 8596182451, "lat": 48.4829096, "lon": -122.5916097, "tags": {"access": "yes", "amenity": "toilets", "toilets:disposal": "chemical", "unisex": "yes", "wheelchair": "no"}}, {"type": "node", "id": 8660821318, "lat": 48.4541297, "lon": -122.6258351, "tags": {"amenity": "toilets"}}, {"type": "node", "id": 9043763325, "lat": 48.4612631, "lon": -122.5823615}, {"type": "node", "id": 9043763326, "lat": 48.4614286, "lon": -122.5823652}, {"type": "node", "id": 9043763327, "lat": 48.4614277, "lon": -122.5824616}, {"type": "node", "id": 9043763328, "lat": 48.4613938, "lon": -122.5824608}, {"type": "node", "id": 9043763329, "lat": 48.4613931, "lon": -122.5825324}, {"type": "node", "id": 9043763330, "lat": 48.4612614, "lon": -122.5825295}, {"type": "node", "id": 9043763331, "lat": 48.4614728, "lon": -122.5825726}, {"type": "node", "id": 9043763332, "lat": 48.4615056, "lon": -122.5823923}, {"type": "node", "id": 9043763333, "lat": 48.4616442, "lon": -122.5824496}, {"type": "node", "id": 9043763334, "lat": 48.4616114, "lon": -122.5826299}, {"type": "node", "id": 9043763335, "lat": 48.4616843, "lon": -122.5822064}, {"type": "node", "id": 9043763336, "lat": 48.4619982, "lon": -122.5823312}, {"type": "node", "id": 9043763337, "lat": 48.4621689, "lon": -122.5823499}, {"type": "node", "id": 9043763338, "lat": 48.462176, "lon": -122.5822775}, {"type": "node", "id": 9043763339, "lat": 48.4621476, "lon": -122.582252}, {"type": "node", "id": 9043763340, "lat": 48.4621173, "lon": -122.582252}, {"type": "node", "id": 9043763341, "lat": 48.4620693, "lon": -122.5822641}, {"type": "node", "id": 9043763342, "lat": 48.4617341, "lon": -122.5821233}, {"type": "node", "id": 9043763343, "lat": 48.4615064, "lon": -122.5821206}, {"type": "node", "id": 9043763344, "lat": 48.4614681, "lon": -122.582193}, {"type": "node", "id": 9043763345, "lat": 48.4618257, "lon": -122.5825954, "tags": {"addr:city": "Anacortes", "addr:housenumber": "7601", "addr:postcode": "98221", "addr:street": "State Route 20", "amenity": "restaurant", "cuisine": "american", "name": "The Corner Bar & Grill"}}, {"type": "node", "id": 9043763347, "lat": 48.4611707, "lon": -122.5822868}, {"type": "node", "id": 9043763348, "lat": 48.4612005, "lon": -122.5823251}, {"type": "node", "id": 9043763352, "lat": 48.4611461, "lon": -122.5823302}, {"type": "node", "id": 9793941330, "lat": 48.4835826, "lon": -122.5916524}, {"type": "node", "id": 9793941331, "lat": 48.4835084, "lon": -122.5917041}, {"type": "node", "id": 9793941332, "lat": 48.4835367, "lon": -122.5917967}, {"type": "node", "id": 9793941333, "lat": 48.4836109, "lon": -122.591745}, {"type": "node", "id": 9794971490, "lat": 48.4839785, "lon": -122.5957633}, {"type": "node", "id": 9794971496, "lat": 48.4841957, "lon": -122.5960635}, {"type": "node", "id": 9794971498, "lat": 48.484205, "lon": -122.5960927}, {"type": "node", "id": 9794971501, "lat": 48.4839986, "lon": -122.5957476}, {"type": "node", "id": 9794971505, "lat": 48.4839834, "lon": -122.5957035}, {"type": "node", "id": 9794971510, "lat": 48.4842344, "lon": -122.5960713}, {"type": "node", "id": 9794971515, "lat": 48.4839633, "lon": -122.5957192}, {"type": "node", "id": 9794992220, "lat": 48.4842251, "lon": -122.5960421}, {"type": "node", "id": 9798998184, "lat": 48.4559509, "lon": -122.5954122}, {"type": "node", "id": 9798998209, "lat": 48.4559574, "lon": -122.5954463}, {"type": "node", "id": 9799056032, "lat": 48.4559838, "lon": -122.5954574}, {"type": "node", "id": 9799056068, "lat": 48.4560018, "lon": -122.5954266}, {"type": "node", "id": 9799056090, "lat": 48.4559935, "lon": -122.5953913}, {"type": "node", "id": 9799056112, "lat": 48.4559691, "lon": -122.5953811}, {"type": "node", "id": 10216350709, "lat": 48.4541923, "lon": -122.6254027}, {"type": "node", "id": 11779034563, "lat": 48.4677232, "lon": -122.6297346, "tags": {"access": "yes", "amenity": "parking", "fee": "no", "surface": "gravel"}}, {"type": "node", "id": 11779034566, "lat": 48.4674819, "lon": -122.6298779, "tags": {"amenity": "waste_basket", "waste": "trash"}}, {"type": "node", "id": 12109389590, "lat": 48.484106, "lon": -122.596162}, {"type": "node", "id": 12109389591, "lat": 48.4839105, "lon": -122.5959997}, {"type": "node", "id": 12109389592, "lat": 48.4839736, "lon": -122.5959326}, {"type": "node", "id": 12109389593, "lat": 48.4841451, "lon": -122.5961056}, {"type": "node", "id": 12537007239, "lat": 48.4569437, "lon": -122.5973931, "tags": {"addr:city": "Anacortes", "addr:country": "US", "addr:housenumber": "7333", "addr:postcode": "98221", "addr:state": "WA", "addr:street": "Miller Road", "amenity": "events_venue", "contact:email": "visitscimitar@gmail.com", "contact:phone": "+1-360-810-8583", "contact:website": "https://www.visitscimitar.com/", "internet_access": "yes", "internet_access:fee": "no", "name": "Scimitar Ridge Ranch", "reservation": "required", "rooms": "10"}}, {"type": "node", "id": 12943367980, "lat": 48.467994, "lon": -122.6294637, "tags": {"access": "yes", "amenity": "toilets", "changing_table": "no", "fee": "no", "portable": "yes", "unisex": "yes"}}, {"type": "node", "id": 13087258157, "lat": 48.47538, "lon": -122.6287166}, {"type": "node", "id": 13087258158, "lat": 48.4755782, "lon": -122.6280768}, {"type": "node", "id": 13087258159, "lat": 48.4754249, "lon": -122.6274066}, {"type": "node", "id": 13087258160, "lat": 48.4751293, "lon": -122.6273623}, {"type": "node", "id": 13087258161, "lat": 48.4749621, "lon": -122.6275117}, {"type": "node", "id": 13087258162, "lat": 48.4747222, "lon": -122.6281375}, {"type": "node", "id": 13087258163, "lat": 48.4748166, "lon": -122.6283523}, {"type": "node", "id": 13087258164, "lat": 48.4750163, "lon": -122.6285228}, {"type": "node", "id": 13087258165, "lat": 48.4752701, "lon": -122.6287423}, {"type": "way", "id": 36806443, "nodes": [427840490, 10216350709, 427840491, 427840492, 427840493, 427840494, 243598350, 427840490], "tags": {"amenity": "parking"}}, {"type": "way", "id": 36806450, "nodes": [243598355, 243598354, 427840548, 427840549, 427840550, 243598355], "tags": {"amenity": "parking"}}, {"type": "way", "id": 209300175, "nodes": [2195276453, 5888447592, 5888447597, 5888447598, 2195276461, 2195276462, 2195276457, 2195276458, 2195276453], "tags": {"access": "customers", "amenity": "parking", "parking": "surface"}}, {"type": "way", "id": 606447000, "nodes": [243586638, 5749819327, 5749819337, 243586639, 5749819329, 5749819339, 243586638], "tags": {"amenity": "parking", "capacity": "12"}}, {"type": "way", "id": 624243937, "nodes": [5894747030, 5894747031, 5894747032, 5894747033, 5894747030], "tags": {"addr:city": "Anacortes", "addr:housenumber": "7649", "addr:postcode": "98221", "addr:street": "State Route 20", "building": "retail", "name": "Money Savers Mini Storage", "shop": "storage_rental"}}, {"type": "way", "id": 926321127, "nodes": [8596182446, 8596182447, 8596182448, 8596182449, 8596182446], "tags": {"access": "yes", "amenity": "parking", "capacity": "7", "capacity:disabled": "1", "parking": "surface", "surface": "asphalt"}}, {"type": "way", "id": 977373286, "nodes": [9043763330, 9043763329, 9043763328, 9043763327, 9043763326, 9043763325, 9043763330], "tags": {"access": "customers", "amenity": "parking", "parking": "surface"}}, {"type": "way", "id": 977373287, "nodes": [9043763334, 9043763333, 9043763332, 9043763331, 9043763334], "tags": {"access": "customers", "amenity": "parking", "parking": "surface"}}, {"type": "way", "id": 977373288, "nodes": [9043763344, 9043763343, 9043763342, 9043763341, 9043763340, 9043763339, 9043763338, 9043763337, 9043763336, 9043763335, 9043763344], "tags": {"access": "customers", "amenity": "parking", "parking": "surface"}}, {"type": "way", "id": 977373289, "nodes": [9043763348, 9043763347, 9043763352, 3750178454, 9043763348], "tags": {"addr:city": "Anacortes", "addr:housenumber": "7607", "addr:postcode": "98221", "addr:state": "WA", "addr:street": "State Route 20", "amenity": "cafe", "building": "yes", "cuisine": "coffee_shop", "min_age": "18", "name": "Ladybug Bikini Espresso", "phone": "+1-206-487-4668", "website": "https://ladybugbikiniespresso.com/"}}, {"type": "way", "id": 1066589291, "nodes": [9793941333, 9793941330, 9793941331, 9793941332, 9793941333], "tags": {"amenity": "shelter", "building": "yes"}}, {"type": "way", "id": 1066705261, "nodes": [9794971505, 9794971515, 9794971490, 9794971501, 9794971505], "tags": {"amenity": "shelter", "building": "yes", "shelter_type": "picnic_shelter"}}, {"type": "way", "id": 1066705262, "nodes": [9794971498, 9794971510, 9794992220, 9794971496, 9794971498], "tags": {"amenity": "shelter", "building": "yes", "shelter_type": "picnic_shelter"}}, {"type": "way", "id": 1067218025, "nodes": [9799056068, 9799056090, 9799056112, 9798998184, 9798998209, 9799056032, 9799056068], "tags": {"amenity": "shelter", "building": "yes", "shelter_type": "gazebo"}}, {"type": "way", "id": 1307622805, "nodes": [12109389593, 12109389592, 12109389591, 12109389590, 12109389593], "tags": {"amenity": "parking"}}, {"type": "way", "id": 1423935192, "nodes": [13087258157, 13087258158, 13087258159, 13087258160, 13087258161, 13087258162, 13087258163, 13087258164, 13087258165, 13087258157], "tags": {"access": "yes", "amenity": "parking", "capacity": "25", "surface": "gravel"}}]}