{"version": 0.6, "generator": "Overpass API 0.7.62.8 e802775f", "osm3s": {"timestamp_osm_base": "2025-12-06T04:22:24Z", "copyright": "The data included in this document is from www.openstreetmap.org. The data is made available under ODbL."}, "elements": [{"type": "node", "id": 582238203, "lat": 47.5260463, "lon": -111.2970438}, {"type": "node", "id": 582238208, "lat": 47.526095, "lon": -111.2970448}, {"type": "node", "id": 582238211, "lat": 47.5260526, "lon": -111.2961639}, {"type": "node", "id": 582238216, "lat": 47.5260539, "lon": -111.2960143}, {"type": "node", "id": 582238219, "lat": 47.5260738, "lon": -111.2960147}, {"type": "node", "id": 582238222, "lat": 47.5261718, "lon": -111.2958725}, {"type": "node", "id": 582238224, "lat": 47.5260751, "lon": -111.2958706}, {"type": "node", "id": 582238227, "lat": 47.5261727, "lon": -111.2957714}, {"type": "node", "id": 582238235, "lat": 47.5262755, "lon": -111.2952396}, {"type": "node", "id": 582238238, "lat": 47.5261388, "lon": -111.2952369}, {"type": "node", "id": 582238241, "lat": 47.5262768, "lon": -111.2950934}, {"type": "node", "id": 582238250, "lat": 47.5264988, "lon": -111.2950978}, {"type": "node", "id": 582238251, "lat": 47.5266732, "lon": -111.2952915}, {"type": "node", "id": 582238252, "lat": 47.5268267, "lon": -111.2954249}, {"type": "node", "id": 582238253, "lat": 47.5268297, "lon": -111.2950921}, {"type": "node", "id": 582238260, "lat": 47.5261843, "lon": -111.2977249}, {"type": "node", "id": 582238266, "lat": 47.5271151, "lon": -111.2962722}, {"type": "node", "id": 582238269, "lat": 47.5261029, "lon": -111.2961649}, {"type": "node", "id": 582238271, "lat": 47.5261871, "lon": -111.2974134}, {"type": "node", "id": 582238274, "lat": 47.5260557, "lon": -111.2974108}, {"type": "node", "id": 582238277, "lat": 47.5260578, "lon": -111.2971777}, {"type": "node", "id": 582238283, "lat": 47.5260451, "lon": -111.2971775}, {"type": "node", "id": 1537455059, "lat": 47.52708, "lon": -111.2978582}, {"type": "node", "id": 1537455147, "lat": 47.526626, "lon": -111.2952905}, {"type": "node", "id": 1537455150, "lat": 47.5264959, "lon": -111.2954185}, {"type": "node", "id": 1537455187, "lat": 47.5269492, "lon": -111.2977399}, {"type": "node", "id": 1537455238, "lat": 47.5269982, "lon": -111.2962699}, {"type": "node", "id": 1537455266, "lat": 47.5266253, "lon": -111.2953609}, {"type": "node", "id": 1537455306, "lat": 47.5265946, "lon": -111.2954204}, {"type": "node", "id": 1537455424, "lat": 47.5265952, "lon": -111.2953603}, {"type": "node", "id": 1537455479, "lat": 47.5271014, "lon": -111.2978063}, {"type": "node", "id": 1537455519, "lat": 47.5270057, "lon": -111.2954285}, {"type": "node", "id": 1537455582, "lat": 47.526675, "lon": -111.295089}, {"type": "node", "id": 4349975842, "lat": 47.526134, "lon": -111.2957707}, {"type": "node", "id": 5276757382, "lat": 47.5205215, "lon": -111.3094371}, {"type": "node", "id": 5276757383, "lat": 47.5204109, "lon": -111.3095259}, {"type": "node", "id": 5276757384, "lat": 47.5204479, "lon": -111.3096268}, {"type": "node", "id": 5276757385, "lat": 47.5205585, "lon": -111.309538}, {"type": "node", "id": 8211253314, "lat": 47.523528, "lon": -111.305199}, {"type": "node", "id": 8211253315, "lat": 47.52337, "lon": -111.305045}, {"type": "node", "id": 8211253316, "lat": 47.523465, "lon": -111.304832}, {"type": "node", "id": 8211253917, "lat": 47.523622, "lon": -111.304985}, {"type": "node", "id": 8211253926, "lat": 47.5244035, "lon": -111.305048}, {"type": "node", "id": 8211253927, "lat": 47.524143, "lon": -111.3050436}, {"type": "node", "id": 8211253928, "lat": 47.5241439, "lon": -111.3049211}, {"type": "node", "id": 8211253929, "lat": 47.5242885, "lon": -111.3049236}, {"type": "node", "id": 8211253930, "lat": 47.5242911, "lon": -111.3045928}, {"type": "node", "id": 8211253931, "lat": 47.5245178, "lon": -111.3045967}, {"type": "node", "id": 8211253932, "lat": 47.5245153, "lon": -111.3049149}, {"type": "node", "id": 8211253933, "lat": 47.5244045, "lon": -111.304913}, {"type": "node", "id": 8971273896, "lat": 47.5209587, "lon": -111.3092336, "tags": {"brand": "Great Clips", "brand:wikidata": "Q5598967", "name": "Great Clips", "shop": "hairdresser"}}, {"type": "node", "id": 8971273897, "lat": 47.5209581, "lon": -111.309339, "tags": {"brand": "American Automobile Association", "brand:wikidata": "Q463436", "name": "AAA Insurance", "office": "insurance", "short_name": "AAA"}}, {"type": "node", "id": 8971273898, "lat": 47.5209551, "lon": -111.309557, "tags": {"name": "Smoker Friendly", "shop": "tobacco"}}, {"type": "node", "id": 9217546672, "lat": 47.520948, "lon": -111.3075315, "tags": {"amenity": "restaurant", "name": "Best Wok"}}, {"type": "node", "id": 9217546712, "lat": 47.5219572, "lon": -111.3067326, "tags": {"name": "Tire-Rama", "shop": "tyres"}}, {"type": "node", "id": 9217557326, "lat": 47.5236865, "lon": -111.3088864, "tags": {"name": "Transportation Department", "office": "government"}}, {"type": "node", "id": 9217557396, "lat": 47.5231546, "lon": -111.3068887, "tags": {"name": "Power Pro Equipment Co", "shop": "agrarian"}}, {"type": "node", "id": 9217557446, "lat": 47.5234302, "lon": -111.3077948, "tags": {"amenity": "bar", "name": "The Do Bar"}}, {"type": "node", "id": 9217557447, "lat": 47.5235765, "lon": -111.3077485, "tags": {"amenity": "restaurant", "brand": "Godfather's Pizza", "brand:wikidata": "Q5576353", "cuisine": "pizza", "name": "Godfather's Pizza"}}, {"type": "node", "id": 9217557460, "lat": 47.5242343, "lon": -111.3072939, "tags": {"brand": "H&R Block", "brand:wikidata": "Q5627799", "name": "H&R Block", "office": "tax_advisor"}}, {"type": "node", "id": 9217557461, "lat": 47.5242373, "lon": -111.3075921, "tags": {"name": "Mitchell Supply", "shop": "weapons"}}, {"type": "node", "id": 9217557463, "lat": 47.5239605, "lon": -111.3067759, "tags": {"brand": "State Farm", "brand:wikidata": "Q2007336", "name": "State Farm", "office": "insurance"}}, {"type": "node", "id": 9217557515, "lat": 47.5241343, "lon": -111.3056146, "tags": {"amenity": "cafe", "cuisine": "coffee_shop", "name": "City Brew Coffee"}}, {"type": "node", "id": 9251468455, "lat": 47.524328, "lon": -111.3009365, "tags": {"beauty": "nails", "name": "Fashion Nails & Spa", "shop": "beauty"}}, {"type": "node", "id": 9251468456, "lat": 47.5241181, "lon": -111.3010412, "tags": {"name": "Westgate Liquor Store", "shop": "alcohol"}}, {"type": "node", "id": 9251468457, "lat": 47.5238504, "lon": -111.3010485, "tags": {"name": "Royal Panda Tattoo Collective", "shop": "tattoo"}}, {"type": "node", "id": 9251468458, "lat": 47.5239679, "lon": -111.3010485, "tags": {"name": "Doggone Cute Pet Grooming", "shop": "pet_grooming"}}, {"type": "node", "id": 9251468473, "lat": 47.5235496, "lon": -111.3003795, "tags": {"name": "Chariot Service", "shop": "car_repair"}}, {"type": "node", "id": 9251468481, "lat": 47.522073, "lon": -111.3036637, "tags": {"name": "Calumet Montana Refining", "office": "company"}}, {"type": "node", "id": 9251468484, "lat": 47.5231055, "lon": -111.2999726, "tags": {"name": "Keneco Petroleum Equipment", "shop": "repair"}}, {"type": "node", "id": 9251468498, "lat": 47.5251504, "lon": -111.2995652, "tags": {"addr:city": "Great Falls", "addr:housenumber": "601", "addr:postcode": "59404", "addr:state": "MT", "addr:street": "Smelter Avenue Northeast", "brand": "Loaf 'N Jug", "brand:wikidata": "Q6663398", "name": "Loaf 'N Jug", "ref": "767", "shop": "convenience"}}, {"type": "node", "id": 9251468501, "lat": 47.5249547, "lon": -111.2987578, "tags": {"amenity": "cafe", "cuisine": "coffee_shop", "name": "Florence Coffee Company"}}, {"type": "node", "id": 9251468518, "lat": 47.5253223, "lon": -111.2935982, "tags": {"amenity": "restaurant", "cuisine": "pizza", "name": "Stageline Pizza"}}, {"type": "node", "id": 9251468519, "lat": 47.5253223, "lon": -111.2937752, "tags": {"name": "Mystic Rythms Tat2", "shop": "tattoo"}}, {"type": "node", "id": 9251468520, "lat": 47.52509, "lon": -111.2917105, "tags": {"brand": "NAPA Auto Parts", "brand:wikidata": "Q6970842", "name": "NAPA Auto Parts", "shop": "car_parts"}}, {"type": "node", "id": 9251468533, "lat": 47.5243901, "lon": -111.2891994, "tags": {"name": "Mountain View Co-op", "shop": "convenience"}}, {"type": "node", "id": 9251512841, "lat": 47.5279047, "lon": -111.2910728, "tags": {"name": "H & H Mini Storage", "shop": "storage_rental"}}, {"type": "node", "id": 9251512858, "lat": 47.5301542, "lon": -111.288177, "tags": {"name": "Great Falls Sanitation Service", "office": "government"}}, {"type": "node", "id": 9252046760, "lat": 47.5252096, "lon": -111.3091031, "tags": {"name": "CosmoProf", "shop": "beauty"}}, {"type": "node", "id": 9252046761, "lat": 47.5255247, "lon": -111.3094222, "tags": {"addr:city": "Great Falls", "addr:housenumber": "105", "addr:postcode": "59404", "addr:state": "MT", "addr:street": "Smelter Avenue Northeast", "name": "2J's Fresh Market", "phone": "+1 406 761 0134", "shop": "supermarket", "website": "https://www.2jsfreshmarket.com/"}}, {"type": "node", "id": 9252046762, "lat": 47.5256047, "lon": -111.3101788, "tags": {"name": "Riverview Pet Grooming", "shop": "pet_grooming"}}, {"type": "node", "id": 9252046765, "lat": 47.5260144, "lon": -111.3097147, "tags": {"name": "Northern Directory Publishing", "office": "yes"}}, {"type": "node", "id": 9252046766, "lat": 47.5262168, "lon": -111.309705, "tags": {"amenity": "bar", "name": "The Heidelberg Lounge & Liquor Store"}}, {"type": "node", "id": 9252046767, "lat": 47.5264584, "lon": -111.3098235, "tags": {"name": "American National Insurance", "office": "insurance"}}, {"type": "node", "id": 9252046770, "lat": 47.5257365, "lon": -111.3079327, "tags": {"name": "Driver Services Bureau", "office": "government"}}, {"type": "node", "id": 9252046772, "lat": 47.5251976, "lon": -111.3082071, "tags": {"name": "JK Property Management", "office": "estate_agent"}}, {"type": "node", "id": 9252046773, "lat": 47.5248802, "lon": -111.3059642, "tags": {"name": "Blue Ribbon of Montana", "shop": "gift"}}, {"type": "node", "id": 9252046806, "lat": 47.5241917, "lon": -111.3054877, "tags": {"alt_name": "Verizon Wireless", "brand": "Verizon", "brand:wikidata": "Q919641", "name": "Verizon", "shop": "mobile_phone"}}, {"type": "node", "id": 10155880572, "lat": 47.5258162, "lon": -111.3065893, "tags": {"name": "Quality Life Concepts", "office": "association"}}, {"type": "node", "id": 10155884030, "lat": 47.5255464, "lon": -111.2907965, "tags": {"amenity": "restaurant", "name": "The Montana Club"}}, {"type": "node", "id": 11209004824, "lat": 47.519862, "lon": -111.3099178, "tags": {"addr:city": "Great Falls", "addr:housenumber": "1428", "addr:postcode": "59404", "addr:state": "MT", "addr:street": "3rd Street Northwest", "brand": "Holiday", "brand:wikidata": "Q5880490", "name": "Holiday", "shop": "convenience"}}, {"type": "node", "id": 11209004833, "lat": 47.5249054, "lon": -111.3099877, "tags": {"addr:city": "Great Falls", "addr:housenumber": "101", "addr:postcode": "59404", "addr:state": "MT", "addr:street": "Smelter Avenue Northeast", "name": "Gas N Shop", "shop": "convenience"}}, {"type": "way", "id": 45696126, "nodes": [582238251, 1537455147, 1537455266, 1537455424, 1537455306, 1537455150, 582238250, 582238241, 582238235, 582238238, 4349975842, 582238227, 582238222, 582238224, 582238219, 582238216, 582238211, 582238269, 582238208, 582238203, 582238283, 582238277, 582238274, 582238271, 582238260, 1537455187, 1537455059, 1537455479, 582238266, 1537455238, 1537455519, 582238252, 582238253, 1537455582, 582238251], "tags": {"addr:city": "Great Falls", "addr:country": "US", "addr:housenumber": "701", "addr:postcode": "59404", "addr:state": "MT", "addr:street": "Smelter Avenue Northeast", "brand": "Walmart", "brand:wikidata": "Q483551", "building": "retail", "name": "Walmart Supercenter", "opening_hours": "24/7", "operator": "Walmart", "operator:wikidata": "Q483551", "payment:app:walmart": "yes", "payment:apple_pay": "no", "payment:google_pay": "no", "payment:samsung_pay": "no", "phone": "+1 406-761-5426", "ref": "2455", "ref:walmart": "2455", "sensory_friendly:accommodation": "dimmed_light;static_screens;no_pa", "sensory_friendly:conditional": "yes @ 08:00-10:00", "shop": "supermarket", "website": "https://www.walmart.com/store/2455-great-falls-mt"}}, {"type": "way", "id": 545985435, "nodes": [5276757385, 5276757382, 5276757383, 5276757384, 5276757385], "tags": {"brand": "Valvoline", "brand:wikidata": "Q7912852", "building": "yes", "name": "Valvoline", "official_name": "Valvoline Instant Oil Change", "shop": "car_repair", "website": "https://store.vioc.com/mt/greatfalls/oil-change-gt0008.html"}}, {"type": "way", "id": 882977159, "nodes": [8211253314, 8211253315, 8211253316, 8211253917, 8211253314], "tags": {"amenity": "restaurant", "brand": "Pizza Hut", "brand:wikidata": "Q191615", "building": "yes", "contact:website": "https://locations.pizzahut.com/mt/great-falls/1819-3rd-st-nw", "cuisine": "pizza", "name": "Pizza Hut", "source": "microsoft/BuildingFootprints"}}, {"type": "way", "id": 882977161, "nodes": [8211253926, 8211253927, 8211253928, 8211253929, 8211253930, 8211253931, 8211253932, 8211253933, 8211253926], "tags": {"brand": "Aaron's", "brand:wikidata": "Q10397787", "building": "yes", "name": "Aaron's", "shop": "furniture"}}]}