{"version": 0.6, "generator": "Overpass API 0.7.62.8 e802775f", "osm3s": {"timestamp_osm_base": "2025-12-12T18:04:41Z", "copyright": "The data included in this document is from www.openstreetmap.org. The data is made available under ODbL."}, "elements": [{"type": "node", "id": 2791842371, "lat": 40.0594405, "lon": -104.9708386}, {"type": "node", "id": 2791842373, "lat": 40.0594353, "lon": -104.9738439}, {"type": "node", "id": 2791842392, "lat": 40.0598135, "lon": -104.9740859}, {"type": "node", "id": 2791842399, "lat": 40.059803, "lon": -104.9752205}, {"type": "node", "id": 2791842411, "lat": 40.0606897, "lon": -104.9727774}, {"type": "node", "id": 2791842412, "lat": 40.0607158, "lon": -104.9723958}, {"type": "node", "id": 2791842413, "lat": 40.0607262, "lon": -104.973108}, {"type": "node", "id": 2791842414, "lat": 40.0607706, "lon": -104.9738508}, {"type": "node", "id": 2791842415, "lat": 40.0607966, "lon": -104.9720891}, {"type": "node", "id": 2791842416, "lat": 40.0608331, "lon": -104.9733499}, {"type": "node", "id": 2791842419, "lat": 40.0609244, "lon": -104.9717859}, {"type": "node", "id": 2791842427, "lat": 40.0611435, "lon": -104.9714895}, {"type": "node", "id": 2791842429, "lat": 40.06118, "lon": -104.9708182}, {"type": "node", "id": 2791842432, "lat": 40.0612556, "lon": -104.97136}, {"type": "node", "id": 2791842434, "lat": 40.0613938, "lon": -104.9740211}, {"type": "node", "id": 2791842435, "lat": 40.0618632, "lon": -104.9743993}, {"type": "node", "id": 2791842451, "lat": 40.0627708, "lon": -104.9743891}, {"type": "node", "id": 2791842453, "lat": 40.0627786, "lon": -104.9751421}, {"type": "node", "id": 3678246183, "lat": 40.070798, "lon": -104.9791638}, {"type": "node", "id": 3678246184, "lat": 40.0707949, "lon": -104.9793329}, {"type": "node", "id": 3678246185, "lat": 40.0709912, "lon": -104.9791698}, {"type": "node", "id": 3678246186, "lat": 40.0709881, "lon": -104.979339}, {"type": "node", "id": 3756559596, "lat": 40.0868035, "lon": -104.974259}, {"type": "node", "id": 3756559597, "lat": 40.0868037, "lon": -104.9741417}, {"type": "node", "id": 3756559599, "lat": 40.0868894, "lon": -104.9742592}, {"type": "node", "id": 3756559600, "lat": 40.0868895, "lon": -104.974142}, {"type": "node", "id": 3756559601, "lat": 40.0868976, "lon": -104.9742183}, {"type": "node", "id": 3756559602, "lat": 40.0869038, "lon": -104.9747314}, {"type": "node", "id": 3756559603, "lat": 40.0870145, "lon": -104.9746886}, {"type": "node", "id": 3756559604, "lat": 40.0870145, "lon": -104.9747317}, {"type": "node", "id": 3756559605, "lat": 40.0870153, "lon": -104.9742158}, {"type": "node", "id": 3756559608, "lat": 40.0870706, "lon": -104.9746279}, {"type": "node", "id": 3756559609, "lat": 40.0870708, "lon": -104.9742355}, {"type": "node", "id": 3756559611, "lat": 40.0872043, "lon": -104.974628}, {"type": "node", "id": 3756559612, "lat": 40.0872045, "lon": -104.9742357}, {"type": "node", "id": 3921092919, "lat": 40.0749171, "lon": -104.9788097, "tags": {"addr:city": "Dacono", "addr:housenumber": "5073", "addr:postcode": "80514", "addr:state": "CO", "addr:street": "Silver Peak Avenue", "addr:unit": "105", "contact:fax": "+1-303-429-1242", "contact:phone": "+1-303-429-0418", "contact:website": "http://csnl.com/", "name": "Colorado Sound N' Light", "opening_hours": "Mo-Fr 09:00-18:00", "shop": "music", "source": "http://csnl.com/contact"}}, {"type": "node", "id": 3921092920, "lat": 40.0745314, "lon": -104.978781, "tags": {"addr:city": "Dacono", "addr:housenumber": "5073", "addr:postcode": "80514", "addr:state": "CO", "addr:street": "Silver Peak Avenue", "contact:email": "info@earthroamer.com", "contact:phone": "+1-303-833-7330", "contact:website": "http://earthroamer.com/", "name": "EarthRoamer", "shop": "car", "source": "http://earthroamer.com/employees-facilities/contact/"}}, {"type": "node", "id": 4461125336, "lat": 40.086821, "lon": -104.9744317, "tags": {"addr:city": "Dacono", "addr:housenumber": "127", "addr:postcode": "80514", "addr:state": "CO", "addr:street": "Laura Way", "air_conditioning": "yes", "brand": "Kum & Go", "brand:wikidata": "Q6443340", "fuel:gasoline": "yes", "name": "Kum & Go", "opening_hours": "24/7", "phone": "+1-303-833-3935", "shop": "convenience", "website": "https://www.kumandgo.com/store-locator?details=0973"}}, {"type": "node", "id": 7436819574, "lat": 40.0868855, "lon": -104.97673}, {"type": "node", "id": 7436819575, "lat": 40.0871436, "lon": -104.9767353}, {"type": "node", "id": 7436819576, "lat": 40.0871422, "lon": -104.9768539}, {"type": "node", "id": 7436819577, "lat": 40.0869103, "lon": -104.9768587}, {"type": "node", "id": 7436819578, "lat": 40.086911, "lon": -104.9768032}, {"type": "node", "id": 7436819579, "lat": 40.0868846, "lon": -104.9768027}, {"type": "node", "id": 7436819580, "lat": 40.0870594, "lon": -104.9768839}, {"type": "node", "id": 7436819581, "lat": 40.0870598, "lon": -104.9768522}, {"type": "node", "id": 7436819582, "lat": 40.0869723, "lon": -104.976882}, {"type": "node", "id": 7436819583, "lat": 40.0869726, "lon": -104.97686}, {"type": "node", "id": 7436827502, "lat": 40.0871142, "lon": -104.9763064}, {"type": "node", "id": 7436827503, "lat": 40.0870343, "lon": -104.9763064}, {"type": "node", "id": 7436827504, "lat": 40.0870342, "lon": -104.9757084}, {"type": "node", "id": 7436827505, "lat": 40.0871142, "lon": -104.9757084}, {"type": "node", "id": 7436827506, "lat": 40.0868296, "lon": -104.9761185}, {"type": "node", "id": 7436827507, "lat": 40.0867042, "lon": -104.9761185}, {"type": "node", "id": 7436827508, "lat": 40.0867042, "lon": -104.9759663}, {"type": "node", "id": 7436827509, "lat": 40.0866798, "lon": -104.9759663}, {"type": "node", "id": 7436827510, "lat": 40.0866798, "lon": -104.9757634}, {"type": "node", "id": 7436827511, "lat": 40.0868296, "lon": -104.9757634}, {"type": "node", "id": 11191956687, "lat": 40.0584967, "lon": -104.9741647, "tags": {"amenity": "letter_box"}}, {"type": "node", "id": 11191956727, "lat": 40.0601476, "lon": -104.961309, "tags": {"amenity": "letter_box"}}, {"type": "node", "id": 11191956744, "lat": 40.0613529, "lon": -104.9612998, "tags": {"amenity": "letter_box"}}, {"type": "node", "id": 11191956747, "lat": 40.0622278, "lon": -104.9612796, "tags": {"amenity": "letter_box"}}, {"type": "node", "id": 11191956748, "lat": 40.0626902, "lon": -104.9612694, "tags": {"amenity": "letter_box"}}, {"type": "node", "id": 11191956777, "lat": 40.066076, "lon": -104.9612484, "tags": {"amenity": "letter_box"}}, {"type": "node", "id": 11191956792, "lat": 40.068164, "lon": -104.9612414, "tags": {"amenity": "letter_box"}}, {"type": "node", "id": 11191956804, "lat": 40.0685969, "lon": -104.9612133, "tags": {"amenity": "letter_box"}}, {"type": "node", "id": 11191956818, "lat": 40.070543, "lon": -104.9611935, "tags": {"amenity": "letter_box"}}, {"type": "node", "id": 13165612712, "lat": 40.0750402, "lon": -104.9741491}, {"type": "node", "id": 13165612713, "lat": 40.075048, "lon": -104.9732551}, {"type": "node", "id": 13165612714, "lat": 40.0733429, "lon": -104.9732312}, {"type": "node", "id": 13165612715, "lat": 40.0733317, "lon": -104.975018}, {"type": "node", "id": 13165612716, "lat": 40.0742164, "lon": -104.9750281}, {"type": "node", "id": 13165612717, "lat": 40.0742335, "lon": -104.974138}, {"type": "node", "id": 13165612721, "lat": 40.0740636, "lon": -104.9731816, "tags": {"amenity": "letter_box"}}, {"type": "way", "id": 274469175, "nodes": [2791842414, 2791842416, 2791842413, 2791842411, 2791842412, 2791842415, 2791842419, 2791842427, 2791842432, 2791842429, 2791842371, 2791842373, 2791842414], "tags": {"access": "customers", "amenity": "parking", "parking": "surface", "surface": "dirt"}}, {"type": "way", "id": 274469177, "nodes": [2791842453, 2791842451, 2791842435, 2791842434, 2791842392, 2791842399, 2791842453], "tags": {"access": "customers", "amenity": "parking", "parking": "surface", "surface": "dirt"}}, {"type": "way", "id": 363659188, "nodes": [3678246185, 3678246183, 3678246184, 3678246186, 3678246185], "tags": {"addr:city": "Dacono", "addr:housenumber": "4878", "addr:postcode": "80514", "addr:state": "CO", "addr:street": "East I 25 Frontage Road", "building": "yes", "contact:email": "erieautosalvage@gmail.com", "contact:fax": "+1-303-833-5823", "contact:phone": "+1-303-833-5820", "contact:website": "http://www.erieautosalvage.com/", "name": "Erie Auto Salvage", "opening_hours": "Tu-Fr 09:00-17:00; Sa 09:0-13:00", "shop": "car_parts"}}, {"type": "way", "id": 372121447, "nodes": [3756559600, 3756559597, 3756559596, 3756559599, 3756559600]}, {"type": "way", "id": 372121448, "nodes": [3756559605, 3756559603, 3756559604, 3756559602, 3756559601, 3756559605]}, {"type": "way", "id": 372121460, "nodes": [3756559611, 3756559608, 3756559609, 3756559612, 3756559611], "tags": {"addr:city": "Dacono", "addr:housenumber": "127", "addr:postcode": "80514", "addr:state": "CO", "addr:street": "Laura Way", "amenity": "fuel", "brand": "Kum & Go", "brand:wikidata": "Q6443340", "building": "roof", "fuel:diesel": "yes", "fuel:e85": "yes", "fuel:gasoline": "yes", "name": "Kum & Go", "opening_hours": "24/7", "phone": "+1-303-833-3935", "self_service": "yes", "source": "Bing", "website": "https://www.kumandgo.com/store-locator?details=0973"}}, {"type": "way", "id": 795129743, "nodes": [7436827502, 7436827503, 7436827504, 7436827505, 7436827502], "tags": {"addr:city": "Dacono", "addr:housenumber": "107", "addr:postcode": "80514", "addr:state": "CO", "addr:street": "Laura Court", "amenity": "fuel", "brand": "Maverik", "brand:wikidata": "Q64149010", "building": "roof", "fuel:diesel": "yes", "fuel:ethanol-free": "yes", "fuel:gasoline": "yes", "name": "Maverik", "phone": "+1-303-833-0591", "self_service": "yes", "website": "https://maverik.com/"}}, {"type": "way", "id": 795129744, "nodes": [7436827506, 7436827507, 7436827508, 7436827509, 7436827510, 7436827511, 7436827506], "tags": {"addr:city": "Dacono", "addr:housenumber": "107", "addr:postcode": "80514", "addr:state": "CO", "addr:street": "Laura Court", "air_conditioning": "yes", "brand": "Maverik", "brand:wikidata": "Q64149010", "building": "yes", "building:levels": "1", "name": "Maverik", "phone": "+1-303-833-0591", "shop": "convenience", "website": "https://maverik.com/"}}, {"type": "way", "id": 795130679, "nodes": [7436819574, 7436819575, 7436819576, 7436819581, 7436819580, 7436819582, 7436819583, 7436819577, 7436819578, 7436819579, 7436819574], "tags": {"addr:city": "Dacono", "addr:housenumber": "111", "addr:postcode": "80514", "addr:state": "CO", "addr:street": "Laura Court", "air_conditioning": "yes", "amenity": "fast_food", "brand": "Burger King", "brand:wikidata": "Q177054", "building": "yes", "cuisine": "burger", "drive_through": "yes", "internet_access": "wlan", "name": "Burger King", "opening_hours": "Mo-Sa 06:00-22:00; Su 07:00-22:00", "phone": "+1 866-394-2493", "ref": "22546", "takeaway": "yes", "website": "https://www.bk.com/store-locator/store/restaurant_62271"}}, {"type": "way", "id": 1432336956, "nodes": [13165612712, 13165612713, 13165612714, 13165612715, 13165612716, 13165612717, 13165612712], "tags": {"addr:city": "Dacono", "addr:housenumber": "151", "addr:postcode": "80514", "addr:state": "CO", "addr:street": "Mount Elbert Avenue", "name": "garageUnitz", "shop": "storage_rental"}}, {"type": "relation", "id": 5527855, "members": [{"type": "way", "ref": 372121448, "role": "outer"}, {"type": "way", "ref": 372121447, "role": "outer"}], "tags": {"access": "customers", "amenity": "parking", "capacity": "18", "capacity:disabled": "2", "source": "Bing;USGS Large Scale Imagery", "surface": "asphalt", "type": "multipolygon", "wheelchair": "yes"}}]}