{"version": 0.6, "generator": "Overpass API 0.7.62.8 e802775f", "osm3s": {"timestamp_osm_base": "2025-12-07T02:16:53Z", "copyright": "The data included in this document is from www.openstreetmap.org. The data is made available under ODbL."}, "elements": [{"type": "node", "id": 2754283446, "lat": 46.6060971, "lon": -121.670909}, {"type": "node", "id": 2754283483, "lat": 46.6075627, "lon": -121.6701414, "tags": {"addr:housenumber": "13028", "addr:street": "US 12", "amenity": "restaurant", "cuisine": "pizza", "name": "Cruiser's Pizza", "phone": "+1-360-494-5400", "website": "http://cruiserspizza.com"}}, {"type": "node", "id": 2754283487, "lat": 46.6097647, "lon": -121.6700261, "tags": {"name": "Tatoosh Food Mart", "opening_hours": "24/7", "shop": "convenience"}}, {"type": "node", "id": 2754283492, "lat": 46.6066028, "lon": -121.6705732, "tags": {"addr:housenumber": "105", "addr:street": "Main Street East", "amenity": "cafe", "cuisine": "coffee_shop", "name": "Mountain Goat Coffee Roaster and Bakery", "outdoor_seating": "yes", "phone": "+1-360-494-5600", "toilets:wheelchair": "yes", "wheelchair": "yes"}}, {"type": "node", "id": 2754283521, "lat": 46.6063446, "lon": -121.6722311}, {"type": "node", "id": 2754283580, "lat": 46.6062297, "lon": -121.6719217}, {"type": "node", "id": 2754283593, "lat": 46.6061117, "lon": -121.6709578}, {"type": "node", "id": 2754283614, "lat": 46.6062244, "lon": -121.6710625}, {"type": "node", "id": 2754283619, "lat": 46.6074541, "lon": -121.670962, "tags": {"amenity": "pub", "name": "Blue Spruce Saloon and Grill", "phone": "+1-360-494-5605", "short_name": "Blue Spruce Saloon"}}, {"type": "node", "id": 2754283624, "lat": 46.6061651, "lon": -121.6708656}, {"type": "node", "id": 2754283656, "lat": 46.6057931, "lon": -121.6711265}, {"type": "node", "id": 2754283681, "lat": 46.6063402, "lon": -121.6719184}, {"type": "node", "id": 2754283690, "lat": 46.6061549, "lon": -121.6722368}, {"type": "node", "id": 2754283708, "lat": 46.6061031, "lon": -121.6710708}, {"type": "node", "id": 2754283736, "lat": 46.6060759, "lon": -121.6709806}, {"type": "node", "id": 2754283744, "lat": 46.6084381, "lon": -121.6691973, "tags": {"addr:city": "Packwood", "addr:housenumber": "13040", "addr:postcode": "98361", "addr:state": "WA", "addr:street": "US 12", "brand:wikidata": "Q3146662", "name": "Blanton's IGA Market", "opening_hours": "Mo-Su 07:00-21:00", "phone": "+1-360-494-6101", "shop": "supermarket"}}, {"type": "node", "id": 2754283754, "lat": 46.6056239, "lon": -121.6711258}, {"type": "node", "id": 2754283762, "lat": 46.6057926, "lon": -121.6714035}, {"type": "node", "id": 2754283768, "lat": 46.6056234, "lon": -121.6714028}, {"type": "node", "id": 2754283770, "lat": 46.6049904, "lon": -121.671689, "tags": {"amenity": "police", "name": "Lewis County Sheriff Substation"}}, {"type": "node", "id": 2754283780, "lat": 46.6060754, "lon": -121.6710884}, {"type": "node", "id": 2754283799, "lat": 46.6098981, "lon": -121.6695635, "tags": {"addr:city": "Packwood", "addr:housenumber": "13053", "addr:postcode": "98361", "addr:street": "US 12", "amenity": "fuel", "brand": "76", "compressed_air": "yes", "name": "76", "opening_hours": "24/7"}}, {"type": "node", "id": 2754283811, "lat": 46.6060928, "lon": -121.6711464}, {"type": "node", "id": 2754338153, "lat": 46.6075771, "lon": -121.6718474}, {"type": "node", "id": 2754338157, "lat": 46.6029085, "lon": -121.675277}, {"type": "node", "id": 2754338168, "lat": 46.6067972, "lon": -121.6678395}, {"type": "node", "id": 2754338176, "lat": 46.6076951, "lon": -121.6718446}, {"type": "node", "id": 2754338177, "lat": 46.6121472, "lon": -121.6667204}, {"type": "node", "id": 2754338180, "lat": 46.6122813, "lon": -121.6666615}, {"type": "node", "id": 2754338184, "lat": 46.6032155, "lon": -121.67537}, {"type": "node", "id": 2754338187, "lat": 46.6122319, "lon": -121.6670588}, {"type": "node", "id": 2754338189, "lat": 46.6030529, "lon": -121.6750481}, {"type": "node", "id": 2754338192, "lat": 46.6123425, "lon": -121.6670615}, {"type": "node", "id": 2754338195, "lat": 46.6122387, "lon": -121.6670216}, {"type": "node", "id": 2754338205, "lat": 46.6121269, "lon": -121.6670184}, {"type": "node", "id": 2754338207, "lat": 46.6041396, "lon": -121.6727151, "tags": {"amenity": "fuel", "brand": "Chevron"}}, {"type": "node", "id": 2754338209, "lat": 46.6032217, "lon": -121.6748909}, {"type": "node", "id": 2754338210, "lat": 46.6124063, "lon": -121.6667096}, {"type": "node", "id": 2754338212, "lat": 46.6065385, "lon": -121.6676532}, {"type": "node", "id": 2754338215, "lat": 46.606543, "lon": -121.6678518}, {"type": "node", "id": 2754338218, "lat": 46.6121235, "lon": -121.6668514}, {"type": "node", "id": 2754338221, "lat": 46.6040542, "lon": -121.672652, "tags": {"name": "Food Mart", "shop": "convenience"}}, {"type": "node", "id": 2754338224, "lat": 46.6067927, "lon": -121.667641}, {"type": "node", "id": 2754338225, "lat": 46.6076924, "lon": -121.6716099}, {"type": "node", "id": 2754338227, "lat": 46.6030267, "lon": -121.6755458}, {"type": "node", "id": 2754338228, "lat": 46.6030824, "lon": -121.6751151}, {"type": "node", "id": 2754338230, "lat": 46.6075745, "lon": -121.6716127}, {"type": "node", "id": 2754338231, "lat": 46.612155, "lon": -121.6668636}, {"type": "node", "id": 2754338237, "lat": 46.6122625, "lon": -121.6667647}, {"type": "node", "id": 2754338250, "lat": 46.603315, "lon": -121.6751031}, {"type": "node", "id": 2754338276, "lat": 46.6037889, "lon": -121.6730194, "tags": {"amenity": "fast_food", "cuisine": "burger", "name": "Cliff Droppers Burgers"}}, {"type": "node", "id": 2754338283, "lat": 46.6031611, "lon": -121.6752463}, {"type": "node", "id": 5809357353, "lat": 46.6100924, "lon": -121.6699602, "tags": {"amenity": "toilets"}}, {"type": "node", "id": 5809357553, "lat": 46.6099876, "lon": -121.6704841, "tags": {"name": "Hair We Are", "opening_hours": "Mo-Fr 09:00-17:00", "phone": "+1-360-494-8881", "shop": "hairdresser"}}, {"type": "node", "id": 5809548153, "lat": 46.6105175, "lon": -121.6681135, "tags": {"addr:housenumber": "13068", "name": "Mountain Valley Real Estate", "office": "estate_agent", "phone": "+1-360-494-2323"}}, {"type": "node", "id": 5809550453, "lat": 46.6087862, "lon": -121.6692692, "tags": {"addr:housenumber": "13042", "name": "Packwood Spirits & Quilts", "phone": "+1-360-494-4275", "shop": "alcohol"}}, {"type": "node", "id": 5809603453, "lat": 46.6145488, "lon": -121.6656432, "tags": {"amenity": "place_of_worship", "name": "Packwood Foursquare Church"}}, {"type": "node", "id": 5809603454, "lat": 46.6171917, "lon": -121.6648891, "tags": {"name": "BL Construction", "office": "company"}}, {"type": "node", "id": 7092135288, "lat": 46.6070847, "lon": -121.671053}, {"type": "node", "id": 7092135289, "lat": 46.607242, "lon": -121.6710001}, {"type": "node", "id": 7092135290, "lat": 46.607259, "lon": -121.6711073}, {"type": "node", "id": 7092135291, "lat": 46.6072313, "lon": -121.6711166}, {"type": "node", "id": 7092135292, "lat": 46.6072446, "lon": -121.6712006}, {"type": "node", "id": 7092135293, "lat": 46.607129, "lon": -121.6712395}, {"type": "node", "id": 7092135294, "lat": 46.607137, "lon": -121.67129}, {"type": "node", "id": 7092135295, "lat": 46.6070269, "lon": -121.671327}, {"type": "node", "id": 7092135296, "lat": 46.6069971, "lon": -121.6711391}, {"type": "node", "id": 7092135297, "lat": 46.6070932, "lon": -121.6711068}, {"type": "node", "id": 7092135298, "lat": 46.606876, "lon": -121.671049}, {"type": "node", "id": 7092135299, "lat": 46.606975, "lon": -121.671049}, {"type": "node", "id": 7092135300, "lat": 46.606975, "lon": -121.671216}, {"type": "node", "id": 7092135301, "lat": 46.606876, "lon": -121.671216}, {"type": "node", "id": 7092135306, "lat": 46.6068208, "lon": -121.6698963}, {"type": "node", "id": 7092135307, "lat": 46.6068192, "lon": -121.6700264}, {"type": "node", "id": 7092135308, "lat": 46.6065482, "lon": -121.6700197}, {"type": "node", "id": 7092135309, "lat": 46.6065498, "lon": -121.6698896}, {"type": "node", "id": 7816453084, "lat": 46.606192, "lon": -121.670521}, {"type": "node", "id": 7816501092, "lat": 46.607073, "lon": -121.670538}, {"type": "node", "id": 7816501110, "lat": 46.606283, "lon": -121.670634}, {"type": "node", "id": 7816501112, "lat": 46.607097, "lon": -121.670323}, {"type": "node", "id": 7816501115, "lat": 46.606192, "lon": -121.670634}, {"type": "node", "id": 7816501146, "lat": 46.606299, "lon": -121.670438}, {"type": "node", "id": 7816501148, "lat": 46.606203, "lon": -121.67033}, {"type": "node", "id": 7816501162, "lat": 46.606203, "lon": -121.670438}, {"type": "node", "id": 7816501175, "lat": 46.606283, "lon": -121.670521}, {"type": "node", "id": 7816501233, "lat": 46.606299, "lon": -121.67033}, {"type": "node", "id": 7816501256, "lat": 46.607144, "lon": -121.670498}, {"type": "node", "id": 7816501302, "lat": 46.607026, "lon": -121.670363}, {"type": "node", "id": 7816501317, "lat": 46.6061524, "lon": -121.6720575}, {"type": "node", "id": 7816501318, "lat": 46.6062316, "lon": -121.6720551}, {"type": "node", "id": 8949471825, "lat": 46.6066634, "lon": -121.6712533, "tags": {"name": "Four-U Realty", "office": "estate_agent"}}, {"type": "node", "id": 8963370897, "lat": 46.6038919, "lon": -121.673644, "tags": {"amenity": "cafe", "name": "Base Camp Coffee", "takeaway": "only"}}, {"type": "node", "id": 8963370899, "lat": 46.6043267, "lon": -121.6734074, "tags": {"addr:housenumber": "12975", "addr:street": "US 12", "name": "Highway Shopper", "office": "newspaper", "website": "https://www.highwayshopper.com"}}, {"type": "node", "id": 8963370900, "lat": 46.6042993, "lon": -121.6733363, "tags": {"name": "The Red Chair", "shop": "antiques"}}, {"type": "node", "id": 12156895704, "lat": 46.6017796, "lon": -121.6757363, "tags": {"amenity": "polling_station", "location": "outdoor", "polling_station": "ballot_box"}}, {"type": "way", "id": 270404811, "nodes": [2754283614, 2754283624, 2754283446, 2754283593, 2754283736, 2754283708, 2754283780, 2754283811, 2754283614], "tags": {"building": "yes", "name": "Trillium Tattoo Studio", "shop": "tattoo"}}, {"type": "way", "id": 270404822, "nodes": [2754283762, 2754283656, 2754283754, 2754283768, 2754283762], "tags": {"addr:housenumber": "12298", "addr:street": "US 12", "amenity": "pub", "building": "yes", "name": "Packwood Brewing Co.", "website": "https://www.packwoodbrewingco.com"}}, {"type": "way", "id": 270404830, "nodes": [2754283521, 2754283681, 2754283580, 7816501318, 7816501317, 2754283690, 2754283521], "tags": {"amenity": "library", "building": "yes", "name": "Packwood Timberland Library"}}, {"type": "way", "id": 270407714, "nodes": [2754338192, 2754338210, 2754338180, 2754338237, 2754338177, 2754338218, 2754338231, 2754338205, 2754338187, 2754338195, 2754338192], "tags": {"amenity": "place_of_worship", "building": "yes", "denomination": "presbyterian", "name": "Packwood Community Presbyterian Church", "religion": "christian"}}, {"type": "way", "id": 270407722, "nodes": [2754338176, 2754338225, 2754338230, 2754338153, 2754338176], "tags": {"amenity": "post_office", "building": "yes"}}, {"type": "way", "id": 270407726, "nodes": [2754338250, 2754338209, 2754338189, 2754338228, 2754338157, 2754338227, 2754338184, 2754338283, 2754338250], "tags": {"amenity": "fire_station", "building": "yes", "name": "Lewis County Fire District #10"}}, {"type": "way", "id": 270407730, "nodes": [2754338168, 2754338224, 2754338212, 2754338215, 2754338168], "tags": {"amenity": "place_of_worship", "building": "yes", "name": "Everflowing Spiritled Fellowship", "religion": "christian"}}, {"type": "way", "id": 759267247, "nodes": [7092135288, 7092135289, 7092135290, 7092135291, 7092135292, 7092135293, 7092135294, 7092135295, 7092135296, 7092135297, 7092135288], "tags": {"building": "yes", "name": "Napa Auto Parts", "shop": "car_parts"}}, {"type": "way", "id": 759267248, "nodes": [7092135298, 7092135299, 7092135300, 7092135301, 7092135298], "tags": {"addr:housenumber": "13015", "addr:street": "US 12", "building": "retail", "name": "Lil' Jems & More", "shop": "gift"}}, {"type": "way", "id": 759267250, "nodes": [7092135306, 7092135307, 7092135308, 7092135309, 7092135306], "tags": {"addr:city": "Packwood", "addr:housenumber": "104", "addr:postcode": "98361-5502", "addr:state": "WA", "addr:street": "Rainier Avenue", "brand": "Ace Hardware", "brand:wikidata": "Q4672981", "building": "yes", "name": "Ace Hardware", "opening_hours": "Mo-Fr 08:00-17:30; Sa 09:00-17:30; Su 09:00-15:30", "phone": "+1-360-494-2131", "ref": "18911", "shop": "hardware"}}, {"type": "way", "id": 837490096, "nodes": [7816501302, 7816501112, 7816501256, 7816501092, 7816501302], "tags": {"building": "yes", "name": "Fat-Elk Trading Co.", "shop": "pottery", "source": "microsoft/BuildingFootprints"}}, {"type": "way", "id": 837490104, "nodes": [7816501233, 7816501146, 7816501162, 7816501148, 7816501233], "tags": {"addr:housenumber": "106", "addr:street": "Main Street East", "building": "yes", "name": "Donna's Hairstyling", "shop": "hairdresser", "source": "microsoft/BuildingFootprints"}}, {"type": "way", "id": 837490108, "nodes": [7816501110, 7816501115, 7816453084, 7816501175, 7816501110], "tags": {"addr:housenumber": "102", "addr:street": "Main Street East", "building": "yes", "name": "Sip & Stitch", "shop": "tea", "source": "microsoft/BuildingFootprints"}}]}