{"version": 0.6, "generator": "Overpass API 0.7.62.8 e802775f", "osm3s": {"timestamp_osm_base": "2025-12-06T04:33:45Z", "copyright": "The data included in this document is from www.openstreetmap.org. The data is made available under ODbL."}, "elements": [{"type": "node", "id": 7045113904, "lat": 47.0150378, "lon": -114.2301299}, {"type": "node", "id": 7045113905, "lat": 47.0150184, "lon": -114.2300826}, {"type": "node", "id": 7045113906, "lat": 47.0149992, "lon": -114.2300995}, {"type": "node", "id": 7045113907, "lat": 47.0150186, "lon": -114.2301469}, {"type": "node", "id": 7439642880, "lat": 47.0155132, "lon": -114.2320665}, {"type": "node", "id": 7439642881, "lat": 47.0154162, "lon": -114.2321397}, {"type": "node", "id": 7439642882, "lat": 47.0153153, "lon": -114.2318519}, {"type": "node", "id": 7439642883, "lat": 47.0154122, "lon": -114.2317788}, {"type": "node", "id": 7439642884, "lat": 47.014874, "lon": -114.2305988}, {"type": "node", "id": 7439655385, "lat": 47.014826, "lon": -114.2306384}, {"type": "node", "id": 7439655386, "lat": 47.0147601, "lon": -114.2304667}, {"type": "node", "id": 7439655387, "lat": 47.0148082, "lon": -114.2304271}, {"type": "node", "id": 7439655388, "lat": 47.0157688, "lon": -114.2289495}, {"type": "node", "id": 7439655389, "lat": 47.0157688, "lon": -114.2287323}, {"type": "node", "id": 7439655390, "lat": 47.0156024, "lon": -114.2287269}, {"type": "node", "id": 7439655391, "lat": 47.0156024, "lon": -114.2289495}, {"type": "node", "id": 7439655392, "lat": 47.0156115, "lon": -114.229089}, {"type": "node", "id": 7439655393, "lat": 47.0155272, "lon": -114.22895}, {"type": "node", "id": 7439655394, "lat": 47.0155274, "lon": -114.2290892}, {"type": "node", "id": 7439655395, "lat": 47.0154304, "lon": -114.2290903}, {"type": "node", "id": 7439655396, "lat": 47.0154288, "lon": -114.2289516}, {"type": "node", "id": 7439655397, "lat": 47.0152731, "lon": -114.2290942}, {"type": "node", "id": 7439655398, "lat": 47.0152714, "lon": -114.2289556}, {"type": "way", "id": 754096200, "nodes": [7045113904, 7045113905, 7045113906, 7045113907, 7045113904], "tags": {"amenity": "cafe", "building": "yes", "cuisine": "coffee_shop", "name": "Clark Fork River Coffee Company"}}, {"type": "way", "id": 795422888, "nodes": [7439642880, 7439642881, 7439642882, 7439642883, 7439642880], "tags": {"addr:city": "Frenchtown", "addr:housenumber": "17001", "addr:postcode": "59834", "addr:state": "MT", "addr:street": "Beckwith Street", "amenity": "bar", "building": "yes", "description": "Bar with Dancing and Games", "name": "Bennies"}}, {"type": "way", "id": 795422889, "nodes": [7439642884, 7439655385, 7439655386, 7439655387, 7439642884], "tags": {"addr:city": "Frenchtown", "addr:housenumber": "16855", "addr:postcode": "59834", "addr:state": "MT", "addr:street": "Beckwith Street", "beauty": "nails", "building": "yes", "name": "Gifted Hand", "shop": "beauty"}}, {"type": "way", "id": 795422890, "nodes": [7439655388, 7439655389, 7439655390, 7439655391, 7439655388], "tags": {"addr:city": "Frenchtown", "addr:housenumber": "16640", "addr:postcode": "59834", "addr:state": "MT", "addr:street": "Beckwith Street", "building": "yes", "name": "Broncs Grocery", "shop": "supermarket"}}, {"type": "way", "id": 795422891, "nodes": [7439655392, 7439655391, 7439655393, 7439655394, 7439655392], "tags": {"addr:city": "Frenchtown", "addr:housenumber": "16640", "addr:postcode": "59834", "addr:state": "MT", "addr:street": "Beckwith Street", "amenity": "cafe", "building": "yes", "name": "Gammys Cafe"}}, {"type": "way", "id": 795422892, "nodes": [7439655394, 7439655395, 7439655396, 7439655393, 7439655394], "tags": {"addr:city": "Frenchtown", "addr:housenumber": "16640", "addr:postcode": "59834", "addr:state": "MT", "addr:street": "Beckwith Street", "building": "yes", "name": "Frenchtown Landromat", "shop": "laundry"}}, {"type": "way", "id": 795422893, "nodes": [7439655395, 7439655397, 7439655398, 7439655396, 7439655395], "tags": {"addr:city": "Frenchtown", "addr:housenumber": "16640", "addr:postcode": "59834", "addr:state": "MT", "addr:street": "Beckwith Street", "building": "yes", "name": "Frenchtown Salon", "shop": "hairdresser"}}]}