{"version": 0.6, "generator": "Overpass API 0.7.62.8 e802775f", "osm3s": {"timestamp_osm_base": "2025-12-06T05:32:12Z", "copyright": "The data included in this document is from www.openstreetmap.org. The data is made available under ODbL."}, "elements": [{"type": "node", "id": 4560222605, "lat": 47.3142943, "lon": -116.5602317}, {"type": "node", "id": 4560222606, "lat": 47.3142965, "lon": -116.560018}, {"type": "node", "id": 4560222611, "lat": 47.3143637, "lon": -116.5600195}, {"type": "node", "id": 4560222612, "lat": 47.3143667, "lon": -116.5597242}, {"type": "node", "id": 4560222622, "lat": 47.314916, "lon": -116.5602453}, {"type": "node", "id": 4560222623, "lat": 47.3149166, "lon": -116.5601892}, {"type": "node", "id": 4560222624, "lat": 47.314944, "lon": -116.5598279}, {"type": "node", "id": 4560222625, "lat": 47.314945, "lon": -116.5597381}, {"type": "node", "id": 4560222628, "lat": 47.315133, "lon": -116.560194}, {"type": "node", "id": 4560222631, "lat": 47.3151367, "lon": -116.5598322}, {"type": "node", "id": 7243249051, "lat": 47.3154747, "lon": -116.5601763}, {"type": "node", "id": 7243249052, "lat": 47.3154734, "lon": -116.5600596}, {"type": "node", "id": 7243249053, "lat": 47.3154281, "lon": -116.5600608}, {"type": "node", "id": 7243249054, "lat": 47.3154295, "lon": -116.5601774}, {"type": "node", "id": 12037751410, "lat": 47.3195204, "lon": -116.5708706}, {"type": "node", "id": 12037751411, "lat": 47.3194068, "lon": -116.570424}, {"type": "node", "id": 12037751412, "lat": 47.3194263, "lon": -116.5704132}, {"type": "node", "id": 12037751413, "lat": 47.3193627, "lon": -116.5701632}, {"type": "node", "id": 12037751414, "lat": 47.3191755, "lon": -116.5702667}, {"type": "node", "id": 12037751415, "lat": 47.3193527, "lon": -116.5709634}, {"type": "node", "id": 12037751490, "lat": 47.3175397, "lon": -116.569811}, {"type": "node", "id": 12037751491, "lat": 47.3175432, "lon": -116.5696731}, {"type": "node", "id": 12037751492, "lat": 47.3173852, "lon": -116.5696643}, {"type": "node", "id": 12037751493, "lat": 47.3173816, "lon": -116.5698022}, {"type": "node", "id": 12089907795, "lat": 47.3161388, "lon": -116.5714828}, {"type": "node", "id": 12089907796, "lat": 47.3161443, "lon": -116.5712317}, {"type": "node", "id": 12089907797, "lat": 47.3159155, "lon": -116.5712208}, {"type": "node", "id": 12089907798, "lat": 47.31591, "lon": -116.5714718}, {"type": "node", "id": 12714655099, "lat": 47.3146138, "lon": -116.5597296}, {"type": "node", "id": 12714655100, "lat": 47.3146843, "lon": -116.5597323}, {"type": "node", "id": 12714655101, "lat": 47.3146848, "lon": -116.5596879}, {"type": "node", "id": 12714655102, "lat": 47.3146142, "lon": -116.5596863}, {"type": "node", "id": 12714655346, "lat": 47.3155362, "lon": -116.5627364}, {"type": "node", "id": 12714655347, "lat": 47.3155381, "lon": -116.5629556}, {"type": "node", "id": 12714655348, "lat": 47.315451, "lon": -116.5629572}, {"type": "node", "id": 12714655349, "lat": 47.3154492, "lon": -116.562738}, {"type": "node", "id": 12714655477, "lat": 47.3155402, "lon": -116.5638111}, {"type": "node", "id": 12714655478, "lat": 47.3155401, "lon": -116.5640343}, {"type": "node", "id": 12714655479, "lat": 47.3154403, "lon": -116.5640342}, {"type": "node", "id": 12714655480, "lat": 47.3154403, "lon": -116.563972}, {"type": "node", "id": 12714655481, "lat": 47.3154229, "lon": -116.563972}, {"type": "node", "id": 12714655482, "lat": 47.3154229, "lon": -116.5637992}, {"type": "node", "id": 12714655483, "lat": 47.3154987, "lon": -116.5637992}, {"type": "node", "id": 12714655484, "lat": 47.3154987, "lon": -116.5638111}, {"type": "node", "id": 12714655485, "lat": 47.3155222, "lon": -116.558992}, {"type": "node", "id": 12714655486, "lat": 47.3155223, "lon": -116.5587869}, {"type": "node", "id": 12714655487, "lat": 47.3155475, "lon": -116.558787}, {"type": "node", "id": 12714655488, "lat": 47.3155475, "lon": -116.5587071}, {"type": "node", "id": 12714655489, "lat": 47.3155262, "lon": -116.5587071}, {"type": "node", "id": 12714655490, "lat": 47.3155262, "lon": -116.5586385}, {"type": "node", "id": 12714655491, "lat": 47.3155599, "lon": -116.5586385}, {"type": "node", "id": 12714655492, "lat": 47.31556, "lon": -116.5584623}, {"type": "node", "id": 12714655493, "lat": 47.3155796, "lon": -116.5584623}, {"type": "node", "id": 12714655494, "lat": 47.3155796, "lon": -116.5583155}, {"type": "node", "id": 12714655495, "lat": 47.31541, "lon": -116.5583154}, {"type": "node", "id": 12714655496, "lat": 47.31541, "lon": -116.558593}, {"type": "node", "id": 12714655497, "lat": 47.3153912, "lon": -116.558593}, {"type": "node", "id": 12714655498, "lat": 47.3153912, "lon": -116.5587885}, {"type": "node", "id": 12714655499, "lat": 47.3154096, "lon": -116.5587885}, {"type": "node", "id": 12714655500, "lat": 47.3154096, "lon": -116.5589484}, {"type": "node", "id": 12714655501, "lat": 47.3154202, "lon": -116.5589484}, {"type": "node", "id": 12714655502, "lat": 47.3154202, "lon": -116.5589919}, {"type": "node", "id": 12714781929, "lat": 47.316658, "lon": -116.5707401}, {"type": "node", "id": 12714781930, "lat": 47.3164881, "lon": -116.5707339}, {"type": "node", "id": 12714781931, "lat": 47.3164985, "lon": -116.570107}, {"type": "node", "id": 12714781932, "lat": 47.3166685, "lon": -116.5701131}, {"type": "node", "id": 12720378847, "lat": 47.3161326, "lon": -116.5714818}, {"type": "node", "id": 12720378852, "lat": 47.3159671, "lon": -116.5714745}, {"type": "node", "id": 12720378952, "lat": 47.3159641, "lon": -116.5712231}, {"type": "node", "id": 12720379126, "lat": 47.3166653, "lon": -116.5703026}, {"type": "way", "id": 460350699, "nodes": [4560222605, 4560222622, 4560222623, 4560222628, 4560222631, 4560222624, 4560222625, 12714655100, 12714655101, 12714655102, 12714655099, 4560222612, 4560222611, 4560222606, 4560222605], "tags": {"addr:city": "St Maries", "addr:housenumber": "105", "addr:postcode": "83861", "addr:state": "ID", "addr:street": "East College Avenue", "brand": "IGA", "brand:wikidata": "Q3146662", "building": "retail", "name": "Archie's IGA Plus", "opening_hours": "24/7", "phone": "+1 208-245-5504", "shop": "supermarket"}}, {"type": "way", "id": 776312465, "nodes": [7243249051, 7243249052, 7243249053, 7243249054, 7243249051], "tags": {"addr:city": "St Maries", "addr:housenumber": "132", "addr:postcode": "83861", "addr:state": "ID", "addr:street": "North 1st Street", "amenity": "cafe", "building": "yes", "cuisine": "coffee_shop", "name": "Shift and Grind", "opening_hours": "Mo-Fr 05:00-18:00, Sa-Su 06:00-16:00", "phone": "+1-208-582-8023"}}, {"type": "way", "id": 1299522468, "nodes": [12037751410, 12037751411, 12037751412, 12037751413, 12037751414, 12037751415, 12037751410], "tags": {"addr:housenumber": "1000", "addr:street": "Railroad Avenue", "building": "yes", "name": "Tenth Street Lumber", "phone": "+12082455585", "shop": "hardware", "website": "http://tenthstreetlumber.com/"}}, {"type": "way", "id": 1299522485, "nodes": [12037751490, 12037751491, 12037751492, 12037751493, 12037751490], "tags": {"addr:housenumber": "940", "addr:street": "Center Avenue", "amenity": "restaurant", "building": "yes", "cuisine": "american", "name": "The Grapple", "phone": "+12082453373"}}, {"type": "way", "id": 1305348146, "nodes": [12089907795, 12089907796, 12720378952, 12089907797, 12089907798, 12720378852, 12720378847, 12089907795], "tags": {"addr:housenumber": "1111", "addr:street": "Main Avenue", "brand": "NAPA Auto Parts", "brand:wikidata": "Q6970842", "building": "retail", "name": "NAPA Auto Parts", "opening_hours": "Mo-Fr 08:00-18:00; Sa 08:00-17:00", "phone": "+12082452516", "shop": "car_parts", "website": "https://www.napaonline.com/en/id/saint-maries/store/27593"}}, {"type": "way", "id": 1373191786, "nodes": [12714655346, 12714655347, 12714655348, 12714655349, 12714655346], "tags": {"building": "yes", "shop": "convenience"}}, {"type": "way", "id": 1373191805, "nodes": [12714655477, 12714655478, 12714655479, 12714655480, 12714655481, 12714655482, 12714655483, 12714655484, 12714655477], "tags": {"building": "yes", "shop": "convenience"}}, {"type": "way", "id": 1373191806, "nodes": [12714655485, 12714655486, 12714655487, 12714655488, 12714655489, 12714655490, 12714655491, 12714655492, 12714655493, 12714655494, 12714655495, 12714655496, 12714655497, 12714655498, 12714655499, 12714655500, 12714655501, 12714655502, 12714655485], "tags": {"addr:housenumber": "130", "addr:street": "East College Avenue", "building": "yes", "name": "Triple X Feed", "opening_hours": "Mo-Fr 08:00-17:30; Sa 09:00-17:00", "phone": "+12082453471", "shop": "agrarian", "website": "https://triplexfeed.com/"}}, {"type": "way", "id": 1373206670, "nodes": [12714781929, 12714781930, 12714781931, 12714781932, 12720379126, 12714781929], "tags": {"addr:housenumber": "1016", "addr:street": "Main Avenue", "brand": "Les Schwab Tire Center", "brand:wikidata": "Q6529977", "building": "yes", "name": "Les Schwab Tire Center", "opening_hours": "Mo-Fr 08:00-18:00; Sa 08:00-17:00", "phone": "+12082454506", "shop": "tyres", "website": "https://www.lesschwab.com/stores/id/saint-maries/1016-main-ave"}}]}