{"version": 0.6, "generator": "Overpass API 0.7.62.8 e802775f", "osm3s": {"timestamp_osm_base": "2025-12-06T04:22:24Z", "copyright": "The data included in this document is from www.openstreetmap.org. The data is made available under ODbL."}, "elements": [{"type": "node", "id": 2629420147, "lat": 48.231014, "lon": -114.3268688}, {"type": "node", "id": 2629420148, "lat": 48.2310159, "lon": -114.3254849}, {"type": "node", "id": 2629420149, "lat": 48.231395, "lon": -114.3254931}, {"type": "node", "id": 2629420150, "lat": 48.2313949, "lon": -114.3252669}, {"type": "node", "id": 2629420151, "lat": 48.2317931, "lon": -114.3252691}, {"type": "node", "id": 2629420152, "lat": 48.2317914, "lon": -114.3254883}, {"type": "node", "id": 2629420153, "lat": 48.2323925, "lon": -114.3254898}, {"type": "node", "id": 2629420154, "lat": 48.2323909, "lon": -114.3261885}, {"type": "node", "id": 2629420155, "lat": 48.2325342, "lon": -114.3261901}, {"type": "node", "id": 2629420156, "lat": 48.2325378, "lon": -114.3269541}, {"type": "node", "id": 2629420157, "lat": 48.232352, "lon": -114.3269521}, {"type": "node", "id": 2629420158, "lat": 48.232353, "lon": -114.3266985}, {"type": "node", "id": 2629420159, "lat": 48.2320154, "lon": -114.3266946}, {"type": "node", "id": 2629420160, "lat": 48.232014, "lon": -114.3269635}, {"type": "node", "id": 3417605724, "lat": 48.2411707, "lon": -114.3289491}, {"type": "node", "id": 3417605725, "lat": 48.2414487, "lon": -114.3287566}, {"type": "node", "id": 3417605729, "lat": 48.2411725, "lon": -114.3282814}, {"type": "node", "id": 3417605732, "lat": 48.2415975, "lon": -114.3287575}, {"type": "node", "id": 3417605733, "lat": 48.2415988, "lon": -114.3282839}, {"type": "node", "id": 3417605736, "lat": 48.2414482, "lon": -114.3289508}, {"type": "node", "id": 4305464800, "lat": 48.237589, "lon": -114.3263202, "tags": {"addr:city": "Kalispell", "addr:housenumber": "2407", "addr:postcode": "59901", "addr:state": "MT", "addr:street": "Highway 93 North", "brand": "Best Buy", "brand:wikidata": "Q533415", "name": "Best Buy", "phone": "+1 406-752-1300", "shop": "electronics", "website": "https://stores.bestbuy.com/mt/kalispell/2407-highway-93-n-1016.html"}}, {"type": "node", "id": 4954192902, "lat": 48.2386532, "lon": -114.3294169}, {"type": "node", "id": 4954192903, "lat": 48.2386689, "lon": -114.3291681}, {"type": "node", "id": 4954192904, "lat": 48.2384514, "lon": -114.3291675}, {"type": "node", "id": 4954192905, "lat": 48.2384511, "lon": -114.3294192}, {"type": "node", "id": 5315599575, "lat": 48.2317072, "lon": -114.3268528}, {"type": "node", "id": 5378537732, "lat": 48.232502, "lon": -114.3313149, "tags": {"addr:city": "Kalispell", "addr:housenumber": "2286", "addr:postcode": "59901", "addr:state": "MT", "addr:street": "93 North", "branch": "Kalispell", "brand": "Mattress Firm", "brand:wikidata": "Q6791878", "name": "Mattress Firm", "opening_hours": "Mo-Sa 10:00-19:00; Su 12:00-18:00", "phone": "+1 406-890-2470", "ref": "241252", "shop": "bed", "website": "https://www.mattressfirm.com/en-us/stores/mt/kalispell/961215/"}}, {"type": "node", "id": 5700835674, "lat": 48.2109748, "lon": -114.3299676}, {"type": "node", "id": 5700835675, "lat": 48.2107961, "lon": -114.3299553}, {"type": "node", "id": 5700835676, "lat": 48.2108022, "lon": -114.3297539}, {"type": "node", "id": 5700835677, "lat": 48.2109809, "lon": -114.3297661}, {"type": "node", "id": 5750184700, "lat": 48.2359924, "lon": -114.3265064, "tags": {"addr:city": "Kalispell", "addr:housenumber": "2365", "addr:postcode": "59901", "addr:state": "MT", "addr:street": "Highway 93 North", "amenity": "cafe", "branch": "Target Kalispell 1540", "brand": "Starbucks", "brand:wikidata": "Q37158", "cuisine": "coffee_shop", "name": "Starbucks", "official_name": "Starbucks Coffee", "phone": "+1 406-751-8700", "ref": "1011739", "takeaway": "yes", "website": "https://www.starbucks.com/store-locator/store/1011739/target-kalispell-1540-2365-us-highway-93-n-kalispell-mt-59901-us"}}, {"type": "node", "id": 5750185427, "lat": 48.2365115, "lon": -114.3263226, "tags": {"addr:city": "Kalispell", "addr:housenumber": "2387", "addr:postcode": "59901", "addr:state": "MT", "addr:street": "Highway 93 North", "brand": "Ross", "brand:wikidata": "Q3442791", "name": "Ross", "official_name": "Ross Dress for Less", "opening_hours": "Mo-Th 09:30-21:30; Fr-Sa 09:30-22:00; Su 10:00-21:00", "phone": "+1 406-755-6521", "ref": "729", "shop": "department_store"}}, {"type": "node", "id": 5750185428, "lat": 48.2372529, "lon": -114.326328, "tags": {"name": "Natural Grocers", "shop": "supermarket"}}, {"type": "node", "id": 5750185705, "lat": 48.2369206, "lon": -114.3263253, "tags": {"brand": "TJ Maxx", "brand:wikidata": "Q10860683", "name": "TJ Maxx", "shop": "department_store"}}, {"type": "node", "id": 5750584803, "lat": 48.2426029, "lon": -114.3284877}, {"type": "node", "id": 5750584804, "lat": 48.2426016, "lon": -114.3289768}, {"type": "node", "id": 5750584805, "lat": 48.2423902, "lon": -114.3289756}, {"type": "node", "id": 5750584806, "lat": 48.2423894, "lon": -114.3292937}, {"type": "node", "id": 5750584807, "lat": 48.2424715, "lon": -114.3295083}, {"type": "node", "id": 5750584808, "lat": 48.2426073, "lon": -114.32957}, {"type": "node", "id": 5750584809, "lat": 48.2427359, "lon": -114.3295351}, {"type": "node", "id": 5750584810, "lat": 48.2428163, "lon": -114.3294224}, {"type": "node", "id": 5750584811, "lat": 48.2430747, "lon": -114.3294241}, {"type": "node", "id": 5750584812, "lat": 48.2430751, "lon": -114.3292779}, {"type": "node", "id": 5750584813, "lat": 48.2429576, "lon": -114.3292772}, {"type": "node", "id": 5750584814, "lat": 48.2429587, "lon": -114.3288878}, {"type": "node", "id": 5750584815, "lat": 48.2430555, "lon": -114.3288884}, {"type": "node", "id": 5750584816, "lat": 48.2430562, "lon": -114.3286251}, {"type": "node", "id": 5750584817, "lat": 48.2429636, "lon": -114.3286246}, {"type": "node", "id": 5750584818, "lat": 48.2429639, "lon": -114.3284898}, {"type": "node", "id": 5825957856, "lat": 48.2334157, "lon": -114.3293239, "tags": {"addr:unit": "#101", "brand": "AT&T", "brand:wikidata": "Q298594", "name": "AT&T", "shop": "mobile_phone"}}, {"type": "node", "id": 5825957869, "lat": 48.2379727, "lon": -114.3293417, "tags": {"addr:unit": "2", "brand": "GameStop", "brand:wikidata": "Q202210", "name": "GameStop", "shop": "video_games", "website": "https://www.gamestop.com/store/us/mt/kalispell/3158/mountainview-plaza-gamestop"}}, {"type": "node", "id": 6542687333, "lat": 48.2310127, "lon": -114.3266689}, {"type": "node", "id": 6542687334, "lat": 48.2310149, "lon": -114.325692}, {"type": "node", "id": 8180717424, "lat": 48.2313335, "lon": -114.3335954, "tags": {"brand": "Hobby Lobby", "brand:wikidata": "Q5874938", "name": "Hobby Lobby", "shop": "craft"}}, {"type": "node", "id": 8180717425, "lat": 48.231859, "lon": -114.3335843, "tags": {"brand": "REI", "brand:wikidata": "Q3414933", "name": "REI", "official_name": "Recreational Equipment, Inc.", "phone": "+1 406 755-4839", "service:bicycle:repair": "yes", "service:bicycle:retail": "yes", "shop": "outdoor", "website": "https://www.rei.com/stores/kalispell"}}, {"type": "node", "id": 8180717426, "lat": 48.2321726, "lon": -114.3335903, "tags": {"addr:city": "Kalispell", "addr:housenumber": "2280", "addr:postcode": "59901", "addr:state": "MT", "addr:street": "Highway 93 North", "brand": "HomeGoods", "brand:wikidata": "Q5887941", "name": "HomeGoods", "opening_hours": "Mo-Sa 09:30-21:30; Su 10:00-20:00", "phone": "+1 406-755-4122", "shop": "houseware"}}, {"type": "node", "id": 8180717454, "lat": 48.2327532, "lon": -114.3320277, "tags": {"brand": "Spectrum", "brand:wikidata": "Q7805197", "name": "Spectrum", "shop": "telecommunication"}}, {"type": "node", "id": 8180772801, "lat": 48.233332, "lon": -114.3271005, "tags": {"amenity": "restaurant", "brand": "Dickey's Barbecue Pit", "brand:wikidata": "Q19880747", "cuisine": "barbecue", "name": "Dickey's Barbecue Pit"}}, {"type": "node", "id": 8180772802, "lat": 48.2333682, "lon": -114.3265442, "tags": {"amenity": "restaurant", "contact:website": "https://www.nickerbokkers.com/", "cuisine": "pizza", "name": "Nickerbokker's Pizza Company", "old_name": "Bullman's Wood Fired Pizza", "opening_hours": "Mo 11:00-20:00; Tu-Th 16:00-20:30; Fr 11:00-21:00; Sa 11:00-20:00; Su closed"}}, {"type": "node", "id": 8180953599, "lat": 48.2377664, "lon": -114.3259283}, {"type": "node", "id": 8180953600, "lat": 48.2377659, "lon": -114.3258268}, {"type": "node", "id": 8180953601, "lat": 48.237858, "lon": -114.3258276}, {"type": "node", "id": 8180953602, "lat": 48.2378592, "lon": -114.325929}, {"type": "node", "id": 8180953603, "lat": 48.2381081, "lon": -114.3259219}, {"type": "node", "id": 8180953604, "lat": 48.2381117, "lon": -114.3266509}, {"type": "node", "id": 8180953605, "lat": 48.2379923, "lon": -114.3266474}, {"type": "node", "id": 8180953606, "lat": 48.2379926, "lon": -114.3266988}, {"type": "node", "id": 8180953607, "lat": 48.2377826, "lon": -114.3266989}, {"type": "node", "id": 8180953608, "lat": 48.2377824, "lon": -114.3266559}, {"type": "node", "id": 8180953644, "lat": 48.23667, "lon": -114.3290461, "tags": {"brand": "Famous Footwear", "brand:wikidata": "Q5433457", "name": "Famous Footwear", "shop": "shoes"}}, {"type": "node", "id": 8180953645, "lat": 48.23701, "lon": -114.3290563, "tags": {"addr:unit": "5", "brand": "Great Clips", "brand:wikidata": "Q5598967", "name": "Great Clips", "shop": "hairdresser"}}, {"type": "node", "id": 8180953944, "lat": 48.2390225, "lon": -114.3331653, "tags": {"brand": "Cabela's", "brand:wikidata": "Q2793714", "name": "Cabela's", "shop": "outdoor"}}, {"type": "node", "id": 8180953945, "lat": 48.2392205, "lon": -114.332574, "tags": {"brand": "Boot Barn", "brand:wikidata": "Q109825187", "clothes": "western", "name": "Boot Barn", "shop": "clothes"}}, {"type": "node", "id": 8180953946, "lat": 48.2393663, "lon": -114.3322595, "tags": {"addr:city": "Kalispell", "addr:housenumber": "65", "addr:postcode": "59901", "addr:state": "MT", "addr:street": "Treeline Road", "brand": "PetSmart", "brand:wikidata": "Q3307147", "name": "PetSmart", "opening_hours": "Mo-Sa 09:00-21:00; Su 10:00-19:00", "phone": "+1 406-756-0534", "ref": "2292", "shop": "pet", "website": "https://www.petsmart.com/stores/us/mt/kalispell-store2292.html"}}, {"type": "node", "id": 8180953947, "lat": 48.2387589, "lon": -114.3337673, "tags": {"addr:city": "Kalispell", "addr:housenumber": "145", "addr:postcode": "59901", "addr:state": "MT", "addr:street": "Treeline Road", "brand": "Michaels", "brand:wikidata": "Q6835667", "name": "Michaels", "opening_hours": "Mo-Sa 09:00-21:00; Su 10:00-19:00", "phone": "+1 406-407-7200", "ref": "1262", "shop": "craft", "website": "https://locations.michaels.com/mt/kalispell/1262"}}, {"type": "node", "id": 8180953948, "lat": 48.2386272, "lon": -114.3340748, "tags": {"addr:city": "Kalispell", "addr:housenumber": "155", "addr:postcode": "59901", "addr:state": "MT", "addr:street": "Treeline Road", "alt_name": "Ulta Skin Bar", "beauty": "skin_care", "brand": "Ulta Beauty", "brand:wikidata": "Q7880076", "name": "Ulta Beauty", "opening_hours": "Mo-We 10:00-20:00; Th-Sa 10:00-21:00; Su 11:00-18:00", "payment:american_express": "yes", "payment:cash": "yes", "payment:contactless": "yes", "payment:debit_cards": "yes", "payment:discover_card": "yes", "payment:mastercard": "yes", "payment:visa": "yes", "phone": "+1 406-756-0907", "ref": "1061", "shop": "beauty", "website": "https://www.ulta.com/stores/kalispell-mt-1061"}}, {"type": "node", "id": 8180953949, "lat": 48.2384177, "lon": -114.3345621, "tags": {"brand": "Buckle", "brand:wikidata": "Q4983306", "clothes": "men;women;children", "name": "Buckle", "shop": "clothes"}}, {"type": "node", "id": 8180953950, "lat": 48.2375346, "lon": -114.3329348, "tags": {"amenity": "bar", "name": "The Brass Tap"}}, {"type": "node", "id": 8180953951, "lat": 48.2375476, "lon": -114.3327679, "tags": {"brand": "Sport Clips", "brand:wikidata": "Q7579310", "name": "Sport Clips", "shop": "hairdresser"}}, {"type": "node", "id": 8180953952, "lat": 48.2375513, "lon": -114.3326142, "tags": {"amenity": "restaurant", "cuisine": "japanese", "name": "Kobe Steak & Sushi"}}, {"type": "node", "id": 8180953958, "lat": 48.2402025, "lon": -114.329348, "tags": {"amenity": "cafe", "brand": "Coffee Time", "brand:wikidata": "Q5140932", "cuisine": "coffee_shop", "name": "Coffee Time", "takeaway": "yes"}}, {"type": "node", "id": 8181044398, "lat": 48.241319, "lon": -114.327561, "tags": {"brand": "Town Pump", "brand:wikidata": "Q7830004", "name": "Town Pump", "shop": "convenience"}}, {"type": "node", "id": 8182103188, "lat": 48.2303648, "lon": -114.3312329, "tags": {"brand": "T-Mobile", "brand:wikidata": "Q3511885", "name": "T-Mobile", "shop": "mobile_phone"}}, {"type": "node", "id": 8182270304, "lat": 48.2339658, "lon": -114.3397371, "tags": {"amenity": "cafe", "name": "Sable Coffee"}}, {"type": "node", "id": 8185783327, "lat": 48.2107081, "lon": -114.3251628, "tags": {"name": "Buffalo Hill Terrace", "office": "association"}}, {"type": "node", "id": 8601383578, "lat": 48.2127497, "lon": -114.3246069, "tags": {"name": "Hope Pregnancy Ministries", "office": "association"}}, {"type": "node", "id": 8601383579, "lat": 48.2139344, "lon": -114.3230455, "tags": {"amenity": "cafe", "name": "Sunnyview Cafe"}}, {"type": "node", "id": 8601383649, "lat": 48.213291, "lon": -114.3259828, "tags": {"name": "Miracle-Ear Hearing Aid Center", "shop": "hearing_aids"}}, {"type": "node", "id": 8601383650, "lat": 48.2132762, "lon": -114.3262495, "tags": {"name": "MontanaSky Fiber Wireless Internet Computer & Network Service", "office": "telecommunication"}}, {"type": "node", "id": 8604341082, "lat": 48.2200609, "lon": -114.3265917, "tags": {"government": "prosecutor", "name": "Moore, Cockrell, Goicoechea & Johnson, P.C.", "office": "government"}}, {"type": "node", "id": 8604341084, "lat": 48.2206621, "lon": -114.3269899, "tags": {"name": "Glacier Law Firm", "office": "lawyer"}}, {"type": "node", "id": 8604341087, "lat": 48.2209614, "lon": -114.328367, "tags": {"brand": "Farmers Insurance", "brand:wikidata": "Q1396863", "name": "Farmers Insurance", "office": "insurance"}}, {"type": "node", "id": 8604341093, "lat": 48.2188241, "lon": -114.3293999, "tags": {"amenity": "cafe", "name": "City Brew Coffee", "opening_hours": "Mo-Sa 05:30-20:00; Su 06:00-20:00"}}, {"type": "node", "id": 8604341094, "lat": 48.2187714, "lon": -114.3290192, "tags": {"email": "bonjourbakeryandbistro@gmail.com", "name": "Bonjour Bakery & Bistro", "opening_hours": "Mo-Fr 08:00-16:00; Sa 09:00-14:00", "phone": "+1 406 309-2961", "shop": "bakery", "website": "https://bonjourbakeryandbistro.com/"}}, {"type": "node", "id": 8604341097, "lat": 48.2191302, "lon": -114.3313722, "tags": {"name": "Buffalo Hill Funeral Home & Crematory", "shop": "funeral_directors"}}, {"type": "node", "id": 8604380518, "lat": 48.2317623, "lon": -114.3269605}, {"type": "node", "id": 8604380519, "lat": 48.2317629, "lon": -114.3268535}, {"type": "node", "id": 8604380520, "lat": 48.2316633, "lon": -114.3268523}, {"type": "node", "id": 8604380521, "lat": 48.2316628, "lon": -114.3269358}, {"type": "node", "id": 8604380522, "lat": 48.2315607, "lon": -114.3269346}, {"type": "node", "id": 8604380523, "lat": 48.2314989, "lon": -114.3270061}, {"type": "node", "id": 8604380524, "lat": 48.2312559, "lon": -114.3270037}, {"type": "node", "id": 8604380525, "lat": 48.2312561, "lon": -114.3269531}, {"type": "node", "id": 8604380526, "lat": 48.2311287, "lon": -114.3269518}, {"type": "node", "id": 8604380527, "lat": 48.231129, "lon": -114.3268721}, {"type": "node", "id": 8604392211, "lat": 48.2374211, "lon": -114.339277, "tags": {"name": "D.A. Davidson & Co.", "office": "insurance"}}, {"type": "node", "id": 8605141502, "lat": 48.2259957, "lon": -114.3069986, "tags": {"name": "Anew U Cryospa", "shop": "massage"}}, {"type": "node", "id": 8605141504, "lat": 48.2259931, "lon": -114.3061365, "tags": {"name": "Thrivent Financial", "office": "insurance"}}, {"type": "node", "id": 8605185582, "lat": 48.2263467, "lon": -114.3049761, "tags": {"name": "Collection Bureau Services", "office": "yes"}}, {"type": "node", "id": 9706134210, "lat": 48.2309116, "lon": -114.3335453, "tags": {"brand": "Old Navy", "brand:wikidata": "Q2735242", "name": "Old Navy", "shop": "clothes"}}, {"type": "node", "id": 9706156541, "lat": 48.2386171, "lon": -114.3390963, "tags": {"name": "PayneWest Insurance", "office": "insurance"}}, {"type": "node", "id": 11006725404, "lat": 48.239016, "lon": -114.3264797, "tags": {"addr:city": "Kalispell", "addr:housenumber": "2455", "addr:postcode": "59901", "addr:state": "MT", "addr:street": "Highway 93 North", "alt_name": "Home Depot", "branch": "Kalispell", "brand": "The Home Depot", "brand:wikidata": "Q864407", "name": "The Home Depot", "opening_hours": "Mo-Sa 06:00-22:00; Su 07:00-20:00", "phone": "+1 406-755-5333", "ref": "3105", "shop": "doityourself", "website": "https://www.homedepot.com/l/kalispell/mt/kalispell/59901/3105"}}, {"type": "node", "id": 11006731576, "lat": 48.2386258, "lon": -114.3284132, "tags": {"addr:unit": "100B", "beauty": "eyebrow", "contact:phone": "+1 406 257-2588", "contact:website": "https://laylathreading.com/", "name": "LayLa Threading", "shop": "beauty"}}, {"type": "node", "id": 11011454893, "lat": 48.2345837, "lon": -114.3286872, "tags": {"name": "Sportsman & Ski Haus", "opening_hours": "Mo-Sa 09:00-21:00; Su 10:00-18:00", "phone": "+1 406 755-6484", "service:bicycle:rental": "yes", "service:bicycle:repair": "yes", "service:bicycle:retail": "yes", "shop": "outdoor", "website": "https://www.sportsmanskihaus.com/"}}, {"type": "node", "id": 11011460210, "lat": 48.2345337, "lon": -114.3299371, "tags": {"name": "Glacier Quilts", "shop": "fabric"}}, {"type": "node", "id": 11011460223, "lat": 48.2337824, "lon": -114.3299907, "tags": {"amenity": "restaurant", "brand": "Buffalo Wild Wings", "brand:wikidata": "Q509255", "cuisine": "wings", "name": "Buffalo Wild Wings", "short_name": "BW3"}}, {"type": "node", "id": 11011460232, "lat": 48.2328293, "lon": -114.3292102, "tags": {"amenity": "restaurant", "brand": "HuHot", "brand:website": "https://www.huhot.com/", "brand:wikidata": "Q5924606", "cuisine": "mongolian_grill", "delivery": "no", "name": "HuHot", "official_name": "HuHot Mongolian Grill", "short_name": "HuHot", "takeaway": "no", "website": "https://www.huhot.com/location/kalispell-mt/"}}, {"type": "node", "id": 11011460276, "lat": 48.2326734, "lon": -114.3281957, "tags": {"addr:unit": "#102", "contact:website": "https://406nutrition.com", "name": "406 Nutrition", "opening_hours": "Mo-Fr 09:00-20:00; Sa 10:00-18:00; Su 12:00-18:00", "shop": "nutrition_supplements"}}, {"type": "node", "id": 11011460277, "lat": 48.2325457, "lon": -114.3282031, "tags": {"addr:unit": "#104", "beauty": "nails", "contact:phone": "+1 406 756-6789", "name": "Kalispell Nails", "shop": "beauty"}}, {"type": "node", "id": 11011501294, "lat": 48.2347436, "lon": -114.3311816, "tags": {"amenity": "restaurant", "brand": "Applebee's Neighborhood Grill & Bar", "brand:wikidata": "Q621532", "cuisine": "american", "name": "Applebee's", "official_name": "Applebee's Neighborhood Grill & Bar", "phone": "+1 406-755-5575", "website": "https://restaurants.applebees.com/en-us/mt/kalispell/2322-us-hwy-93-n-77002", "website:menu": "https://www.applebees.com/en/menu?StoreNumber=77002&action=viewmenu"}}, {"type": "node", "id": 11011527889, "lat": 48.2334113, "lon": -114.3291898, "tags": {"addr:unit": "#102", "name": "Sterling Suites", "office": "property_management"}}, {"type": "node", "id": 11011527890, "lat": 48.233408, "lon": -114.3287943, "tags": {"addr:unit": "#105", "name": "Rocky Mountain Hearing Aid", "shop": "hearing_aids"}}, {"type": "node", "id": 11011527891, "lat": 48.2334097, "lon": -114.329003, "tags": {"addr:unit": "#104", "government": "office", "name": "National Guard", "office": "government"}}, {"type": "node", "id": 11011527892, "lat": 48.2334064, "lon": -114.3286657, "tags": {"addr:unit": "#106", "brand": "American Automobile Association", "brand:wikidata": "Q463436", "name": "AAA Insurance", "office": "insurance", "short_name": "AAA"}}, {"type": "node", "id": 11011538150, "lat": 48.2326899, "lon": -114.3335286, "tags": {"addr:city": "Kalispell", "addr:housenumber": "2298", "addr:postcode": "59901", "addr:state": "MT", "addr:street": "Highway 93 North", "brand": "Harbor Freight Tools", "brand:wikidata": "Q5654601", "name": "Harbor Freight Tools", "opening_hours": "Mo-Sa 08:00-20:00; Su 09:00-18:00", "phone": "+1 406-890-6161", "shop": "hardware", "website": "https://www.harborfreight.com/storelocator/2298-us-highway-93-north-kalispell-59901?number=865"}}, {"type": "node", "id": 11013178339, "lat": 48.2354931, "lon": -114.3312943, "tags": {"amenity": "restaurant", "brand": "Famous Dave's", "brand:wikidata": "Q5433448", "cuisine": "barbecue", "delivery": "no", "name": "Famous Dave's", "outdoor_seating": "yes", "takeaway": "yes"}}, {"type": "node", "id": 11013178345, "lat": 48.237059, "lon": -114.3312782, "tags": {"amenity": "cafe", "brand": "Starbucks", "brand:wikidata": "Q37158", "contact:website": "https://www.starbucks.com/store-locator/store/17858/hwy-93-reserve-dr-kalispell-2356-us-hwy-93-n-kalispell-mt-599012547-us", "cuisine": "coffee_shop", "internet_access": "yes", "name": "Starbucks", "official_name": "Starbucks Coffee", "outdoor_seating": "yes", "takeaway": "yes"}}, {"type": "node", "id": 11013178363, "lat": 48.2359862, "lon": -114.3339551, "tags": {"addr:city": "Kalispell", "addr:housenumber": "2360", "addr:postcode": "59901", "addr:state": "MT", "addr:street": "Highway 93 North", "brand": "Lowe's", "brand:wikidata": "Q1373493", "name": "Lowe's", "opening_hours": "Mo-Sa 06:00-22:00; Su 07:00-21:00", "phone": "+1 406-758-3030", "ref": "1904", "shop": "doityourself", "start_date": "2005-01-02", "website": "https://www.lowes.com/store/mt-kalispell/1904"}}, {"type": "node", "id": 11013235501, "lat": 48.2398284, "lon": -114.3318737, "tags": {"brand": "Discount Tire", "brand:wikidata": "Q5281735", "name": "Discount Tire", "shop": "tyres"}}, {"type": "node", "id": 11013235507, "lat": 48.2375788, "lon": -114.3312353, "tags": {"alt_name": "Verizon Wireless", "brand": "Verizon", "brand:wikidata": "Q919641", "name": "Verizon", "shop": "mobile_phone"}}, {"type": "node", "id": 11013235515, "lat": 48.2375761, "lon": -114.332286, "tags": {"amenity": "restaurant", "cuisine": "pizza", "name": "Mackenzie River Pizza"}}, {"type": "node", "id": 11013398393, "lat": 48.2377646, "lon": -114.3266559}, {"type": "node", "id": 11013398416, "lat": 48.2356289, "lon": -114.3259674, "tags": {"addr:city": "Kalispell", "addr:housenumber": "2365", "addr:postcode": "59901-2558", "addr:state": "MT", "addr:street": "Highway 93 North", "brand": "Target", "brand:wikidata": "Q1046951", "name": "Target", "opening_hours": "08:00-22:00", "phone": "+1 406-751-8700", "shop": "department_store", "website": "https://www.target.com/sl/kalispell/1540"}}, {"type": "node", "id": 11013398432, "lat": 48.2309488, "lon": -114.3266675}, {"type": "node", "id": 11013398433, "lat": 48.2309488, "lon": -114.3267801}, {"type": "node", "id": 11013398434, "lat": 48.2310145, "lon": -114.3267814}, {"type": "node", "id": 11013398440, "lat": 48.230983, "lon": -114.3266695}, {"type": "node", "id": 11013398441, "lat": 48.2309832, "lon": -114.3267808}, {"type": "node", "id": 11013398443, "lat": 48.2355762, "lon": -114.3292572, "tags": {"brand": "Dollar Tree", "brand:wikidata": "Q5289230", "check_date": "2024-07-11", "check_date:opening_hours": "2024-07-11", "name": "Dollar Tree", "opening_hours": "Mo-Sa 08:00-22:00; Su 09:00-20:00", "shop": "variety_store", "website": "https://www.dollartree.com/locations/mt/kalispell/3146/"}}, {"type": "node", "id": 11013430027, "lat": 48.2389964, "lon": -114.3291914, "tags": {"addr:city": "Kalispell", "addr:housenumber": "2435", "addr:postcode": "59901", "addr:state": "MT", "addr:street": "Highway 93N", "branch": "Kalispell", "brand": "Petco", "brand:wikidata": "Q7171798", "name": "Petco", "opening_hours": "Mo-Sa 09:00-20:00; Su 10:00-19:00", "phone": "+1 406-257-9574", "ref": "1211", "shop": "pet", "website": "https://stores.petco.com/mt/kalispell/pet-supplies-kalispell-mt-1211.html"}}, {"type": "node", "id": 11013434221, "lat": 48.2385185, "lon": -114.3294194}, {"type": "node", "id": 11013434222, "lat": 48.2385185, "lon": -114.3294364}, {"type": "node", "id": 11013434223, "lat": 48.2386185, "lon": -114.3294367}, {"type": "node", "id": 11013434224, "lat": 48.2386186, "lon": -114.3294168}, {"type": "node", "id": 11013434225, "lat": 48.2386534, "lon": -114.3292833}, {"type": "node", "id": 11013434226, "lat": 48.2386687, "lon": -114.3292833}, {"type": "node", "id": 11027081935, "lat": 48.2399467, "lon": -114.3297172, "tags": {"name": "Zip Trip", "shop": "convenience"}}, {"type": "node", "id": 11139894624, "lat": 48.2305138, "lon": -114.3337807, "tags": {"addr:city": "Kalispell", "addr:postcode": "59901", "addr:state": "MT", "branch": "Kalispell", "brand": "Kohl's", "brand:wikidata": "Q967265", "name": "Kohl's", "opening_hours": "Mo-Th 09:00-20:00; Fr-Sa 09:00-21:00; Su 09:00-20:00", "phone": "+1 406-309-6201", "ref": "1589", "shop": "department_store", "website": "https://www.kohls.com/stores/mt/kalispell-1589.shtml"}}, {"type": "node", "id": 11151244730, "lat": 48.2188014, "lon": -114.3292008, "tags": {"email": "support@radioactiveinc.com", "name": "RadioActive", "phone": "+1 406 257-5999", "shop": "electronics"}}, {"type": "node", "id": 11171760285, "lat": 48.2309596, "lon": -114.3266681}, {"type": "node", "id": 11171760286, "lat": 48.2309587, "lon": -114.3267803}, {"type": "node", "id": 11174759185, "lat": 48.2170857, "lon": -114.3263067, "tags": {"contact:fax": "+1 855 933-1196", "contact:phone": "+1 406 755-6322", "medical_supply": "orthotics", "name": "Hanger Clinic", "opening_hours": "Mo-Fr 09:00-12:00, 13:00-17:00", "shop": "medical_supply"}}, {"type": "node", "id": 11434923773, "lat": 48.211631, "lon": -114.3308584, "tags": {"amenity": "cafe", "cuisine": "coffee_shop", "delivery": "no", "drive_through": "yes", "name": "Copper Mountain Coffee", "opening_hours": "Mo-Su 06:00-19:00", "takeaway": "only", "website": "https://coppermountaincoffee.com"}}, {"type": "node", "id": 11549952928, "lat": 48.236135, "lon": -114.3291989, "tags": {"contact:phone": "+1 406 309-6228", "name": "Barnes & Noble", "shop": "books"}}, {"type": "node", "id": 11771832340, "lat": 48.2322211, "lon": -114.3299223, "tags": {"addr:city": "Kalispell", "addr:housenumber": "110", "addr:postcode": "59901", "addr:state": "MT", "addr:street": "Hutton Ranch Road", "addr:unit": "101", "amenity": "restaurant", "cuisine": "ramen", "name": "Hokkaido Ramen House", "phone": "+1 406-309-2485", "website": "https://www.hokkaidoramen.life"}}, {"type": "node", "id": 12144109078, "lat": 48.2313949, "lon": -114.3252859}, {"type": "node", "id": 12144109080, "lat": 48.2313949, "lon": -114.3253244, "tags": {"amenity": "loading_dock"}}, {"type": "node", "id": 12144109081, "lat": 48.231395, "lon": -114.3253857, "tags": {"amenity": "loading_dock"}}, {"type": "node", "id": 12144109082, "lat": 48.231793, "lon": -114.3252852}, {"type": "node", "id": 12144109084, "lat": 48.2317919, "lon": -114.3254284, "tags": {"amenity": "loading_dock"}}, {"type": "node", "id": 12144109085, "lat": 48.2317923, "lon": -114.3253746, "tags": {"amenity": "loading_dock"}}, {"type": "node", "id": 12144109086, "lat": 48.2317927, "lon": -114.3253277, "tags": {"amenity": "loading_dock"}}, {"type": "node", "id": 12144109087, "lat": 48.231395, "lon": -114.3254563, "tags": {"amenity": "loading_dock"}}, {"type": "node", "id": 12144109088, "lat": 48.2316849, "lon": -114.3252685}, {"type": "node", "id": 12298736806, "lat": 48.2280687, "lon": -114.3269431, "tags": {"amenity": "restaurant", "name": "Eagle's Nest Cafe"}}, {"type": "node", "id": 12298736807, "lat": 48.2280313, "lon": -114.3271531, "tags": {"name": "FVCC Bookstore", "shop": "books"}}, {"type": "node", "id": 13014702571, "lat": 48.2333963, "lon": -114.338849}, {"type": "node", "id": 13014702572, "lat": 48.233397, "lon": -114.3386797}, {"type": "node", "id": 13014702573, "lat": 48.2332966, "lon": -114.3386788}, {"type": "node", "id": 13014702574, "lat": 48.2332972, "lon": -114.3385374}, {"type": "node", "id": 13014702575, "lat": 48.2331742, "lon": -114.3385363}, {"type": "node", "id": 13014702576, "lat": 48.233173, "lon": -114.3388397}, {"type": "node", "id": 13014702577, "lat": 48.2332106, "lon": -114.33884}, {"type": "node", "id": 13014702578, "lat": 48.2332104, "lon": -114.33888}, {"type": "node", "id": 13014702579, "lat": 48.2332926, "lon": -114.3388807}, {"type": "node", "id": 13014702580, "lat": 48.2332927, "lon": -114.3388481}, {"type": "node", "id": 13288343473, "lat": 48.2512089, "lon": -114.3253164}, {"type": "node", "id": 13288343474, "lat": 48.2512329, "lon": -114.3232327}, {"type": "node", "id": 13288343475, "lat": 48.2504883, "lon": -114.3232134}, {"type": "node", "id": 13288343476, "lat": 48.2504851, "lon": -114.323488}, {"type": "node", "id": 13288343477, "lat": 48.250262, "lon": -114.3234822}, {"type": "node", "id": 13288343478, "lat": 48.250241, "lon": -114.3252911}, {"type": "way", "id": 257411398, "nodes": [2629420147, 11013398434, 11013398441, 11171760286, 11013398433, 11013398432, 11171760285, 11013398440, 6542687333, 6542687334, 2629420148, 2629420149, 12144109087, 12144109081, 12144109080, 12144109078, 2629420150, 12144109088, 2629420151, 12144109082, 12144109086, 12144109085, 12144109084, 2629420152, 2629420153, 2629420154, 2629420155, 2629420156, 2629420157, 2629420158, 2629420159, 2629420160, 8604380518, 8604380519, 5315599575, 8604380520, 8604380521, 8604380522, 8604380523, 8604380524, 8604380525, 8604380526, 8604380527, 2629420147], "tags": {"addr:city": "Kalispell", "addr:housenumber": "170", "addr:postcode": "59901", "addr:state": "MT", "addr:street": "Hutton Ranch Road", "brand": "Walmart", "brand:wikidata": "Q483551", "building": "supermarket", "building:levels": "1", "layer": "1", "name": "Walmart Supercenter", "opening_hours": "24/7", "operator": "Walmart", "payment:app:walmart": "yes", "payment:apple_pay": "no", "payment:google_pay": "no", "payment:samsung_pay": "no", "phone": "+1 406-257-7535", "ref": "2259", "ref:walmart": "2259", "sensory_friendly:accommodation": "dimmed_light;static_screens;no_pa", "sensory_friendly:conditional": "yes @ 08:00-10:00", "shop": "supermarket", "website": "https://www.walmart.com/store/2259-kalispell-mt"}}, {"type": "way", "id": 334702139, "nodes": [3417605736, 3417605724, 3417605729, 3417605733, 3417605732, 3417605725, 3417605736], "tags": {"building": "yes", "shop": "car", "source": "Mapbox"}}, {"type": "way", "id": 505486457, "nodes": [4954192902, 11013434225, 11013434226, 4954192903, 4954192904, 4954192905, 11013434221, 11013434222, 11013434223, 11013434224, 4954192902], "tags": {"addr:city": "Kalispell", "addr:housenumber": "2425", "addr:postcode": "59901", "addr:state": "MT", "addr:street": "Highway 93 North", "amenity": "restaurant", "brand": "IHOP", "brand:wikidata": "Q1185675", "building": "yes", "check_date": "2024-09-01", "cuisine": "breakfast;pancake", "name": "IHOP", "opening_hours": "Mo-Th,Su 06:00-22:00; Fr,Sa 06:00-24:00", "phone": "+1 406-752-5504", "source": "official website", "website": "https://restaurants.ihop.com/en-us/mt/kalispell/breakfast-2425-us-hwy-93-north-3075"}}, {"type": "way", "id": 599082847, "nodes": [5700835674, 5700835675, 5700835676, 5700835677, 5700835674], "tags": {"building": "yes", "name": "Kal's Food Store", "shop": "convenience"}}, {"type": "way", "id": 606540526, "nodes": [5750584803, 5750584804, 5750584805, 5750584806, 5750584807, 5750584808, 5750584809, 5750584810, 5750584811, 5750584812, 5750584813, 5750584814, 5750584815, 5750584816, 5750584817, 5750584818, 5750584803], "tags": {"brand": "Cadillac", "brand:wikidata": "Q27436", "building": "yes", "name": "Corwin Motors of Kalispell", "shop": "car"}}, {"type": "way", "id": 879432218, "nodes": [8180953599, 8180953600, 8180953601, 8180953602, 8180953603, 8180953604, 8180953605, 8180953606, 8180953607, 8180953608, 11013398393, 8180953599], "tags": {"addr:housenumber": "2441", "addr:state": "MT", "addr:street": "US 93 North", "alt_name": "Sierra Trading Post", "brand": "Sierra", "brand:wikidata": "Q7511598", "building": "yes", "name": "Sierra", "shop": "outdoor"}}, {"type": "way", "id": 1416217284, "nodes": [13014702571, 13014702572, 13014702573, 13014702574, 13014702575, 13014702576, 13014702577, 13014702578, 13014702579, 13014702580, 13014702571], "tags": {"building": "yes", "name": "LC Staffing", "office": "employment_agency"}}, {"type": "way", "id": 1448338035, "nodes": [13288343473, 13288343474, 13288343475, 13288343476, 13288343477, 13288343478, 13288343473], "tags": {"addr:city": "Kalispell", "addr:housenumber": "345", "addr:postcode": "59901", "addr:state": "MT", "addr:street": "Cascade Loop", "branch": "Kalispell", "brand": "Costco", "brand:wikidata": "Q715583", "building": "yes", "fixme": "Parking lots, service roads, and gas station need to be added, as well as a better building footprint when updated aerial imagery is available.", "name": "Costco", "opening_date": "2025-11-25", "opening_hours": "Mo-Fr 10:00-20:30, Sa 09:30-19:00, Su 10:00-18:00 || 09:00-10:00 \"Executive Member early shopping hours\"", "phone": "+1 406-609-4924", "ref": "1746", "shop": "wholesale", "website": "https://www.costco.com/w/-/mt/kalispell/1746"}}]}