{"version": 0.6, "generator": "Overpass API 0.7.62.8 e802775f", "osm3s": {"timestamp_osm_base": "2025-12-06T17:13:00Z", "copyright": "The data included in this document is from www.openstreetmap.org. The data is made available under ODbL."}, "elements": [{"type": "node", "id": 356547552, "lat": 47.709527, "lon": -121.362431, "tags": {"amenity": "school", "ele": "282", "gnis:feature_id": "1530733", "mascot": "Rockets", "name": "Skykomish Elementary School", "website": "https://www.skykomish.wednet.edu/"}}, {"type": "node", "id": 356547553, "lat": 47.7093545, "lon": -121.362449, "tags": {"amenity": "school", "ele": "282", "gnis:feature_id": "1530734", "mascot": "Rockets", "name": "Skykomish High School", "website": "https://www.skykomish.wednet.edu/"}}, {"type": "node", "id": 1076641155, "lat": 47.7083832, "lon": -121.3610462}, {"type": "node", "id": 1076641312, "lat": 47.7085713, "lon": -121.3610602}, {"type": "node", "id": 1076641398, "lat": 47.7084248, "lon": -121.3612058}, {"type": "node", "id": 1076641466, "lat": 47.7084829, "lon": -121.3611111}, {"type": "node", "id": 1076641572, "lat": 47.7085436, "lon": -121.3609539}, {"type": "node", "id": 1899167858, "lat": 47.7079586, "lon": -121.3613405}, {"type": "node", "id": 1899255349, "lat": 47.7084968, "lon": -121.3611643}, {"type": "node", "id": 1899255350, "lat": 47.7075246, "lon": -121.358319, "tags": {"amenity": "post_office", "name": "Skykomish Post Office", "operator": "United States Postal Service", "operator:short": "USPS", "operator:type": "public", "operator:website": "https://www.usps.com", "operator:wikidata": "Q668687", "operator:wikipedia": "en:United States Postal Service", "short_name": "USPS"}}, {"type": "node", "id": 1899256977, "lat": 47.7095768, "lon": -121.3589381, "tags": {"alt_name": "Krusty Krab", "amenity": "restaurant", "cuisine": "american", "name": "Cascadia Inn & Resturant", "outdoor_seating": "yes", "toilets": "yes"}}, {"type": "node", "id": 1899256991, "lat": 47.7094757, "lon": -121.359801, "tags": {"amenity": "bar", "internet_access": "wlan", "name": "Whistling Post Tavern"}}, {"type": "node", "id": 1899257862, "lat": 47.7100857, "lon": -121.3598661, "tags": {"amenity": "townhall", "name": "Skykomish City Hall"}}, {"type": "node", "id": 1899258619, "lat": 47.711379, "lon": -121.3608179}, {"type": "node", "id": 1899270993, "lat": 47.7118688, "lon": -121.3489173, "tags": {"amenity": "toilets"}}, {"type": "node", "id": 1899290110, "lat": 47.711191, "lon": -121.3619596}, {"type": "node", "id": 1899290119, "lat": 47.7110322, "lon": -121.3615197, "tags": {"amenity": "atm"}}, {"type": "node", "id": 1899290121, "lat": 47.7107723, "lon": -121.3624799}, {"type": "node", "id": 1899290123, "lat": 47.7111072, "lon": -121.3616417, "tags": {"amenity": "fuel", "name": "Sky Gas"}}, {"type": "node", "id": 1899290125, "lat": 47.7110249, "lon": -121.362598}, {"type": "node", "id": 1899290128, "lat": 47.7109953, "lon": -121.3616256, "tags": {"amenity": "toilets"}}, {"type": "node", "id": 1899290133, "lat": 47.7109322, "lon": -121.361764}, {"type": "node", "id": 1899336132, "lat": 47.7099594, "lon": -121.3594155, "tags": {"amenity": "place_of_worship", "name": "Skykomish Community Church", "religion": "christian"}}, {"type": "node", "id": 1899488350, "lat": 47.711116, "lon": -121.360851, "tags": {"amenity": "charging_station", "name": "Skykomish EV Charging Station", "operator": "WSDOT"}}, {"type": "node", "id": 2371574020, "lat": 47.7094619, "lon": -121.3608731, "tags": {"addr:city": "Skykomish", "addr:housenumber": "104", "addr:postcode": "98288", "addr:street": "Railroad Avenue", "name": "Sit & Spin Laundry", "shop": "laundry"}}, {"type": "node", "id": 2371574021, "lat": 47.7093361, "lon": -121.3608608, "tags": {"addr:city": "Skykomish", "addr:housenumber": "108", "addr:postcode": "98288", "addr:street": "Railroad Avenue West", "name": "Skykomish Toot Sweet", "opening_hours": "Sa-Su 10:00-16:00", "shop": "confectionery"}}, {"type": "node", "id": 3983179171, "lat": 47.7110678, "lon": -121.3615753}, {"type": "node", "id": 3983179172, "lat": 47.7112949, "lon": -121.3607731}, {"type": "node", "id": 3983179174, "lat": 47.7110076, "lon": -121.361446}, {"type": "node", "id": 3983179175, "lat": 47.7113462, "lon": -121.3605676}, {"type": "node", "id": 3983179176, "lat": 47.7110502, "lon": -121.361651}, {"type": "node", "id": 3983179177, "lat": 47.7109672, "lon": -121.3616044}, {"type": "node", "id": 3983179178, "lat": 47.7110904, "lon": -121.3614927}, {"type": "node", "id": 3983179179, "lat": 47.7114274, "lon": -121.3606105}, {"type": "node", "id": 5895137107, "lat": 47.7083483, "lon": -121.3618025}, {"type": "node", "id": 5895137108, "lat": 47.7081251, "lon": -121.3617525}, {"type": "node", "id": 5895137109, "lat": 47.7081109, "lon": -121.3618924}, {"type": "node", "id": 5895137119, "lat": 47.7079507, "lon": -121.3611777}, {"type": "node", "id": 5895137120, "lat": 47.7078455, "lon": -121.3611888}, {"type": "node", "id": 5895137121, "lat": 47.7078533, "lon": -121.3613517}, {"type": "node", "id": 6453975181, "lat": 47.7083341, "lon": -121.361942}, {"type": "node", "id": 9008289181, "lat": 47.7120913, "lon": -121.3600157, "tags": {"amenity": "restaurant", "cuisine": "barbecue", "name": "Smokey's Restaurant & Brewery"}}, {"type": "node", "id": 10996180311, "lat": 47.7083553, "lon": -121.3605855}, {"type": "node", "id": 10996180312, "lat": 47.7083302, "lon": -121.3596094}, {"type": "node", "id": 10996180313, "lat": 47.708294, "lon": -121.3594962}, {"type": "node", "id": 10996180314, "lat": 47.7081935, "lon": -121.3595873}, {"type": "node", "id": 10996180315, "lat": 47.7081872, "lon": -121.3596655}, {"type": "node", "id": 10996180316, "lat": 47.7081715, "lon": -121.3597274}, {"type": "node", "id": 10996180317, "lat": 47.7081503, "lon": -121.3597484}, {"type": "node", "id": 10996180318, "lat": 47.7081275, "lon": -121.3597554}, {"type": "node", "id": 10996180319, "lat": 47.7081024, "lon": -121.3597554}, {"type": "node", "id": 10996180320, "lat": 47.7081683, "lon": -121.3605119}, {"type": "node", "id": 10996180321, "lat": 47.7082006, "lon": -121.3605002}, {"type": "node", "id": 10996180322, "lat": 47.7082194, "lon": -121.3605061}, {"type": "node", "id": 10996180323, "lat": 47.7082453, "lon": -121.3605201}, {"type": "node", "id": 10996180324, "lat": 47.7082705, "lon": -121.3605353}, {"type": "node", "id": 10996180325, "lat": 47.7083035, "lon": -121.3605668}, {"type": "node", "id": 10996180326, "lat": 47.7083113, "lon": -121.3605901}, {"type": "node", "id": 10997537081, "lat": 47.7083074, "lon": -121.3595378}, {"type": "way", "id": 92836947, "nodes": [1899255349, 1076641398, 1076641155, 1076641572, 1076641312, 1076641466, 1899255349], "tags": {"addr:city": "Skykomish", "addr:housenumber": "100", "addr:postcode": "98288", "addr:street": "5th Street", "amenity": "library", "building": "yes", "internet_access": "terminal;wlan", "internet_access:fee": "no", "internet_access:ssid": "kcls.org Wireless", "name": "Skykomish Library", "opening_hours": "Tu, Sa 10:00-17:00; Th 13:00-19:00", "operator": "King County Library System", "operator:short": "KCLS", "operator:type": "public", "operator:wikidata": "Q6411390", "phone": "+1-360-677-2660", "service:computer": "yes", "service:copy": "no", "service:fax": "yes", "service:print": "yes", "service:scan": "yes", "source": "bing", "website": "https://kcls.org/locations/1536/"}}, {"type": "way", "id": 179552584, "nodes": [1899290125, 1899290110, 1899290133, 1899290121, 1899290125], "tags": {"landuse": "industrial", "name": "Dick's Towing", "shop": "car_repair"}}, {"type": "way", "id": 395458380, "nodes": [1899258619, 3983179179, 3983179175, 3983179172, 1899258619], "tags": {"addr:city": "Skykomish", "addr:housenumber": "148", "addr:postcode": "98288", "addr:street": "5th Street North", "amenity": "fast_food", "building": "retail", "name": "LouSkises Deli", "shop": "convenience"}}, {"type": "way", "id": 395458381, "nodes": [3983179176, 3983179171, 3983179178, 3983179174, 3983179177, 3983179176], "tags": {"addr:city": "Skykomish", "addr:housenumber": "147", "addr:postcode": "98288", "addr:street": "5th Street North", "building": "retail", "shop": "convenience"}}, {"type": "way", "id": 624282081, "nodes": [6453975181, 5895137107, 5895137108, 5895137109, 6453975181], "tags": {"addr:city": "Skykomish", "addr:housenumber": "108", "addr:postcode": "98288", "addr:street": "Old Cascade Highway West", "amenity": "community_centre", "building": "yes", "name": "Skykomish Masonic Hall", "wikidata": "Q7537767", "wikipedia": "en:Skykomish Masonic Hall"}}, {"type": "way", "id": 624282084, "nodes": [1899167858, 5895137119, 5895137120, 5895137121, 1899167858], "tags": {"addr:city": "Skykomish", "addr:housenumber": "107", "addr:postcode": "98288", "addr:state": "WA", "addr:street": "West Old Cascade Highway", "amenity": "fire_station", "building": "yes", "description": "The Skykomish Fire Station, King County Fire Protection District #50, Station #295 Manned station 9am-5pm every day.", "designation": "King County Fire District #50, Station 295", "ele": "933 ft", "gnis:feature_id": "2619361", "name": "King County Fire District #50", "phone": "+1-360-677-2686", "source": "King County GIS", "website": "https://skykomishfire50.com", "wheelchair": "yes"}}, {"type": "way", "id": 1184083628, "nodes": [10996180311, 10996180312, 10997537081, 10996180313, 10996180314, 10996180315, 10996180316, 10996180317, 10996180318, 10996180319, 10996180320, 10996180321, 10996180322, 10996180323, 10996180324, 10996180325, 10996180326, 10996180311], "tags": {"amenity": "parking", "parking": "surface", "surface": "gravel"}}]}