{"version": 0.6, "generator": "Overpass API 0.7.62.8 e802775f", "osm3s": {"timestamp_osm_base": "2025-12-08T22:05:44Z", "copyright": "The data included in this document is from www.openstreetmap.org. The data is made available under ODbL."}, "elements": [{"type": "node", "id": 357970192, "lat": 45.1995842, "lon": -109.247204, "tags": {"addr:city": "Red Lodge", "addr:housenumber": "10", "addr:postcode": "59068", "addr:street": "Robinson Lane", "amenity": "doctors", "name": "SVP Mountainview Clinic", "phone": "+1 406 446 3800", "website": "https://www.sclhealth.org/locations/mountain-view-family-medicine/"}}, {"type": "node", "id": 357970199, "lat": 45.1864019, "lon": -109.2488849, "tags": {"addr:city": "Red Lodge", "addr:housenumber": "1", "addr:postcode": "59068", "addr:street": "South Oakes Avenue", "amenity": "social_facility", "gnis:feature_id": "1726542", "name": "Cedar Wood Healthcare Community", "old_name": "Cedar Wood Villa", "operator": "Welcov Healthcare", "phone": "+1 406 446 2525", "social_facility": "assisted_living", "website": "https://www.welcov.com/find-a-location/cedar-wood-healthcare-community/"}}, {"type": "node", "id": 357970289, "lat": 45.1874449, "lon": -109.2465433, "tags": {"amenity": "place_of_worship", "denomination": "baptist", "ele": "1694", "gnis:feature_id": "1726601", "name": "Gateway Baptist Church", "religion": "christian"}}, {"type": "node", "id": 357970294, "lat": 45.1890398, "lon": -109.2472462, "tags": {"amenity": "place_of_worship", "ele": "1692", "gnis:feature_id": "1726603", "name": "Christian Life Assembly of God Church", "religion": "christian"}}, {"type": "node", "id": 357970299, "lat": 45.176425, "lon": -109.253563}, {"type": "node", "id": 357970302, "lat": 45.1719497, "lon": -109.2566002}, {"type": "node", "id": 357970305, "lat": 45.179254, "lon": -109.251232}, {"type": "node", "id": 357970308, "lat": 45.1877032, "lon": -109.2501403, "tags": {"amenity": "place_of_worship", "denomination": "baptist", "ele": "1697", "gnis:feature_id": "1726607", "name": "Red Lodge Baptist Church", "religion": "christian"}}, {"type": "node", "id": 357970312, "lat": 45.1874562, "lon": -109.2492881, "tags": {"amenity": "place_of_worship", "ele": "1695", "gnis:feature_id": "1726609", "name": "Calvary Episcopal Church", "religion": "christian"}}, {"type": "node", "id": 357970614, "lat": 45.1832782, "lon": -109.249599, "tags": {"amenity": "school", "ele": "1702", "gnis:feature_id": "1726835", "name": "Mountain View Elementary School"}}, {"type": "node", "id": 357970633, "lat": 45.1827697, "lon": -109.2498429}, {"type": "node", "id": 357970666, "lat": 45.1815555, "lon": -109.247214}, {"type": "node", "id": 366093158, "lat": 45.1950556, "lon": -109.2474925, "tags": {"addr:housenumber": "801", "addr:state": "MT", "addr:street": "North Broadway Avenue", "amenity": "fire_station", "ele": "1695", "gnis:feature_id": "1726687", "name": "Red Lodge Fire Department", "phone": "+1 406 4462320", "source": "USGS Geonames", "website": "https://www.redlodgefire.com/"}}, {"type": "node", "id": 366093299, "lat": 45.1901015, "lon": -109.2473125, "tags": {"addr:housenumber": "3", "addr:state": "MT", "addr:street": "West 8th Street", "amenity": "library", "ele": "1690", "gnis:feature_id": "1726537", "name": "Carnegie Library", "official_name": "Red Lodge Carnegie Library", "phone": "+1 406 4461905"}}, {"type": "node", "id": 366093522, "lat": 45.1881741, "lon": -109.2466412, "tags": {"addr:state": "MT", "amenity": "police", "ele": "1692", "gnis:feature_id": "1726689", "name": "Carbon County Sheriffs Department", "source": "USGS Geonames"}}, {"type": "node", "id": 366093939, "lat": 45.1897495, "lon": -109.2469002, "tags": {"addr:state": "MT", "ele": "1716", "fee": "yes", "fee:conditional": "no @ (age < 6)", "gnis:feature_id": "1726546", "name": "Carbon County Museum", "opening_hours": "Tu-Sa 10:00-16:00, Su-Mo off", "shop": "gift", "source": "USGS Geonames", "tourism": "museum", "website": "https://www.carboncountyhistory.com/"}}, {"type": "node", "id": 2423059192, "lat": 45.1941692, "lon": -109.2472716, "tags": {"amenity": "drinking_water"}}, {"type": "node", "id": 2423061068, "lat": 45.1943506, "lon": -109.2471524}, {"type": "node", "id": 2423061069, "lat": 45.1943341, "lon": -109.2469866}, {"type": "node", "id": 2423061070, "lat": 45.1939554, "lon": -109.2470623}, {"type": "node", "id": 2423061071, "lat": 45.1939718, "lon": -109.247228}, {"type": "node", "id": 2423061299, "lat": 45.1943431, "lon": -109.2470773}, {"type": "node", "id": 2423061300, "lat": 45.1939641, "lon": -109.2471506}, {"type": "node", "id": 2972444436, "lat": 45.188969, "lon": -109.2481589}, {"type": "node", "id": 2972444437, "lat": 45.1889936, "lon": -109.2478665}, {"type": "node", "id": 2972444438, "lat": 45.1890154, "lon": -109.2481835}, {"type": "node", "id": 2972444439, "lat": 45.189051, "lon": -109.2484947}, {"type": "node", "id": 2972444440, "lat": 45.1892941, "lon": -109.2477955}, {"type": "node", "id": 2972444441, "lat": 45.1893132, "lon": -109.2477682}, {"type": "node", "id": 2972444442, "lat": 45.1893706, "lon": -109.2484211}, {"type": "node", "id": 2972444443, "lat": 45.1894034, "lon": -109.2484457}, {"type": "node", "id": 2972444444, "lat": 45.1897968, "lon": -109.2476725}, {"type": "node", "id": 2972444445, "lat": 45.1897996, "lon": -109.2483337}, {"type": "node", "id": 2972444458, "lat": 45.1944912, "lon": -109.246169, "tags": {"amenity": "fuel", "brand": "Town Pump", "operator": "Town Pump"}}, {"type": "node", "id": 2972445042, "lat": 45.1851658, "lon": -109.2489051}, {"type": "node", "id": 2972445043, "lat": 45.1851683, "lon": -109.2485276}, {"type": "node", "id": 2972445044, "lat": 45.1854958, "lon": -109.2489095}, {"type": "node", "id": 2972445045, "lat": 45.1854983, "lon": -109.2485321}, {"type": "node", "id": 2972445062, "lat": 45.1870657, "lon": -109.2489001}, {"type": "node", "id": 2972445063, "lat": 45.1870784, "lon": -109.2490048}, {"type": "node", "id": 2972445064, "lat": 45.1870744, "lon": -109.2486074}, {"type": "node", "id": 2972445065, "lat": 45.1871097, "lon": -109.2488888}, {"type": "node", "id": 2972445066, "lat": 45.1875452, "lon": -109.2485002}, {"type": "node", "id": 2972445067, "lat": 45.1875889, "lon": -109.2488793}, {"type": "node", "id": 3040194902, "lat": 45.1930432, "lon": -109.2470123, "tags": {"amenity": "cafe", "cuisine": "coffee_shop", "drive_through": "only", "name": "City Brew Coffee", "takeaway": "only"}}, {"type": "node", "id": 3040194904, "lat": 45.1754187, "lon": -109.2496161, "tags": {"addr:housenumber": "1119", "addr:street": "South Broadway Avenue", "amenity": "social_facility", "fax": "+1 406 4461430", "name": "Domestic and Sexual Violence Services", "phone": "+1 406 4462296", "short_name": "DSVS", "social_facility": "shelter", "social_facility:for": "abused", "website": "https://dsvsmontana.org/"}}, {"type": "node", "id": 3040194905, "lat": 45.1970423, "lon": -109.2467315, "tags": {"fixme": "survey", "name": "Esteem Salon", "shop": "hairdresser"}}, {"type": "node", "id": 3040194907, "lat": 45.1827258, "lon": -109.2472592, "tags": {"addr:housenumber": "105", "addr:street": "North Platt Avenue", "fax": "+1 406 4464031", "name": "Geo Link", "office": "company", "phone": "+1 406 4463654", "website": "https://www.geo-link.net/"}}, {"type": "node", "id": 3040194908, "lat": 45.198586, "lon": -109.2465158, "tags": {"addr:housenumber": "1125", "addr:street": "North Broadway Avenue", "amenity": "place_of_worship", "denomination": "foursquare", "name": "Hope Chapel", "phone": "+1 406 4469004", "religion": "christian", "service_times": "Su 10:00", "website": "http://www.hopechapelredlodge.com/"}}, {"type": "node", "id": 3163921953, "lat": 45.1962286, "lon": -109.246386, "tags": {"addr:city": "Red Lodge", "addr:housenumber": "902", "addr:postcode": "59068", "addr:state": "MT", "addr:street": "North Broadway Avenue", "amenity": "fuel", "brand": "Cenex", "brand:wikidata": "Q62127191", "fuel:diesel": "yes", "fuel:diesel_1": "yes", "fuel:gasohol_87": "yes", "fuel:gasohol_89": "yes", "fuel:gasoline_91": "yes", "name": "Cenex", "opening_hours": "24/7"}}, {"type": "node", "id": 3163921954, "lat": 45.1905224, "lon": -109.2477044, "tags": {"access": "yes", "amenity": "toilets", "fee": "no", "operator": "City of Red Lodge", "toilets:disposal": "flush", "wheelchair": "yes"}}, {"type": "node", "id": 3163921955, "lat": 45.1852685, "lon": -109.2471353, "tags": {"addr:city": "Red Lodge", "addr:housenumber": "115", "addr:postcode": "59068", "addr:state": "MT", "addr:street": "South Broadway Avenue", "amenity": "restaurant", "cuisine": "pizza", "name": "Red Lodge Pizza Co", "smoking": "no"}}, {"type": "node", "id": 3163921956, "lat": 45.1852104, "lon": -109.2471347, "tags": {"amenity": "bar", "name": "Natali's Front Bar", "smoking": "no"}}, {"type": "node", "id": 3163921957, "lat": 45.1851629, "lon": -109.2471343, "tags": {"amenity": "restaurant", "cuisine": "steak_house", "name": "Carbon County Steakhouse"}}, {"type": "node", "id": 3239854006, "lat": 45.197308, "lon": -109.2457738}, {"type": "node", "id": 4511752550, "lat": 45.1969481, "lon": -109.2461379}, {"type": "node", "id": 4511752551, "lat": 45.1966948, "lon": -109.2461996}, {"type": "node", "id": 4511752552, "lat": 45.1966758, "lon": -109.2460422}, {"type": "node", "id": 4511752553, "lat": 45.196929, "lon": -109.2459805}, {"type": "node", "id": 4511752587, "lat": 45.1894356, "lon": -109.2469375}, {"type": "node", "id": 4511752588, "lat": 45.1894365, "lon": -109.2468281}, {"type": "node", "id": 4511752889, "lat": 45.1896152, "lon": -109.2468311}, {"type": "node", "id": 4511752890, "lat": 45.189618, "lon": -109.2464926}, {"type": "node", "id": 4511752891, "lat": 45.1893401, "lon": -109.2464879}, {"type": "node", "id": 4511752892, "lat": 45.1893363, "lon": -109.2469358}, {"type": "node", "id": 4511752897, "lat": 45.1880457, "lon": -109.246844}, {"type": "node", "id": 4511752898, "lat": 45.1880464, "lon": -109.2467493}, {"type": "node", "id": 4511752899, "lat": 45.1880063, "lon": -109.2467487}, {"type": "node", "id": 4511752900, "lat": 45.1880078, "lon": -109.2465345}, {"type": "node", "id": 4511752901, "lat": 45.1882137, "lon": -109.2465374}, {"type": "node", "id": 4511752902, "lat": 45.1882076, "lon": -109.2468463}, {"type": "node", "id": 4511752903, "lat": 45.1870406, "lon": -109.2468558}, {"type": "node", "id": 4511752904, "lat": 45.187354, "lon": -109.2468592}, {"type": "node", "id": 4511752905, "lat": 45.1873563, "lon": -109.2464319}, {"type": "node", "id": 4511752906, "lat": 45.1872175, "lon": -109.2464303}, {"type": "node", "id": 4511752907, "lat": 45.1872166, "lon": -109.2465875}, {"type": "node", "id": 4511752908, "lat": 45.1871416, "lon": -109.2465867}, {"type": "node", "id": 4511752909, "lat": 45.1871422, "lon": -109.2464895}, {"type": "node", "id": 4511752910, "lat": 45.1870426, "lon": -109.2464884}, {"type": "node", "id": 4511752912, "lat": 45.1867187, "lon": -109.2466124}, {"type": "node", "id": 4511752946, "lat": 45.1858612, "lon": -109.2468451}, {"type": "node", "id": 4511752947, "lat": 45.1858677, "lon": -109.2465516}, {"type": "node", "id": 4511752948, "lat": 45.1857976, "lon": -109.2466237}, {"type": "node", "id": 4511752973, "lat": 45.1847053, "lon": -109.2468, "tags": {"name": "Bob's Barber Shop", "shop": "hairdresser"}}, {"type": "node", "id": 4511752974, "lat": 45.1848443, "lon": -109.2465724, "tags": {"amenity": "restaurant", "cuisine": "chinese", "name": "China Garden"}}, {"type": "node", "id": 4511752979, "lat": 45.1834677, "lon": -109.2466069}, {"type": "node", "id": 4511752980, "lat": 45.1834656, "lon": -109.2467282}, {"type": "node", "id": 4511752981, "lat": 45.1836093, "lon": -109.2467333}, {"type": "node", "id": 4511752982, "lat": 45.1836121, "lon": -109.2465738}, {"type": "node", "id": 4511752983, "lat": 45.1836482, "lon": -109.2465751}, {"type": "node", "id": 4511752984, "lat": 45.183647, "lon": -109.246643}, {"type": "node", "id": 4511752985, "lat": 45.1836969, "lon": -109.2466447}, {"type": "node", "id": 4511752986, "lat": 45.1837, "lon": -109.2464719}, {"type": "node", "id": 4511752987, "lat": 45.1836565, "lon": -109.2464703}, {"type": "node", "id": 4511752988, "lat": 45.1836574, "lon": -109.2464215}, {"type": "node", "id": 4511752989, "lat": 45.1835578, "lon": -109.2464181}, {"type": "node", "id": 4511752990, "lat": 45.1835582, "lon": -109.2463927}, {"type": "node", "id": 4511752991, "lat": 45.1834409, "lon": -109.2463886}, {"type": "node", "id": 4511752992, "lat": 45.1834371, "lon": -109.2466058}, {"type": "node", "id": 4511752994, "lat": 45.1729287, "lon": -109.2518472}, {"type": "node", "id": 4511752995, "lat": 45.1729285, "lon": -109.251896}, {"type": "node", "id": 4511752996, "lat": 45.1729042, "lon": -109.2518958}, {"type": "node", "id": 4511752997, "lat": 45.1729044, "lon": -109.2518383}, {"type": "node", "id": 4511752998, "lat": 45.1728886, "lon": -109.2518381}, {"type": "node", "id": 4511752999, "lat": 45.1728888, "lon": -109.2517951}, {"type": "node", "id": 4511753000, "lat": 45.1728262, "lon": -109.2517945}, {"type": "node", "id": 4511753001, "lat": 45.1728264, "lon": -109.251737}, {"type": "node", "id": 4511753002, "lat": 45.172964, "lon": -109.2517382}, {"type": "node", "id": 4511753003, "lat": 45.1729635, "lon": -109.2518475}, {"type": "node", "id": 4511753004, "lat": 45.1719306, "lon": -109.2539581}, {"type": "node", "id": 4511753005, "lat": 45.1718824, "lon": -109.254111}, {"type": "node", "id": 4511753006, "lat": 45.1719607, "lon": -109.2541607}, {"type": "node", "id": 4511753007, "lat": 45.1720089, "lon": -109.2540078}, {"type": "node", "id": 4511753008, "lat": 45.196391, "lon": -109.2460724}, {"type": "node", "id": 4511753009, "lat": 45.1960677, "lon": -109.2461502}, {"type": "node", "id": 4511753010, "lat": 45.196088, "lon": -109.2463197}, {"type": "node", "id": 4511753011, "lat": 45.1964112, "lon": -109.2462419}, {"type": "node", "id": 4511753012, "lat": 45.1922175, "lon": -109.2473096}, {"type": "node", "id": 4511753013, "lat": 45.1919202, "lon": -109.2473826}, {"type": "node", "id": 4511753014, "lat": 45.1918949, "lon": -109.2471606}, {"type": "node", "id": 4511753015, "lat": 45.1921927, "lon": -109.2470916}, {"type": "node", "id": 4511753025, "lat": 45.1887966, "lon": -109.2469505, "tags": {"amenity": "fuel", "brand": "Ray Judd Petroleum"}}, {"type": "node", "id": 4511753028, "lat": 45.1748084, "lon": -109.2501626}, {"type": "node", "id": 4511753029, "lat": 45.1747999, "lon": -109.2499923}, {"type": "node", "id": 4511753030, "lat": 45.1747122, "lon": -109.2500011}, {"type": "node", "id": 4511753031, "lat": 45.1747207, "lon": -109.2501714}, {"type": "node", "id": 4511753032, "lat": 45.1746175, "lon": -109.2501757}, {"type": "node", "id": 4511753033, "lat": 45.1746109, "lon": -109.2500014}, {"type": "node", "id": 4511753034, "lat": 45.1746677, "lon": -109.2499971}, {"type": "node", "id": 4511753035, "lat": 45.1746743, "lon": -109.2501714}, {"type": "node", "id": 4913936470, "lat": 45.2137145, "lon": -109.24392}, {"type": "node", "id": 4913936471, "lat": 45.2142228, "lon": -109.2425359}, {"type": "node", "id": 4913936472, "lat": 45.2142384, "lon": -109.242904}, {"type": "node", "id": 4913936473, "lat": 45.2141502, "lon": -109.2431617}, {"type": "node", "id": 4913936474, "lat": 45.2139272, "lon": -109.2435887}, {"type": "node", "id": 4913936475, "lat": 45.2135123, "lon": -109.2441482}, {"type": "node", "id": 4913936476, "lat": 45.2133048, "lon": -109.2443396}, {"type": "node", "id": 4913936477, "lat": 45.211557, "lon": -109.2447593}, {"type": "node", "id": 4913936478, "lat": 45.2113288, "lon": -109.2432684}, {"type": "node", "id": 4915183131, "lat": 45.1952073, "lon": -109.2393465}, {"type": "node", "id": 4915183132, "lat": 45.1937939, "lon": -109.2399211}, {"type": "node", "id": 4915183133, "lat": 45.1935197, "lon": -109.2400424}, {"type": "node", "id": 4915183134, "lat": 45.193052, "lon": -109.2406455}, {"type": "node", "id": 4915183135, "lat": 45.1928583, "lon": -109.2407669}, {"type": "node", "id": 4915183136, "lat": 45.1928558, "lon": -109.2418018}, {"type": "node", "id": 4915183137, "lat": 45.1930042, "lon": -109.2419446}, {"type": "node", "id": 4915183138, "lat": 45.1929891, "lon": -109.2426084}, {"type": "node", "id": 4915183147, "lat": 45.1945932, "lon": -109.2414859}, {"type": "node", "id": 4915183150, "lat": 45.1947356, "lon": -109.2419594}, {"type": "node", "id": 4915183156, "lat": 45.1944101, "lon": -109.2415698}, {"type": "node", "id": 4915183892, "lat": 45.1956521, "lon": -109.2391373}, {"type": "node", "id": 4915183893, "lat": 45.196011, "lon": -109.2404873}, {"type": "node", "id": 4915183894, "lat": 45.1960569, "lon": -109.2418077}, {"type": "node", "id": 4915183895, "lat": 45.196061, "lon": -109.2426485}, {"type": "node", "id": 5330127643, "lat": 45.1853493, "lon": -109.248155}, {"type": "node", "id": 5330127644, "lat": 45.1853536, "lon": -109.2476996}, {"type": "node", "id": 5330127645, "lat": 45.1850237, "lon": -109.2476933}, {"type": "node", "id": 5330127646, "lat": 45.1850211, "lon": -109.2479667}, {"type": "node", "id": 5330127647, "lat": 45.1852262, "lon": -109.2479706}, {"type": "node", "id": 5330127648, "lat": 45.1852245, "lon": -109.2481526}, {"type": "node", "id": 5333781265, "lat": 45.1843509, "lon": -109.2489588}, {"type": "node", "id": 5333781266, "lat": 45.1843433, "lon": -109.2490715}, {"type": "node", "id": 5333781267, "lat": 45.1844756, "lon": -109.2491037}, {"type": "node", "id": 5333781268, "lat": 45.1844681, "lon": -109.2496777}, {"type": "node", "id": 5333781269, "lat": 45.184763, "lon": -109.2496455}, {"type": "node", "id": 5333781270, "lat": 45.1847857, "lon": -109.2488462}, {"type": "node", "id": 5333896676, "lat": 45.1857981, "lon": -109.2487892}, {"type": "node", "id": 5333896677, "lat": 45.1858009, "lon": -109.2484466}, {"type": "node", "id": 5333896678, "lat": 45.1855773, "lon": -109.248443}, {"type": "node", "id": 5333896679, "lat": 45.1855768, "lon": -109.2485135}, {"type": "node", "id": 5333896680, "lat": 45.1855125, "lon": -109.2485124}, {"type": "node", "id": 5333896681, "lat": 45.1855097, "lon": -109.2488596}, {"type": "node", "id": 5333896682, "lat": 45.1855861, "lon": -109.2488608}, {"type": "node", "id": 5333896683, "lat": 45.1855855, "lon": -109.2489454}, {"type": "node", "id": 5333896684, "lat": 45.1857968, "lon": -109.2489488}, {"type": "node", "id": 5335709063, "lat": 45.1857998, "lon": -109.248578}, {"type": "node", "id": 5335709064, "lat": 45.1857978, "lon": -109.2488261}, {"type": "node", "id": 5999477743, "lat": 45.1846376, "lon": -109.246799, "tags": {"name": "Hometown Sisters", "shop": "gift"}}, {"type": "node", "id": 5999477744, "lat": 45.1900395, "lon": -109.2468478, "tags": {"amenity": "restaurant", "bar": "yes", "check_date": "2023-07-17", "name": "La Palmita", "outdoor_seating": "yes", "wheelchair": "yes"}}, {"type": "node", "id": 5999477746, "lat": 45.1862336, "lon": -109.2471678, "tags": {"amenity": "atm"}}, {"type": "node", "id": 5999477748, "lat": 45.1845548, "lon": -109.2471276, "tags": {"addr:city": "Red Lodge", "addr:housenumber": "209", "addr:postcode": "59068", "addr:state": "MT", "addr:street": "South Broadway Avenue", "name": "Cattail Bakery", "opening_hours": "Th-Mo 07:00-16:00", "phone": "+1-406-446-1600", "shop": "bakery"}}, {"type": "node", "id": 5999477749, "lat": 45.1844162, "lon": -109.2471744, "tags": {"name": "Greater Montana Realty", "office": "estate_agent"}}, {"type": "node", "id": 5999477751, "lat": 45.1862554, "lon": -109.2471688, "tags": {"amenity": "restaurant", "cuisine": "regional", "name": "Foster & Logan\u2019s", "outdoor_seating": "no", "smoking": "no", "wheelchair": "yes"}}, {"type": "node", "id": 5999477752, "lat": 45.1847629, "lon": -109.246801, "tags": {"amenity": "bar", "name": "Blue Ribbon Bar"}}, {"type": "node", "id": 5999477754, "lat": 45.1860289, "lon": -109.2477974, "tags": {"addr:housenumber": "105", "addr:street": "12th Street", "check_date": "2024-03-06", "name": "Babcock & Miles Market", "shop": "deli"}}, {"type": "node", "id": 5999477755, "lat": 45.1861212, "lon": -109.2471628, "tags": {"addr:housenumber": "22", "addr:street": "South Broadway Avenue", "check_date": "2023-01-17", "name": "Grizzly Peak Outdoors", "shop": "outdoor"}}, {"type": "node", "id": 5999477756, "lat": 45.1851384, "lon": -109.2468022, "tags": {"amenity": "cinema", "name": "Roman Theatre", "wikidata": "Q42903199"}}, {"type": "node", "id": 5999477757, "lat": 45.1846753, "lon": -109.2471336, "tags": {"amenity": "ice_cream", "name": "Scoops"}}, {"type": "node", "id": 5999477758, "lat": 45.1841203, "lon": -109.2471775, "tags": {"name": "Coleman Gallery & Studio", "shop": "photo"}}, {"type": "node", "id": 5999477759, "lat": 45.1860786, "lon": -109.2471587, "tags": {"amenity": "waste_basket"}}, {"type": "node", "id": 5999477761, "lat": 45.1848327, "lon": -109.2471438, "tags": {"name": "Red Lodge Commercial", "office": "estate_agent"}}, {"type": "node", "id": 5999477762, "lat": 45.184496, "lon": -109.247124, "tags": {"addr:city": "Red Lodge", "addr:housenumber": "211", "addr:postcode": "59068", "addr:state": "MT", "addr:street": "South Broadway Avenue", "name": "Covering Broadway", "opening_hours": "Mo-Fr 09:00-17:00", "shop": "flooring"}}, {"type": "node", "id": 5999477763, "lat": 45.1860149, "lon": -109.2472447, "tags": {"amenity": "waste_basket"}}, {"type": "node", "id": 5999477764, "lat": 45.1861881, "lon": -109.247165, "tags": {"name": "Paris Montana", "shop": "gift"}}, {"type": "node", "id": 5999503601, "lat": 45.185414, "lon": -109.247136, "tags": {"brand": "Berkshire Hathaway HomeServices", "brand:wikidata": "Q5887960", "name": "Berkshire Hathaway HomeServices", "office": "estate_agent", "short_name": "Berkshire Hathaway"}}, {"type": "node", "id": 5999503602, "lat": 45.1853412, "lon": -109.2467385, "tags": {"amenity": "restaurant", "name": "Carbon Fork"}}, {"type": "node", "id": 5999503603, "lat": 45.1857508, "lon": -109.2471472, "tags": {"name": "CMor Real Estate", "office": "estate_agent"}}, {"type": "node", "id": 5999503605, "lat": 45.1853416, "lon": -109.2471361, "tags": {"name": "C.C. Legends", "shop": "gift"}}, {"type": "node", "id": 5999503606, "lat": 45.18554, "lon": -109.247134, "tags": {"amenity": "doctors", "healthcare": "optometrist", "name": "Dr. Larry D. Erpenbach", "opening_hours": "We 08:00-17:00"}}, {"type": "node", "id": 5999503607, "lat": 45.1854216, "lon": -109.2468068, "tags": {"name": "The Kitchen Shop", "shop": "kitchen"}}, {"type": "node", "id": 5999503608, "lat": 45.185626, "lon": -109.2468246, "tags": {"name": "Moo Country", "shop": "clothes"}}, {"type": "node", "id": 6001653068, "lat": 45.1825767, "lon": -109.247119}, {"type": "node", "id": 6001653071, "lat": 45.1856808, "lon": -109.2471431, "tags": {"name": "Sisters on Broadway", "shop": "clothes"}}, {"type": "node", "id": 6001653072, "lat": 45.1803714, "lon": -109.2472401}, {"type": "node", "id": 6001653076, "lat": 45.1804216, "lon": -109.2471958}, {"type": "node", "id": 6001653077, "lat": 45.1808988, "lon": -109.2472544, "tags": {"amenity": "charging_station", "capacity": "4"}}, {"type": "node", "id": 6001653081, "lat": 45.18042, "lon": -109.2472433}, {"type": "node", "id": 6011229552, "lat": 45.1865922, "lon": -109.2468512, "tags": {"name": "Lotions & Potions", "shop": "cosmetics"}}, {"type": "node", "id": 6011229553, "lat": 45.1863196, "lon": -109.2471717, "tags": {"name": "Mystic Mountain", "shop": "outdoor"}}, {"type": "node", "id": 6011229554, "lat": 45.1864123, "lon": -109.2471758, "tags": {"name": "Bunny's Brush", "shop": "craft"}}, {"type": "node", "id": 6011249761, "lat": 45.1857937, "lon": -109.2468421}, {"type": "node", "id": 6011249762, "lat": 45.1858339, "lon": -109.2466253}, {"type": "node", "id": 6011249763, "lat": 45.1858355, "lon": -109.2465502}, {"type": "node", "id": 6011379054, "lat": 45.1857464, "lon": -109.246834, "tags": {"addr:city": "Red Lodge", "addr:housenumber": "104", "addr:postcode": "59068", "addr:state": "MT", "addr:street": "South Broadway Avenue", "amenity": "restaurant", "cuisine": "american", "name": "PREROGATIvE Kitchen", "opening_hours": "Fr-Tu 11:30-20:30", "outdoor_seating": "no", "phone": "+1-406-445-3232", "smoking": "no", "website": "https://prerogativekitchen.com"}}, {"type": "node", "id": 6011410625, "lat": 45.1867659, "lon": -109.2472947, "tags": {"amenity": "bank", "atm": "yes", "brand": "Wells Fargo", "brand:wikidata": "Q744149", "name": "Wells Fargo"}}, {"type": "node", "id": 6020504311, "lat": 45.1942462, "lon": -109.2462805, "tags": {"amenity": "bicycle_parking"}}, {"type": "node", "id": 6020504312, "lat": 45.194051, "lon": -109.246102, "tags": {"name": "Town Pump", "operator": "Town Pump", "shop": "convenience"}}, {"type": "node", "id": 6020504313, "lat": 45.1942631, "lon": -109.2460026, "tags": {"amenity": "bicycle_parking"}}, {"type": "node", "id": 6146625168, "lat": 45.1874393, "lon": -109.2499855}, {"type": "node", "id": 6146625169, "lat": 45.1870262, "lon": -109.249987}, {"type": "node", "id": 6146625170, "lat": 45.1870263, "lon": -109.2500728}, {"type": "node", "id": 6146625171, "lat": 45.1871231, "lon": -109.2500725}, {"type": "node", "id": 6146625172, "lat": 45.1871233, "lon": -109.2501896}, {"type": "node", "id": 6146625173, "lat": 45.1870416, "lon": -109.2501899}, {"type": "node", "id": 6146625174, "lat": 45.1870419, "lon": -109.2503307}, {"type": "node", "id": 6146625175, "lat": 45.1874399, "lon": -109.2503291}, {"type": "node", "id": 6146625644, "lat": 45.1878393, "lon": -109.2466656}, {"type": "node", "id": 6146625658, "lat": 45.187356, "lon": -109.2464885}, {"type": "node", "id": 6146625660, "lat": 45.1878412, "lon": -109.2464049}, {"type": "node", "id": 6146625661, "lat": 45.1875712, "lon": -109.2464008}, {"type": "node", "id": 6146625662, "lat": 45.1875727, "lon": -109.2465933}, {"type": "node", "id": 6146625663, "lat": 45.187767, "lon": -109.2465934}, {"type": "node", "id": 6146625664, "lat": 45.1877672, "lon": -109.2466648}, {"type": "node", "id": 6146625665, "lat": 45.1877255, "lon": -109.2471975, "tags": {"name": "Bull N bear", "shop": "clothes"}}, {"type": "node", "id": 6146625666, "lat": 45.1875166, "lon": -109.2471944, "tags": {"name": "Phoenix Pearl", "shop": "tea"}}, {"type": "node", "id": 6146625667, "lat": 45.18745, "lon": -109.247192, "tags": {"name": "Carbon County News", "office": "newspaper"}}, {"type": "node", "id": 6146625668, "lat": 45.187404, "lon": -109.2471904, "tags": {"name": "State of Montana Liquor", "shop": "alcohol"}}, {"type": "node", "id": 6146625669, "lat": 45.1872386, "lon": -109.247184, "tags": {"brand": "Coldwell Banker", "brand:wikidata": "Q738853", "name": "Coldwell Banker", "office": "estate_agent"}}, {"type": "node", "id": 6146625671, "lat": 45.1870404, "lon": -109.2471731, "tags": {"addr:city": "Red Lodge", "addr:housenumber": "1", "addr:postcode": "59068", "addr:state": "MT", "addr:street": "North Broadway Avenue", "contact:email": "heistmontana@gmail.com", "contact:phone": "+1-406-426-8654", "name": "Heist", "shop": "gift"}}, {"type": "node", "id": 6146625672, "lat": 45.1873196, "lon": -109.2468168, "tags": {"amenity": "bar", "name": "The Pub at The Pollard"}}, {"type": "node", "id": 6146625674, "lat": 45.1874249, "lon": -109.2468483, "tags": {"brand": "Harley-Davidson", "brand:wikidata": "Q192814", "name": "Beartooth Harley Davidson", "shop": "motorcycle"}}, {"type": "node", "id": 6146625675, "lat": 45.1875406, "lon": -109.2468448, "tags": {"name": "H BAR S Real Estate", "office": "estate_agent"}}, {"type": "node", "id": 6146625676, "lat": 45.1876011, "lon": -109.2468469, "tags": {"name": "Kids Corner", "shop": "toys"}}, {"type": "node", "id": 6146625677, "lat": 45.1878195, "lon": -109.2468705, "tags": {"shop": "beauty"}}, {"type": "node", "id": 6146625678, "lat": 45.1878025, "lon": -109.2469147, "tags": {"amenity": "bench"}}, {"type": "node", "id": 6146625681, "lat": 45.1879927, "lon": -109.2475353}, {"type": "node", "id": 6146625682, "lat": 45.1881228, "lon": -109.2475403}, {"type": "node", "id": 6146625684, "lat": 45.1881179, "lon": -109.2477281}, {"type": "node", "id": 6146625686, "lat": 45.1880065, "lon": -109.2472069, "tags": {"name": "Market 5555", "shop": "interior_decoration"}}, {"type": "node", "id": 6146625714, "lat": 45.1882081, "lon": -109.246774}, {"type": "node", "id": 6146625715, "lat": 45.1882599, "lon": -109.2467747}, {"type": "node", "id": 6146625716, "lat": 45.1882607, "lon": -109.2466633}, {"type": "node", "id": 6146625717, "lat": 45.1882128, "lon": -109.2466626}, {"type": "node", "id": 6146625798, "lat": 45.1879728, "lon": -109.2484556}, {"type": "node", "id": 6146625799, "lat": 45.1880698, "lon": -109.248437}, {"type": "node", "id": 6146625800, "lat": 45.188065, "lon": -109.2483379}, {"type": "node", "id": 6146625801, "lat": 45.1884866, "lon": -109.2482576}, {"type": "node", "id": 6146625802, "lat": 45.1884707, "lon": -109.2480893}, {"type": "node", "id": 6146625803, "lat": 45.1887956, "lon": -109.2480274}, {"type": "node", "id": 6146625804, "lat": 45.1887925, "lon": -109.2479947}, {"type": "node", "id": 6146625805, "lat": 45.1887845, "lon": -109.24791}, {"type": "node", "id": 6146625806, "lat": 45.187972, "lon": -109.2480909}, {"type": "node", "id": 6146625815, "lat": 45.1893217, "lon": -109.2480214, "tags": {"entrance": "yes"}}, {"type": "node", "id": 6146625816, "lat": 45.1893329, "lon": -109.2464997}, {"type": "node", "id": 6146625817, "lat": 45.1891947, "lon": -109.2464925}, {"type": "node", "id": 6146625818, "lat": 45.1891831, "lon": -109.2469418}, {"type": "node", "id": 6146625819, "lat": 45.1893213, "lon": -109.246949}, {"type": "node", "id": 6146625822, "lat": 45.1892419, "lon": -109.2469448}, {"type": "node", "id": 6146625823, "lat": 45.1892508, "lon": -109.2464955}, {"type": "node", "id": 6146625884, "lat": 45.1909515, "lon": -109.247617}, {"type": "node", "id": 6146625885, "lat": 45.1909814, "lon": -109.2473696}, {"type": "node", "id": 6146625886, "lat": 45.1909959, "lon": -109.2475123}, {"type": "node", "id": 6146625887, "lat": 45.1909472, "lon": -109.247527}, {"type": "node", "id": 6146625888, "lat": 45.1909534, "lon": -109.2476565}, {"type": "node", "id": 6146625889, "lat": 45.1907046, "lon": -109.2477315}, {"type": "node", "id": 6146625890, "lat": 45.1906642, "lon": -109.2474373}, {"type": "node", "id": 6146625891, "lat": 45.1909182, "lon": -109.2473123}, {"type": "node", "id": 6146625892, "lat": 45.1909254, "lon": -109.2473726}, {"type": "node", "id": 6146625894, "lat": 45.1908612, "lon": -109.2473403}, {"type": "node", "id": 6146625909, "lat": 45.1913376, "lon": -109.246887}, {"type": "node", "id": 6146625914, "lat": 45.1911441, "lon": -109.2468818}, {"type": "node", "id": 6146625929, "lat": 45.1918761, "lon": -109.2471708}, {"type": "node", "id": 6146625930, "lat": 45.1918073, "lon": -109.2471858}, {"type": "node", "id": 6146625931, "lat": 45.1918333, "lon": -109.2474218}, {"type": "node", "id": 6146625932, "lat": 45.1919021, "lon": -109.2474058}, {"type": "node", "id": 6146625933, "lat": 45.1915177, "lon": -109.2472588}, {"type": "node", "id": 6146625934, "lat": 45.1914143, "lon": -109.2472828}, {"type": "node", "id": 6146625935, "lat": 45.1914422, "lon": -109.2475208}, {"type": "node", "id": 6146625936, "lat": 45.1915456, "lon": -109.2474968}, {"type": "node", "id": 6146625937, "lat": 45.1921251, "lon": -109.2473306}, {"type": "node", "id": 6146625938, "lat": 45.1921301, "lon": -109.2473746}, {"type": "node", "id": 6146625939, "lat": 45.1920585, "lon": -109.2473906}, {"type": "node", "id": 6146625940, "lat": 45.192054, "lon": -109.2473516}, {"type": "node", "id": 6146625947, "lat": 45.1925298, "lon": -109.246594, "tags": {"clothes": "ski", "name": "Ski Station", "parts": "ski", "rental": "ski", "repair": "ski", "sales": "ski", "shop": "outdoor"}}, {"type": "node", "id": 6146625948, "lat": 45.1927698, "lon": -109.2465582}, {"type": "node", "id": 6146625949, "lat": 45.1927716, "lon": -109.2466657}, {"type": "node", "id": 6146625950, "lat": 45.1925923, "lon": -109.2466923}, {"type": "node", "id": 6146625951, "lat": 45.1925925, "lon": -109.2465554}, {"type": "node", "id": 6146626496, "lat": 45.1868462, "lon": -109.2468666}, {"type": "node", "id": 6146626497, "lat": 45.1867162, "lon": -109.2468635}, {"type": "node", "id": 6146626498, "lat": 45.1867206, "lon": -109.2464095}, {"type": "node", "id": 6146626499, "lat": 45.1868515, "lon": -109.2464126}, {"type": "node", "id": 6146628388, "lat": 45.1882036, "lon": -109.2477324}, {"type": "node", "id": 6146628389, "lat": 45.1881997, "lon": -109.2478622}, {"type": "node", "id": 6146628390, "lat": 45.1879864, "lon": -109.247917}, {"type": "node", "id": 6146628391, "lat": 45.1900802, "lon": -109.2481638}, {"type": "node", "id": 6146628392, "lat": 45.1900822, "lon": -109.2481879}, {"type": "node", "id": 6146628393, "lat": 45.1900787, "lon": -109.2482116}, {"type": "node", "id": 6146628394, "lat": 45.1900698, "lon": -109.2482324}, {"type": "node", "id": 6146628395, "lat": 45.1899836, "lon": -109.2482167}, {"type": "node", "id": 6146628396, "lat": 45.1899787, "lon": -109.2481933}, {"type": "node", "id": 6146628397, "lat": 45.1899795, "lon": -109.2481691}, {"type": "node", "id": 6146628398, "lat": 45.1899858, "lon": -109.2481465}, {"type": "node", "id": 6146628399, "lat": 45.1900567, "lon": -109.248248}, {"type": "node", "id": 6146628400, "lat": 45.1900408, "lon": -109.2482567}, {"type": "node", "id": 6146628401, "lat": 45.1900237, "lon": -109.2482576}, {"type": "node", "id": 6146628402, "lat": 45.1900073, "lon": -109.2482506}, {"type": "node", "id": 6146628403, "lat": 45.1899935, "lon": -109.2482364}, {"type": "node", "id": 6146628404, "lat": 45.1899969, "lon": -109.248128}, {"type": "node", "id": 6146628405, "lat": 45.1900116, "lon": -109.2481156}, {"type": "node", "id": 6146628406, "lat": 45.1900284, "lon": -109.2481108}, {"type": "node", "id": 6146628407, "lat": 45.1900454, "lon": -109.2481139}, {"type": "node", "id": 6146628408, "lat": 45.1900607, "lon": -109.2481247}, {"type": "node", "id": 6146628409, "lat": 45.1900728, "lon": -109.2481419}, {"type": "node", "id": 6146628410, "lat": 45.1933041, "lon": -109.2461262}, {"type": "node", "id": 6146628411, "lat": 45.1933129, "lon": -109.2463757}, {"type": "node", "id": 6146628412, "lat": 45.1930822, "lon": -109.2463616}, {"type": "node", "id": 6146628413, "lat": 45.1931083, "lon": -109.246128}, {"type": "node", "id": 6146628414, "lat": 45.1932954, "lon": -109.2455369}, {"type": "node", "id": 6146628415, "lat": 45.1930946, "lon": -109.2455458}, {"type": "node", "id": 6146628416, "lat": 45.1930672, "lon": -109.2453122}, {"type": "node", "id": 6146628417, "lat": 45.1932992, "lon": -109.2453122}, {"type": "node", "id": 6146628421, "lat": 45.1932042, "lon": -109.2472044}, {"type": "node", "id": 6146628424, "lat": 45.1936895, "lon": -109.247083, "tags": {"addr:city": "Red Lodge", "addr:housenumber": "609", "addr:postcode": "59068", "addr:state": "MT", "addr:street": "North Broadway", "amenity": "fast_food", "brand": "Subway", "brand:wikidata": "Q244457", "cuisine": "sandwich", "name": "Subway", "opening_hours": "09:00-21:00", "phone": "+1 406-446-4400", "takeaway": "yes", "website": "https://restaurants.subway.com/united-states/mt/red-lodge/609-n-broadway"}}, {"type": "node", "id": 6146628425, "lat": 45.1936508, "lon": -109.247172, "tags": {"amenity": "casino", "name": "Gold Strike"}}, {"type": "node", "id": 6146628427, "lat": 45.193622, "lon": -109.2467088}, {"type": "node", "id": 6146628428, "lat": 45.1936262, "lon": -109.2467506}, {"type": "node", "id": 6146628429, "lat": 45.1936791, "lon": -109.2467399}, {"type": "node", "id": 6146628430, "lat": 45.1936936, "lon": -109.2468841}, {"type": "node", "id": 6146628431, "lat": 45.1936465, "lon": -109.2468937}, {"type": "node", "id": 6146628432, "lat": 45.1936683, "lon": -109.2471099}, {"type": "node", "id": 6146628433, "lat": 45.1931691, "lon": -109.2472115}, {"type": "node", "id": 6146628434, "lat": 45.1931284, "lon": -109.2468093}, {"type": "node", "id": 6146628436, "lat": 45.1936862, "lon": -109.245393}, {"type": "node", "id": 6146628437, "lat": 45.1935202, "lon": -109.2453823}, {"type": "node", "id": 6146628438, "lat": 45.1934892, "lon": -109.2463494}, {"type": "node", "id": 6146628439, "lat": 45.1936552, "lon": -109.2463601}, {"type": "node", "id": 6167069004, "lat": 45.1866828, "lon": -109.2460404, "tags": {"amenity": "police", "name": "Red Lodge Police Department"}}, {"type": "node", "id": 6167069005, "lat": 45.1867943, "lon": -109.2460109, "tags": {"addr:city": "Red Lodge", "addr:housenumber": "1", "addr:postcode": "59068", "addr:state": "MT", "addr:street": "South Platt Avenue", "amenity": "townhall", "name": "Red Lodge City Hall"}}, {"type": "node", "id": 6249664172, "lat": 45.185036, "lon": -109.2468205, "tags": {"amenity": "bicycle_parking"}}, {"type": "node", "id": 6249664175, "lat": 45.1848722, "lon": -109.2471777, "tags": {"amenity": "waste_basket"}}, {"type": "node", "id": 6249803248, "lat": 45.1893983, "lon": -109.2472288, "tags": {"amenity": "bench"}}, {"type": "node", "id": 6249803249, "lat": 45.1890807, "lon": -109.2472154, "tags": {"amenity": "bench"}}, {"type": "node", "id": 6249803251, "lat": 45.1878403, "lon": -109.2471636, "tags": {"amenity": "waste_basket"}}, {"type": "node", "id": 6249803252, "lat": 45.1872587, "lon": -109.2468937, "tags": {"amenity": "waste_basket"}}, {"type": "node", "id": 6249807386, "lat": 45.1868077, "lon": -109.2471838, "tags": {"amenity": "waste_basket"}}, {"type": "node", "id": 6249809135, "lat": 45.1856544, "lon": -109.2471161, "tags": {"amenity": "waste_basket"}}, {"type": "node", "id": 6324527897, "lat": 45.1885023, "lon": -109.2472332, "tags": {"name": "Red Lodge Rocks", "shop": "gift"}}, {"type": "node", "id": 6324527903, "lat": 45.1884279, "lon": -109.2472292, "tags": {"amenity": "restaurant", "cuisine": "regional", "name": "Wild Table", "outdoor_seating": "no"}}, {"type": "node", "id": 6324527904, "lat": 45.1887737, "lon": -109.247271, "tags": {"addr:city": "Red Lodge", "addr:housenumber": "119", "addr:postcode": "59068", "addr:state": "MT", "addr:street": "North Broadway Avenue", "amenity": "restaurant", "cuisine": "burger;barbecue", "name": "Hardwood", "phone": "+1-406-445-3500"}}, {"type": "node", "id": 6324527905, "lat": 45.1893297, "lon": -109.2472504, "tags": {"name": "Red Lodge Drug", "shop": "chemist"}}, {"type": "node", "id": 6424151019, "lat": 45.1843179, "lon": -109.2467099}, {"type": "node", "id": 6424151020, "lat": 45.1843165, "lon": -109.2468246}, {"type": "node", "id": 6424151021, "lat": 45.1841306, "lon": -109.2468194}, {"type": "node", "id": 6424151022, "lat": 45.1841323, "lon": -109.2467058}, {"type": "node", "id": 6424151231, "lat": 45.1867969, "lon": -109.2486268}, {"type": "node", "id": 6424151232, "lat": 45.1868061, "lon": -109.2483785}, {"type": "node", "id": 6424151233, "lat": 45.1860187, "lon": -109.248553}, {"type": "node", "id": 6424151234, "lat": 45.1860437, "lon": -109.2487801}, {"type": "node", "id": 6424151235, "lat": 45.1861623, "lon": -109.2487538}, {"type": "node", "id": 6424151236, "lat": 45.186153, "lon": -109.2486695}, {"type": "node", "id": 6424151237, "lat": 45.1861957, "lon": -109.24866}, {"type": "node", "id": 6424151238, "lat": 45.1862045, "lon": -109.2487398}, {"type": "node", "id": 6424151239, "lat": 45.1862243, "lon": -109.2487354}, {"type": "node", "id": 6424151240, "lat": 45.1862082, "lon": -109.2485895}, {"type": "node", "id": 6424151241, "lat": 45.1865015, "lon": -109.2485244}, {"type": "node", "id": 6424151242, "lat": 45.1865251, "lon": -109.2487122}, {"type": "node", "id": 6424151243, "lat": 45.1877869, "lon": -109.2485874}, {"type": "node", "id": 6424151244, "lat": 45.1877964, "lon": -109.2485438}, {"type": "node", "id": 6424151245, "lat": 45.187801, "lon": -109.2485027}, {"type": "node", "id": 6424151247, "lat": 45.1876549, "lon": -109.2484559}, {"type": "node", "id": 6424151248, "lat": 45.187647, "lon": -109.2484157}, {"type": "node", "id": 6424151249, "lat": 45.1877947, "lon": -109.2483934}, {"type": "node", "id": 6424151250, "lat": 45.1877932, "lon": -109.2481861}, {"type": "node", "id": 6424151251, "lat": 45.1877727, "lon": -109.2481549}, {"type": "node", "id": 6424151252, "lat": 45.1875515, "lon": -109.2481979}, {"type": "node", "id": 6424151253, "lat": 45.1869996, "lon": -109.2483421}, {"type": "node", "id": 6424151254, "lat": 45.1870216, "lon": -109.2483867}, {"type": "node", "id": 6424151255, "lat": 45.1869949, "lon": -109.2484469}, {"type": "node", "id": 6424151256, "lat": 45.1869945, "lon": -109.2484825}, {"type": "node", "id": 6424151257, "lat": 45.1869902, "lon": -109.2485183}, {"type": "node", "id": 6424151258, "lat": 45.1870216, "lon": -109.248603}, {"type": "node", "id": 6424151259, "lat": 45.1870216, "lon": -109.2486521}, {"type": "node", "id": 6424151260, "lat": 45.1870043, "lon": -109.2487435}, {"type": "node", "id": 6424151261, "lat": 45.1869776, "lon": -109.2487568}, {"type": "node", "id": 6424151262, "lat": 45.1869776, "lon": -109.2488282}, {"type": "node", "id": 6424151263, "lat": 45.1870609, "lon": -109.2488282}, {"type": "node", "id": 6424151264, "lat": 45.1870971, "lon": -109.2488237}, {"type": "node", "id": 6424151265, "lat": 45.1870672, "lon": -109.2485383}, {"type": "node", "id": 6424151266, "lat": 45.187548, "lon": -109.2484202}, {"type": "node", "id": 6424151267, "lat": 45.187581, "lon": -109.2486008}, {"type": "node", "id": 6424151270, "lat": 45.1869776, "lon": -109.2487947}, {"type": "node", "id": 6424151272, "lat": 45.1873548, "lon": -109.2480055}, {"type": "node", "id": 6424151273, "lat": 45.1875308, "lon": -109.2479542}, {"type": "node", "id": 6424151274, "lat": 45.1875308, "lon": -109.247758}, {"type": "node", "id": 6424151275, "lat": 45.1873532, "lon": -109.2477513}, {"type": "node", "id": 6424151335, "lat": 45.1874401, "lon": -109.2504337}, {"type": "node", "id": 6424151336, "lat": 45.1870421, "lon": -109.2504353}, {"type": "node", "id": 6424151503, "lat": 45.179923, "lon": -109.247536}, {"type": "node", "id": 6424151504, "lat": 45.1799103, "lon": -109.2479395}, {"type": "node", "id": 6424151505, "lat": 45.179065, "lon": -109.2478859}, {"type": "node", "id": 6424151506, "lat": 45.1790708, "lon": -109.2477027}, {"type": "node", "id": 6424151507, "lat": 45.1797763, "lon": -109.2477474}, {"type": "node", "id": 6424151508, "lat": 45.1797847, "lon": -109.2474813}, {"type": "node", "id": 6424151509, "lat": 45.1793826, "lon": -109.2474559}, {"type": "node", "id": 6424151510, "lat": 45.1793841, "lon": -109.2474104}, {"type": "node", "id": 6424151511, "lat": 45.1798635, "lon": -109.2474408}, {"type": "node", "id": 6424151512, "lat": 45.1798617, "lon": -109.2475001}, {"type": "node", "id": 6424151514, "lat": 45.1799142, "lon": -109.2478169}, {"type": "node", "id": 6424151515, "lat": 45.1790682, "lon": -109.2477867}, {"type": "node", "id": 6424151518, "lat": 45.1798246, "lon": -109.2474384}, {"type": "node", "id": 6424151520, "lat": 45.1809506, "lon": -109.2472333}, {"type": "node", "id": 6424151521, "lat": 45.1803652, "lon": -109.2474124}, {"type": "node", "id": 6424151522, "lat": 45.1804033, "lon": -109.2474151}, {"type": "node", "id": 6424207586, "lat": 45.1720787, "lon": -109.2566093}, {"type": "node", "id": 6424207587, "lat": 45.172063, "lon": -109.2570546}, {"type": "node", "id": 6424207588, "lat": 45.1720938, "lon": -109.2570568}, {"type": "node", "id": 6424207589, "lat": 45.1720865, "lon": -109.2572642}, {"type": "node", "id": 6424207590, "lat": 45.1718564, "lon": -109.2572479}, {"type": "node", "id": 6424207591, "lat": 45.1718633, "lon": -109.2570529}, {"type": "node", "id": 6424207592, "lat": 45.1719336, "lon": -109.2570578}, {"type": "node", "id": 6424207729, "lat": 45.1824945, "lon": -109.2471141}, {"type": "node", "id": 6424207730, "lat": 45.1824827, "lon": -109.2474633}, {"type": "node", "id": 6424207731, "lat": 45.182565, "lon": -109.2474688}, {"type": "node", "id": 6427531173, "lat": 45.1982897, "lon": -109.2472446, "tags": {"name": "High Country Equipment, Inc", "shop": "yes"}}, {"type": "node", "id": 6427531175, "lat": 45.1978134, "lon": -109.2464587}, {"type": "node", "id": 6427531176, "lat": 45.1978569, "lon": -109.2465579}, {"type": "node", "id": 6427531177, "lat": 45.1978561, "lon": -109.2474474}, {"type": "node", "id": 6427531178, "lat": 45.1977047, "lon": -109.2474471}, {"type": "node", "id": 6427531179, "lat": 45.1977055, "lon": -109.2464585}, {"type": "node", "id": 6427531180, "lat": 45.1977964, "lon": -109.2464587}, {"type": "node", "id": 6427531664, "lat": 45.1957185, "lon": -109.2469203}, {"type": "node", "id": 6427531665, "lat": 45.1957313, "lon": -109.2470958}, {"type": "node", "id": 6427531666, "lat": 45.195699, "lon": -109.2471006}, {"type": "node", "id": 6427531667, "lat": 45.195705, "lon": -109.2471824}, {"type": "node", "id": 6427531668, "lat": 45.195322, "lon": -109.2472387}, {"type": "node", "id": 6427531669, "lat": 45.1953188, "lon": -109.2471941}, {"type": "node", "id": 6427531670, "lat": 45.1953337, "lon": -109.2471764}, {"type": "node", "id": 6427531671, "lat": 45.1953193, "lon": -109.246979}, {"type": "node", "id": 6427531692, "lat": 45.1965654, "lon": -109.2447591}, {"type": "node", "id": 6427531693, "lat": 45.1961933, "lon": -109.2447053}, {"type": "node", "id": 6427531694, "lat": 45.1961643, "lon": -109.2451106}, {"type": "node", "id": 6427531695, "lat": 45.1965363, "lon": -109.2451644}, {"type": "node", "id": 6427531776, "lat": 45.2001735, "lon": -109.2462301, "tags": {"brand": "Family Dollar", "brand:wikidata": "Q5433101", "name": "Family Dollar", "shop": "variety_store"}}, {"type": "node", "id": 6427531777, "lat": 45.2003002, "lon": -109.2464628}, {"type": "node", "id": 6427531778, "lat": 45.2000457, "lon": -109.2464499}, {"type": "node", "id": 6427531779, "lat": 45.2000585, "lon": -109.245936}, {"type": "node", "id": 6427531780, "lat": 45.1999436, "lon": -109.2459302}, {"type": "node", "id": 6427531781, "lat": 45.1999181, "lon": -109.246947}, {"type": "node", "id": 6427531782, "lat": 45.2002876, "lon": -109.2469666}, {"type": "node", "id": 6427531783, "lat": 45.1993175, "lon": -109.2462898, "tags": {"name": "Napa Auto Care Center", "shop": "car_repair"}}, {"type": "node", "id": 6427531993, "lat": 45.2020435, "lon": -109.2459034, "tags": {"addr:city": "Red Lodge", "addr:housenumber": "1445", "addr:postcode": "59068", "addr:state": "MT", "addr:street": "North Broadway Avenue", "amenity": "restaurant", "contact:phone": "+1 406-446-0243", "cuisine": "regional", "internet_access": "wlan", "name": "Sam's Tap Room & Kitchen", "opening_hours": "Mo-Su 11:00-22:00", "outdoor_seating": "yes", "website": "https://www.redlodgeales.com/"}}, {"type": "node", "id": 6427531994, "lat": 45.2021133, "lon": -109.2466198}, {"type": "node", "id": 6427531995, "lat": 45.2021055, "lon": -109.2465482}, {"type": "node", "id": 6427531996, "lat": 45.2021755, "lon": -109.2465328}, {"type": "node", "id": 6427531997, "lat": 45.2021463, "lon": -109.2462658}, {"type": "node", "id": 6427531998, "lat": 45.2017896, "lon": -109.2463444}, {"type": "node", "id": 6427531999, "lat": 45.2018179, "lon": -109.2466029}, {"type": "node", "id": 6427532000, "lat": 45.2018738, "lon": -109.2465906}, {"type": "node", "id": 6427532001, "lat": 45.2018826, "lon": -109.2466707}, {"type": "node", "id": 6427532024, "lat": 45.2020411, "lon": -109.246289}, {"type": "node", "id": 6427532027, "lat": 45.2018855, "lon": -109.2463233}, {"type": "node", "id": 7050638130, "lat": 45.1867703, "lon": -109.2504212}, {"type": "node", "id": 7050638131, "lat": 45.1866246, "lon": -109.250418}, {"type": "node", "id": 7050638132, "lat": 45.1866298, "lon": -109.2499422}, {"type": "node", "id": 7050638133, "lat": 45.1867754, "lon": -109.2499454}, {"type": "node", "id": 7050638152, "lat": 45.1828003, "lon": -109.2501205}, {"type": "node", "id": 7050638153, "lat": 45.182773, "lon": -109.2498771}, {"type": "node", "id": 7050638154, "lat": 45.1824167, "lon": -109.2499576}, {"type": "node", "id": 7050638155, "lat": 45.182444, "lon": -109.2502011}, {"type": "node", "id": 7050638156, "lat": 45.1827647, "lon": -109.2498008}, {"type": "node", "id": 7050638157, "lat": 45.1827849, "lon": -109.2497959}, {"type": "node", "id": 7050638158, "lat": 45.1827772, "lon": -109.2497317}, {"type": "node", "id": 7050638159, "lat": 45.1827897, "lon": -109.2497215}, {"type": "node", "id": 7050638160, "lat": 45.1827789, "lon": -109.2496308}, {"type": "node", "id": 7050638161, "lat": 45.1827477, "lon": -109.2496383}, {"type": "node", "id": 7050638162, "lat": 45.1827402, "lon": -109.2495749}, {"type": "node", "id": 7050638163, "lat": 45.1825245, "lon": -109.2496266}, {"type": "node", "id": 7050638164, "lat": 45.182527, "lon": -109.2496474}, {"type": "node", "id": 7050638165, "lat": 45.182503, "lon": -109.2496531}, {"type": "node", "id": 7050638166, "lat": 45.1825137, "lon": -109.249743}, {"type": "node", "id": 7050638167, "lat": 45.1823594, "lon": -109.24978}, {"type": "node", "id": 7050638168, "lat": 45.1823262, "lon": -109.2495007}, {"type": "node", "id": 7050638169, "lat": 45.1821187, "lon": -109.2495505}, {"type": "node", "id": 7050638170, "lat": 45.1820589, "lon": -109.2501918}, {"type": "node", "id": 7050638171, "lat": 45.1822739, "lon": -109.2500603}, {"type": "node", "id": 7050638172, "lat": 45.1822792, "lon": -109.2501044}, {"type": "node", "id": 7050638173, "lat": 45.1824094, "lon": -109.250073}, {"type": "node", "id": 7050638174, "lat": 45.1823892, "lon": -109.2499051}, {"type": "node", "id": 7050638175, "lat": 45.1824781, "lon": -109.2498837}, {"type": "node", "id": 7050638176, "lat": 45.1824816, "lon": -109.2499127}, {"type": "node", "id": 7050638177, "lat": 45.1823271, "lon": -109.2495029, "tags": {"amenity": "bicycle_parking"}}, {"type": "node", "id": 7050638179, "lat": 45.1824283, "lon": -109.2497635, "tags": {"entrance": "yes"}}, {"type": "node", "id": 7050692513, "lat": 45.1775105, "lon": -109.2487031}, {"type": "node", "id": 7050692514, "lat": 45.1775884, "lon": -109.2488881}, {"type": "node", "id": 7050692515, "lat": 45.17782, "lon": -109.2486257}, {"type": "node", "id": 7050692516, "lat": 45.1776515, "lon": -109.2482207}, {"type": "node", "id": 7050692517, "lat": 45.1776273, "lon": -109.2482419}, {"type": "node", "id": 7050692518, "lat": 45.1776073, "lon": -109.2481852}, {"type": "node", "id": 7050692519, "lat": 45.1775503, "lon": -109.2482349}, {"type": "node", "id": 7050692520, "lat": 45.1776039, "lon": -109.2484048}, {"type": "node", "id": 7050692521, "lat": 45.1776409, "lon": -109.2485595}, {"type": "node", "id": 7050692523, "lat": 45.1775737, "lon": -109.2482126}, {"type": "node", "id": 7050692674, "lat": 45.175498, "lon": -109.255313}, {"type": "node", "id": 7050692675, "lat": 45.1752909, "lon": -109.255297}, {"type": "node", "id": 7050692676, "lat": 45.1752778, "lon": -109.2556395}, {"type": "node", "id": 7050692677, "lat": 45.1754849, "lon": -109.2556555}, {"type": "node", "id": 7050692678, "lat": 45.1748904, "lon": -109.255284}, {"type": "node", "id": 7050692679, "lat": 45.1748855, "lon": -109.255611}, {"type": "node", "id": 7050692680, "lat": 45.1747082, "lon": -109.2556056}, {"type": "node", "id": 7050692681, "lat": 45.1747132, "lon": -109.2552786}, {"type": "node", "id": 7050692703, "lat": 45.176426, "lon": -109.253392}, {"type": "node", "id": 7050692704, "lat": 45.176549, "lon": -109.253392}, {"type": "node", "id": 7050692705, "lat": 45.176548, "lon": -109.253534}, {"type": "node", "id": 7050692706, "lat": 45.176505, "lon": -109.253534}, {"type": "node", "id": 7050692707, "lat": 45.176505, "lon": -109.253564}, {"type": "node", "id": 7050692893, "lat": 45.179108, "lon": -109.251227}, {"type": "node", "id": 7050692894, "lat": 45.179112, "lon": -109.251044}, {"type": "node", "id": 7050692895, "lat": 45.179257, "lon": -109.25105}, {"type": "node", "id": 7050692931, "lat": 45.1815555, "lon": -109.247491}, {"type": "node", "id": 7050692932, "lat": 45.1813755, "lon": -109.247491}, {"type": "node", "id": 7050692933, "lat": 45.1813755, "lon": -109.247214}, {"type": "node", "id": 7052667873, "lat": 45.1720729, "lon": -109.2573157}, {"type": "node", "id": 7052667874, "lat": 45.1720692, "lon": -109.2573792}, {"type": "node", "id": 7052667875, "lat": 45.1721127, "lon": -109.2573843}, {"type": "node", "id": 7052667876, "lat": 45.172107, "lon": -109.2574818}, {"type": "node", "id": 7052667877, "lat": 45.1720702, "lon": -109.2574775}, {"type": "node", "id": 7052667878, "lat": 45.172065, "lon": -109.2575671}, {"type": "node", "id": 7052667879, "lat": 45.1718139, "lon": -109.2575378}, {"type": "node", "id": 7052667880, "lat": 45.1718236, "lon": -109.2573718}, {"type": "node", "id": 7052667881, "lat": 45.1718546, "lon": -109.2573755}, {"type": "node", "id": 7052667882, "lat": 45.1718595, "lon": -109.2572907}, {"type": "node", "id": 7052667884, "lat": 45.1718214, "lon": -109.2574104}, {"type": "node", "id": 7052667886, "lat": 45.1723478, "lon": -109.2562983}, {"type": "node", "id": 7052667887, "lat": 45.1718477, "lon": -109.2562673}, {"type": "node", "id": 7052667888, "lat": 45.1718403, "lon": -109.2565103}, {"type": "node", "id": 7052667889, "lat": 45.1723404, "lon": -109.2565413}, {"type": "node", "id": 7052667891, "lat": 45.1718428, "lon": -109.2564029}, {"type": "node", "id": 7052667894, "lat": 45.1723071, "lon": -109.2562963}, {"type": "node", "id": 7052667970, "lat": 45.1738264, "lon": -109.2518407}, {"type": "node", "id": 7052667971, "lat": 45.1738203, "lon": -109.2520711}, {"type": "node", "id": 7052667972, "lat": 45.1734848, "lon": -109.2520533}, {"type": "node", "id": 7052667973, "lat": 45.1735078, "lon": -109.2511766}, {"type": "node", "id": 7052667974, "lat": 45.1736795, "lon": -109.250925}, {"type": "node", "id": 7052667975, "lat": 45.1736555, "lon": -109.2518316}, {"type": "node", "id": 7052667977, "lat": 45.1735047, "lon": -109.2512943}, {"type": "node", "id": 7052668029, "lat": 45.1758195, "lon": -109.249592}, {"type": "node", "id": 7052668030, "lat": 45.1758231, "lon": -109.2494299}, {"type": "node", "id": 7052668031, "lat": 45.1755951, "lon": -109.249435}, {"type": "node", "id": 7052668032, "lat": 45.1755504, "lon": -109.2494404}, {"type": "node", "id": 7052668033, "lat": 45.1755301, "lon": -109.2494874}, {"type": "node", "id": 7052668034, "lat": 45.1755246, "lon": -109.249626}, {"type": "node", "id": 7062021541, "lat": 45.1851429, "lon": -109.2488081}, {"type": "node", "id": 7062021542, "lat": 45.1851499, "lon": -109.248487}, {"type": "node", "id": 7062021543, "lat": 45.1850118, "lon": -109.2484809}, {"type": "node", "id": 7062021544, "lat": 45.1850035, "lon": -109.2488621}, {"type": "node", "id": 7062021545, "lat": 45.1850516, "lon": -109.2488643}, {"type": "node", "id": 7062021546, "lat": 45.1850529, "lon": -109.2488041}, {"type": "node", "id": 7062021547, "lat": 45.1847443, "lon": -109.2499355}, {"type": "node", "id": 7062021548, "lat": 45.1847972, "lon": -109.2500079}, {"type": "node", "id": 7062021549, "lat": 45.1847887, "lon": -109.2504202}, {"type": "node", "id": 7062021550, "lat": 45.1843716, "lon": -109.2503426}, {"type": "node", "id": 7062021551, "lat": 45.1843804, "lon": -109.2499203}, {"type": "node", "id": 7062021557, "lat": 45.1846809, "lon": -109.2504552}, {"type": "node", "id": 7062021558, "lat": 45.184796, "lon": -109.2504572}, {"type": "node", "id": 7062021559, "lat": 45.1847925, "lon": -109.2507742}, {"type": "node", "id": 7062021560, "lat": 45.184708, "lon": -109.2507722}, {"type": "node", "id": 7062021561, "lat": 45.1847056, "lon": -109.2509912}, {"type": "node", "id": 7062021562, "lat": 45.1843908, "lon": -109.2509842}, {"type": "node", "id": 7062021563, "lat": 45.184392, "lon": -109.2508732}, {"type": "node", "id": 7062021564, "lat": 45.1846761, "lon": -109.2508802}, {"type": "node", "id": 7073913695, "lat": 45.1853922, "lon": -109.2481182, "tags": {"shop": "hairdresser"}}, {"type": "node", "id": 7073913696, "lat": 45.1857983, "lon": -109.2478638, "tags": {"brand": "State Farm", "brand:wikidata": "Q2007336", "name": "State Farm", "office": "insurance"}}, {"type": "node", "id": 7073913697, "lat": 45.1855842, "lon": -109.246819, "tags": {"name": "Smelly Kokopelli", "shop": "gift"}}, {"type": "node", "id": 7073913698, "lat": 45.1854804, "lon": -109.2468065, "tags": {"addr:city": "Red Lodge", "addr:housenumber": "112", "addr:state": "MT", "addr:street": "South Broadway Avenue", "name": "Katie Cakes", "shop": "pastry"}}, {"type": "node", "id": 7073913699, "lat": 45.1860495, "lon": -109.2464138, "tags": {"name": "Chic & Sassy Salon", "shop": "hairdresser"}}, {"type": "node", "id": 7073913700, "lat": 45.1865247, "lon": -109.2468469, "tags": {"name": "Whispering Pines", "shop": "interior_decoration"}}, {"type": "node", "id": 7073913704, "lat": 45.186795, "lon": -109.2468654}, {"type": "node", "id": 7073913705, "lat": 45.1868007, "lon": -109.2464114}, {"type": "node", "id": 7105896741, "lat": 45.1785255, "lon": -109.2490172, "tags": {"amenity": "fountain"}}, {"type": "node", "id": 7105896818, "lat": 45.1778224, "lon": -109.2482061, "tags": {"amenity": "bank", "name": "Altana Federal Credit Union"}}, {"type": "node", "id": 7120486037, "lat": 45.1934442, "lon": -109.2515183}, {"type": "node", "id": 7120486038, "lat": 45.1933615, "lon": -109.2515884}, {"type": "node", "id": 7120486039, "lat": 45.1933011, "lon": -109.2516396}, {"type": "node", "id": 7120486040, "lat": 45.1931758, "lon": -109.2513417}, {"type": "node", "id": 7120486041, "lat": 45.1932169, "lon": -109.2513069}, {"type": "node", "id": 7120486042, "lat": 45.1931951, "lon": -109.251255}, {"type": "node", "id": 7120486043, "lat": 45.193244, "lon": -109.2512136}, {"type": "node", "id": 7120486044, "lat": 45.1932619, "lon": -109.2512561}, {"type": "node", "id": 7120486045, "lat": 45.193315, "lon": -109.2512112}, {"type": "node", "id": 7120486046, "lat": 45.1931702, "lon": -109.2518901}, {"type": "node", "id": 7120486047, "lat": 45.1930375, "lon": -109.2516117}, {"type": "node", "id": 7120486048, "lat": 45.1927599, "lon": -109.2518646}, {"type": "node", "id": 7120486049, "lat": 45.1929202, "lon": -109.2522109}, {"type": "node", "id": 7120486050, "lat": 45.1929981, "lon": -109.25214}, {"type": "node", "id": 7120486051, "lat": 45.1930614, "lon": -109.2520836}, {"type": "node", "id": 7120486052, "lat": 45.1931168, "lon": -109.251987}, {"type": "node", "id": 7120518289, "lat": 45.1952617, "lon": -109.2460703}, {"type": "node", "id": 7120518290, "lat": 45.1950008, "lon": -109.2460181}, {"type": "node", "id": 7120518291, "lat": 45.1949468, "lon": -109.246561}, {"type": "node", "id": 7120518292, "lat": 45.194974, "lon": -109.2466111}, {"type": "node", "id": 7120518293, "lat": 45.1957321, "lon": -109.2465749}, {"type": "node", "id": 7120518294, "lat": 45.1956631, "lon": -109.2464936}, {"type": "node", "id": 7120518295, "lat": 45.1954083, "lon": -109.246452}, {"type": "node", "id": 7120518296, "lat": 45.1954065, "lon": -109.2464897}, {"type": "node", "id": 7120518297, "lat": 45.1952881, "lon": -109.246478}, {"type": "node", "id": 7120518298, "lat": 45.1952342, "lon": -109.2465232}, {"type": "node", "id": 7120518299, "lat": 45.1951888, "lon": -109.2464143}, {"type": "node", "id": 7120518300, "lat": 45.1952201, "lon": -109.2464008}, {"type": "node", "id": 7120518301, "lat": 45.1952283, "lon": -109.2463159}, {"type": "node", "id": 7120518302, "lat": 45.1952079, "lon": -109.2462638}, {"type": "node", "id": 7120518303, "lat": 45.1952174, "lon": -109.2462484}, {"type": "node", "id": 7120518304, "lat": 45.1952446, "lon": -109.2462426}, {"type": "node", "id": 7120518305, "lat": 45.1953503, "lon": -109.2466663}, {"type": "node", "id": 7120518307, "lat": 45.1957371, "lon": -109.2465168}, {"type": "node", "id": 7120518310, "lat": 45.1957519, "lon": -109.2461293}, {"type": "node", "id": 7120518311, "lat": 45.1957062, "lon": -109.2461088}, {"type": "node", "id": 7120518411, "lat": 45.193569, "lon": -109.2467196, "tags": {"highway": "crossing"}}, {"type": "node", "id": 7120518420, "lat": 45.1935744, "lon": -109.2453858}, {"type": "node", "id": 7120518422, "lat": 45.1935073, "lon": -109.2463506}, {"type": "node", "id": 7120518554, "lat": 45.1933086, "lon": -109.2462534}, {"type": "node", "id": 7120518555, "lat": 45.1930952, "lon": -109.2462454}, {"type": "node", "id": 7120518559, "lat": 45.1932971, "lon": -109.2454381}, {"type": "node", "id": 7120518560, "lat": 45.1930828, "lon": -109.245445}, {"type": "node", "id": 7120518564, "lat": 45.1931416, "lon": -109.2447958}, {"type": "node", "id": 7120518565, "lat": 45.1930021, "lon": -109.2447876}, {"type": "node", "id": 7120518566, "lat": 45.1929909, "lon": -109.2451683}, {"type": "node", "id": 7120518567, "lat": 45.1931305, "lon": -109.2451766}, {"type": "node", "id": 7120518574, "lat": 45.1906363, "lon": -109.2472944}, {"type": "node", "id": 7120518575, "lat": 45.1906241, "lon": -109.247365}, {"type": "node", "id": 7120518576, "lat": 45.1905612, "lon": -109.2475235}, {"type": "node", "id": 7120518577, "lat": 45.1900144, "lon": -109.2476326}, {"type": "node", "id": 7120518578, "lat": 45.1900071, "lon": -109.247558}, {"type": "node", "id": 7120518579, "lat": 45.1899978, "lon": -109.2474648}, {"type": "node", "id": 7120518580, "lat": 45.1902968, "lon": -109.2474053}, {"type": "node", "id": 7120518581, "lat": 45.1903132, "lon": -109.2473002}, {"type": "node", "id": 7120518582, "lat": 45.1905714, "lon": -109.2472476}, {"type": "node", "id": 7120518583, "lat": 45.1903417, "lon": -109.247576, "tags": {"amenity": "charging_station"}}, {"type": "node", "id": 7120518604, "lat": 45.1901632, "lon": -109.2474137, "tags": {"amenity": "bicycle_parking"}}, {"type": "node", "id": 7120528279, "lat": 45.192145, "lon": -109.244119}, {"type": "node", "id": 7120528280, "lat": 45.192406, "lon": -109.244123}, {"type": "node", "id": 7120528281, "lat": 45.192404, "lon": -109.244294}, {"type": "node", "id": 7120528283, "lat": 45.192091, "lon": -109.244164}, {"type": "node", "id": 7120528284, "lat": 45.1921444, "lon": -109.2441654}, {"type": "node", "id": 7134485437, "lat": 45.1924717, "lon": -109.2476613, "tags": {"amenity": "bench", "backrest": "yes", "material": "wood"}}, {"type": "node", "id": 7264552368, "lat": 45.1894801, "lon": -109.2472452}, {"type": "node", "id": 7264552369, "lat": 45.1894801, "lon": -109.2472962}, {"type": "node", "id": 7264552370, "lat": 45.1896385, "lon": -109.2473082}, {"type": "node", "id": 7264552371, "lat": 45.1896279, "lon": -109.24747}, {"type": "node", "id": 7264552372, "lat": 45.1894082, "lon": -109.2474611}, {"type": "node", "id": 7264552373, "lat": 45.1894082, "lon": -109.247494}, {"type": "node", "id": 7264552374, "lat": 45.1892519, "lon": -109.247497}, {"type": "node", "id": 7264552375, "lat": 45.1892477, "lon": -109.2476559}, {"type": "node", "id": 7264552376, "lat": 45.1898244, "lon": -109.247476}, {"type": "node", "id": 7264552377, "lat": 45.1898307, "lon": -109.2472512}, {"type": "node", "id": 7264552378, "lat": 45.188747, "lon": -109.2476259}, {"type": "node", "id": 7264552379, "lat": 45.1886076, "lon": -109.2476739}, {"type": "node", "id": 7264552380, "lat": 45.1885506, "lon": -109.2476289}, {"type": "node", "id": 7264552381, "lat": 45.1885598, "lon": -109.2472226}, {"type": "node", "id": 7264552382, "lat": 45.1886684, "lon": -109.2472276}, {"type": "node", "id": 7264552383, "lat": 45.1886629, "lon": -109.2474686}, {"type": "node", "id": 7264552384, "lat": 45.1887506, "lon": -109.2474726}, {"type": "node", "id": 7264552433, "lat": 45.1882662, "lon": -109.2464319}, {"type": "node", "id": 7264552434, "lat": 45.1882655, "lon": -109.2465172}, {"type": "node", "id": 7264552435, "lat": 45.1880206, "lon": -109.2465136}, {"type": "node", "id": 7264552436, "lat": 45.1880212, "lon": -109.2464282}, {"type": "node", "id": 7264552437, "lat": 45.1886121, "lon": -109.2463882}, {"type": "node", "id": 7264552438, "lat": 45.1886138, "lon": -109.2462893}, {"type": "node", "id": 7264552439, "lat": 45.1885082, "lon": -109.2462857}, {"type": "node", "id": 7264552440, "lat": 45.1885065, "lon": -109.2463846}, {"type": "node", "id": 7264575343, "lat": 45.1924022, "lon": -109.2444029}, {"type": "node", "id": 7264575344, "lat": 45.1928423, "lon": -109.2444173}, {"type": "node", "id": 7264575345, "lat": 45.1928502, "lon": -109.2439283}, {"type": "node", "id": 7264575346, "lat": 45.1920166, "lon": -109.2439008}, {"type": "node", "id": 7264575347, "lat": 45.1920121, "lon": -109.2441781}, {"type": "node", "id": 7264575348, "lat": 45.1920909, "lon": -109.2441807}, {"type": "node", "id": 7264575349, "lat": 45.1920144, "lon": -109.2440395, "tags": {"barrier": "gate"}}, {"type": "node", "id": 7264959520, "lat": 45.1820265, "lon": -109.2499198}, {"type": "node", "id": 7264959521, "lat": 45.182122, "lon": -109.2498969}, {"type": "node", "id": 7264959522, "lat": 45.1821066, "lon": -109.2497674}, {"type": "node", "id": 7264959523, "lat": 45.1821435, "lon": -109.2497585}, {"type": "node", "id": 7264959524, "lat": 45.1821821, "lon": -109.2500824}, {"type": "node", "id": 7264959525, "lat": 45.1821914, "lon": -109.25016}, {"type": "node", "id": 7264959993, "lat": 45.2142315, "lon": -109.2427402}, {"type": "node", "id": 7265684032, "lat": 45.2026425, "lon": -109.2583663}, {"type": "node", "id": 7265684033, "lat": 45.2026445, "lon": -109.2588382}, {"type": "node", "id": 7265684034, "lat": 45.2018753, "lon": -109.258845}, {"type": "node", "id": 7265684035, "lat": 45.2018733, "lon": -109.2583729}, {"type": "node", "id": 7265684037, "lat": 45.2026435, "lon": -109.2587594}, {"type": "node", "id": 7266065086, "lat": 45.1791453, "lon": -109.2532902}, {"type": "node", "id": 7266065087, "lat": 45.1789825, "lon": -109.2532861}, {"type": "node", "id": 7266065088, "lat": 45.1789885, "lon": -109.2527976}, {"type": "node", "id": 7266065089, "lat": 45.1791513, "lon": -109.2528016}, {"type": "node", "id": 7266065136, "lat": 45.1777603, "lon": -109.2545822}, {"type": "node", "id": 7266065137, "lat": 45.1776265, "lon": -109.2545741}, {"type": "node", "id": 7266065138, "lat": 45.1776347, "lon": -109.2542979}, {"type": "node", "id": 7266065139, "lat": 45.177282, "lon": -109.2542766}, {"type": "node", "id": 7266065140, "lat": 45.1772828, "lon": -109.2542484}, {"type": "node", "id": 7266065141, "lat": 45.1772551, "lon": -109.2542467}, {"type": "node", "id": 7266065142, "lat": 45.1772612, "lon": -109.2540386}, {"type": "node", "id": 7266065143, "lat": 45.1773512, "lon": -109.254044}, {"type": "node", "id": 7266065144, "lat": 45.1773522, "lon": -109.2540103}, {"type": "node", "id": 7266065145, "lat": 45.177459, "lon": -109.2540167}, {"type": "node", "id": 7266065146, "lat": 45.1774663, "lon": -109.2537696}, {"type": "node", "id": 7266065147, "lat": 45.1773442, "lon": -109.2537623}, {"type": "node", "id": 7266065148, "lat": 45.177347, "lon": -109.2536696}, {"type": "node", "id": 7266065149, "lat": 45.177474, "lon": -109.2535577}, {"type": "node", "id": 7266065150, "lat": 45.1774769, "lon": -109.2533916}, {"type": "node", "id": 7266065151, "lat": 45.1775311, "lon": -109.2533935}, {"type": "node", "id": 7266065152, "lat": 45.177607, "lon": -109.2533961}, {"type": "node", "id": 7266065153, "lat": 45.1775748, "lon": -109.2534728}, {"type": "node", "id": 7266065154, "lat": 45.1775573, "lon": -109.2541503}, {"type": "node", "id": 7266065155, "lat": 45.1775982, "lon": -109.2542021}, {"type": "node", "id": 7266065156, "lat": 45.1778025, "lon": -109.2542042}, {"type": "node", "id": 7266065157, "lat": 45.1778022, "lon": -109.2542519}, {"type": "node", "id": 7266065158, "lat": 45.1778012, "lon": -109.2544445}, {"type": "node", "id": 7266065159, "lat": 45.1777632, "lon": -109.2544838}, {"type": "node", "id": 7266065160, "lat": 45.1776919, "lon": -109.2545781}, {"type": "node", "id": 7266065162, "lat": 45.1775682, "lon": -109.2537286}, {"type": "node", "id": 7266065319, "lat": 45.1847004, "lon": -109.2499337}, {"type": "node", "id": 7266065322, "lat": 45.1844685, "lon": -109.249924}, {"type": "node", "id": 7266065325, "lat": 45.1846676, "lon": -109.2504152}, {"type": "node", "id": 7266065326, "lat": 45.1846689, "lon": -109.250355}, {"type": "node", "id": 7266065334, "lat": 45.1847064, "lon": -109.2496515}, {"type": "node", "id": 7266065335, "lat": 45.1847207, "lon": -109.2488635}, {"type": "node", "id": 7266065338, "lat": 45.1845554, "lon": -109.2496683}, {"type": "node", "id": 7266065339, "lat": 45.1845671, "lon": -109.2489039}, {"type": "node", "id": 7266065347, "lat": 45.1858355, "lon": -109.2479823}, {"type": "node", "id": 7266065348, "lat": 45.1858325, "lon": -109.2481897}, {"type": "node", "id": 7266065349, "lat": 45.1857153, "lon": -109.2481863}, {"type": "node", "id": 7266065350, "lat": 45.1857183, "lon": -109.2479789}, {"type": "node", "id": 7266065362, "lat": 45.1854886, "lon": -109.2477074}, {"type": "node", "id": 7266065363, "lat": 45.1854813, "lon": -109.2479241}, {"type": "node", "id": 7266065364, "lat": 45.1854366, "lon": -109.247921}, {"type": "node", "id": 7266065365, "lat": 45.1854399, "lon": -109.2478234}, {"type": "node", "id": 7266065366, "lat": 45.1853661, "lon": -109.2478184}, {"type": "node", "id": 7266065367, "lat": 45.1853701, "lon": -109.2476993}, {"type": "node", "id": 7266065368, "lat": 45.1857726, "lon": -109.2476191}, {"type": "node", "id": 7266065369, "lat": 45.1856565, "lon": -109.247615}, {"type": "node", "id": 7266065370, "lat": 45.1856606, "lon": -109.2473795}, {"type": "node", "id": 7266065371, "lat": 45.1857768, "lon": -109.2473836}, {"type": "node", "id": 7266065372, "lat": 45.1855725, "lon": -109.2476184}, {"type": "node", "id": 7266065373, "lat": 45.1854306, "lon": -109.2476093}, {"type": "node", "id": 7266065374, "lat": 45.1854366, "lon": -109.24742}, {"type": "node", "id": 7266065375, "lat": 45.1854692, "lon": -109.247422}, {"type": "node", "id": 7266065376, "lat": 45.1854704, "lon": -109.2473865}, {"type": "node", "id": 7266065377, "lat": 45.1855796, "lon": -109.2473935}, {"type": "node", "id": 7266065378, "lat": 45.1866184, "lon": -109.2477387}, {"type": "node", "id": 7266065379, "lat": 45.1866169, "lon": -109.2478423}, {"type": "node", "id": 7266065380, "lat": 45.1865691, "lon": -109.2478409}, {"type": "node", "id": 7266065381, "lat": 45.1865695, "lon": -109.2478113}, {"type": "node", "id": 7266065382, "lat": 45.1861795, "lon": -109.2477996}, {"type": "node", "id": 7266065383, "lat": 45.1861791, "lon": -109.2478252}, {"type": "node", "id": 7266065384, "lat": 45.1861423, "lon": -109.2478241}, {"type": "node", "id": 7266065385, "lat": 45.1861438, "lon": -109.2477246}, {"type": "node", "id": 7266065416, "lat": 45.188133, "lon": -109.2468452, "tags": {"entrance": "yes"}}, {"type": "node", "id": 7266065423, "lat": 45.1881557, "lon": -109.2472148, "tags": {"name": "Carbon County Abstract and Title", "office": "title"}}, {"type": "node", "id": 7266065424, "lat": 45.1883656, "lon": -109.2472259, "tags": {"office": "lawyer"}}, {"type": "node", "id": 7266065425, "lat": 45.1883494, "lon": -109.2471963, "tags": {"amenity": "bench"}}, {"type": "node", "id": 7266065426, "lat": 45.1882585, "lon": -109.2476921, "tags": {"addr:city": "Red Lodge", "addr:housenumber": "108", "addr:state": "MT", "addr:street": "North Oakes Avenue", "name": "Red Lodge Collision Center", "phone": "+1 406-446-3513", "service:vehicle:body_repair": "yes", "service:vehicle:car_repair": "yes", "service:vehicle:repairs": "yes", "shop": "car_repair"}}, {"type": "node", "id": 7266065428, "lat": 45.1882788, "lon": -109.2477375, "tags": {"amenity": "parking_entrance"}}, {"type": "node", "id": 7266065429, "lat": 45.1883084, "lon": -109.2477707, "tags": {"amenity": "waste_disposal"}}, {"type": "node", "id": 7266065430, "lat": 45.1884503, "lon": -109.2474575}, {"type": "node", "id": 7266065431, "lat": 45.1883874, "lon": -109.2474539}, {"type": "node", "id": 7266065432, "lat": 45.1883852, "lon": -109.2475323}, {"type": "node", "id": 7266065433, "lat": 45.1883353, "lon": -109.2475294}, {"type": "node", "id": 7266065434, "lat": 45.1883293, "lon": -109.2477417}, {"type": "node", "id": 7266065435, "lat": 45.1884551, "lon": -109.2477489}, {"type": "node", "id": 7266065436, "lat": 45.1885291, "lon": -109.2477265}, {"type": "node", "id": 7266065437, "lat": 45.1885322, "lon": -109.2476183}, {"type": "node", "id": 7266065438, "lat": 45.1884459, "lon": -109.2476133}, {"type": "node", "id": 7266065447, "lat": 45.1891846, "lon": -109.2465413}, {"type": "node", "id": 7266065448, "lat": 45.1891866, "lon": -109.2464759}, {"type": "node", "id": 7266065449, "lat": 45.1890437, "lon": -109.2464671}, {"type": "node", "id": 7266065450, "lat": 45.1890663, "lon": -109.246534}, {"type": "node", "id": 7266065483, "lat": 45.1797546, "lon": -109.240397}, {"type": "node", "id": 7266065484, "lat": 45.179968, "lon": -109.2403523}, {"type": "node", "id": 7266065485, "lat": 45.1800931, "lon": -109.2403319}, {"type": "node", "id": 7266065486, "lat": 45.1801585, "lon": -109.2402701}, {"type": "node", "id": 7266065487, "lat": 45.1801832, "lon": -109.2402049}, {"type": "node", "id": 7266065488, "lat": 45.1802371, "lon": -109.2400177}, {"type": "node", "id": 7266065489, "lat": 45.1802979, "lon": -109.239894}, {"type": "node", "id": 7266065519, "lat": 45.1783548, "lon": -109.2473368}, {"type": "node", "id": 7266065520, "lat": 45.1783909, "lon": -109.247305}, {"type": "node", "id": 7266065521, "lat": 45.178453, "lon": -109.24725}, {"type": "node", "id": 7266065522, "lat": 45.1784463, "lon": -109.2477192}, {"type": "node", "id": 7266065523, "lat": 45.1782033, "lon": -109.2477121}, {"type": "node", "id": 7266065524, "lat": 45.1782037, "lon": -109.2476904}, {"type": "node", "id": 7266065525, "lat": 45.1780758, "lon": -109.2476868}, {"type": "node", "id": 7266065526, "lat": 45.1780764, "lon": -109.2476433}, {"type": "node", "id": 7266065527, "lat": 45.1781128, "lon": -109.2476047}, {"type": "node", "id": 7266065528, "lat": 45.1781881, "lon": -109.2475246}, {"type": "node", "id": 7266065529, "lat": 45.1781881, "lon": -109.2476104}, {"type": "node", "id": 7266065530, "lat": 45.1783548, "lon": -109.2476104}, {"type": "node", "id": 7266065573, "lat": 45.172534, "lon": -109.2543996}, {"type": "node", "id": 7266065574, "lat": 45.1724695, "lon": -109.2544111}, {"type": "node", "id": 7266065575, "lat": 45.1722806, "lon": -109.2542508}, {"type": "node", "id": 7266065576, "lat": 45.1725114, "lon": -109.2535683}, {"type": "node", "id": 7266065577, "lat": 45.1725582, "lon": -109.2535844}, {"type": "node", "id": 7266065578, "lat": 45.1724291, "lon": -109.2546401}, {"type": "node", "id": 7266065579, "lat": 45.1722612, "lon": -109.2544683}, {"type": "node", "id": 7266065580, "lat": 45.172174, "lon": -109.2545027}, {"type": "node", "id": 7266065581, "lat": 45.1721966, "lon": -109.254592}, {"type": "node", "id": 7266065582, "lat": 45.1721676, "lon": -109.2546378}, {"type": "node", "id": 7266065583, "lat": 45.1721918, "lon": -109.2547523}, {"type": "node", "id": 7266065585, "lat": 45.1724917, "lon": -109.2536266}, {"type": "node", "id": 7266065587, "lat": 45.1723419, "lon": -109.2543028}, {"type": "node", "id": 7266065589, "lat": 45.1722892, "lon": -109.254497}, {"type": "node", "id": 7266065591, "lat": 45.172405, "lon": -109.2546155}, {"type": "node", "id": 7266065593, "lat": 45.1724955, "lon": -109.2544065}, {"type": "node", "id": 7266626891, "lat": 45.1801788, "lon": -109.2470863}, {"type": "node", "id": 7266626892, "lat": 45.1800604, "lon": -109.2470792}, {"type": "node", "id": 7266626893, "lat": 45.1800511, "lon": -109.2473931}, {"type": "node", "id": 7266626894, "lat": 45.1800798, "lon": -109.2473948}, {"type": "node", "id": 7266626895, "lat": 45.1800824, "lon": -109.2473046}, {"type": "node", "id": 7266626896, "lat": 45.1801721, "lon": -109.24731}, {"type": "node", "id": 7266626897, "lat": 45.1804024, "lon": -109.2474399}, {"type": "node", "id": 7266626898, "lat": 45.1809422, "lon": -109.2474691}, {"type": "node", "id": 7266626900, "lat": 45.1804208, "lon": -109.2474409}, {"type": "node", "id": 7266626901, "lat": 45.1813211, "lon": -109.2467154}, {"type": "node", "id": 7266626902, "lat": 45.1813301, "lon": -109.2462376}, {"type": "node", "id": 7266626903, "lat": 45.1810753, "lon": -109.246228}, {"type": "node", "id": 7266626904, "lat": 45.1810669, "lon": -109.2466777}, {"type": "node", "id": 7266626905, "lat": 45.1811316, "lon": -109.2466801}, {"type": "node", "id": 7266626906, "lat": 45.1811311, "lon": -109.2467083}, {"type": "node", "id": 7266626907, "lat": 45.1809691, "lon": -109.2463617}, {"type": "node", "id": 7266626908, "lat": 45.1808688, "lon": -109.2463574}, {"type": "node", "id": 7266626909, "lat": 45.1808632, "lon": -109.2466215}, {"type": "node", "id": 7266626910, "lat": 45.1809634, "lon": -109.2466258}, {"type": "node", "id": 7266626911, "lat": 45.1802448, "lon": -109.2460072}, {"type": "node", "id": 7266626912, "lat": 45.1801629, "lon": -109.245843}, {"type": "node", "id": 7266626913, "lat": 45.1799024, "lon": -109.2461043}, {"type": "node", "id": 7266626914, "lat": 45.1798798, "lon": -109.2464628}, {"type": "node", "id": 7266626915, "lat": 45.1799995, "lon": -109.246478}, {"type": "node", "id": 7266626916, "lat": 45.1800204, "lon": -109.2461477}, {"type": "node", "id": 7266626917, "lat": 45.1801341, "lon": -109.2460444}, {"type": "node", "id": 7266626918, "lat": 45.1802404, "lon": -109.2460615}, {"type": "node", "id": 7266626935, "lat": 45.1789865, "lon": -109.2469366}, {"type": "node", "id": 7266626936, "lat": 45.1788335, "lon": -109.2470089}, {"type": "node", "id": 7266626937, "lat": 45.1788193, "lon": -109.2476284}, {"type": "node", "id": 7266626938, "lat": 45.1789704, "lon": -109.2476353}, {"type": "node", "id": 7266627024, "lat": 45.1780093, "lon": -109.2484086}, {"type": "node", "id": 7266627025, "lat": 45.1778216, "lon": -109.2484558}, {"type": "node", "id": 7266627026, "lat": 45.1778014, "lon": -109.2483246}, {"type": "node", "id": 7266627027, "lat": 45.1777811, "lon": -109.2483287}, {"type": "node", "id": 7266627028, "lat": 45.1777595, "lon": -109.2480911}, {"type": "node", "id": 7266627029, "lat": 45.1778909, "lon": -109.2480685}, {"type": "node", "id": 7266627030, "lat": 45.1779082, "lon": -109.2481628}, {"type": "node", "id": 7266627031, "lat": 45.1779602, "lon": -109.2481464}, {"type": "node", "id": 7266627032, "lat": 45.1779963, "lon": -109.2479702}, {"type": "node", "id": 7266627033, "lat": 45.1778144, "lon": -109.2479538}, {"type": "node", "id": 7266627034, "lat": 45.1776468, "lon": -109.2481566}, {"type": "node", "id": 7266627035, "lat": 45.1778187, "lon": -109.2485807}, {"type": "node", "id": 7266627036, "lat": 45.1780036, "lon": -109.2485807}, {"type": "node", "id": 7266668495, "lat": 45.1862046, "lon": -109.2425754}, {"type": "node", "id": 7266668496, "lat": 45.1861872, "lon": -109.2426541}, {"type": "node", "id": 7266668497, "lat": 45.1861976, "lon": -109.2427722}, {"type": "node", "id": 7266668498, "lat": 45.1858735, "lon": -109.2428705}, {"type": "node", "id": 7266668499, "lat": 45.1858129, "lon": -109.2428656}, {"type": "node", "id": 7266668500, "lat": 45.1858077, "lon": -109.2428902}, {"type": "node", "id": 7266668501, "lat": 45.1855615, "lon": -109.2428828}, {"type": "node", "id": 7266668502, "lat": 45.1855615, "lon": -109.2428459}, {"type": "node", "id": 7266668503, "lat": 45.1854419, "lon": -109.2428115}, {"type": "node", "id": 7266668504, "lat": 45.1854281, "lon": -109.2428459}, {"type": "node", "id": 7266668505, "lat": 45.185175, "lon": -109.2427918}, {"type": "node", "id": 7266668506, "lat": 45.1851768, "lon": -109.2426836}, {"type": "node", "id": 7266668507, "lat": 45.1852062, "lon": -109.2426541}, {"type": "node", "id": 7266668508, "lat": 45.185435, "lon": -109.2427205}, {"type": "node", "id": 7266668509, "lat": 45.1854506, "lon": -109.2426443}, {"type": "node", "id": 7266668510, "lat": 45.1854947, "lon": -109.2426438}, {"type": "node", "id": 7266668511, "lat": 45.1855355, "lon": -109.2426468}, {"type": "node", "id": 7266668512, "lat": 45.1855425, "lon": -109.2426935}, {"type": "node", "id": 7266668513, "lat": 45.1857158, "lon": -109.2426713}, {"type": "node", "id": 7266668514, "lat": 45.1857245, "lon": -109.2427132}, {"type": "node", "id": 7266668515, "lat": 45.1858371, "lon": -109.2427205}, {"type": "node", "id": 7266668516, "lat": 45.1859272, "lon": -109.2427058}, {"type": "node", "id": 7266668517, "lat": 45.1859619, "lon": -109.2426713}, {"type": "node", "id": 7266668518, "lat": 45.185955, "lon": -109.242605}, {"type": "node", "id": 7266668519, "lat": 45.186026, "lon": -109.242605}, {"type": "node", "id": 7266668520, "lat": 45.1860399, "lon": -109.2426566}, {"type": "node", "id": 7266668521, "lat": 45.1860936, "lon": -109.2426517}, {"type": "node", "id": 7266668522, "lat": 45.1861283, "lon": -109.2426099}, {"type": "node", "id": 7266668523, "lat": 45.1861335, "lon": -109.2425705}, {"type": "node", "id": 7266668524, "lat": 45.1861615, "lon": -109.2425677}, {"type": "node", "id": 7266668529, "lat": 45.1867176, "lon": -109.2426}, {"type": "node", "id": 7266668530, "lat": 45.186728, "lon": -109.2424869}, {"type": "node", "id": 7266668531, "lat": 45.1864175, "lon": -109.2425215}, {"type": "node", "id": 7266668532, "lat": 45.186241, "lon": -109.2425582}, {"type": "node", "id": 7266668533, "lat": 45.1862132, "lon": -109.2426123}, {"type": "node", "id": 7266668534, "lat": 45.1862236, "lon": -109.2427869}, {"type": "node", "id": 7266668535, "lat": 45.186267, "lon": -109.2427697}, {"type": "node", "id": 7266668536, "lat": 45.1862774, "lon": -109.2427328}, {"type": "node", "id": 7266670306, "lat": 45.1955379, "lon": -109.2417235}, {"type": "node", "id": 7266670307, "lat": 45.195513, "lon": -109.2416098}, {"type": "node", "id": 7266670308, "lat": 45.195488, "lon": -109.2414951}, {"type": "node", "id": 7266670309, "lat": 45.195271, "lon": -109.2415905}, {"type": "node", "id": 7266670310, "lat": 45.1952968, "lon": -109.2417085}, {"type": "node", "id": 7266670311, "lat": 45.1953209, "lon": -109.2418189}, {"type": "node", "id": 7266670312, "lat": 45.1952994, "lon": -109.2418601}, {"type": "node", "id": 7266670313, "lat": 45.1952597, "lon": -109.2418783}, {"type": "node", "id": 7266670314, "lat": 45.1947684, "lon": -109.2421033}, {"type": "node", "id": 7266670315, "lat": 45.1946799, "lon": -109.2417148}, {"type": "node", "id": 7266670316, "lat": 45.1946246, "lon": -109.2414715}, {"type": "node", "id": 7266670317, "lat": 45.1943727, "lon": -109.2415437}, {"type": "node", "id": 7266670318, "lat": 45.1944008, "lon": -109.2414625}, {"type": "node", "id": 7266670319, "lat": 45.1948937, "lon": -109.2412398}, {"type": "node", "id": 7266670320, "lat": 45.1949468, "lon": -109.2412774}, {"type": "node", "id": 7266670321, "lat": 45.1950971, "lon": -109.2412178}, {"type": "node", "id": 7266670322, "lat": 45.195159, "lon": -109.2412429}, {"type": "node", "id": 7266670323, "lat": 45.1952679, "lon": -109.2417216}, {"type": "node", "id": 7266670324, "lat": 45.1972645, "lon": -109.2461595}, {"type": "node", "id": 7266670325, "lat": 45.1972353, "lon": -109.2459306}, {"type": "node", "id": 7266670326, "lat": 45.1970371, "lon": -109.2459815}, {"type": "node", "id": 7266670327, "lat": 45.197024, "lon": -109.2458792}, {"type": "node", "id": 7266670328, "lat": 45.1969351, "lon": -109.245902}, {"type": "node", "id": 7266670329, "lat": 45.1969649, "lon": -109.246136}, {"type": "node", "id": 7266670330, "lat": 45.1966651, "lon": -109.2462129}, {"type": "node", "id": 7266670331, "lat": 45.1966918, "lon": -109.2464223}, {"type": "node", "id": 7266670332, "lat": 45.1971843, "lon": -109.246296}, {"type": "node", "id": 7266670333, "lat": 45.19717, "lon": -109.2461838}, {"type": "node", "id": 7266670335, "lat": 45.1972481, "lon": -109.2460309}, {"type": "node", "id": 7266670338, "lat": 45.1966792, "lon": -109.2463234}, {"type": "node", "id": 7266670340, "lat": 45.1976015, "lon": -109.245697}, {"type": "node", "id": 7266670341, "lat": 45.1975661, "lon": -109.2453363}, {"type": "node", "id": 7266670342, "lat": 45.1974666, "lon": -109.245352}, {"type": "node", "id": 7266670343, "lat": 45.1974666, "lon": -109.2454712}, {"type": "node", "id": 7266670344, "lat": 45.1969339, "lon": -109.2455308}, {"type": "node", "id": 7266670345, "lat": 45.1969472, "lon": -109.2458413}, {"type": "node", "id": 7266670351, "lat": 45.1975448, "lon": -109.24617}, {"type": "node", "id": 7266670352, "lat": 45.1973956, "lon": -109.246207}, {"type": "node", "id": 7266670353, "lat": 45.1973708, "lon": -109.2460055}, {"type": "node", "id": 7266670354, "lat": 45.1973555, "lon": -109.2458816}, {"type": "node", "id": 7266670355, "lat": 45.1977382, "lon": -109.2457866}, {"type": "node", "id": 7266670356, "lat": 45.197757, "lon": -109.2459392}, {"type": "node", "id": 7266670357, "lat": 45.1975235, "lon": -109.2459971}, {"type": "node", "id": 7266670368, "lat": 45.1965881, "lon": -109.2462113}, {"type": "node", "id": 7266670369, "lat": 45.1965607, "lon": -109.2459934}, {"type": "node", "id": 7266670370, "lat": 45.1964666, "lon": -109.2460172}, {"type": "node", "id": 7266670371, "lat": 45.1964002, "lon": -109.246034}, {"type": "node", "id": 7266670372, "lat": 45.196431, "lon": -109.2462796}, {"type": "node", "id": 7266670373, "lat": 45.1964935, "lon": -109.2462638}, {"type": "node", "id": 7266670374, "lat": 45.1965304, "lon": -109.2462545}, {"type": "node", "id": 7266670375, "lat": 45.1960774, "lon": -109.2463232}, {"type": "node", "id": 7266670376, "lat": 45.1960675, "lon": -109.2462585}, {"type": "node", "id": 7266670377, "lat": 45.1959697, "lon": -109.2462888}, {"type": "node", "id": 7266670378, "lat": 45.1959796, "lon": -109.2463535}, {"type": "node", "id": 7266670379, "lat": 45.1969413, "lon": -109.2457027}, {"type": "node", "id": 7266670382, "lat": 45.197588, "lon": -109.24556}, {"type": "node", "id": 7266675666, "lat": 45.1844536, "lon": -109.2464455}, {"type": "node", "id": 7266675667, "lat": 45.1844562, "lon": -109.2463522}, {"type": "node", "id": 7266675668, "lat": 45.1841155, "lon": -109.2463331}, {"type": "node", "id": 7266675669, "lat": 45.1841097, "lon": -109.2465405}, {"type": "node", "id": 7266675670, "lat": 45.1843258, "lon": -109.2465526}, {"type": "node", "id": 7266675671, "lat": 45.184329, "lon": -109.2464385}, {"type": "node", "id": 7529323328, "lat": 45.1840617, "lon": -109.2494448, "tags": {"amenity": "bicycle_parking"}}, {"type": "node", "id": 7529323329, "lat": 45.1840646, "lon": -109.2492823, "tags": {"amenity": "bicycle_parking"}}, {"type": "node", "id": 7529323353, "lat": 45.1843418, "lon": -109.2511363}, {"type": "node", "id": 7529323354, "lat": 45.1843403, "lon": -109.251254}, {"type": "node", "id": 7529323355, "lat": 45.1842491, "lon": -109.2512516}, {"type": "node", "id": 7529323356, "lat": 45.1842507, "lon": -109.2511339}, {"type": "node", "id": 7529360898, "lat": 45.1853319, "lon": -109.248439, "tags": {"amenity": "post_box", "drive_through": "yes", "operator": "United States Postal Service", "operator:short": "USPS", "operator:type": "public", "operator:website": "https://www.usps.com", "operator:wikidata": "Q668687", "operator:wikipedia": "en:United States Postal Service"}}, {"type": "node", "id": 7529360989, "lat": 45.1993987, "lon": -109.247454}, {"type": "node", "id": 7529360990, "lat": 45.1994011, "lon": -109.2472941}, {"type": "node", "id": 7529360991, "lat": 45.1993489, "lon": -109.2472924}, {"type": "node", "id": 7529360992, "lat": 45.1993518, "lon": -109.2471049}, {"type": "node", "id": 7529360993, "lat": 45.1994033, "lon": -109.2471065}, {"type": "node", "id": 7529360994, "lat": 45.1994055, "lon": -109.2469668}, {"type": "node", "id": 7529360995, "lat": 45.1991097, "lon": -109.2469575}, {"type": "node", "id": 7529360996, "lat": 45.1991021, "lon": -109.2474454}, {"type": "node", "id": 7529360997, "lat": 45.1991341, "lon": -109.2474464}, {"type": "node", "id": 7529360998, "lat": 45.1991329, "lon": -109.2475216}, {"type": "node", "id": 7529360999, "lat": 45.1993376, "lon": -109.2475279}, {"type": "node", "id": 7529361000, "lat": 45.1993387, "lon": -109.2474521}, {"type": "node", "id": 7529361001, "lat": 45.199544, "lon": -109.2466883}, {"type": "node", "id": 7529361002, "lat": 45.1995481, "lon": -109.246396}, {"type": "node", "id": 7529361003, "lat": 45.1991716, "lon": -109.2464792}, {"type": "node", "id": 7529361004, "lat": 45.1991866, "lon": -109.2465954}, {"type": "node", "id": 7529361005, "lat": 45.1990788, "lon": -109.2466806}, {"type": "node", "id": 7529361006, "lat": 45.1990897, "lon": -109.246791}, {"type": "node", "id": 7529361007, "lat": 45.1994581, "lon": -109.2461445}, {"type": "node", "id": 7529361008, "lat": 45.1991907, "lon": -109.2462149}, {"type": "node", "id": 7529361009, "lat": 45.1991701, "lon": -109.2460571}, {"type": "node", "id": 7529361010, "lat": 45.1994374, "lon": -109.2459867}, {"type": "node", "id": 7529361033, "lat": 45.1942465, "lon": -109.2463944}, {"type": "node", "id": 7529361034, "lat": 45.1943674, "lon": -109.2464218}, {"type": "node", "id": 7529361035, "lat": 45.1944884, "lon": -109.2457696}, {"type": "node", "id": 7529361036, "lat": 45.19394, "lon": -109.2454217}, {"type": "node", "id": 7529361037, "lat": 45.1939449, "lon": -109.2459504}, {"type": "node", "id": 7529361038, "lat": 45.1942884, "lon": -109.2459733}, {"type": "node", "id": 7802187665, "lat": 45.1924451, "lon": -109.2474326, "tags": {"amenity": "bench"}}, {"type": "node", "id": 7802187669, "lat": 45.1919637, "lon": -109.2476366, "tags": {"amenity": "bbq"}}, {"type": "node", "id": 7866626682, "lat": 45.19792, "lon": -109.2421665}, {"type": "node", "id": 7866626683, "lat": 45.1972281, "lon": -109.2418206}, {"type": "node", "id": 7866626684, "lat": 45.197091, "lon": -109.2423732}, {"type": "node", "id": 7866664085, "lat": 45.1975317, "lon": -109.2425935}, {"type": "node", "id": 7866664086, "lat": 45.1976524, "lon": -109.2425737}, {"type": "node", "id": 7866664087, "lat": 45.1977684, "lon": -109.2424969}, {"type": "node", "id": 7866664088, "lat": 45.1978968, "lon": -109.2422598}, {"type": "node", "id": 8194471523, "lat": 45.1871362, "lon": -109.2471811, "tags": {"addr:city": "Red Lodge", "addr:housenumber": "3", "addr:postcode": "59068", "addr:state": "MT", "addr:street": "North Broadway Avenue", "dog": "yes", "name": "Lewis and Bark's Outpost", "payment:cash": "yes", "payment:credit_cards": "yes", "payment:debit_cards": "yes", "phone": "+1-406-445-3132", "shop": "pet", "website": "https://lewisandbarksoutpost.com"}}, {"type": "node", "id": 8194471526, "lat": 45.1872536, "lon": -109.2468577, "tags": {"entrance": "yes"}}, {"type": "node", "id": 8194471527, "lat": 45.1871287, "lon": -109.2468561, "tags": {"entrance": "yes"}}, {"type": "node", "id": 8194728736, "lat": 45.1850424, "lon": -109.2482052, "tags": {"amenity": "bicycle_parking"}}, {"type": "node", "id": 8194728737, "lat": 45.1850125, "lon": -109.2482033, "tags": {"amenity": "bicycle_parking"}}, {"type": "node", "id": 8194728740, "lat": 45.1855174, "lon": -109.2484505, "tags": {"amenity": "vending_machine", "vending": "excrement_bags"}}, {"type": "node", "id": 8194728751, "lat": 45.1853982, "lon": -109.2481682, "tags": {"amenity": "bench"}}, {"type": "node", "id": 8194728753, "lat": 45.1854978, "lon": -109.2486148, "tags": {"entrance": "main", "wheelchair": "yes"}}, {"type": "node", "id": 8225022394, "lat": 45.1870269, "lon": -109.247201, "tags": {"name": "Market in the Mountains", "shop": "gift"}}, {"type": "node", "id": 8225022396, "lat": 45.1885716, "lon": -109.247236, "tags": {"amenity": "atm", "brand": "Wells Fargo", "brand:wikidata": "Q744149", "drive_through": "no", "name": "Wells Fargo", "network": "Wells Fargo", "operator": "Wells Fargo", "operator:wikidata": "Q744149"}}, {"type": "node", "id": 8225022401, "lat": 45.186564, "lon": -109.2471359, "tags": {"amenity": "vending_machine", "vending": "drinks"}}, {"type": "node", "id": 8225022402, "lat": 45.1865754, "lon": -109.2471327, "tags": {"amenity": "vending_machine", "vending": "newspapers"}}, {"type": "node", "id": 8225022403, "lat": 45.1865017, "lon": -109.24713, "tags": {"amenity": "bicycle_parking"}}, {"type": "node", "id": 8225022404, "lat": 45.1854707, "lon": -109.247137, "tags": {"amenity": "dojo", "name": "Grindhouse Jiu Jitsu"}}, {"type": "node", "id": 8225022405, "lat": 45.1848464, "lon": -109.247228, "tags": {"addr:city": "Red Lodge", "addr:housenumber": "201", "addr:postcode": "59068", "addr:state": "MT", "addr:street": "South Broadway Avenue", "addr:unit": "Suite B", "name": "Hayden Salon", "phone": "+1-406-698-1046", "shop": "hairdresser"}}, {"type": "node", "id": 8225022407, "lat": 45.1842856, "lon": -109.2466527, "tags": {"addr:city": "Red Lodge", "addr:housenumber": "13", "addr:postcode": "59068", "addr:state": "MT", "addr:street": "South Broadway Avenue", "check_date": "2023-07-17", "name": "Tiger Motorcycle Lawyers", "office": "lawyer"}}, {"type": "node", "id": 8225022408, "lat": 45.1845602, "lon": -109.246797, "tags": {"name": "Twice Touched", "shop": "antiques"}}, {"type": "node", "id": 8225155248, "lat": 45.1858653, "lon": -109.2468775, "tags": {"amenity": "bicycle_parking"}}, {"type": "node", "id": 8225155257, "lat": 45.1860622, "lon": -109.2468443, "tags": {"addr:city": "Red Lodge", "addr:housenumber": "24", "addr:postcode": "59068", "addr:state": "MT", "addr:street": "South Broadway Avenue", "check_date": "2023-01-17", "name": "Beartooth Books", "payment:mastercard": "yes", "payment:visa": "yes", "shop": "books", "wheelchair": "yes"}}, {"type": "node", "id": 8225155258, "lat": 45.1861325, "lon": -109.2468443, "tags": {"addr:city": "Red Lodge", "addr:housenumber": "22", "addr:postcode": "59068", "addr:state": "MT", "addr:street": "South Broadway Avenue", "amenity": "cafe", "cuisine": "coffee_shop", "name": "Coffee Factory Roasters", "shop": "coffee"}}, {"type": "node", "id": 8225155259, "lat": 45.186267, "lon": -109.2468494, "tags": {"amenity": "casino", "name": "Knotty Casino"}}, {"type": "node", "id": 8225155263, "lat": 45.1863313, "lon": -109.2468488, "tags": {"amenity": "cafe", "cuisine": "coffee_shop", "name": "Red Lodge Cafe"}}, {"type": "node", "id": 8225155264, "lat": 45.1863988, "lon": -109.2468544, "tags": {"name": "Moosely Tees", "shop": "clothes"}}, {"type": "node", "id": 8225155265, "lat": 45.1867337, "lon": -109.2468727, "tags": {"amenity": "atm", "operator": "Bank of Red Lodge"}}, {"type": "node", "id": 8225155266, "lat": 45.1866649, "lon": -109.2468557, "tags": {"name": "Rocky Mountain Market", "shop": "convenience"}}, {"type": "node", "id": 8225155267, "lat": 45.1865913, "lon": -109.2471529, "tags": {"name": "Montana Candy Emporium", "shop": "confectionery"}}, {"type": "node", "id": 8225209050, "lat": 45.186526, "lon": -109.2471536, "tags": {"name": "Sylvan Peak Mountain Shoppe", "shop": "outdoor"}}, {"type": "node", "id": 8225209051, "lat": 45.1864617, "lon": -109.2471529, "tags": {"addr:housenumber": "11", "addr:postcode": "59068", "addr:street": "South Broadway Avenue", "amenity": "restaurant", "contact:facebook": "bogartsredlodge", "contact:instagram": "bogarts.fun", "cuisine": "american;mexican;pizza", "delivery": "no", "email": "rubin@bogarts.fun", "internet_access": "yes", "internet_access:fee": "no", "name": "Bogart's", "opening_hours": "11:00-21:00", "phone": "+1 406-446-1784", "smoking": "no", "takeaway": "yes", "website": "https://www.bogarts.fun/", "website:menu": "https://www.bogarts.fun/_files/ugd/a1233a_a6c65080c705416fbabb81556a0233ac.pdf", "wheelchair": "yes"}}, {"type": "node", "id": 8225209053, "lat": 45.1856881, "lon": -109.2468299, "tags": {"addr:city": "Red Lodge", "addr:housenumber": "106", "addr:state": "MT", "addr:street": "South Broadway Avenue", "name": "Hub Internatonal", "office": "insurance", "opening_hours": "Mo-Th 08:30-16:30; Fr 08:30-15:00"}}, {"type": "node", "id": 8225209056, "lat": 45.1852546, "lon": -109.2468094, "tags": {"addr:city": "Red Lodge", "addr:housenumber": "118", "addr:state": "WY", "addr:street": "South Broadway Avenue", "name": "The Village Shoppe", "shop": "gift"}}, {"type": "node", "id": 8225209061, "lat": 45.1850742, "lon": -109.2468028, "tags": {"amenity": "bar", "name": "Snow Creek Saloon", "opening_hours": "Mo-Sa 12:00-02:00", "smoking": "no"}}, {"type": "node", "id": 8225209066, "lat": 45.1856234, "lon": -109.2471398, "tags": {"amenity": "bar", "brewery": "yes", "name": "Snag Bar", "smoking": "no"}}, {"type": "node", "id": 8225209067, "lat": 45.1858339, "lon": -109.2471521, "tags": {"name": "Red Lodge Antique Mall & Gun Room", "shop": "antiques"}}, {"type": "node", "id": 8225209069, "lat": 45.184108, "lon": -109.2466651, "tags": {"addr:city": "Red Lodge", "addr:housenumber": "224", "addr:postcode": "59068", "addr:state": "MT", "addr:street": "South Broadway Avenue", "amenity": "ice_cream", "check_date": "2023-07-17", "name": "Beartooth Ice Cream"}}, {"type": "node", "id": 8225209073, "lat": 45.1840796, "lon": -109.2471096, "tags": {"amenity": "bench"}}, {"type": "node", "id": 8225209075, "lat": 45.1841571, "lon": -109.2471108, "tags": {"amenity": "bench"}}, {"type": "node", "id": 8225209076, "lat": 45.1841981, "lon": -109.2471114, "tags": {"amenity": "bench"}}, {"type": "node", "id": 8225209077, "lat": 45.1844154, "lon": -109.2471009, "tags": {"amenity": "bench"}}, {"type": "node", "id": 8225209091, "lat": 45.1872359, "lon": -109.2485623, "tags": {"entrance": "yes"}}, {"type": "node", "id": 8225209096, "lat": 45.1870202, "lon": -109.2478819, "tags": {"name": "Carbon County Administration", "office": "government"}}, {"type": "node", "id": 8225209097, "lat": 45.1870216, "lon": -109.2475027, "tags": {"name": "Junction 7", "shop": "copyshop"}}, {"type": "node", "id": 8225209101, "lat": 45.188047, "lon": -109.247187, "tags": {"amenity": "bench"}}, {"type": "node", "id": 8225209102, "lat": 45.1887848, "lon": -109.2469029, "tags": {"name": "Buses of Yellowstone", "office": "guide"}}, {"type": "node", "id": 8225209114, "lat": 45.1894942, "lon": -109.2473769, "tags": {"name": "Red Lodge Tattoo", "shop": "tattoo"}}, {"type": "node", "id": 8225241420, "lat": 45.1911495, "lon": -109.2473574, "tags": {"amenity": "bank", "name": "Bank of Red Lodge"}}, {"type": "node", "id": 8225241421, "lat": 45.1912007, "lon": -109.2465451, "tags": {"name": "West Fork Water Kefir", "shop": "beverages"}}, {"type": "node", "id": 8225241423, "lat": 45.1912909, "lon": -109.2465476, "tags": {"name": "Spoke Wrench", "shop": "bicycle"}}, {"type": "node", "id": 8225241424, "lat": 45.1910196, "lon": -109.2468836, "tags": {"brand": "Farmers Insurance", "brand:wikidata": "Q1396863", "name": "Farmers Insurance", "office": "insurance"}}, {"type": "node", "id": 8225241425, "lat": 45.1914464, "lon": -109.246904, "tags": {"brand": "State Farm", "brand:wikidata": "Q2007336", "name": "State Farm", "office": "insurance"}}, {"type": "node", "id": 8225241426, "lat": 45.1913351, "lon": -109.2470161}, {"type": "node", "id": 8225241427, "lat": 45.1911409, "lon": -109.2470123}, {"type": "node", "id": 8225241428, "lat": 45.1917472, "lon": -109.2468116, "tags": {"name": "Samurai Sue's", "shop": "deli"}}, {"type": "node", "id": 8225241429, "lat": 45.1932047, "lon": -109.24601, "tags": {"amenity": "bank", "brand": "First Interstate BancSystem", "brand:wikidata": "Q5453107", "name": "First Interstate Bank"}}, {"type": "node", "id": 8225241430, "lat": 45.1930267, "lon": -109.2470348}, {"type": "node", "id": 8225241431, "lat": 45.193084, "lon": -109.2470313}, {"type": "node", "id": 8225241432, "lat": 45.1930826, "lon": -109.2469857}, {"type": "node", "id": 8225241433, "lat": 45.1930253, "lon": -109.2469893}, {"type": "node", "id": 8225241472, "lat": 45.1932525, "lon": -109.246784, "tags": {"highway": "crossing"}}, {"type": "node", "id": 8225241493, "lat": 45.188646, "lon": -109.2486273, "tags": {"amenity": "bench"}}, {"type": "node", "id": 8633229185, "lat": 45.2008818, "lon": -109.2460747, "tags": {"addr:city": "Red Lodge", "addr:postcode": "59068", "addr:state": "MT", "name": "Flower Garage", "opening_hours": "Mo-Sa 09:00-17:00", "payment:cash": "yes", "payment:credit_cards": "yes", "payment:debit_cards": "yes", "phone": "+1-406-446-4007", "shop": "florist", "website": "https://redlodgeflowergarage.com/"}}, {"type": "node", "id": 8633229186, "lat": 45.176467, "lon": -109.254186, "tags": {"addr:city": "Red Lodge", "addr:housenumber": "1220", "addr:postcode": "59068", "addr:state": "MT", "addr:street": "Haggin Ave", "name": "Beartooth Industries", "shop": "medical_supply"}}, {"type": "node", "id": 8914765845, "lat": 45.2025698, "lon": -109.2577332, "tags": {"amenity": "restaurant", "cuisine": "burger", "name": "28 Peaks Kitchen", "opening_hours": "Mo-Su 11:00-19:00", "shop": "street_vendor"}}, {"type": "node", "id": 10563672327, "lat": 45.1861986, "lon": -109.2468474, "tags": {"check_date": "2023-01-17", "name": "East Rosebud Fly & Tackle", "shop": "fishing"}}, {"type": "node", "id": 11051556494, "lat": 45.1841976, "lon": -109.246668, "tags": {"amenity": "restaurant", "check_date": "2023-07-17", "cuisine": "barbecue", "name": "Beartooth BBQ"}}, {"type": "node", "id": 11698740514, "lat": 45.186042, "lon": -109.2480809, "tags": {"addr:housenumber": "107A", "addr:street": "12th Street", "air_conditioning": "yes", "amenity": "cafe", "bar": "yes", "check_date": "2024-03-06", "cuisine": "regional;sandwich;coffee_shop;american", "name": "Babcock & Miles Wine Bar & Cafe", "outdoor_seating": "yes", "payment:cash": "yes", "payment:credit_cards": "yes", "payment:debit_cards": "yes", "wheelchair": "yes"}}, {"type": "way", "id": 233999100, "nodes": [2423061068, 2423061299, 2423061069, 2423061070, 2423061300, 2423061071, 2423061068], "tags": {"amenity": "parking"}}, {"type": "way", "id": 293637456, "nodes": [2972444442, 2972444439, 2972444438, 2972444436, 2972444437, 2972444440, 6146625815, 2972444442], "tags": {"addr:city": "Red Lodge", "addr:housenumber": "201", "addr:postcode": "59068", "addr:state": "MT", "addr:street": "North Oakes Avenue", "brand:wikidata": "Q3146662", "building": "yes", "name": "Beartooth IGA", "phone": "+1 406-323-2410", "shop": "supermarket"}}, {"type": "way", "id": 293637465, "nodes": [2972444445, 2972444444, 2972444441, 2972444443, 2972444445], "tags": {"access": "customers", "amenity": "parking", "fee": "no", "parking": "surface", "surface": "paved"}}, {"type": "way", "id": 293637699, "nodes": [2972445044, 2972445042, 2972445043, 2972445045, 8194728753, 2972445044], "tags": {"addr:city": "Red Lodge", "addr:postcode": "59068", "addr:state": "MT", "amenity": "post_office", "building": "yes", "ele": "1697", "gnis:feature_id": "1726784", "name": "Red Lodge Post Office", "operator": "United States Postal Service", "operator:short": "USPS", "operator:type": "public", "operator:website": "https://www.usps.com", "operator:wikidata": "Q668687", "operator:wikipedia": "en:United States Postal Service", "post_office": "yes"}}, {"type": "way", "id": 293637700, "nodes": [2972445063, 2972445062, 2972445065, 2972445064, 8225209091, 2972445066, 2972445067, 2972445063], "tags": {"addr:city": "Red Lodge", "addr:housenumber": "1", "addr:postcode": "59068-9007", "addr:state": "MT", "addr:street": "North Oakes Avenue", "brand": "Ace Hardware", "brand:wikidata": "Q4672981", "building": "yes", "name": "Red Lodge True Value", "opening_hours": "Mo-Sa 08:00-18:00; Su 09:00-17:00", "phone": "+1 406-446-1847", "ref": "17864", "shop": "hardware"}}, {"type": "way", "id": 454632409, "nodes": [4511752553, 4511752552, 4511752551, 4511752550, 4511752553], "tags": {"building": "yes", "name": "Napa Auto Care Center", "shop": "car_repair"}}, {"type": "way", "id": 454632415, "nodes": [4511752892, 4511752891, 4511752890, 4511752889, 4511752588, 4511752587, 4511752892], "tags": {"building": "yes", "name": "Bone Daddy's Custom Cycle", "shop": "motorcycle"}}, {"type": "way", "id": 454632417, "nodes": [4511752902, 6146625714, 6146625715, 6146625716, 6146625717, 4511752901, 4511752900, 4511752899, 4511752898, 4511752897, 7266065416, 4511752902], "tags": {"addr:state": "MT", "amenity": "courthouse", "building": "public", "ele": "1692", "gnis:feature_id": "1726690", "name": "Carbon County Courthouse", "source": "USGS Geonames", "start_date": "1899"}}, {"type": "way", "id": 454632418, "nodes": [4511752903, 4511752910, 4511752909, 4511752908, 4511752907, 4511752906, 4511752905, 6146625658, 4511752904, 8194471526, 8194471527, 4511752903], "tags": {"amenity": "restaurant", "building": "yes", "internet_access": "yes", "name": "The Pollard", "tourism": "hotel"}}, {"type": "way", "id": 454632430, "nodes": [6011249761, 4511752946, 4511752947, 6011249763, 6011249762, 4511752948, 6011249761], "tags": {"addr:city": "Red Lodge", "addr:housenumber": "102", "addr:state": "MT", "addr:street": "South Broadway Avenue", "building": "retail", "name": "4th Avenue Meats", "shop": "butcher"}}, {"type": "way", "id": 454632439, "nodes": [4511752992, 4511752991, 4511752990, 4511752989, 4511752988, 4511752987, 4511752986, 4511752985, 4511752984, 4511752983, 4511752982, 4511752981, 4511752980, 4511752979, 4511752992], "tags": {"amenity": "place_of_worship", "building": "church", "ele": "1700", "gnis:feature_id": "1726600", "name": "Red Lodge Community Church", "religion": "christian"}}, {"type": "way", "id": 454632440, "nodes": [4511753003, 4511753002, 4511753001, 4511753000, 4511752999, 4511752998, 4511752997, 4511752996, 4511752995, 4511752994, 4511753003], "tags": {"amenity": "restaurant", "building": "retail", "name": "Red Box Car"}}, {"type": "way", "id": 454632441, "nodes": [4511753007, 4511753004, 4511753005, 4511753006, 4511753007], "tags": {"building": "retail", "name": "Dewi Shinta Asian Imports", "shop": "yes"}}, {"type": "way", "id": 454632442, "nodes": [4511753011, 4511753008, 4511753009, 4511753010, 4511753011], "tags": {"building": "retail", "name": "Zip Trip", "shop": "convenience"}}, {"type": "way", "id": 454632443, "nodes": [4511753015, 4511753014, 4511753013, 6146625940, 6146625939, 6146625938, 6146625937, 4511753012, 4511753015], "tags": {"amenity": "place_of_worship", "building": "yes", "name": "Rock Creek Church", "religion": "christian"}}, {"type": "way", "id": 454632446, "nodes": [4511753031, 4511753028, 4511753029, 4511753030, 4511753031], "tags": {"building": "yes", "name": "Circle 17", "shop": "convenience"}}, {"type": "way", "id": 454632447, "nodes": [4511753035, 4511753034, 4511753033, 4511753032, 4511753035], "tags": {"amenity": "fuel", "brand": "Cenex", "building": "roof"}}, {"type": "way", "id": 500298325, "nodes": [4913936478, 4913936477, 4913936476, 4913936475, 4913936470, 4913936474, 4913936473, 4913936472, 7264959993, 4913936471, 4913936478], "tags": {"addr:city": "Red Lodge", "addr:housenumber": "2525", "addr:postcode": "59068", "addr:state": "MT", "addr:street": "North Broadway Avenue", "amenity": "hospital", "emergency": "yes", "healthcare": "hospital", "name": "Beartooth Billings Clinic", "opening_hours": "24/7", "phone": "+1 406 446 2345", "website": "https://www.beartoothbillingsclinic.org/"}}, {"type": "way", "id": 500472709, "nodes": [4915183895, 4915183138, 4915183137, 4915183136, 4915183135, 4915183134, 4915183133, 4915183132, 4915183131, 4915183892, 4915183893, 4915183894, 4915183895], "tags": {"addr:city": "Red Lodge", "addr:postcode": "59068", "amenity": "school", "name": "Red Lodge High School", "operator": "Red Lodge Public Schools", "phone": "+1 406 446 1903", "website": "http://redlodge.schoolwires.com/domain/36", "wikidata": "Q7304547", "wikipedia": "en:Red Lodge High School"}}, {"type": "way", "id": 551997140, "nodes": [5330127643, 5330127644, 5330127645, 5330127646, 5330127647, 5330127648, 5330127643], "tags": {"access": "permissive", "amenity": "parking", "capacity": "30", "fee": "no", "operator": "Red Lodge Pizza Co", "park_ride": "no", "parking": "surface", "supervised": "no", "surface": "asphalt"}}, {"type": "way", "id": 552442933, "nodes": [5333781270, 5333781269, 7266065334, 7266065338, 5333781268, 5333781267, 5333781266, 5333781265, 7266065339, 7266065335, 5333781270], "tags": {"access": "yes", "amenity": "parking", "fee": "no", "operator": "City of Red Lodge", "parking": "surface", "smoothness": "excellent", "surface": "asphalt"}}, {"type": "way", "id": 552455240, "nodes": [5333896684, 5333896683, 5333896682, 5333896681, 5333896680, 5333896679, 5333896678, 5333896677, 5335709063, 5333896676, 5335709064, 5333896684], "tags": {"amenity": "parking"}}, {"type": "way", "id": 656118851, "nodes": [6146625168, 6146625169, 6146625170, 6146625171, 6146625172, 6146625173, 6146625174, 6146625175, 6146625168], "tags": {"addr:city": "Red Lodge", "addr:housenumber": "1", "addr:postcode": "59068", "addr:state": "MT", "addr:street": "North Word Avenue", "amenity": "place_of_worship", "building": "church", "denomination": "roman_catholic", "description": "Mailing Address: PO Box 1067 Red Lodge, MT 59068", "diocese": "Great Falls-Billings", "ele": "1698", "gnis:feature_id": "1726608", "name": "Saint Agnes Catholic Church", "phone": "+1 406-446-1237", "religion": "christian"}}, {"type": "way", "id": 656118887, "nodes": [6146625644, 6146625660, 6146625661, 6146625662, 6146625663, 6146625664, 6146625644], "tags": {"amenity": "parking"}}, {"type": "way", "id": 656118915, "nodes": [6146625798, 6146625799, 6146625800, 6146625801, 6146625802, 6146625803, 6146625804, 6146625805, 6146625806, 6146625798], "tags": {"amenity": "parking"}}, {"type": "way", "id": 656118918, "nodes": [6146625816, 6146625823, 6146625817, 6146625818, 6146625822, 6146625819, 6146625816], "tags": {"amenity": "parking"}}, {"type": "way", "id": 656118930, "nodes": [6146625885, 6146625886, 6146625887, 6146625884, 6146625888, 6146625889, 6146625890, 6146625894, 6146625891, 6146625892, 6146625885], "tags": {"amenity": "parking"}}, {"type": "way", "id": 656118939, "nodes": [6146625929, 6146625930, 6146625931, 6146625932, 6146625929], "tags": {"amenity": "parking"}}, {"type": "way", "id": 656118940, "nodes": [6146625933, 6146625934, 6146625935, 6146625936, 6146625933], "tags": {"amenity": "parking"}}, {"type": "way", "id": 656118942, "nodes": [6146625948, 6146625949, 6146625950, 6146625951, 6146625948], "tags": {"amenity": "parking"}}, {"type": "way", "id": 656119068, "nodes": [6146626496, 7073913704, 6146626497, 4511752912, 6146626498, 7073913705, 6146626499, 6146626496], "tags": {"amenity": "parking"}}, {"type": "way", "id": 656119165, "nodes": [6146625681, 6146625682, 6146625684, 6146628388, 6146628389, 6146628390, 6146625681], "tags": {"amenity": "parking"}}, {"type": "way", "id": 656119166, "nodes": [6146628404, 6146628405, 6146628406, 6146628407, 6146628408, 6146628409, 6146628391, 6146628392, 6146628393, 6146628394, 6146628399, 6146628400, 6146628401, 6146628402, 6146628403, 6146628395, 6146628396, 6146628397, 6146628398, 6146628404], "tags": {"amenity": "shelter", "building": "yes", "shelter_type": "pavilion"}}, {"type": "way", "id": 656119167, "nodes": [6146628410, 7120518554, 6146628411, 6146628412, 7120518555, 6146628413, 6146628410], "tags": {"amenity": "parking"}}, {"type": "way", "id": 656119168, "nodes": [6146628414, 6146628415, 7120518560, 6146628416, 6146628417, 7120518559, 6146628414], "tags": {"amenity": "parking"}}, {"type": "way", "id": 656119170, "nodes": [6146628427, 6146628428, 6146628429, 6146628430, 6146628431, 6146628432, 6146628421, 6146628433, 6146628434, 8225241472, 7120518411, 6146628427], "tags": {"amenity": "parking"}}, {"type": "way", "id": 656119171, "nodes": [6146628436, 7120518420, 6146628437, 6146628438, 7120518422, 6146628439, 6146628436], "tags": {"amenity": "parking"}}, {"type": "way", "id": 685504069, "nodes": [6424151019, 6424151020, 6424151021, 6424151022, 6424151019], "tags": {"amenity": "parking"}}, {"type": "way", "id": 685504114, "nodes": [6424151231, 6424151232, 6424151233, 6424151234, 6424151235, 6424151236, 6424151237, 6424151238, 6424151239, 6424151240, 6424151241, 6424151242, 6424151231], "tags": {"amenity": "parking"}}, {"type": "way", "id": 685504115, "nodes": [6424151243, 6424151244, 6424151245, 6424151247, 6424151248, 6424151249, 6424151250, 6424151251, 6424151252, 6424151253, 6424151254, 6424151255, 6424151256, 6424151257, 6424151258, 6424151259, 6424151260, 6424151261, 6424151270, 6424151262, 6424151263, 6424151264, 2972445064, 6424151265, 6424151266, 6424151267, 6424151243], "tags": {"amenity": "parking"}}, {"type": "way", "id": 685504117, "nodes": [6424151272, 6424151273, 6424151274, 6424151275, 6424151272], "tags": {"amenity": "parking"}}, {"type": "way", "id": 685504130, "nodes": [6146625175, 6424151335, 6424151336, 6146625174, 6146625175], "tags": {"amenity": "parking", "operator": "Saint Agnes Catholic Church"}}, {"type": "way", "id": 685504143, "nodes": [6424151503, 6424151514, 6424151504, 6424151505, 6424151515, 6424151506, 6424151507, 6424151508, 6424151509, 6424151510, 6424151518, 6424151511, 6424151512, 6424151503], "tags": {"amenity": "parking"}}, {"type": "way", "id": 685504146, "nodes": [6424151520, 6001653076, 6001653081, 6001653072, 6424151521, 6424151522, 7266626897, 7266626900, 7266626898, 6424151520], "tags": {"amenity": "parking"}}, {"type": "way", "id": 685509959, "nodes": [357970302, 6424207586, 6424207587, 6424207588, 6424207589, 6424207590, 6424207591, 6424207592, 357970302], "tags": {"amenity": "place_of_worship", "building": "yes", "denomination": "mormon", "ele": "1728", "gnis:feature_id": "1726605", "name": "The Church of Jesus Christ of Latter-day Saints", "religion": "christian"}}, {"type": "way", "id": 685510003, "nodes": [6001653068, 6424207729, 6424207730, 6424207731, 6001653068], "tags": {"addr:city": "Red Lodge", "addr:housenumber": "407", "addr:state": "MT", "addr:street": "South Broadway Avenue", "amenity": "cafe", "building": "yes", "cuisine": "breakfast", "internet_access": "no", "name": "Prindy\u2019s Place", "opening_hours": "06:00-14:00", "outdoor_seating": "no", "smoking": "no", "wheelchair": "yes"}}, {"type": "way", "id": 685800300, "nodes": [6427531175, 6427531176, 6427531177, 6427531178, 6427531179, 6427531180, 6427531175], "tags": {"amenity": "parking"}}, {"type": "way", "id": 685800352, "nodes": [6427531664, 6427531665, 6427531666, 6427531667, 6427531668, 6427531669, 6427531670, 6427531671, 6427531664], "tags": {"amenity": "parking"}}, {"type": "way", "id": 685800357, "nodes": [6427531692, 6427531693, 6427531694, 6427531695, 6427531692], "tags": {"amenity": "parking"}}, {"type": "way", "id": 685800373, "nodes": [6427531777, 6427531778, 6427531779, 6427531780, 6427531781, 6427531782, 6427531777], "tags": {"access": "yes", "amenity": "parking", "capacity": "20", "operator": "Family Dollar", "operator:type": "business", "parking": "surface", "surface": "concrete"}}, {"type": "way", "id": 685800376, "nodes": [6427531994, 6427531995, 6427531996, 6427531997, 6427532024, 6427532027, 6427531998, 6427531999, 6427532000, 6427532001, 6427531994], "tags": {"access": "customers", "amenity": "parking", "capacity": "50", "fee": "no", "operator": "Red Lodge Ales", "parking": "surface", "surface": "asphalt"}}, {"type": "way", "id": 754729408, "nodes": [7050638130, 7050638131, 7050638132, 7050638133, 7050638130], "tags": {"amenity": "parking"}}, {"type": "way", "id": 754729412, "nodes": [7050638152, 7050638153, 7050638154, 7050638155, 7050638152], "tags": {"amenity": "parking"}}, {"type": "way", "id": 754729413, "nodes": [357970633, 7050638156, 7050638157, 7050638158, 7050638159, 7050638160, 7050638161, 7050638162, 7050638163, 7050638164, 7050638165, 7050638166, 7050638179, 7050638167, 7050638168, 7050638169, 7264959523, 7264959522, 7264959521, 7264959520, 7050638170, 7264959525, 7264959524, 7050638171, 7050638172, 7050638173, 7050638174, 7050638175, 7050638176, 357970633], "tags": {"amenity": "school", "building": "school", "ele": "1703", "gnis:feature_id": "1726841", "name": "Roosevelt Middle School"}}, {"type": "way", "id": 754761513, "nodes": [7050692513, 7050692514, 7050692515, 7050692516, 7050692517, 7050692518, 7050692523, 7050692519, 7050692520, 7050692521, 7050692513], "tags": {"amenity": "parking"}}, {"type": "way", "id": 754761540, "nodes": [7050692674, 7050692675, 7050692676, 7050692677, 7050692674], "tags": {"amenity": "parking"}}, {"type": "way", "id": 754761541, "nodes": [7050692678, 7050692679, 7050692680, 7050692681, 7050692678], "tags": {"amenity": "parking"}}, {"type": "way", "id": 754761546, "nodes": [357970299, 7050692703, 7050692704, 7050692705, 7050692706, 7050692707, 357970299], "tags": {"amenity": "place_of_worship", "building": "church", "ele": "1715", "gnis:feature_id": "1726604", "name": "Church of Christ", "religion": "christian"}}, {"type": "way", "id": 754761582, "nodes": [357970305, 7050692893, 7050692894, 7050692895, 357970305], "tags": {"amenity": "place_of_worship", "building": "church", "denomination": "lutheran", "ele": "1709", "gnis:feature_id": "1726606", "name": "Messiah Lutheran Church", "religion": "christian"}}, {"type": "way", "id": 754761591, "nodes": [357970666, 7050692931, 7050692932, 7050692933, 357970666], "tags": {"amenity": "community_centre", "building": "yes", "ele": "1702", "gnis:feature_id": "1726844", "name": "Old Roosevelt Center"}}, {"type": "way", "id": 754974800, "nodes": [7052667873, 7052667874, 7052667875, 7052667876, 7052667877, 7052667878, 7052667879, 7052667884, 7052667880, 7052667881, 7052667882, 7052667873], "tags": {"amenity": "parking"}}, {"type": "way", "id": 754974802, "nodes": [7052667886, 7052667894, 7052667887, 7052667891, 7052667888, 7052667889, 7052667886], "tags": {"amenity": "parking"}}, {"type": "way", "id": 754974819, "nodes": [7052667970, 7052667971, 7052667972, 7052667977, 7052667973, 7052667974, 7052667975, 7052667970], "tags": {"amenity": "parking"}}, {"type": "way", "id": 754974832, "nodes": [7052668029, 7052668030, 7052668031, 7052668032, 7052668033, 7052668034, 7052668029], "tags": {"amenity": "parking"}}, {"type": "way", "id": 756103699, "nodes": [7062021541, 7062021542, 7062021543, 7062021544, 7062021545, 7062021546, 7062021541], "tags": {"amenity": "parking"}}, {"type": "way", "id": 756103700, "nodes": [7062021547, 7062021548, 7062021549, 7266065325, 7266065326, 7062021550, 7062021551, 7266065322, 7266065319, 7062021547], "tags": {"amenity": "parking"}}, {"type": "way", "id": 756103702, "nodes": [7062021557, 7062021558, 7062021559, 7062021560, 7062021561, 7062021562, 7062021563, 7062021564, 7062021557], "tags": {"amenity": "parking"}}, {"type": "way", "id": 762114985, "nodes": [7120486037, 7120486038, 7120486039, 7120486040, 7120486041, 7120486042, 7120486043, 7120486044, 7120486045, 7120486037], "tags": {"amenity": "parking"}}, {"type": "way", "id": 762114986, "nodes": [7120486046, 7120486047, 7120486048, 7120486049, 7120486050, 7120486051, 7120486052, 7120486046], "tags": {"amenity": "parking"}}, {"type": "way", "id": 762118394, "nodes": [7120518289, 7120518290, 7120518291, 7120518292, 7120518305, 7120518293, 7120518307, 7120518310, 7120518311, 7120518294, 7120518295, 7120518296, 7120518297, 7120518298, 7120518299, 7120518300, 7120518301, 7120518302, 7120518303, 7120518304, 7120518289], "tags": {"amenity": "parking"}}, {"type": "way", "id": 762118453, "nodes": [7120518564, 7120518565, 7120518566, 7120518567, 7120518564], "tags": {"amenity": "parking"}}, {"type": "way", "id": 762118455, "nodes": [7120518574, 7120518575, 7120518576, 7120518577, 7120518578, 7120518579, 7120518580, 7120518581, 7120518582, 7120518574], "tags": {"amenity": "parking"}}, {"type": "way", "id": 778357359, "nodes": [7264552368, 7264552369, 7264552370, 7264552371, 7264552372, 7264552373, 7264552374, 7264552375, 7264552376, 7264552377, 7264552368], "tags": {"amenity": "parking"}}, {"type": "way", "id": 778357360, "nodes": [7264552378, 7264552379, 7264552380, 7264552381, 7264552382, 7264552383, 7264552384, 7264552378], "tags": {"amenity": "parking"}}, {"type": "way", "id": 778357371, "nodes": [7264552433, 7264552434, 7264552435, 7264552436, 7264552433], "tags": {"amenity": "parking"}}, {"type": "way", "id": 778357372, "nodes": [7264552437, 7264552438, 7264552439, 7264552440, 7264552437], "tags": {"amenity": "parking"}}, {"type": "way", "id": 778360976, "nodes": [7264575344, 7264575345, 7264575346, 7264575349, 7264575347, 7264575348, 7120528283, 7120528284, 7120528279, 7120528280, 7120528281, 7264575343, 7264575344], "tags": {"amenity": "parking"}}, {"type": "way", "id": 778487355, "nodes": [7265684032, 7265684037, 7265684033, 7265684034, 7265684035, 7265684032], "tags": {"amenity": "parking"}}, {"type": "way", "id": 778522969, "nodes": [7266065086, 7266065087, 7266065088, 7266065089, 7266065086], "tags": {"amenity": "parking"}}, {"type": "way", "id": 778522982, "nodes": [7266065136, 7266065160, 7266065137, 7266065138, 7266065139, 7266065140, 7266065141, 7266065142, 7266065143, 7266065144, 7266065145, 7266065146, 7266065147, 7266065148, 7266065149, 7266065150, 7266065151, 7266065152, 7266065153, 7266065162, 7266065154, 7266065155, 7266065156, 7266065157, 7266065158, 7266065159, 7266065136], "tags": {"amenity": "parking"}}, {"type": "way", "id": 778523022, "nodes": [7266065347, 7266065348, 7266065349, 7266065350, 7266065347], "tags": {"amenity": "parking"}}, {"type": "way", "id": 778523025, "nodes": [7266065362, 7266065363, 7266065364, 7266065365, 7266065366, 7266065367, 7266065362], "tags": {"amenity": "parking"}}, {"type": "way", "id": 778523026, "nodes": [7266065368, 7266065369, 7266065370, 7266065371, 7266065368], "tags": {"amenity": "parking"}}, {"type": "way", "id": 778523027, "nodes": [7266065372, 7266065373, 7266065374, 7266065375, 7266065376, 7266065377, 7266065372], "tags": {"amenity": "parking"}}, {"type": "way", "id": 778523028, "nodes": [7266065378, 7266065379, 7266065380, 7266065381, 7266065382, 7266065383, 7266065384, 7266065385, 7266065378], "tags": {"amenity": "parking"}}, {"type": "way", "id": 778523037, "nodes": [7266065430, 7266065431, 7266065432, 7266065433, 7266065434, 7266065435, 7266065436, 7266065437, 7266065438, 7266065430], "tags": {"amenity": "parking"}}, {"type": "way", "id": 778523040, "nodes": [7266065447, 7266065448, 7266065449, 7266065450, 7266065447], "tags": {"amenity": "parking"}}, {"type": "way", "id": 778523054, "nodes": [7266065483, 7266065484, 7266065485, 7266065486, 7266065487, 7266065488, 7266065489, 7266065483], "tags": {"amenity": "parking"}}, {"type": "way", "id": 778523063, "nodes": [7266065519, 7266065520, 7266065521, 7266065522, 7266065523, 7266065524, 7266065525, 7266065526, 7266065527, 7266065528, 7266065529, 7266065530, 7266065519], "tags": {"amenity": "parking"}}, {"type": "way", "id": 778523074, "nodes": [7266065573, 7266065593, 7266065574, 7266065587, 7266065575, 7266065585, 7266065576, 7266065577, 7266065573], "tags": {"amenity": "parking"}}, {"type": "way", "id": 778523075, "nodes": [7266065578, 7266065591, 7266065589, 7266065579, 7266065580, 7266065581, 7266065582, 7266065583, 7266065578], "tags": {"amenity": "parking"}}, {"type": "way", "id": 778580733, "nodes": [7266626891, 7266626892, 7266626893, 7266626894, 7266626895, 7266626896, 7266626891], "tags": {"amenity": "parking"}}, {"type": "way", "id": 778580735, "nodes": [7266626901, 7266626902, 7266626903, 7266626904, 7266626905, 7266626906, 7266626901], "tags": {"amenity": "parking"}}, {"type": "way", "id": 778580736, "nodes": [7266626907, 7266626908, 7266626909, 7266626910, 7266626907], "tags": {"amenity": "parking"}}, {"type": "way", "id": 778580737, "nodes": [7266626911, 7266626912, 7266626913, 7266626914, 7266626915, 7266626916, 7266626917, 7266626918, 7266626911], "tags": {"amenity": "parking"}}, {"type": "way", "id": 778580740, "nodes": [7266626935, 7266626936, 7266626937, 7266626938, 7266626935], "tags": {"amenity": "parking"}}, {"type": "way", "id": 778580749, "nodes": [7266627024, 7266627025, 7266627026, 7266627027, 7266627028, 7266627029, 7266627030, 7266627031, 7266627032, 7266627033, 7266627034, 7266627035, 7266627036, 7266627024], "tags": {"access": "customers", "amenity": "parking"}}, {"type": "way", "id": 778584192, "nodes": [7266668495, 7266668496, 7266668497, 7266668498, 7266668499, 7266668500, 7266668501, 7266668502, 7266668503, 7266668504, 7266668505, 7266668506, 7266668507, 7266668508, 7266668509, 7266668510, 7266668511, 7266668512, 7266668513, 7266668514, 7266668515, 7266668516, 7266668517, 7266668518, 7266668519, 7266668520, 7266668521, 7266668522, 7266668523, 7266668524, 7266668495], "tags": {"amenity": "parking"}}, {"type": "way", "id": 778584195, "nodes": [7266668529, 7266668530, 7266668531, 7266668532, 7266668533, 7266668534, 7266668535, 7266668536, 7266668529], "tags": {"amenity": "parking"}}, {"type": "way", "id": 778584199, "nodes": [7266670306, 7266670307, 7266670308, 7266670309, 7266670310, 7266670311, 7266670306], "tags": {"amenity": "parking"}}, {"type": "way", "id": 778584200, "nodes": [7266670312, 7266670313, 7266670314, 4915183150, 7266670315, 7266670316, 4915183147, 4915183156, 7266670317, 7266670318, 7266670319, 7266670320, 7266670321, 7266670322, 7266670323, 7266670312], "tags": {"amenity": "parking"}}, {"type": "way", "id": 778584201, "nodes": [7266670324, 7266670335, 7266670325, 7266670326, 7266670327, 7266670328, 7266670329, 7266670330, 7266670338, 7266670331, 7266670332, 7266670333, 7266670324], "tags": {"amenity": "parking"}}, {"type": "way", "id": 778584203, "nodes": [7266670340, 7266670382, 7266670341, 7266670342, 7266670343, 7266670344, 7266670379, 7266670345, 3239854006, 7266670340], "tags": {"amenity": "parking"}}, {"type": "way", "id": 778584207, "nodes": [7266670351, 7266670352, 7266670353, 7266670354, 7266670355, 7266670356, 7266670357, 7266670351], "tags": {"amenity": "parking"}}, {"type": "way", "id": 778584211, "nodes": [7266670368, 7266670369, 7266670370, 7266670371, 7266670372, 7266670373, 7266670374, 7266670368], "tags": {"amenity": "parking"}}, {"type": "way", "id": 778584212, "nodes": [7266670375, 7266670376, 7266670377, 7266670378, 7266670375], "tags": {"amenity": "parking"}}, {"type": "way", "id": 778591852, "nodes": [7266675666, 7266675667, 7266675668, 7266675669, 7266675670, 7266675671, 7266675666], "tags": {"amenity": "parking"}}, {"type": "way", "id": 804952413, "nodes": [7529323353, 7529323354, 7529323355, 7529323356, 7529323353], "tags": {"amenity": "parking"}}, {"type": "way", "id": 804952445, "nodes": [7529360989, 7529360990, 7529360991, 7529360992, 7529360993, 7529360994, 7529360995, 7529360996, 7529360997, 7529360998, 7529360999, 7529361000, 7529360989], "tags": {"amenity": "parking"}}, {"type": "way", "id": 804952446, "nodes": [7529361001, 7529361002, 7529361003, 7529361004, 7529361005, 7529361006, 7529361001], "tags": {"amenity": "parking"}}, {"type": "way", "id": 804952447, "nodes": [7529361007, 7529361008, 7529361009, 7529361010, 7529361007], "tags": {"amenity": "parking"}}, {"type": "way", "id": 804952453, "nodes": [7529361033, 7529361034, 7529361035, 7529361036, 7529361037, 7529361038, 7529361033], "tags": {"amenity": "parking"}}, {"type": "way", "id": 843320315, "nodes": [7866626682, 7866626683, 7866626684, 7866664085, 7866664086, 7866664087, 7866664088, 7866626682], "tags": {"amenity": "parking"}}, {"type": "way", "id": 884462027, "nodes": [6146625909, 8225241426, 8225241427, 6146625914, 6146625909], "tags": {"amenity": "parking"}}, {"type": "way", "id": 884462028, "nodes": [8225241430, 8225241431, 8225241432, 8225241433, 8225241430], "tags": {"building": "yes", "shop": "kiosk"}}]}