{"version": 0.6, "generator": "Overpass API 0.7.62.8 e802775f", "osm3s": {"timestamp_osm_base": "2025-12-06T05:36:29Z", "copyright": "The data included in this document is from www.openstreetmap.org. The data is made available under ODbL."}, "elements": [{"type": "node", "id": 2284106004, "lat": 43.668987, "lon": -116.6942355, "tags": {"name": "Cliff's Country Market", "shop": "supermarket"}}, {"type": "node", "id": 2553638533, "lat": 43.6617135, "lon": -116.6928024}, {"type": "node", "id": 2553638535, "lat": 43.6616176, "lon": -116.6926607}, {"type": "node", "id": 2553638537, "lat": 43.6615241, "lon": -116.6927385}, {"type": "node", "id": 2553638539, "lat": 43.6616198, "lon": -116.6929186}, {"type": "node", "id": 3169138897, "lat": 43.6645719, "lon": -116.7022048, "tags": {"addr:city": "Caldwell", "addr:housenumber": "323", "addr:state": "ID", "addr:street": "La Fond Street", "name": "Commercial Tire", "opening_hours": "Mo-Fr 07:30-18:00; Sa 07:30-16:00", "phone": "+1-208-459-6205", "shop": "tyres", "website": "https://commercialtire.com/"}}, {"type": "node", "id": 4846717404, "lat": 43.662251, "lon": -116.6875163}, {"type": "node", "id": 4846717413, "lat": 43.6596949, "lon": -116.6966663}, {"type": "node", "id": 4846717414, "lat": 43.6595909, "lon": -116.6965097}, {"type": "node", "id": 4846717415, "lat": 43.6595413, "lon": -116.6965741}, {"type": "node", "id": 4846717416, "lat": 43.6594062, "lon": -116.6963853}, {"type": "node", "id": 4846717417, "lat": 43.6592944, "lon": -116.6965269}, {"type": "node", "id": 4846717418, "lat": 43.6595273, "lon": -116.6968723}, {"type": "node", "id": 4848722508, "lat": 43.6628627, "lon": -116.688268, "tags": {"brand": "Rodda Paint", "brand:wikidata": "Q7356461", "name": "Rodda Paint", "shop": "paint"}}, {"type": "node", "id": 5726853286, "lat": 43.6646614, "lon": -116.6909288}, {"type": "node", "id": 5726853287, "lat": 43.664557, "lon": -116.6907706}, {"type": "node", "id": 5726853288, "lat": 43.6644691, "lon": -116.6908815}, {"type": "node", "id": 5726853289, "lat": 43.6645734, "lon": -116.6910396}, {"type": "node", "id": 5726853296, "lat": 43.6643907, "lon": -116.6903767}, {"type": "node", "id": 5733035873, "lat": 43.6647994, "lon": -116.6889121}, {"type": "node", "id": 5733035876, "lat": 43.6645346, "lon": -116.6885246}, {"type": "node", "id": 5733035877, "lat": 43.6642948, "lon": -116.6888359}, {"type": "node", "id": 5733035878, "lat": 43.6645618, "lon": -116.6892249}, {"type": "node", "id": 5733068008, "lat": 43.6674967, "lon": -116.6929663}, {"type": "node", "id": 5733068009, "lat": 43.6675218, "lon": -116.692934}, {"type": "node", "id": 5733068010, "lat": 43.6674924, "lon": -116.6928903}, {"type": "node", "id": 5733068011, "lat": 43.6674663, "lon": -116.6929238}, {"type": "node", "id": 5733068012, "lat": 43.6673407, "lon": -116.6927367}, {"type": "node", "id": 5733068013, "lat": 43.6673672, "lon": -116.6927026}, {"type": "node", "id": 5733068014, "lat": 43.6672682, "lon": -116.692555}, {"type": "node", "id": 5733068015, "lat": 43.6672445, "lon": -116.6925854}, {"type": "node", "id": 5733068016, "lat": 43.6671278, "lon": -116.6924115}, {"type": "node", "id": 5733068017, "lat": 43.6670549, "lon": -116.692505}, {"type": "node", "id": 5733068018, "lat": 43.6670864, "lon": -116.692552}, {"type": "node", "id": 5733068019, "lat": 43.6668795, "lon": -116.6928173}, {"type": "node", "id": 5733068020, "lat": 43.6673173, "lon": -116.6934698}, {"type": "node", "id": 5733068321, "lat": 43.6673432, "lon": -116.6934366}, {"type": "node", "id": 5733068322, "lat": 43.6673613, "lon": -116.6934637}, {"type": "node", "id": 5733068323, "lat": 43.6674006, "lon": -116.6934133}, {"type": "node", "id": 5733068324, "lat": 43.6673801, "lon": -116.6933827}, {"type": "node", "id": 5734463469, "lat": 43.662253, "lon": -116.6874407}, {"type": "node", "id": 5734463470, "lat": 43.6620792, "lon": -116.6871841}, {"type": "node", "id": 5734463471, "lat": 43.6618139, "lon": -116.6875203}, {"type": "node", "id": 5734463472, "lat": 43.6620148, "lon": -116.6878186}, {"type": "node", "id": 5734463499, "lat": 43.6618935, "lon": -116.6876386}, {"type": "node", "id": 5734463500, "lat": 43.6618397, "lon": -116.6875581}, {"type": "node", "id": 5734463501, "lat": 43.6618584, "lon": -116.6876828}, {"type": "node", "id": 5734463502, "lat": 43.6618044, "lon": -116.6876058}, {"type": "node", "id": 5734463505, "lat": 43.6618802, "lon": -116.6876554}, {"type": "node", "id": 5734463506, "lat": 43.661824, "lon": -116.6875794}, {"type": "node", "id": 5734538625, "lat": 43.667754, "lon": -116.6941142}, {"type": "node", "id": 5734538626, "lat": 43.6676364, "lon": -116.6939371}, {"type": "node", "id": 5734538627, "lat": 43.6674906, "lon": -116.6941221}, {"type": "node", "id": 5734538628, "lat": 43.6676083, "lon": -116.6942992}, {"type": "node", "id": 5734538629, "lat": 43.6674431, "lon": -116.6939942}, {"type": "node", "id": 5734538630, "lat": 43.6673762, "lon": -116.6938931}, {"type": "node", "id": 5734538631, "lat": 43.6672973, "lon": -116.6939928}, {"type": "node", "id": 5734538632, "lat": 43.6673642, "lon": -116.694094}, {"type": "node", "id": 5734538645, "lat": 43.6667107, "lon": -116.6939245}, {"type": "node", "id": 5734538646, "lat": 43.6664952, "lon": -116.6936087}, {"type": "node", "id": 5734538647, "lat": 43.6661836, "lon": -116.6940151}, {"type": "node", "id": 5734538648, "lat": 43.6663859, "lon": -116.6943111}, {"type": "node", "id": 5734538650, "lat": 43.6664237, "lon": -116.6942989}, {"type": "node", "id": 5734538671, "lat": 43.6675929, "lon": -116.693109}, {"type": "node", "id": 5734538689, "lat": 43.6676249, "lon": -116.6949777}, {"type": "node", "id": 5734538690, "lat": 43.6675383, "lon": -116.6948494}, {"type": "node", "id": 5734538691, "lat": 43.6674046, "lon": -116.6950219}, {"type": "node", "id": 5734538692, "lat": 43.6674912, "lon": -116.6951501}, {"type": "node", "id": 5734754525, "lat": 43.6693699, "lon": -116.6908949}, {"type": "node", "id": 5734754526, "lat": 43.6692312, "lon": -116.6906893}, {"type": "node", "id": 5734754527, "lat": 43.6692084, "lon": -116.6907188}, {"type": "node", "id": 5734754528, "lat": 43.6691432, "lon": -116.6906223}, {"type": "node", "id": 5734754529, "lat": 43.6690893, "lon": -116.6906918}, {"type": "node", "id": 5734754530, "lat": 43.6691228, "lon": -116.6907415}, {"type": "node", "id": 5734754531, "lat": 43.6689804, "lon": -116.6909252}, {"type": "node", "id": 5734754532, "lat": 43.6691507, "lon": -116.6911776}, {"type": "node", "id": 5734893161, "lat": 43.6651532, "lon": -116.6913808}, {"type": "node", "id": 5734893162, "lat": 43.6650668, "lon": -116.6912548}, {"type": "node", "id": 5734893163, "lat": 43.6650809, "lon": -116.6912354}, {"type": "node", "id": 5734893164, "lat": 43.665048, "lon": -116.6911899}, {"type": "node", "id": 5734893165, "lat": 43.6650339, "lon": -116.6912068}, {"type": "node", "id": 5734893166, "lat": 43.6649681, "lon": -116.6911081}, {"type": "node", "id": 5734893167, "lat": 43.6648741, "lon": -116.6912315}, {"type": "node", "id": 5734893168, "lat": 43.6648638, "lon": -116.6912172}, {"type": "node", "id": 5734893169, "lat": 43.6647407, "lon": -116.6913666}, {"type": "node", "id": 5734893170, "lat": 43.6648957, "lon": -116.6915978}, {"type": "node", "id": 5734893171, "lat": 43.6649333, "lon": -116.6915497}, {"type": "node", "id": 5734893172, "lat": 43.6649756, "lon": -116.6916108}, {"type": "node", "id": 5734894621, "lat": 43.6637875, "lon": -116.6914242}, {"type": "node", "id": 5734894622, "lat": 43.6637219, "lon": -116.6913258}, {"type": "node", "id": 5734894623, "lat": 43.6637553, "lon": -116.6912833}, {"type": "node", "id": 5734894624, "lat": 43.6637111, "lon": -116.6912169}, {"type": "node", "id": 5734894625, "lat": 43.6636722, "lon": -116.6912664}, {"type": "node", "id": 5734894626, "lat": 43.6636245, "lon": -116.6911947}, {"type": "node", "id": 5734894627, "lat": 43.663636, "lon": -116.69118}, {"type": "node", "id": 5734894628, "lat": 43.6636039, "lon": -116.6911318}, {"type": "node", "id": 5734894629, "lat": 43.663573, "lon": -116.6911712}, {"type": "node", "id": 5734894630, "lat": 43.6635634, "lon": -116.6911568}, {"type": "node", "id": 5734894631, "lat": 43.6634864, "lon": -116.6912548}, {"type": "node", "id": 5734894632, "lat": 43.6635184, "lon": -116.6913029}, {"type": "node", "id": 5734894633, "lat": 43.6635089, "lon": -116.691315}, {"type": "node", "id": 5734894634, "lat": 43.6636057, "lon": -116.6914602}, {"type": "node", "id": 5734894635, "lat": 43.6636173, "lon": -116.6914455}, {"type": "node", "id": 5734894636, "lat": 43.6636877, "lon": -116.6915513}, {"type": "node", "id": 5735209273, "lat": 43.6616536, "lon": -116.6929029}, {"type": "node", "id": 5735209274, "lat": 43.6616988, "lon": -116.692845}, {"type": "node", "id": 5735209275, "lat": 43.6616902, "lon": -116.6928323}, {"type": "node", "id": 5735209276, "lat": 43.6616981, "lon": -116.6927794}, {"type": "node", "id": 5735209277, "lat": 43.6617165, "lon": -116.6927558}, {"type": "node", "id": 5735209278, "lat": 43.6616986, "lon": -116.6927292}, {"type": "node", "id": 5735209279, "lat": 43.6617055, "lon": -116.6927203}, {"type": "node", "id": 5735209280, "lat": 43.661662, "lon": -116.6926556}, {"type": "node", "id": 5735209281, "lat": 43.6616544, "lon": -116.6926654}, {"type": "node", "id": 5735209282, "lat": 43.6616357, "lon": -116.6926375}, {"type": "node", "id": 5735209283, "lat": 43.6616032, "lon": -116.6926392}, {"type": "node", "id": 5735209284, "lat": 43.6615886, "lon": -116.692658}, {"type": "node", "id": 5735209285, "lat": 43.661579, "lon": -116.6926438}, {"type": "node", "id": 5735209286, "lat": 43.6616436, "lon": -116.6928881}, {"type": "node", "id": 5735209287, "lat": 43.661588, "lon": -116.692924}, {"type": "node", "id": 5735209288, "lat": 43.6616071, "lon": -116.6928996}, {"type": "node", "id": 5735209289, "lat": 43.6615797, "lon": -116.6929116}, {"type": "node", "id": 5735209290, "lat": 43.6615707, "lon": -116.6929232}, {"type": "node", "id": 5735209291, "lat": 43.6615028, "lon": -116.6928222}, {"type": "node", "id": 5735209292, "lat": 43.6615143, "lon": -116.6928075}, {"type": "node", "id": 5735209293, "lat": 43.6614939, "lon": -116.6927773}, {"type": "node", "id": 5735209294, "lat": 43.6615154, "lon": -116.6927255}, {"type": "node", "id": 5735209367, "lat": 43.6642157, "lon": -116.6902742}, {"type": "node", "id": 5735209374, "lat": 43.6642714, "lon": -116.6902016}, {"type": "node", "id": 7041432955, "lat": 43.665743, "lon": -116.693253}, {"type": "node", "id": 7041432956, "lat": 43.665988, "lon": -116.692949}, {"type": "node", "id": 7041432957, "lat": 43.666114, "lon": -116.693143}, {"type": "node", "id": 7041432958, "lat": 43.66587, "lon": -116.693447}, {"type": "node", "id": 7041433539, "lat": 43.6644003, "lon": -116.6892728}, {"type": "node", "id": 7041433541, "lat": 43.6642793, "lon": -116.6891662}, {"type": "node", "id": 7041433547, "lat": 43.66433, "lon": -116.689361}, {"type": "node", "id": 7041433548, "lat": 43.664237, "lon": -116.6892193}, {"type": "node", "id": 10112479951, "lat": 43.6665174, "lon": -116.6937369, "tags": {"name": "Tobacco Connection", "shop": "tobacco"}}, {"type": "node", "id": 10112479952, "lat": 43.6663616, "lon": -116.6938792, "tags": {"name": "Cruisin Biker Wear", "shop": "clothes"}}, {"type": "node", "id": 10112479955, "lat": 43.6656793, "lon": -116.692253, "tags": {"name": "Avalon Antiques and Collectibles", "shop": "antiques"}}, {"type": "node", "id": 10112479957, "lat": 43.6656999, "lon": -116.6925254, "tags": {"name": "Dickenson Tax Service", "office": "tax_advisor"}}, {"type": "node", "id": 10112479959, "lat": 43.6655616, "lon": -116.6924766, "tags": {"name": "Sandy's Loft", "shop": "clothes"}}, {"type": "node", "id": 10112479960, "lat": 43.6654499, "lon": -116.6928018, "tags": {"name": "Movement Mortgage", "shop": "money_lender"}}, {"type": "node", "id": 10112479963, "lat": 43.6654587, "lon": -116.6925403, "tags": {"name": "Assisted Business Solutions", "office": "consulting"}}, {"type": "node", "id": 10112479964, "lat": 43.6645088, "lon": -116.6904385, "tags": {"name": "World Finance Loan and Tax Service", "office": "tax_advisor"}}, {"type": "node", "id": 10114854577, "lat": 43.6682454, "lon": -116.6897513, "tags": {"amenity": "restaurant", "cuisine": "mexican", "name": "Carniceria Mi Tierra"}}, {"type": "node", "id": 10130995090, "lat": 43.6687969, "lon": -116.6903836, "tags": {"name": "D&B Supply", "shop": "agrarian"}}, {"type": "node", "id": 12233519275, "lat": 43.6646305, "lon": -116.6895648, "tags": {"addr:city": "Caldwell", "addr:housenumber": "312", "addr:postcode": "83605", "addr:state": "ID", "addr:street": "South Kimball Avenue", "name": "Panader\u00eda la Pi\u00f1ata", "shop": "bakery"}}, {"type": "node", "id": 12233568128, "lat": 43.663791, "lon": -116.6901863, "tags": {"name": "Joyer\u00eda El Diamante", "shop": "general"}}, {"type": "node", "id": 12233577918, "lat": 43.6636999, "lon": -116.6902972, "tags": {"name": "Martha's Beauty Salon", "opening_hours": "\"By appointment only\"", "shop": "beauty"}}, {"type": "node", "id": 12234232420, "lat": 43.6643346, "lon": -116.6904486}, {"type": "node", "id": 12234232438, "lat": 43.6643529, "lon": -116.6892006}, {"type": "node", "id": 12234232439, "lat": 43.6643249, "lon": -116.6892357}, {"type": "node", "id": 12234232440, "lat": 43.664366, "lon": -116.6892206}, {"type": "node", "id": 12234232474, "lat": 43.6645155, "lon": -116.6897161, "tags": {"addr:city": "Caldwell", "addr:housenumber": "320", "addr:postcode": "83605", "addr:state": "ID", "addr:street": "South Kimball Avenue", "name": "Rose Hill Bakery", "opening_hours": "We-Sa 08:00-12:00", "shop": "bakery", "website": "https://rosehillbakery.com"}}, {"type": "node", "id": 12569499901, "lat": 43.6630265, "lon": -116.6911524, "tags": {"addr:city": "Caldwell", "addr:housenumber": "801", "addr:postcode": "83605", "addr:street": "Everett Street", "amenity": "bar", "cuisine": "grill", "name": "Craft Lounge", "opening_hours": "Mo-Th 11:00-21:00; Fr-Sa 11:00-22:00", "website": "https://www.craftlounge.com/", "website:menu": "https://www.craftlounge.com/copy-of-menu"}}, {"type": "way", "id": 248602026, "nodes": [2553638533, 5735209276, 5735209277, 5735209278, 5735209279, 5735209280, 5735209281, 5735209282, 2553638535, 5735209283, 5735209284, 5735209285, 5735209294, 2553638537, 5735209293, 5735209292, 5735209291, 5735209290, 5735209289, 5735209287, 5735209288, 2553638539, 5735209286, 5735209273, 5735209274, 5735209275, 2553638533], "tags": {"building": "yes", "name": "Catalina Building", "office": "yes", "source": "microsoft/BuildingFootprints"}}, {"type": "way", "id": 492685103, "nodes": [4846717413, 4846717414, 4846717415, 4846717416, 4846717417, 4846717418, 4846717413], "tags": {"building": "yes", "name": "US Social Security Services", "office": "government"}}, {"type": "way", "id": 603157823, "nodes": [5726853286, 5726853287, 5726853288, 5726853289, 5726853286], "tags": {"brand": "Stinker", "brand:wikidata": "Q95990164", "building": "retail", "name": "Stinker", "shop": "convenience", "source": "microsoft/BuildingFootprints"}}, {"type": "way", "id": 604103768, "nodes": [5733035873, 5733035876, 5733035877, 5733035878, 5733035873], "tags": {"building": "yes", "building:levels": "1.5", "name": "Rostock Furniture", "shop": "furniture", "source": "microsoft/BuildingFootprints"}}, {"type": "way", "id": 604105952, "nodes": [5734538671, 5733068008, 5733068009, 5733068010, 5733068011, 5733068012, 5733068013, 5733068014, 5733068015, 5733068016, 5733068017, 5733068018, 5733068019, 5733068020, 5733068321, 5733068322, 5733068323, 5733068324, 5734538671], "tags": {"addr:city": "Caldwell", "addr:housenumber": "415", "addr:postcode": "83605", "addr:state": "ID", "addr:street": "Cleveland Boulevard", "brand": "Albertsons", "brand:wikidata": "Q2831861", "building": "yes", "name": "Albertsons", "opening_hours": "Mo-Fr 07:00-23:00; Sa 07:00-23:00; Su 07:00-23:00", "phone": "+1 208-459-3411", "shop": "supermarket", "source": "microsoft/BuildingFootprints", "website": "https://local.albertsons.com/id/caldwell/415-cleveland-blvd.html"}}, {"type": "way", "id": 604308256, "nodes": [4846717404, 5734463469, 5734463470, 5734463471, 5734463500, 5734463506, 5734463502, 5734463501, 5734463505, 5734463499, 5734463472, 4846717404], "tags": {"brand": "Walgreens", "brand:wikidata": "Q1591889", "building": "yes", "name": "Walgreens", "shop": "chemist", "website": "https://www.walgreens.com/locator/walgreens-1012+cleveland+blvd-caldwell-id-83605/id=7276"}}, {"type": "way", "id": 604318660, "nodes": [5734538625, 5734538626, 5734538627, 5734538628, 5734538625], "tags": {"building": "yes", "name": "Superior Paint and Glass", "shop": "paint", "source": "microsoft/BuildingFootprints"}}, {"type": "way", "id": 604318661, "nodes": [5734538629, 5734538630, 5734538631, 5734538632, 5734538629], "tags": {"building": "yes", "name": "Lend Nation", "shop": "money_lender", "source": "microsoft/BuildingFootprints"}}, {"type": "way", "id": 604318663, "nodes": [5734538645, 5734538646, 5734538647, 5734538648, 5734538650, 5734538645], "tags": {"brand": "Dollar Tree", "brand:wikidata": "Q5289230", "building": "yes", "check_date": "2024-07-11", "check_date:opening_hours": "2024-07-11", "name": "Dollar Tree", "opening_hours": "Mo-Sa 09:00-22:00; Su 09:00-20:00", "shop": "variety_store", "source": "microsoft/BuildingFootprints", "website": "https://www.dollartree.com/locations/id/caldwell/5589/"}}, {"type": "way", "id": 604318670, "nodes": [5734538689, 5734538690, 5734538691, 5734538692, 5734538689], "tags": {"building": "yes", "name": "Gem State Staffing", "office": "employment_agency", "source": "microsoft/BuildingFootprints"}}, {"type": "way", "id": 604352009, "nodes": [5734754525, 5734754526, 5734754527, 5734754528, 5734754529, 5734754530, 5734754531, 5734754532, 5734754525], "tags": {"building": "yes", "name": "Furniture Design", "shop": "furniture", "source": "microsoft/BuildingFootprints"}}, {"type": "way", "id": 604376368, "nodes": [5734893161, 5734893162, 5734893163, 5734893164, 5734893165, 5734893166, 5734893167, 5734893168, 5734893169, 5734893170, 5734893171, 5734893172, 5734893161], "tags": {"building": "yes", "name": "Flahiff Funeral Chapel", "shop": "funeral_directors", "source": "microsoft/BuildingFootprints"}}, {"type": "way", "id": 604376386, "nodes": [5734894621, 5734894622, 5734894623, 5734894624, 5734894625, 5734894626, 5734894627, 5734894628, 5734894629, 5734894630, 5734894631, 5734894632, 5734894633, 5734894634, 5734894635, 5734894636, 5734894621], "tags": {"building": "yes", "name": "Dakan Funeral Chapel", "shop": "funeral_directors", "source": "microsoft/BuildingFootprints"}}, {"type": "way", "id": 753640972, "nodes": [7041432958, 7041432957, 7041432956, 7041432955, 7041432958], "tags": {"brand": "O'Reilly Auto Parts", "brand:wikidata": "Q7071951", "building": "yes", "name": "O'Reilly Auto Parts", "shop": "car_parts", "source": "microsoft/BuildingFootprints", "website": "https://locations.oreillyauto.com/id/caldwell/autoparts-2789.html"}}, {"type": "way", "id": 753641078, "nodes": [7041433548, 7041433547, 7041433539, 12234232440, 12234232438, 12234232439, 7041433541, 7041433548], "tags": {"building": "yes", "name": "Windermere Powerhouse Group", "office": "estate_agent", "opening_hours": "Mo-Fr 09:00-17:00", "source": "microsoft/BuildingFootprints"}}, {"type": "way", "id": 1105092359, "nodes": [12234232420, 5735209367, 5735209374, 5726853296, 12234232420], "tags": {"addr:city": "Caldwell", "addr:housenumber": "724", "addr:postcode": "83605", "addr:state": "ID", "addr:street": "Cleveland Boulevard", "brand": "H&R Block", "brand:wikidata": "Q5627799", "building": "industrial", "name": "H&R Block", "office": "tax_advisor", "opening_hours": "\"by appointment\"", "phone": "+1-208-459-0539", "website": "https://www.hrblock.com/local-tax-offices/idaho/caldwell/724-cleveland-blvd/48969"}}]}