{"version": 0.6, "generator": "Overpass API 0.7.62.8 e802775f", "osm3s": {"timestamp_osm_base": "2025-12-06T21:34:16Z", "copyright": "The data included in this document is from www.openstreetmap.org. The data is made available under ODbL."}, "elements": [{"type": "node", "id": 1867098687, "lat": 47.2839634, "lon": -122.3624357, "tags": {"amenity": "restaurant", "cuisine": "vietnamese", "name": "Pho Tasty", "opening_hours": "Mo-Fr 11:00-21:00; Sa 10:00-21:00; Su 10:00-20:30"}}, {"type": "node", "id": 1867098733, "lat": 47.283734, "lon": -122.3616472}, {"type": "node", "id": 1867098760, "lat": 47.2834557, "lon": -122.362666, "tags": {"addr:city": "Federal Way", "addr:housenumber": "35503", "addr:postcode": "98023", "addr:state": "WA", "addr:street": "21st Avenue Southwest", "amenity": "restaurant", "brand": "Pizza Hut", "brand:wikidata": "Q191615", "cuisine": "pizza", "name": "Pizza Hut", "phone": "+1-253-927-7400", "website": "https://locations.pizzahut.com/wa/federal-way/35503-21st-ave-sw"}}, {"type": "node", "id": 1867098766, "lat": 47.2830498, "lon": -122.3625414}, {"type": "node", "id": 1867098795, "lat": 47.2832991, "lon": -122.3626876, "tags": {"amenity": "bar", "name": "Jersey's"}}, {"type": "node", "id": 1867098810, "lat": 47.2835084, "lon": -122.3626664, "tags": {"amenity": "restaurant", "cuisine": "american", "name": "Soul Food Cafe"}}, {"type": "node", "id": 1867098835, "lat": 47.2838159, "lon": -122.362427, "tags": {"addr:city": "Federal Way", "addr:housenumber": "35419", "addr:postcode": "98023-3050", "addr:state": "WA", "addr:street": "21st Avenue Southwest", "brand": "Ace Hardware", "brand:wikidata": "Q4672981", "name": "Northshore Ace Hardware", "opening_hours": "Mo-Sa 09:00-19:00; Su 09:00-17:00", "operator": "Ac", "phone": "+1-253-835-5052", "ref": "14840", "shop": "doityourself"}}, {"type": "node", "id": 4616727669, "lat": 47.284141, "lon": -122.3621581}, {"type": "node", "id": 4616727670, "lat": 47.2841512, "lon": -122.3613565}, {"type": "node", "id": 4616727671, "lat": 47.2839266, "lon": -122.3613663}, {"type": "node", "id": 4616727672, "lat": 47.2839428, "lon": -122.3621668}, {"type": "node", "id": 5462208665, "lat": 47.2829201, "lon": -122.3603667}, {"type": "node", "id": 6105160837, "lat": 47.2837319, "lon": -122.3615591}, {"type": "node", "id": 6105160838, "lat": 47.2837025, "lon": -122.3615605}, {"type": "node", "id": 6105160839, "lat": 47.2837045, "lon": -122.3616487}, {"type": "node", "id": 6105175845, "lat": 47.2831244, "lon": -122.3625764}, {"type": "node", "id": 6105175848, "lat": 47.2830197, "lon": -122.362727}, {"type": "node", "id": 6105175850, "lat": 47.2829783, "lon": -122.3626885}, {"type": "node", "id": 6105184691, "lat": 47.2831128, "lon": -122.3616559}, {"type": "node", "id": 6105184692, "lat": 47.2828909, "lon": -122.3616666}, {"type": "node", "id": 6105184694, "lat": 47.2831153, "lon": -122.3617683}, {"type": "node", "id": 6105184695, "lat": 47.2831489, "lon": -122.3617655}, {"type": "node", "id": 6105184696, "lat": 47.2832404, "lon": -122.3617611}, {"type": "node", "id": 6105184697, "lat": 47.2832333, "lon": -122.3614428}, {"type": "node", "id": 6105184698, "lat": 47.2831418, "lon": -122.3614472}, {"type": "node", "id": 6105184726, "lat": 47.2823989, "lon": -122.3617333}, {"type": "node", "id": 6105184728, "lat": 47.2825061, "lon": -122.3619088}, {"type": "node", "id": 6105185527, "lat": 47.284131, "lon": -122.3616646}, {"type": "node", "id": 6105185529, "lat": 47.2841574, "lon": -122.3616634}, {"type": "node", "id": 6105194169, "lat": 47.2831264, "lon": -122.3626866}, {"type": "node", "id": 6105194171, "lat": 47.2830188, "lon": -122.3626869}, {"type": "node", "id": 6105194173, "lat": 47.2829756, "lon": -122.362574}, {"type": "node", "id": 6105194175, "lat": 47.2830738, "lon": -122.3627251}, {"type": "node", "id": 6105194177, "lat": 47.283073, "lon": -122.3626887}, {"type": "node", "id": 6105201640, "lat": 47.2828934, "lon": -122.361779}, {"type": "node", "id": 6105201650, "lat": 47.2823978, "lon": -122.3619073}, {"type": "node", "id": 6105201652, "lat": 47.2825072, "lon": -122.3617348}, {"type": "node", "id": 7677791244, "lat": 47.2827805, "lon": -122.3598205}, {"type": "node", "id": 7677791246, "lat": 47.2838715, "lon": -122.3598234}, {"type": "node", "id": 7677791249, "lat": 47.2832238, "lon": -122.3604443}, {"type": "node", "id": 7677791250, "lat": 47.283283, "lon": -122.3610481}, {"type": "node", "id": 7677791251, "lat": 47.2838873, "lon": -122.3610475}, {"type": "node", "id": 9013087432, "lat": 47.2832823, "lon": -122.3606482, "tags": {"barrier": "gate"}}, {"type": "node", "id": 9013087435, "lat": 47.2830504, "lon": -122.3603667, "tags": {"barrier": "gate"}}, {"type": "node", "id": 9854914487, "lat": 47.2827901, "lon": -122.3603629}, {"type": "node", "id": 9854914488, "lat": 47.2830495, "lon": -122.3604442}, {"type": "node", "id": 9854914489, "lat": 47.283224, "lon": -122.3606491}, {"type": "way", "id": 466976325, "nodes": [4616727669, 6105185527, 6105185529, 4616727670, 4616727671, 4616727672, 4616727669], "tags": {"addr:city": "Federal Way", "addr:housenumber": "35415", "addr:postcode": "98023", "addr:state": "WA", "addr:street": "21st Avenue Southwest", "building": "commercial", "name": "Hong Kong Market", "opening_hours": "Mo-Su 08:00-20:00", "shop": "supermarket"}}, {"type": "way", "id": 650922472, "nodes": [6105160839, 1867098733, 6105160837, 6105160838, 6105160839], "tags": {"addr:city": "Federal Way", "addr:housenumber": "2140", "addr:postcode": "98023", "addr:state": "WA", "addr:street": "Southwest 356th Street", "amenity": "cafe", "building": "yes", "cuisine": "coffee_shop", "name": "Driphouse Coffee", "opening_hours": "Mo-Fr 05:00-19:00; Sa,Su 06:00-19:00"}}, {"type": "way", "id": 650928606, "nodes": [6105184697, 6105184698, 6105184695, 6105184696, 6105184697], "tags": {"building": "yes", "shop": "convenience"}}, {"type": "way", "id": 650928608, "nodes": [6105184694, 6105184691, 6105184692, 6105201640, 6105184694], "tags": {"addr:city": "Federal Way", "addr:housenumber": "2100", "addr:postcode": "98023", "addr:state": "WA", "addr:street": "Southwest 356th Street", "amenity": "fuel", "brand": "76", "brand:wikidata": "Q1658320", "building": "yes", "name": "76"}}, {"type": "way", "id": 650928635, "nodes": [6105184728, 6105201652, 6105184726, 6105201650, 6105184728], "tags": {"amenity": "fuel", "building": "yes"}}, {"type": "way", "id": 650930782, "nodes": [6105194169, 6105175845, 1867098766, 6105194173, 6105175850, 6105194171, 6105175848, 6105194175, 6105194177, 6105194169], "tags": {"addr:city": "Federal Way", "addr:housenumber": "2222", "addr:postcode": "98023", "addr:state": "WA", "addr:street": "Southwest 356th Street", "building": "yes", "shop": "cleaners"}}, {"type": "way", "id": 822276892, "nodes": [7677791249, 9854914488, 9013087435, 5462208665, 9854914487, 7677791244, 7677791246, 7677791251, 7677791250, 9013087432, 9854914489, 7677791249], "tags": {"brand": "Public Storage", "brand:wikidata": "Q1156045", "name": "Public Storage", "shop": "storage_rental"}}]}