{"version": 0.6, "generator": "Overpass API 0.7.62.8 e802775f", "osm3s": {"timestamp_osm_base": "2025-12-08T21:56:30Z", "copyright": "The data included in this document is from www.openstreetmap.org. The data is made available under ODbL."}, "elements": [{"type": "node", "id": 357970791, "lat": 45.6386617, "lon": -109.2519525, "tags": {"amenity": "post_office", "ele": "1095", "gnis:feature_id": "1726879", "name": "Columbus Post Office"}}, {"type": "node", "id": 357970894, "lat": 45.6430092, "lon": -109.2594207, "tags": {"addr:city": "Columbus", "addr:housenumber": "407", "addr:postcode": "59019", "addr:street": "North A Street", "amenity": "doctors", "name": "Community Health Services"}}, {"type": "node", "id": 357970905, "lat": 45.6407952, "lon": -109.264918, "tags": {"addr:city": "Columbus", "addr:housenumber": "350", "addr:postcode": "59019", "addr:street": "West Pike Avenue", "amenity": "nursing_home", "gnis:feature_id": "1726909", "name": "Beartooth Healthcare Community", "old_name": "Stillwater Convalescent Center", "operator": "Welcov Healthcare", "phone": "+1 406 322 5342", "website": "https://www.welcov.com/find-a-location/beartooth-healthcare-community/"}}, {"type": "node", "id": 357970934, "lat": 45.6393852, "lon": -109.2568281, "tags": {"addr:city": "Columbus", "addr:housenumber": "433", "addr:postcode": "59019", "addr:street": "North 3rd Street", "amenity": "school", "ele": "1098", "gnis:feature_id": "1726954", "name": "Columbus Elementary School"}}, {"type": "node", "id": 357970936, "lat": 45.6418338, "lon": -109.2549675}, {"type": "node", "id": 357970962, "lat": 45.6388297, "lon": -109.2573837, "tags": {"amenity": "place_of_worship", "denomination": "lutheran", "ele": "1097", "gnis:feature_id": "1726964", "name": "Saint James Lutheran Church", "religion": "christian"}}, {"type": "node", "id": 357970963, "lat": 45.639663, "lon": -109.259606, "tags": {"amenity": "place_of_worship", "ele": "1099", "gnis:feature_id": "1726965", "name": "Columbus Evangelical Church", "religion": "christian"}}, {"type": "node", "id": 357970966, "lat": 45.6391075, "lon": -109.2540502, "tags": {"amenity": "place_of_worship", "ele": "1097", "gnis:feature_id": "1726966", "name": "Community Congregational United Church of Christ", "religion": "christian"}}, {"type": "node", "id": 357970968, "lat": 45.6354966, "lon": -109.2451609, "tags": {"amenity": "place_of_worship", "ele": "1090", "gnis:feature_id": "1726967", "name": "New Life Victory Center"}}, {"type": "node", "id": 357970970, "lat": 45.6382741, "lon": -109.2518279, "tags": {"amenity": "place_of_worship", "ele": "1095", "gnis:feature_id": "1726968", "name": "Assembly of God Church", "religion": "christian"}}, {"type": "node", "id": 357970973, "lat": 45.6377187, "lon": -109.255717, "tags": {"amenity": "place_of_worship", "ele": "1095", "gnis:feature_id": "1726969", "name": "Stillwater Bible Church", "religion": "christian"}}, {"type": "node", "id": 357970978, "lat": 45.636587, "lon": -109.2520413, "tags": {"amenity": "place_of_worship", "denomination": "baptist", "ele": "1093", "gnis:feature_id": "1726971", "name": "Columbus Baptist Church", "religion": "christian"}}, {"type": "node", "id": 357971017, "lat": 45.6365663, "lon": -109.2521111, "tags": {"amenity": "place_of_worship", "denomination": "jehovahs_witness", "ele": "1093", "gnis:feature_id": "1726989", "name": "Jehovah's Witnesses", "religion": "christian"}}, {"type": "node", "id": 366093178, "lat": 45.6410603, "lon": -109.2535041, "tags": {"addr:state": "MT", "amenity": "fire_station", "ele": "1099", "gnis:feature_id": "1726942", "name": "Columbus Fire Department", "source": "USGS Geonames"}}, {"type": "node", "id": 366093351, "lat": 45.6381032, "lon": -109.2553098, "tags": {"addr:city": "Columbus", "addr:housenumber": "27", "addr:postcode": "59019", "addr:state": "MT", "addr:street": "North 4th Street", "amenity": "library", "ele": "1098", "gnis:feature_id": "1726910", "name": "Stillwater County Library", "source": "USGS Geonames"}}, {"type": "node", "id": 366093520, "lat": 45.6410472, "lon": -109.2535074, "tags": {"addr:state": "MT", "amenity": "police", "ele": "1099", "gnis:feature_id": "1726945", "name": "Columbus Police Department", "source": "USGS Geonames"}}, {"type": "node", "id": 4515142687, "lat": 45.644865, "lon": -109.2480317}, {"type": "node", "id": 4515142688, "lat": 45.644865, "lon": -109.2476374}, {"type": "node", "id": 4515142689, "lat": 45.6449175, "lon": -109.2476374}, {"type": "node", "id": 4515142690, "lat": 45.6449175, "lon": -109.2480317}, {"type": "node", "id": 4515142691, "lat": 45.6446065, "lon": -109.2476603}, {"type": "node", "id": 4515142692, "lat": 45.6445034, "lon": -109.2471802}, {"type": "node", "id": 4515142693, "lat": 45.6446531, "lon": -109.2471144}, {"type": "node", "id": 4515142694, "lat": 45.6447562, "lon": -109.2475945}, {"type": "node", "id": 4515142695, "lat": 45.6441285, "lon": -109.2475444}, {"type": "node", "id": 4515142696, "lat": 45.6438613, "lon": -109.2475498}, {"type": "node", "id": 4515142697, "lat": 45.6438627, "lon": -109.2476951}, {"type": "node", "id": 4515142698, "lat": 45.6441299, "lon": -109.2476897}, {"type": "node", "id": 4515142700, "lat": 45.6388579, "lon": -109.2461384}, {"type": "node", "id": 4515142701, "lat": 45.6391223, "lon": -109.2460177}, {"type": "node", "id": 4515142702, "lat": 45.6391797, "lon": -109.2462749}, {"type": "node", "id": 4515142703, "lat": 45.6389153, "lon": -109.2463956}, {"type": "node", "id": 4515142704, "lat": 45.6384412, "lon": -109.246596}, {"type": "node", "id": 4515142705, "lat": 45.6383099, "lon": -109.246655}, {"type": "node", "id": 4515142706, "lat": 45.6383339, "lon": -109.2467644}, {"type": "node", "id": 4515142707, "lat": 45.6384652, "lon": -109.2467053}, {"type": "node", "id": 4515142708, "lat": 45.6366623, "lon": -109.2471805}, {"type": "node", "id": 4515142709, "lat": 45.6364204, "lon": -109.2472919}, {"type": "node", "id": 4515142710, "lat": 45.6364511, "lon": -109.2474282}, {"type": "node", "id": 4515142711, "lat": 45.636693, "lon": -109.2473169}, {"type": "node", "id": 4515142712, "lat": 45.636039, "lon": -109.2478891}, {"type": "node", "id": 4515142713, "lat": 45.6359931, "lon": -109.2476731}, {"type": "node", "id": 4515142714, "lat": 45.6361491, "lon": -109.2476052}, {"type": "node", "id": 4515142715, "lat": 45.6361951, "lon": -109.2478211}, {"type": "node", "id": 4515142716, "lat": 45.6364091, "lon": -109.2499556}, {"type": "node", "id": 4515142717, "lat": 45.6363631, "lon": -109.249745}, {"type": "node", "id": 4515142718, "lat": 45.6364398, "lon": -109.2497108}, {"type": "node", "id": 4515142719, "lat": 45.6364858, "lon": -109.2499213}, {"type": "node", "id": 4515142720, "lat": 45.6349922, "lon": -109.2534886}, {"type": "node", "id": 4515142721, "lat": 45.6349228, "lon": -109.2536321}, {"type": "node", "id": 4515142722, "lat": 45.6348701, "lon": -109.2535798}, {"type": "node", "id": 4515142723, "lat": 45.6349394, "lon": -109.2534363}, {"type": "node", "id": 4913899381, "lat": 45.6422204, "lon": -109.243177}, {"type": "node", "id": 4913899382, "lat": 45.642233, "lon": -109.2415685}, {"type": "node", "id": 4913899383, "lat": 45.6422707, "lon": -109.2414821}, {"type": "node", "id": 4913899384, "lat": 45.642321, "lon": -109.2413886}, {"type": "node", "id": 4913899385, "lat": 45.6424091, "lon": -109.2413238}, {"type": "node", "id": 4913899386, "lat": 45.6424896, "lon": -109.2412482}, {"type": "node", "id": 4913899387, "lat": 45.6425475, "lon": -109.2409208}, {"type": "node", "id": 4913899388, "lat": 45.6425802, "lon": -109.2407337}, {"type": "node", "id": 4913899389, "lat": 45.6426783, "lon": -109.2406941}, {"type": "node", "id": 4913899390, "lat": 45.6431487, "lon": -109.2406797}, {"type": "node", "id": 4913899391, "lat": 45.643438, "lon": -109.2409928}, {"type": "node", "id": 4913899392, "lat": 45.6435437, "lon": -109.2416656}, {"type": "node", "id": 4913899393, "lat": 45.6435358, "lon": -109.2431894}, {"type": "node", "id": 4913899441, "lat": 45.642621, "lon": -109.2586362}, {"type": "node", "id": 4913899442, "lat": 45.6442083, "lon": -109.2586509}, {"type": "node", "id": 4913899443, "lat": 45.643259, "lon": -109.2543088}, {"type": "node", "id": 6069716044, "lat": 45.6411027, "lon": -109.2652306}, {"type": "node", "id": 6069716045, "lat": 45.6411514, "lon": -109.2650943}, {"type": "node", "id": 6069716046, "lat": 45.6409014, "lon": -109.2649116}, {"type": "node", "id": 6069716047, "lat": 45.6411245, "lon": -109.2646993}, {"type": "node", "id": 6069716048, "lat": 45.6410607, "lon": -109.2645619}, {"type": "node", "id": 6069716049, "lat": 45.6408494, "lon": -109.264763}, {"type": "node", "id": 6069716050, "lat": 45.6408323, "lon": -109.2643027}, {"type": "node", "id": 6069716051, "lat": 45.6406964, "lon": -109.264313}, {"type": "node", "id": 6069716052, "lat": 45.6407133, "lon": -109.2647665}, {"type": "node", "id": 6069716053, "lat": 45.6403276, "lon": -109.2644843}, {"type": "node", "id": 6069716054, "lat": 45.6402742, "lon": -109.2646337}, {"type": "node", "id": 6069716055, "lat": 45.6407139, "lon": -109.2649553}, {"type": "node", "id": 6069716056, "lat": 45.6406838, "lon": -109.2650396}, {"type": "node", "id": 6069716057, "lat": 45.6407794, "lon": -109.2651096}, {"type": "node", "id": 6069716058, "lat": 45.640812, "lon": -109.2650182}, {"type": "node", "id": 7616848531, "lat": 45.6401157, "lon": -109.2538174}, {"type": "node", "id": 7616848532, "lat": 45.6400106, "lon": -109.2534831}, {"type": "node", "id": 7616848533, "lat": 45.6401583, "lon": -109.2534054}, {"type": "node", "id": 7616848534, "lat": 45.6402302, "lon": -109.2537573}, {"type": "node", "id": 7616848537, "lat": 45.6397695, "lon": -109.2534366}, {"type": "node", "id": 8654045501, "lat": 45.6399545, "lon": -109.2454766, "tags": {"addr:city": "Columbus", "addr:housenumber": "444", "addr:state": "MT", "addr:street": "9th Street North", "brand": "Family Dollar", "brand:wikidata": "Q5433101", "name": "Family Dollar", "operator": "Family Dollar", "shop": "variety_store"}}, {"type": "node", "id": 8654045510, "lat": 45.6360031, "lon": -109.2470001, "tags": {"addr:city": "Columbus", "addr:housenumber": "944", "addr:postcode": "59019", "addr:state": "MT", "addr:street": "East Pike Avenue", "amenity": "fire_station", "name": "Columbus Fire Department", "operator": "Columbus Fire & Rescue"}}, {"type": "node", "id": 8654046764, "lat": 45.6391468, "lon": -109.2536599}, {"type": "node", "id": 8654046766, "lat": 45.6383991, "lon": -109.253346}, {"type": "node", "id": 8654046767, "lat": 45.6385172, "lon": -109.2539233}, {"type": "node", "id": 9896463625, "lat": 45.640041, "lon": -109.2536017}, {"type": "node", "id": 9896463626, "lat": 45.640058, "lon": -109.2535928}, {"type": "node", "id": 9896463627, "lat": 45.6401879, "lon": -109.2535206}, {"type": "node", "id": 9896463628, "lat": 45.6401716, "lon": -109.2535292}, {"type": "node", "id": 9896463633, "lat": 45.6401448, "lon": -109.2532557}, {"type": "node", "id": 9896463634, "lat": 45.6401756, "lon": -109.2533867}, {"type": "node", "id": 9896463635, "lat": 45.6398003, "lon": -109.2535676}, {"type": "node", "id": 10695768834, "lat": 45.6462821, "lon": -109.2655735}, {"type": "node", "id": 10695768835, "lat": 45.6462833, "lon": -109.2654855}, {"type": "node", "id": 10695768836, "lat": 45.6462655, "lon": -109.2654849}, {"type": "node", "id": 10695768837, "lat": 45.6462667, "lon": -109.2653984}, {"type": "node", "id": 10695768838, "lat": 45.6462889, "lon": -109.265399}, {"type": "node", "id": 10695768839, "lat": 45.6462899, "lon": -109.2653281}, {"type": "node", "id": 10695768840, "lat": 45.6463414, "lon": -109.2653297}, {"type": "node", "id": 10695768841, "lat": 45.6463404, "lon": -109.2654043}, {"type": "node", "id": 10695768842, "lat": 45.6465097, "lon": -109.2654092}, {"type": "node", "id": 10695768843, "lat": 45.6465072, "lon": -109.2655801}, {"type": "node", "id": 10929000446, "lat": 45.6390287, "lon": -109.2530826}, {"type": "node", "id": 11864478189, "lat": 45.6411857, "lon": -109.2535777}, {"type": "node", "id": 11864478190, "lat": 45.6411355, "lon": -109.2536006}, {"type": "node", "id": 11864478191, "lat": 45.6411479, "lon": -109.2536564}, {"type": "node", "id": 11864478192, "lat": 45.6410768, "lon": -109.2536889}, {"type": "node", "id": 11864478193, "lat": 45.6410248, "lon": -109.2534558}, {"type": "node", "id": 11864478196, "lat": 45.6410997, "lon": -109.2534217}, {"type": "node", "id": 11864478197, "lat": 45.6411044, "lon": -109.2534428}, {"type": "node", "id": 11864478198, "lat": 45.6411509, "lon": -109.2534217}, {"type": "node", "id": 11864478199, "lat": 45.6387603, "lon": -109.2540672}, {"type": "node", "id": 11864478200, "lat": 45.638819, "lon": -109.2543287}, {"type": "node", "id": 11864478201, "lat": 45.6388321, "lon": -109.2543287}, {"type": "node", "id": 11864478202, "lat": 45.6388533, "lon": -109.2544385}, {"type": "node", "id": 11864478203, "lat": 45.6386754, "lon": -109.2545202}, {"type": "node", "id": 11864478204, "lat": 45.6386721, "lon": -109.2544852}, {"type": "node", "id": 11864478205, "lat": 45.6386509, "lon": -109.2544922}, {"type": "node", "id": 11864478206, "lat": 45.6386313, "lon": -109.2543801}, {"type": "node", "id": 11864478207, "lat": 45.6386558, "lon": -109.2543708}, {"type": "node", "id": 11864478208, "lat": 45.6386493, "lon": -109.2543287}, {"type": "node", "id": 11864478209, "lat": 45.6386672, "lon": -109.2543194}, {"type": "node", "id": 11864478210, "lat": 45.6386672, "lon": -109.2542937}, {"type": "node", "id": 11864478211, "lat": 45.6386737, "lon": -109.2542704}, {"type": "node", "id": 11864478212, "lat": 45.6386819, "lon": -109.2542377}, {"type": "node", "id": 11864478213, "lat": 45.6386803, "lon": -109.2541022}, {"type": "node", "id": 11864478214, "lat": 45.6438164, "lon": -109.259717}, {"type": "node", "id": 11864478215, "lat": 45.6434229, "lon": -109.2598997}, {"type": "node", "id": 11864478216, "lat": 45.6433622, "lon": -109.2596324}, {"type": "node", "id": 11864478217, "lat": 45.6437556, "lon": -109.2594496}, {"type": "node", "id": 11864478218, "lat": 45.6434093, "lon": -109.2597449}, {"type": "node", "id": 11864478219, "lat": 45.6434516, "lon": -109.2597243}, {"type": "node", "id": 11864478220, "lat": 45.6434445, "lon": -109.2596948}, {"type": "node", "id": 11864478221, "lat": 45.6434808, "lon": -109.2596771}, {"type": "node", "id": 11864478222, "lat": 45.643489, "lon": -109.2597112}, {"type": "node", "id": 11864478223, "lat": 45.6435459, "lon": -109.2596835}, {"type": "node", "id": 11864478224, "lat": 45.6435559, "lon": -109.2597256}, {"type": "node", "id": 11864478225, "lat": 45.6435843, "lon": -109.2597117}, {"type": "node", "id": 11864478226, "lat": 45.6435997, "lon": -109.2597763}, {"type": "node", "id": 11864478227, "lat": 45.6434358, "lon": -109.2598561}, {"type": "node", "id": 11864478228, "lat": 45.6434841, "lon": -109.2597731, "tags": {"addr:city": "Columbus", "addr:housenumber": "439", "addr:postcode": "59019", "addr:state": "MT", "addr:street": "A Street", "amenity": "kindergarten", "name": "Kidz Club Preschool", "phone": "+1 406-322-6214"}}, {"type": "node", "id": 11864478229, "lat": 45.6387488, "lon": -109.2543641, "tags": {"addr:city": "Columbus", "addr:housenumber": "408", "addr:postcode": "59019", "addr:state": "MT", "addr:street": "East 1st Avenue North", "amenity": "townhall", "name": "Columbus City Hall", "operator": "Town of Columbus", "townhall:type": "city"}}, {"type": "node", "id": 11865048413, "lat": 45.6378973, "lon": -109.2564235, "tags": {"addr:city": "Columbus", "addr:housenumber": "306", "addr:postcode": "59019", "addr:state": "MT", "addr:street": "East Pike Avenue", "amenity": "restaurant", "cuisine": "burger;chicken;american;ice_cream", "name": "The Whistlestop Cafe", "phone": "+1 406-321-6291"}}, {"type": "node", "id": 11865048414, "lat": 45.6379948, "lon": -109.2563311}, {"type": "node", "id": 11865048415, "lat": 45.638012, "lon": -109.2564132}, {"type": "node", "id": 11865048416, "lat": 45.637868, "lon": -109.2564748}, {"type": "node", "id": 11865048417, "lat": 45.6378508, "lon": -109.2563927}, {"type": "node", "id": 11948577208, "lat": 45.6410986, "lon": -109.2537795}, {"type": "node", "id": 11948577209, "lat": 45.6409437, "lon": -109.2538524}, {"type": "node", "id": 11948577210, "lat": 45.6409109, "lon": -109.2537098}, {"type": "node", "id": 11948577211, "lat": 45.640894, "lon": -109.2537178}, {"type": "node", "id": 11948577212, "lat": 45.6408714, "lon": -109.2536197}, {"type": "node", "id": 11948577213, "lat": 45.6408868, "lon": -109.2536125}, {"type": "node", "id": 11948577214, "lat": 45.6408665, "lon": -109.2535245}, {"type": "node", "id": 11948577215, "lat": 45.6410231, "lon": -109.2534509}, {"type": "node", "id": 12099563929, "lat": 45.6449145, "lon": -109.2472476, "tags": {"brand": "Town Pump", "brand:wikidata": "Q7830004", "name": "Town Pump", "shop": "convenience"}}, {"type": "node", "id": 13071882965, "lat": 45.6400713, "lon": -109.2536444}, {"type": "way", "id": 455059676, "nodes": [4515142690, 4515142689, 4515142688, 4515142687, 4515142690], "tags": {"amenity": "fuel", "building": "roof", "hgv": "yes"}}, {"type": "way", "id": 455059677, "nodes": [4515142694, 4515142693, 4515142692, 4515142691, 4515142694], "tags": {"amenity": "fuel", "brand": "Exxon", "building": "roof", "layer": "1"}}, {"type": "way", "id": 455059680, "nodes": [4515142698, 4515142695, 4515142696, 4515142697, 4515142698], "tags": {"amenity": "fast_food", "brand": "McDonald's", "brand:wikidata": "Q38076", "building": "retail", "cuisine": "burger", "name": "McDonald's", "takeaway": "yes", "website": "https://www.mcdonalds.com/us/en-us/location/mt/columbus/601-e-8th-ave-n/17338.html"}}, {"type": "way", "id": 455059681, "nodes": [4515142703, 4515142702, 4515142701, 4515142700, 4515142703], "tags": {"building": "yes", "name": "Cooper Tires", "shop": "car_repair"}}, {"type": "way", "id": 455059682, "nodes": [4515142707, 4515142704, 4515142705, 4515142706, 4515142707], "tags": {"amenity": "car_wash", "building": "yes", "name": "The Car Spa"}}, {"type": "way", "id": 455059684, "nodes": [4515142711, 4515142708, 4515142709, 4515142710, 4515142711], "tags": {"amenity": "bank", "building": "commercial", "name": "First Interstate Bank"}}, {"type": "way", "id": 455059685, "nodes": [4515142715, 4515142714, 4515142713, 4515142712, 4515142715], "tags": {"amenity": "bank", "building": "commercial", "name": "Montana Credit Union"}}, {"type": "way", "id": 455059686, "nodes": [4515142719, 4515142718, 4515142717, 4515142716, 4515142719], "tags": {"amenity": "fuel", "brand": "Conoco", "building": "roof", "layer": "1"}}, {"type": "way", "id": 455059687, "nodes": [4515142723, 4515142722, 4515142721, 4515142720, 4515142723], "tags": {"amenity": "fuel", "brand": "Cenex", "building": "roof", "fuel:diesel": "yes"}}, {"type": "way", "id": 500295698, "nodes": [4913899393, 4913899392, 4913899391, 4913899390, 4913899389, 4913899388, 4913899387, 4913899386, 4913899385, 4913899384, 4913899383, 4913899382, 4913899381, 4913899393], "tags": {"addr:city": "Columbus", "addr:housenumber": "711", "addr:postcode": "59019", "addr:state": "MT", "addr:street": "11th Street North", "amenity": "hospital", "emergency": "yes", "healthcare": "hospital", "name": "Stillwater Billings Clinic", "opening_hours": "24/7", "phone": "+1 406 322 1000", "website": "https://stillwaterbillingsclinic.com/"}}, {"type": "way", "id": 500295703, "nodes": [357970936, 4913899443, 4913899442, 4913899441, 357970936], "tags": {"addr:city": "Columbus", "addr:housenumber": "433", "addr:postcode": "59019", "addr:state": "MT", "addr:street": "North 3rd Street", "amenity": "school", "gnis:feature_id": "1726955", "mascot": "Cougars", "name": "Columbus High School", "operator": "Columbus Public Schools", "phone": "+1 406 322 5373", "website": "http://www.columbus.k12.mt.us/high_school.html"}}, {"type": "way", "id": 645814862, "nodes": [6069716044, 6069716045, 6069716046, 6069716047, 6069716048, 6069716049, 6069716050, 6069716051, 6069716052, 6069716053, 6069716054, 6069716055, 6069716056, 6069716057, 6069716058, 6069716044], "tags": {"addr:city": "Columbus", "addr:housenumber": "350", "addr:postcode": "59019", "addr:state": "MT", "addr:street": "W Pike Ave", "amenity": "social_facility", "building": "yes", "name": "Beartooth Manor", "social_facility": "nursing_home", "social_facility:for": "senior", "wheelchair": "yes"}}, {"type": "way", "id": 815567863, "nodes": [7616848534, 9896463628, 9896463627, 7616848533, 7616848532, 9896463625, 9896463626, 13071882965, 7616848531, 7616848534], "tags": {"addr:city": "Columbus", "addr:housenumber": "240", "addr:postcode": "59019", "addr:state": "MT", "addr:street": "North 4th Street", "amenity": "place_of_worship", "building": "church", "denomination": "roman_catholic", "description": "Mailing Address: PO Box 956 Columbus, MT 59019", "diocese": "Great Falls-Billings", "ele": "1099", "gnis:feature_id": "1726970", "name": "Saint Mary Catholic Church", "phone": "+1 406-322-5541", "religion": "christian", "website": "https://mysaintmary.com/", "wikimedia_commons": "File:Saint Mary Catholic Church in Columbus Montana.jpg"}}, {"type": "way", "id": 933699021, "nodes": [8654046764, 10929000446, 8654046766, 8654046767, 8654046764], "tags": {"addr:city": "Columbus", "addr:housenumber": "133", "addr:postcode": "59019", "addr:state": "MT", "addr:street": "North 5th Street", "brand:wikidata": "Q3146662", "building": "yes", "name": "Columbus IGA Plus", "pharmacy": "yes", "phone": "+1 406-322-5718", "shop": "supermarket", "website": "https://columbusplus.iga.com"}}, {"type": "way", "id": 1079648754, "nodes": [9896463635, 9896463634, 9896463633, 7616848537, 9896463635], "tags": {"amenity": "parking", "operator": "Saint Mary Catholic Church"}}, {"type": "way", "id": 1149758875, "nodes": [10695768834, 10695768835, 10695768836, 10695768837, 10695768838, 10695768839, 10695768840, 10695768841, 10695768842, 10695768843, 10695768834], "tags": {"amenity": "place_of_worship", "building": "yes", "denomination": "jehovahs_witness", "religion": "christian", "source": "microsoft/BuildingFootprints"}}, {"type": "way", "id": 1278030553, "nodes": [11864478189, 11864478190, 11864478191, 11864478192, 11864478193, 11864478196, 11864478197, 11864478198, 11864478189], "tags": {"addr:city": "Columbus", "addr:housenumber": "400", "addr:postcode": "59019", "addr:state": "MT", "addr:street": "East 3rd Avenue North", "amenity": "police", "building": "yes", "name": "Stillwater County Sheriff's Office & Dispatch Center", "opening_hours": "24/7", "operator": "Stillwater County"}}, {"type": "way", "id": 1278030554, "nodes": [11864478199, 11864478200, 11864478201, 11864478202, 11864478203, 11864478204, 11864478205, 11864478206, 11864478207, 11864478208, 11864478209, 11864478210, 11864478211, 11864478212, 11864478213, 11864478199], "tags": {"addr:city": "Columbus", "addr:housenumber": "408", "addr:postcode": "59019", "addr:state": "MT", "addr:street": "E 1st Ave N", "amenity": "police", "building": "yes", "name": "Columbus Police Department & Town Hall", "opening_hours": "24/7", "operator": "Town of Columbus"}}, {"type": "way", "id": 1278030555, "nodes": [11864478214, 11864478215, 11864478216, 11864478217, 11864478214], "tags": {"addr:city": "Columbus", "addr:housenumber": "439", "addr:postcode": "59019", "addr:state": "MT", "addr:street": "A Street", "amenity": "kindergarten", "name": "Kid's Club", "phone": "+1 406-322-6214", "website": "https://www.columbuskidsclub.org/"}}, {"type": "way", "id": 1278030556, "nodes": [11864478218, 11864478219, 11864478220, 11864478221, 11864478222, 11864478223, 11864478224, 11864478225, 11864478226, 11864478227, 11864478218], "tags": {"addr:city": "Columbus", "addr:housenumber": "439", "addr:postcode": "59019", "addr:state": "MT", "addr:street": "A Street", "amenity": "kindergarten", "name": "Kid's Club Preschool", "phone": "+1 406-322-6214"}}, {"type": "way", "id": 1278030947, "nodes": [11865048414, 11865048415, 11865048416, 11865048417, 11865048414], "tags": {"addr:city": "Columbus", "addr:housenumber": "306", "addr:postcode": "59019", "addr:state": "MT", "addr:street": "East Pike Avenue", "amenity": "restaurant", "building": "yes", "cuisine": "burger;chicken;american;ice_cream", "name": "The Whistlestop Cafe", "phone": "+1 406-321-6291"}}, {"type": "way", "id": 1288470439, "nodes": [11948577208, 11948577209, 11948577210, 11948577211, 11948577212, 11948577213, 11948577214, 11948577215, 11864478193, 11864478192, 11948577208], "tags": {"addr:state": "MT", "amenity": "courthouse", "building": "yes", "ele": "1099", "gnis:feature_id": "1726944", "name": "Stillwater County Courthouse", "source": "USGS Geonames"}}]}