{"version": 0.6, "generator": "Overpass API 0.7.62.8 e802775f", "osm3s": {"timestamp_osm_base": "2025-12-06T05:42:34Z", "copyright": "The data included in this document is from www.openstreetmap.org. The data is made available under ODbL."}, "elements": [{"type": "node", "id": 4359636686, "lat": 42.8624376, "lon": -112.4430686, "tags": {"addr:city": "Pocatello", "addr:housenumber": "330", "addr:postcode": "83201", "addr:state": "ID", "addr:street": "East Benton Street", "brand": "Albertsons", "brand:wikidata": "Q2831861", "name": "Albertsons", "opening_hours": "Mo-Fr 06:00-23:00; Sa 06:00-23:00; Su 06:00-23:00", "phone": "+1 208-233-0455", "shop": "supermarket", "website": "https://local.albertsons.com/id/pocatello/330-e-benton-st.html"}}, {"type": "node", "id": 4909795729, "lat": 42.8674178, "lon": -112.456002, "tags": {"addr:housenumber": "754", "addr:state": "ID", "addr:street": "North Main Street", "amenity": "restaurant", "cuisine": "mexican", "description": "Mexican restaurant", "name": "Los Robertos", "opening_hours": "24/7"}}, {"type": "node", "id": 5268836245, "lat": 42.8678552, "lon": -112.4586787}, {"type": "node", "id": 5268836246, "lat": 42.8679181, "lon": -112.4585768}, {"type": "node", "id": 5268836247, "lat": 42.8679476, "lon": -112.4586251}, {"type": "node", "id": 5268836248, "lat": 42.8681874, "lon": -112.4582415}, {"type": "node", "id": 5268836249, "lat": 42.868154, "lon": -112.4582013}, {"type": "node", "id": 5268836250, "lat": 42.8681933, "lon": -112.4581316}, {"type": "node", "id": 5268836251, "lat": 42.8679889, "lon": -112.4578955}, {"type": "node", "id": 5268836252, "lat": 42.8680282, "lon": -112.4578365}, {"type": "node", "id": 5268836253, "lat": 42.8679515, "lon": -112.457748}, {"type": "node", "id": 5268836254, "lat": 42.8675682, "lon": -112.4583381}, {"type": "node", "id": 5282882673, "lat": 42.8585954, "lon": -112.4348544}, {"type": "node", "id": 5282882674, "lat": 42.8584528, "lon": -112.4346899}, {"type": "node", "id": 5282884288, "lat": 42.8598613, "lon": -112.4363712}, {"type": "node", "id": 5282884289, "lat": 42.8597604, "lon": -112.4362489}, {"type": "node", "id": 5282884290, "lat": 42.8598889, "lon": -112.4360516}, {"type": "node", "id": 5282884291, "lat": 42.8599898, "lon": -112.4361738}, {"type": "node", "id": 5282885100, "lat": 42.8603963, "lon": -112.4369531}, {"type": "node", "id": 5282885101, "lat": 42.8605177, "lon": -112.4367624}, {"type": "node", "id": 5282885102, "lat": 42.8606674, "lon": -112.4369397}, {"type": "node", "id": 5282885103, "lat": 42.8605168, "lon": -112.4371765}, {"type": "node", "id": 5282885104, "lat": 42.8604257, "lon": -112.4370686}, {"type": "node", "id": 5282885105, "lat": 42.860455, "lon": -112.4370226}, {"type": "node", "id": 5419450646, "lat": 42.8677634, "lon": -112.4580376}, {"type": "node", "id": 5588909816, "lat": 42.8656085, "lon": -112.4458442}, {"type": "node", "id": 5588909817, "lat": 42.8657424, "lon": -112.4456273}, {"type": "node", "id": 5588909818, "lat": 42.8656913, "lon": -112.4455686}, {"type": "node", "id": 5588909819, "lat": 42.8655574, "lon": -112.4457855}, {"type": "node", "id": 5597216952, "lat": 42.8662854, "lon": -112.4424117}, {"type": "node", "id": 5597216953, "lat": 42.8661338, "lon": -112.4422286}, {"type": "node", "id": 5597216954, "lat": 42.8660773, "lon": -112.4423157}, {"type": "node", "id": 5597216955, "lat": 42.8662289, "lon": -112.4424988}, {"type": "node", "id": 5597216956, "lat": 42.8662283, "lon": -112.4430201}, {"type": "node", "id": 5597216957, "lat": 42.8663587, "lon": -112.4428074}, {"type": "node", "id": 5597216958, "lat": 42.8662729, "lon": -112.4427094}, {"type": "node", "id": 5597216959, "lat": 42.8662551, "lon": -112.4427385}, {"type": "node", "id": 5597216960, "lat": 42.8661923, "lon": -112.4426667}, {"type": "node", "id": 5597216961, "lat": 42.8660796, "lon": -112.4428504}, {"type": "node", "id": 5925776578, "lat": 42.8662703, "lon": -112.4444674, "tags": {"addr:city": "Pocatello", "addr:housenumber": "134", "addr:postcode": "83201", "addr:state": "ID", "addr:street": "N 4th Ave", "fax": "+1-208-478-1775", "name": "Fortress Financial", "office": "financial", "opening_hours": "Mo-Fr 10:00-18:00", "phone": "+1-208-233-1685", "website": "https://www.iretiresmart.com/"}}, {"type": "node", "id": 7057416747, "lat": 42.858371, "lon": -112.4348218}, {"type": "node", "id": 7057416748, "lat": 42.8585136, "lon": -112.4349864}, {"type": "node", "id": 7880293817, "lat": 42.8667311, "lon": -112.4464419}, {"type": "node", "id": 7880293818, "lat": 42.866605, "lon": -112.4466518}, {"type": "node", "id": 7880293819, "lat": 42.8663467, "lon": -112.446363}, {"type": "node", "id": 7880293820, "lat": 42.8663774, "lon": -112.4463119}, {"type": "node", "id": 7880293821, "lat": 42.8662666, "lon": -112.446188}, {"type": "node", "id": 7880293822, "lat": 42.866362, "lon": -112.4460292}, {"type": "node", "id": 7880293867, "lat": 42.8652404, "lon": -112.4461835}, {"type": "node", "id": 7880293868, "lat": 42.8653729, "lon": -112.4459548}, {"type": "node", "id": 7880293869, "lat": 42.8657044, "lon": -112.4463126}, {"type": "node", "id": 7880293870, "lat": 42.8655719, "lon": -112.4465412}, {"type": "node", "id": 7965033906, "lat": 42.8622932, "lon": -112.4426198, "tags": {"addr:city": "Pocatello", "addr:housenumber": "320", "addr:postcode": "83201", "addr:state": "ID", "addr:street": "East Benton Street", "clothes": "women", "name": "Fashion 15 Below", "shop": "clothes"}}, {"type": "node", "id": 8023234261, "lat": 42.862204, "lon": -112.4445907}, {"type": "node", "id": 8023234262, "lat": 42.8624335, "lon": -112.4442202}, {"type": "node", "id": 8023234263, "lat": 42.8626055, "lon": -112.4444185}, {"type": "node", "id": 8023234264, "lat": 42.862376, "lon": -112.444789}, {"type": "node", "id": 8023304548, "lat": 42.8640202, "lon": -112.443049, "tags": {"name": "Tobacco Connection", "shop": "tobacco"}}, {"type": "node", "id": 8023304569, "lat": 42.8659694, "lon": -112.4461934, "tags": {"addr:city": "Pocatello", "addr:housenumber": "150", "addr:postcode": "83201", "addr:state": "ID", "addr:street": "North 3rd Avenue", "amenity": "restaurant", "name": "Tom's Gyros and Burgers"}}, {"type": "node", "id": 8023304570, "lat": 42.8655741, "lon": -112.4455555}, {"type": "node", "id": 8023304571, "lat": 42.8654688, "lon": -112.4454337}, {"type": "node", "id": 8023304572, "lat": 42.8653868, "lon": -112.4455655}, {"type": "node", "id": 8023304573, "lat": 42.8654921, "lon": -112.4456874}, {"type": "node", "id": 8023304574, "lat": 42.8669376, "lon": -112.4468306}, {"type": "node", "id": 8023304575, "lat": 42.866806, "lon": -112.4466781}, {"type": "node", "id": 8023304576, "lat": 42.8666369, "lon": -112.4469496}, {"type": "node", "id": 8023304577, "lat": 42.8667684, "lon": -112.4471021}, {"type": "node", "id": 8023304578, "lat": 42.8669881, "lon": -112.4466221}, {"type": "node", "id": 8023304579, "lat": 42.8670165, "lon": -112.4465788}, {"type": "node", "id": 8023304580, "lat": 42.8669641, "lon": -112.4465148}, {"type": "node", "id": 8023304581, "lat": 42.866972, "lon": -112.4464908}, {"type": "node", "id": 8023304582, "lat": 42.866911, "lon": -112.4464108}, {"type": "node", "id": 8023304583, "lat": 42.8669209, "lon": -112.4463838}, {"type": "node", "id": 8023304584, "lat": 42.8668622, "lon": -112.446312}, {"type": "node", "id": 8023305085, "lat": 42.8668053, "lon": -112.4463987}, {"type": "node", "id": 8023305092, "lat": 42.8669138, "lon": -112.4455696, "tags": {"addr:city": "Pocatello", "addr:housenumber": "210", "addr:postcode": "83201", "addr:state": "ID", "addr:street": "North 4th Avenue", "name": "Idaho Mattress Outlet", "shop": "bed"}}, {"type": "node", "id": 8023305093, "lat": 42.8673246, "lon": -112.4456018, "tags": {"addr:city": "Pocatello", "addr:housenumber": "210", "addr:postcode": "83201", "addr:state": "ID", "addr:street": "North 4th Avenue", "name": "Top Notch Auto Repair", "shop": "car_repair"}}, {"type": "node", "id": 8997359978, "lat": 42.8624507, "lon": -112.4436432}, {"type": "node", "id": 8997359979, "lat": 42.8622207, "lon": -112.4433844}, {"type": "node", "id": 8997359980, "lat": 42.8621898, "lon": -112.4434356}, {"type": "node", "id": 8997359981, "lat": 42.8620998, "lon": -112.4433343}, {"type": "node", "id": 8997359982, "lat": 42.8621355, "lon": -112.4432752}, {"type": "node", "id": 8997359983, "lat": 42.8620317, "lon": -112.4431583}, {"type": "node", "id": 8997359984, "lat": 42.8622526, "lon": -112.4427933}, {"type": "node", "id": 8997359985, "lat": 42.8621522, "lon": -112.4426804}, {"type": "node", "id": 8997359986, "lat": 42.8623047, "lon": -112.4424283}, {"type": "node", "id": 8997359987, "lat": 42.8628287, "lon": -112.4430182}, {"type": "node", "id": 8997360992, "lat": 42.869627, "lon": -112.4464412}, {"type": "node", "id": 8997360993, "lat": 42.8692499, "lon": -112.4460064}, {"type": "node", "id": 8997360994, "lat": 42.8694441, "lon": -112.4456928}, {"type": "node", "id": 8997360995, "lat": 42.8696747, "lon": -112.4459588}, {"type": "node", "id": 8997360996, "lat": 42.8696465, "lon": -112.4460044}, {"type": "node", "id": 8997360997, "lat": 42.869793, "lon": -112.4461732}, {"type": "node", "id": 8997371644, "lat": 42.8665017, "lon": -112.4437538}, {"type": "node", "id": 8997371645, "lat": 42.8666912, "lon": -112.4439728}, {"type": "node", "id": 8997371646, "lat": 42.8665859, "lon": -112.4441423}, {"type": "node", "id": 8997371647, "lat": 42.866569, "lon": -112.4441228}, {"type": "node", "id": 8997371648, "lat": 42.8665502, "lon": -112.4441531}, {"type": "node", "id": 8997371651, "lat": 42.8663777, "lon": -112.4439536}, {"type": "node", "id": 8997437708, "lat": 42.8624815, "lon": -112.4503561, "tags": {"amenity": "bar", "name": "First National Bar"}}, {"type": "node", "id": 8997437710, "lat": 42.8617869, "lon": -112.450556, "tags": {"name": "Taliena's Hair Studio and Barbering Services", "shop": "hairdresser"}}, {"type": "node", "id": 8997437711, "lat": 42.8616938, "lon": -112.4504367, "tags": {"amenity": "restaurant", "name": "The Healthier Place To Eat"}}, {"type": "node", "id": 8997437712, "lat": 42.8617189, "lon": -112.4499839, "tags": {"amenity": "restaurant", "cuisine": "thai", "name": "Thai Paradise Cuisine"}}, {"type": "node", "id": 8997437729, "lat": 42.8616532, "lon": -112.450373, "tags": {"name": "Orange and Black Store", "shop": "clothes"}}, {"type": "node", "id": 8997437730, "lat": 42.8622716, "lon": -112.4511068, "tags": {"name": "Pocatello Flooring", "shop": "flooring"}}, {"type": "node", "id": 8997437731, "lat": 42.8620566, "lon": -112.450956, "tags": {"name": "Eikova Salon", "shop": "beauty"}}, {"type": "node", "id": 8997437732, "lat": 42.861985, "lon": -112.4511744, "tags": {"name": "Apache Pine", "shop": "fashion_accessories"}}, {"type": "node", "id": 8997437733, "lat": 42.8618991, "lon": -112.4512046, "tags": {"name": "Deckadence Board Shoppe", "shop": "sports"}}, {"type": "node", "id": 8997437734, "lat": 42.862437, "lon": -112.4507906, "tags": {"name": "The Sweet Life", "shop": "bakery"}}, {"type": "node", "id": 8997437735, "lat": 42.8624946, "lon": -112.4508546, "tags": {"addr:city": "Pocatello", "addr:housenumber": "126", "addr:state": "ID", "addr:street": "North Main Street", "name": "Molinelli's Jewelers", "shop": "jewelry"}}, {"type": "node", "id": 8997437736, "lat": 42.8625759, "lon": -112.4509487, "tags": {"name": "Old Town Mercantile & Antiques", "shop": "antiques"}}, {"type": "node", "id": 8997437737, "lat": 42.8626786, "lon": -112.4510899, "tags": {"addr:city": "Pocatello", "addr:housenumber": "138", "addr:state": "ID", "addr:street": "North Main Street", "amenity": "restaurant", "cuisine": "pizza", "name": "PV's Pasta Vino", "website": "http://www.pvspastavino.com"}}, {"type": "node", "id": 8997437738, "lat": 42.8628122, "lon": -112.4512155, "tags": {"brand": "Keller Williams Realty", "brand:wikidata": "Q6385689", "name": "Keller Williams Realty", "office": "estate_agent"}}, {"type": "node", "id": 8997437739, "lat": 42.8623635, "lon": -112.4512118, "tags": {"name": "J & Company", "shop": "beauty"}}, {"type": "node", "id": 8997437740, "lat": 42.8624909, "lon": -112.4513547, "tags": {"name": "Cottonwood Junction", "shop": "second_hand"}}, {"type": "node", "id": 8997437741, "lat": 42.8625981, "lon": -112.45147, "tags": {"name": "Vain & Vintage", "shop": "antiques"}}, {"type": "node", "id": 8997437742, "lat": 42.8626612, "lon": -112.4515492, "tags": {"addr:city": "Pocatello", "addr:housenumber": "165", "addr:state": "ID", "addr:street": "North Main Street", "amenity": "restaurant", "cuisine": "italian", "name": "Villano's Italian"}}, {"type": "node", "id": 8997437744, "lat": 42.8615971, "lon": -112.4498168, "tags": {"name": "IES Custom Staffing Pocatello", "office": "employment_agency"}}, {"type": "node", "id": 8997437745, "lat": 42.8615252, "lon": -112.4497491, "tags": {"name": "Five Star Property Management", "office": "yes"}}, {"type": "node", "id": 8997437795, "lat": 42.8615422, "lon": -112.452078, "tags": {"name": "Sagebrush Steppe Land Trust", "office": "association"}}, {"type": "node", "id": 8997437797, "lat": 42.8618222, "lon": -112.4523965, "tags": {"name": "Pioneer Title Co", "office": "yes"}}, {"type": "node", "id": 8997437844, "lat": 42.8608876, "lon": -112.4521001, "tags": {"name": "Porter's Office Products", "shop": "stationery"}}, {"type": "node", "id": 8997437845, "lat": 42.8605219, "lon": -112.4513273, "tags": {"name": "Healing Kneads Massage", "shop": "massage"}}, {"type": "node", "id": 8997437846, "lat": 42.8607333, "lon": -112.4510751, "tags": {"name": "Henry's Hair Design", "shop": "hairdresser"}}, {"type": "node", "id": 8997437847, "lat": 42.860813, "lon": -112.4511584, "tags": {"name": "Buds & Bloomers", "shop": "florist"}}, {"type": "node", "id": 8997437862, "lat": 42.8615012, "lon": -112.4492284, "tags": {"name": "Blades Salon And Spa", "shop": "beauty"}}, {"type": "node", "id": 8997437863, "lat": 42.8614285, "lon": -112.4493623, "tags": {"brand": "Farmers Insurance", "brand:wikidata": "Q1396863", "name": "Farmers Insurance", "office": "insurance"}}, {"type": "node", "id": 8997437864, "lat": 42.8612911, "lon": -112.4494675, "tags": {"amenity": "restaurant", "name": "Taste Of Hawaii"}}, {"type": "node", "id": 8997437865, "lat": 42.8611822, "lon": -112.4493685, "tags": {"name": "A Family Affair Candle Company", "shop": "candles"}}, {"type": "node", "id": 8997437866, "lat": 42.8611442, "lon": -112.4493178, "tags": {"name": "Radon Professionals", "office": "yes"}}, {"type": "node", "id": 8997437871, "lat": 42.8608275, "lon": -112.4489406, "tags": {"amenity": "bar", "name": "The Union Taproom"}}, {"type": "node", "id": 8997437872, "lat": 42.8607502, "lon": -112.4488509, "tags": {"amenity": "restaurant", "name": "The Yellowstone Restaurant"}}, {"type": "node", "id": 8997437873, "lat": 42.8606038, "lon": -112.4484552, "tags": {"name": "Bisharat Automotive", "shop": "car_repair"}}, {"type": "node", "id": 8997437881, "lat": 42.8604085, "lon": -112.4483699, "tags": {"name": "Pocatello Frontier Rodeo", "office": "yes"}}, {"type": "node", "id": 8997437901, "lat": 42.8601027, "lon": -112.4487443, "tags": {"name": "Hawley Troxell Ennis & Hawley", "office": "lawyer"}}, {"type": "node", "id": 8999636059, "lat": 42.8623914, "lon": -112.4525275, "tags": {"name": "NeighborWorks", "office": "association"}}, {"type": "node", "id": 8999636061, "lat": 42.8628565, "lon": -112.451741, "tags": {"name": "Poky Dot Boutique", "shop": "clothes"}}, {"type": "node", "id": 8999636062, "lat": 42.8627408, "lon": -112.4519227, "tags": {"name": "The Kingsman", "shop": "hairdresser"}}, {"type": "node", "id": 8999636063, "lat": 42.8626862, "lon": -112.452027, "tags": {"name": "Pocatello Running Company", "shop": "outdoor"}}, {"type": "node", "id": 8999636064, "lat": 42.8630421, "lon": -112.4515295, "tags": {"addr:city": "Pocatello", "addr:housenumber": "204", "addr:state": "ID", "addr:street": "North Main Street", "amenity": "restaurant", "name": "The Bacon Experience"}}, {"type": "node", "id": 8999636065, "lat": 42.8632321, "lon": -112.4512643, "tags": {"addr:city": "Pocatello", "addr:housenumber": "238", "addr:postcode": "83201", "addr:state": "ID", "addr:street": "West Clark Street", "amenity": "bar", "name": "Bourbon Barrel Bar"}}, {"type": "node", "id": 8999636067, "lat": 42.8631393, "lon": -112.452094, "tags": {"name": "Enchantments", "shop": "gift"}}, {"type": "node", "id": 8999636068, "lat": 42.8633173, "lon": -112.4518602, "tags": {"name": "Main Steam Coffee And Desserts", "shop": "coffee"}}, {"type": "node", "id": 8999636069, "lat": 42.8634723, "lon": -112.4519987, "tags": {"addr:city": "Pocatello", "addr:housenumber": "250", "addr:postcode": "83201", "addr:state": "ID", "addr:street": "North Main Street", "amenity": "restaurant", "name": "Round River Baking", "website": "https://www.roundriverbaking.com/"}}, {"type": "node", "id": 8999636070, "lat": 42.8632801, "lon": -112.4522653, "tags": {"addr:city": "Pocatello", "addr:housenumber": "251", "addr:state": "ID", "addr:street": "North Main Street", "name": "Walrus & Carpenter Books", "shop": "books"}}, {"type": "node", "id": 8999636071, "lat": 42.863386, "lon": -112.452377, "tags": {"name": "Snake River Fly", "shop": "fishing"}}, {"type": "node", "id": 8999636073, "lat": 42.8638031, "lon": -112.4523492, "tags": {"amenity": "bar", "name": "Oasis Sports Bar"}}, {"type": "node", "id": 8999636076, "lat": 42.8640176, "lon": -112.4526454, "tags": {"addr:city": "Pocatello", "addr:housenumber": "330", "addr:postcode": "83204", "addr:state": "ID", "addr:street": "North Main Street", "amenity": "restaurant", "cuisine": "indian", "name": "Taste of India & Nepal", "opening_hours": "Mo-Sa 11:30-14:30,17:00-22:00", "website": "https://www.tasteofindianepal.com/"}}, {"type": "node", "id": 8999636077, "lat": 42.8641295, "lon": -112.4527749, "tags": {"name": "The Elwen Cottage", "shop": "antiques"}}, {"type": "node", "id": 8999636078, "lat": 42.8641944, "lon": -112.452862, "tags": {"addr:city": "Pocatello", "addr:housenumber": "364", "addr:postcode": "83204", "addr:state": "ID", "addr:street": "North Main Street", "name": "East Fork Bikes", "shop": "bicycle"}}, {"type": "node", "id": 8999636079, "lat": 42.8642504, "lon": -112.4529303, "tags": {"name": "Gunslinger's", "shop": "weapons"}}, {"type": "node", "id": 8999636080, "lat": 42.8643133, "lon": -112.4529903, "tags": {"name": "Susan Massage Care", "shop": "massage"}}, {"type": "node", "id": 8999636081, "lat": 42.8644292, "lon": -112.4528008, "tags": {"name": "Hair of the Dog Grooming", "shop": "pet_grooming"}}, {"type": "node", "id": 8999636100, "lat": 42.8643158, "lon": -112.4535262, "tags": {"name": "Main Street Music", "shop": "musical_instrument"}}, {"type": "node", "id": 8999636124, "lat": 42.8645817, "lon": -112.4537948, "tags": {"name": "New York Life", "office": "insurance"}}, {"type": "node", "id": 8999636125, "lat": 42.8646495, "lon": -112.4538941, "tags": {"brand": "American Family Insurance", "brand:wikidata": "Q4743730", "name": "American Family Insurance", "office": "insurance"}}, {"type": "node", "id": 8999636128, "lat": 42.8650963, "lon": -112.4537263, "tags": {"addr:city": "Pocatello", "addr:housenumber": "450", "addr:postcode": "83204", "addr:state": "ID", "addr:street": "North Main Street", "name": "Manic Mechanic", "shop": "car_repair"}}, {"type": "node", "id": 8999636230, "lat": 42.8618826, "lon": -112.4544057, "tags": {"name": "Downard Funeral Home & Crematory", "shop": "funeral_directors"}}, {"type": "node", "id": 8999636240, "lat": 42.860993, "lon": -112.4532622, "tags": {"name": "Steele & Associates", "office": "advertising_agency"}}, {"type": "node", "id": 8999636241, "lat": 42.8607352, "lon": -112.4538037, "tags": {"name": "DNA Computers & Technology", "office": "it"}}, {"type": "node", "id": 8999636242, "lat": 42.860411, "lon": -112.4535617, "tags": {"name": "Old Town Embroidery Co", "shop": "sewing"}}, {"type": "node", "id": 8999636243, "lat": 42.8605463, "lon": -112.4534363, "tags": {"name": "Gateway Printers Inc", "shop": "copyshop"}}, {"type": "node", "id": 8999636244, "lat": 42.860421, "lon": -112.450959, "tags": {"amenity": "cafe", "name": "Mocatello"}}, {"type": "node", "id": 8999636246, "lat": 42.8598672, "lon": -112.4504624, "tags": {"name": "The Pit Stop Auto Repair", "shop": "car_repair"}}, {"type": "node", "id": 8999636247, "lat": 42.859704, "lon": -112.4499448, "tags": {"name": "Idaho State Journal", "office": "newspaper"}}, {"type": "node", "id": 8999636277, "lat": 42.8591005, "lon": -112.449538, "tags": {"name": "Family Services Alliance", "office": "association"}}, {"type": "node", "id": 8999662718, "lat": 42.8588294, "lon": -112.4489861, "tags": {"name": "Developmental Options", "office": "association"}}, {"type": "node", "id": 8999662777, "lat": 42.8598192, "lon": -112.4518889, "tags": {"government": "prosecutor", "name": "Holmes Thomas J", "office": "government"}}, {"type": "node", "id": 8999662921, "lat": 42.8585249, "lon": -112.4469428, "tags": {"name": "Carpets Plus Color Tile", "shop": "carpet"}}, {"type": "node", "id": 8999682947, "lat": 42.8603329, "lon": -112.4551481, "tags": {"name": "G-10 Engineering", "office": "yes"}}, {"type": "node", "id": 8999755229, "lat": 42.865108, "lon": -112.4543857, "tags": {"addr:city": "Pocatello", "addr:housenumber": "501", "addr:postcode": "83204", "addr:state": "ID", "addr:street": "North Main Street", "name": "Into You Piercing and Tattoo", "shop": "tattoo"}}, {"type": "node", "id": 8999755238, "lat": 42.8652876, "lon": -112.4540831, "tags": {"addr:city": "Pocatello", "addr:housenumber": "502", "addr:postcode": "83204", "addr:state": "ID", "addr:street": "North Main Street", "amenity": "cafe", "name": "Bru House Galilei"}}, {"type": "node", "id": 8999755239, "lat": 42.8653968, "lon": -112.4547605, "tags": {"addr:city": "Pocatello", "addr:housenumber": "537", "addr:postcode": "83204", "addr:state": "ID", "addr:street": "North Main Street", "name": "TKO Clamping Systems", "shop": "car_parts"}}, {"type": "node", "id": 8999755296, "lat": 42.8656652, "lon": -112.4545221, "tags": {"name": "Food For Thought", "shop": "health_food"}}, {"type": "node", "id": 8999755297, "lat": 42.8658881, "lon": -112.454482, "tags": {"name": "Trion's Rides", "shop": "car_repair"}}, {"type": "node", "id": 8999755298, "lat": 42.8661446, "lon": -112.4542391, "tags": {"name": "Sterling Battery Co", "shop": "car_parts"}}, {"type": "node", "id": 8999775126, "lat": 42.8589931, "lon": -112.4560349}, {"type": "node", "id": 8999775127, "lat": 42.8588769, "lon": -112.4562149}, {"type": "node", "id": 8999775128, "lat": 42.8588237, "lon": -112.456151}, {"type": "node", "id": 8999775129, "lat": 42.8588673, "lon": -112.4560835}, {"type": "node", "id": 8999775130, "lat": 42.8588071, "lon": -112.4560113}, {"type": "node", "id": 8999775131, "lat": 42.8588797, "lon": -112.4558988}, {"type": "node", "id": 8999953535, "lat": 42.8585474, "lon": -112.4462558, "tags": {"name": "The Sewing Room", "shop": "sewing"}}, {"type": "node", "id": 8999953537, "lat": 42.8586963, "lon": -112.4464457, "tags": {"addr:housenumber": "538", "addr:state": "ID", "addr:street": "South Main Street", "amenity": "cafe", "facebook": "https://www.facebook.com/XeusandApollos/", "name": "Xeus & Apollo's", "website": "https://xeusefied.wixsite.com/xeus-and-apollos"}}, {"type": "node", "id": 8999953538, "lat": 42.8590562, "lon": -112.4457592, "tags": {"name": "Don Asletts Cleaning Center", "shop": "dry_cleaning"}}, {"type": "node", "id": 8999974485, "lat": 42.8556696, "lon": -112.4426815, "tags": {"name": "Aa Home Guard Siding & Rain Gutters", "shop": "doityourself"}}, {"type": "node", "id": 8999977768, "lat": 42.856412, "lon": -112.4435413, "tags": {"name": "Alpha Engineers Inc", "office": "yes"}}, {"type": "node", "id": 8999977853, "lat": 42.8570602, "lon": -112.44445, "tags": {"addr:city": "Pocatello", "addr:housenumber": "758", "addr:postcode": "83204", "addr:state": "ID", "addr:street": "South Main Street", "name": "Butcher Block Meats", "opening_hours": "Mo-Th 09:00-17:00; Fr 09:00-18:00", "phone": "+1-208-232-5559", "shop": "butcher"}}, {"type": "node", "id": 8999977854, "lat": 42.8556256, "lon": -112.4435183, "tags": {"name": "Quality Overhead Door", "shop": "doors"}}, {"type": "node", "id": 8999977855, "lat": 42.8553014, "lon": -112.4431239, "tags": {"name": "Power Food Equipment", "shop": "wholesale"}}, {"type": "node", "id": 8999986230, "lat": 42.8555494, "lon": -112.4419383, "tags": {"name": "Affordable Supply", "shop": "doityourself"}}, {"type": "node", "id": 8999986231, "lat": 42.8549126, "lon": -112.441378, "tags": {"name": "John's Paint and Glass", "shop": "repair"}}, {"type": "node", "id": 8999986252, "lat": 42.8547621, "lon": -112.4417344, "tags": {"name": "Anchor Salon", "shop": "beauty"}}, {"type": "node", "id": 8999986254, "lat": 42.8542836, "lon": -112.4410488, "tags": {"name": "H&H Intermountain Self Storage", "shop": "storage_rental"}}, {"type": "node", "id": 8999997814, "lat": 42.8524711, "lon": -112.4385944, "tags": {"name": "Bannock Storage & RV Parking", "shop": "storage_rental"}}, {"type": "node", "id": 9008621911, "lat": 42.8621497, "lon": -112.4444918, "tags": {"addr:city": "Pocatello", "addr:housenumber": "358", "addr:postcode": "83201", "addr:state": "ID", "addr:street": "South 1st Avenue", "name": "Pegasus A to Z", "shop": "collector"}}, {"type": "node", "id": 9776806143, "lat": 42.8628569, "lon": -112.4395679, "tags": {"amenity": "cafe", "check_date": "2022-05-28", "check_date:opening_hours": "2023-12-12", "internet_access": "wlan", "internet_access:fee": "no", "name": "5th Street Bagelry", "opening_hours": "07:00-16:00", "payment:mastercard": "yes", "payment:visa": "yes", "wheelchair": "yes"}}, {"type": "node", "id": 9776904564, "lat": 42.8629975, "lon": -112.43917, "tags": {"amenity": "cafe", "check_date": "2022-05-28", "name": "Mocha Madness"}}, {"type": "node", "id": 9776904565, "lat": 42.8627415, "lon": -112.438862, "tags": {"check_date": "2022-05-28", "name": "Vape", "shop": "e-cigarette"}}, {"type": "node", "id": 10879118831, "lat": 42.8624947, "lon": -112.4411096, "tags": {"name": "Bill & Mike's Complete Auto Repair", "shop": "car_repair"}}, {"type": "node", "id": 10879118832, "lat": 42.8634077, "lon": -112.4513835, "tags": {"addr:housenumber": "224", "amenity": "cafe", "cuisine": "bubble_tea", "internet_access": "wlan", "internet_access:fee": "no", "name": "Purpose Tea"}}, {"type": "node", "id": 10879118833, "lat": 42.8640167, "lon": -112.4551534, "tags": {"amenity": "restaurant", "cuisine": "mexican", "name": "El Herradero"}}, {"type": "node", "id": 10879118834, "lat": 42.8646725, "lon": -112.4358275, "tags": {"amenity": "cafe", "name": "College Market"}}, {"type": "node", "id": 11331181500, "lat": 42.8641333, "lon": -112.4525561, "tags": {"addr:city": "Pocatello", "addr:country": "US", "addr:housenumber": "428", "addr:postcode": "83204", "addr:state": "ID", "addr:street": "North Main Street", "addr:unit": "101", "name": "A-Affordable Bail Bonds", "office": "bail_bond_agent", "opening_hours": "24/7", "payment:american_express": "yes", "payment:cash": "yes", "payment:cheque": "yes", "payment:discover_card": "yes", "payment:mastercard": "yes", "payment:visa": "yes", "phone": "+1-208-236-6566", "website": "https://a-affordablebailbonds.net"}}, {"type": "node", "id": 11428163570, "lat": 42.8609473, "lon": -112.4490892, "tags": {"addr:housenumber": "240", "addr:postcode": "83201", "addr:state": "ID", "addr:street": "South Main Street", "name": "Glean Coffee", "name:en": "Glean Coffee Roasters", "shop": "coffee", "website": "https://www.gleancoffee.com"}}, {"type": "node", "id": 11539623050, "lat": 42.8621394, "lon": -112.4388308, "tags": {"addr:city": "Pocatello", "addr:housenumber": "639", "addr:postcode": "83201", "addr:state": "ID", "addr:street": "South 5th Avenue", "description": "We are a team of experienced injury attorneys, working for the people throughout the state of Idaho to give victims of personal injury accidents a voice.", "name": "The Advocates", "office": "lawyer", "phone": "+1 208-995-2444", "website": "https://idahoadvocates.com/pocatello-personal-injury-lawyer/"}}, {"type": "node", "id": 12919568099, "lat": 42.8638488, "lon": -112.454987, "tags": {"collector": "cards", "name": "Xtreme Collectibles", "shop": "collector"}}, {"type": "node", "id": 13318316109, "lat": 42.8596064, "lon": -112.4417148, "tags": {"addr:city": "Pocatello", "addr:housenumber": "711", "addr:postcode": "83201-6520", "addr:state": "ID", "addr:street": "South 2nd Avenue", "amenity": "cafe", "check_date": "2025-11-19", "currency:XBT": "yes", "name": "Idaho Coffee", "payment:lightning": "yes", "payment:lightning:operator": "square", "payment:lightning_contactless": "no", "payment:onchain": "no"}}, {"type": "way", "id": 545117964, "nodes": [5268836245, 5268836246, 5268836247, 5268836248, 5268836249, 5268836250, 5268836251, 5268836252, 5268836253, 5419450646, 5268836254, 5268836245], "tags": {"addr:city": "Pocatello", "addr:housenumber": "911", "addr:postcode": "83204", "addr:state": "ID", "addr:street": "North Main Street", "building": "yes", "name": "Ridley's Family Market", "opening_hours": "Mo-Su 07:00-23:00", "phone": "+1-208-232-3156", "shop": "supermarket", "website": "https://shopridleys.com/"}}, {"type": "way", "id": 546692699, "nodes": [5282884288, 5282884289, 5282884290, 5282884291, 5282884288], "tags": {"addr:city": "Pocatello", "addr:housenumber": "945", "addr:postcode": "83201", "addr:state": "ID", "addr:street": "South 5th Avenue", "amenity": "restaurant", "brand": "Pizza Hut", "brand:wikidata": "Q191615", "building": "yes", "cuisine": "pizza", "name": "Pizza Hut", "phone": "+1 208-234-0449", "website": "https://locations.pizzahut.com/id/pocatello/945-s-5th-ave"}}, {"type": "way", "id": 546693034, "nodes": [5282885100, 5282885101, 5282885102, 5282885103, 5282885104, 5282885105, 5282885100], "tags": {"amenity": "restaurant", "building": "yes", "name": "Elmer's"}}, {"type": "way", "id": 584739596, "nodes": [5588909816, 5588909817, 5588909818, 5588909819, 5588909816], "tags": {"amenity": "bar", "building": "yes", "name": "Hooligans"}}, {"type": "way", "id": 585762814, "nodes": [5597216952, 5597216953, 5597216954, 5597216955, 5597216952], "tags": {"amenity": "restaurant", "building": "yes", "name": "Buddy's Italian Restaurant", "opening_hours": "Mo-Sa 11:00-21:00"}}, {"type": "way", "id": 585762815, "nodes": [5597216956, 5597216957, 5597216958, 5597216959, 5597216960, 5597216961, 5597216956], "tags": {"amenity": "restaurant", "building": "yes", "name": "Oliver's", "opening_hours": "Mo-Su 08:00-21:00"}}, {"type": "way", "id": 631527404, "nodes": [5282882673, 5282882674, 7057416747, 7057416748, 5282882673]}, {"type": "way", "id": 844681485, "nodes": [7880293817, 7880293818, 7880293819, 7880293820, 7880293821, 7880293822, 7880293817], "tags": {"addr:city": "Pocatello", "addr:housenumber": "422", "addr:postcode": "83201", "addr:state": "ID", "addr:street": "East Clark Street", "building": "yes", "name": "Teel Auto Detail", "shop": "car_repair", "source": "microsoft/BuildingFootprints"}}, {"type": "way", "id": 844681493, "nodes": [7880293867, 7880293868, 7880293869, 7880293870, 7880293867], "tags": {"addr:city": "Pocatello", "addr:housenumber": "151", "addr:postcode": "83201", "addr:state": "ID", "addr:street": "North 3rd Avenue", "building": "yes", "name": "The Bernett Group", "office": "consulting", "source": "microsoft/BuildingFootprints"}}, {"type": "way", "id": 860832138, "nodes": [8023234261, 8023234262, 8023234263, 8023234264, 8023234261], "tags": {"addr:city": "Pocatello", "addr:housenumber": "345", "addr:postcode": "83201", "addr:state": "ID", "addr:street": "South 2nd Avenue", "alt_name": "ReStore", "brand": "Habitat for Humanity ReStore", "brand:wikidata": "Q108414596", "building": "yes", "name": "Habitat for Humanity ReStore", "second_hand": "yes", "shop": "charity", "short_name": "Habitat ReStore"}}, {"type": "way", "id": 860840614, "nodes": [8023304570, 8023304571, 8023304572, 8023304573, 8023304570], "tags": {"addr:city": "Pocatello", "addr:housenumber": "400", "addr:postcode": "83201", "addr:state": "ID", "addr:street": "East Center Street", "building": "yes", "name": "Dellart Floral Center", "shop": "florist"}}, {"type": "way", "id": 860840615, "nodes": [8023304574, 8023304575, 8023304576, 8023304577, 8023304574], "tags": {"addr:city": "Pocatello", "addr:housenumber": "252", "addr:postcode": "83201", "addr:state": "ID", "addr:street": "North 3rd Avenue", "building": "yes", "name": "Teel Collision", "shop": "car_repair"}}, {"type": "way", "id": 860840616, "nodes": [8023304578, 8023304579, 8023304580, 8023304581, 8023304582, 8023304583, 8023304584, 8023305085, 8023304578], "tags": {"addr:city": "Pocatello", "addr:housenumber": "285", "addr:postcode": "83201", "addr:state": "ID", "addr:street": "North 4th Avenue", "building": "yes", "name": "Always On", "office": "telecommunication"}}, {"type": "way", "id": 972131923, "nodes": [8997360992, 8997360993, 8997360994, 8997360995, 8997360996, 8997360997, 8997360992], "tags": {"building": "yes", "name": "Idaho Department of Labor", "office": "government", "source": "microsoft/BuildingFootprints"}}, {"type": "way", "id": 972134449, "nodes": [8997371644, 8997371645, 8997371646, 8997371647, 8997371648, 8997371651, 8997371644], "tags": {"addr:city": "Pocatello", "addr:housenumber": "107", "addr:postcode": "83201", "addr:state": "ID", "addr:street": "North 5th Avenue", "amenity": "restaurant", "building": "yes", "cuisine": "chinese", "delivery": "Mo-Th 16:00-19:30;Fr,Sa 16:00-20:00;Su,PH off", "name": "New Hong Kong", "opening_hours": "Mo-Th 11:00-19:30; Fr,Sa 11:00-20:15; Su,PH off", "phone": "+1 208 236-6637;+1 208 236-6639", "source": "microsoft/BuildingFootprints", "takeaway": "Mo-Th 11:00-20:00;Fr,Sa 11:00-20-30;Su,PH off", "website": "https://www.pocatellonewhongkong.com/"}}, {"type": "way", "id": 972136734, "nodes": [8997359978, 8997359979, 8997359980, 8997359981, 8997359982, 8997359983, 8997359984, 8997359985, 8997359986, 8997359987, 8997359978], "tags": {"brand": "Albertsons", "brand:wikidata": "Q2831861", "building": "yes", "name": "Albertsons", "shop": "supermarket", "source": "microsoft/BuildingFootprints"}}, {"type": "way", "id": 972392471, "nodes": [8999775126, 8999775127, 8999775128, 8999775129, 8999775130, 8999775131, 8999775126], "tags": {"addr:city": "Pocatello", "addr:housenumber": "808", "addr:postcode": "83204", "addr:state": "ID", "addr:street": "West Center Street", "building": "yes", "name": "Del Monte Meats", "opening_hours": "Mo-Fr 08:00-18:00, Sa 09:00-17:00", "phone": "+1 208-234-2061", "shop": "butcher", "website": "https://delmontemeats.com/"}}, {"type": "relation", "id": 8785456, "members": [{"type": "way", "ref": 631527404, "role": "outer"}], "tags": {"brand": "Jacksons", "brand:wikidata": "Q64617393", "building": "yes", "name": "Jacksons", "shop": "convenience", "type": "multipolygon"}}]}