{"version": 0.6, "generator": "Overpass API 0.7.62.8 e802775f", "osm3s": {"timestamp_osm_base": "2025-12-06T05:32:12Z", "copyright": "The data included in this document is from www.openstreetmap.org. The data is made available under ODbL."}, "elements": [{"type": "node", "id": 7115679774, "lat": 43.9699394, "lon": -116.8206275}, {"type": "node", "id": 7115695149, "lat": 43.974042, "lon": -116.819545}, {"type": "node", "id": 7115701484, "lat": 43.97482, "lon": -116.82706}, {"type": "node", "id": 7115707134, "lat": 43.975847, "lon": -116.822849}, {"type": "node", "id": 7115712865, "lat": 43.9754233, "lon": -116.8156704}, {"type": "node", "id": 7115716446, "lat": 43.9701463, "lon": -116.8205081}, {"type": "node", "id": 7115716454, "lat": 43.975267, "lon": -116.815897}, {"type": "node", "id": 7115716550, "lat": 43.975181, "lon": -116.815904}, {"type": "node", "id": 7115716634, "lat": 43.97482, "lon": -116.826913}, {"type": "node", "id": 7115716675, "lat": 43.970134, "lon": -116.8207997}, {"type": "node", "id": 7115716686, "lat": 43.975267, "lon": -116.815741}, {"type": "node", "id": 7115716927, "lat": 43.975424, "lon": -116.816125}, {"type": "node", "id": 7115717122, "lat": 43.975426, "lon": -116.816235}, {"type": "node", "id": 7115717204, "lat": 43.976013, "lon": -116.82261}, {"type": "node", "id": 7115717585, "lat": 43.9748285, "lon": -116.8157161}, {"type": "node", "id": 7115717715, "lat": 43.974823, "lon": -116.81575}, {"type": "node", "id": 7115717849, "lat": 43.9698921, "lon": -116.8207154}, {"type": "node", "id": 7115717946, "lat": 43.975269, "lon": -116.816125}, {"type": "node", "id": 7115718036, "lat": 43.974982, "lon": -116.816235}, {"type": "node", "id": 7115718101, "lat": 43.973891, "lon": -116.819545}, {"type": "node", "id": 7115718314, "lat": 43.976067, "lon": -116.824322}, {"type": "node", "id": 7115718701, "lat": 43.974887, "lon": -116.826913}, {"type": "node", "id": 7115718816, "lat": 43.9754288, "lon": -116.8156375}, {"type": "node", "id": 7115719027, "lat": 43.975183, "lon": -116.816128}, {"type": "node", "id": 7115719081, "lat": 43.969953, "lon": -116.8206273}, {"type": "node", "id": 7115719150, "lat": 43.976067, "lon": -116.824493}, {"type": "node", "id": 7115719316, "lat": 43.974042, "lon": -116.819429}, {"type": "node", "id": 7115719554, "lat": 43.97624, "lon": -116.824493}, {"type": "node", "id": 7115719626, "lat": 43.974887, "lon": -116.826972}, {"type": "node", "id": 7115719702, "lat": 43.970513, "lon": -116.818958}, {"type": "node", "id": 7115719735, "lat": 43.9748229, "lon": -116.8156519}, {"type": "node", "id": 7115719871, "lat": 43.97518, "lon": -116.815746}, {"type": "node", "id": 7115720126, "lat": 43.975269, "lon": -116.816007}, {"type": "node", "id": 7115720256, "lat": 43.973891, "lon": -116.819429}, {"type": "node", "id": 7115720310, "lat": 43.975424, "lon": -116.816007}, {"type": "node", "id": 7115720336, "lat": 43.974993, "lon": -116.816007}, {"type": "node", "id": 7115720465, "lat": 43.97624, "lon": -116.824322}, {"type": "node", "id": 7115720715, "lat": 43.970514, "lon": -116.818867}, {"type": "node", "id": 7115720726, "lat": 43.975847, "lon": -116.82261}, {"type": "node", "id": 7115720890, "lat": 43.976013, "lon": -116.822849}, {"type": "node", "id": 7115720982, "lat": 43.974934, "lon": -116.82706}, {"type": "node", "id": 7115721035, "lat": 43.97541, "lon": -116.815897}, {"type": "node", "id": 7115721069, "lat": 43.970334, "lon": -116.818866}, {"type": "node", "id": 7115721216, "lat": 43.975183, "lon": -116.816007}, {"type": "node", "id": 7115721290, "lat": 43.974824, "lon": -116.815908}, {"type": "node", "id": 7115721354, "lat": 43.974993, "lon": -116.816128}, {"type": "node", "id": 7115721382, "lat": 43.975426, "lon": -116.816315}, {"type": "node", "id": 7115721406, "lat": 43.9698934, "lon": -116.8208063}, {"type": "node", "id": 7115721419, "lat": 43.97541, "lon": -116.815741}, {"type": "node", "id": 7115721575, "lat": 43.974982, "lon": -116.816315}, {"type": "node", "id": 7115721856, "lat": 43.974934, "lon": -116.826972}, {"type": "node", "id": 7115721933, "lat": 43.970334, "lon": -116.818957}, {"type": "node", "id": 10972358267, "lat": 43.9707909, "lon": -116.8195254, "tags": {"amenity": "restaurant", "cuisine": "italian;pizza", "name": "Garbonzo's Pizza"}}, {"type": "node", "id": 10972362277, "lat": 43.9735327, "lon": -116.820144, "tags": {"name": "EZ Mart", "shop": "convenience"}}, {"type": "node", "id": 10972367975, "lat": 43.9697829, "lon": -116.8194952, "tags": {"name": "Lowell's Mini Mart", "shop": "convenience"}}, {"type": "node", "id": 10972379496, "lat": 43.9704059, "lon": -116.8194523, "tags": {"addr:city": "New Plymouth", "addr:housenumber": "102", "addr:postcode": "83655", "addr:state": "ID", "addr:street": "Plymouth Avenue", "name": "DJ's Pilgrim Market", "shop": "supermarket"}}, {"type": "node", "id": 10972381298, "lat": 43.9705154, "lon": -116.8201003, "tags": {"name": "Laundry King", "self_service": "yes", "shop": "laundry"}}, {"type": "node", "id": 10972383867, "lat": 43.970589, "lon": -116.8201079, "tags": {"brand": "NAPA Auto Parts", "brand:wikidata": "Q6970842", "name": "NAPA Auto Parts", "shop": "car_parts"}}, {"type": "node", "id": 10972414896, "lat": 43.9724864, "lon": -116.8199622, "tags": {"name": "A Plus Awards", "shop": "trophy"}}, {"type": "node", "id": 10972421718, "lat": 43.970722, "lon": -116.8199982, "tags": {"amenity": "bar", "name": "The Club"}}, {"type": "node", "id": 10972422175, "lat": 43.9714575, "lon": -116.8204256}, {"type": "node", "id": 10972422176, "lat": 43.9712524, "lon": -116.8198942}, {"type": "node", "id": 10972422177, "lat": 43.9714529, "lon": -116.819891}, {"type": "node", "id": 10972422178, "lat": 43.9712568, "lon": -116.8204288}, {"type": "node", "id": 11369885370, "lat": 43.9708616, "lon": -116.8199437, "tags": {"name": "DO DROP IN", "shop": "antiques"}}, {"type": "node", "id": 11369885372, "lat": 43.9708794, "lon": -116.819569, "tags": {"name": "Overhead Door Company of New Plymouth", "shop": "houseware"}}, {"type": "node", "id": 11369885374, "lat": 43.9711396, "lon": -116.8195748, "tags": {"name": "New Plymouth Thrift Store", "shop": "second_hand"}}, {"type": "node", "id": 11369885375, "lat": 43.9712306, "lon": -116.8195893, "tags": {"name": "New Plymouth Senior Citizens", "office": "association"}}, {"type": "node", "id": 11369885376, "lat": 43.9714103, "lon": -116.8199396, "tags": {"name": "Waldo Real Estate", "office": "estate_agent"}}, {"type": "node", "id": 11401342705, "lat": 43.9714046, "lon": -116.8192638, "tags": {"name": "KJ's Neighborhood Barbershop", "shop": "hairdresser"}}, {"type": "node", "id": 11494940034, "lat": 43.9759049, "lon": -116.8232721, "tags": {"name": "Northwest Equine, Inc.", "shop": "agrarian"}}, {"type": "node", "id": 11608426556, "lat": 43.9749021, "lon": -116.818591, "tags": {"brand": "Family Dollar", "brand:wikidata": "Q5433101", "name": "Family Dollar", "shop": "variety_store"}}, {"type": "node", "id": 11608426557, "lat": 43.9748468, "lon": -116.8185895, "tags": {"brand": "Dollar Tree", "brand:wikidata": "Q5289230", "name": "Dollar Tree", "shop": "variety_store"}}, {"type": "node", "id": 12164266861, "lat": 43.9710477, "lon": -116.820706, "tags": {"name": "Viper Strike Industries", "shop": "weapons"}}, {"type": "node", "id": 12164266862, "lat": 43.9717805, "lon": -116.8207894, "tags": {"brand": "U-Haul", "brand:wikidata": "Q7862902", "name": "U-Haul", "shop": "rental"}}, {"type": "node", "id": 12241650709, "lat": 43.9706645, "lon": -116.8200526, "tags": {"name": "Yappy Hour", "shop": "pet_grooming"}}, {"type": "node", "id": 12241650710, "lat": 43.9706482, "lon": -116.8195594, "tags": {"name": "Grand Slam Salon", "shop": "hairdresser"}}, {"type": "node", "id": 13312774003, "lat": 43.970004, "lon": -116.8205121}, {"type": "node", "id": 13312774004, "lat": 43.9701314, "lon": -116.8206177}, {"type": "node", "id": 13312774005, "lat": 43.9701479, "lon": -116.8206172}, {"type": "node", "id": 13312774006, "lat": 43.9699526, "lon": -116.8205687}, {"type": "node", "id": 13312774007, "lat": 43.9699661, "lon": -116.8205374}, {"type": "node", "id": 13312774008, "lat": 43.9700044, "lon": -116.8205364}, {"type": "way", "id": 761600289, "nodes": [7115721035, 7115716454, 7115716686, 7115721419, 7115721035], "tags": {"building": "yes", "shop": "storage_rental", "source": "microsoft/BuildingFootprints"}}, {"type": "way", "id": 761600375, "nodes": [7115716446, 13312774005, 13312774004, 7115716675, 7115721406, 7115717849, 7115679774, 7115719081, 13312774006, 13312774007, 13312774008, 13312774003, 7115716446], "tags": {"building": "yes", "name": "Payette Valley Co-Op", "shop": "agrarian", "source": "microsoft/BuildingFootprints"}}, {"type": "way", "id": 761600434, "nodes": [7115719150, 7115718314, 7115720465, 7115719554, 7115719150], "tags": {"building": "yes", "name": "J-Bar Poultry Processing", "shop": "butcher", "source": "microsoft/BuildingFootprints"}}, {"type": "way", "id": 761600566, "nodes": [7115707134, 7115720726, 7115717204, 7115720890, 7115707134], "tags": {"building": "yes", "name": "Platinum Honey Salon", "shop": "hairdresser", "source": "microsoft/BuildingFootprints"}}, {"type": "way", "id": 761600655, "nodes": [7115719871, 7115716550, 7115721290, 7115717715, 7115719871], "tags": {"building": "yes", "shop": "storage_rental", "source": "microsoft/BuildingFootprints"}}, {"type": "way", "id": 761600688, "nodes": [7115717946, 7115720126, 7115720310, 7115716927, 7115717946], "tags": {"building": "yes", "shop": "storage_rental", "source": "microsoft/BuildingFootprints"}}, {"type": "way", "id": 761600712, "nodes": [7115720715, 7115719702, 7115721933, 7115721069, 7115720715], "tags": {"building": "yes", "name": "Lox Salon", "shop": "hairdresser", "source": "microsoft/BuildingFootprints"}}, {"type": "way", "id": 761600892, "nodes": [7115721382, 7115721575, 7115718036, 7115717122, 7115721382], "tags": {"building": "yes", "shop": "storage_rental", "source": "microsoft/BuildingFootprints"}}, {"type": "way", "id": 761601040, "nodes": [7115695149, 7115718101, 7115720256, 7115719316, 7115695149], "tags": {"amenity": "cafe", "building": "yes", "cuisine": "coffee_shop", "name": "BB's Cruisin' Coffee", "source": "microsoft/BuildingFootprints"}}, {"type": "way", "id": 761601063, "nodes": [7115719626, 7115721856, 7115720982, 7115701484, 7115716634, 7115718701, 7115719626], "tags": {"building": "yes", "name": "Bighorn Gunsmithing, LLC", "shop": "weapons", "source": "microsoft/BuildingFootprints"}}, {"type": "way", "id": 761601114, "nodes": [7115721216, 7115719027, 7115721354, 7115720336, 7115721216], "tags": {"building": "yes", "shop": "storage_rental", "source": "microsoft/BuildingFootprints"}}, {"type": "way", "id": 761601169, "nodes": [7115712865, 7115717585, 7115719735, 7115718816, 7115712865], "tags": {"building": "yes", "shop": "storage_rental", "source": "microsoft/BuildingFootprints"}}, {"type": "way", "id": 1181524387, "nodes": [10972422175, 10972422178, 10972422176, 10972422177, 10972422175], "tags": {"amenity": "restaurant", "building": "yes", "name": "Double Diamond"}}]}