{"version": 0.6, "generator": "Overpass API 0.7.62.8 e802775f", "osm3s": {"timestamp_osm_base": "2025-12-12T18:54:45Z", "copyright": "The data included in this document is from www.openstreetmap.org. The data is made available under ODbL."}, "elements": [{"type": "node", "id": 1718012135, "lat": 37.235992, "lon": -107.6016174, "tags": {"amenity": "fire_station", "name": "Upper Pine Fire Protection District"}}, {"type": "node", "id": 1718013294, "lat": 37.227612, "lon": -107.6021217, "tags": {"amenity": "post_office", "name": "Bayfield Post Office"}}, {"type": "node", "id": 1718014257, "lat": 37.2254592, "lon": -107.6040207, "tags": {"amenity": "townhall", "name": "Bayfied, CO Town Hall"}}, {"type": "node", "id": 1718016187, "lat": 37.2256557, "lon": -107.6042997, "tags": {"amenity": "police", "name": "Bayfield Marshall"}}, {"type": "node", "id": 1718016836, "lat": 37.2240496, "lon": -107.5982915, "tags": {"amenity": "school", "name": "Bayfield"}}, {"type": "node", "id": 1718030409, "lat": 37.23429, "lon": -107.5962608, "tags": {"amenity": "library", "name": "Lavenia McCoy Public Library"}}, {"type": "node", "id": 1718030558, "lat": 37.2259013, "lon": -107.5938575, "tags": {"addr:city": "Bayfield", "addr:housenumber": "511", "addr:postcode": "81122", "addr:state": "CO", "addr:street": "East Mustang Street", "amenity": "school", "name": "Bayfield Elementary School"}}, {"type": "node", "id": 1718031412, "lat": 37.2346146, "lon": -107.5982349, "tags": {"amenity": "bank", "atm": "yes", "name": "First National Bank of Durango Bayfield Branch"}}, {"type": "node", "id": 1718032273, "lat": 37.2334956, "lon": -107.5953864, "tags": {"amenity": "bank", "atm": "yes", "name": "Pine River Valley Bank"}}, {"type": "node", "id": 1718032428, "lat": 37.2329574, "lon": -107.5941848, "tags": {"amenity": "fuel", "brand": "Marathon", "building": "yes", "fuel:diesel": "yes", "fuel:gasoline": "yes", "name": "Mini-Merc"}}, {"type": "node", "id": 1718032493, "lat": 37.2330514, "lon": -107.5943028, "tags": {"shop": "convenience"}}, {"type": "node", "id": 1718032732, "lat": 37.2329446, "lon": -107.5945817, "tags": {"name": "Bayfield Liquor", "shop": "alcohol"}}, {"type": "node", "id": 1718033530, "lat": 37.2326627, "lon": -107.5956385, "tags": {"name": "Sundown Bakery", "shop": "bakery"}}, {"type": "node", "id": 1718035099, "lat": 37.2327652, "lon": -107.5956814, "tags": {"name": "The Grocery Store", "shop": "supermarket"}}, {"type": "node", "id": 1718035973, "lat": 37.2342857, "lon": -107.5935142, "tags": {"name": "Pine River Napa", "shop": "car_repair"}}, {"type": "node", "id": 1718035977, "lat": 37.2328635, "lon": -107.5957351, "tags": {"name": "Bayfield Laundry", "shop": "laundry"}}, {"type": "node", "id": 1718038621, "lat": 37.2343925, "lon": -107.5999086, "tags": {"name": "Lewis True Value Mercantile", "shop": "doityourself"}}, {"type": "node", "id": 1718039625, "lat": 37.2300829, "lon": -107.6002358, "tags": {"addr:city": "Bayfield", "addr:housenumber": "650", "addr:postcode": "81321", "addr:state": "CO", "addr:street": "Buck Highway", "amenity": "fuel", "brand": "Speedway", "brand:wikidata": "Q7575683", "name": "Speedway", "ref": "9491", "website": "https://www.speedway.com/locations/CO/Bayfield/650-South-Buck-Highway"}}, {"type": "node", "id": 1718039827, "lat": 37.2302073, "lon": -107.6000807, "tags": {"addr:city": "Bayfield", "addr:housenumber": "650", "addr:postcode": "81321", "addr:state": "CO", "addr:street": "Buck Highway", "brand": "Speedway", "brand:wikidata": "Q7575683", "name": "Speedway", "ref": "9491", "shop": "convenience", "website": "https://www.speedway.com/locations/CO/Bayfield/650-South-Buck-Highway"}}, {"type": "node", "id": 1718041112, "lat": 37.2339739, "lon": -107.5866746, "tags": {"amenity": "fuel", "brand": "Conoco"}}, {"type": "node", "id": 1718041115, "lat": 37.2337646, "lon": -107.5866102, "tags": {"shop": "convenience"}}, {"type": "node", "id": 1718042247, "lat": 37.233944, "lon": -107.5864385, "tags": {"name": "Wells Liquor", "shop": "alcohol"}}, {"type": "node", "id": 1718042849, "lat": 37.2321203, "lon": -107.5864975, "tags": {"name": "Bayfield Gardens", "shop": "garden_centre"}}, {"type": "node", "id": 1718044164, "lat": 37.2314198, "lon": -107.5929134, "tags": {"amenity": "place_of_worship", "check_date": "2025-09-15", "name": "Bayfield Church of Christ", "religion": "christian"}}, {"type": "node", "id": 3793027517, "lat": 37.2271039, "lon": -107.6007592, "tags": {"addr:city": "Bayfield", "addr:housenumber": "367", "addr:postcode": "81122", "addr:state": "CO", "addr:street": "South Pearl Street", "amenity": "ranger_station", "name": "Columbine Ranger District", "opening_hours": "Mo-Fr 08:00-16:30", "operator": "US Forest Service", "phone": "+1-970-884-2512", "website": "https://www.fs.usda.gov/detail/sanjuan/about-forest/offices"}}, {"type": "node", "id": 6418085848, "lat": 37.2328377, "lon": -107.5862883}, {"type": "node", "id": 6418085849, "lat": 37.2328131, "lon": -107.5863272}, {"type": "node", "id": 6418085850, "lat": 37.2327832, "lon": -107.586287}, {"type": "node", "id": 6418085851, "lat": 37.2327127, "lon": -107.5862843}, {"type": "node", "id": 6418085852, "lat": 37.2326775, "lon": -107.5862092}, {"type": "node", "id": 6418085853, "lat": 37.2327384, "lon": -107.5861461}, {"type": "node", "id": 6418085854, "lat": 37.232732, "lon": -107.5859369}, {"type": "node", "id": 6418085855, "lat": 37.2328708, "lon": -107.5859249}, {"type": "node", "id": 6418085856, "lat": 37.2328729, "lon": -107.5861301}, {"type": "node", "id": 6418085857, "lat": 37.2329338, "lon": -107.5862025}, {"type": "node", "id": 6418085858, "lat": 37.2329017, "lon": -107.5862749}, {"type": "node", "id": 7186919255, "lat": 37.2327021, "lon": -107.5866745}, {"type": "node", "id": 7186919256, "lat": 37.2329882, "lon": -107.5862226}, {"type": "node", "id": 7186919257, "lat": 37.2328996, "lon": -107.5861086}, {"type": "node", "id": 7186919258, "lat": 37.2329039, "lon": -107.5859208}, {"type": "node", "id": 7186919259, "lat": 37.2330288, "lon": -107.5859208}, {"type": "node", "id": 7186919260, "lat": 37.2331473, "lon": -107.5860871}, {"type": "node", "id": 7186919261, "lat": 37.2327341, "lon": -107.5867161}, {"type": "node", "id": 7231144843, "lat": 37.224945, "lon": -107.599131}, {"type": "node", "id": 7258305694, "lat": 37.22515, "lon": -107.59913}, {"type": "node", "id": 7258305697, "lat": 37.22515, "lon": -107.599016}, {"type": "node", "id": 7258305699, "lat": 37.224944, "lon": -107.599017}, {"type": "node", "id": 7258310250, "lat": 37.225968, "lon": -107.603015}, {"type": "node", "id": 7258310251, "lat": 37.226185, "lon": -107.602981}, {"type": "node", "id": 7258310252, "lat": 37.226178, "lon": -107.60291}, {"type": "node", "id": 7258310254, "lat": 37.225961, "lon": -107.602944}, {"type": "way", "id": 684974554, "nodes": [6418085858, 6418085857, 6418085856, 6418085855, 6418085854, 6418085853, 6418085852, 6418085851, 6418085850, 6418085849, 6418085848, 6418085858], "tags": {"addr:city": "Bayfield", "addr:housenumber": "1749", "addr:postcode": "81122", "addr:state": "CO", "addr:street": "CR 526", "amenity": "place_of_worship", "building": "church", "denomination": "roman_catholic", "description": "A mission of Saint Ignatius Parish in Ignacio, CO", "description_1": "Mail goes to:PO Box 488 Bayfield, CO 81122", "diocese": "Pueblo", "name": "Saint Bartholomew Catholic Mission", "phone": "+1 970-563-4241", "religion": "christian", "website": "http://www.stbartsbayfield.com"}}, {"type": "way", "id": 769851519, "nodes": [7186919261, 7186919260, 7186919259, 7186919258, 7186919257, 7186919256, 7186919255, 7186919261], "tags": {"amenity": "parking", "operator": "Saint Bartholomew Catholic Mission"}}, {"type": "way", "id": 777746989, "nodes": [7231144843, 7258305699, 7258305697, 7258305694, 7231144843], "tags": {"addr:city": "Bayfield", "addr:housenumber": "118", "addr:state": "CO", "addr:street": "East Mill Street", "amenity": "restaurant", "building": "yes", "cuisine": "burger", "name": "Bottom Shelf Brewery", "opening_hours": "Mo-Sa 11:00-23:00, Su 10:00-00:00"}}, {"type": "way", "id": 777747929, "nodes": [7258310250, 7258310254, 7258310252, 7258310251, 7258310250], "tags": {"addr:city": "Bayfield", "addr:housenumber": "1248", "addr:postcode": "81122", "addr:state": "CO", "addr:street": "Bayfield Pkwy Box 226", "amenity": "restaurant", "building": "yes", "name": "Eepa's Pizzeria"}}]}