{"version": 0.6, "generator": "Overpass API 0.7.62.8 e802775f", "osm3s": {"timestamp_osm_base": "2025-12-13T01:24:15Z", "copyright": "The data included in this document is from www.openstreetmap.org. The data is made available under ODbL."}, "elements": [{"type": "node", "id": 6191399996, "lat": 38.5516613, "lon": -106.1906654, "tags": {"amenity": "fire_station", "name": "Pondorosa Lodge Colorado Firecamp"}}, {"type": "node", "id": 10854552839, "lat": 38.5373141, "lon": -106.1755919, "tags": {"access": "customers", "self_service": "yes", "shop": "laundry"}}, {"type": "node", "id": 10854552840, "lat": 38.5375656, "lon": -106.1749105, "tags": {"shop": "convenience"}}, {"type": "node", "id": 10854552877, "lat": 38.5375274, "lon": -106.1749383, "tags": {"amenity": "reception_desk"}}, {"type": "node", "id": 10855310013, "lat": 38.5373404, "lon": -106.1755302, "tags": {"access": "customers", "amenity": "toilets"}}, {"type": "node", "id": 10879234521, "lat": 38.5387088, "lon": -106.1769806, "tags": {"amenity": "drinking_water"}}, {"type": "node", "id": 10879234524, "lat": 38.5383921, "lon": -106.1779214, "tags": {"amenity": "waste_disposal"}}]}