{"version": 0.6, "generator": "Overpass API 0.7.62.8 e802775f", "osm3s": {"timestamp_osm_base": "2025-12-08T22:07:45Z", "copyright": "The data included in this document is from www.openstreetmap.org. The data is made available under ODbL."}, "elements": [{"type": "node", "id": 1860838943, "lat": 45.8275611, "lon": -108.4871956, "tags": {"amenity": "fuel", "brand": "Conoco", "name": "Conoco"}}, {"type": "node", "id": 1860838944, "lat": 45.8277181, "lon": -108.4872948, "tags": {"name": "ConoMart", "shop": "convenience"}}, {"type": "node", "id": 1860844736, "lat": 45.8294335, "lon": -108.470562, "tags": {"alt_name": "Sally Beauty Supply", "brand": "Sally Beauty", "brand:wikidata": "Q7405065", "name": "Sally Beauty", "old_name": "Payless", "shop": "hairdresser_supply"}}, {"type": "node", "id": 1860844739, "lat": 45.8290937, "lon": -108.4666399}, {"type": "node", "id": 1860844743, "lat": 45.8294384, "lon": -108.4703751, "tags": {"brand": "GameStop", "brand:wikidata": "Q202210", "name": "GameStop", "shop": "video_games"}}, {"type": "node", "id": 1868199607, "lat": 45.8296783, "lon": -108.4678604}, {"type": "node", "id": 1868199608, "lat": 45.8296831, "lon": -108.4663961}, {"type": "node", "id": 1868199609, "lat": 45.8295821, "lon": -108.4663954}, {"type": "node", "id": 1868199610, "lat": 45.8295813, "lon": -108.4666432}, {"type": "node", "id": 1868199611, "lat": 45.8283909, "lon": -108.4666352}, {"type": "node", "id": 1868199612, "lat": 45.8283899, "lon": -108.4669405}, {"type": "node", "id": 1868199613, "lat": 45.8283115, "lon": -108.46694}, {"type": "node", "id": 1868199614, "lat": 45.8283113, "lon": -108.4669897}, {"type": "node", "id": 1868199615, "lat": 45.8280705, "lon": -108.4669881}, {"type": "node", "id": 1868199616, "lat": 45.8280698, "lon": -108.4671976}, {"type": "node", "id": 1868199617, "lat": 45.8282998, "lon": -108.4671992}, {"type": "node", "id": 1868199618, "lat": 45.8282986, "lon": -108.4675272}, {"type": "node", "id": 1868199619, "lat": 45.8281042, "lon": -108.4675259}, {"type": "node", "id": 1868199620, "lat": 45.8281022, "lon": -108.468117}, {"type": "node", "id": 1868199621, "lat": 45.8283033, "lon": -108.4681184}, {"type": "node", "id": 1868199622, "lat": 45.8283041, "lon": -108.4678958}, {"type": "node", "id": 1868199623, "lat": 45.8286248, "lon": -108.467898}, {"type": "node", "id": 1868199624, "lat": 45.8286241, "lon": -108.4680983}, {"type": "node", "id": 1868199625, "lat": 45.8287557, "lon": -108.4680992, "tags": {"entrance": "yes"}}, {"type": "node", "id": 1868199626, "lat": 45.8288017, "lon": -108.4680998}, {"type": "node", "id": 1868199627, "lat": 45.8288021, "lon": -108.4680214}, {"type": "node", "id": 1868199628, "lat": 45.8293222, "lon": -108.4680275, "tags": {"entrance": "yes"}}, {"type": "node", "id": 1868199629, "lat": 45.8295413, "lon": -108.468029}, {"type": "node", "id": 1868199630, "lat": 45.8295418, "lon": -108.4678595}, {"type": "node", "id": 1868201735, "lat": 45.8271081, "lon": -108.4694785}, {"type": "node", "id": 1868201737, "lat": 45.8263747, "lon": -108.4694229}, {"type": "node", "id": 1868201743, "lat": 45.8256684, "lon": -108.4691109}, {"type": "node", "id": 1868201744, "lat": 45.8258005, "lon": -108.4691115}, {"type": "node", "id": 1868201745, "lat": 45.8258006, "lon": -108.469058}, {"type": "node", "id": 1868201746, "lat": 45.8257653, "lon": -108.4690578}, {"type": "node", "id": 1868201747, "lat": 45.8257656, "lon": -108.4689396}, {"type": "node", "id": 1868201749, "lat": 45.8259076, "lon": -108.4689403}, {"type": "node", "id": 1868201752, "lat": 45.8263806, "lon": -108.4687443}, {"type": "node", "id": 1868201754, "lat": 45.8268042, "lon": -108.4687697}, {"type": "node", "id": 1872211728, "lat": 45.8280727, "lon": -108.4722082}, {"type": "node", "id": 1872211729, "lat": 45.8277525, "lon": -108.4722035}, {"type": "node", "id": 1872211730, "lat": 45.827759, "lon": -108.4717534}, {"type": "node", "id": 1872211731, "lat": 45.8278044, "lon": -108.4716978}, {"type": "node", "id": 1872211732, "lat": 45.8280777, "lon": -108.4716995}, {"type": "node", "id": 1872211769, "lat": 45.8269424, "lon": -108.4717203}, {"type": "node", "id": 1872211770, "lat": 45.8269417, "lon": -108.4719465}, {"type": "node", "id": 1872211771, "lat": 45.8268477, "lon": -108.4719459}, {"type": "node", "id": 1872211772, "lat": 45.8268484, "lon": -108.47171}, {"type": "node", "id": 1872211773, "lat": 45.826786, "lon": -108.4717097}, {"type": "node", "id": 1872211774, "lat": 45.8267873, "lon": -108.4712778}, {"type": "node", "id": 1872211775, "lat": 45.8269925, "lon": -108.4712791}, {"type": "node", "id": 1872211776, "lat": 45.8269922, "lon": -108.4713798}, {"type": "node", "id": 1872211777, "lat": 45.8270476, "lon": -108.4713801}, {"type": "node", "id": 1872211778, "lat": 45.8270468, "lon": -108.4716419}, {"type": "node", "id": 1872211779, "lat": 45.8270017, "lon": -108.4716416}, {"type": "node", "id": 1872211780, "lat": 45.8270015, "lon": -108.4717207}, {"type": "node", "id": 1872211796, "lat": 45.8272415, "lon": -108.4738211}, {"type": "node", "id": 1872211797, "lat": 45.8272406, "lon": -108.4735755}, {"type": "node", "id": 1872211798, "lat": 45.8268712, "lon": -108.4735781}, {"type": "node", "id": 1872211799, "lat": 45.8268721, "lon": -108.4738237}, {"type": "node", "id": 2699348836, "lat": 45.827641, "lon": -108.4701901, "tags": {"addr:city": "Billings", "addr:housenumber": "1633", "addr:postcode": "59105", "addr:state": "MT", "addr:street": "Main Street", "amenity": "fast_food", "branch": "Wicks & Main St", "brand": "Panda Express", "brand:wikidata": "Q1358690", "cuisine": "chinese", "indoor_seating": "yes", "name": "Panda Express", "opening_hours": "Mo-Sa 10:00-22:30; Su 10:00-21:30", "outdoor_seating": "no", "phone": "+1 406-248-6699", "takeaway": "yes", "website": "https://www.pandaexpress.com/locations/mt/billings/2135"}}, {"type": "node", "id": 2699348837, "lat": 45.8294395, "lon": -108.470163, "tags": {"amenity": "fast_food", "brand": "Little Caesars", "brand:wikidata": "Q1393809", "cuisine": "pizza", "name": "Little Caesars", "takeaway": "yes", "website": "https://littlecaesars.com/en-us/store/7531/"}}, {"type": "node", "id": 2999141417, "lat": 45.824741, "lon": -108.4717396}, {"type": "node", "id": 2999141418, "lat": 45.8247416, "lon": -108.4719387}, {"type": "node", "id": 2999141544, "lat": 45.8250941, "lon": -108.4717375}, {"type": "node", "id": 3294365743, "lat": 45.8266448, "lon": -108.4793598, "tags": {"addr:city": "Billings", "addr:housenumber": "244", "addr:postcode": "59105", "addr:street": "East Wicks Lane", "amenity": "place_of_worship", "denomination": "methodist", "name": "Hope United Methodist Church", "phone": "+1 406-259-4673", "religion": "christian", "website": "http://billingshopeumc.org/"}}, {"type": "node", "id": 3294365746, "lat": 45.827669, "lon": -108.4655312, "tags": {"addr:city": "Billings", "addr:housenumber": "1605", "addr:postcode": "59105", "addr:street": "Bench Boulevard", "amenity": "place_of_worship", "denomination": "baptist", "name": "Wicks Lane Baptist Church", "phone": "+1 406-256-1913", "religion": "christian", "website": "https://www.wickslanebaptist.com/"}}, {"type": "node", "id": 4117881308, "lat": 45.8412415, "lon": -108.469376}, {"type": "node", "id": 4117881309, "lat": 45.8423907, "lon": -108.4682538}, {"type": "node", "id": 4117881315, "lat": 45.8428623, "lon": -108.4678564}, {"type": "node", "id": 4117881316, "lat": 45.8424086, "lon": -108.4682944}, {"type": "node", "id": 4359438540, "lat": 45.8208785, "lon": -108.470586, "tags": {"amenity": "fuel", "brand": "Conoco", "brand:wikidata": "Q1126518", "name": "Conoco", "source": "Bing"}}, {"type": "node", "id": 4359438541, "lat": 45.8271056, "lon": -108.4704861, "tags": {"amenity": "fuel", "brand": "Cenex", "brand:wikidata": "Q62127191", "name": "Cenex", "source": "Bing"}}, {"type": "node", "id": 4359438548, "lat": 45.8413543, "lon": -108.4665438, "tags": {"name": "Blue Basket", "shop": "convenience", "source": "Bing"}}, {"type": "node", "id": 4359438549, "lat": 45.8409393, "lon": -108.4667157, "tags": {"amenity": "car_wash", "automated": "yes", "self_service": "no", "source": "Bing"}}, {"type": "node", "id": 4359438554, "lat": 45.8218617, "lon": -108.470358, "tags": {"amenity": "bank", "atm": "yes", "brand": "Wells Fargo", "brand:wikidata": "Q744149", "name": "Wells Fargo", "source": "Bing"}}, {"type": "node", "id": 4359438561, "lat": 45.8255456, "lon": -108.4715584, "tags": {"amenity": "car_wash", "automated": "yes", "name": "Heights Car & RV Wash", "self_service": "yes", "source": "Bing"}}, {"type": "node", "id": 4359438563, "lat": 45.840545, "lon": -108.468486, "tags": {"amenity": "fuel", "brand": "Conoco", "brand:wikidata": "Q109341187", "name": "Conoco", "source": "Bing", "website": "https://www.conoco.com/station/CON-DONS-XPRESS-CENTER-5-0000881689/"}}, {"type": "node", "id": 4359438565, "lat": 45.8271081, "lon": -108.4701338, "tags": {"name": "Zip Trip", "shop": "convenience", "source": "Bing"}}, {"type": "node", "id": 4359438566, "lat": 45.8415143, "lon": -108.466451, "tags": {"amenity": "fuel", "brand": "Exxon", "brand:wikidata": "Q109675651", "name": "Exxon", "source": "Bing"}}, {"type": "node", "id": 4359438572, "lat": 45.8249944, "lon": -108.47028, "tags": {"amenity": "car_wash", "automated": "yes", "name": "Don's Car Wash", "self_service": "no", "source": "Bing"}}, {"type": "node", "id": 4359438573, "lat": 45.8210498, "lon": -108.471405, "tags": {"addr:city": "Billings", "addr:housenumber": "1226", "addr:postcode": "59105", "addr:state": "MT", "addr:street": "East Main", "amenity": "fast_food", "brand": "Wendy's", "brand:wikidata": "Q550258", "cuisine": "burger", "name": "Wendy's", "opening_hours": "09:00-22:00", "opening_hours:drive_through": "Mo-Th 06:30-23:30; Fr-Sa 06:30-00:30; Su 06:30-23:30", "phone": "+1 406-245-6500", "source": "Bing", "takeaway": "yes", "website": "https://locations.wendys.com/united-states/mt/billings/1226-east-main"}}, {"type": "node", "id": 4359438574, "lat": 45.8413765, "lon": -108.466798, "tags": {"amenity": "fuel", "brand": "Exxon", "brand:wikidata": "Q109675651", "name": "Exxon", "source": "Bing"}}, {"type": "node", "id": 4359438577, "lat": 45.8229776, "lon": -108.4714123, "tags": {"shop": "convenience", "source": "Bing"}}, {"type": "node", "id": 4359438581, "lat": 45.824886, "lon": -108.470253, "tags": {"name": "3-G's Convenience Center", "shop": "convenience", "source": "Bing"}}, {"type": "node", "id": 4359438990, "lat": 45.8404927, "lon": -108.4688293, "tags": {"shop": "convenience", "source": "Bing"}}, {"type": "node", "id": 4359438992, "lat": 45.825869, "lon": -108.470387, "tags": {"addr:city": "Billings", "addr:housenumber": "1507", "addr:postcode": "59105", "addr:state": "MT", "addr:street": "Main Street", "amenity": "fast_food", "brand": "Arby's", "brand:wikidata": "Q630866", "check_date": "2024-06-21", "cuisine": "sandwich", "name": "Arby's", "opening_hours": "10:00-24:00", "phone": "+1 406-252-9339", "source": "Bing", "takeaway": "yes", "website": "https://www.arbys.com/locations/us/mt/billings/1507-main-st/store-1108/"}}, {"type": "node", "id": 4359438993, "lat": 45.8208598, "lon": -108.470355, "tags": {"brand": "Conoco", "brand:wikidata": "Q1126518", "name": "Conoco", "shop": "convenience", "source": "Bing"}}, {"type": "node", "id": 4359439016, "lat": 45.8247495, "lon": -108.470237, "tags": {"amenity": "fuel", "brand": "Conoco", "brand:wikidata": "Q1126518", "name": "Conoco", "source": "Bing"}}, {"type": "node", "id": 4359439017, "lat": 45.8228954, "lon": -108.4712352, "tags": {"amenity": "fuel", "source": "Bing"}}, {"type": "node", "id": 4359449386, "lat": 45.8412525, "lon": -108.466456, "tags": {"amenity": "fast_food", "brand": "Blimpie", "brand:wikidata": "Q4926479", "cuisine": "sandwich", "name": "Blimpie", "source": "Bing", "takeaway": "yes"}}, {"type": "node", "id": 4359449389, "lat": 45.8280405, "lon": -108.4550675, "tags": {"name": "3-G's", "shop": "convenience", "source": "Bing"}}, {"type": "node", "id": 4359449399, "lat": 45.8277555, "lon": -108.4550705, "tags": {"amenity": "fuel", "brand": "Conoco", "brand:wikidata": "Q1126518", "name": "Conoco", "source": "Bing"}}, {"type": "node", "id": 4359457318, "lat": 45.8285942, "lon": -108.467633, "tags": {"amenity": "pharmacy", "brand": "Walmart", "brand:wikidata": "Q483551", "dispensing": "yes", "healthcare": "pharmacy", "name": "Walmart Pharmacy", "source": "Bing", "website": "https://www.walmart.com/store/2923-billings-mt/pharmacy"}}, {"type": "node", "id": 4359457319, "lat": 45.8268149, "lon": -108.4627514, "tags": {"amenity": "place_of_worship", "denomination": "mormon", "name": "The Church of Jesus Christ of Latter-day Saints", "religion": "christian"}}, {"type": "node", "id": 4359457321, "lat": 45.8281942, "lon": -108.4670912, "tags": {"name": "Walmart Auto Center", "shop": "car_repair", "source": "Bing"}}, {"type": "node", "id": 4359457322, "lat": 45.8277188, "lon": -108.4875094, "tags": {"amenity": "fuel", "brand": "Conoco", "compressed_air": "yes", "name": "Conoco"}}, {"type": "node", "id": 4359457323, "lat": 45.8283063, "lon": -108.4677189, "tags": {"brand": "Walmart", "brand:wikidata": "Q483551", "name": "Walmart Garden Center", "shop": "garden_centre", "source": "Bing"}}, {"type": "node", "id": 6058219619, "lat": 45.8310894, "lon": -108.4658632}, {"type": "node", "id": 6058219620, "lat": 45.8319561, "lon": -108.4658642}, {"type": "node", "id": 6058219621, "lat": 45.8319571, "lon": -108.464099}, {"type": "node", "id": 6058219622, "lat": 45.8316724, "lon": -108.4634374}, {"type": "node", "id": 6058219623, "lat": 45.8310938, "lon": -108.463435}, {"type": "node", "id": 6058219624, "lat": 45.8345672, "lon": -108.4658791}, {"type": "node", "id": 6058219625, "lat": 45.8316849, "lon": -108.4607328}, {"type": "node", "id": 6058219626, "lat": 45.8345914, "lon": -108.4607612}, {"type": "node", "id": 6434754789, "lat": 45.8263797, "lon": -108.4688461}, {"type": "node", "id": 6434754790, "lat": 45.8271082, "lon": -108.4688009}, {"type": "node", "id": 6434754798, "lat": 45.8269139, "lon": -108.4715421, "tags": {"addr:city": "Billings", "addr:housenumber": "1546", "addr:postcode": "59105", "addr:state": "MT", "addr:street": "Main Street", "amenity": "bank", "atm": "yes", "name": "Western Security Bank"}}, {"type": "node", "id": 6434754806, "lat": 45.8259065, "lon": -108.4694305}, {"type": "node", "id": 6434754807, "lat": 45.8256677, "lon": -108.4694293}, {"type": "node", "id": 6550796311, "lat": 45.82691, "lon": -108.4688009}, {"type": "node", "id": 6550796312, "lat": 45.82691, "lon": -108.4688514}, {"type": "node", "id": 6550796313, "lat": 45.8268042, "lon": -108.4688514}, {"type": "node", "id": 6550796314, "lat": 45.826708, "lon": -108.4687696}, {"type": "node", "id": 6550796315, "lat": 45.8267079, "lon": -108.4688463}, {"type": "node", "id": 6550796316, "lat": 45.8263598, "lon": -108.4694814}, {"type": "node", "id": 6550796317, "lat": 45.8263603, "lon": -108.4694227}, {"type": "node", "id": 6550796318, "lat": 45.8259471, "lon": -108.4694741}, {"type": "node", "id": 6550796319, "lat": 45.8259475, "lon": -108.4694271}, {"type": "node", "id": 6550796320, "lat": 45.8259097, "lon": -108.4687359}, {"type": "node", "id": 6550796321, "lat": 45.8268345, "lon": -108.469475}, {"type": "node", "id": 6550796322, "lat": 45.8269231, "lon": -108.4694785}, {"type": "node", "id": 6550796323, "lat": 45.8269231, "lon": -108.4694174}, {"type": "node", "id": 6550796324, "lat": 45.8268345, "lon": -108.4694174}, {"type": "node", "id": 6550796325, "lat": 45.8265609, "lon": -108.469475}, {"type": "node", "id": 6550796326, "lat": 45.8265609, "lon": -108.469418}, {"type": "node", "id": 6550796327, "lat": 45.8264678, "lon": -108.4694179}, {"type": "node", "id": 6550796328, "lat": 45.8264678, "lon": -108.4694618}, {"type": "node", "id": 6550796329, "lat": 45.8264387, "lon": -108.4694618}, {"type": "node", "id": 6550796330, "lat": 45.8264387, "lon": -108.4694216}, {"type": "node", "id": 7618208402, "lat": 45.8269499, "lon": -108.4812315}, {"type": "node", "id": 7618208403, "lat": 45.8269256, "lon": -108.4811819}, {"type": "node", "id": 7618208404, "lat": 45.8268863, "lon": -108.4811497}, {"type": "node", "id": 7618208405, "lat": 45.8268648, "lon": -108.4811698}, {"type": "node", "id": 7618208406, "lat": 45.8265611, "lon": -108.4809056}, {"type": "node", "id": 7618208407, "lat": 45.8265536, "lon": -108.4808627}, {"type": "node", "id": 7618208408, "lat": 45.8264929, "lon": -108.4808265}, {"type": "node", "id": 7618208409, "lat": 45.826434, "lon": -108.4805582}, {"type": "node", "id": 7618208410, "lat": 45.8264835, "lon": -108.4804308}, {"type": "node", "id": 7618208411, "lat": 45.8265789, "lon": -108.4803933}, {"type": "node", "id": 7618208412, "lat": 45.8266013, "lon": -108.4804121}, {"type": "node", "id": 7618208413, "lat": 45.8266462, "lon": -108.480286}, {"type": "node", "id": 7618208414, "lat": 45.8267564, "lon": -108.4803745}, {"type": "node", "id": 7618208415, "lat": 45.8268032, "lon": -108.4806642}, {"type": "node", "id": 7618208416, "lat": 45.8268966, "lon": -108.4807393}, {"type": "node", "id": 7618208417, "lat": 45.8268704, "lon": -108.4808117}, {"type": "node", "id": 7618208418, "lat": 45.8270256, "lon": -108.4809271}, {"type": "node", "id": 7618208419, "lat": 45.8270162, "lon": -108.4809673}, {"type": "node", "id": 7618208420, "lat": 45.8270489, "lon": -108.4809606}, {"type": "node", "id": 7618208421, "lat": 45.8270994, "lon": -108.4810974}, {"type": "node", "id": 7618208422, "lat": 45.8270527, "lon": -108.4812221}, {"type": "node", "id": 7943343502, "lat": 45.8328826, "lon": -108.4531102}, {"type": "node", "id": 7943343503, "lat": 45.8311428, "lon": -108.4531103}, {"type": "node", "id": 7943343504, "lat": 45.8311427, "lon": -108.4505559}, {"type": "node", "id": 7943343505, "lat": 45.8328828, "lon": -108.450556}, {"type": "node", "id": 7943345063, "lat": 45.8278469, "lon": -108.4701904, "tags": {"amenity": "post_office", "brand": "The UPS Store", "brand:wikidata": "Q7771029", "name": "The UPS Store", "short_name": "UPS"}}, {"type": "node", "id": 7943345064, "lat": 45.8289922, "lon": -108.4719213}, {"type": "node", "id": 7943345065, "lat": 45.8287258, "lon": -108.4719131}, {"type": "node", "id": 7943345066, "lat": 45.8287287, "lon": -108.4717209}, {"type": "node", "id": 7943345067, "lat": 45.8289951, "lon": -108.4717292}, {"type": "node", "id": 7943345068, "lat": 45.8296728, "lon": -108.4724022}, {"type": "node", "id": 7943345069, "lat": 45.8295056, "lon": -108.4724011}, {"type": "node", "id": 7943345070, "lat": 45.829506, "lon": -108.4722892}, {"type": "node", "id": 7943345071, "lat": 45.829269, "lon": -108.4722875}, {"type": "node", "id": 7943345072, "lat": 45.8292695, "lon": -108.4721478}, {"type": "node", "id": 7943345073, "lat": 45.8293406, "lon": -108.4721483}, {"type": "node", "id": 7943345074, "lat": 45.8293421, "lon": -108.4716726}, {"type": "node", "id": 7943345075, "lat": 45.8296752, "lon": -108.4716748}, {"type": "node", "id": 7943353061, "lat": 45.8332051, "lon": -108.4738162}, {"type": "node", "id": 7943353062, "lat": 45.8331, "lon": -108.4738149}, {"type": "node", "id": 7943353063, "lat": 45.8331004, "lon": -108.4737445}, {"type": "node", "id": 7943353064, "lat": 45.8324932, "lon": -108.4737372}, {"type": "node", "id": 7943353065, "lat": 45.8324968, "lon": -108.4731292}, {"type": "node", "id": 7943353066, "lat": 45.8325822, "lon": -108.4731302}, {"type": "node", "id": 7943353067, "lat": 45.8325828, "lon": -108.4730321}, {"type": "node", "id": 7943353068, "lat": 45.8328125, "lon": -108.4730349}, {"type": "node", "id": 7943353069, "lat": 45.8328128, "lon": -108.4729735}, {"type": "node", "id": 7943353070, "lat": 45.8329996, "lon": -108.4729758}, {"type": "node", "id": 7943353071, "lat": 45.8329993, "lon": -108.4730257}, {"type": "node", "id": 7943353072, "lat": 45.8331875, "lon": -108.4730281}, {"type": "node", "id": 7943353073, "lat": 45.8331868, "lon": -108.4731355}, {"type": "node", "id": 7943353074, "lat": 45.8333014, "lon": -108.4731369}, {"type": "node", "id": 7943353075, "lat": 45.8332978, "lon": -108.4737363}, {"type": "node", "id": 7943353076, "lat": 45.8332056, "lon": -108.4737352}, {"type": "node", "id": 7943429628, "lat": 45.827818, "lon": -108.4826124}, {"type": "node", "id": 7943429629, "lat": 45.827964, "lon": -108.482813}, {"type": "node", "id": 7943429630, "lat": 45.827821, "lon": -108.4830274}, {"type": "node", "id": 7943429631, "lat": 45.827782, "lon": -108.4829738}, {"type": "node", "id": 7943429632, "lat": 45.827736, "lon": -108.4830427}, {"type": "node", "id": 7943429633, "lat": 45.8276642, "lon": -108.482944}, {"type": "node", "id": 7943429634, "lat": 45.8277136, "lon": -108.48287}, {"type": "node", "id": 7943429635, "lat": 45.8276765, "lon": -108.482819}, {"type": "node", "id": 7943429636, "lat": 45.8277226, "lon": -108.48275}, {"type": "node", "id": 7943429637, "lat": 45.8276775, "lon": -108.482688}, {"type": "node", "id": 7943429638, "lat": 45.827727, "lon": -108.4826138}, {"type": "node", "id": 7943429639, "lat": 45.827774, "lon": -108.4826784}, {"type": "node", "id": 7943479141, "lat": 45.8433692, "lon": -108.4782837}, {"type": "node", "id": 7943479142, "lat": 45.8432917, "lon": -108.4781467}, {"type": "node", "id": 7943479143, "lat": 45.8433563, "lon": -108.4780688}, {"type": "node", "id": 7943479144, "lat": 45.8434404, "lon": -108.4782027}, {"type": "node", "id": 7943479149, "lat": 45.841926, "lon": -108.475877}, {"type": "node", "id": 7943479150, "lat": 45.841979, "lon": -108.475803}, {"type": "node", "id": 7943479151, "lat": 45.842016, "lon": -108.475858}, {"type": "node", "id": 7943479152, "lat": 45.841964, "lon": -108.475932}, {"type": "node", "id": 7943479153, "lat": 45.841646, "lon": -108.47591}, {"type": "node", "id": 7943479154, "lat": 45.841703, "lon": -108.475828}, {"type": "node", "id": 7943479155, "lat": 45.841821, "lon": -108.475997}, {"type": "node", "id": 7943479156, "lat": 45.841764, "lon": -108.476079}, {"type": "node", "id": 7943479157, "lat": 45.843508, "lon": -108.482231}, {"type": "node", "id": 7943479158, "lat": 45.843586, "lon": -108.482231}, {"type": "node", "id": 7943479159, "lat": 45.843586, "lon": -108.482316}, {"type": "node", "id": 7943479160, "lat": 45.843508, "lon": -108.482316}, {"type": "node", "id": 7943479161, "lat": 45.838844, "lon": -108.47884, "tags": {"amenity": "waste_basket"}}, {"type": "node", "id": 7943623169, "lat": 45.82968, "lon": -108.450393}, {"type": "node", "id": 7943623170, "lat": 45.82968, "lon": -108.450481}, {"type": "node", "id": 7943623171, "lat": 45.829584, "lon": -108.450481}, {"type": "node", "id": 7943623172, "lat": 45.829584, "lon": -108.450393}, {"type": "node", "id": 7995850150, "lat": 45.8267682, "lon": -108.4707086}, {"type": "node", "id": 7995850151, "lat": 45.8259717, "lon": -108.4706386}, {"type": "node", "id": 7995850152, "lat": 45.8259718, "lon": -108.4701696}, {"type": "node", "id": 7995850153, "lat": 45.825597, "lon": -108.4701695}, {"type": "node", "id": 7995850154, "lat": 45.8255971, "lon": -108.4695281}, {"type": "node", "id": 7995850155, "lat": 45.8271548, "lon": -108.4695285}, {"type": "node", "id": 7995850156, "lat": 45.8271549, "lon": -108.4687524}, {"type": "node", "id": 7995850157, "lat": 45.8272636, "lon": -108.4687525}, {"type": "node", "id": 7995850158, "lat": 45.8272633, "lon": -108.4698726}, {"type": "node", "id": 7995850159, "lat": 45.8268957, "lon": -108.4698724}, {"type": "node", "id": 7995850160, "lat": 45.8268956, "lon": -108.4703934}, {"type": "node", "id": 7995850161, "lat": 45.8267682, "lon": -108.4703933}, {"type": "node", "id": 7995850162, "lat": 45.8262432, "lon": -108.4706386}, {"type": "node", "id": 7995850163, "lat": 45.8262432, "lon": -108.4707085}, {"type": "node", "id": 7995852995, "lat": 45.8226327, "lon": -108.4707428}, {"type": "node", "id": 7995852996, "lat": 45.8220046, "lon": -108.4707372}, {"type": "node", "id": 7995852997, "lat": 45.8220075, "lon": -108.4700593}, {"type": "node", "id": 7995852998, "lat": 45.8215564, "lon": -108.4700552}, {"type": "node", "id": 7995852999, "lat": 45.8215538, "lon": -108.4706337}, {"type": "node", "id": 7995853000, "lat": 45.8211847, "lon": -108.4706303}, {"type": "node", "id": 7995853001, "lat": 45.821192, "lon": -108.4690178}, {"type": "node", "id": 7995853002, "lat": 45.8220839, "lon": -108.4690261}, {"type": "node", "id": 7995853003, "lat": 45.8220794, "lon": -108.4700141}, {"type": "node", "id": 7995853004, "lat": 45.8223637, "lon": -108.4700168}, {"type": "node", "id": 7995853005, "lat": 45.8223633, "lon": -108.4700866}, {"type": "node", "id": 7995853006, "lat": 45.8225883, "lon": -108.4700887}, {"type": "node", "id": 7995853007, "lat": 45.8225887, "lon": -108.4699893}, {"type": "node", "id": 7995853008, "lat": 45.822801, "lon": -108.4699911}, {"type": "node", "id": 7995853009, "lat": 45.8228, "lon": -108.4702264}, {"type": "node", "id": 7995853010, "lat": 45.8226349, "lon": -108.4702249}, {"type": "node", "id": 8144610499, "lat": 45.8267888, "lon": -108.4679696, "tags": {"addr:city": "Billings", "addr:housenumber": "710", "addr:postcode": "59105", "addr:state": "MT", "addr:street": "Wicks Lane", "amenity": "post_office", "description": "USPS delivery of mail and packages to more than 157 million addresses in the united states", "name": "US post office", "operator": "United States Postal Service", "operator:short": "USPS", "operator:type": "public", "operator:wikidata": "Q668687"}}, {"type": "node", "id": 8144610500, "lat": 45.8268577, "lon": -108.466589, "tags": {"addr:city": "Billings", "addr:housenumber": "760", "addr:postcode": "59105", "addr:state": "MT", "addr:street": "Wicks Lane", "amenity": "clinic", "description": "Family practice Physician in Billings", "healthcare": "clinic", "healthcare:speciality": "doctor", "name": "Guzman Glenn, MD"}}, {"type": "node", "id": 8144610501, "lat": 45.8268458, "lon": -108.466395, "tags": {"addr:city": "Billings", "addr:housenumber": "760", "addr:postcode": "59105", "addr:state": "MT", "addr:street": "Wicks Lane", "amenity": "clinic", "description": "medical clinic that offers general primary care", "healthcare": "clinic", "healthcare:speciality": "general", "name": "Billings Clinic Heights"}}, {"type": "node", "id": 8144610502, "lat": 45.8269821, "lon": -108.466314, "tags": {"addr:city": "Billings", "addr:housenumber": "760", "addr:postcode": "59105", "addr:state": "MT", "addr:street": "Wicks Lane", "amenity": "dentist", "description": "Primary dentist", "healthcare": "dentist", "healthcare:speciality": "dentist", "name": "Dr. Adam Ostby, DDS"}}, {"type": "node", "id": 8431052856, "lat": 45.8198952, "lon": -108.4701674, "tags": {"brand": "U-Haul", "brand:wikidata": "Q7862902", "name": "U-Haul", "shop": "rental"}}, {"type": "node", "id": 8431052866, "lat": 45.8203221, "lon": -108.4703511, "tags": {"brand": "Carquest", "brand:wikidata": "Q5045948", "name": "Carquest", "official_name": "Carquest Auto Parts", "shop": "car_parts"}}, {"type": "node", "id": 8431052867, "lat": 45.8206288, "lon": -108.4700985, "tags": {"brand": "Franz", "brand:wikidata": "Q7889571", "name": "Franz Bakery Outlet", "shop": "bakery"}}, {"type": "node", "id": 8431052868, "lat": 45.8206182, "lon": -108.4703894, "tags": {"name": "Sweetheart Bread", "shop": "bakery"}}, {"type": "node", "id": 8431052869, "lat": 45.8207062, "lon": -108.4713616, "tags": {"amenity": "bar", "name": "Diamond Jubilee Bar"}}, {"type": "node", "id": 8431052873, "lat": 45.821712, "lon": -108.4714944, "tags": {"amenity": "bank", "name": "Altana Federal Credit Union"}}, {"type": "node", "id": 8431052875, "lat": 45.8213303, "lon": -108.4713699, "tags": {"amenity": "cafe", "name": "City Brew Coffee"}}, {"type": "node", "id": 8431052876, "lat": 45.8221632, "lon": -108.4690892, "tags": {"name": "Forgotten Realm Bookstore", "shop": "books"}}, {"type": "node", "id": 8431052877, "lat": 45.8224755, "lon": -108.4697764, "tags": {"brand": "Dollar Tree", "brand:wikidata": "Q5289230", "check_date": "2024-07-11", "check_date:opening_hours": "2024-07-11", "name": "Dollar Tree", "opening_hours": "Mo-Sa 08:00-22:00; Su 09:00-20:00", "shop": "variety_store", "website": "https://www.dollartree.com/locations/mt/billings/2828/"}}, {"type": "node", "id": 8431052878, "lat": 45.8221562, "lon": -108.4719376, "tags": {"amenity": "restaurant", "name": "Fork & Fuel"}}, {"type": "node", "id": 8431052879, "lat": 45.8230863, "lon": -108.4704636, "tags": {"name": "MasterLube", "shop": "car_repair"}}, {"type": "node", "id": 8431052880, "lat": 45.8233743, "lon": -108.4714695, "tags": {"brand": "Carstar", "brand:wikidata": "Q64187891", "name": "Carstar", "service:vehicle:body_repair": "yes", "shop": "car_repair"}}, {"type": "node", "id": 8431052881, "lat": 45.8235096, "lon": -108.4699357, "tags": {"amenity": "casino", "name": "Bugz's Casino"}}, {"type": "node", "id": 8431052903, "lat": 45.8238871, "lon": -108.4702546, "tags": {"amenity": "restaurant", "cuisine": "mexican", "name": "Guadalajara Mexican Restaurant"}}, {"type": "node", "id": 8431052904, "lat": 45.8240792, "lon": -108.4693972, "tags": {"amenity": "casino", "name": "Heights Buffalo Palace Casino"}}, {"type": "node", "id": 8431087069, "lat": 45.8244717, "lon": -108.4716023, "tags": {"name": "National Pawn", "shop": "pawnbroker"}}, {"type": "node", "id": 8431087070, "lat": 45.8245592, "lon": -108.4704299, "tags": {"amenity": "casino", "name": "Lucky Diamond Casino"}}, {"type": "node", "id": 8431087074, "lat": 45.8253616, "lon": -108.4703392, "tags": {"amenity": "bank", "name": "Valley Credit Union"}}, {"type": "node", "id": 8431087092, "lat": 45.8250947, "lon": -108.471936}, {"type": "node", "id": 8431087093, "lat": 45.8260528, "lon": -108.4715701, "tags": {"amenity": "bank", "name": "Billings Federal Credit Union"}}, {"type": "node", "id": 8431087094, "lat": 45.8264522, "lon": -108.4718319, "tags": {"name": "Magic Diamond Liquor Store", "shop": "alcohol"}}, {"type": "node", "id": 8431087101, "lat": 45.8277679, "lon": -108.4694044, "tags": {"name": "First National Pawn", "shop": "pawnbroker"}}, {"type": "node", "id": 8431087102, "lat": 45.829433, "lon": -108.4676725, "tags": {"addr:city": "Billings", "addr:housenumber": "1649", "addr:postcode": "59105", "addr:state": "MT", "addr:street": "Main Street", "amenity": "fast_food", "brand": "Subway", "brand:wikidata": "Q244457", "cuisine": "sandwich", "indoor_seating": "yes", "name": "Subway", "opening_hours": "08:00-21:00", "outdoor_seating": "no", "phone": "+1 406-256-6144", "takeaway": "yes", "website": "https://restaurants.subway.com/united-states/mt/billings/1649-main-street"}}, {"type": "node", "id": 8431087103, "lat": 45.8303782, "lon": -108.4725094, "tags": {"amenity": "restaurant", "name": "F.O.E. of Billings"}}, {"type": "node", "id": 8431087104, "lat": 45.8309214, "lon": -108.4704189, "tags": {"name": "G & J Diesel", "shop": "car_repair"}}, {"type": "node", "id": 8431094625, "lat": 45.8345368, "lon": -108.4702682, "tags": {"name": "Aaliby Auto Repair and Towing", "shop": "car_repair"}}, {"type": "node", "id": 8431094638, "lat": 45.8357549, "lon": -108.4710939, "tags": {"amenity": "casino", "name": "Jackpot Casino"}}, {"type": "node", "id": 8431094639, "lat": 45.8411054, "lon": -108.4680942, "tags": {"amenity": "casino", "name": "Montana Lil's Casino"}}, {"type": "node", "id": 8431094689, "lat": 45.8411936, "lon": -108.4693794}, {"type": "node", "id": 8431094690, "lat": 45.8411859, "lon": -108.4691558}, {"type": "node", "id": 8431094691, "lat": 45.8412671, "lon": -108.46915}, {"type": "node", "id": 8431094692, "lat": 45.8409778, "lon": -108.468508}, {"type": "node", "id": 8431094693, "lat": 45.8409778, "lon": -108.4683893}, {"type": "node", "id": 8431094694, "lat": 45.8412409, "lon": -108.4681328}, {"type": "node", "id": 8431094695, "lat": 45.8411201, "lon": -108.4678775}, {"type": "node", "id": 8431094696, "lat": 45.8417257, "lon": -108.4672871}, {"type": "node", "id": 8431094697, "lat": 45.8419004, "lon": -108.4676563}, {"type": "node", "id": 8431094698, "lat": 45.842495, "lon": -108.4670765}, {"type": "node", "id": 8431094700, "lat": 45.8428215, "lon": -108.4681267, "tags": {"addr:city": "Billings", "addr:housenumber": "2376", "addr:postcode": "59105", "addr:state": "MT", "addr:street": "Main Street", "addr:unit": "818", "amenity": "restaurant", "cuisine": "mexican", "name": "Santiago's Mexican Restaurant", "opening_hours": "Mo-Su 08:00-22:00", "website": "https://santiagosmexicanrestaurantmt.com/"}}, {"type": "node", "id": 8691983679, "lat": 45.8270296, "lon": -108.4894195, "tags": {"amenity": "clinic", "brand": "Planned Parenthood", "brand:wikidata": "Q2553262", "healthcare": "counselling", "healthcare:counselling": "antenatal;sexual", "name": "Planned Parenthood"}}, {"type": "node", "id": 8692067359, "lat": 45.8314496, "lon": -108.45311}, {"type": "node", "id": 8692067366, "lat": 45.8328827, "lon": -108.4518115}, {"type": "node", "id": 8855647729, "lat": 45.8272815, "lon": -108.4810725}, {"type": "node", "id": 9025142385, "lat": 45.8221979, "lon": -108.4694772, "tags": {"air_conditioning": "yes", "name": "Dancing Oven Bakery", "phone": "+1 406-591-2751", "shop": "bakery"}}, {"type": "node", "id": 9331000789, "lat": 45.8300048, "lon": -108.4700354}, {"type": "node", "id": 9331000790, "lat": 45.8293875, "lon": -108.4700349}, {"type": "node", "id": 9331000791, "lat": 45.8293873, "lon": -108.4706937}, {"type": "node", "id": 9331000792, "lat": 45.8290198, "lon": -108.4706935}, {"type": "node", "id": 9331000793, "lat": 45.82902, "lon": -108.4699926}, {"type": "node", "id": 9331000794, "lat": 45.8285673, "lon": -108.4699923}, {"type": "node", "id": 9331000797, "lat": 45.8282241, "lon": -108.4699724}, {"type": "node", "id": 9331000798, "lat": 45.8281226, "lon": -108.4699557}, {"type": "node", "id": 9331000799, "lat": 45.8281225, "lon": -108.4705852}, {"type": "node", "id": 9331000800, "lat": 45.8275712, "lon": -108.470585}, {"type": "node", "id": 9331000801, "lat": 45.8275713, "lon": -108.4703894}, {"type": "node", "id": 9331000802, "lat": 45.8279786, "lon": -108.4703895}, {"type": "node", "id": 9331000803, "lat": 45.8279787, "lon": -108.4699348}, {"type": "node", "id": 9331000804, "lat": 45.8280619, "lon": -108.4699348}, {"type": "node", "id": 9331000805, "lat": 45.8280622, "lon": -108.4681641}, {"type": "node", "id": 9331000806, "lat": 45.8297429, "lon": -108.4681648}, {"type": "node", "id": 9331000807, "lat": 45.8297432, "lon": -108.4663206}, {"type": "node", "id": 9331000808, "lat": 45.8298836, "lon": -108.4663207}, {"type": "node", "id": 9331000809, "lat": 45.8298831, "lon": -108.4683117}, {"type": "node", "id": 9331000810, "lat": 45.8300054, "lon": -108.4683118}, {"type": "node", "id": 9331000811, "lat": 45.8280616, "lon": -108.4680198}, {"type": "node", "id": 9331000812, "lat": 45.8277945, "lon": -108.4680206}, {"type": "node", "id": 9331000813, "lat": 45.8277944, "lon": -108.4679382}, {"type": "node", "id": 9331000814, "lat": 45.8277606, "lon": -108.4679383}, {"type": "node", "id": 9331000815, "lat": 45.827759, "lon": -108.4667545}, {"type": "node", "id": 9331000816, "lat": 45.8280597, "lon": -108.4667536}, {"type": "node", "id": 9896493951, "lat": 45.826305, "lon": -108.4811497}, {"type": "node", "id": 9896493952, "lat": 45.826492, "lon": -108.4813146}, {"type": "node", "id": 9896493953, "lat": 45.8268975, "lon": -108.4804483}, {"type": "node", "id": 9896493954, "lat": 45.8269675, "lon": -108.4801051}, {"type": "node", "id": 9896493955, "lat": 45.8272827, "lon": -108.4809766}, {"type": "node", "id": 9896493956, "lat": 45.8272834, "lon": -108.4801021}, {"type": "node", "id": 9896493957, "lat": 45.826904, "lon": -108.4800179}, {"type": "node", "id": 9896493959, "lat": 45.8269349, "lon": -108.4814179}, {"type": "node", "id": 9896493960, "lat": 45.8268237, "lon": -108.4804443}, {"type": "node", "id": 9896493961, "lat": 45.8268602, "lon": -108.4805878}, {"type": "node", "id": 9896493962, "lat": 45.8269461, "lon": -108.480742}, {"type": "node", "id": 9896493963, "lat": 45.8269293, "lon": -108.4807768}, {"type": "node", "id": 9896493964, "lat": 45.8270405, "lon": -108.480856}, {"type": "node", "id": 9896493965, "lat": 45.8271443, "lon": -108.481088}, {"type": "node", "id": 9896493966, "lat": 45.8270807, "lon": -108.4812436}, {"type": "node", "id": 9896493967, "lat": 45.8269349, "lon": -108.4812489}, {"type": "node", "id": 9896493968, "lat": 45.8263041, "lon": -108.4814099}, {"type": "node", "id": 9896493969, "lat": 45.8266405, "lon": -108.4810558}, {"type": "node", "id": 9896493970, "lat": 45.8263602, "lon": -108.4808037}, {"type": "node", "id": 9896493971, "lat": 45.8263107, "lon": -108.4805408}, {"type": "node", "id": 9896493972, "lat": 45.8264686, "lon": -108.480168}, {"type": "node", "id": 9896493973, "lat": 45.8268162, "lon": -108.4801801}, {"type": "node", "id": 9896493974, "lat": 45.826963, "lon": -108.4804939}, {"type": "node", "id": 9896493975, "lat": 45.8263677, "lon": -108.4800151}, {"type": "node", "id": 9896493976, "lat": 45.8262331, "lon": -108.4801036}, {"type": "node", "id": 9896493977, "lat": 45.8260312, "lon": -108.4800848}, {"type": "node", "id": 9896493978, "lat": 45.8260032, "lon": -108.4810504}, {"type": "node", "id": 9896493979, "lat": 45.8263032, "lon": -108.4810491}, {"type": "node", "id": 9896493980, "lat": 45.8263022, "lon": -108.4815171}, {"type": "node", "id": 9896493981, "lat": 45.8272844, "lon": -108.4815252}, {"type": "node", "id": 10093552317, "lat": 45.8262404, "lon": -108.4863811, "tags": {"amenity": "clinic", "healthcare": "clinic", "name": "SCL Health Medical Group"}}, {"type": "node", "id": 10093552318, "lat": 45.8279541, "lon": -108.4864038, "tags": {"amenity": "fire_station", "name": "Billings Fire Department Station 6"}}, {"type": "node", "id": 10093552319, "lat": 45.8282626, "lon": -108.487526, "tags": {"amenity": "car_wash", "name": "Avalanche Car Wash"}}, {"type": "node", "id": 10093552320, "lat": 45.8277507, "lon": -108.488088, "tags": {"name": "Laundry Time", "shop": "laundry"}}, {"type": "node", "id": 10093552321, "lat": 45.8283983, "lon": -108.4864185, "tags": {"amenity": "place_of_worship", "name": "Our Savior Lutheran Church", "religion": "christian"}}, {"type": "node", "id": 10093552326, "lat": 45.8280726, "lon": -108.4885305, "tags": {"name": "Homestead Self Storage\\", "shop": "storage_rental"}}, {"type": "node", "id": 10093608761, "lat": 45.8219142, "lon": -108.4686916, "tags": {"name": "Shamrock Foodservice Warehouse", "shop": "wholesale"}}, {"type": "node", "id": 10093608763, "lat": 45.8222056, "lon": -108.4697784, "tags": {"amenity": "casino", "name": "Big Game Casino"}}, {"type": "node", "id": 10093608764, "lat": 45.8226641, "lon": -108.4697891, "tags": {"amenity": "restaurant", "brand": "Pizza Ranch", "brand:wikidata": "Q7199978", "cuisine": "pizza", "name": "Pizza Ranch"}}, {"type": "node", "id": 10093608765, "lat": 45.8235251, "lon": -108.4689547, "tags": {"amenity": "social_centre", "name": "Veterans of Foreign Wars"}}, {"type": "node", "id": 10093608766, "lat": 45.8236285, "lon": -108.4682527, "tags": {"name": "Chassis Works, Inc.", "shop": "car_repair"}}, {"type": "node", "id": 10093608767, "lat": 45.823898, "lon": -108.4693812, "tags": {"name": "Law Dog Hat Company", "shop": "fashion_accessories"}}, {"type": "node", "id": 10093608768, "lat": 45.8242694, "lon": -108.4703733, "tags": {"addr:city": "Billings", "addr:housenumber": "1419", "addr:postcode": "59105", "addr:state": "MT", "addr:street": "Main Street", "amenity": "restaurant", "brand": "Pizza Hut", "brand:wikidata": "Q191615", "cuisine": "pizza", "name": "Pizza Hut", "phone": "+1 406-259-8424", "source": "microsoft/BuildingFootprints", "website": "https://locations.pizzahut.com/mt/billings/1419-main-st"}}, {"type": "node", "id": 10093608773, "lat": 45.826846, "lon": -108.4654527, "tags": {"amenity": "social_facility", "name": "The Legacy Assisted Living in the Heights", "social_facility": "nursing_home", "social_facility:for": "senior"}}, {"type": "node", "id": 10093648026, "lat": 45.8270347, "lon": -108.4546218, "tags": {"amenity": "place_of_worship", "name": "Lighthouse Baptist Church", "religion": "christian"}}, {"type": "node", "id": 10093648027, "lat": 45.8278573, "lon": -108.4543942, "tags": {"amenity": "social_facility", "name": "Edgewood Vista", "social_facility": "group_home", "social_facility:for": "senior"}}, {"type": "node", "id": 10834107715, "lat": 45.8269543, "lon": -108.47641, "tags": {"amenity": "parking"}}, {"type": "node", "id": 10834107716, "lat": 45.8266963, "lon": -108.4766611, "tags": {"amenity": "parking", "parking": "surface", "surface": "asphalt"}}, {"type": "node", "id": 10834107717, "lat": 45.8269589, "lon": -108.4765249, "tags": {"amenity": "parking", "parking": "surface", "surface": "asphalt"}}, {"type": "node", "id": 11408724573, "lat": 45.8377635, "lon": -108.481114, "tags": {"amenity": "bench", "backrest": "yes"}}, {"type": "node", "id": 11408724585, "lat": 45.841126, "lon": -108.4830661, "tags": {"amenity": "bench", "backrest": "yes"}}, {"type": "node", "id": 11408724607, "lat": 45.84391, "lon": -108.4828263}, {"type": "node", "id": 11408724608, "lat": 45.8439441, "lon": -108.4827972}, {"type": "node", "id": 11408724609, "lat": 45.8439328, "lon": -108.4827693}, {"type": "node", "id": 11408724610, "lat": 45.8438954, "lon": -108.4827937}, {"type": "node", "id": 11408724615, "lat": 45.8431829, "lon": -108.481714, "tags": {"amenity": "bench", "backrest": "yes", "wheelchair": "yes"}}, {"type": "node", "id": 11408724619, "lat": 45.8439396, "lon": -108.4820098, "tags": {"amenity": "waste_basket"}}, {"type": "node", "id": 11408724621, "lat": 45.8428118, "lon": -108.48241, "tags": {"amenity": "bench", "backrest": "yes"}}, {"type": "node", "id": 11408724622, "lat": 45.8397393, "lon": -108.483202, "tags": {"amenity": "bench", "backrest": "yes"}}, {"type": "node", "id": 11408759363, "lat": 45.8379193, "lon": -108.4802776, "tags": {"amenity": "bench", "backrest": "yes"}}, {"type": "node", "id": 11408759364, "lat": 45.8395281, "lon": -108.4789153, "tags": {"amenity": "bench", "backrest": "yes"}}, {"type": "node", "id": 11408765970, "lat": 45.8390271, "lon": -108.4790321, "tags": {"amenity": "waste_basket"}}, {"type": "node", "id": 11408765971, "lat": 45.8397051, "lon": -108.4774255, "tags": {"amenity": "waste_basket"}}, {"type": "node", "id": 11408765974, "lat": 45.8399175, "lon": -108.4769178, "tags": {"amenity": "waste_basket"}}, {"type": "node", "id": 11408765976, "lat": 45.841647, "lon": -108.4757241, "tags": {"amenity": "bench", "backrest": "yes"}}, {"type": "node", "id": 11408765977, "lat": 45.8416097, "lon": -108.4756733, "tags": {"amenity": "bench", "backrest": "yes"}}, {"type": "node", "id": 11408765978, "lat": 45.8420447, "lon": -108.4763285, "tags": {"amenity": "waste_basket"}}, {"type": "node", "id": 11408765979, "lat": 45.8421973, "lon": -108.4769105, "tags": {"amenity": "bench", "backrest": "yes"}}, {"type": "node", "id": 11408765980, "lat": 45.8422333, "lon": -108.4769737, "tags": {"amenity": "bench", "backrest": "yes"}}, {"type": "node", "id": 11408765981, "lat": 45.8417517, "lon": -108.4758645, "tags": {"amenity": "bbq", "covered": "no"}}, {"type": "node", "id": 11408765986, "lat": 45.8427972, "lon": -108.4777361, "tags": {"amenity": "bbq"}}, {"type": "node", "id": 11408765998, "lat": 45.8433754, "lon": -108.4777092, "tags": {"amenity": "bbq"}}, {"type": "node", "id": 11408766016, "lat": 45.8433918, "lon": -108.478258, "tags": {"access": "yes", "amenity": "shower", "fee": "no", "supervised": "no", "wheelchair": "no"}}, {"type": "node", "id": 11408766022, "lat": 45.8436228, "lon": -108.4795006, "tags": {"amenity": "bench", "backrest": "yes"}}, {"type": "node", "id": 11408766023, "lat": 45.8435806, "lon": -108.4794054, "tags": {"amenity": "bench", "backrest": "yes"}}, {"type": "node", "id": 11408766024, "lat": 45.8442026, "lon": -108.4816002, "tags": {"amenity": "bench"}}, {"type": "node", "id": 11428958907, "lat": 45.8435414, "lon": -108.48225, "tags": {"amenity": "bbq"}}, {"type": "way", "id": 176273513, "nodes": [1868199607, 1868199608, 1868199609, 1868199610, 1860844739, 1868199611, 1868199612, 1868199613, 1868199614, 1868199615, 1868199616, 1868199617, 1868199618, 1868199619, 1868199620, 1868199621, 1868199622, 1868199623, 1868199624, 1868199625, 1868199626, 1868199627, 1868199628, 1868199629, 1868199630, 1868199607], "tags": {"addr:city": "Billings", "addr:country": "US", "addr:housenumber": "1649", "addr:postcode": "59105", "addr:state": "MT", "addr:street": "Main Street", "brand": "Walmart", "brand:wikidata": "Q483551", "building": "retail", "building:levels": "1", "diet:halal": "no", "diet:kosher": "yes", "name": "Walmart Supercenter", "opening_hours": "24/7", "operator": "Walmart", "operator:wikidata": "Q483551", "payment:app:walmart": "yes", "payment:apple_pay": "no", "payment:google_pay": "no", "payment:samsung_pay": "no", "phone": "+1 406-254-2842", "ref": "2923", "ref:walmart": "2923", "roof:levels": "0", "roof:shape": "flat", "sensory_friendly:accommodation": "dimmed_light;static_screens;no_pa", "sensory_friendly:conditional": "yes @ 08:00-10:00", "shop": "supermarket", "source": "Bing", "website": "https://www.walmart.com/store/2923-billings-mt", "wheelchair": "yes"}}, {"type": "way", "id": 176740308, "nodes": [1872211728, 1872211729, 1872211730, 1872211731, 1872211732, 1872211728], "tags": {"addr:housenumber": "1602", "addr:state": "MT", "addr:street": "Main Street", "amenity": "pharmacy", "brand": "Walgreens", "brand:wikidata": "Q1591889", "building": "retail", "dispensing": "yes", "healthcare": "pharmacy", "name": "Walgreens", "source": "Bing"}}, {"type": "way", "id": 176740338, "nodes": [1872211769, 1872211770, 1872211771, 1872211772, 1872211773, 1872211774, 1872211775, 1872211776, 1872211777, 1872211778, 1872211779, 1872211780, 1872211769], "tags": {"amenity": "bank", "building": "yes", "name": "Western Security Bank", "source": "Bing"}}, {"type": "way", "id": 176740356, "nodes": [1872211796, 1872211797, 1872211798, 1872211799, 1872211796], "tags": {"amenity": "parking", "parking": "surface", "source": "Bing"}}, {"type": "way", "id": 296128437, "nodes": [8431087092, 2999141544, 2999141417, 2999141418, 8431087092], "tags": {"amenity": "restaurant", "building": "yes", "name": "Play Inn"}}, {"type": "way", "id": 643882715, "nodes": [6058219619, 6058219620, 6058219621, 6058219622, 6058219623, 6058219619], "tags": {"amenity": "school", "name": "Bitterroot Elementary School"}}, {"type": "way", "id": 643882716, "nodes": [6058219624, 6058219620, 6058219621, 6058219622, 6058219625, 6058219626, 6058219624], "tags": {"addr:city": "Billings", "addr:housenumber": "900", "addr:postcode": "59105", "addr:state": "MT", "addr:street": "Barrett Road", "amenity": "school", "name": "Medicine Crow Middle School"}}, {"type": "way", "id": 686510534, "nodes": [1868201737, 6434754789, 6550796315, 6550796314, 1868201754, 6550796313, 6550796312, 6550796311, 6434754790, 1868201735, 6550796322, 6550796323, 6550796324, 6550796321, 6550796325, 6550796326, 6550796327, 6550796328, 6550796329, 6550796330, 1868201737], "tags": {"addr:city": "Billings", "addr:housenumber": "1547", "addr:postcode": "59105", "addr:state": "MT", "addr:street": "Main Street", "brand": "Ace Hardware", "brand:wikidata": "Q4672981", "building": "yes", "name": "Ace Hardware", "opening_hours": "Mo-Fr 08:00-20:00; Sa 08:00-19:00; Su 09:00-18:00", "phone": "+1 406-245-0756", "ref": "08747", "shop": "doityourself"}}, {"type": "way", "id": 686510535, "nodes": [6550796317, 6550796316, 6550796318, 6550796319, 6434754806, 1868201749, 6550796320, 1868201752, 6434754789, 1868201737, 6550796317], "tags": {"addr:city": "Billings", "addr:housenumber": "1537", "addr:postcode": "59105", "addr:state": "MT", "addr:street": "Main Street", "brand": "PetSmart", "brand:wikidata": "Q3307147", "building": "yes", "name": "PetSmart", "opening_hours": "Mo-Sa 09:00-21:00; Su 10:00-18:00", "phone": "+1 406-371-4890", "ref": "3027", "shop": "pet", "website": "https://www.petsmart.com/stores/us/mt/billings-store3027.html"}}, {"type": "way", "id": 686510537, "nodes": [6434754806, 6434754807, 1868201743, 1868201744, 1868201745, 1868201746, 1868201747, 1868201749, 6434754806], "tags": {"addr:city": "Billings", "addr:housenumber": "1515", "addr:postcode": "59105", "addr:state": "MT", "addr:street": "Main Street", "brand": "Big Lots", "brand:wikidata": "Q4905973", "building": "yes", "name": "Big Lots", "opening_hours": "09:00-21:00", "phone": "+1 406-896-9680", "shop": "department_store", "website": "https://local.biglots.com/mt/billings/1515-main-st"}}, {"type": "way", "id": 815709749, "nodes": [7618208422, 7618208421, 7618208420, 7618208419, 7618208418, 7618208417, 7618208416, 7618208415, 7618208414, 7618208413, 7618208412, 7618208411, 7618208410, 7618208409, 7618208408, 7618208407, 7618208406, 7618208405, 7618208404, 7618208403, 7618208402, 7618208422], "tags": {"addr:city": "Billings", "addr:housenumber": "226", "addr:postcode": "59105", "addr:state": "MT", "addr:street": "Wicks Lane", "amenity": "place_of_worship", "building": "church", "denomination": "roman_catholic", "diocese": "Great Falls-Billings", "fax": "+1 406-259-0443", "name": "Saint Bernard Catholic Church", "phone": "+1 406-259-4350", "religion": "christian", "website": "https://www.stbernardblgs.org", "wikimedia_commons": "File:Saint Bernard Catholic Church in Billings Montana.jpg"}}, {"type": "way", "id": 851661948, "nodes": [7943343502, 8692067359, 7943343503, 7943343504, 7943343505, 8692067366, 7943343502], "tags": {"amenity": "school", "name": "Beartooth Elementary School"}}, {"type": "way", "id": 851663125, "nodes": [7943353061, 7943353062, 7943353063, 7943353064, 7943353065, 7943353066, 7943353067, 7943353068, 7943353069, 7943353070, 7943353071, 7943353072, 7943353073, 7943353074, 7943353075, 7943353076, 7943353061], "tags": {"building": "yes", "name": "Shipton's Big R Heights", "shop": "agrarian"}}, {"type": "way", "id": 851664647, "nodes": [7943345064, 7943345065, 7943345066, 7943345067, 7943345064], "tags": {"addr:city": "Billings", "addr:housenumber": "525", "addr:postcode": "59105", "addr:state": "MT", "addr:street": "Wicks Lane", "amenity": "fast_food", "brand": "McDonald's", "brand:wikidata": "Q38076", "building": "yes", "cuisine": "burger", "drive_through": "yes", "internet_access": "wlan", "name": "McDonald's", "opening_hours": "07:00-22:00", "phone": "+1 406-248-3763", "takeaway": "yes", "website": "https://www.mcdonalds.com/us/en-us/location/34743.html"}}, {"type": "way", "id": 851664648, "nodes": [7943345068, 7943345069, 7943345070, 7943345071, 7943345072, 7943345073, 7943345074, 7943345075, 7943345068], "tags": {"brand": "Goodwill", "brand:wikidata": "Q5583655", "building": "yes", "name": "Goodwill", "shop": "charity"}}, {"type": "way", "id": 851672494, "nodes": [7943429628, 7943429629, 7943429630, 7943429631, 7943429632, 7943429633, 7943429634, 7943429635, 7943429636, 7943429637, 7943429638, 7943429639, 7943429628], "tags": {"amenity": "place_of_worship", "building": "yes", "denomination": "jehovahs_witness", "religion": "christian", "source": "microsoft/BuildingFootprints"}}, {"type": "way", "id": 851678708, "nodes": [7943479141, 7943479142, 7943479143, 7943479144, 11408766016, 7943479141], "tags": {"amenity": "toilets", "building": "yes", "building:levels": "1", "operator": "Lake Elmo State Park", "seasonal": "yes", "source": "microsoft/BuildingFootprints"}}, {"type": "way", "id": 851678710, "nodes": [7943479149, 7943479150, 7943479151, 7943479152, 7943479149], "tags": {"access": "private", "amenity": "toilets", "building": "yes", "building:levels": "1", "operator": "Lake Elmo State Park", "source": "microsoft/BuildingFootprints"}}, {"type": "way", "id": 851678711, "nodes": [7943479153, 7943479154, 7943479155, 7943479156, 7943479153], "tags": {"amenity": "shelter", "building": "yes", "building:levels": "1", "description": "Unenclosed. Several picnic tables available. Electricity available if reserved and rented.", "operator": "Lake Elmo State Park", "shelter_type": "picnic_shelter", "source": "microsoft/BuildingFootprints"}}, {"type": "way", "id": 851678712, "nodes": [7943479157, 7943479158, 7943479159, 7943479160, 7943479157], "tags": {"amenity": "shelter", "building": "yes", "shelter_type": "picnic_shelter", "source": "microsoft/BuildingFootprints"}}, {"type": "way", "id": 851698102, "nodes": [7943623169, 7943623170, 7943623171, 7943623172, 7943623169], "tags": {"amenity": "shelter", "building": "yes", "shelter_type": "gazebo", "source": "microsoft/BuildingFootprints"}}, {"type": "way", "id": 857630069, "nodes": [7995850150, 7995850163, 7995850162, 7995850151, 7995850152, 7995850153, 7995850154, 7995850155, 7995850156, 7995850157, 7995850158, 7995850159, 7995850160, 7995850161, 7995850150], "tags": {"amenity": "parking"}}, {"type": "way", "id": 857630079, "nodes": [7995852995, 7995852996, 7995852997, 7995852998, 7995852999, 7995853000, 7995853001, 7995853002, 7995853003, 7995853004, 7995853005, 7995853006, 7995853007, 7995853008, 7995853009, 7995853010, 7995852995], "tags": {"amenity": "parking"}}, {"type": "way", "id": 907987873, "nodes": [4117881315, 4117881316, 4117881309, 4117881308, 8431094689, 8431094690, 8431094691, 8431094692, 8431094693, 8431094694, 8431094695, 8431094696, 8431094697, 8431094698, 4117881315], "tags": {"amenity": "parking"}}, {"type": "way", "id": 1011350222, "nodes": [9331000789, 9331000790, 9331000791, 9331000792, 9331000793, 9331000794, 9331000797, 9331000798, 9331000799, 9331000800, 9331000801, 9331000802, 9331000803, 9331000804, 9331000805, 9331000806, 9331000807, 9331000808, 9331000809, 9331000810, 9331000789], "tags": {"access": "yes", "amenity": "parking", "fee": "no", "parking": "surface"}}, {"type": "way", "id": 1011350223, "nodes": [9331000811, 9331000812, 9331000813, 9331000814, 9331000815, 9331000816, 9331000811], "tags": {"access": "yes", "amenity": "parking", "fee": "no", "parking": "surface"}}, {"type": "way", "id": 1079654173, "nodes": [8855647729, 9896493981, 9896493980, 9896493968, 9896493959, 9896493967, 9896493966, 9896493965, 9896493964, 9896493963, 9896493962, 9896493961, 9896493974, 9896493954, 9896493956, 9896493955, 8855647729], "tags": {"access": "yes", "amenity": "parking", "fee": "no", "operator": "Saint Bernard Catholic Church", "parking": "surface"}}, {"type": "way", "id": 1079654174, "nodes": [9896493979, 9896493978, 9896493977, 9896493976, 9896493975, 9896493957, 9896493953, 9896493960, 9896493973, 9896493972, 9896493971, 9896493970, 9896493969, 9896493952, 9896493951, 9896493979], "tags": {"amenity": "parking", "operator": "Saint Bernard Catholic Church"}}, {"type": "way", "id": 1230225644, "nodes": [11408724607, 11408724608, 11408724609, 11408724610, 11408724607], "tags": {"access": "yes", "amenity": "toilets", "building": "yes", "changing_table": "no", "name": "Outhouse", "toilets:disposal": "pitlatrine", "toilets:handwashing": "no", "unisex": "yes", "wheelchair": "yes"}}]}