{"version": 0.6, "generator": "Overpass API 0.7.62.8 e802775f", "osm3s": {"timestamp_osm_base": "2025-12-06T19:06:10Z", "copyright": "The data included in this document is from www.openstreetmap.org. The data is made available under ODbL."}, "elements": [{"type": "node", "id": 1368338765, "lat": 47.2208797, "lon": -122.2002411}, {"type": "node", "id": 5317981353, "lat": 47.2187593, "lon": -122.1991575}, {"type": "node", "id": 5317981354, "lat": 47.2180597, "lon": -122.2010887}, {"type": "node", "id": 5317981355, "lat": 47.2208495, "lon": -122.2030688}, {"type": "node", "id": 9296826065, "lat": 47.2292547, "lon": -122.200518, "tags": {"addr:city": "Lake Tapps", "addr:housenumber": "3110", "addr:postcode": "98391", "addr:state": "WA", "addr:street": "Sumner Tapps Highway East", "amenity": "restaurant", "cuisine": "italian", "name": "Al Lago", "website": "https://allagorestaurant.com/"}}, {"type": "node", "id": 9917926218, "lat": 47.2205238, "lon": -122.2028106}, {"type": "node", "id": 9917926219, "lat": 47.2204352, "lon": -122.2027018}, {"type": "node", "id": 9917926220, "lat": 47.2198585, "lon": -122.2026893}, {"type": "node", "id": 9917926221, "lat": 47.2193836, "lon": -122.2023928}, {"type": "way", "id": 550592632, "nodes": [5317981355, 9917926218, 9917926219, 9917926220, 9917926221, 5317981354, 5317981353, 1368338765, 5317981355], "tags": {"amenity": "school", "name": "Crestwood Elementary School"}}]}