{"version": 0.6, "generator": "Overpass API 0.7.62.8 e802775f", "osm3s": {"timestamp_osm_base": "2025-12-06T05:13:52Z", "copyright": "The data included in this document is from www.openstreetmap.org. The data is made available under ODbL."}, "elements": [{"type": "node", "id": 3774297510, "lat": 44.7303435, "lon": -116.078697, "tags": {"name": "Stinker's", "shop": "convenience"}}, {"type": "node", "id": 3774297651, "lat": 44.7303569, "lon": -116.07845, "tags": {"amenity": "restaurant", "indoor_seating": "yes", "name": "Pete's Eats", "opening_hours": "Mo-Su,PH 06:00-22:00", "outdoor_seating": "yes"}}, {"type": "node", "id": 3774528610, "lat": 44.7325647, "lon": -116.0777505}, {"type": "node", "id": 3774528622, "lat": 44.7312525, "lon": -116.07856, "tags": {"amenity": "restaurant", "check_date:opening_hours": "2024-06-24", "cuisine": "chinese", "indoor_seating": "yes", "name": "Hai Yan Oriental Cuisine", "opening_hours:signed": "no", "outdoor_seating": "no"}}, {"type": "node", "id": 3774528624, "lat": 44.7324464, "lon": -116.0777538}, {"type": "node", "id": 3774528625, "lat": 44.7324515, "lon": -116.07811}, {"type": "node", "id": 3774528627, "lat": 44.731403, "lon": -116.0785338, "tags": {"laundry_service": "no", "name": "Main Way Laundromat", "opening_hours": "Mo-Su,PH 08:00+", "payment:credit_cards": "no", "payment:debit_cards": "no", "self_service": "yes", "shop": "laundry", "wheelchair": "yes"}}, {"type": "node", "id": 3774546672, "lat": 44.7332953, "lon": -116.0785906}, {"type": "node", "id": 3774546682, "lat": 44.7332953, "lon": -116.0788376}, {"type": "node", "id": 3774546694, "lat": 44.7331369, "lon": -116.0785906}, {"type": "node", "id": 3774546697, "lat": 44.7326884, "lon": -116.0786644}, {"type": "node", "id": 3774546728, "lat": 44.7331369, "lon": -116.0788377}, {"type": "node", "id": 3774546736, "lat": 44.7324693, "lon": -116.0786605}, {"type": "node", "id": 3774546740, "lat": 44.7324678, "lon": -116.0788255}, {"type": "node", "id": 3774546753, "lat": 44.7325697, "lon": -116.0781066}, {"type": "node", "id": 3774546756, "lat": 44.7326869, "lon": -116.0788294}, {"type": "node", "id": 8952438626, "lat": 44.7316016, "lon": -116.0785681, "tags": {"addr:city": "Donnelly", "addr:housenumber": "165", "addr:postcode": "83615", "addr:state": "ID", "addr:street": "North Main Street", "brand": "True Value", "brand:wikidata": "Q7847545", "name": "True Value: Donnelly Hardware", "opening_hours": "Mo-Sa 08:00-18:00", "payment:credit_cards": "yes", "payment:debit_cards": "yes", "phone": "+1 208-970-0848", "ref": "23754", "shop": "hardware", "website": "https://truevaluecompany.com", "wheelchair": "no"}}, {"type": "node", "id": 10789200332, "lat": 44.7324521, "lon": -116.0788227}, {"type": "node", "id": 10789200333, "lat": 44.7324501, "lon": -116.0786592}, {"type": "node", "id": 10789200334, "lat": 44.7322788, "lon": -116.0786632}, {"type": "node", "id": 10789200335, "lat": 44.7322807, "lon": -116.0788267}, {"type": "node", "id": 10789200365, "lat": 44.7327473, "lon": -116.0779741}, {"type": "node", "id": 10789200366, "lat": 44.732717, "lon": -116.0777444}, {"type": "node", "id": 10789200367, "lat": 44.7328884, "lon": -116.077741}, {"type": "node", "id": 10789200368, "lat": 44.7328513, "lon": -116.0781053}, {"type": "node", "id": 10789200369, "lat": 44.7327193, "lon": -116.0779747}, {"type": "node", "id": 10789200370, "lat": 44.7327486, "lon": -116.0781074}, {"type": "node", "id": 10789200371, "lat": 44.7328497, "lon": -116.077941}, {"type": "node", "id": 10789200372, "lat": 44.7328904, "lon": -116.0779402}, {"type": "node", "id": 10789200373, "lat": 44.7327186, "lon": -116.0779028}, {"type": "node", "id": 10789200374, "lat": 44.732623, "lon": -116.0779012}, {"type": "node", "id": 10789200376, "lat": 44.7327154, "lon": -116.0781567}, {"type": "node", "id": 10789200377, "lat": 44.7326208, "lon": -116.0781551}, {"type": "node", "id": 11772270415, "lat": 44.7304023, "lon": -116.0794257}, {"type": "node", "id": 11772270417, "lat": 44.7298792, "lon": -116.0796358}, {"type": "node", "id": 11772270418, "lat": 44.7303746, "lon": -116.0797264}, {"type": "node", "id": 11772270419, "lat": 44.7302548, "lon": -116.0793988}, {"type": "node", "id": 11947104259, "lat": 44.7299035, "lon": -116.0793727}, {"type": "node", "id": 11947104260, "lat": 44.7302514, "lon": -116.0794362}, {"type": "node", "id": 12994010909, "lat": 44.7320834, "lon": -116.078638, "tags": {"addr:city": "Donnelly", "addr:housenumber": "209", "addr:postcode": "83615", "addr:state": "ID", "addr:street": "Main Street", "clothes": "hats", "name": "LA Rosa Hat Co.", "shop": "clothes"}}, {"type": "way", "id": 374048763, "nodes": [3774546753, 3774528610, 3774528624, 3774528625, 3774546753], "tags": {"addr:city": "Donnelly", "addr:housenumber": "256", "addr:postcode": "83615", "addr:state": "ID", "addr:street": "Main Street", "air_conditioning": "yes", "amenity": "restaurant", "building": "retail", "check_date:opening_hours": "2024-07-24", "indoor_seating": "yes", "name": "The Roost", "opening_hours:signed": "no", "outdoor_seating": "yes", "phone": "+1 208-325-3355", "website": "https://theroostdonnelly.com"}}, {"type": "way", "id": 374049892, "nodes": [3774546756, 3774546697, 3774546736, 3774546740, 3774546756], "tags": {"air_conditioning": "yes", "amenity": "restaurant", "building": "yes", "indoor_seating": "yes", "name": "Cougar Dave's Food & Spirits", "opening_hours": "Tu-Su 11:30-21:00", "outdoor_seating": "yes"}}, {"type": "way", "id": 374049898, "nodes": [3774546682, 3774546672, 3774546694, 3774546728, 3774546682], "tags": {"amenity": "restaurant", "building": "yes", "indoor_seating": "yes", "name": "Buffalo Gal", "outdoor_seating": "yes"}}, {"type": "way", "id": 1160088230, "nodes": [10789200332, 10789200333, 10789200334, 10789200335, 10789200332], "tags": {"addr:city": "Donnelly", "addr:housenumber": "235", "addr:postcode": "83615", "addr:state": "ID", "addr:street": "Main Street", "building": "retail", "name": "The Trading Post", "shop": "alcohol"}}, {"type": "way", "id": 1160088234, "nodes": [10789200365, 10789200369, 10789200373, 10789200366, 10789200367, 10789200372, 10789200371, 10789200368, 10789200370, 10789200365], "tags": {"addr:city": "Donnelly", "addr:housenumber": "282", "addr:postcode": "83615", "addr:state": "ID", "addr:street": "Main Street", "building": "retail", "name": "Flight of Fancy", "phone": "+12083254432", "shop": "bakery", "website": "https://www.dessertjunkies.com/"}}, {"type": "way", "id": 1160088236, "nodes": [10789200373, 10789200376, 10789200377, 10789200374, 10789200373], "tags": {"amenity": "restaurant", "building": "yes", "layer": "1"}}, {"type": "way", "id": 1267532874, "nodes": [11772270415, 11772270419, 11947104260, 11947104259, 11772270417, 11772270418, 11772270415], "tags": {"brand": "U-Haul", "brand:wikidata": "Q7862902", "building": "yes", "name": "U-Haul", "shop": "rental"}}]}