{"version": 0.6, "generator": "Overpass API 0.7.62.8 e802775f", "osm3s": {"timestamp_osm_base": "2025-11-05T13:52:11Z", "copyright": "The data included in this document is from www.openstreetmap.org. The data is made available under ODbL."}, "elements": [{"type": "node", "id": 3949321833, "lat": 41.9503748, "lon": -91.7144516, "tags": {"addr:housenumber": "2725", "addr:street": "Edgewood Parkway Southwest", "leisure": "fitness_centre", "name": "iGym", "opening_hours": "Mo-Th 11:00-18:00; Fr, Sa 09:00-13:00", "phone": "+1-319-320-7705", "source": "Mapbox", "website": "https://igymia.com/edgewood/"}}, {"type": "node", "id": 5064988523, "lat": 41.9772823, "lon": -91.6179972, "tags": {"addr:city": "Cedar Rapids", "addr:housenumber": "806", "addr:postcode": "52403", "addr:state": "IA", "addr:street": "34th Street Southeast", "branch": "Cedar Rapids (34th Street Southeast)", "brand": "Anytime Fitness", "brand:wikidata": "Q4778364", "leisure": "fitness_centre", "name": "Anytime Fitness", "phone": "+1 319-550-0216", "ref": "2241", "website": "https://www.anytimefitness.com/gyms/2241/cedar-rapids-ia-52403/"}}, {"type": "node", "id": 6044321435, "lat": 42.0313821, "lon": -91.698452, "tags": {"addr:city": "Cedar Rapids", "addr:housenumber": "3925", "addr:postcode": "52411", "addr:state": "IA", "addr:street": "Fountains Drive Northeast", "addr:unit": "106", "leisure": "fitness_centre", "name": "Mac Xtream 24/7", "opening_hours": "24/7", "sport": "fitness"}}, {"type": "node", "id": 6055395446, "lat": 42.0325974, "lon": -91.6990628}, {"type": "node", "id": 6055395447, "lat": 42.0325964, "lon": -91.6993169}, {"type": "node", "id": 6055395448, "lat": 42.0325308, "lon": -91.6990623}, {"type": "node", "id": 6055395449, "lat": 42.0325298, "lon": -91.6993164}, {"type": "node", "id": 6426478386, "lat": 42.0151306, "lon": -91.6348079, "tags": {"addr:city": "Cedar Rapids", "addr:housenumber": "3607", "addr:postcode": "52402", "addr:state": "IA", "addr:street": "1st Avenue East", "addr:unit": "A", "leisure": "fitness_centre", "name": "Heat Yoga", "phone": "+1-319-665-2635", "sport": "yoga", "website": "https://www.heatyogacr.com/classes"}}, {"type": "node", "id": 6536217977, "lat": 42.0271858, "lon": -91.6209733, "tags": {"addr:city": "Cedar Rapids", "addr:housenumber": "4824", "addr:postcode": "52402", "addr:state": "IA", "addr:street": "1st Avenue East", "brand": "Orangetheory Fitness", "brand:wikidata": "Q25005163", "leisure": "fitness_centre", "name": "Orangetheory Fitness", "opening_hours": "Mo-Fr 05:00-20:00; Sa 06:00-11:30; Su 06:30-13:00", "phone": "+1 319-450-0665", "ref": "2204", "sport": "fitness"}}, {"type": "node", "id": 6562076729, "lat": 42.0339818, "lon": -91.6291204}, {"type": "node", "id": 6562076730, "lat": 42.0339832, "lon": -91.6287548}, {"type": "node", "id": 6562076731, "lat": 42.0335904, "lon": -91.6287522}, {"type": "node", "id": 6562076732, "lat": 42.03359, "lon": -91.6288475}, {"type": "node", "id": 6562076733, "lat": 42.0335761, "lon": -91.6288474}, {"type": "node", "id": 6562076734, "lat": 42.0335752, "lon": -91.6290775}, {"type": "node", "id": 6562076735, "lat": 42.0335847, "lon": -91.6290776}, {"type": "node", "id": 6562076736, "lat": 42.0335846, "lon": -91.6291187}, {"type": "node", "id": 6562076737, "lat": 42.0338054, "lon": -91.6291202}, {"type": "node", "id": 6562076738, "lat": 42.0338054, "lon": -91.6291308}, {"type": "node", "id": 6562076739, "lat": 42.0338702, "lon": -91.6291313}, {"type": "node", "id": 6562076740, "lat": 42.0338702, "lon": -91.6291196}, {"type": "node", "id": 6591844709, "lat": 41.941761, "lon": -91.7149781, "tags": {"brand": "Curves", "brand:wikidata": "Q5196080", "leisure": "fitness_centre", "name": "Curves"}}, {"type": "node", "id": 6597908624, "lat": 41.964148, "lon": -91.7132525}, {"type": "node", "id": 6597908625, "lat": 41.9641488, "lon": -91.713594}, {"type": "node", "id": 6597908626, "lat": 41.9643739, "lon": -91.713593}, {"type": "node", "id": 7027713106, "lat": 41.9995095, "lon": -91.66238}, {"type": "node", "id": 7027713107, "lat": 41.9994399, "lon": -91.6623776}, {"type": "node", "id": 7027713108, "lat": 41.9994359, "lon": -91.6625819}, {"type": "node", "id": 7027713109, "lat": 41.9994984, "lon": -91.6625841}, {"type": "node", "id": 7027713110, "lat": 41.9995126, "lon": -91.6625683}, {"type": "node", "id": 7027713111, "lat": 41.9995152, "lon": -91.6624316}, {"type": "node", "id": 7027713112, "lat": 41.9995085, "lon": -91.6624313}, {"type": "node", "id": 8356440775, "lat": 42.0151666, "lon": -91.6333969, "tags": {"addr:city": "Cedar Rapids", "addr:housenumber": "3639", "addr:postcode": "52402", "addr:state": "IA", "addr:street": "1st Avenue East", "leisure": "fitness_centre", "name": "Elite Edge", "phone": "+1-319-440-0107", "website": "https://eliteedgegym.com"}}, {"type": "node", "id": 8372752328, "lat": 42.0344696, "lon": -91.7030597}, {"type": "node", "id": 8372752329, "lat": 42.0342774, "lon": -91.7030701}, {"type": "node", "id": 8372752330, "lat": 42.0342874, "lon": -91.7034043}, {"type": "node", "id": 8372752331, "lat": 42.0344795, "lon": -91.703394}, {"type": "node", "id": 8385058809, "lat": 42.0228351, "lon": -91.6670015, "tags": {"leisure": "fitness_centre", "name": "The FIT Spot"}}, {"type": "node", "id": 8441706486, "lat": 42.0067745, "lon": -91.6729529}, {"type": "node", "id": 8441706487, "lat": 42.0064416, "lon": -91.672959}, {"type": "node", "id": 8441706488, "lat": 42.006445, "lon": -91.6733443}, {"type": "node", "id": 8441706489, "lat": 42.0067779, "lon": -91.673339}, {"type": "node", "id": 8441763374, "lat": 42.0065081, "lon": -91.6729579}, {"type": "node", "id": 8441763375, "lat": 42.0066149, "lon": -91.6729554}, {"type": "node", "id": 8441763376, "lat": 42.0066145, "lon": -91.672914}, {"type": "node", "id": 8441763377, "lat": 42.0065079, "lon": -91.6729362}, {"type": "node", "id": 8441763378, "lat": 42.0065676, "lon": -91.672853}, {"type": "node", "id": 9359084576, "lat": 42.0362497, "lon": -91.6528339, "tags": {"addr:city": "Cedar Rapids", "addr:housenumber": "1100", "addr:postcode": "52402", "addr:state": "IA", "addr:street": "Blairs Ferry Road Northeast", "leisure": "fitness_centre", "name": "iGym", "opening_hours": "Mo-Th 09:00-19:00; Fr, Sa 09:00-13:00", "phone": "+1-319-826-6372", "website": "https://igymia.com/"}}, {"type": "node", "id": 9368748718, "lat": 42.0266653, "lon": -91.6272152, "tags": {"brand": "Planet Fitness", "brand:wikidata": "Q7201095", "leisure": "fitness_centre", "name": "Planet Fitness", "phone": "+1-319-310-2501", "website": "https://www.planetfitness.com/gyms/cedar-rapids-1st-ave-ne-ia"}}, {"type": "node", "id": 9377917176, "lat": 42.0039958, "lon": -91.6353749, "tags": {"leisure": "fitness_centre", "sport": "yoga"}}, {"type": "node", "id": 9535760222, "lat": 41.9643731, "lon": -91.7132515}, {"type": "node", "id": 10263251971, "lat": 41.9969546, "lon": -91.6546165, "tags": {"addr:housenumber": "939", "addr:street": "17th Street Northeast", "leisure": "sports_hall", "name": "Rinderknecht Atheletic Center", "opening_hours": "Mo-Th 07:00-22:00; Fr 07:00-18:00; Sa 10:00-14:00; Su 16:00-22:00", "website": "https://www.mountmercymustangs.com/facilities/rinderknecht-athletic-center"}}, {"type": "way", "id": 643466299, "nodes": [6055395449, 6055395447, 6055395446, 6055395448, 6055395449], "tags": {"addr:city": "Cedar Rapids", "addr:housenumber": "5300", "addr:postcode": "52411", "addr:state": "IA", "addr:street": "Fountains Drive Northeast", "addr:unit": "112", "building": "yes", "building:levels": "1", "leisure": "fitness_centre", "name": "Burst Cycle", "sport": "cycling;yoga"}}, {"type": "way", "id": 698806263, "nodes": [6562076729, 6562076730, 6562076731, 6562076732, 6562076733, 6562076734, 6562076735, 6562076736, 6562076737, 6562076738, 6562076739, 6562076740, 6562076729], "tags": {"addr:housenumber": "202", "addr:street": "Blairs Ferry Road Northeast", "building": "yes", "building:levels": "1", "leisure": "fitness_centre", "name": "Elite Fitness", "opening_hours": "24/7", "phone": "319-377-2000", "website": "https://www.elitefitnessiowa.com/crblairsferry"}}, {"type": "way", "id": 702582225, "nodes": [9535760222, 6597908624, 6597908625, 6597908626, 9535760222], "tags": {"addr:city": "Cedar Rapids", "addr:housenumber": "3140", "addr:postcode": "52404", "addr:state": "IA", "addr:street": "16th Avenue Southwest", "branch": "Cedar Rapids (16th Avenue Southwest)", "brand": "Anytime Fitness", "brand:wikidata": "Q4778364", "building": "yes", "leisure": "fitness_centre", "name": "Anytime Fitness", "phone": "+1 319-899-7447", "ref": "2613", "website": "https://www.anytimefitness.com/gyms/2613/cedar-rapids-ia-52404/"}}, {"type": "way", "id": 751772049, "nodes": [7027713106, 7027713107, 7027713108, 7027713109, 7027713110, 7027713111, 7027713112, 7027713106], "tags": {"addr:city": "Cedar Rapids", "addr:housenumber": "1066", "addr:postcode": "52402", "addr:state": "IA", "addr:street": "Center Point Road Northeast", "building": "yes", "leisure": "fitness_centre", "name": "GoldenTrainer Performance Studio", "phone": "+1-319-721-4922", "website": "https://goldentrainer.com"}}, {"type": "way", "id": 901295366, "nodes": [8372752328, 8372752329, 8372752330, 8372752331, 8372752328], "tags": {"building": "yes", "leisure": "fitness_centre", "name": "Farrell's Extreme Bodyshaping"}}, {"type": "way", "id": 909184293, "nodes": [8441706486, 8441763375, 8441763376, 8441763378, 8441763377, 8441763374, 8441706487, 8441706488, 8441706489, 8441706486], "tags": {"building": "yes", "leisure": "sports_hall", "operator": "Isaac Newton Christian Academy"}}]}