{"version": 0.6, "generator": "Overpass API 0.7.62.8 e802775f", "osm3s": {"timestamp_osm_base": "2025-10-31T07:38:58Z", "copyright": "The data included in this document is from www.openstreetmap.org. The data is made available under ODbL."}, "elements": [{"type": "node", "id": 357278809, "lat": 43.179, "lon": -123.9962101, "tags": {"addr:state": "OR", "ele": "91", "gnis:feature_id": "1118856", "leisure": "park", "name": "Ham Bunch - Cherry Creek County Park"}}, {"type": "node", "id": 357280895, "lat": 43.1612223, "lon": -123.9803758, "tags": {"addr:state": "OR", "ele": "24", "gnis:feature_id": "1121009", "leisure": "park", "name": "Frona County Park"}}, {"type": "node", "id": 357281116, "lat": 43.4845595, "lon": -123.9323236, "tags": {"addr:state": "OR", "ele": "218", "gnis:feature_id": "1121216", "leisure": "park", "name": "Golden and Silver Falls State Park", "wikidata": "Q5579994"}}, {"type": "node", "id": 357283524, "lat": 43.2581668, "lon": -124.0214905, "tags": {"addr:state": "OR", "ele": "53", "gnis:feature_id": "1122997", "leisure": "park", "name": "Laverne County Park"}}, {"type": "node", "id": 357284258, "lat": 43.1603902, "lon": -123.865648, "tags": {"addr:state": "OR", "ele": "188", "gnis:feature_id": "1123756", "leisure": "park", "name": "Maria C Jackson State Park"}}, {"type": "node", "id": 357284702, "lat": 43.4456696, "lon": -123.9951028, "tags": {"addr:state": "OR", "ele": "34", "gnis:feature_id": "1124216", "leisure": "park", "name": "Millicoma Myrtle Grove State Park"}}, {"type": "node", "id": 357285193, "lat": 43.440114, "lon": -123.9953806, "tags": {"addr:state": "OR", "ele": "47", "gnis:feature_id": "1124654", "leisure": "park", "name": "Nesika County Park"}}, {"type": "node", "id": 357287229, "lat": 43.4059465, "lon": -124.0637167, "tags": {"addr:state": "OR", "ele": "12", "gnis:feature_id": "1126274", "leisure": "park", "name": "R Higgins Park Boat Ramp"}}, {"type": "node", "id": 357297631, "lat": 43.2192791, "lon": -123.8331476, "tags": {"addr:state": "OR", "ele": "700", "gnis:feature_id": "1132525", "leisure": "park", "name": "Burnt Mountain Recreation Site"}}, {"type": "node", "id": 357297635, "lat": 43.2459453, "lon": -123.8962066, "tags": {"addr:state": "OR", "ele": "149", "gnis:feature_id": "1132526", "leisure": "park", "name": "Park Creek Recreation Site"}}, {"type": "node", "id": 357297638, "lat": 43.2178895, "lon": -123.9373192, "tags": {"addr:state": "OR", "ele": "207", "gnis:feature_id": "1132527", "leisure": "park", "name": "Cherry Creek Recreation Site"}}, {"type": "node", "id": 357297643, "lat": 43.2359448, "lon": -123.9748212, "tags": {"addr:state": "OR", "ele": "72", "gnis:feature_id": "1132530", "leisure": "park", "name": "Middle Creek Recreation Site"}}, {"type": "node", "id": 357327582, "lat": 43.153724, "lon": -123.8159233, "tags": {"addr:state": "OR", "ele": "264", "gnis:feature_id": "1161402", "leisure": "park", "name": "Judge Hamilton County Park"}}, {"type": "node", "id": 357355036, "lat": 43.2595557, "lon": -124.0364912, "tags": {"addr:state": "OR", "ele": "47", "gnis:feature_id": "2058213", "leisure": "park", "name": "West La Verne Park"}}]}