{"version": 0.6, "generator": "Overpass API 0.7.62.8 e802775f", "osm3s": {"timestamp_osm_base": "2025-12-06T04:21:20Z", "copyright": "The data included in this document is from www.openstreetmap.org. The data is made available under ODbL."}, "elements": [{"type": "node", "id": 1183476253, "lat": 44.6589, "lon": -111.10047, "tags": {"amenity": "restaurant", "ele": "2045", "name": "Outpost Restaurant", "source": "collected by Volker Bartheld, converted and imported by malenki"}}, {"type": "node", "id": 1830264942, "lat": 44.6589465, "lon": -111.1022741, "tags": {"addr:city": "West Yellowstone", "addr:housenumber": "205", "addr:postcode": "59758", "addr:state": "MT", "addr:street": "Yellowstone Avenue", "amenity": "restaurant", "name": "Three Bear Restaurant", "phone": "+1 406 6467811", "website": "https://threebearlodge.com/amenities/restaurant"}}, {"type": "node", "id": 2972495487, "lat": 44.6599357, "lon": -111.0983549}, {"type": "node", "id": 2972495488, "lat": 44.6599374, "lon": -111.0987857}, {"type": "node", "id": 2972495489, "lat": 44.6600258, "lon": -111.0986038}, {"type": "node", "id": 2972495490, "lat": 44.6600275, "lon": -111.098784}, {"type": "node", "id": 2972495491, "lat": 44.6601946, "lon": -111.0986006}, {"type": "node", "id": 2972495492, "lat": 44.6601962, "lon": -111.098689}, {"type": "node", "id": 2972495494, "lat": 44.6603567, "lon": -111.0983565}, {"type": "node", "id": 2972495495, "lat": 44.6603584, "lon": -111.0986874}, {"type": "node", "id": 3086486656, "lat": 44.6612851, "lon": -111.0999534, "tags": {"name": "Horseshoe Gift Shop", "shop": "gift"}}, {"type": "node", "id": 3086486657, "lat": 44.6643475, "lon": -111.100033, "tags": {"shop": "laundry"}}, {"type": "node", "id": 3548909269, "lat": 44.6624791, "lon": -111.103774, "tags": {"addr:city": "West Yellowstone", "addr:housenumber": "237", "addr:postcode": "59758", "addr:state": "MT", "addr:street": "Firehole Avenue", "alt_name": "Euro Cafe", "amenity": "cafe", "brand": "Euro Caf\u00e9", "brand:wikidata": "Q113826845", "cuisine": "coffee_shop;sandwich", "internet_access": "no", "name": "Euro Caf\u00e9", "opening_hours": "07:00-15:00", "phone": "+1 406-646-1170", "smoking": "outside", "takeaway": "yes", "wheelchair": "yes"}}, {"type": "node", "id": 3857773069, "lat": 44.6568124, "lon": -111.0988202, "tags": {"amenity": "restaurant", "name": "The Grizzly Claw"}}, {"type": "node", "id": 3857773071, "lat": 44.6603332, "lon": -111.0983457}, {"type": "node", "id": 3857773073, "lat": 44.6606413, "lon": -111.0987415}, {"type": "node", "id": 3857773074, "lat": 44.6601121, "lon": -111.0999418, "tags": {"check_date": "2024-06-29", "name": "The T-Shirt Shop", "shop": "clothes"}}, {"type": "node", "id": 3857773075, "lat": 44.6599052, "lon": -111.1000641, "tags": {"amenity": "restaurant", "cuisine": "american", "name": "Buckaroo Bill's BBQ Grill"}}, {"type": "node", "id": 3857773076, "lat": 44.6597804, "lon": -111.0999416, "tags": {"addr:housenumber": "22", "addr:street": "Canyon Street", "amenity": "restaurant", "check_date": "2024-06-29", "name": "Canyon Street Grill", "phone": "+1 406-646-7548"}}, {"type": "node", "id": 3857773077, "lat": 44.6603396, "lon": -111.1003474, "tags": {"amenity": "restaurant", "check_date": "2024-06-29", "cuisine": "chinese", "name": "Chinatown"}}, {"type": "node", "id": 3857773078, "lat": 44.6613248, "lon": -111.099479}, {"type": "node", "id": 3857773079, "lat": 44.6610434, "lon": -111.0994842}, {"type": "node", "id": 3857773082, "lat": 44.6600675, "lon": -111.11057}, {"type": "node", "id": 3857773341, "lat": 44.6638121, "lon": -111.1115505, "tags": {"amenity": "restaurant", "name": "Geyser Grill"}}, {"type": "node", "id": 4120691517, "lat": 44.662719, "lon": -111.1060928}, {"type": "node", "id": 4449906635, "lat": 44.658984, "lon": -111.1045935, "tags": {"amenity": "restaurant", "cuisine": "regional", "name": "The Branch Restaurant and Bar"}}, {"type": "node", "id": 4449911894, "lat": 44.6608542, "lon": -111.1001113, "tags": {"amenity": "cafe", "cuisine": "coffee_shop", "name": "Book Peddler"}}, {"type": "node", "id": 4449911901, "lat": 44.6608485, "lon": -111.0999718, "tags": {"addr:city": "West Yellowstone", "addr:country": "US", "addr:housenumber": "106", "addr:postcode": "59758", "addr:state": "MT", "addr:street": "North Canyon Street", "name": "Book Peddler", "shop": "books", "source": "survey 10/2016"}}, {"type": "node", "id": 4459275703, "lat": 44.6568282, "lon": -111.0983473}, {"type": "node", "id": 4459275704, "lat": 44.6569582, "lon": -111.0983906}, {"type": "node", "id": 4459275705, "lat": 44.656632, "lon": -111.0985387}, {"type": "node", "id": 4459275706, "lat": 44.6567294, "lon": -111.0983452}, {"type": "node", "id": 4459275707, "lat": 44.6566125, "lon": -111.0984936}, {"type": "node", "id": 4459275708, "lat": 44.6569716, "lon": -111.0984584}, {"type": "node", "id": 4459275709, "lat": 44.6566473, "lon": -111.0985602}, {"type": "node", "id": 4459275710, "lat": 44.6569442, "lon": -111.0983646}, {"type": "node", "id": 4459275711, "lat": 44.6566071, "lon": -111.0984662}, {"type": "node", "id": 4459275712, "lat": 44.6566289, "lon": -111.0983699}, {"type": "node", "id": 4459275713, "lat": 44.6569271, "lon": -111.0983473}, {"type": "node", "id": 4459275714, "lat": 44.6569685, "lon": -111.0984236}, {"type": "node", "id": 4459275715, "lat": 44.6566148, "lon": -111.0983984}, {"type": "node", "id": 4459275716, "lat": 44.6569585, "lon": -111.0985195}, {"type": "node", "id": 4459275717, "lat": 44.6567295, "lon": -111.0980496}, {"type": "node", "id": 4459275718, "lat": 44.6568282, "lon": -111.0980529}, {"type": "node", "id": 4459275719, "lat": 44.6566079, "lon": -111.098433}, {"type": "node", "id": 4459275720, "lat": 44.6569259, "lon": -111.0985632}, {"type": "node", "id": 4459275721, "lat": 44.6566484, "lon": -111.0983443}, {"type": "node", "id": 4459275722, "lat": 44.6569683, "lon": -111.0984906}, {"type": "node", "id": 4459275723, "lat": 44.6569447, "lon": -111.0985463}, {"type": "node", "id": 4459275724, "lat": 44.6566204, "lon": -111.0985168}, {"type": "node", "id": 4500144581, "lat": 44.6593002, "lon": -111.0999343, "tags": {"shop": "books"}}, {"type": "node", "id": 4500144582, "lat": 44.6594079, "lon": -111.0999343, "tags": {"shop": "jewelry"}}, {"type": "node", "id": 4500144583, "lat": 44.6593488, "lon": -111.0999356, "tags": {"name": "Out West", "shop": "gift"}}, {"type": "node", "id": 4500144584, "lat": 44.6594908, "lon": -111.0999277, "tags": {"name": "Yellowstone T-Shirt Co.", "shop": "clothes"}}, {"type": "node", "id": 4500144585, "lat": 44.6592222, "lon": -111.1001278}, {"type": "node", "id": 4500144586, "lat": 44.6589384, "lon": -111.1001278}, {"type": "node", "id": 4500144587, "lat": 44.6589384, "lon": -111.1000248}, {"type": "node", "id": 4500144588, "lat": 44.6590395, "lon": -111.1000238}, {"type": "node", "id": 4500145289, "lat": 44.659113, "lon": -111.0999648}, {"type": "node", "id": 4500145293, "lat": 44.6592234, "lon": -111.0998588}, {"type": "node", "id": 4500145295, "lat": 44.6599757, "lon": -111.0999432, "tags": {"check_date": "2024-06-29", "name": "Kid's Shop", "shop": "toys"}}, {"type": "node", "id": 4500145296, "lat": 44.6600386, "lon": -111.0999419, "tags": {"check_date": "2024-06-29", "name": "Forever Young", "shop": "gift"}}, {"type": "node", "id": 4500145329, "lat": 44.6610953, "lon": -111.1004631}, {"type": "node", "id": 4500145330, "lat": 44.6612558, "lon": -111.1004618}, {"type": "node", "id": 4500145331, "lat": 44.6613623, "lon": -111.1004597}, {"type": "node", "id": 4500145332, "lat": 44.6610822, "lon": -111.1003276}, {"type": "node", "id": 4500145333, "lat": 44.6610779, "lon": -111.099894}, {"type": "node", "id": 4500145334, "lat": 44.6613567, "lon": -111.0998886}, {"type": "node", "id": 4500145341, "lat": 44.6620285, "lon": -111.1002711}, {"type": "node", "id": 4500145342, "lat": 44.6617767, "lon": -111.1002697}, {"type": "node", "id": 4500145343, "lat": 44.6617771, "lon": -111.1001062}, {"type": "node", "id": 4500145344, "lat": 44.6620289, "lon": -111.1001075}, {"type": "node", "id": 4500145355, "lat": 44.6644828, "lon": -111.1001708}, {"type": "node", "id": 4500145356, "lat": 44.6645333, "lon": -111.1001724}, {"type": "node", "id": 4500145357, "lat": 44.6644018, "lon": -111.1002843}, {"type": "node", "id": 4500145358, "lat": 44.6644065, "lon": -111.0999887}, {"type": "node", "id": 4500145359, "lat": 44.6644856, "lon": -111.0999911}, {"type": "node", "id": 4500145360, "lat": 44.6645314, "lon": -111.1002883}, {"type": "node", "id": 4689007158, "lat": 44.6588602, "lon": -111.0989506}, {"type": "node", "id": 4689007159, "lat": 44.6590781, "lon": -111.0989499}, {"type": "node", "id": 4689007160, "lat": 44.6590783, "lon": -111.099063}, {"type": "node", "id": 4689007161, "lat": 44.6588604, "lon": -111.0990637}, {"type": "node", "id": 4689007164, "lat": 44.6588918, "lon": -111.0989964, "tags": {"name": "Mocha Mommas", "shop": "coffee"}}, {"type": "node", "id": 5257593421, "lat": 44.6625398, "lon": -111.1039464, "tags": {"addr:city": "West Yellowstone", "addr:housenumber": "209", "addr:postcode": "59758", "addr:state": "MT", "addr:street": "Electric Street", "name": "West Yellowstone Economic Development Council", "office": "yes", "website": "http://www.wyed.org/"}}, {"type": "node", "id": 5578046058, "lat": 44.657362, "lon": -111.1072759}, {"type": "node", "id": 5578046059, "lat": 44.657362, "lon": -111.1067019}, {"type": "node", "id": 5578046060, "lat": 44.6577455, "lon": -111.1067019}, {"type": "node", "id": 5578046061, "lat": 44.6577455, "lon": -111.1072759}, {"type": "node", "id": 5694012855, "lat": 44.6610403, "lon": -111.1016084}, {"type": "node", "id": 5694012856, "lat": 44.6610402, "lon": -111.1014204}, {"type": "node", "id": 5694012857, "lat": 44.6606614, "lon": -111.1014204}, {"type": "node", "id": 5694012858, "lat": 44.6606614, "lon": -111.1016084}, {"type": "node", "id": 5694012859, "lat": 44.6606989, "lon": -111.1016084, "tags": {"addr:housenumber": "107", "addr:street": "Dunraven Street", "entrance": "main"}}, {"type": "node", "id": 5757350429, "lat": 44.6624988, "lon": -111.107256}, {"type": "node", "id": 5759803721, "lat": 44.660332, "lon": -111.1095786, "tags": {"addr:housenumber": "520", "addr:postcode": "59758", "addr:street": "Madison Avenue", "name": "Swan Cleaners & Laundromat", "opening_hours": "Mo-Su 08:00-20:00", "phone": "+1 406-646-7892", "shop": "laundry", "website": "https://www.swanlaundromat.com"}}, {"type": "node", "id": 5976407625, "lat": 44.6620518, "lon": -111.1013361, "tags": {"amenity": "restaurant", "cuisine": "mexican", "name": "Naughty Chile Taqueria"}}, {"type": "node", "id": 5976407626, "lat": 44.6620397, "lon": -111.1004756, "tags": {"amenity": "restaurant", "cuisine": "barbecue", "name": "Firehole Bar-B-Que Co"}}, {"type": "node", "id": 6489089388, "lat": 44.6607142, "lon": -111.0984353, "tags": {"addr:city": "West Yellowstone", "addr:housenumber": "17", "addr:postcode": "59829", "addr:state": "MT", "addr:street": "Madison Avenue", "amenity": "restaurant", "email": "mountainmamascafe@gmail.com", "name": "Mountain Mama\u2019s Coffeehouse and Bakery", "phone": "+1-406-641-0089", "website": "https://www.mountainmamascafe.com/"}}, {"type": "node", "id": 6491801173, "lat": 44.6607156, "lon": -111.098267, "tags": {"name": "Yellowstone Big Gun Fun", "shop": "weapons"}}, {"type": "node", "id": 6558766987, "lat": 44.660994, "lon": -111.0999811, "tags": {"amenity": "restaurant", "cuisine": "pasta;pizza", "name": "Pete\u2019s Pizza & Pasta", "outdoor_seating": "yes", "toilets": "yes"}}, {"type": "node", "id": 6568682880, "lat": 44.6588987, "lon": -111.1015114, "tags": {"amenity": "restaurant", "cuisine": "american", "name": "Tiberline Cafe"}}, {"type": "node", "id": 6568682894, "lat": 44.6590155, "lon": -111.0993283, "tags": {"name": "Eagle's Curios", "shop": "outdoor"}}, {"type": "node", "id": 6653254485, "lat": 44.6607346, "lon": -111.099906, "tags": {"addr:housenumber": "104 N", "addr:postcode": "59758", "addr:street": "Canyon Street", "name": "The Cradleboard", "shop": "gift"}}, {"type": "node", "id": 7683557345, "lat": 44.6607777, "lon": -111.0987388}, {"type": "node", "id": 7683557346, "lat": 44.6606582, "lon": -111.0987403}, {"type": "node", "id": 7683557347, "lat": 44.6607773, "lon": -111.098679}, {"type": "node", "id": 7683557348, "lat": 44.6608113, "lon": -111.0986782}, {"type": "node", "id": 7683557349, "lat": 44.6608102, "lon": -111.098587}, {"type": "node", "id": 7683557350, "lat": 44.6608214, "lon": -111.0985867}, {"type": "node", "id": 7683557352, "lat": 44.660821, "lon": -111.0985533}, {"type": "node", "id": 7683557353, "lat": 44.6606391, "lon": -111.0985576}, {"type": "node", "id": 7824540238, "lat": 44.6602262, "lon": -111.1103541}, {"type": "node", "id": 7824540239, "lat": 44.6602261, "lon": -111.1104516}, {"type": "node", "id": 7824540240, "lat": 44.6600676, "lon": -111.1104514}, {"type": "node", "id": 7824540241, "lat": 44.6603948, "lon": -111.1103543}, {"type": "node", "id": 7824540242, "lat": 44.6603947, "lon": -111.110571}, {"type": "node", "id": 7859563571, "lat": 44.659894, "lon": -111.1046079}, {"type": "node", "id": 7859563572, "lat": 44.6599754, "lon": -111.1045485}, {"type": "node", "id": 7859563573, "lat": 44.6600797, "lon": -111.1048871}, {"type": "node", "id": 7859563574, "lat": 44.6600788, "lon": -111.104932}, {"type": "node", "id": 7859563575, "lat": 44.6599752, "lon": -111.1046094}, {"type": "node", "id": 7859563576, "lat": 44.6598911, "lon": -111.1048882}, {"type": "node", "id": 7859563577, "lat": 44.6603101, "lon": -111.1049335}, {"type": "node", "id": 7859563578, "lat": 44.6603119, "lon": -111.1045505}, {"type": "node", "id": 7873761575, "lat": 44.6603454, "lon": -111.1022536}, {"type": "node", "id": 7873761576, "lat": 44.6603153, "lon": -111.1022536}, {"type": "node", "id": 7873761577, "lat": 44.6603154, "lon": -111.1022102}, {"type": "node", "id": 7873761578, "lat": 44.6603772, "lon": -111.1022925}, {"type": "node", "id": 7873761579, "lat": 44.6601109, "lon": -111.1022102}, {"type": "node", "id": 7873761580, "lat": 44.6603454, "lon": -111.1022925}, {"type": "node", "id": 7873761581, "lat": 44.6603772, "lon": -111.1024727}, {"type": "node", "id": 7873761582, "lat": 44.6601109, "lon": -111.1024727}, {"type": "node", "id": 7965136089, "lat": 44.6617606, "lon": -111.1049033}, {"type": "node", "id": 7965136090, "lat": 44.6618348, "lon": -111.1049032}, {"type": "node", "id": 7965136091, "lat": 44.6618349, "lon": -111.1050555}, {"type": "node", "id": 7965136092, "lat": 44.6617604, "lon": -111.1047401}, {"type": "node", "id": 7965136093, "lat": 44.6621048, "lon": -111.1047396}, {"type": "node", "id": 7965136094, "lat": 44.662105, "lon": -111.1050551}, {"type": "node", "id": 8253107409, "lat": 44.6623474, "lon": -111.1072536}, {"type": "node", "id": 8253107410, "lat": 44.6623493, "lon": -111.107043}, {"type": "node", "id": 8253107411, "lat": 44.6625007, "lon": -111.1070457}, {"type": "node", "id": 8361611407, "lat": 44.6611422, "lon": -111.1004022, "tags": {"addr:city": "West Yellowstone", "addr:housenumber": "120", "addr:postcode": "59758", "addr:state": "MT", "addr:street": "Canyon Street", "addr:unit": "5", "name": "Montana Gift Shop & Gallery", "opening_hours": "Mo-Su 10:00-18:00", "operator": "Montana Gift Shop & Gallery", "payment:cash": "yes", "payment:credit_cards": "yes", "payment:debit_cards": "yes", "phone": "+1 406 641-1818", "shop": "gift"}}, {"type": "node", "id": 8927144229, "lat": 44.6588814, "lon": -111.1001128, "tags": {"amenity": "cafe", "cuisine": "coffee_shop;ice_cream", "name": "Espresso West"}}, {"type": "node", "id": 8927144236, "lat": 44.659113, "lon": -111.0998588}, {"type": "node", "id": 8936116589, "lat": 44.6559539, "lon": -111.104798, "tags": {"access": "customers", "shop": "laundry"}}, {"type": "node", "id": 8936116590, "lat": 44.6555847, "lon": -111.1057288, "tags": {"shop": "convenience"}}, {"type": "node", "id": 9113411380, "lat": 44.6607956, "lon": -111.0994843}, {"type": "node", "id": 9113411381, "lat": 44.6607954, "lon": -111.0992624}, {"type": "node", "id": 9113411382, "lat": 44.660637, "lon": -111.0992639}, {"type": "node", "id": 9113411383, "lat": 44.6606382, "lon": -111.0994822}, {"type": "node", "id": 9119893957, "lat": 44.6591205, "lon": -111.100232}, {"type": "node", "id": 9119893958, "lat": 44.6588675, "lon": -111.100235}, {"type": "node", "id": 9119893959, "lat": 44.6588669, "lon": -111.100134}, {"type": "node", "id": 9119893960, "lat": 44.65912, "lon": -111.100131}, {"type": "node", "id": 9119918263, "lat": 44.6590291, "lon": -111.1009949}, {"type": "node", "id": 9119918264, "lat": 44.6588683, "lon": -111.1009979}, {"type": "node", "id": 9119918265, "lat": 44.6588651, "lon": -111.1006319}, {"type": "node", "id": 9119918266, "lat": 44.659026, "lon": -111.1006289}, {"type": "node", "id": 9210337258, "lat": 44.6626715, "lon": -111.1057616}, {"type": "node", "id": 9210337259, "lat": 44.6624898, "lon": -111.10582}, {"type": "node", "id": 9210337260, "lat": 44.6625436, "lon": -111.1061505}, {"type": "node", "id": 9210373379, "lat": 44.6611025, "lon": -111.0994818}, {"type": "node", "id": 9210373380, "lat": 44.6611019, "lon": -111.0992912}, {"type": "node", "id": 9210373381, "lat": 44.6611292, "lon": -111.0991401}, {"type": "node", "id": 9210373382, "lat": 44.6612337, "lon": -111.0991367}, {"type": "node", "id": 9210373383, "lat": 44.6612343, "lon": -111.0991796}, {"type": "node", "id": 9210373384, "lat": 44.6613212, "lon": -111.0991776}, {"type": "node", "id": 9210382448, "lat": 44.6603508, "lon": -111.0981159}, {"type": "node", "id": 9210382449, "lat": 44.6600283, "lon": -111.0981139}, {"type": "node", "id": 9210382450, "lat": 44.6600058, "lon": -111.0983436}, {"type": "node", "id": 9948619498, "lat": 44.6603503, "lon": -111.0982667}, {"type": "node", "id": 9948619504, "lat": 44.6603334, "lon": -111.0982666}, {"type": "node", "id": 9948619507, "lat": 44.6600279, "lon": -111.0982337}, {"type": "node", "id": 9948619514, "lat": 44.6600062, "lon": -111.0982336}, {"type": "node", "id": 9953796786, "lat": 44.661041, "lon": -111.0992232}, {"type": "node", "id": 9953796787, "lat": 44.6609586, "lon": -111.0992229}, {"type": "node", "id": 9953796788, "lat": 44.6609591, "lon": -111.099485}, {"type": "node", "id": 9978852299, "lat": 44.66088, "lon": -111.099435, "tags": {"name": "Best Of Yellowstone", "shop": "gift"}}, {"type": "node", "id": 10974621264, "lat": 44.6543664, "lon": -111.1053244, "tags": {"shop": "laundry"}}, {"type": "node", "id": 10974621265, "lat": 44.6565442, "lon": -111.1067239, "tags": {"shop": "laundry"}}, {"type": "node", "id": 10974621266, "lat": 44.6556888, "lon": -111.1059345, "tags": {"shop": "laundry"}}, {"type": "node", "id": 12030585468, "lat": 44.6590268, "lon": -111.1007274}, {"type": "node", "id": 12042805302, "lat": 44.6617421, "lon": -111.1016427, "tags": {"check_date": "2024-06-29", "name": "Yellowstone Adventures", "office": "guide"}}, {"type": "node", "id": 12042805303, "lat": 44.6615535, "lon": -111.101706, "tags": {"check_date": "2024-06-29", "name": "Roundup Trading Post", "opening_hours": "08:00-19:00", "shop": "variety_store"}}, {"type": "node", "id": 12042805305, "lat": 44.6597691, "lon": -111.1002833, "tags": {"check_date": "2024-06-29", "name": "Sagebrush Floral", "opening_hours": "Mo-Fr 10:00-18:00", "shop": "florist"}}, {"type": "node", "id": 12042805306, "lat": 44.6597008, "lon": -111.0999522, "tags": {"check_date": "2024-06-29", "name": "Yellowstone Outlet Store", "shop": "clothes"}}, {"type": "node", "id": 12042805307, "lat": 44.6601448, "lon": -111.0994399, "tags": {"check_date": "2024-06-29", "name": "Yellowstone Candy Company", "shop": "confectionery"}}, {"type": "node", "id": 12042805308, "lat": 44.6599972, "lon": -111.0994328, "tags": {"check_date": "2024-06-29", "name": "Yellowstone Exclusive Apparel", "shop": "clothes"}}, {"type": "node", "id": 12042805311, "lat": 44.6603217, "lon": -111.1011558, "tags": {"amenity": "restaurant", "check_date": "2024-06-29", "name": "Old Town"}}, {"type": "node", "id": 12042805312, "lat": 44.660346, "lon": -111.1017769, "tags": {"check_date": "2024-06-29", "name": "Yellowstone Flowers", "shop": "florist"}}, {"type": "node", "id": 12167275325, "lat": 44.6568661, "lon": -111.0985626}, {"type": "node", "id": 13055280718, "lat": 44.6607857, "lon": -111.10045, "tags": {"amenity": "restaurant", "cuisine": "american", "name": "Madison Crossing Lounge"}}, {"type": "way", "id": 293643817, "nodes": [2972495488, 2972495487, 2972495494, 2972495495, 2972495492, 2972495491, 2972495489, 2972495490, 2972495488], "tags": {"building": "yes", "name": "Market Place", "shop": "supermarket"}}, {"type": "way", "id": 448959566, "nodes": [4459275720, 12167275325, 4459275709, 4459275705, 4459275724, 4459275707, 4459275711, 4459275719, 4459275715, 4459275712, 4459275721, 4459275706, 4459275717, 4459275718, 4459275703, 4459275713, 4459275710, 4459275704, 4459275714, 4459275708, 4459275722, 4459275716, 4459275723, 4459275720], "tags": {"building": "yes", "shop": "gift", "source": "Bing"}}, {"type": "way", "id": 453257560, "nodes": [4500145293, 8927144236, 4500145289, 4500144588, 4500144587, 4500144586, 4500144585, 4500145293], "tags": {"building": "retail", "name": "Yellowstone Park Village", "shop": "gift"}}, {"type": "way", "id": 453257568, "nodes": [4500145334, 4500145333, 4500145332, 4500145329, 4500145330, 4500145331, 4500145334], "tags": {"addr:city": "West Yellowstone", "addr:housenumber": "120", "addr:postcode": "59758", "addr:state": "MT", "addr:street": "Canyon Street", "building": "retail", "name": "West Park Mall", "shop": "mall"}}, {"type": "way", "id": 453257570, "nodes": [4500145344, 4500145343, 4500145342, 4500145341, 4500145344], "tags": {"building": "yes", "shop": "convenience"}}, {"type": "way", "id": 453257573, "nodes": [4500145360, 4500145356, 4500145355, 4500145359, 4500145358, 4500145357, 4500145360], "tags": {"amenity": "restaurant", "building": "yes", "cuisine": "chinese", "name": "China Fun"}}, {"type": "way", "id": 475090902, "nodes": [4689007158, 4689007159, 4689007160, 4689007161, 4689007158], "tags": {"amenity": "bicycle_rental", "building": "yes", "name": "Freeheel and Wheel", "shop": "bicycle"}}, {"type": "way", "id": 583453661, "nodes": [5578046061, 5578046060, 5578046059, 5578046058, 5578046061], "tags": {"brand": "Do it Best", "brand:wikidata": "Q5286067", "building": "yes", "loc_name": "Westmart", "name": "Westmart", "shop": "hardware", "source": "bing"}}, {"type": "way", "id": 598224690, "nodes": [5694012855, 5694012856, 5694012857, 5694012858, 5694012859, 5694012855], "tags": {"building": "yes", "check_date": "2024-06-29", "contact:phone": "+1 406 646 7501", "name": "Food Roundup Supermarket", "opening_hours": "07:00-22:00", "payment:cash": "yes", "payment:mastercard": "yes", "payment:visa": "yes", "shop": "supermarket"}}, {"type": "way", "id": 822947946, "nodes": [3857773073, 7683557346, 7683557345, 7683557347, 7683557348, 7683557349, 7683557350, 7683557352, 7683557353, 3857773073], "tags": {"amenity": "restaurant", "building": "yes", "cuisine": "chinese", "name": "Red Lotus Chinese"}}, {"type": "way", "id": 838384205, "nodes": [3857773082, 7824540242, 7824540241, 7824540238, 7824540239, 7824540240, 3857773082], "tags": {"addr:street": "Madison Avenue", "amenity": "restaurant", "building": "yes", "cuisine": "breakfast;pancake;local", "internet_access": "wlan", "name": "Running Bear Pancake House", "opening_hours": "Mo-Su 06:00-13:00"}}, {"type": "way", "id": 842486421, "nodes": [7859563578, 7859563572, 7859563575, 7859563571, 7859563576, 7859563573, 7859563574, 7859563577, 7859563578], "tags": {"addr:city": "West Yellowstone", "addr:housenumber": "36", "addr:postcode": "59758", "addr:state": "MT", "addr:street": "Electric Street", "building": "yes", "name": "Travelers Snowmobile Rentals", "shop": "rental"}}, {"type": "way", "id": 844071931, "nodes": [7873761582, 7873761581, 7873761578, 7873761580, 7873761575, 7873761576, 7873761577, 7873761579, 7873761582], "tags": {"amenity": "restaurant", "building": "yes", "cuisine": "pizza", "name": "Gusher Pizza & Sandwich Shoppe"}}, {"type": "way", "id": 854074299, "nodes": [7965136094, 7965136093, 7965136092, 7965136089, 7965136090, 7965136091, 7965136094], "tags": {"brand": "NAPA Auto Parts", "brand:wikidata": "Q6970842", "building": "commercial", "name": "NAPA Auto Parts", "shop": "car_parts"}}, {"type": "way", "id": 887681694, "nodes": [5757350429, 8253107411, 8253107410, 8253107409, 5757350429], "tags": {"amenity": "restaurant", "building": "yes", "name": "Earnie\u2019s Bakery and Deli"}}, {"type": "way", "id": 985809231, "nodes": [9113411380, 9113411381, 9113411382, 9113411383, 9113411380], "tags": {"addr:city": "West Yellowstone", "addr:housenumber": "331", "addr:postcode": "59758", "addr:state": "MT", "addr:street": "US Highway", "building": "yes", "name": "Big Sky Anglers", "shop": "fishing"}}, {"type": "way", "id": 986635137, "nodes": [9119893957, 9119893958, 9119893959, 9119893960, 9119893957], "tags": {"addr:city": "West Yellowstone", "addr:housenumber": "105", "addr:postcode": "59758", "addr:state": "MT", "addr:street": "Yellowstone Avenue", "building": "yes", "name": "Jacklin's Outfitters", "shop": "yes"}}, {"type": "way", "id": 986636509, "nodes": [9119918263, 9119918264, 9119918265, 9119918266, 12030585468, 9119918263], "tags": {"addr:city": "West Yellowstone", "addr:housenumber": "121", "addr:postcode": "59758", "addr:state": "MT", "addr:street": "Yellowstone Avenue", "building": "yes", "name": "Smith & Chandler", "shop": "gift"}}, {"type": "way", "id": 997482686, "nodes": [4120691517, 9210337258, 9210337259, 9210337260, 4120691517], "tags": {"addr:city": "West Yellowstone", "addr:housenumber": "335", "addr:postcode": "59758", "addr:state": "MT", "addr:street": "US-20", "amenity": "bar", "building": "yes", "name": "Buffalo Bar", "tourism": "hotel"}}, {"type": "way", "id": 997486196, "nodes": [3857773078, 9210373379, 9210373380, 9210373381, 9210373382, 9210373383, 9210373384, 3857773078], "tags": {"amenity": "restaurant", "building": "yes", "cuisine": "american", "name": "Bullwinkles Saloon and Eatery"}}, {"type": "way", "id": 997486807, "nodes": [3857773071, 9948619504, 9948619498, 9210382448, 9210382449, 9948619507, 9948619514, 9210382450, 3857773071], "tags": {"addr:city": "West Yellowstone", "addr:housenumber": "14", "addr:postcode": "59758", "addr:state": "MT", "addr:street": "Madison Avenue", "amenity": "restaurant", "bar": "yes", "building": "yes", "contact:facebook": "https://facebook.com/WildWestPizzaSaloon", "contact:instagram": "https://www.instagram.com/wildwestpizzeriasaloon/", "contact:twitter": "https://twitter.com/WildWestPizza", "cuisine": "pizza", "delivery": "yes", "highchair": "yes", "internet_access": "wlan", "name": "Wild West Pizzaria & Saloon", "opening_hours": "11:00-23:00", "outdoor_seating": "no", "phone": "+1 406-646-4400", "takeaway": "yes", "website": "https://wildwestpizza.com/", "website:menu": "https://wildwestpizza.com/menu"}}, {"type": "way", "id": 1086326252, "nodes": [3857773079, 9953796786, 9953796787, 9953796788, 3857773079], "tags": {"amenity": "restaurant", "building": "yes", "cuisine": "american", "name": "Beartooth Barbeque"}}]}