{"version": 0.6, "generator": "Overpass API 0.7.62.8 e802775f", "osm3s": {"timestamp_osm_base": "2025-12-06T04:22:24Z", "copyright": "The data included in this document is from www.openstreetmap.org. The data is made available under ODbL."}, "elements": [{"type": "node", "id": 357979101, "lat": 46.8743502, "lon": -113.9933101}, {"type": "node", "id": 357979105, "lat": 46.8744247, "lon": -113.9935716}, {"type": "node", "id": 1529821093, "lat": 46.8726692, "lon": -113.9965225, "tags": {"addr:city": "Missoula", "addr:housenumber": "223", "addr:postcode": "59802", "addr:state": "MT", "addr:street": "West Broadway St", "name": "Morning Birds Bakery", "opening_hours": "Tu-Fr 07:00-16:00; Sa 08:00-16:00; Su 08:00-14:00", "phone": "+1 406-540-4333", "shop": "bakery", "website": "https://www.morningbirdsbakery.com/"}}, {"type": "node", "id": 1529821156, "lat": 46.8709413, "lon": -113.9892321}, {"type": "node", "id": 1529821159, "lat": 46.8710069, "lon": -113.9894349}, {"type": "node", "id": 1541427176, "lat": 46.8706741, "lon": -113.9942661}, {"type": "node", "id": 1541427183, "lat": 46.8708773, "lon": -113.9941373}, {"type": "node", "id": 1550996614, "lat": 46.8716528, "lon": -113.9918521}, {"type": "node", "id": 1550996616, "lat": 46.8716018, "lon": -113.9916797}, {"type": "node", "id": 1550996617, "lat": 46.8722929, "lon": -113.9912428}, {"type": "node", "id": 1550996618, "lat": 46.8724896, "lon": -113.9919084}, {"type": "node", "id": 1550996619, "lat": 46.8721725, "lon": -113.9921089}, {"type": "node", "id": 1550996621, "lat": 46.872127, "lon": -113.9919549}, {"type": "node", "id": 1550996622, "lat": 46.8722757, "lon": -113.9918609}, {"type": "node", "id": 1550996623, "lat": 46.8721755, "lon": -113.9915217}, {"type": "node", "id": 1550996624, "lat": 46.8718011, "lon": -113.9923535}, {"type": "node", "id": 1550996626, "lat": 46.8716982, "lon": -113.9920038}, {"type": "node", "id": 1550996627, "lat": 46.8719461, "lon": -113.9918484}, {"type": "node", "id": 1550996628, "lat": 46.8719709, "lon": -113.9919335}, {"type": "node", "id": 1550996629, "lat": 46.8719973, "lon": -113.9919171}, {"type": "node", "id": 1550996630, "lat": 46.8720527, "lon": -113.9921032}, {"type": "node", "id": 1550996631, "lat": 46.8720314, "lon": -113.9921166}, {"type": "node", "id": 1550996632, "lat": 46.8720542, "lon": -113.9921942}, {"type": "node", "id": 1552111996, "lat": 46.8718318, "lon": -113.9920147}, {"type": "node", "id": 1552111998, "lat": 46.8718838, "lon": -113.9928012}, {"type": "node", "id": 1552112000, "lat": 46.8718852, "lon": -113.9921979}, {"type": "node", "id": 1552112002, "lat": 46.8718974, "lon": -113.991974}, {"type": "node", "id": 1552112004, "lat": 46.8719497, "lon": -113.9921581}, {"type": "node", "id": 1552112006, "lat": 46.8719747, "lon": -113.9931078}, {"type": "node", "id": 1552112008, "lat": 46.8720682, "lon": -113.9930052}, {"type": "node", "id": 1552112013, "lat": 46.872079, "lon": -113.9930417}, {"type": "node", "id": 1552112014, "lat": 46.8721613, "lon": -113.9929462}, {"type": "node", "id": 1552112016, "lat": 46.8721701, "lon": -113.992976}, {"type": "node", "id": 1552112018, "lat": 46.8722016, "lon": -113.9926}, {"type": "node", "id": 1552112021, "lat": 46.87226, "lon": -113.9937268}, {"type": "node", "id": 1552112028, "lat": 46.8722694, "lon": -113.9933317}, {"type": "node", "id": 1552112031, "lat": 46.8722901, "lon": -113.9928999}, {"type": "node", "id": 1552112042, "lat": 46.8723663, "lon": -113.9936596}, {"type": "node", "id": 1552112047, "lat": 46.8726, "lon": -113.9929842}, {"type": "node", "id": 1552112055, "lat": 46.8727356, "lon": -113.9934289}, {"type": "node", "id": 1552112061, "lat": 46.8727953, "lon": -113.9928575}, {"type": "node", "id": 1552112062, "lat": 46.8729317, "lon": -113.9932997}, {"type": "node", "id": 1771822231, "lat": 46.8595523, "lon": -113.9889823, "tags": {"amenity": "cafe", "name": "La Peak"}}, {"type": "node", "id": 2210547872, "lat": 46.8673814, "lon": -113.9981267}, {"type": "node", "id": 2210547873, "lat": 46.8675038, "lon": -113.998488}, {"type": "node", "id": 2210547874, "lat": 46.8675086, "lon": -113.9980345}, {"type": "node", "id": 2210547875, "lat": 46.8675715, "lon": -113.998554}, {"type": "node", "id": 2210547876, "lat": 46.867631, "lon": -113.9983958}, {"type": "node", "id": 2210547877, "lat": 46.8676497, "lon": -113.9984973}, {"type": "node", "id": 2210547878, "lat": 46.8676711, "lon": -113.9988479}, {"type": "node", "id": 2210547879, "lat": 46.8677493, "lon": -113.9987912}, {"type": "node", "id": 2517565693, "lat": 46.8711524, "lon": -113.9962624, "tags": {"addr:city": "Missoula", "addr:housenumber": "158", "addr:street": "Street", "amenity": "bar", "name": "The Rhino", "note": "Full bar, eclectic selection of beers on taps, great Scotch Whisky collection."}}, {"type": "node", "id": 3038391241, "lat": 46.8720832, "lon": -113.9951195, "tags": {"addr:city": "Missoula", "addr:country": "US", "addr:housenumber": "223", "addr:postcode": "59801", "addr:street": "North Higgins Avenue", "amenity": "cafe", "cuisine": "coffee", "diet:vegan": "yes", "diet:vegetarian": "yes", "internet_access": "yes", "internet_access:fee": "no", "name": "Liquid Planet", "opening_hours": "Mo-Su 07:45-22:00; Fr,Sa 07:45-23:00", "shop": "alcohol", "website": "https://liquidplanet.com/", "wheelchair": "yes"}}, {"type": "node", "id": 3038391242, "lat": 46.8718073, "lon": -113.9962667, "tags": {"addr:city": "Missoula", "addr:country": "US", "addr:housenumber": "206", "addr:postcode": "59802", "addr:street": "West Main Street", "amenity": "restaurant", "cuisine": "indian", "name": "Masala", "opening_hours": "Mo-Fr 11:00-21:00; Sa 17:00-21:00", "opening_hours:url": "http://masalamt.com/#hourslocation", "phone": "+1-406-926-6444", "website": "http://masalamt.com/"}}, {"type": "node", "id": 3038404734, "lat": 46.8590579, "lon": -114.0021834}, {"type": "node", "id": 3038404735, "lat": 46.8590741, "lon": -114.0022346}, {"type": "node", "id": 3038404737, "lat": 46.8590833, "lon": -114.0022214}, {"type": "node", "id": 3038404739, "lat": 46.8591598, "lon": -114.0020375}, {"type": "node", "id": 3038404741, "lat": 46.8591906, "lon": -114.0024087}, {"type": "node", "id": 3038404742, "lat": 46.8591926, "lon": -114.0020864}, {"type": "node", "id": 3038404743, "lat": 46.8592056, "lon": -114.0020679}, {"type": "node", "id": 3038404744, "lat": 46.8592266, "lon": -114.0020992}, {"type": "node", "id": 3038404745, "lat": 46.8592376, "lon": -114.0020834}, {"type": "node", "id": 3038404747, "lat": 46.859289, "lon": -114.0021991}, {"type": "node", "id": 3038404748, "lat": 46.8593023, "lon": -114.0021801}, {"type": "node", "id": 3038404749, "lat": 46.8593125, "lon": -114.0022343}, {"type": "node", "id": 3171073278, "lat": 46.8718987, "lon": -113.992711, "tags": {"addr:city": "Missoula", "addr:housenumber": "136", "addr:postcode": "59802", "addr:state": "MT", "addr:street": "East Broadway Street", "check_date": "2023-07-23", "cuisine": "tea", "currency:XBT": "yes", "internet_access": "no", "name": "Lake Missoula Tea Company", "opening_hours": "Mo-Fr 10:00-17:00, Sa 11:00-16:00", "payment:onchain": "yes", "phone": "+1-406-529-9477", "shop": "tea", "smoking": "no", "website": "https://lakemissoulateacompany.com/"}}, {"type": "node", "id": 3397639471, "lat": 46.8744535, "lon": -114.0030646}, {"type": "node", "id": 3627453647, "lat": 46.8695872, "lon": -113.9865927}, {"type": "node", "id": 4382460491, "lat": 46.8755173, "lon": -113.992811, "tags": {"addr:housenumber": "122", "addr:street": "West Alder Street", "amenity": "cafe", "internet_access": "wlan", "name": "Double Front", "name:en": "Double Front", "opening_hours": "Mo-Su 09:00-23:00", "phone": "+1 406-543-6264"}}, {"type": "node", "id": 4617710361, "lat": 46.8667864, "lon": -113.9968915}, {"type": "node", "id": 4617710362, "lat": 46.8665451, "lon": -113.9970893}, {"type": "node", "id": 4617710363, "lat": 46.866489, "lon": -113.9969427}, {"type": "node", "id": 4617710364, "lat": 46.8664608, "lon": -113.9969658}, {"type": "node", "id": 4617710365, "lat": 46.8663166, "lon": -113.9965893}, {"type": "node", "id": 4617710366, "lat": 46.8662297, "lon": -113.9965886}, {"type": "node", "id": 4617710367, "lat": 46.8662315, "lon": -113.9961028}, {"type": "node", "id": 4617710368, "lat": 46.8662982, "lon": -113.9961033}, {"type": "node", "id": 4617710369, "lat": 46.8662986, "lon": -113.9960015}, {"type": "node", "id": 4617710370, "lat": 46.8665331, "lon": -113.9960034}, {"type": "node", "id": 4617710371, "lat": 46.8665323, "lon": -113.9962352}, {"type": "node", "id": 4617710402, "lat": 46.8654801, "lon": -113.998159}, {"type": "node", "id": 4617710403, "lat": 46.8654812, "lon": -113.997835}, {"type": "node", "id": 4617710404, "lat": 46.8656013, "lon": -113.997836}, {"type": "node", "id": 4617710405, "lat": 46.8656002, "lon": -113.99816}, {"type": "node", "id": 4619293768, "lat": 46.8676184, "lon": -113.9984049}, {"type": "node", "id": 4619293769, "lat": 46.8675402, "lon": -113.9984616}, {"type": "node", "id": 4619304053, "lat": 46.8694823, "lon": -113.9930408, "tags": {"name": "The Trailhead", "shop": "outdoor"}}, {"type": "node", "id": 4620020444, "lat": 46.8546713, "lon": -114.0100449}, {"type": "node", "id": 4620020445, "lat": 46.8546734, "lon": -114.0102867}, {"type": "node", "id": 4620020446, "lat": 46.8548469, "lon": -114.0102872}, {"type": "node", "id": 4620020447, "lat": 46.8548532, "lon": -114.0107013}, {"type": "node", "id": 4620020448, "lat": 46.8550288, "lon": -114.0106981}, {"type": "node", "id": 4620020449, "lat": 46.8550311, "lon": -114.010965}, {"type": "node", "id": 4620020450, "lat": 46.8548943, "lon": -114.0109675}, {"type": "node", "id": 4620020451, "lat": 46.8548953, "lon": -114.0110885}, {"type": "node", "id": 4620020452, "lat": 46.8546923, "lon": -114.0110922}, {"type": "node", "id": 4620020453, "lat": 46.8546935, "lon": -114.0112276}, {"type": "node", "id": 4620020454, "lat": 46.8546137, "lon": -114.011229}, {"type": "node", "id": 4620020455, "lat": 46.8546036, "lon": -114.0100462}, {"type": "node", "id": 4620021301, "lat": 46.871695, "lon": -113.9866205}, {"type": "node", "id": 4620021302, "lat": 46.8716455, "lon": -113.9864582}, {"type": "node", "id": 4620021303, "lat": 46.8719541, "lon": -113.9862568}, {"type": "node", "id": 4620021304, "lat": 46.8720036, "lon": -113.9864191}, {"type": "node", "id": 4620044029, "lat": 46.8660884, "lon": -113.9987804}, {"type": "node", "id": 4620044030, "lat": 46.8664478, "lon": -113.9987844}, {"type": "node", "id": 4620044031, "lat": 46.8664493, "lon": -113.9984844}, {"type": "node", "id": 4620044032, "lat": 46.8660899, "lon": -113.9984804}, {"type": "node", "id": 4907827174, "lat": 46.874598, "lon": -113.993159}, {"type": "node", "id": 4907827175, "lat": 46.8746725, "lon": -113.9934206}, {"type": "node", "id": 5052222821, "lat": 46.8694278, "lon": -113.9927957, "tags": {"addr:housenumber": "229", "addr:postcode": "59802", "addr:street": "East Front Street", "amenity": "bar", "name": "The Dram Shop", "name:en": "The Dram Shop", "opening_hours": "Mo-Su 12:00-22:00", "phone": "+1 406-540-4303", "website": "https://www.dramshopmt.com/"}}, {"type": "node", "id": 5052276421, "lat": 46.8754459, "lon": -113.9930974, "tags": {"addr:housenumber": "128", "addr:postcode": "59802", "addr:street": "West Alder Street", "amenity": "bar", "name": "Rattlesnake Creek Distillery", "name:en": "Rattlesnake Creek Distillery", "opening_hours": "Mo-Su 15:00-20:00", "phone": "+1 406-239-5050", "website": "https://rattlesnakecreekdistillers.com/"}}, {"type": "node", "id": 5052302021, "lat": 46.8642527, "lon": -114.0040896, "tags": {"addr:housenumber": "701", "addr:postcode": "59801", "addr:street": "Orange Street", "name": "Orange Street Food Farm", "name:en": "Orange Street Food Farm", "opening_hours": "Mo-Su 07:00-23:00", "phone": "+1 406-543-3188", "shop": "supermarket", "website": "http://orangestreetfoodfarm.com/"}}, {"type": "node", "id": 5061265922, "lat": 46.8737134, "lon": -113.992741, "tags": {"addr:city": "Missoula", "addr:housenumber": "428", "addr:postcode": "59802", "addr:state": "MT", "addr:street": "North Higgins Avenue", "air_conditioning": "yes", "amenity": "cafe", "internet_access": "wlan", "internet_access:fee": "no", "internet_access:ssid": "BreAk Front", "level": "0", "name": "Break Espresso", "name:en": "Break Espresso", "opening_hours": "Mo-Su 05:30-22:00", "outdoor_seating": "no", "phone": "+1-406-728-7300", "smoking": "no", "takeaway": "yes", "wheelchair": "yes"}}, {"type": "node", "id": 5264198924, "lat": 46.8720977, "lon": -113.9955394, "tags": {"amenity": "bar", "name": "The Badlander"}}, {"type": "node", "id": 5412390128, "lat": 46.873041, "lon": -113.9920277, "tags": {"addr:city": "Missoula", "addr:housenumber": "150", "addr:state": "MT", "addr:street": "East Pine Street", "contact:website": "https://www.adventurecycling.org/", "name": "Adventure Cycling Organization", "office": "association"}}, {"type": "node", "id": 5457940756, "lat": 46.8713488, "lon": -113.9942562, "tags": {"addr:city": "Missoula", "addr:housenumber": "208", "addr:postcode": "59802", "addr:state": "MT", "addr:street": "North Higgins Avenue", "clothes": "women;underwear;yes", "name": "Mood Boutique", "payment:cash": "yes", "payment:coins": "yes", "payment:credit_cards": "yes", "shop": "clothes"}}, {"type": "node", "id": 5457940757, "lat": 46.8714141, "lon": -113.994231, "tags": {"addr:city": "Missoula", "addr:housenumber": "214", "addr:postcode": "59802", "addr:state": "MT", "addr:street": "North Higgins Avenue", "air_conditioning": "yes", "cuisine": "sandwich;regional;italian", "email": "docssandwiches@hotmail.com", "name": "Doc's Sandwich Shop", "opening_hours": "Mo-Sa 07:00-18:00", "phone": "+1 406 542 7414", "shop": "deli", "website": "http://docssandwiches.com/"}}, {"type": "node", "id": 5457957544, "lat": 46.8696243, "lon": -113.9936974, "tags": {"addr:city": "Missoula", "addr:housenumber": "201", "addr:postcode": "59802", "addr:state": "MT", "addr:street": "East Front Street", "name": "Market on Front", "payment:cash": "yes", "payment:credit_cards": "yes", "payment:mastercard": "yes", "shop": "deli"}}, {"type": "node", "id": 5457957545, "lat": 46.872277, "lon": -113.993686, "tags": {"addr:city": "Missoula", "addr:housenumber": "304", "addr:postcode": "59802", "addr:state": "MT", "addr:street": "North Higgins Avenue", "level": "0", "name": "Runner's Edge", "opening_hours": "Mo-Fr 10:00-18:00; Sa 10:00-17:00; Su 12:00-17:00", "payment:cash": "yes", "payment:credit_cards": "yes", "payment:debit_cards": "yes", "phone": "+1-406-728-9297", "shop": "shoes", "start_date": "2001", "website": "https://www.runnersedgemt.com/", "wheelchair": "limited"}}, {"type": "node", "id": 6122676870, "lat": 46.865888, "lon": -113.9773444}, {"type": "node", "id": 6122676871, "lat": 46.8655303, "lon": -113.9766523}, {"type": "node", "id": 6122676872, "lat": 46.8653196, "lon": -113.9768852}, {"type": "node", "id": 6122676873, "lat": 46.8652448, "lon": -113.9767405}, {"type": "node", "id": 6122676874, "lat": 46.8651187, "lon": -113.9768799}, {"type": "node", "id": 6122676875, "lat": 46.8656007, "lon": -113.9778118}, {"type": "node", "id": 6122676876, "lat": 46.8656687, "lon": -113.9777365}, {"type": "node", "id": 6122676877, "lat": 46.8656195, "lon": -113.9776413}, {"type": "node", "id": 6239123515, "lat": 46.869516, "lon": -113.9867372}, {"type": "node", "id": 6239123516, "lat": 46.869612, "lon": -113.9866764}, {"type": "node", "id": 6239123517, "lat": 46.8695579, "lon": -113.9864937}, {"type": "node", "id": 6239123518, "lat": 46.869462, "lon": -113.9865545}, {"type": "node", "id": 6293930118, "lat": 46.871798, "lon": -113.9919407}, {"type": "node", "id": 6293930119, "lat": 46.8717536, "lon": -113.9917883}, {"type": "node", "id": 6293930120, "lat": 46.8719948, "lon": -113.9916381}, {"type": "node", "id": 6293930121, "lat": 46.8720065, "lon": -113.9916784}, {"type": "node", "id": 6293930122, "lat": 46.8719766, "lon": -113.9916971}, {"type": "node", "id": 6293930123, "lat": 46.8720587, "lon": -113.991979}, {"type": "node", "id": 6293930124, "lat": 46.8720219, "lon": -113.9920019}, {"type": "node", "id": 6326550085, "lat": 46.8762247, "lon": -113.9947208}, {"type": "node", "id": 6326550086, "lat": 46.8761256, "lon": -113.9943933}, {"type": "node", "id": 6326550088, "lat": 46.8760187, "lon": -113.9945817}, {"type": "node", "id": 6326550089, "lat": 46.8759999, "lon": -113.9945939}, {"type": "node", "id": 6326550090, "lat": 46.8760352, "lon": -113.9947104}, {"type": "node", "id": 6326550091, "lat": 46.875938, "lon": -113.9947733}, {"type": "node", "id": 6326550092, "lat": 46.8759717, "lon": -113.9948847}, {"type": "node", "id": 6326564691, "lat": 46.876171, "lon": -113.9947556, "tags": {"entrance": "main"}}, {"type": "node", "id": 6326564697, "lat": 46.8760142, "lon": -113.9948572, "tags": {"entrance": "service"}}, {"type": "node", "id": 6326592658, "lat": 46.8760048, "lon": -113.9945356}, {"type": "node", "id": 6326592659, "lat": 46.8759544, "lon": -113.9945679}, {"type": "node", "id": 6326592660, "lat": 46.8759388, "lon": -113.9945141}, {"type": "node", "id": 6326592661, "lat": 46.8759972, "lon": -113.9945404, "tags": {"entrance": "yes"}}, {"type": "node", "id": 6326593893, "lat": 46.8758301, "lon": -113.9937714, "tags": {"addr:city": "Missoula", "addr:housenumber": "201", "addr:postcode": "59802", "addr:state": "MT", "addr:street": "West Railroad Street", "amenity": "restaurant", "name": "The Depot", "opening_hours": "Mo-Th 16:30-22:00; Fr-Sa 16:30-23:00", "opening_hours:url": "https://www.facebook.com/pg/The-Depot-Bar-Restaurant-Missoula-253457458036061/about/#PagesProfileAboutInfoPagelet_253457458036061", "outdoor_seating": "no", "phone": "+1-406-728-7007", "website": "http://www.depotmissoula.com/", "wheelchair": "yes"}}, {"type": "node", "id": 6417265144, "lat": 46.8739033, "lon": -113.9995082}, {"type": "node", "id": 6417265145, "lat": 46.8740492, "lon": -113.9994142}, {"type": "node", "id": 6417265146, "lat": 46.8741076, "lon": -113.9996082}, {"type": "node", "id": 6417265147, "lat": 46.8739617, "lon": -113.9997021}, {"type": "node", "id": 6417265486, "lat": 46.8740998, "lon": -113.9995824}, {"type": "node", "id": 6418263386, "lat": 46.8736422, "lon": -113.9986008, "tags": {"addr:city": "Missoula", "addr:housenumber": "400", "addr:postcode": "59802", "addr:state": "MT", "addr:street": "West Broadway Street", "addr:unit": "103", "alt_name": "Edward Jones Investments", "brand": "Edward Jones", "brand:wikidata": "Q5343830", "level": "0", "name": "Edward Jones", "office": "financial_advisor", "phone": "+1-406-542-4799", "website": "https://www.edwardjones.com/financial-advisor/index.html?CIRN=2n7pgqLlhh1aCb6PIFCRV2xJhkFHfZbkHomKsJFhfGQqgXYpbmQQeYzUn9GJZUdJ", "wheelchair": "yes"}}, {"type": "node", "id": 6418263388, "lat": 46.8736271, "lon": -113.9985368, "tags": {"addr:city": "Missoula", "addr:housenumber": "400", "addr:postcode": "59802", "addr:state": "MT", "addr:street": "West Broadway Street", "addr:unit": "102", "email": "MassageOnBroadwayMissoula@gmail.com", "level": "0", "name": "Massage on Broadway", "opening_hours": "Mo-Fr 09:00-20:00; Sa-Su 11:00-16:00", "phone": "+1-406-926-3033", "shop": "massage", "website": "https://massageonbroadwaymissoula.com/", "wheelchair": "yes"}}, {"type": "node", "id": 6418263389, "lat": 46.8736071, "lon": -113.998464, "tags": {"addr:city": "Missoula", "addr:housenumber": "400", "addr:postcode": "59802", "addr:state": "MT", "addr:street": "West Broadway Street", "addr:unit": "101", "amenity": "post_office", "brand": "The UPS Store", "brand:wikidata": "Q7771029", "email": "store4104@theupsstore.com", "fax": "+1-406-542-4588", "level": "0", "name": "The UPS Store", "opening_hours": "Mo-Fr 08:00-18:00; Sa 09:00-17:00", "operator": "The UPS Store", "operator:type": "private", "operator:wikidata": "Q7771029", "operator:wikipedia": "en:The UPS Store", "phone": "+1-406-542-3800", "shop": "copyshop", "short_name": "UPS", "website": "https://locations.theupsstore.com/mt/missoula/400-west-broadway", "wheelchair": "yes"}}, {"type": "node", "id": 6418263429, "lat": 46.8739034, "lon": -113.9988201}, {"type": "node", "id": 6418263430, "lat": 46.8738741, "lon": -113.9987204}, {"type": "node", "id": 6418263431, "lat": 46.8737297, "lon": -113.9988112}, {"type": "node", "id": 6418263432, "lat": 46.8737591, "lon": -113.9989109}, {"type": "node", "id": 6418263433, "lat": 46.8737469, "lon": -113.9988694, "tags": {"entrance": "main"}}, {"type": "node", "id": 6418263438, "lat": 46.8738808, "lon": -113.9987433, "tags": {"entrance": "secondary", "wheelchair": "yes"}}, {"type": "node", "id": 6419940739, "lat": 46.8753008, "lon": -113.9956949}, {"type": "node", "id": 6419940740, "lat": 46.8753153, "lon": -113.9959699}, {"type": "node", "id": 6419940741, "lat": 46.8753238, "lon": -113.9959981}, {"type": "node", "id": 6419940742, "lat": 46.8752599, "lon": -113.9960055}, {"type": "node", "id": 6419940743, "lat": 46.8751676, "lon": -113.9957715}, {"type": "node", "id": 6419940744, "lat": 46.8752683, "lon": -113.9960337}, {"type": "node", "id": 6419940745, "lat": 46.8752412, "lon": -113.9960175}, {"type": "node", "id": 6419940746, "lat": 46.8753668, "lon": -113.9958978}, {"type": "node", "id": 6419940747, "lat": 46.8753919, "lon": -113.9959209}, {"type": "node", "id": 6419940748, "lat": 46.875382, "lon": -113.995888}, {"type": "node", "id": 6419940749, "lat": 46.8753516, "lon": -113.995847}, {"type": "node", "id": 6419940750, "lat": 46.875331, "lon": -113.9957801}, {"type": "node", "id": 6419940751, "lat": 46.8753603, "lon": -113.9958395}, {"type": "node", "id": 6419940752, "lat": 46.8753412, "lon": -113.9957752}, {"type": "node", "id": 6419940753, "lat": 46.8753573, "lon": -113.9958433}, {"type": "node", "id": 6419940754, "lat": 46.8753598, "lon": -113.9958335}, {"type": "node", "id": 6419940755, "lat": 46.8753605, "lon": -113.9958365}, {"type": "node", "id": 6419940756, "lat": 46.8753592, "lon": -113.9958416}, {"type": "node", "id": 6419940757, "lat": 46.8753374, "lon": -113.995776}, {"type": "node", "id": 6419940758, "lat": 46.8753437, "lon": -113.9957796}, {"type": "node", "id": 6419940759, "lat": 46.8753394, "lon": -113.9957751}, {"type": "node", "id": 6419940760, "lat": 46.8753424, "lon": -113.9957767}, {"type": "node", "id": 6419940761, "lat": 46.8753091, "lon": -113.995707}, {"type": "node", "id": 6419940762, "lat": 46.8752898, "lon": -113.9956933}, {"type": "node", "id": 6419940763, "lat": 46.8752954, "lon": -113.9956921}, {"type": "node", "id": 6419940764, "lat": 46.8753055, "lon": -113.9956992}, {"type": "node", "id": 6419940765, "lat": 46.8752925, "lon": -113.9956924}, {"type": "node", "id": 6419940766, "lat": 46.8752982, "lon": -113.9956931}, {"type": "node", "id": 6419940767, "lat": 46.8753032, "lon": -113.9956966}, {"type": "node", "id": 6419940768, "lat": 46.8753075, "lon": -113.9957027}, {"type": "node", "id": 6419940769, "lat": 46.8752227, "lon": -113.9959558}, {"type": "node", "id": 6419940770, "lat": 46.8752134, "lon": -113.9959246}, {"type": "node", "id": 6419940771, "lat": 46.875238, "lon": -113.9959458}, {"type": "node", "id": 6419940772, "lat": 46.8752315, "lon": -113.9959256}, {"type": "node", "id": 6419940773, "lat": 46.8752229, "lon": -113.9959307}, {"type": "node", "id": 6419940774, "lat": 46.8752176, "lon": -113.9959296}, {"type": "node", "id": 6419940775, "lat": 46.875232, "lon": -113.9959866, "tags": {"access": "customers", "entrance": "main"}}, {"type": "node", "id": 6419940776, "lat": 46.8751833, "lon": -113.9958239, "tags": {"access": "customers", "entrance": "main"}}, {"type": "node", "id": 6419962096, "lat": 46.8754969, "lon": -113.9964104}, {"type": "node", "id": 6419962097, "lat": 46.8754614, "lon": -113.9962918}, {"type": "node", "id": 6419962098, "lat": 46.8753553, "lon": -113.9963591}, {"type": "node", "id": 6419962099, "lat": 46.8753907, "lon": -113.9964797}, {"type": "node", "id": 6419962100, "lat": 46.8753795, "lon": -113.9964414}, {"type": "node", "id": 6419962101, "lat": 46.8753689, "lon": -113.9964054}, {"type": "node", "id": 6419962102, "lat": 46.875373, "lon": -113.9964452}, {"type": "node", "id": 6419962103, "lat": 46.8753625, "lon": -113.9964098}, {"type": "node", "id": 6419962104, "lat": 46.8753678, "lon": -113.9964275, "tags": {"entrance": "main"}}, {"type": "node", "id": 6421570945, "lat": 46.8753252, "lon": -113.9948527}, {"type": "node", "id": 6421595828, "lat": 46.8755466, "lon": -113.9944707}, {"type": "node", "id": 6421595829, "lat": 46.8753903, "lon": -113.9945782}, {"type": "node", "id": 6421706629, "lat": 46.8755927, "lon": -113.99462}, {"type": "node", "id": 6421706630, "lat": 46.8755496, "lon": -113.9944699}, {"type": "node", "id": 6421706631, "lat": 46.8752262, "lon": -113.9946865}, {"type": "node", "id": 6421706632, "lat": 46.8752877, "lon": -113.9948763}, {"type": "node", "id": 6421706634, "lat": 46.8753087, "lon": -113.9947976}, {"type": "node", "id": 6421706637, "lat": 46.87557, "lon": -113.994543, "tags": {"entrance": "main"}}, {"type": "node", "id": 6431451925, "lat": 46.8735835, "lon": -113.9977292}, {"type": "node", "id": 6431451926, "lat": 46.8735121, "lon": -113.9977722}, {"type": "node", "id": 6431451927, "lat": 46.8734493, "lon": -113.9976769}, {"type": "node", "id": 6431451928, "lat": 46.8735653, "lon": -113.9975513}, {"type": "node", "id": 6431451929, "lat": 46.8736098, "lon": -113.9978175}, {"type": "node", "id": 6431451930, "lat": 46.8736769, "lon": -113.9976511}, {"type": "node", "id": 6431451931, "lat": 46.8736816, "lon": -113.9976667}, {"type": "node", "id": 6431451932, "lat": 46.8736911, "lon": -113.9976421}, {"type": "node", "id": 6431451933, "lat": 46.8736519, "lon": -113.9975629}, {"type": "node", "id": 6431451934, "lat": 46.8735205, "lon": -113.9975186}, {"type": "node", "id": 6431451935, "lat": 46.8736472, "lon": -113.997547}, {"type": "node", "id": 6431451936, "lat": 46.873665, "lon": -113.9975545}, {"type": "node", "id": 6431451937, "lat": 46.8735773, "lon": -113.9975915}, {"type": "node", "id": 6431451938, "lat": 46.8735359, "lon": -113.9975701}, {"type": "node", "id": 6431451939, "lat": 46.8733831, "lon": -113.9977192}, {"type": "node", "id": 6431451940, "lat": 46.8734211, "lon": -113.9975821}, {"type": "node", "id": 6431451941, "lat": 46.873417, "lon": -113.9978329}, {"type": "node", "id": 6431451942, "lat": 46.8735391, "lon": -113.9978626}, {"type": "node", "id": 6431451943, "lat": 46.8735495, "lon": -113.9978559, "tags": {"entrance": "main"}}, {"type": "node", "id": 6431451947, "lat": 46.8735917, "lon": -113.9975823}, {"type": "node", "id": 6431451948, "lat": 46.8736267, "lon": -113.9977017}, {"type": "node", "id": 6431452998, "lat": 46.8736419, "lon": -113.9975504}, {"type": "node", "id": 6587715786, "lat": 46.8752237, "lon": -113.9923321, "tags": {"addr:city": "Missoula", "addr:housenumber": "101", "addr:postcode": "59802", "addr:state": "MT", "addr:street": "West Alder Street", "level": "0", "name": "PureWest Christie's International Real Estate", "office": "estate_agent", "phone": "+1-406-885-6987", "website": "https://www.purewestrealestate.com/", "wheelchair": "yes"}}, {"type": "node", "id": 6589739735, "lat": 46.8751668, "lon": -113.9932017}, {"type": "node", "id": 6589739736, "lat": 46.8751368, "lon": -113.9931025}, {"type": "node", "id": 6589739737, "lat": 46.8748869, "lon": -113.9932646}, {"type": "node", "id": 6589739738, "lat": 46.874917, "lon": -113.9933638}, {"type": "node", "id": 6589739739, "lat": 46.8751631, "lon": -113.9931895, "tags": {"access": "customers", "door": "hinged", "entrance": "main"}}, {"type": "node", "id": 6589739740, "lat": 46.8749018, "lon": -113.9933137, "tags": {"entrance": "secondary"}}, {"type": "node", "id": 6591744939, "lat": 46.8746633, "lon": -113.9930056}, {"type": "node", "id": 6591744940, "lat": 46.8745918, "lon": -113.9930518}, {"type": "node", "id": 6591744941, "lat": 46.874601, "lon": -113.9930824}, {"type": "node", "id": 6591744942, "lat": 46.8744612, "lon": -113.9931084}, {"type": "node", "id": 6591744943, "lat": 46.8744288, "lon": -113.9930013}, {"type": "node", "id": 6591744944, "lat": 46.874466, "lon": -113.9929773}, {"type": "node", "id": 6591744945, "lat": 46.874426, "lon": -113.9928447}, {"type": "node", "id": 6591744946, "lat": 46.8743858, "lon": -113.9928706}, {"type": "node", "id": 6591744947, "lat": 46.8743711, "lon": -113.9928217}, {"type": "node", "id": 6591744948, "lat": 46.8744179, "lon": -113.9927915}, {"type": "node", "id": 6591744949, "lat": 46.8744248, "lon": -113.9928143}, {"type": "node", "id": 6591744950, "lat": 46.874526, "lon": -113.992749}, {"type": "node", "id": 6591744951, "lat": 46.8745311, "lon": -113.9927659}, {"type": "node", "id": 6591744952, "lat": 46.8745617, "lon": -113.9927461}, {"type": "node", "id": 6591744953, "lat": 46.8745668, "lon": -113.9927631}, {"type": "node", "id": 6591744954, "lat": 46.8745864, "lon": -113.9927504}, {"type": "node", "id": 6591744957, "lat": 46.8743768, "lon": -113.9928406, "tags": {"access": "customers", "door": "hinged", "entrance": "main"}}, {"type": "node", "id": 6591744958, "lat": 46.8744661, "lon": -113.9931052}, {"type": "node", "id": 6591744959, "lat": 46.8744823, "lon": -113.993159}, {"type": "node", "id": 6592299193, "lat": 46.8751991, "lon": -113.9933081}, {"type": "node", "id": 6592299194, "lat": 46.8749807, "lon": -113.9934497}, {"type": "node", "id": 6592299197, "lat": 46.8749221, "lon": -113.9933605}, {"type": "node", "id": 6592299203, "lat": 46.8749412, "lon": -113.9934753}, {"type": "node", "id": 6592299204, "lat": 46.8749802, "lon": -113.9936042}, {"type": "node", "id": 6592299205, "lat": 46.8752381, "lon": -113.993437}, {"type": "node", "id": 6592299210, "lat": 46.8752184, "lon": -113.9933719, "tags": {"access": "customers", "door": "hinged", "entrance": "main"}}, {"type": "node", "id": 6631745321, "lat": 46.8734193, "lon": -113.9929594, "tags": {"amenity": "restaurant", "cuisine": "vietnamese", "name": "Vietnam Grill"}}, {"type": "node", "id": 6761879380, "lat": 46.8744303, "lon": -114.0030793}, {"type": "node", "id": 6761879381, "lat": 46.874585, "lon": -114.002925}, {"type": "node", "id": 6761879382, "lat": 46.8744163, "lon": -114.0030317}, {"type": "node", "id": 6761879383, "lat": 46.8744759, "lon": -114.0031402}, {"type": "node", "id": 6761879384, "lat": 46.8746214, "lon": -114.0030483}, {"type": "node", "id": 6816514671, "lat": 46.866505, "lon": -113.9969846, "tags": {"addr:housenumber": "500", "addr:street": "South Higgins Avenue", "entrance": "yes"}}, {"type": "node", "id": 6835586720, "lat": 46.8658702, "lon": -113.9934774}, {"type": "node", "id": 6835586721, "lat": 46.8658818, "lon": -113.9932952}, {"type": "node", "id": 6835586723, "lat": 46.8656938, "lon": -113.9934887}, {"type": "node", "id": 6835586725, "lat": 46.86567, "lon": -113.9933604}, {"type": "node", "id": 6835586729, "lat": 46.8658676, "lon": -113.9932004}, {"type": "node", "id": 6835586730, "lat": 46.8658712, "lon": -113.9935882}, {"type": "node", "id": 6835586732, "lat": 46.8657044, "lon": -113.9935322}, {"type": "node", "id": 6835586735, "lat": 46.8656844, "lon": -113.9933987}, {"type": "node", "id": 6835586738, "lat": 46.8658684, "lon": -113.9932955}, {"type": "node", "id": 6835586739, "lat": 46.8656593, "lon": -113.993205}, {"type": "node", "id": 6835586740, "lat": 46.8658825, "lon": -113.9933846, "tags": {"addr:housenumber": "305", "addr:street": "South 4th Street East", "entrance": "yes"}}, {"type": "node", "id": 6835586742, "lat": 46.8657153, "lon": -113.9935911}, {"type": "node", "id": 6835586743, "lat": 46.8658834, "lon": -113.9934772}, {"type": "node", "id": 6835586745, "lat": 46.8656887, "lon": -113.9934435}, {"type": "node", "id": 6835586747, "lat": 46.8656587, "lon": -113.9932654}, {"type": "node", "id": 6835586749, "lat": 46.865712, "lon": -113.9932033}, {"type": "node", "id": 6911011141, "lat": 46.8663614, "lon": -113.9981662}, {"type": "node", "id": 6911011142, "lat": 46.8661268, "lon": -113.9981642}, {"type": "node", "id": 6911011143, "lat": 46.8661278, "lon": -113.9979652}, {"type": "node", "id": 6911011144, "lat": 46.8663624, "lon": -113.9979682}, {"type": "node", "id": 6988640821, "lat": 46.8732257, "lon": -113.9925663, "tags": {"addr:city": "Missoula", "addr:housenumber": "420", "addr:postcode": "59802", "addr:state": "MT", "addr:street": "North Higgins Avenue", "addr:unit": "Suite D", "air_conditioning": "yes", "level": "0", "min_age": "18", "name": "Montana Medicinals", "opening_hours": "Mo-Fr 10:00-18:00; Sa 12:00-17:00", "phone": "+1-406-926-1777", "shop": "cannabis", "start_date": "2018", "website": "https://mtmedicinals.com/", "wheelchair": "yes"}}, {"type": "node", "id": 6988707248, "lat": 46.8731197, "lon": -113.9939543}, {"type": "node", "id": 6988707249, "lat": 46.8730558, "lon": -113.9939939}, {"type": "node", "id": 6988707250, "lat": 46.8729711, "lon": -113.9937016}, {"type": "node", "id": 6988707251, "lat": 46.873034, "lon": -113.9936652}, {"type": "node", "id": 6988731094, "lat": 46.873113, "lon": -113.9939322, "tags": {"access": "customers", "door": "hinged", "entrance": "secondary", "level": "0"}}, {"type": "node", "id": 6988731095, "lat": 46.8730202, "lon": -113.9936739, "tags": {"access": "customers", "door": "hinged", "entrance": "main", "level": "0"}}, {"type": "node", "id": 7004409811, "lat": 46.8737637, "lon": -113.9927819}, {"type": "node", "id": 7004409812, "lat": 46.8736755, "lon": -113.9922609}, {"type": "node", "id": 7004409813, "lat": 46.8736184, "lon": -113.9922861}, {"type": "node", "id": 7004409814, "lat": 46.873809, "lon": -113.9927549}, {"type": "node", "id": 7004409815, "lat": 46.873801, "lon": -113.9926396}, {"type": "node", "id": 7004409816, "lat": 46.8738165, "lon": -113.9927226}, {"type": "node", "id": 7004409817, "lat": 46.8737957, "lon": -113.9926556}, {"type": "node", "id": 7004409818, "lat": 46.8737124, "lon": -113.9923485}, {"type": "node", "id": 7004409819, "lat": 46.8736336, "lon": -113.9922869}, {"type": "node", "id": 7004409820, "lat": 46.8737017, "lon": -113.9923496}, {"type": "node", "id": 7004409828, "lat": 46.8738128, "lon": -113.9927388, "tags": {"entrance": "main"}}, {"type": "node", "id": 7004409846, "lat": 46.8736475, "lon": -113.9927852, "tags": {"addr:city": "Missoula", "addr:housenumber": "428", "addr:postcode": "59802", "addr:state": "MT", "addr:street": "North Higgins Avenue", "amenity": "bar", "min_age": "21", "name": "Charlie's Bar", "outdoor_seating": "no", "phone": "+1 406 549 3589"}}, {"type": "node", "id": 7005280107, "lat": 46.8733932, "lon": -113.99237}, {"type": "node", "id": 7005280108, "lat": 46.8737254, "lon": -113.9921549}, {"type": "node", "id": 7005280109, "lat": 46.8735705, "lon": -113.991618}, {"type": "node", "id": 7005280110, "lat": 46.873309, "lon": -113.9918118}, {"type": "node", "id": 7005280111, "lat": 46.8732381, "lon": -113.9918577}, {"type": "node", "id": 7005280113, "lat": 46.8733018, "lon": -113.9917881, "tags": {"access": "private", "amenity": "loading_dock"}}, {"type": "node", "id": 7005280114, "lat": 46.8736407, "lon": -113.991875, "tags": {"entrance": "main"}}, {"type": "node", "id": 7006427564, "lat": 46.8721631, "lon": -113.9933989}, {"type": "node", "id": 7027730359, "lat": 46.8726707, "lon": -113.9934721}, {"type": "node", "id": 7027730360, "lat": 46.8725761, "lon": -113.993535}, {"type": "node", "id": 7027730361, "lat": 46.8724705, "lon": -113.9931934}, {"type": "node", "id": 7027730362, "lat": 46.8725653, "lon": -113.9931307}, {"type": "node", "id": 7027730363, "lat": 46.8726235, "lon": -113.9935036, "tags": {"access": "customers", "door": "hinged", "entrance": "main", "level": "0"}}, {"type": "node", "id": 7027730364, "lat": 46.8727349, "lon": -113.9934292}, {"type": "node", "id": 7027730365, "lat": 46.8726712, "lon": -113.9934718}, {"type": "node", "id": 7027730366, "lat": 46.8725344, "lon": -113.9930278}, {"type": "node", "id": 7027730367, "lat": 46.8725995, "lon": -113.9929846}, {"type": "node", "id": 7027730368, "lat": 46.8719849, "lon": -113.9927371}, {"type": "node", "id": 7098509475, "lat": 46.874818, "lon": -113.993186}, {"type": "node", "id": 7098509476, "lat": 46.874784, "lon": -113.9930738}, {"type": "node", "id": 7098509477, "lat": 46.8750716, "lon": -113.9928874}, {"type": "node", "id": 7098509478, "lat": 46.8749144, "lon": -113.9932467}, {"type": "node", "id": 7098509479, "lat": 46.8748832, "lon": -113.9931437}, {"type": "node", "id": 7098509480, "lat": 46.8751055, "lon": -113.9929995}, {"type": "node", "id": 7098522831, "lat": 46.8742495, "lon": -113.9942933}, {"type": "node", "id": 7098522832, "lat": 46.8742546, "lon": -113.9943104}, {"type": "node", "id": 7098522833, "lat": 46.8743151, "lon": -113.9942714}, {"type": "node", "id": 7098522834, "lat": 46.8743099, "lon": -113.9942542}, {"type": "node", "id": 7098522835, "lat": 46.8743179, "lon": -113.9941372}, {"type": "node", "id": 7098522836, "lat": 46.8743057, "lon": -113.9941451}, {"type": "node", "id": 7098522837, "lat": 46.87428, "lon": -113.9940596}, {"type": "node", "id": 7098522838, "lat": 46.8742929, "lon": -113.9940513}, {"type": "node", "id": 7098522839, "lat": 46.8742642, "lon": -113.9939559}, {"type": "node", "id": 7098522840, "lat": 46.8742512, "lon": -113.9939643}, {"type": "node", "id": 7098522841, "lat": 46.8742473, "lon": -113.9939514}, {"type": "node", "id": 7098522842, "lat": 46.8741386, "lon": -113.9940228}, {"type": "node", "id": 7098522843, "lat": 46.8741421, "lon": -113.9940348}, {"type": "node", "id": 7098522844, "lat": 46.8741333, "lon": -113.9940405}, {"type": "node", "id": 7098522845, "lat": 46.8741626, "lon": -113.994138}, {"type": "node", "id": 7098522846, "lat": 46.8741716, "lon": -113.9941322}, {"type": "node", "id": 7098522847, "lat": 46.8741967, "lon": -113.9942155}, {"type": "node", "id": 7098522848, "lat": 46.8741847, "lon": -113.9942233}, {"type": "node", "id": 7098522849, "lat": 46.8742129, "lon": -113.9943169}, {"type": "node", "id": 7098522850, "lat": 46.8743462, "lon": -113.9942308}, {"type": "node", "id": 7165539023, "lat": 46.8697209, "lon": -113.9957081, "tags": {"name": "Firefly", "shop": "art"}}, {"type": "node", "id": 7165539024, "lat": 46.8698291, "lon": -113.9956343, "tags": {"name": "Noteworthy", "shop": "stationery"}}, {"type": "node", "id": 7165539025, "lat": 46.8699417, "lon": -113.9955794, "tags": {"name": "Amira Rug Gallery", "shop": "carpet"}}, {"type": "node", "id": 7165539026, "lat": 46.8696972, "lon": -113.9951799, "tags": {"name": "Hunter Bay", "shop": "coffee"}}, {"type": "node", "id": 7165539032, "lat": 46.870089, "lon": -113.995679, "tags": {"name": "Sugar Tree Hair Salon", "shop": "hairdresser"}}, {"type": "node", "id": 7165539033, "lat": 46.8701863, "lon": -113.9959209, "tags": {"name": "Laurel Creek", "shop": "clothes"}}, {"type": "node", "id": 7165539034, "lat": 46.8703742, "lon": -113.9962693}, {"type": "node", "id": 7165539038, "lat": 46.8703294, "lon": -113.9962218, "tags": {"addr:city": "Missoula", "addr:housenumber": "129", "addr:postcode": "59802", "addr:state": "MT", "addr:street": "West Front Street", "amenity": "bar", "name": "Montgomery Distillery", "opening_hours": "Mo-Su 12:00-20:00", "phone": "+1-406-926-1725", "website": "https://www.montgomerydistillery.com/"}}, {"type": "node", "id": 7165539039, "lat": 46.8704174, "lon": -113.9963638}, {"type": "node", "id": 7165539040, "lat": 46.8701847, "lon": -113.9965912}, {"type": "node", "id": 7165539041, "lat": 46.8701415, "lon": -113.9964968}, {"type": "node", "id": 7165539045, "lat": 46.8704198, "lon": -113.9964433, "tags": {"name": "The Confident Stitch", "shop": "sewing"}}, {"type": "node", "id": 7165539053, "lat": 46.8707102, "lon": -113.9968906, "tags": {"name": "Grizzly Hackle Outfitters", "shop": "clothes"}}, {"type": "node", "id": 7165539054, "lat": 46.8708005, "lon": -113.9969841, "tags": {"name": "Grizzly Tackle", "shop": "fishing"}}, {"type": "node", "id": 7165539061, "lat": 46.8705643, "lon": -113.9961323}, {"type": "node", "id": 7165539069, "lat": 46.8708392, "lon": -113.9960585}, {"type": "node", "id": 7165539070, "lat": 46.870653, "lon": -113.9962901}, {"type": "node", "id": 7165539071, "lat": 46.8707508, "lon": -113.9959161}, {"type": "node", "id": 7165539079, "lat": 46.8702546, "lon": -113.9949107, "tags": {"amenity": "restaurant", "name": "1889 Steakhouse"}}, {"type": "node", "id": 7165539080, "lat": 46.8704937, "lon": -113.9947752, "tags": {"addr:city": "Missoula", "addr:housenumber": "114", "addr:postcode": "59802", "addr:state": "MT", "addr:street": "North Higgins Avenue", "amenity": "restaurant", "name": "Basal", "phone": "+1 406-540-4098", "website": "https://www.basalhospitality.com/"}}, {"type": "node", "id": 7165539081, "lat": 46.8700461, "lon": -113.9944424, "tags": {"amenity": "restaurant", "cuisine": "thai", "name": "Zoo Thai"}}, {"type": "node", "id": 7165539082, "lat": 46.8707279, "lon": -113.994693}, {"type": "node", "id": 7165548086, "lat": 46.8709898, "lon": -113.9945413}, {"type": "node", "id": 7165548087, "lat": 46.8706199, "lon": -113.9942901}, {"type": "node", "id": 7165548115, "lat": 46.8710613, "lon": -113.9949924, "tags": {"name": "Dark Room of Montana", "shop": "camera"}}, {"type": "node", "id": 7165548116, "lat": 46.8711298, "lon": -113.9950802, "tags": {"name": "Bound by Glory Tattoo", "shop": "tattoo"}}, {"type": "node", "id": 7165548118, "lat": 46.8712446, "lon": -113.9955223, "tags": {"name": "Piece of Mind", "shop": "tobacco"}}, {"type": "node", "id": 7165548120, "lat": 46.871412, "lon": -113.9961447, "tags": {"name": "The Wild Hare Salon", "shop": "hairdresser"}}, {"type": "node", "id": 7165548121, "lat": 46.8714078, "lon": -113.9959984, "tags": {"name": "Moxie Makeup & Lash Studio", "shop": "cosmetics"}}, {"type": "node", "id": 7165548122, "lat": 46.8707917, "lon": -113.9939695, "tags": {"amenity": "restaurant", "name": "The Empanada Joint"}}, {"type": "node", "id": 7165548123, "lat": 46.8709339, "lon": -113.9944917, "tags": {"name": "MSO Hub", "shop": "clothes"}}, {"type": "node", "id": 7165548156, "lat": 46.8711752, "lon": -113.9975567, "tags": {"amenity": "restaurant", "cuisine": "barbecue", "name": "The Notorious Pig BBQ"}}, {"type": "node", "id": 7165548157, "lat": 46.8712381, "lon": -113.9976168, "tags": {"name": "Marcure Insurances", "office": "insurance"}}, {"type": "node", "id": 7165548158, "lat": 46.8717099, "lon": -113.9983512, "tags": {"name": "D.A. Davidson & Co", "office": "yes"}}, {"type": "node", "id": 7165548180, "lat": 46.8718367, "lon": -113.997457, "tags": {"addr:city": "Missoula", "addr:housenumber": "241", "addr:postcode": "59802", "addr:state": "MT", "addr:street": "West Main Street", "amenity": "restaurant", "cuisine": "pizza;italian", "email": "bob@bigapizza.com", "name": "Biga Pizza", "opening_hours": "Mo-Sa 11:00-20:00", "phone": "+1 406 728 2579", "website": "https://www.bigapizza.com"}}, {"type": "node", "id": 7165548182, "lat": 46.8718683, "lon": -113.9979228, "tags": {"name": "Tangles Hairstyling", "shop": "hairdresser"}}, {"type": "node", "id": 7165548204, "lat": 46.8720136, "lon": -113.9961404, "tags": {"amenity": "bar", "name": "Red's Bar"}}, {"type": "node", "id": 7165548215, "lat": 46.872626, "lon": -113.9977274}, {"type": "node", "id": 7165548216, "lat": 46.8723519, "lon": -113.9979059}, {"type": "node", "id": 7165548217, "lat": 46.8723159, "lon": -113.9977876}, {"type": "node", "id": 7165548218, "lat": 46.8722607, "lon": -113.9978235}, {"type": "node", "id": 7165548219, "lat": 46.8722127, "lon": -113.9976656}, {"type": "node", "id": 7165548220, "lat": 46.8722127, "lon": -113.9976332}, {"type": "node", "id": 7165548221, "lat": 46.8722222, "lon": -113.9975978}, {"type": "node", "id": 7165548222, "lat": 46.8725263, "lon": -113.9973997}, {"type": "node", "id": 7165548245, "lat": 46.8725998, "lon": -113.9962513, "tags": {"name": "Downtown Pawn", "shop": "pawnbroker"}}, {"type": "node", "id": 7165548246, "lat": 46.872504, "lon": -113.9958997, "tags": {"name": "Import Market", "shop": "gift"}}, {"type": "node", "id": 7165548247, "lat": 46.8722538, "lon": -113.9959688, "tags": {"amenity": "bar", "name": "Monk's Bar"}}, {"type": "node", "id": 7165548249, "lat": 46.8722747, "lon": -113.9951455, "tags": {"amenity": "bar", "name": "Golden Rose Whiskey Bar"}}, {"type": "node", "id": 7165548250, "lat": 46.8721774, "lon": -113.9949057, "tags": {"name": "Missoula's Office City", "shop": "stationery"}}, {"type": "node", "id": 7165548251, "lat": 46.8720245, "lon": -113.9943812, "tags": {"name": "Imagination Station Toys", "shop": "toys"}}, {"type": "node", "id": 7165548252, "lat": 46.8719259, "lon": -113.9944219, "tags": {"name": "Wear Your Roots", "shop": "clothes"}}, {"type": "node", "id": 7165548253, "lat": 46.8717827, "lon": -113.994491, "tags": {"name": "Loose Moose", "shop": "clothes"}}, {"type": "node", "id": 7165548255, "lat": 46.8725748, "lon": -113.994911, "tags": {"addr:city": "Missoula", "addr:housenumber": "130", "addr:state": "MT", "addr:street": "West Broadway Street", "brand": "FedEx Office", "brand:wikidata": "Q474379", "name": "FedEx Office", "shop": "copyshop"}}, {"type": "node", "id": 7165548257, "lat": 46.8716507, "lon": -113.9940357, "tags": {"name": "Butterfly Herbs", "shop": "herbalist"}}, {"type": "node", "id": 7165548267, "lat": 46.870614, "lon": -113.9922814, "tags": {"name": "Agate Salon", "shop": "hairdresser"}}, {"type": "node", "id": 7166986690, "lat": 46.866503, "lon": -114.003354}, {"type": "node", "id": 7168396033, "lat": 46.8717873, "lon": -113.9913423}, {"type": "node", "id": 7168396034, "lat": 46.8716396, "lon": -113.9914347}, {"type": "node", "id": 7168396035, "lat": 46.8715574, "lon": -113.9911538}, {"type": "node", "id": 7168396036, "lat": 46.8717052, "lon": -113.9910613}, {"type": "node", "id": 7168396037, "lat": 46.8722741, "lon": -113.9911418}, {"type": "node", "id": 7168396038, "lat": 46.872141, "lon": -113.9912195}, {"type": "node", "id": 7168396039, "lat": 46.8720743, "lon": -113.9909811}, {"type": "node", "id": 7168396040, "lat": 46.8718978, "lon": -113.9910867}, {"type": "node", "id": 7168396041, "lat": 46.8718463, "lon": -113.9909026}, {"type": "node", "id": 7168396042, "lat": 46.8721491, "lon": -113.9906987}, {"type": "node", "id": 7168396044, "lat": 46.8724645, "lon": -113.9940588, "tags": {"name": "Blaque Owl Tattoo", "shop": "tattoo"}}, {"type": "node", "id": 7168396054, "lat": 46.8728584, "lon": -113.9938306, "tags": {"amenity": "restaurant", "name": "Five on Black", "opening_hours": "PH,Mo-Su 11:00-21:00"}}, {"type": "node", "id": 7168396055, "lat": 46.8729511, "lon": -113.9937459, "tags": {"name": "Red Rooster", "shop": "doityourself"}}, {"type": "node", "id": 7168396071, "lat": 46.8733439, "lon": -113.9935241, "tags": {"amenity": "restaurant", "cuisine": "sushi", "name": "Sushi Hana"}}, {"type": "node", "id": 7168396072, "lat": 46.8735714, "lon": -113.9935241, "tags": {"name": "Access Property Management", "office": "yes"}}, {"type": "node", "id": 7168396074, "lat": 46.8736756, "lon": -113.9942158, "tags": {"addr:city": "Missoual", "addr:housenumber": "130", "addr:postcode": "59802", "addr:state": "MT", "addr:street": "W Pine St", "amenity": "restaurant", "cuisine": "irish", "name": "Thomas Meagher Bar", "outdoor_seating": "yes", "phone": "+1 406-540-4402", "website": "http://www.thethomasmeagherbar.com/"}}, {"type": "node", "id": 7168396075, "lat": 46.8737072, "lon": -113.9944792, "tags": {"name": "Missoula City Council Chambers", "office": "government"}}, {"type": "node", "id": 7168396091, "lat": 46.8741495, "lon": -113.9938445, "tags": {"name": "DC Engineering", "office": "yes"}}, {"type": "node", "id": 7168396125, "lat": 46.8746651, "lon": -113.9926679, "tags": {"name": "Circle Square", "second_hand": "only", "shop": "clothes"}}, {"type": "node", "id": 7168396126, "lat": 46.8748906, "lon": -113.992592, "tags": {"addr:city": "Missoula", "addr:housenumber": "525", "addr:postcode": "59802", "addr:state": "MT", "addr:street": "North Higgins Avenue", "air_conditioning": "yes", "amenity": "restaurant", "bar": "no", "cuisine": "pizza", "delivery": "yes", "name": "Pie Hole", "opening_hours": "Mo-Su 11:00-03:00", "opening_hours:covid19": "Mo-Su 11:00-02:00", "outdoor_seating": "yes", "phone": "+1 406 926 2233", "takeaway": "yes", "website": "https://pieholemissoula.com/", "wheelchair": "yes"}}, {"type": "node", "id": 7168396145, "lat": 46.8747869, "lon": -113.992089}, {"type": "node", "id": 7168396146, "lat": 46.8746515, "lon": -113.9920689}, {"type": "node", "id": 7168396147, "lat": 46.8746588, "lon": -113.9919635}, {"type": "node", "id": 7168396148, "lat": 46.8747942, "lon": -113.9919836}, {"type": "node", "id": 7168396186, "lat": 46.873342, "lon": -113.9987878}, {"type": "node", "id": 7168396187, "lat": 46.8731291, "lon": -113.9989073}, {"type": "node", "id": 7168396188, "lat": 46.8731087, "lon": -113.9988295}, {"type": "node", "id": 7168396189, "lat": 46.8733215, "lon": -113.99871}, {"type": "node", "id": 7599451431, "lat": 46.8541459, "lon": -114.0091016}, {"type": "node", "id": 7599451432, "lat": 46.8539595, "lon": -114.0091973}, {"type": "node", "id": 7599451433, "lat": 46.8539081, "lon": -114.0089832}, {"type": "node", "id": 7599451434, "lat": 46.8539809, "lon": -114.0089459}, {"type": "node", "id": 7599451435, "lat": 46.8539881, "lon": -114.0089758}, {"type": "node", "id": 7599451436, "lat": 46.8541017, "lon": -114.0089175}, {"type": "node", "id": 7599451453, "lat": 46.8541115, "lon": -114.0091193}, {"type": "node", "id": 7599451575, "lat": 46.8530817, "lon": -114.0090702, "tags": {"name": "Terry Hober Insurance", "office": "insurance"}}, {"type": "node", "id": 7599451576, "lat": 46.8529768, "lon": -114.009263, "tags": {"name": "Exit Realty Missoula", "office": "estate_agent"}}, {"type": "node", "id": 7599451577, "lat": 46.8529844, "lon": -114.0085148, "tags": {"name": "Rocky Mountain Contact Lenses", "shop": "optician"}}, {"type": "node", "id": 7599451578, "lat": 46.8530562, "lon": -114.0081222, "tags": {"name": "Nettles Herbal Health & Spa", "shop": "beauty"}}, {"type": "node", "id": 7599451579, "lat": 46.8527687, "lon": -114.0081432, "tags": {"name": "A Kreative Touch", "shop": "beauty"}}, {"type": "node", "id": 7599451944, "lat": 46.8547933, "lon": -114.0102845}, {"type": "node", "id": 7604650746, "lat": 46.8545081, "lon": -114.0088944}, {"type": "node", "id": 7604650747, "lat": 46.854394, "lon": -114.0088944}, {"type": "node", "id": 7604650748, "lat": 46.8543952, "lon": -114.0087063}, {"type": "node", "id": 7604650749, "lat": 46.854468, "lon": -114.0087076}, {"type": "node", "id": 7604650750, "lat": 46.854468, "lon": -114.0087662}, {"type": "node", "id": 7604650751, "lat": 46.8545081, "lon": -114.0087662}, {"type": "node", "id": 7604650759, "lat": 46.8548328, "lon": -114.008717}, {"type": "node", "id": 7604650760, "lat": 46.8547381, "lon": -114.0085806}, {"type": "node", "id": 7604650761, "lat": 46.8548193, "lon": -114.00846}, {"type": "node", "id": 7604650762, "lat": 46.8549141, "lon": -114.0085963}, {"type": "node", "id": 7604650778, "lat": 46.8548036, "lon": -114.0084833}, {"type": "node", "id": 7604665224, "lat": 46.8550233, "lon": -114.0094495}, {"type": "node", "id": 7604665225, "lat": 46.854925, "lon": -114.0094459}, {"type": "node", "id": 7604665226, "lat": 46.8548962, "lon": -114.0094038}, {"type": "node", "id": 7604665227, "lat": 46.8549933, "lon": -114.0092618}, {"type": "node", "id": 7604665228, "lat": 46.8550353, "lon": -114.0093232}, {"type": "node", "id": 7604665229, "lat": 46.8550545, "lon": -114.0093232}, {"type": "node", "id": 7604665230, "lat": 46.8550545, "lon": -114.0094091}, {"type": "node", "id": 7604691316, "lat": 46.855951, "lon": -114.0085372}, {"type": "node", "id": 7604691317, "lat": 46.8556682, "lon": -114.0085379}, {"type": "node", "id": 7604691318, "lat": 46.8556677, "lon": -114.0080154}, {"type": "node", "id": 7604691319, "lat": 46.8556967, "lon": -114.0080153}, {"type": "node", "id": 7604691320, "lat": 46.8556967, "lon": -114.0079333}, {"type": "node", "id": 7604691321, "lat": 46.8559504, "lon": -114.0079327}, {"type": "node", "id": 7604691322, "lat": 46.8553959, "lon": -114.0094452}, {"type": "node", "id": 7604691323, "lat": 46.8552129, "lon": -114.0094419}, {"type": "node", "id": 7604691324, "lat": 46.8552151, "lon": -114.0091776}, {"type": "node", "id": 7604691325, "lat": 46.8553981, "lon": -114.009181}, {"type": "node", "id": 7604691326, "lat": 46.8559314, "lon": -114.0093016}, {"type": "node", "id": 7604691327, "lat": 46.8556436, "lon": -114.0093016}, {"type": "node", "id": 7604691328, "lat": 46.8556436, "lon": -114.0091515}, {"type": "node", "id": 7604691329, "lat": 46.8559314, "lon": -114.0091515}, {"type": "node", "id": 7644638896, "lat": 46.849102, "lon": -114.0082388, "tags": {"brand": "Farmers Insurance", "brand:wikidata": "Q1396863", "name": "Farmers Insurance", "office": "insurance"}}, {"type": "node", "id": 7644639220, "lat": 46.8501578, "lon": -114.008176}, {"type": "node", "id": 7644639221, "lat": 46.8500513, "lon": -114.008177}, {"type": "node", "id": 7644639222, "lat": 46.850051, "lon": -114.0081007}, {"type": "node", "id": 7644639223, "lat": 46.8500378, "lon": -114.0081008}, {"type": "node", "id": 7644639224, "lat": 46.8500374, "lon": -114.0080127}, {"type": "node", "id": 7644639225, "lat": 46.8501571, "lon": -114.0080116}, {"type": "node", "id": 7651452137, "lat": 46.8614557, "lon": -113.9895858}, {"type": "node", "id": 7651452138, "lat": 46.8612352, "lon": -113.9895948}, {"type": "node", "id": 7651452139, "lat": 46.8612324, "lon": -113.9894348}, {"type": "node", "id": 7651452140, "lat": 46.8614529, "lon": -113.9894268}, {"type": "node", "id": 7674873811, "lat": 46.8491107, "lon": -114.0064745}, {"type": "node", "id": 7674873812, "lat": 46.8489854, "lon": -114.0064764}, {"type": "node", "id": 7674873813, "lat": 46.8489844, "lon": -114.0063303}, {"type": "node", "id": 7674873814, "lat": 46.8491097, "lon": -114.0063284}, {"type": "node", "id": 7681491553, "lat": 46.8747805, "lon": -113.9971716}, {"type": "node", "id": 7681491554, "lat": 46.8744479, "lon": -113.9973863}, {"type": "node", "id": 7681491555, "lat": 46.874401, "lon": -113.9971986}, {"type": "node", "id": 7681491556, "lat": 46.8747269, "lon": -113.9969875}, {"type": "node", "id": 7681494914, "lat": 46.8705984, "lon": -113.987322}, {"type": "node", "id": 7681494915, "lat": 46.8704721, "lon": -113.9873935}, {"type": "node", "id": 7681494916, "lat": 46.8704309, "lon": -113.9872378}, {"type": "node", "id": 7681494917, "lat": 46.8703922, "lon": -113.9872597}, {"type": "node", "id": 7681494918, "lat": 46.8703648, "lon": -113.987156}, {"type": "node", "id": 7681494919, "lat": 46.8704784, "lon": -113.9870917}, {"type": "node", "id": 7681494920, "lat": 46.8704912, "lon": -113.9871401}, {"type": "node", "id": 7681494921, "lat": 46.8705426, "lon": -113.987111}, {"type": "node", "id": 7681495268, "lat": 46.8709191, "lon": -113.9894956}, {"type": "node", "id": 7681495269, "lat": 46.8708536, "lon": -113.9892929}, {"type": "node", "id": 7681495633, "lat": 46.8725029, "lon": -113.9898269}, {"type": "node", "id": 7681495634, "lat": 46.8723811, "lon": -113.9898931}, {"type": "node", "id": 7681495635, "lat": 46.8723749, "lon": -113.9898689}, {"type": "node", "id": 7681495636, "lat": 46.8723077, "lon": -113.9899054}, {"type": "node", "id": 7681495637, "lat": 46.8722811, "lon": -113.989801}, {"type": "node", "id": 7681495638, "lat": 46.8723249, "lon": -113.9897772}, {"type": "node", "id": 7681495639, "lat": 46.8723187, "lon": -113.9897526}, {"type": "node", "id": 7681495640, "lat": 46.8723704, "lon": -113.9897245}, {"type": "node", "id": 7681495641, "lat": 46.8723591, "lon": -113.9896802}, {"type": "node", "id": 7681495642, "lat": 46.8724292, "lon": -113.9896421}, {"type": "node", "id": 7681495643, "lat": 46.8724398, "lon": -113.9896835}, {"type": "node", "id": 7681495644, "lat": 46.8724962, "lon": -113.9896529}, {"type": "node", "id": 7681495645, "lat": 46.8725217, "lon": -113.9897533}, {"type": "node", "id": 7681495646, "lat": 46.8724922, "lon": -113.9897849}, {"type": "node", "id": 7681495709, "lat": 46.8725364, "lon": -113.9865881, "tags": {"name": "Eastgate Rental & Party Center", "shop": "rental"}}, {"type": "node", "id": 7681495710, "lat": 46.8726366, "lon": -113.9868133, "tags": {"name": "Volkmann Woodworking", "shop": "furniture"}}, {"type": "node", "id": 7681516905, "lat": 46.8751233, "lon": -113.9969349}, {"type": "node", "id": 7681516906, "lat": 46.8749736, "lon": -113.9970209}, {"type": "node", "id": 7681516907, "lat": 46.8749478, "lon": -113.9969249}, {"type": "node", "id": 7681516908, "lat": 46.8750221, "lon": -113.9968819}, {"type": "node", "id": 7681516909, "lat": 46.875018, "lon": -113.9968669}, {"type": "node", "id": 7681516910, "lat": 46.8750934, "lon": -113.9968239}, {"type": "node", "id": 7681516951, "lat": 46.8749487, "lon": -113.9944039, "tags": {"government": "prosecutor", "name": "Clark Fork Law Offices", "office": "government"}}, {"type": "node", "id": 7681516952, "lat": 46.8748212, "lon": -113.9944511, "tags": {"brand": "State Farm", "brand:wikidata": "Q2007336", "name": "State Farm", "office": "insurance"}}, {"type": "node", "id": 7681517118, "lat": 46.8760316, "lon": -113.9970079}, {"type": "node", "id": 7681517119, "lat": 46.8759441, "lon": -113.9970567}, {"type": "node", "id": 7681517120, "lat": 46.875916, "lon": -113.9969487}, {"type": "node", "id": 7681517121, "lat": 46.8760035, "lon": -113.9969}, {"type": "node", "id": 7682099290, "lat": 46.8685932, "lon": -113.9842666}, {"type": "node", "id": 7682099291, "lat": 46.8685037, "lon": -113.9843241}, {"type": "node", "id": 7682099292, "lat": 46.8684502, "lon": -113.9841459}, {"type": "node", "id": 7682099293, "lat": 46.8685397, "lon": -113.9840884}, {"type": "node", "id": 7682099302, "lat": 46.868442, "lon": -113.9837845}, {"type": "node", "id": 7682099303, "lat": 46.8684087, "lon": -113.9836696}, {"type": "node", "id": 7682099304, "lat": 46.8684475, "lon": -113.9836455}, {"type": "node", "id": 7682099305, "lat": 46.8683817, "lon": -113.9834188}, {"type": "node", "id": 7682099306, "lat": 46.8685545, "lon": -113.9833116}, {"type": "node", "id": 7682099307, "lat": 46.8686139, "lon": -113.9835163}, {"type": "node", "id": 7682099308, "lat": 46.8686284, "lon": -113.9835073}, {"type": "node", "id": 7682099309, "lat": 46.8686385, "lon": -113.9835424}, {"type": "node", "id": 7682099310, "lat": 46.8686947, "lon": -113.9835076}, {"type": "node", "id": 7682099311, "lat": 46.8687139, "lon": -113.9835739}, {"type": "node", "id": 7682099312, "lat": 46.8686586, "lon": -113.9836082}, {"type": "node", "id": 7682099313, "lat": 46.8686689, "lon": -113.9836437}, {"type": "node", "id": 7682099384, "lat": 46.8680816, "lon": -113.9841805}, {"type": "node", "id": 7682099385, "lat": 46.8679603, "lon": -113.9842087}, {"type": "node", "id": 7682099386, "lat": 46.8679572, "lon": -113.9841805}, {"type": "node", "id": 7682099387, "lat": 46.8678605, "lon": -113.984203}, {"type": "node", "id": 7682099388, "lat": 46.8678395, "lon": -113.984009}, {"type": "node", "id": 7682099389, "lat": 46.8680575, "lon": -113.9839584}, {"type": "node", "id": 7682099392, "lat": 46.8680169, "lon": -113.9839678}, {"type": "node", "id": 7682099414, "lat": 46.8679353, "lon": -113.9836855}, {"type": "node", "id": 7682099415, "lat": 46.8678215, "lon": -113.9837287}, {"type": "node", "id": 7682099416, "lat": 46.8677791, "lon": -113.9834892}, {"type": "node", "id": 7682099417, "lat": 46.8678929, "lon": -113.983446}, {"type": "node", "id": 7682099713, "lat": 46.8679664, "lon": -113.9828121, "tags": {"addr:city": "Missoula", "addr:housenumber": "903", "addr:postcode": "59802", "addr:state": "MT", "addr:street": "East Broadway Street", "brand": "O'Reilly Auto Parts", "brand:wikidata": "Q7071951", "name": "O'Reilly Auto Parts", "opening_hours": "Mo-Sa 07:30-21:00, Su 09:00-20:00", "phone": "+1-406-721-1004", "shop": "car_parts", "website": "https://locations.oreillyauto.com/mt/missoula/autoparts-1563.html", "wheelchair": "yes"}}, {"type": "node", "id": 7682099714, "lat": 46.8679256, "lon": -113.9825916, "tags": {"addr:city": "Missoula", "addr:housenumber": "905", "addr:postcode": "59802", "addr:state": "MT", "addr:street": "East Broadway Street", "brand": "Ace Hardware", "brand:wikidata": "Q4672981", "name": "Ace Hardware", "opening_hours": "Mo-Su 07:00-21:00", "phone": "+1 406-721-9690", "ref": "09590", "shop": "doityourself", "website": "https://www.montanaace.com/eastgate.html", "wheelchair": "yes"}}, {"type": "node", "id": 7682099717, "lat": 46.8677171, "lon": -113.9816769, "tags": {"addr:city": "Missoula", "addr:housenumber": "1003", "addr:postcode": "59802", "addr:state": "MT", "addr:street": "East Broadway Street", "amenity": "cafe", "branch": "Albertsons Missoula 0024", "brand": "Starbucks", "brand:wikidata": "Q37158", "cuisine": "coffee_shop", "name": "Starbucks", "official_name": "Starbucks Coffee", "phone": "+1 406-549-6163", "ref": "1023728", "takeaway": "yes", "website": "https://www.starbucks.com/store-locator/store/1023728/albertsons-missoula-0024-1003-e-broadway-st-missoula-mt-59802-us"}}, {"type": "node", "id": 7682099718, "lat": 46.8676222, "lon": -113.98122, "tags": {"addr:city": "Missoula", "addr:housenumber": "1003", "addr:postcode": "59802", "addr:state": "MT", "addr:street": "East Broadway Street", "brand": "Albertsons", "brand:wikidata": "Q2831861", "name": "Albertsons", "opening_hours": "Mo-Su 06:00-0:00", "payment:NFC_mobile_payments": "yes", "payment:cheque": "yes", "payment:credit_cards": "yes", "payment:debit_cards": "yes", "phone": "+1 406-549-2351", "shop": "supermarket", "website": "https://local.albertsons.com/mt/missoula/1003-e-broadway-st.html"}}, {"type": "node", "id": 7682104823, "lat": 46.8688844, "lon": -113.9821547, "tags": {"amenity": "restaurant", "cuisine": "mediterranean", "name": "Madeline's Mediterranean Grille & Street Food"}}, {"type": "node", "id": 7682104827, "lat": 46.8685008, "lon": -113.981629}, {"type": "node", "id": 7682104842, "lat": 46.8688104, "lon": -113.9815775}, {"type": "node", "id": 7682104843, "lat": 46.8687143, "lon": -113.9815381}, {"type": "node", "id": 7682104844, "lat": 46.8687334, "lon": -113.9814382}, {"type": "node", "id": 7682104845, "lat": 46.8688296, "lon": -113.9814777}, {"type": "node", "id": 7682104850, "lat": 46.8685862, "lon": -113.9815712}, {"type": "node", "id": 7682104852, "lat": 46.8684281, "lon": -113.9814035}, {"type": "node", "id": 7682104853, "lat": 46.8684859, "lon": -113.9813639}, {"type": "node", "id": 7682104854, "lat": 46.8685746, "lon": -113.9814529}, {"type": "node", "id": 7682104855, "lat": 46.868553, "lon": -113.9814678}, {"type": "node", "id": 7682104857, "lat": 46.8687376, "lon": -113.9810558}, {"type": "node", "id": 7682104858, "lat": 46.8686011, "lon": -113.9811999}, {"type": "node", "id": 7682104859, "lat": 46.8685187, "lon": -113.9810329}, {"type": "node", "id": 7682104860, "lat": 46.8686551, "lon": -113.9808888}, {"type": "node", "id": 7682122765, "lat": 46.8682162, "lon": -113.9801789, "tags": {"addr:city": "Missoula", "addr:housenumber": "1000", "addr:postcode": "59802", "addr:state": "MT", "addr:street": "East Broadway Street", "amenity": "cafe", "cuisine": "coffee", "internet_access": "wlan", "internet_access:fee": "no", "name": "Drum Coffee", "opening_hours": "Mo-Su 07:00-15:00", "phone": "+14067213786", "website": "https://drumcoffeeroasting.com/"}}, {"type": "node", "id": 7682122809, "lat": 46.8661001, "lon": -113.9785292}, {"type": "node", "id": 7682122810, "lat": 46.8660276, "lon": -113.978519}, {"type": "node", "id": 7682122811, "lat": 46.8660325, "lon": -113.9784438}, {"type": "node", "id": 7682122812, "lat": 46.8659156, "lon": -113.9784274}, {"type": "node", "id": 7682122813, "lat": 46.8658617, "lon": -113.9783409}, {"type": "node", "id": 7682122814, "lat": 46.8658869, "lon": -113.9781758}, {"type": "node", "id": 7682122815, "lat": 46.8658413, "lon": -113.978161}, {"type": "node", "id": 7682122816, "lat": 46.8658724, "lon": -113.9779572}, {"type": "node", "id": 7682122817, "lat": 46.8659886, "lon": -113.9779951}, {"type": "node", "id": 7682122818, "lat": 46.8659948, "lon": -113.9779544}, {"type": "node", "id": 7682122819, "lat": 46.8660685, "lon": -113.9779784}, {"type": "node", "id": 7682122820, "lat": 46.8660575, "lon": -113.9780507}, {"type": "node", "id": 7682122821, "lat": 46.8660847, "lon": -113.9780596}, {"type": "node", "id": 7682122822, "lat": 46.866067, "lon": -113.9781754}, {"type": "node", "id": 7682122823, "lat": 46.8661074, "lon": -113.9781236}, {"type": "node", "id": 7682122824, "lat": 46.8661385, "lon": -113.9781755}, {"type": "node", "id": 7682122825, "lat": 46.8661088, "lon": -113.9782136}, {"type": "node", "id": 7682122826, "lat": 46.8661607, "lon": -113.9782276}, {"type": "node", "id": 7682122827, "lat": 46.8661279, "lon": -113.9784885}, {"type": "node", "id": 7682122917, "lat": 46.8667733, "lon": -113.9771848}, {"type": "node", "id": 7682122918, "lat": 46.8666536, "lon": -113.9773122}, {"type": "node", "id": 7682122919, "lat": 46.866635, "lon": -113.9772731}, {"type": "node", "id": 7682122920, "lat": 46.8666996, "lon": -113.9772026}, {"type": "node", "id": 7682122921, "lat": 46.8663684, "lon": -113.9765516}, {"type": "node", "id": 7682122922, "lat": 46.8662998, "lon": -113.9766263}, {"type": "node", "id": 7682122923, "lat": 46.8662783, "lon": -113.9765839}, {"type": "node", "id": 7682122924, "lat": 46.8664003, "lon": -113.9764512}, {"type": "node", "id": 7682122933, "lat": 46.8664037, "lon": -113.9764367}, {"type": "node", "id": 7682122934, "lat": 46.8662615, "lon": -113.9765901}, {"type": "node", "id": 7682122935, "lat": 46.8654519, "lon": -113.9749851}, {"type": "node", "id": 7682122936, "lat": 46.8655938, "lon": -113.9748319}, {"type": "node", "id": 7682185268, "lat": 46.8631633, "lon": -113.9976925, "tags": {"name": "Art Hang Up", "shop": "art"}}, {"type": "node", "id": 7682185269, "lat": 46.863266, "lon": -113.9977026, "tags": {"name": "Body Basics", "shop": "perfumery"}}, {"type": "node", "id": 7682185270, "lat": 46.8634244, "lon": -113.9980081, "tags": {"name": "Altered Skin Tattoo & Body Piercings", "shop": "tattoo"}}, {"type": "node", "id": 7682185272, "lat": 46.8638368, "lon": -113.9979393, "tags": {"name": "Bitterroot Flower Shop", "shop": "florist"}}, {"type": "node", "id": 7682194501, "lat": 46.8630335, "lon": -113.9991422}, {"type": "node", "id": 7682194502, "lat": 46.862861, "lon": -113.9988913}, {"type": "node", "id": 7682194503, "lat": 46.8629494, "lon": -113.9987614}, {"type": "node", "id": 7682194504, "lat": 46.8631219, "lon": -113.9990123}, {"type": "node", "id": 7684029078, "lat": 46.8658891, "lon": -113.9930913}, {"type": "node", "id": 7684029079, "lat": 46.8656822, "lon": -113.9930949}, {"type": "node", "id": 7684029080, "lat": 46.8656807, "lon": -113.9929028}, {"type": "node", "id": 7684029081, "lat": 46.8658876, "lon": -113.9929028}, {"type": "node", "id": 7684068039, "lat": 46.8652949, "lon": -113.9971333}, {"type": "node", "id": 7684068040, "lat": 46.8652128, "lon": -113.9971322}, {"type": "node", "id": 7684068041, "lat": 46.8652141, "lon": -113.9969317}, {"type": "node", "id": 7684068042, "lat": 46.8652962, "lon": -113.9969328}, {"type": "node", "id": 7684068043, "lat": 46.8656842, "lon": -113.9971096}, {"type": "node", "id": 7684068044, "lat": 46.8658286, "lon": -113.997108}, {"type": "node", "id": 7684068045, "lat": 46.8658272, "lon": -113.9968372}, {"type": "node", "id": 7684068046, "lat": 46.8657756, "lon": -113.9968378}, {"type": "node", "id": 7684068047, "lat": 46.865776, "lon": -113.9969041}, {"type": "node", "id": 7684068048, "lat": 46.8656857, "lon": -113.9969052}, {"type": "node", "id": 7684068049, "lat": 46.8642103, "lon": -113.9977272, "tags": {"amenity": "cafe", "internet_access": "wlan", "internet_access:fee": "no", "name": "Clyde Coffee", "outdoor_seating": "yes"}}, {"type": "node", "id": 7684068050, "lat": 46.8655865, "lon": -113.9970508, "tags": {"name": "Hazel & Fawn", "shop": "baby_goods"}}, {"type": "node", "id": 7684068051, "lat": 46.865462, "lon": -113.9971745, "tags": {"name": "Board of Missoula", "shop": "outdoor"}}, {"type": "node", "id": 7684068052, "lat": 46.8653697, "lon": -113.9971739, "tags": {"operator": "Ear Candy Music", "shop": "music"}}, {"type": "node", "id": 7684068160, "lat": 46.8645611, "lon": -113.9971789, "tags": {"name": "Missoula Bicycle Works", "shop": "bicycle"}}, {"type": "node", "id": 7684068161, "lat": 46.8641676, "lon": -113.997204, "tags": {"addr:city": "Missoula", "addr:housenumber": "736", "addr:postcode": "59801", "addr:state": "MT", "addr:street": "South Higgins Avenue", "air_conditioning": "yes", "email": "compassbarbershop@gmail.com", "name": "Compass Barbershop", "opening_hours": "Mo-Tu 10:00-14:45; We-Sa 10:00-19:00", "phone": "+1 406 926 1778", "shop": "hairdresser", "website": "https://www.compassbarber.com"}}, {"type": "node", "id": 7684069664, "lat": 46.864798, "lon": -113.998053, "tags": {"name": "Missoula Valley Winter Market", "shop": "supermarket"}}, {"type": "node", "id": 7684069665, "lat": 46.8648057, "lon": -113.9978867, "tags": {"name": "Underground Thrift Store", "shop": "second_hand"}}, {"type": "node", "id": 7684069674, "lat": 46.8654374, "lon": -113.9984824}, {"type": "node", "id": 7684069675, "lat": 46.8653182, "lon": -113.9984835}, {"type": "node", "id": 7684069676, "lat": 46.8653178, "lon": -113.9983853}, {"type": "node", "id": 7684069677, "lat": 46.8652619, "lon": -113.9983858}, {"type": "node", "id": 7684069678, "lat": 46.8652614, "lon": -113.9982542}, {"type": "node", "id": 7684069679, "lat": 46.8654623, "lon": -113.9982524}, {"type": "node", "id": 7684069680, "lat": 46.8654629, "lon": -113.998378}, {"type": "node", "id": 7684069681, "lat": 46.8654369, "lon": -113.9983783}, {"type": "node", "id": 7684069682, "lat": 46.8654174, "lon": -113.998035, "tags": {"amenity": "restaurant", "name": "Kornutopia"}}, {"type": "node", "id": 7684069683, "lat": 46.8654174, "lon": -113.9977293, "tags": {"amenity": "restaurant", "name": "Green Source"}}, {"type": "node", "id": 7684087691, "lat": 46.8658046, "lon": -113.9987161, "tags": {"internet_access": "wlan", "name": "Le Petit Bake House", "shop": "bakery"}}, {"type": "node", "id": 7684087692, "lat": 46.8656412, "lon": -113.998336, "tags": {"amenity": "restaurant", "cuisine": "mexican", "name": "Taco Sano"}}, {"type": "node", "id": 7684087709, "lat": 46.8661254, "lon": -113.9977323, "tags": {"amenity": "restaurant", "cuisine": "italian", "name": "Ciao Mombo"}}, {"type": "node", "id": 7684087711, "lat": 46.8664012, "lon": -113.9977381, "tags": {"name": "C.M. Buxton", "shop": "jewelry"}}, {"type": "node", "id": 7684087712, "lat": 46.8664643, "lon": -113.9977381, "tags": {"name": "Upcycled", "shop": "gift"}}, {"type": "node", "id": 7684087713, "lat": 46.866551, "lon": -113.9977409, "tags": {"amenity": "restaurant", "name": "GILD"}}, {"type": "node", "id": 7684087714, "lat": 46.8666278, "lon": -113.9977409, "tags": {"name": "Bettys Divine", "shop": "clothes"}}, {"type": "node", "id": 7684087715, "lat": 46.8667638, "lon": -113.9977409, "tags": {"name": "Shakespeare & Co", "shop": "books"}}, {"type": "node", "id": 7684087716, "lat": 46.8667717, "lon": -113.998081, "tags": {"name": "The Sports Exchange", "shop": "sports"}}, {"type": "node", "id": 7686654934, "lat": 46.8574272, "lon": -113.9977168}, {"type": "node", "id": 7686654935, "lat": 46.8575243, "lon": -113.9977097}, {"type": "node", "id": 7686654936, "lat": 46.8575404, "lon": -113.9975947}, {"type": "node", "id": 7686654937, "lat": 46.8574157, "lon": -113.997596}, {"type": "node", "id": 7686654950, "lat": 46.8571693, "lon": -113.9980199, "tags": {"addr:city": "Missoula", "addr:housenumber": "447", "addr:postcode": "59801", "addr:state": "MT", "addr:street": "Hill Street", "name": "Grizzly Grocery", "phone": "+1 406-721-2679", "shop": "supermarket"}}, {"type": "node", "id": 7686654951, "lat": 46.8572461, "lon": -113.997912, "tags": {"name": "Frolic", "shop": "beauty"}}, {"type": "node", "id": 7686654952, "lat": 46.8573015, "lon": -113.9978131, "tags": {"name": "Tagliare Delicatessen", "shop": "deli"}}, {"type": "node", "id": 7686654953, "lat": 46.8573629, "lon": -113.9977097, "tags": {"amenity": "restaurant", "cuisine": "mexican", "name": "El DIablo"}}, {"type": "node", "id": 7686655083, "lat": 46.8579587, "lon": -113.9977081}, {"type": "node", "id": 7686655084, "lat": 46.8578029, "lon": -113.997895}, {"type": "node", "id": 7686655085, "lat": 46.8577429, "lon": -113.9977881}, {"type": "node", "id": 7686655086, "lat": 46.8576717, "lon": -113.9978735}, {"type": "node", "id": 7686655087, "lat": 46.8576054, "lon": -113.9977555}, {"type": "node", "id": 7686655088, "lat": 46.8576761, "lon": -113.9976706}, {"type": "node", "id": 7686655089, "lat": 46.8578168, "lon": -113.9976657}, {"type": "node", "id": 7686655090, "lat": 46.8578891, "lon": -113.9975922}, {"type": "node", "id": 7686655091, "lat": 46.8576895, "lon": -113.9977564, "tags": {"name": "Dan's Barber Shop", "shop": "hairdresser"}}, {"type": "node", "id": 7697683591, "lat": 46.8692626, "lon": -113.9918057, "tags": {"amenity": "restaurant", "cuisine": "pizza", "name": "Front Street Pizza"}}, {"type": "node", "id": 7700644650, "lat": 46.8613311, "lon": -113.9986963}, {"type": "node", "id": 7700644651, "lat": 46.8614728, "lon": -113.9985024}, {"type": "node", "id": 7700644652, "lat": 46.8613521, "lon": -113.9983145}, {"type": "node", "id": 7700644653, "lat": 46.8612103, "lon": -113.9985094}, {"type": "node", "id": 7700644697, "lat": 46.8617305, "lon": -113.9980702, "tags": {"name": "Guild Mortgage Company", "office": "yes"}}, {"type": "node", "id": 7700644698, "lat": 46.8614997, "lon": -113.9981539, "tags": {"name": "Missoula Lender", "shop": "money_lender"}}, {"type": "node", "id": 7700644699, "lat": 46.8614044, "lon": -113.9980207, "tags": {"name": "Addus HomeCare", "office": "yes"}}, {"type": "node", "id": 7700644837, "lat": 46.8638249, "lon": -114.0000383}, {"type": "node", "id": 7700644838, "lat": 46.8637187, "lon": -114.0000391}, {"type": "node", "id": 7700644839, "lat": 46.8637186, "lon": -114.0000011}, {"type": "node", "id": 7700644840, "lat": 46.8636397, "lon": -114.0000017}, {"type": "node", "id": 7700644841, "lat": 46.8636396, "lon": -113.9999523}, {"type": "node", "id": 7700644842, "lat": 46.8635833, "lon": -113.9999527}, {"type": "node", "id": 7700644843, "lat": 46.863583, "lon": -113.9998704}, {"type": "node", "id": 7700644844, "lat": 46.8636109, "lon": -113.9998702}, {"type": "node", "id": 7700644845, "lat": 46.8636106, "lon": -113.9997788}, {"type": "node", "id": 7700644846, "lat": 46.8634227, "lon": -113.9997802}, {"type": "node", "id": 7700644847, "lat": 46.8634236, "lon": -113.9994371}, {"type": "node", "id": 7700644848, "lat": 46.8637096, "lon": -113.999435}, {"type": "node", "id": 7700644849, "lat": 46.8637095, "lon": -113.9994104}, {"type": "node", "id": 7700644850, "lat": 46.8638314, "lon": -113.9994095}, {"type": "node", "id": 7700644851, "lat": 46.863832, "lon": -113.9995645}, {"type": "node", "id": 7700644852, "lat": 46.8638059, "lon": -113.9995647}, {"type": "node", "id": 7700644853, "lat": 46.8638061, "lon": -113.9996268}, {"type": "node", "id": 7700644854, "lat": 46.8638306, "lon": -113.9996266}, {"type": "node", "id": 7700644855, "lat": 46.8638313, "lon": -113.9998096}, {"type": "node", "id": 7700644856, "lat": 46.8638015, "lon": -113.9998099}, {"type": "node", "id": 7700644857, "lat": 46.8638017, "lon": -113.9998685}, {"type": "node", "id": 7700644858, "lat": 46.8638243, "lon": -113.9998683}, {"type": "node", "id": 7707988398, "lat": 46.8758199, "lon": -113.9978807, "tags": {"addr:city": "Missoula", "addr:housenumber": "432", "addr:postcode": "59802", "addr:state": "MT", "addr:street": "West Spruce Street", "addr:unit": "101", "description": "Real Estate Appraisers & Consultants", "name": "Kembel, Kosena & Company, Inc.", "office": "estate_agent", "phone": "+1-406-549-6151", "website": "https://kkmontana.com/"}}, {"type": "node", "id": 7707988399, "lat": 46.8758581, "lon": -113.998012, "tags": {"addr:city": "Missoula", "addr:housenumber": "432", "addr:postcode": "59802", "addr:state": "MT", "addr:street": "West Spruce Street", "addr:unit": "102", "fax": "+1-406-830-3291", "name": "Willow Creek", "office": "financial_advisor", "phone": "+1-406-830-3286", "website": "https://www.raymondjames.com/willowcreekcm"}}, {"type": "node", "id": 7716679599, "lat": 46.8699452, "lon": -113.994029, "tags": {"addr:city": "Missoula", "addr:housenumber": "125", "addr:postcode": "59802", "addr:state": "MT", "addr:street": "North Pattee Street", "amenity": "restaurant", "bar": "yes", "cuisine": "mexican", "name": "The Camino", "outdoor_seating": "yes", "phone": "+1-406-317-1260", "website": "https://www.thecaminomissoula.com"}}, {"type": "node", "id": 7775709970, "lat": 46.85107, "lon": -113.997794}, {"type": "node", "id": 7775710328, "lat": 46.85135, "lon": -113.997866}, {"type": "node", "id": 7775710343, "lat": 46.850855, "lon": -113.997794}, {"type": "node", "id": 7775710729, "lat": 46.850855, "lon": -113.997684}, {"type": "node", "id": 7775710856, "lat": 46.851125, "lon": -113.998067}, {"type": "node", "id": 7775710873, "lat": 46.85107, "lon": -113.997684}, {"type": "node", "id": 7775711307, "lat": 46.851124, "lon": -113.997868}, {"type": "node", "id": 7775711471, "lat": 46.851351, "lon": -113.998065}, {"type": "node", "id": 7775718821, "lat": 46.8489659, "lon": -113.9972339}, {"type": "node", "id": 7775721179, "lat": 46.8479809, "lon": -113.9975437}, {"type": "node", "id": 7775721490, "lat": 46.8481433, "lon": -113.9975469}, {"type": "node", "id": 7775721812, "lat": 46.8481917, "lon": -113.9977438}, {"type": "node", "id": 7775721932, "lat": 46.8479791, "lon": -113.9977396}, {"type": "node", "id": 7775722085, "lat": 46.8483962, "lon": -113.9979747}, {"type": "node", "id": 7775722137, "lat": 46.8485612, "lon": -113.9977887}, {"type": "node", "id": 7775722252, "lat": 46.8485612, "lon": -113.9979747}, {"type": "node", "id": 7775722398, "lat": 46.8483962, "lon": -113.9977887}, {"type": "node", "id": 7775729735, "lat": 46.8489659, "lon": -113.9970289}, {"type": "node", "id": 7775730119, "lat": 46.8492079, "lon": -113.9970289}, {"type": "node", "id": 7775730854, "lat": 46.8492079, "lon": -113.9972339}, {"type": "node", "id": 7775831761, "lat": 46.866851, "lon": -113.999701}, {"type": "node", "id": 7775896899, "lat": 46.865189, "lon": -114.004105}, {"type": "node", "id": 7775897176, "lat": 46.866851, "lon": -113.99953}, {"type": "node", "id": 7775897514, "lat": 46.865132, "lon": -114.004242}, {"type": "node", "id": 7775897698, "lat": 46.866601, "lon": -114.003153}, {"type": "node", "id": 7775897928, "lat": 46.866504, "lon": -113.999698}, {"type": "node", "id": 7775897938, "lat": 46.865337, "lon": -114.004105}, {"type": "node", "id": 7775898108, "lat": 46.865132, "lon": -114.004145}, {"type": "node", "id": 7775898267, "lat": 46.865189, "lon": -114.004145}, {"type": "node", "id": 7775898294, "lat": 46.866601, "lon": -114.003354}, {"type": "node", "id": 7775898552, "lat": 46.866505, "lon": -113.999528}, {"type": "node", "id": 7775898560, "lat": 46.865337, "lon": -114.004242}, {"type": "node", "id": 7775898632, "lat": 46.866503, "lon": -114.003153}, {"type": "node", "id": 7833536591, "lat": 46.8630038, "lon": -113.9692115}, {"type": "node", "id": 7833536592, "lat": 46.8629037, "lon": -113.9692433}, {"type": "node", "id": 7833536593, "lat": 46.8628967, "lon": -113.9691962}, {"type": "node", "id": 7833536594, "lat": 46.8628617, "lon": -113.9692074}, {"type": "node", "id": 7833536595, "lat": 46.8628309, "lon": -113.9690006}, {"type": "node", "id": 7833536596, "lat": 46.862991, "lon": -113.9689497}, {"type": "node", "id": 7833536597, "lat": 46.8630098, "lon": -113.9690762}, {"type": "node", "id": 7833536598, "lat": 46.8630175, "lon": -113.9690737}, {"type": "node", "id": 7833536599, "lat": 46.8630316, "lon": -113.9691682}, {"type": "node", "id": 7833536600, "lat": 46.8629989, "lon": -113.9691786}, {"type": "node", "id": 7847060875, "lat": 46.8495616, "lon": -113.997777}, {"type": "node", "id": 7847060876, "lat": 46.849331, "lon": -113.9977751}, {"type": "node", "id": 7847060877, "lat": 46.8493314, "lon": -113.9976531}, {"type": "node", "id": 7847060878, "lat": 46.8495621, "lon": -113.9976551}, {"type": "node", "id": 7847087688, "lat": 46.8519956, "lon": -113.9971117}, {"type": "node", "id": 7847087689, "lat": 46.8519977, "lon": -113.9969962}, {"type": "node", "id": 7847087690, "lat": 46.852174, "lon": -113.9970337}, {"type": "node", "id": 7847087691, "lat": 46.8521734, "lon": -113.997071}, {"type": "node", "id": 7847087692, "lat": 46.8520995, "lon": -113.9971158}, {"type": "node", "id": 8410340426, "lat": 46.8709484, "lon": -113.995049, "tags": {"addr:city": "Missoula", "addr:housenumber": "129", "addr:postcode": "59802", "addr:state": "MT", "addr:street": "North Higgins Avenue", "currency:USD": "yes", "email": "info@ddcanna.com", "name": "Double Dogs", "opening_hours": "Mo-Su 11:00-19:00", "payment:cash": "yes", "phone": "+1 406 926 1218", "shop": "cannabis", "website": "https://ddcanna.com"}}, {"type": "node", "id": 8756045939, "lat": 46.8687192, "lon": -113.9840687, "tags": {"addr:city": "Missoula", "addr:housenumber": "801", "addr:postcode": "59802", "addr:state": "MT", "addr:street": "East Broadway Street", "amenity": "restaurant", "brand": "Pizza Hut", "brand:wikidata": "Q191615", "cuisine": "pizza", "name": "Pizza Hut", "opening_hours": "Su-Th 10:30-0:00, Fr-Sa 10:30-0:30", "phone": "+1 406-721-0149", "website": "https://locations.pizzahut.com/mt/missoula/801-e-broadway-st"}}, {"type": "node", "id": 8920281160, "lat": 46.8659423, "lon": -114.0080656, "tags": {"addr:city": "Missoula", "addr:housenumber": "875", "addr:postcode": "59801", "addr:state": "MT", "addr:street": "Wyoming Street", "air_conditioning": "yes", "amenity": "cafe", "capacity": "8", "cuisine": "regional", "image": "https://scontent-lax3-2.cdninstagram.com/v/t51.29350-15/157042748_2866105106964609_5919266147060706197_n.jpg?_nc_cat=101&ccb=1-3&_nc_sid=8ae9d6&_nc_ohc=pl_G05rn5n4AX9-JZ5R&_nc_ht=scontent-lax3-2.cdninstagram.com&oh=518591ed8f210b491550ba88096dc7d8&oe=60F4", "internet_access": "wlan", "internet_access:fee": "no", "level": "0", "name": "Dog and Bicycle", "outdoor_seating": "yes", "payment:cash": "yes", "payment:credit_cards": "yes", "payment:debit_cards": "yes", "smoking": "no", "takeaway": "yes", "website": "https://www.dogandbicycle.com/", "wheelchair": "yes"}}, {"type": "node", "id": 8920281161, "lat": 46.8717176, "lon": -114.0099469, "tags": {"addr:city": "Missoula", "addr:housenumber": "945", "addr:postcode": "59801", "addr:state": "MT", "addr:street": "Wyoming Street", "addr:unit": "340", "air_conditioning": "yes", "level": "3", "name": "Advanced Technology Group (ATG)", "office": "it", "operator": "Cognizant", "smoking": "no", "website": "https://atginfo.com/", "wheelchair": "yes"}}, {"type": "node", "id": 8920549142, "lat": 46.8701047, "lon": -113.9947308, "tags": {"addr:city": "Missoula", "addr:housenumber": "140", "addr:state": "MT", "addr:street": "East Front Street", "amenity": "bar", "name": "CREATE art bar", "opening_hours": "Tu-Fr 15:00-22:00; Sa 11:00-22:00; Su 11:00-18:00", "phone": "+14068303941", "website": "https://www.createartbar.com/"}}, {"type": "node", "id": 9581583454, "lat": 46.8671034, "lon": -113.9991355, "tags": {"name": "Bernice's Bakery", "shop": "bakery"}}, {"type": "node", "id": 9581583455, "lat": 46.8670998, "lon": -113.9993431, "tags": {"name": "Boom Swagger Salon", "shop": "hairdresser"}}, {"type": "node", "id": 9770700006, "lat": 46.8724281, "lon": -113.9935777, "tags": {"addr:city": "Missoula", "addr:housenumber": "312", "addr:postcode": "59802", "addr:state": "MT", "addr:street": "North Higgins Avenue", "email": "hometanamt@gmail.com", "name": "Hometana", "phone": "+1-406-224-4166", "shop": "clothes", "website": "https://www.hometana.com/"}}, {"type": "node", "id": 9770700007, "lat": 46.8724771, "lon": -113.9935447, "tags": {"addr:city": "Missoula", "addr:housenumber": "314", "addr:postcode": "59802", "addr:state": "MT", "addr:street": "North Higgins Avenue", "brand": "Berkshire Hathaway HomeServices", "brand:wikidata": "Q5887960", "email": "info@bhhsmt.com", "name": "Berkshire Hathaway HomeServices", "office": "estate_agent", "phone": "+1-406-721-4141", "short_name": "Berkshire Hathaway", "start_date": "1900", "website": "https://www.bhhsmt.com/", "wheelchair": "limited"}}, {"type": "node", "id": 9816389780, "lat": 46.8713727, "lon": -114.010385, "tags": {"addr:city": "Missoula", "addr:housenumber": "945", "addr:postcode": "59801", "addr:state": "MT", "addr:street": "Wyoming Street", "name": "Zane K. Sullivan Attorney at Law", "office": "lawyer", "opening_hours": "Mo-Fr 08:00-17:00", "phone": "+1-406-544-7900", "website": "https://zanesullivan.com"}}, {"type": "node", "id": 10696017026, "lat": 46.8393622, "lon": -114.0023886, "tags": {"name": "Caras Property", "office": "yes"}}, {"type": "node", "id": 10696017027, "lat": 46.8395347, "lon": -114.001533, "tags": {"name": "Deadeye Guitars", "shop": "musical_instrument"}}, {"type": "node", "id": 10696017028, "lat": 46.8396796, "lon": -114.0011199, "tags": {"name": "MorTech", "shop": "medical_supply"}}, {"type": "node", "id": 10696017029, "lat": 46.8397475, "lon": -114.0009965, "tags": {"name": "GEM Jewelers", "shop": "jewelry"}}, {"type": "node", "id": 10696017034, "lat": 46.8407126, "lon": -113.9984538, "tags": {"name": "Daphne Software", "office": "yes"}}, {"type": "node", "id": 10696017035, "lat": 46.8406319, "lon": -113.9986228, "tags": {"brand": "State Farm", "brand:wikidata": "Q2007336", "name": "State Farm", "office": "insurance"}}, {"type": "node", "id": 10696017062, "lat": 46.8394815, "lon": -114.0017678, "tags": {"name": "Yay Puppy Grooming", "shop": "pet_grooming"}}, {"type": "node", "id": 10696093450, "lat": 46.8701012, "lon": -113.9865699, "tags": {"alt_name": "Verizon Wireless", "brand": "Verizon", "brand:wikidata": "Q919641", "name": "Verizon", "shop": "mobile_phone"}}, {"type": "node", "id": 10975479585, "lat": 46.8699569, "lon": -113.985224}, {"type": "node", "id": 10975479586, "lat": 46.8698365, "lon": -113.9852051}, {"type": "node", "id": 10975479587, "lat": 46.8699736, "lon": -113.9849966}, {"type": "node", "id": 10975479588, "lat": 46.8698532, "lon": -113.9849776}, {"type": "node", "id": 11514911054, "lat": 46.8748275, "lon": -113.9930449}, {"type": "node", "id": 11557847249, "lat": 46.8752845, "lon": -113.9946481}, {"type": "node", "id": 11557882692, "lat": 46.874806, "lon": -113.993146}, {"type": "node", "id": 11557882693, "lat": 46.8748613, "lon": -113.9931574}, {"type": "node", "id": 11557882694, "lat": 46.8748947, "lon": -113.9932589}, {"type": "node", "id": 11557882695, "lat": 46.8749058, "lon": -113.9933262}, {"type": "node", "id": 11574857256, "lat": 46.8655642, "lon": -113.9978357}, {"type": "node", "id": 11574857296, "lat": 46.8652615, "lon": -113.9982708}, {"type": "node", "id": 11574857439, "lat": 46.866601, "lon": -114.0031618}, {"type": "node", "id": 11582429477, "lat": 46.8521746, "lon": -113.9970032}, {"type": "node", "id": 11582429525, "lat": 46.8491163, "lon": -113.9970289}, {"type": "node", "id": 11582429544, "lat": 46.8481427, "lon": -113.9976136}, {"type": "node", "id": 11582429545, "lat": 46.8481929, "lon": -113.9976146}, {"type": "node", "id": 11582429558, "lat": 46.8485612, "lon": -113.9979357}, {"type": "node", "id": 11818420038, "lat": 46.865247, "lon": -114.0009507, "tags": {"addr:city": "Missoula", "addr:country": "US", "addr:housenumber": "310", "addr:postcode": "59801", "addr:state": "MT", "addr:street": "South 5th Street West", "addr:unit": "1", "name": "Heenan & Cook Injury Accident Lawyers", "office": "lawyer", "opening_hours": "Mo-Su 08:00-18:00", "phone": "+1 406-888-4444", "website": "https://www.lawmontana.com"}}, {"type": "node", "id": 12044569559, "lat": 46.8740306, "lon": -113.9934974, "tags": {"addr:city": "Missoula", "addr:housenumber": "103", "addr:postcode": "59802", "addr:state": "MT", "addr:street": "W Spruce St", "amenity": "restaurant", "bar": "yes", "cuisine": "american", "live_music": "yes", "music_genre": "Jazz", "name": "The Old Post", "outdoor_seating": "yes", "phone": "+1 406-540-4433", "website": "https://www.oldpostmissoula.com/"}}, {"type": "node", "id": 12044569563, "lat": 46.8707477, "lon": -113.9961723}, {"type": "node", "id": 12044569566, "lat": 46.8706872, "lon": -113.9962475, "tags": {"access": "private", "entrance": "service"}}, {"type": "node", "id": 12044569567, "lat": 46.8706314, "lon": -113.9962517, "tags": {"access": "customers", "entrance": "main"}}, {"type": "node", "id": 12069188895, "lat": 46.8677172, "lon": -113.9868908, "tags": {"addr:city": "Missoula", "addr:housenumber": "100", "addr:postcode": "59802", "addr:state": "MT", "addr:street": "Madison Street", "amenity": "restaurant", "cuisine": "american", "name": "Finn", "phone": "+1 406-542-4660", "website": "https://finnmissoula.com/"}}, {"type": "node", "id": 12076405869, "lat": 46.8491801, "lon": -113.9971523, "tags": {"name": "Gathered for God", "office": "yes"}}, {"type": "node", "id": 12076405871, "lat": 46.8490083, "lon": -113.9971446, "tags": {"shop": "vacant"}}, {"type": "node", "id": 12155974425, "lat": 46.8662679, "lon": -113.9765832}, {"type": "node", "id": 12155974438, "lat": 46.8658298, "lon": -113.9757344, "tags": {"barrier": "gate"}}, {"type": "node", "id": 13001332148, "lat": 46.8544143, "lon": -114.0093289, "tags": {"addr:city": "Missoula", "addr:housenumber": "1750", "addr:postcode": "59801", "addr:state": "MT", "addr:street": "Brooks Street", "addr:unit": "B", "name": "McKenna & Starin, PLLC", "note": "Please check position, used a lot NOT OSM keys could be SPAM!", "office": "lawyer", "phone": "+1-406-327-0800", "website": "https://www.mckennastarin.com/"}}, {"type": "way", "id": 141693680, "nodes": [1550996614, 1550996616, 1550996617, 1550996618, 1550996619, 1550996621, 1550996622, 1550996623, 6293930120, 6293930119, 1550996614]}, {"type": "way", "id": 141693684, "nodes": [1550996624, 1550996626, 6293930118, 1550996627, 1550996628, 1550996629, 6293930124, 1550996630, 1550996631, 1550996632, 1550996624], "tags": {"source": "Bing"}}, {"type": "way", "id": 141801133, "nodes": [1552112006, 1552111998, 7027730368, 1552112018, 1552112031, 1552112016, 1552112014, 1552112008, 1552112013, 1552112006], "tags": {"addr:city": "Missoula", "addr:housenumber": "126", "addr:postcode": "59802", "addr:state": "MT", "addr:street": "East Broadway Street", "building": "yes", "name": "Masonic Lodge", "office": "architect", "start_date": "1909"}}, {"type": "way", "id": 141801143, "nodes": [1552112055, 1552112062, 1552112061, 1552112047, 1552112055], "tags": {"addr:city": "Missoula", "addr:housenumber": "330", "addr:postcode": "59802", "addr:state": "MT", "addr:street": "North Higgins Avenue", "air_conditioning": "yes", "building": "yes", "building:levels": "2", "building:material": "brick", "name": "Wyckman Building", "office": "yes", "operator": "Wyckman Properties L.L.C.", "start_date": "1905", "wheelchair": "yes"}}, {"type": "way", "id": 141801144, "nodes": [1552112004, 1552112002, 1552111996, 1552112000, 1552112004]}, {"type": "way", "id": 141801149, "nodes": [1552112042, 1552112021, 7006427564, 1552112028, 1552112042], "tags": {"addr:city": "Missoula", "addr:housenumber": "304", "addr:postcode": "59802", "addr:state": "MT", "addr:street": "North Higgins Avenue", "air_conditioning": "no", "brand": "H&R Block", "brand:wikidata": "Q5627799", "building": "yes", "building:levels": "1", "name": "H&R Block", "office": "tax_advisor", "phone": "+1-406-728-3920", "start_date": "1954", "wheelchair": "limited"}}, {"type": "way", "id": 211047173, "nodes": [4619293768, 2210547876, 2210547874, 2210547872, 2210547873, 4619293769, 2210547875, 2210547878, 2210547879, 2210547877, 4619293768], "tags": {"addr:housenumber": "250", "addr:state": "MT", "addr:street": "Station Drive", "building": "yes", "historic": "station_site", "name": "Boone and Crockett Club", "office": "association", "old_name": "Milwaukee Depot"}}, {"type": "way", "id": 299783971, "nodes": [3038404741, 3038404749, 3038404747, 3038404748, 3038404745, 3038404744, 3038404743, 3038404742, 3038404739, 3038404734, 3038404737, 3038404735, 3038404741], "tags": {"addr:city": "Missoula", "addr:country": "US", "addr:housenumber": "500", "addr:postcode": "59801", "addr:state": "MT", "addr:street": "Brooks Street", "amenity": "restaurant", "building": "retail", "building:levels": "1", "cuisine": "italian", "name": "Florabella", "opening_hours": "Mo-Th 07:00-21:00; Fr 07:00-22:00; Sa 08:00-21:00; Su 09:00-14:00", "phone": "+1 406 830 3055", "roof:levels": "0", "website": "https://www.caffedolce.com/"}}, {"type": "way", "id": 467098200, "nodes": [4617710371, 4617710370, 4617710369, 4617710368, 4617710367, 4617710366, 4617710365, 4617710364, 4617710363, 6816514671, 4617710362, 4617710361, 4617710371], "tags": {"building": "yes", "name": "The Missoulian", "office": "newspaper"}}, {"type": "way", "id": 467098209, "nodes": [4617710405, 4617710404, 11574857256, 4617710403, 4617710402, 4617710405], "tags": {"brand": "Holiday", "brand:wikidata": "Q5880490", "building": "yes", "name": "Holiday", "shop": "convenience"}}, {"type": "way", "id": 467369376, "nodes": [4620020455, 4620020454, 4620020453, 4620020452, 4620020451, 4620020450, 4620020449, 4620020448, 4620020447, 4620020446, 7599451944, 4620020445, 4620020444, 4620020455], "tags": {"brand": "U-Haul", "brand:wikidata": "Q7862902", "building": "yes", "name": "U-Haul", "shop": "rental"}}, {"type": "way", "id": 467369472, "nodes": [4620021304, 4620021303, 4620021302, 4620021301, 4620021304], "tags": {"building": "yes", "name": "Black Coffee Roastery", "opening_hours": "Mo-Fr 06:30-17:30; Sa 07:30-16:00; Su 08:00-15:00", "shop": "coffee"}}, {"type": "way", "id": 467374372, "nodes": [4620044032, 4620044029, 4620044030, 4620044031, 4620044032], "tags": {"building": "yes", "name": "Workiva", "office": "it"}}, {"type": "way", "id": 499513578, "nodes": [357979105, 4907827175, 4907827174, 357979101, 357979105], "tags": {"building": "yes", "name": "Grizzly Liqour", "shop": "alcohol"}}, {"type": "way", "id": 653300325, "nodes": [6122676870, 6122676871, 6122676872, 6122676873, 6122676874, 6122676875, 6122676876, 6122676877, 6122676870], "tags": {"building": "yes", "name": "MonTec", "office": "yes"}}, {"type": "way", "id": 666400648, "nodes": [6239123515, 6239123516, 3627453647, 6239123517, 6239123518, 6239123515], "tags": {"addr:city": "Missoula", "addr:housenumber": "601", "addr:postcode": "59802-4611", "addr:state": "MT", "addr:street": "E. Broadway Street", "brand": "Jiffy Lube", "brand:wikidata": "Q6192247", "building": "yes", "name": "Jiffy Lube", "opening_hours": "Mo-Sa 08:00-18:00", "shop": "car_repair", "website": "https://www.jiffylube.com/locations/mt/missoula/1871"}}, {"type": "way", "id": 672117392, "nodes": [6293930118, 6293930119, 6293930120, 6293930121, 6293930122, 6293930123, 6293930124, 1550996629, 1550996628, 1550996627, 6293930118]}, {"type": "way", "id": 675567366, "nodes": [6326550085, 6326550086, 6326592660, 6326592659, 6326592661, 6326592658, 6326550088, 6326550089, 6326550090, 6326550091, 6326550092, 6326564697, 6326564691, 6326550085], "tags": {"addr:city": "Missoula", "addr:housenumber": "610", "addr:postcode": "59802", "addr:state": "MT", "addr:street": "Woody Street", "building": "yes", "name": "Office of the Public Defender", "name:fr": "Bureau du D\u00e9fenseur Public", "office": "lawyer", "start_date": "1890", "wheelchair": "yes"}}, {"type": "way", "id": 684901863, "nodes": [6417265144, 6417265145, 6417265486, 6417265146, 6417265147, 6417265144], "tags": {"addr:city": "Missoula", "addr:housenumber": "420", "addr:postcode": "59802", "addr:state": "MT", "addr:street": "West Broadway Street", "amenity": "cafe", "building": "commercial", "building:levels": "1", "building:material": "cement_brick", "cuisine": "coffee_shop;pizza;tea;soup;wings;american;juice;sandwich;pastry", "internet_access": "wlan", "internet_access:fee": "no", "name": "Dog Wash Cafe", "opening_hours": "Su-We 07:00-19:00; Th-Sat 07:00-22:00", "phone": "+1 406-481-1800", "smoking": "no", "start_date": "1969", "wheelchair": "limited"}}, {"type": "way", "id": 684988392, "nodes": [6418263429, 6418263438, 6418263430, 6418263431, 6418263433, 6418263432, 6418263429], "tags": {"addr:city": "Missoula", "addr:housenumber": "414", "addr:postcode": "59802", "addr:state": "MT", "addr:street": "West Broadway Street", "building": "yes", "description": "We market our properties aggressively, provide maintenance and efficient accounting, and communicate honestly and clearly.", "email": "bpm@montana.com", "fax": "+1-406-542-1396", "level": "0", "name": "Bitterroot Property Management, Inc.", "office": "financial", "opening_hours": "Mo-Fr 09:00-17:00", "operator": "Placid L.L.C.", "phone": "+1-406-549-9631", "start_date": "1950", "website": "https://bitterrootmanagement.com/", "wheelchair": "yes"}}, {"type": "way", "id": 685154170, "nodes": [6419940739, 6419940767, 6419940764, 6419940768, 6419940761, 6419940750, 6419940757, 6419940759, 6419940752, 6419940760, 6419940758, 6419940754, 6419940755, 6419940751, 6419940756, 6419940753, 6419940749, 6419940746, 6419940748, 6419940747, 6419940740, 6419940741, 6419940744, 6419940742, 6419940745, 6419940775, 6419940769, 6419940771, 6419940772, 6419940773, 6419940774, 6419940770, 6419940776, 6419940743, 6419940762, 6419940765, 6419940763, 6419940766, 6419940739], "tags": {"addr:city": "Missoula", "addr:housenumber": "310", "addr:postcode": "59802", "addr:state": "MT", "addr:street": "West Spruce Street", "building": "yes", "description": "Attorneys at Christian Samson, PLLC have a long track record of providing exceptional legal services to its clients, with an emphasis in the practice areas of banking, land use planning, real estate transactions, real estate litigation ... (see website)", "email": "csj@csjlaw.com", "level": "0", "name": "Christian, Samson, Jones & Chisholm PLLC", "office": "lawyer", "opening_hours": "\"by appointment\"", "operator": "Park Place Inc", "phone": "+1-406-721-7772", "start_date": "1991", "website": "https://csjlaw.com/", "wheelchair": "limited"}}, {"type": "way", "id": 685155794, "nodes": [6419962096, 6419962097, 6419962098, 6419962101, 6419962103, 6419962104, 6419962102, 6419962100, 6419962099, 6419962096], "tags": {"addr:city": "Missoula", "addr:housenumber": "322", "addr:postcode": "59802", "addr:state": "MT", "addr:street": "West Spruce Street", "building": "yes", "name": "Douglas Harris Law Offices", "office": "lawyer", "start_date": "1935", "wheelchair": "no"}}, {"type": "way", "id": 685294438, "nodes": [6421706629, 6421706637, 6421706630, 6421595828, 6421595829, 11557847249, 6421706631, 6421706632, 6421570945, 6421706634, 6421706629], "tags": {"addr:city": "Missoula", "addr:housenumber": "223", "addr:postcode": "59802", "addr:state": "MT", "addr:street": "West Alder Street", "building": "yes", "description": "The Risk and Benefits Office administers the Risk Management, Property and Casualty Insurance, Employee Benefits, Workers' Compensation and Flex Plan claims programs and plans. (See website for more info)", "email": "benefits@missoulacounty.us", "fax": "+1-406-523-4731", "government": "public_service", "level": "0", "name": "Risk & Benefits", "office": "government", "operator": "Missoula City-County", "phone": "+1-406-258-3488", "smoking": "no", "start_date": "1960", "website": "https://www.missoulacounty.us/government/administration/risk-benefits", "wheelchair": "yes"}}, {"type": "way", "id": 686163944, "nodes": [6431451925, 6431451929, 6431451943, 6431451942, 6431451926, 6431451941, 6431451939, 6431451927, 6431451940, 6431451934, 6431451938, 6431451928, 6431451937, 6431451947, 6431452998, 6431451935, 6431451933, 6431451936, 6431451932, 6431451930, 6431451931, 6431451948, 6431451925], "tags": {"addr:city": "Missoula", "addr:housenumber": "320", "addr:postcode": "59802", "addr:state": "MT", "addr:street": "West Broadway Street", "addr:unit": "A", "building": "yes", "description": "Since 1996, real estate professionals, business people and property owners have all trusted locally owned Stewart Title offices to conduct efficient closings, provide accurate real estate information and solid title insurance.", "name": "Stewart Title", "office": "insurance", "phone": "+1-406-728-1500", "start_date": "1980", "website": "http://stewartmt.com/", "wheelchair": "limited"}}, {"type": "way", "id": 701685440, "nodes": [6589739735, 6589739739, 6589739736, 7098509478, 11557882694, 6589739737, 6589739740, 11557882695, 6589739738, 6592299197, 6589739735], "tags": {"addr:city": "Missoula", "addr:housenumber": "127", "addr:postcode": "59802", "addr:state": "MT", "addr:street": "West Alder Street", "amenity": "bar", "building": "yes", "level": "0", "name": "James Bar", "opening_hours": "Mo-Su 11:00-02:00", "outdoor_seating": "yes", "phone": "+1-406-721-8158", "start_date": "1960", "website": "https://jamesbarmontana.com/", "wheelchair": "yes"}}, {"type": "way", "id": 701917269, "nodes": [6591744939, 6591744940, 6591744941, 6591744959, 6591744958, 6591744942, 6591744943, 6591744944, 6591744945, 6591744946, 6591744957, 6591744947, 6591744948, 6591744949, 6591744950, 6591744951, 6591744952, 6591744953, 6591744954, 6591744939], "tags": {"addr:city": "Missoula", "addr:housenumber": "501", "addr:postcode": "59802", "addr:state": "MT", "addr:street": "North Higgins Avenue", "air_conditioning": "yes", "amenity": "restaurant", "bar": "yes", "building": "yes", "cuisine": "burger", "level": "0", "name": "Iron Horse", "opening_hours": "Mo-Su 11:00-02:00", "outdoor_seating": "yes", "phone": "+1-406-728-8866", "reservation": "yes", "start_date": "1977", "website": "https://www.ironhorsebrewpub.com/", "wheelchair": "yes"}}, {"type": "way", "id": 701980078, "nodes": [6592299194, 6592299203, 6592299204, 6592299205, 6592299210, 6592299193, 6592299194], "tags": {"addr:city": "Missoula", "addr:housenumber": "125", "addr:postcode": "59802", "addr:state": "MT", "addr:street": "West Alder Street", "building": "yes", "email": "mmw@mmwarchitects.com", "fax": "+1-406-327-9367", "level": "0", "name": "MMW Architects", "office": "architect", "phone": "+1-406-543-5800", "start_date": "1910", "website": "https://www.mmwarchitects.com/"}}, {"type": "way", "id": 720534554, "nodes": [6761879384, 6761879381, 6761879382, 6761879380, 3397639471, 6761879383, 6761879384], "tags": {"building": "yes", "shop": "vacant", "was:amenity": "fast_food", "was:name": "Taco John's"}}, {"type": "way", "id": 729710960, "nodes": [6835586738, 6835586729, 6835586749, 6835586739, 6835586747, 6835586725, 6835586735, 6835586745, 6835586723, 6835586732, 6835586742, 6835586730, 6835586720, 6835586743, 6835586740, 6835586721, 6835586738], "tags": {"addr:housenumber": "305", "addr:state": "MT", "addr:street": "South 4th Street East", "building": "yes", "building:levels": "3", "name": "Boyle Deveny & Meyer PC", "office": "yes", "start_date": "2004"}}, {"type": "way", "id": 738097879, "nodes": [6911011144, 6911011143, 6911011142, 6911011141, 6911011144], "tags": {"building": "yes", "name": "The Babs", "office": "educational_institution"}}, {"type": "way", "id": 746827374, "nodes": [6988707248, 6988707249, 6988707250, 6988731095, 6988707251, 6988731094, 6988707248], "tags": {"addr:city": "Missoula", "addr:housenumber": "337", "addr:postcode": "59802", "addr:state": "MT", "addr:street": "North Higgins Avenue", "air_conditioning": "yes", "amenity": "bar", "bar": "yes", "building": "yes", "cuisine": "burger;american", "description": "The Oxford Saloon & Cafe' located in the heart of downtown Missoula was established in 1883 and is open 24 hours a day, all through the year. The Ox has been open 24 hours a day for so many years that there are no keys for the entrances.", "internet_access": "no", "name": "The Oxford", "opening_hours": "24/7", "outdoor_seating": "no", "phone": "+1-406-549-0117", "start_date": "1883", "website": "https://www.the-oxford.com", "wheelchair": "yes"}}, {"type": "way", "id": 749010606, "nodes": [7004409811, 7004409814, 7004409828, 7004409816, 7004409817, 7004409815, 7004409818, 7004409820, 7004409812, 7004409819, 7004409813, 7004409811], "tags": {"addr:city": "Missoula", "addr:housenumber": "436", "addr:postcode": "59802", "addr:state": "MT", "addr:street": "North Higgins Avenue", "air_conditioning": "yes", "building": "yes", "building:levels": "1", "name": "Pawn Shop", "shop": "pawnbroker", "start_date": "1935", "wheelchair": "yes"}}, {"type": "way", "id": 749101815, "nodes": [7005280107, 7005280108, 7005280114, 7005280109, 7005280113, 7005280110, 7005280111, 7005280107], "tags": {"addr:city": "Missoula", "addr:housenumber": "111", "addr:postcode": "59802", "addr:state": "MT", "addr:street": "East Spruce Street", "air_conditioning": "yes", "building": "yes", "building:levels": "1", "internet_access": "no", "name": "Missoula Textile Services", "opening_hours": "Mo-Fr 07:30-17:30", "operator": "Missoula Laundry & Dry Cleaners", "phone": "+1-406-543-5171", "shop": "dry_cleaning", "start_date": "1915", "stroller": "yes", "website": "https://missoulatextiles.com/", "wheelchair": "yes"}}, {"type": "way", "id": 751778426, "nodes": [7027730359, 7027730363, 7027730360, 7027730361, 7027730362, 7027730359], "tags": {"addr:city": "Missoula", "addr:housenumber": "318", "addr:postcode": "59802", "addr:state": "MT", "addr:street": "North Higgins Avenue", "amenity": "bar", "building": "yes", "building:levels": "2", "name": "Feruqi's Bar", "outdoor_seating": "no", "phone": "+1-406-728-8799", "wheelchair": "limited"}}, {"type": "way", "id": 751778427, "nodes": [7027730364, 7027730365, 7027730366, 7027730367, 7027730364], "tags": {"addr:city": "Missoula", "addr:housenumber": "332", "addr:postcode": "59802", "addr:state": "MT", "addr:street": "North Higgins Avenue", "air_conditioning": "yes", "amenity": "restaurant", "bar": "yes", "building": "yes", "building:levels": "2", "building:material": "brick", "delivery": "no", "description": "Plonk is an excursion into the world of fine wine, food, cocktails, service and atmosphere. With an environment designed to engage the senses.", "email": "shannon@plonkwine.com", "fax": "+1-406-926-1793", "internet_access": "wlan", "internet_access:fee": "no", "min_age": "18", "name": "Plonk", "opening_hours": "Mo-Su 15:00-01:30", "outdoor_seating": "yes", "phone": "+1-406-926-1791", "reservation": "yes", "start_date": "1910", "takeaway": "no", "website": "https://plonkwine.com/", "wheelchair": "limited"}}, {"type": "way", "id": 759873678, "nodes": [7098509480, 7098509477, 11514911054, 7098509476, 11557882692, 7098509475, 11557882693, 7098509479, 7098509480], "tags": {"building": "yes", "name": "Alderwood Estate & Loan", "shop": "pawnbroker"}}, {"type": "way", "id": 759873679, "nodes": [6589739736, 7098509480, 7098509479, 7098509478, 6589739736], "tags": {"amenity": "bar", "building": "yes", "name": "Al's & Vic's Bar"}}, {"type": "way", "id": 759874309, "nodes": [7098522831, 7098522849, 7098522848, 7098522847, 7098522846, 7098522845, 7098522844, 7098522843, 7098522842, 7098522841, 7098522840, 7098522839, 7098522838, 7098522837, 7098522836, 7098522835, 7098522850, 7098522834, 7098522833, 7098522832, 7098522831], "tags": {"building": "yes", "name": "Lerman Law Firm", "office": "lawyer"}}, {"type": "way", "id": 767445675, "nodes": [7165539034, 7165539039, 7165539040, 7165539041, 7165539034], "tags": {"amenity": "restaurant", "building": "yes", "cuisine": "pizza", "name": "Mackenzie River Pizza"}}, {"type": "way", "id": 767445682, "nodes": [7165539069, 12044569563, 12044569566, 7165539070, 12044569567, 7165539061, 7165539071, 7165539069], "tags": {"addr:city": "Missoula", "addr:housenumber": "134", "addr:postcode": "59802", "addr:state": "MT", "addr:street": "West Front Street", "amenity": "restaurant", "bar": "yes", "building": "yes", "cuisine": "american", "name": "Top Hat", "outdoor_seating": "yes", "phone": "+1 406-830-4640", "website": "https://logjampresents.com/top-hat-restaurant-bar/"}}, {"type": "way", "id": 767445685, "nodes": [7165539082, 7165548086, 1541427183, 1541427176, 7165548087, 7165539082], "tags": {"addr:city": "Missoula", "addr:housenumber": "124", "addr:postcode": "59802", "addr:state": "MT", "addr:street": "North Higgins Avenue", "building": "commercial", "name": "Radius Gallery Clayworks", "shop": "art"}}, {"type": "way", "id": 767445706, "nodes": [7165548215, 7165548216, 7165548217, 7165548218, 7165548219, 7165548220, 7165548221, 7165548222, 7165548215], "tags": {"building": "yes", "name": "Zip Auto Services", "shop": "car_repair"}}, {"type": "way", "id": 767763066, "nodes": [7168396033, 7168396034, 7168396035, 7168396036, 7168396033], "tags": {"brand": "Point S", "brand:wikidata": "Q3393358", "building": "yes", "name": "Point S", "shop": "car_repair"}}, {"type": "way", "id": 767763067, "nodes": [7168396037, 7168396038, 7168396039, 7168396040, 7168396041, 7168396042, 7168396037], "tags": {"building": "yes", "name": "Williams Law Firm", "office": "lawyer"}}, {"type": "way", "id": 767763086, "nodes": [7168396145, 7168396146, 7168396147, 7168396148, 7168396145], "tags": {"building": "yes", "name": "Missoula Farmer's Market", "shop": "supermarket"}}, {"type": "way", "id": 767763091, "nodes": [7168396186, 7168396187, 7168396188, 7168396189, 7168396186], "tags": {"building": "yes", "name": "Farm to Market Pork", "shop": "butcher", "website": "https://www.farmtomarketpork.com/"}}, {"type": "way", "id": 813554710, "nodes": [7599451431, 7599451453, 7599451432, 7599451433, 7599451434, 7599451435, 7599451436, 7599451431], "tags": {"amenity": "restaurant", "building": "yes", "cuisine": "mexican", "name": "Taco Treat"}}, {"type": "way", "id": 814075364, "nodes": [7604650746, 7604650747, 7604650748, 7604650749, 7604650750, 7604650751, 7604650746], "tags": {"building": "yes", "name": "Flaherty Real Estate", "office": "estate_agent"}}, {"type": "way", "id": 814075367, "nodes": [7604650759, 7604650760, 7604650778, 7604650761, 7604650762, 7604650759], "tags": {"building": "yes", "name": "Darby South State Farm Agency", "office": "insurance"}}, {"type": "way", "id": 814075380, "nodes": [7604665224, 7604665225, 7604665226, 7604665227, 7604665228, 7604665229, 7604665230, 7604665224], "tags": {"alt_name": "Edward Jones Investments", "brand": "Edward Jones", "brand:wikidata": "Q5343830", "building": "yes", "name": "Edward Jones", "office": "financial_advisor"}}, {"type": "way", "id": 814078372, "nodes": [7604691316, 7604691317, 7604691318, 7604691319, 7604691320, 7604691321, 7604691316], "tags": {"building": "yes", "name": "Pierce Flooring & Design", "shop": "flooring"}}, {"type": "way", "id": 814078373, "nodes": [7604691322, 7604691323, 7604691324, 7604691325, 7604691322], "tags": {"building": "yes", "name": "Missoula Organization of Realtors", "office": "association"}}, {"type": "way", "id": 814078374, "nodes": [7604691326, 7604691327, 7604691328, 7604691329, 7604691326], "tags": {"building": "yes", "name": "Willy's Auto", "shop": "car_repair"}}, {"type": "way", "id": 818605436, "nodes": [7644639220, 7644639221, 7644639222, 7644639223, 7644639224, 7644639225, 7644639220], "tags": {"building": "yes", "name": "Mann Mortgage", "office": "yes"}}, {"type": "way", "id": 819330000, "nodes": [7651452137, 7651452138, 7651452139, 7651452140, 7651452137], "tags": {"addr:city": "Missoula", "addr:housenumber": "1025", "addr:postcode": "59801", "addr:state": "MT", "addr:street": "Arthur Avenue", "amenity": "cafe", "building": "yes", "cuisine": "cafe", "dog": "no", "internet_access": "wlan", "internet_access:fee": "no", "name": "Liquid Planet Grille", "opening_hours": "Mo-Su 07:30-16:00", "outdoor_seating": "yes", "phone": "+1 406-540-4209", "toilets": "yes", "website": "https://liquidplanet.com/pages/locations", "wheelchair": "yes"}}, {"type": "way", "id": 821980129, "nodes": [7674873811, 7674873812, 7674873813, 7674873814, 7674873811], "tags": {"amenity": "cafe", "building": "yes", "name": "Drum Coffee"}}, {"type": "way", "id": 822704339, "nodes": [7681494914, 7681494915, 7681494916, 7681494917, 7681494918, 7681494919, 7681494920, 7681494921, 7681494914], "tags": {"addr:city": "Missoula", "addr:housenumber": "540", "addr:postcode": "59802", "addr:state": "MT", "addr:street": "East Broadway Street", "building": "yes", "name": "Noon's", "opening_hours": "24/7", "phone": "+14067215968", "shop": "convenience", "website": "https://www.noons.com/540-e-broadway/"}}, {"type": "way", "id": 822704371, "nodes": [1529821159, 7681495268, 7681495269, 1529821156, 1529821159], "tags": {"building": "yes", "name": "Spark1 Missoula", "shop": "cannabis"}}, {"type": "way", "id": 822704436, "nodes": [7681495633, 7681495634, 7681495635, 7681495636, 7681495637, 7681495638, 7681495639, 7681495640, 7681495641, 7681495642, 7681495643, 7681495644, 7681495645, 7681495646, 7681495633], "tags": {"building": "yes", "name": "The College Music Society", "office": "association"}}, {"type": "way", "id": 822706767, "nodes": [7681491553, 7681491554, 7681491555, 7681491556, 7681491553], "tags": {"building": "yes", "name": "Tire-Rama", "shop": "tyres"}}, {"type": "way", "id": 822706778, "nodes": [7681516905, 7681516906, 7681516907, 7681516908, 7681516909, 7681516910, 7681516905], "tags": {"building": "yes", "name": "Twigs Salon", "shop": "beauty"}}, {"type": "way", "id": 822706816, "nodes": [7681517118, 7681517119, 7681517120, 7681517121, 7681517118], "tags": {"addr:city": "Missoula", "addr:housenumber": "521", "addr:postcode": "59802", "addr:state": "MT", "addr:street": "North Orange Street", "building": "yes", "building:levels": "2", "description": "Montana Legal Justice is a private law office and legal advice clinic located in Missoula, MT. Our goal is to empower you through the legal process and to help you craft a true solution to your legal issue with as little litigation as possible.", "name": "Montana Legal Justice", "office": "lawyer", "phone": "+1-406-356-6546", "start_date": "1910", "website": "https://montanalegaljustice.com/"}}, {"type": "way", "id": 822776892, "nodes": [7682099290, 7682099291, 7682099292, 7682099293, 7682099290], "tags": {"building": "yes", "name": "Watershed Education Network", "office": "association"}}, {"type": "way", "id": 822776894, "nodes": [7682099302, 7682099303, 7682099304, 7682099305, 7682099306, 7682099307, 7682099308, 7682099309, 7682099310, 7682099311, 7682099312, 7682099313, 7682099302], "tags": {"amenity": "bar", "building": "yes", "name": "Press Box Sports Bar"}}, {"type": "way", "id": 822776908, "nodes": [7682099384, 7682099385, 7682099386, 7682099387, 7682099388, 7682099392, 7682099389, 7682099384], "tags": {"building": "yes", "name": "Big Sky Bikes", "opening_hours": "Mo-Sa 10:00-18:00", "shop": "bicycle", "website": "https://www.bigskybike.com/"}}, {"type": "way", "id": 822776915, "nodes": [7682099414, 7682099415, 7682099416, 7682099417, 7682099414], "tags": {"building": "yes", "name": "Missoula Area Chamber of Commerce", "office": "government"}}, {"type": "way", "id": 822776932, "nodes": [10975479585, 10975479586, 10975479588, 10975479587, 10975479585], "tags": {"addr:city": "Missoula", "addr:housenumber": "700", "addr:postcode": "59802", "addr:state": "MT", "addr:street": "East Broadway Street", "amenity": "restaurant", "building": "yes", "cuisine": "american", "name": "4B's Restaurant", "opening_hours": "Mo-Sa 07:00-20:00, Su 07:00-15:00", "phone": "+14069262364"}}, {"type": "way", "id": 822779280, "nodes": [7682104842, 7682104843, 7682104844, 7682104845, 7682104842], "tags": {"building": "yes", "name": "Lewis & Clark Trail Adventures", "shop": "outdoor"}}, {"type": "way", "id": 822779282, "nodes": [7682104850, 7682104827, 7682104852, 7682104853, 7682104854, 7682104855, 7682104850], "tags": {"building": "yes", "name": "Kingfisher Fly Shop", "shop": "fishing"}}, {"type": "way", "id": 822779284, "nodes": [7682104857, 7682104858, 7682104859, 7682104860, 7682104857], "tags": {"building": "yes", "name": "Lemon Laundry", "opening_hours": "Mo-Su 07:30-21:00", "self_service": "yes", "shop": "laundry", "website": "https://www.mylemonlaundry.com/"}}, {"type": "way", "id": 822779312, "nodes": [7682122809, 7682122810, 7682122811, 7682122812, 7682122813, 7682122814, 7682122815, 7682122816, 7682122817, 7682122818, 7682122819, 7682122820, 7682122821, 7682122822, 7682122823, 7682122824, 7682122825, 7682122826, 7682122827, 7682122809], "tags": {"building": "yes", "name": "WGM Group", "office": "yes"}}, {"type": "way", "id": 822779328, "nodes": [7682122917, 7682122918, 7682122919, 7682122920, 7682122921, 7682122922, 7682122923, 7682122924, 7682122917], "tags": {"addr:city": "Missoula", "addr:housenumber": "1140", "addr:postcode": "59802", "addr:state": "MT", "addr:street": "East Broadway Street", "building": "yes", "name": "Sentinel Storage", "phone": "+14065309274", "shop": "storage_rental"}}, {"type": "way", "id": 822779331, "nodes": [7682122933, 12155974425, 7682122934, 12155974438, 7682122935, 7682122936, 7682122933], "tags": {"addr:city": "Missoula", "addr:housenumber": "1150", "addr:postcode": "59802", "addr:state": "MT", "addr:street": "East Broadway Street", "name": "Broadway Storage", "shop": "storage_rental"}}, {"type": "way", "id": 822787023, "nodes": [7682194501, 7682194502, 7682194503, 7682194504, 7682194501], "tags": {"building": "yes", "name": "Green Hanger", "self_service": "yes", "shop": "laundry"}}, {"type": "way", "id": 823006538, "nodes": [7684029078, 7684029079, 7684029080, 7684029081, 7684029078], "tags": {"building": "yes", "name": "Ecology Project International", "office": "association"}}, {"type": "way", "id": 823006570, "nodes": [7684068039, 7684068040, 7684068041, 7684068042, 7684068039], "tags": {"building": "yes", "name": "Mellow Mood", "shop": "tobacco"}}, {"type": "way", "id": 823006571, "nodes": [7684068043, 7684068044, 7684068045, 7684068046, 7684068047, 7684068048, 7684068043], "tags": {"amenity": "restaurant", "building": "yes", "cuisine": "pizza", "name": "Bridge Pizza"}}, {"type": "way", "id": 823009124, "nodes": [7684069674, 7684069675, 7684069676, 7684069677, 11574857296, 7684069678, 7684069679, 7684069680, 7684069681, 7684069674], "tags": {"building": "yes", "name": "Master Technician Inc", "shop": "car_repair"}}, {"type": "way", "id": 823329052, "nodes": [7686654934, 7686654935, 7686654936, 7686654937, 7686654934], "tags": {"building": "yes", "name": "Polished Beauty Salon", "shop": "beauty"}}, {"type": "way", "id": 823329074, "nodes": [7686655083, 7686655084, 7686655085, 7686655086, 7686655087, 7686655088, 7686655089, 7686655090, 7686655083], "tags": {"addr:city": "Missoula", "addr:housenumber": "1407", "addr:postcode": "59801", "addr:state": "MT", "addr:street": "South Higgins Avenue", "brand": "Great Harvest Bread Company", "brand:wikidata": "Q5599297", "building": "yes", "name": "Great Harvest Bread Company", "shop": "bakery"}}, {"type": "way", "id": 824692175, "nodes": [7700644650, 7700644651, 7700644652, 7700644653, 7700644650], "tags": {"addr:city": "Missoula", "addr:housenumber": "237", "addr:postcode": "59801", "addr:state": "MT", "addr:street": "Blaine Street", "building": "yes", "name": "Rockin' Rudy's", "opening_hours": "Mo-Sa 09:00-21:00, Su 11:00-18:00", "payment:NFC_mobile_payments": "yes", "payment:cheque": "yes", "payment:credit_cards": "yes", "payment:debit_cards": "yes", "phone": "+14065420077", "shop": "music", "website": "https://www.rockinrudys.com/"}}, {"type": "way", "id": 824692212, "nodes": [7700644837, 7700644838, 7700644839, 7700644840, 7700644841, 7700644842, 7700644843, 7700644844, 7700644845, 7700644846, 7700644847, 7700644848, 7700644849, 7700644850, 7700644851, 7700644852, 7700644853, 7700644854, 7700644855, 7700644856, 7700644857, 7700644858, 7700644837], "tags": {"addr:city": "Missoula", "addr:housenumber": "215", "addr:state": "MT", "addr:street": "South 6th Street West", "building": "yes", "name": "Missoula County Public Schools", "office": "yes"}}, {"type": "way", "id": 832938134, "nodes": [7775710856, 7775711307, 7775710328, 7775711471, 7775710856], "tags": {"building": "yes", "name": "Zootown Super Stop", "shop": "convenience", "source": "microsoft/BuildingFootprints"}}, {"type": "way", "id": 832938149, "nodes": [7775710729, 7775710873, 7775709970, 7775710343, 7775710729], "tags": {"building": "yes", "name": "Gary's Service Station", "shop": "car_repair", "source": "microsoft/BuildingFootprints"}}, {"type": "way", "id": 832939405, "nodes": [7775721812, 7775721932, 7775721179, 7775721490, 11582429544, 11582429545, 7775721812], "tags": {"amenity": "restaurant", "building": "yes", "name": "Cambie Taphouse + Coffee", "source": "microsoft/BuildingFootprints"}}, {"type": "way", "id": 832939733, "nodes": [7775722085, 7775722398, 7775722137, 11582429558, 7775722252, 7775722085], "tags": {"building": "yes", "name": "South Ave Market", "opening_hours": "PH,Mo-Su 06:00-24:00", "shop": "convenience", "source": "microsoft/BuildingFootprints"}}, {"type": "way", "id": 832940689, "nodes": [7775730854, 7775718821, 7775729735, 11582429525, 7775730119, 7775730854], "tags": {"building": "yes", "name": "Zootown Sports Cards", "shop": "collector", "source": "microsoft/BuildingFootprints"}}, {"type": "way", "id": 832961375, "nodes": [7775897176, 7775831761, 7775897928, 7775898552, 7775897176], "tags": {"building": "yes", "name": "Noteworthy Paper & Press", "shop": "gift", "source": "microsoft/BuildingFootprints"}}, {"type": "way", "id": 832961553, "nodes": [7166986690, 7775898632, 7775897698, 11574857439, 7775898294, 7166986690], "tags": {"addr:city": "Missoula", "addr:housenumber": "516", "addr:postcode": "59801", "addr:state": "MT", "addr:street": "South Orange Street", "building": "yes", "name": "Windfall, Inc.", "office": "advertising_agency", "opening_hours": "Mo-Fr 08:00-17:00", "source": "microsoft/BuildingFootprints"}}, {"type": "way", "id": 832961715, "nodes": [7775897514, 7775898108, 7775898267, 7775896899, 7775897938, 7775898560, 7775897514], "tags": {"addr:city": "Missoula", "addr:housenumber": "520", "addr:postcode": "59801", "addr:state": "MT", "addr:street": "South 5th Street West", "amenity": "restaurant", "building": "yes", "building:levels": "1", "cuisine": "greek", "name": "The Greek Pastry Shop - #1 Gyros", "source": "microsoft/BuildingFootprints"}}, {"type": "way", "id": 839463911, "nodes": [7833536591, 7833536592, 7833536593, 7833536594, 7833536595, 7833536596, 7833536597, 7833536598, 7833536599, 7833536600, 7833536591], "tags": {"addr:unit": "A", "building": "yes", "office": "property_management", "source": "microsoft/BuildingFootprints"}}, {"type": "way", "id": 840980445, "nodes": [7847060875, 7847060876, 7847060877, 7847060878, 7847060875], "tags": {"building": "yes", "name": "Muse Comics & Games", "shop": "collector"}}, {"type": "way", "id": 840981866, "nodes": [7847087688, 7847087689, 11582429477, 7847087690, 7847087691, 7847087692, 7847087688], "tags": {"addr:city": "Missoula", "addr:housenumber": "2000", "addr:postcode": "59801", "addr:state": "MT", "addr:street": "South Higgins Avenue", "building": "yes", "name": "Birdie Thatcher", "shop": "furniture"}}, {"type": "relation", "id": 1920481, "members": [{"type": "way", "ref": 141693684, "role": "outer"}, {"type": "way", "ref": 672117392, "role": "outer"}, {"type": "way", "ref": 141693680, "role": "outer"}, {"type": "way", "ref": 141801144, "role": "inner"}], "tags": {"addr:city": "Missoula", "addr:housenumber": "200", "addr:postcode": "59802", "addr:state": "MT", "addr:street": "East Broadway Street", "alt_name": "John Ingen Building", "building": "yes", "government": "yes", "name": "Federal Building", "office": "government", "source": "Bing", "type": "multipolygon"}}]}