{"version": 0.6, "generator": "Overpass API 0.7.62.8 e802775f", "osm3s": {"timestamp_osm_base": "2025-11-05T19:38:14Z", "copyright": "The data included in this document is from www.openstreetmap.org. The data is made available under ODbL."}, "elements": [{"type": "node", "id": 44578209, "lat": 46.9014722, "lon": -113.9267091, "tags": {"highway": "trailhead", "name": "Marshall Mountain Bike Access"}}, {"type": "node", "id": 44791048, "lat": 46.875052, "lon": -114.0992313, "tags": {"highway": "trailhead"}}, {"type": "node", "id": 44816677, "lat": 46.8244219, "lon": -113.9925938, "tags": {"highway": "trailhead", "name": "Sousa Trailhead"}}, {"type": "node", "id": 44862736, "lat": 46.8686216, "lon": -113.9757659, "tags": {"highway": "trailhead", "name": "Jumbo Trailhead"}}, {"type": "node", "id": 44880943, "lat": 46.8702602, "lon": -113.9761709, "tags": {"highway": "trailhead", "name": "Cherry St Trailhead"}}, {"type": "node", "id": 44890619, "lat": 46.897807, "lon": -113.949104, "tags": {"highway": "trailhead", "name": "Lincoln Hills Trailhead"}}, {"type": "node", "id": 1125113006, "lat": 46.8621208, "lon": -113.980414, "tags": {"highway": "trailhead", "name": "Mount Sentinel"}}, {"type": "node", "id": 1507946110, "lat": 46.8756472, "lon": -113.983835, "tags": {"highway": "trailhead", "name": "Waterworks"}}, {"type": "node", "id": 2099340784, "lat": 46.8475282, "lon": -113.9869472, "tags": {"description": "Trail head", "highway": "trailhead", "name": "Mount Sentinel trailhead", "note": "Two trails over the UM golf course at this point. One is the main fire road, the other traverses the top of the golf course before rejoining the fire road trail", "source": "Ken Wall, Missoula, MT"}}, {"type": "node", "id": 3568631302, "lat": 46.83434, "lon": -113.9887646, "tags": {"highway": "trailhead", "name": "Gasworks Trailhead"}}, {"type": "node", "id": 5252159447, "lat": 46.8267772, "lon": -114.0878986, "tags": {"highway": "trailhead", "name": "Blue Mountain"}}, {"type": "node", "id": 9786956149, "lat": 46.8295041, "lon": -113.9791733, "tags": {"highway": "trailhead", "name": "Barmeyer Trailhead"}}, {"type": "node", "id": 11034822434, "lat": 46.8811554, "lon": -113.9923763, "tags": {"highway": "trailhead", "name": "North Hills Froehlich Trailhead"}}, {"type": "node", "id": 11039858298, "lat": 46.9031138, "lon": -113.9758506, "tags": {"highway": "trailhead", "name": "Sunlight Trailhead"}}, {"type": "node", "id": 11094035994, "lat": 46.9067399, "lon": -113.9674878, "tags": {"access": "yes", "fee": "no", "highway": "trailhead", "name": "Lincolnwood North"}}, {"type": "node", "id": 11094156031, "lat": 46.9092141, "lon": -113.969024, "tags": {"highway": "trailhead", "name": "Duncan Trailhead"}}, {"type": "node", "id": 11114556725, "lat": 46.9249659, "lon": -113.9615626, "tags": {"highway": "trailhead", "name": "Rattlesnake Trailhead"}}, {"type": "node", "id": 12802595252, "lat": 46.892556, "lon": -113.9764229, "tags": {"highway": "trailhead", "name": "Duncan Field Trailhead"}}]}