{"version": 0.6, "generator": "Overpass API 0.7.62.8 e802775f", "osm3s": {"timestamp_osm_base": "2025-12-06T04:24:23Z", "copyright": "The data included in this document is from www.openstreetmap.org. The data is made available under ODbL."}, "elements": [{"type": "node", "id": 762672034, "lat": 45.7852541, "lon": -108.592934, "tags": {"addr:city": "Billings", "addr:housenumber": "3137", "addr:postcode": "59102", "addr:state": "MT", "addr:street": "Grand Avenue", "brand": "Albertsons", "brand:wikidata": "Q2831861", "check_date": "2022-10-25", "internet_access": "no", "name": "Albertsons", "note": "Billings - Grand & Rehberg Hours Mon-Sun 6am-Midnight Services Bakery Beer Deli Floral Dept Health & Beauty Pharmacy Redbox Starbucks Wine", "opening_hours": "Mo-Fr 06:00-23:00; Sa 06:00-23:00; Su 06:00-23:00", "payment:mastercard": "yes", "payment:visa": "yes", "phone": "+1-406-652-8370", "shop": "supermarket", "source": "esri_USDOT_Montana", "website": "https://local.albertsons.com/mt/billings/3137-grand-ave.html"}}, {"type": "node", "id": 2870392353, "lat": 45.785187, "lon": -108.5556771}, {"type": "node", "id": 2870392358, "lat": 45.7851225, "lon": -108.5556757}, {"type": "node", "id": 2870392363, "lat": 45.7863039, "lon": -108.5560368}, {"type": "node", "id": 2870392364, "lat": 45.7855444, "lon": -108.5559985}, {"type": "node", "id": 2870392373, "lat": 45.7857331, "lon": -108.5546954}, {"type": "node", "id": 2870392374, "lat": 45.7856634, "lon": -108.5546939}, {"type": "node", "id": 2870392383, "lat": 45.7857351, "lon": -108.5545036}, {"type": "node", "id": 2870392386, "lat": 45.7858586, "lon": -108.5551637}, {"type": "node", "id": 2870392389, "lat": 45.7859045, "lon": -108.5558438}, {"type": "node", "id": 2870392390, "lat": 45.7858521, "lon": -108.5557794}, {"type": "node", "id": 2870392391, "lat": 45.7865988, "lon": -108.5560412}, {"type": "node", "id": 2870392398, "lat": 45.7851818, "lon": -108.5561691}, {"type": "node", "id": 2870393003, "lat": 45.7860583, "lon": -108.5559073}, {"type": "node", "id": 2870393004, "lat": 45.7857917, "lon": -108.5559619}, {"type": "node", "id": 2870393014, "lat": 45.7865909, "lon": -108.5571412}, {"type": "node", "id": 2870393018, "lat": 45.7857885, "lon": -108.5563641}, {"type": "node", "id": 2870393021, "lat": 45.7851351, "lon": -108.5544905}, {"type": "node", "id": 2870393025, "lat": 45.7855111, "lon": -108.5561763}, {"type": "node", "id": 2870393042, "lat": 45.7856585, "lon": -108.5551593}, {"type": "node", "id": 3756395324, "lat": 45.7863038, "lon": -108.5560518}, {"type": "node", "id": 3756400825, "lat": 45.7860573, "lon": -108.5560482}, {"type": "node", "id": 3756400826, "lat": 45.786005, "lon": -108.5559065}, {"type": "node", "id": 3756400827, "lat": 45.7860055, "lon": -108.5558444}, {"type": "node", "id": 4358578212, "lat": 45.7838604, "lon": -108.548239}, {"type": "node", "id": 4359486413, "lat": 45.7766122, "lon": -108.5560064, "tags": {"addr:city": "Billings", "addr:housenumber": "1544", "addr:postcode": "59102", "addr:state": "MT", "addr:street": "Broadwater Avenue", "name": "Zip Trip #51", "shop": "convenience", "source": "Bing"}}, {"type": "node", "id": 4359509604, "lat": 45.7853254, "lon": -108.5945552, "tags": {"name": "Billings Hardware Garden Center", "shop": "garden_centre", "source": "Bing"}}, {"type": "node", "id": 4536655468, "lat": 45.7945233, "lon": -108.5529561, "tags": {"amenity": "restaurant", "cuisine": "italian;american", "delivery": "no", "name": "Bistecca at the Granary", "outdoor_seating": "yes", "smoking": "no", "takeaway": "yes"}}, {"type": "node", "id": 4584899089, "lat": 45.784253, "lon": -108.566302}, {"type": "node", "id": 4949354827, "lat": 45.7835038, "lon": -108.5554677}, {"type": "node", "id": 4949354828, "lat": 45.7835029, "lon": -108.5551793}, {"type": "node", "id": 4949354829, "lat": 45.7836039, "lon": -108.555178}, {"type": "node", "id": 4949354830, "lat": 45.7836048, "lon": -108.5549701}, {"type": "node", "id": 4949354831, "lat": 45.7836188, "lon": -108.5549715}, {"type": "node", "id": 4949354832, "lat": 45.7836282, "lon": -108.554942}, {"type": "node", "id": 4949354833, "lat": 45.7836366, "lon": -108.5548964}, {"type": "node", "id": 4949354834, "lat": 45.7836422, "lon": -108.5548508}, {"type": "node", "id": 4949354835, "lat": 45.7836459, "lon": -108.5548119}, {"type": "node", "id": 4949354836, "lat": 45.7836441, "lon": -108.554773}, {"type": "node", "id": 4949354837, "lat": 45.7836394, "lon": -108.5547435}, {"type": "node", "id": 4949354838, "lat": 45.7836226, "lon": -108.5547435}, {"type": "node", "id": 4949354839, "lat": 45.7836216, "lon": -108.554659}, {"type": "node", "id": 4949354840, "lat": 45.7835094, "lon": -108.554659}, {"type": "node", "id": 4949354841, "lat": 45.7835094, "lon": -108.5545463}, {"type": "node", "id": 4949354842, "lat": 45.7831063, "lon": -108.5545463}, {"type": "node", "id": 4949354843, "lat": 45.7831072, "lon": -108.5551847}, {"type": "node", "id": 4949354844, "lat": 45.7833691, "lon": -108.555182}, {"type": "node", "id": 4949354845, "lat": 45.78337, "lon": -108.555469}, {"type": "node", "id": 5132216440, "lat": 45.7837035, "lon": -108.5482394}, {"type": "node", "id": 5132216441, "lat": 45.7837037, "lon": -108.5483875}, {"type": "node", "id": 5132216442, "lat": 45.7838606, "lon": -108.5483871}, {"type": "node", "id": 5767426137, "lat": 45.7838851, "lon": -108.5390255}, {"type": "node", "id": 5767426138, "lat": 45.7837838, "lon": -108.5390179}, {"type": "node", "id": 5767426139, "lat": 45.7837837, "lon": -108.5387591}, {"type": "node", "id": 5767426140, "lat": 45.7838849, "lon": -108.538759}, {"type": "node", "id": 5767437146, "lat": 45.7860728, "lon": -108.5568067}, {"type": "node", "id": 5767437147, "lat": 45.7860728, "lon": -108.5566551}, {"type": "node", "id": 5767437148, "lat": 45.7861366, "lon": -108.556563}, {"type": "node", "id": 5767437149, "lat": 45.7861112, "lon": -108.5565267}, {"type": "node", "id": 5767437150, "lat": 45.7860527, "lon": -108.556611}, {"type": "node", "id": 5767437151, "lat": 45.7859599, "lon": -108.5566163}, {"type": "node", "id": 6008339751, "lat": 45.7839031, "lon": -108.5586394, "tags": {"amenity": "cafe", "drive_through": "yes", "internet_access": "wlan", "name": "City Brew", "outdoor_seating": "yes", "smoking": "no", "wheelchair": "yes"}}, {"type": "node", "id": 6030928936, "lat": 45.7846492, "lon": -108.5499514, "tags": {"name": "Lovable Pets", "shop": "pet_grooming"}}, {"type": "node", "id": 6030928937, "lat": 45.7846677, "lon": -108.550163, "tags": {"beauty": "nails", "name": "Get It!", "shop": "beauty"}}, {"type": "node", "id": 6030928938, "lat": 45.7843924, "lon": -108.5506762, "tags": {"brand": "Aaron's", "brand:wikidata": "Q10397787", "check_date": "2024-06-27", "check_date:opening_hours": "2024-06-27", "name": "Aaron's", "opening_hours": "Mo-Fr 10:00-19:00; Sa 10:00-17:00; Su closed", "shop": "furniture", "website": "https://locations.aarons.com/us/mt/billings/1339-grand-ave."}}, {"type": "node", "id": 6030928940, "lat": 45.7854867, "lon": -108.549855, "tags": {"brand": "IGA", "brand:wikidata": "Q3146662", "name": "IGA", "operator": "IGA", "shop": "supermarket"}}, {"type": "node", "id": 6030928950, "lat": 45.78467, "lon": -108.5495953, "tags": {"name": "Ranch House Meat Co.", "shop": "butcher"}}, {"type": "node", "id": 6030928952, "lat": 45.7846669, "lon": -108.549678, "tags": {"name": "Trade Mark Video Games", "shop": "toys"}}, {"type": "node", "id": 6030928953, "lat": 45.7846684, "lon": -108.5497551, "tags": {"amenity": "restaurant", "cuisine": "asian", "name": "Fancy Sushi"}}, {"type": "node", "id": 6032004786, "lat": 45.7849705, "lon": -108.5488553}, {"type": "node", "id": 6032004787, "lat": 45.7849964, "lon": -108.5488958}, {"type": "node", "id": 6032004788, "lat": 45.7849934, "lon": -108.5492298}, {"type": "node", "id": 6032004789, "lat": 45.7848633, "lon": -108.5492274}, {"type": "node", "id": 6032004790, "lat": 45.7848632, "lon": -108.549239}, {"type": "node", "id": 6032004791, "lat": 45.7847391, "lon": -108.5492366}, {"type": "node", "id": 6032004792, "lat": 45.7847389, "lon": -108.5492578}, {"type": "node", "id": 6032004793, "lat": 45.784675, "lon": -108.5492566}, {"type": "node", "id": 6032004794, "lat": 45.7846216, "lon": -108.54918}, {"type": "node", "id": 6032004795, "lat": 45.7846205, "lon": -108.5490911}, {"type": "node", "id": 6032004796, "lat": 45.7846416, "lon": -108.5490905}, {"type": "node", "id": 6032004797, "lat": 45.7846388, "lon": -108.5488638}, {"type": "node", "id": 6032004798, "lat": 45.7848634, "lon": -108.5488581}, {"type": "node", "id": 6032004799, "lat": 45.7848626, "lon": -108.5487953}, {"type": "node", "id": 6032004800, "lat": 45.7849561, "lon": -108.5487929}, {"type": "node", "id": 6032004801, "lat": 45.7849569, "lon": -108.5488556}, {"type": "node", "id": 6032004818, "lat": 45.7846483, "lon": -108.5492183, "tags": {"entrance": "yes"}}, {"type": "node", "id": 6032075710, "lat": 45.7838248, "lon": -108.5438518, "tags": {"amenity": "restaurant", "cuisine": "pizza", "delivery": "yes", "name": "Tarantino's Pizzeria", "phone": "+1-406-839-9995"}}, {"type": "node", "id": 6032129983, "lat": 45.784437, "lon": -108.541276}, {"type": "node", "id": 6032129984, "lat": 45.7838612, "lon": -108.5412467, "tags": {"name": "Bonanza", "shop": "health_food"}}, {"type": "node", "id": 6032130385, "lat": 45.7838635, "lon": -108.5413808, "tags": {"office": "estate_agent"}}, {"type": "node", "id": 6032130386, "lat": 45.7838696, "lon": -108.5415567, "tags": {"name": "Square One", "office": "financial"}}, {"type": "node", "id": 6032130387, "lat": 45.7838696, "lon": -108.5417341, "tags": {"shop": "beauty"}}, {"type": "node", "id": 6032130400, "lat": 45.784253, "lon": -108.5407903, "tags": {"name": "Rec Room", "shop": "sports"}}, {"type": "node", "id": 6032130401, "lat": 45.7843225, "lon": -108.54054, "tags": {"brand": "State Farm", "brand:wikidata": "Q2007336", "name": "State Farm", "office": "insurance"}}, {"type": "node", "id": 6032130402, "lat": 45.7843343, "lon": -108.540009, "tags": {"brand": "Sherwin-Williams", "brand:wikidata": "Q48881", "name": "Sherwin-Williams", "shop": "paint"}}, {"type": "node", "id": 6032130404, "lat": 45.783683, "lon": -108.5403116, "tags": {"name": "Grains of Montana", "shop": "deli"}}, {"type": "node", "id": 6032130409, "lat": 45.7837195, "lon": -108.5396983, "tags": {"name": "Eckroth Music", "shop": "musical_instrument"}}, {"type": "node", "id": 6032130410, "lat": 45.7838488, "lon": -108.5390255}, {"type": "node", "id": 6032130411, "lat": 45.7838488, "lon": -108.5390497}, {"type": "node", "id": 6032130412, "lat": 45.7838219, "lon": -108.5390497}, {"type": "node", "id": 6032130413, "lat": 45.7838219, "lon": -108.5390178}, {"type": "node", "id": 6032130554, "lat": 45.7842908, "lon": -108.5392376, "tags": {"name": "A & L Floral", "shop": "florist"}}, {"type": "node", "id": 6032130555, "lat": 45.7843954, "lon": -108.5393247, "tags": {"name": "Treasure State Aquariums", "shop": "pet"}}, {"type": "node", "id": 6138168004, "lat": 45.7948329, "lon": -108.5829438, "tags": {"name": "Poly Food Basket", "shop": "supermarket"}}, {"type": "node", "id": 6138168008, "lat": 45.7947098, "lon": -108.5827982, "tags": {"shop": "pet_grooming"}}, {"type": "node", "id": 6249088014, "lat": 45.7849662, "lon": -108.5905639, "tags": {"amenity": "restaurant", "check_date": "2022-10-25", "cuisine": "mediterranean;italian", "internet_access": "no", "name": "Enzo", "payment:mastercard": "yes", "payment:visa": "yes", "wheelchair": "yes"}}, {"type": "node", "id": 6249088015, "lat": 45.7855335, "lon": -108.5910312, "tags": {"amenity": "restaurant", "cuisine": "pizza", "name": "MacKenzie River Pizza", "outdoor_seating": "yes"}}, {"type": "node", "id": 7468070331, "lat": 45.7851591, "lon": -108.5582522, "tags": {"addr:city": "Billings", "addr:housenumber": "1603", "addr:postcode": "59102", "addr:state": "MT", "addr:street": "Grand Avenue", "addr:unit": "145a", "air_conditioning": "yes", "amenity": "restaurant", "bar": "yes", "cuisine": "burger;chicken;american", "name": "Parasol", "opening_hours": "17:00-22:00", "opening_hours:covid19": "Closed", "phone": "+1-406-252-0322", "website": "https://www.parasolrestaurant.com/"}}, {"type": "node", "id": 7618189407, "lat": 45.7785334, "lon": -108.5610996, "tags": {"name": "St. Francis Day Care", "office": "educational_institution"}}, {"type": "node", "id": 7774043841, "lat": 45.777438, "lon": -108.54578}, {"type": "node", "id": 7774044038, "lat": 45.777224, "lon": -108.545595}, {"type": "node", "id": 7774046576, "lat": 45.777225, "lon": -108.545782}, {"type": "node", "id": 7792004798, "lat": 45.7827174, "lon": -108.547852, "tags": {"addr:city": "Billings", "addr:housenumber": "1212", "addr:postcode": "59102", "addr:state": "MT", "addr:street": "Grand Avenue", "brand": "Albertsons", "brand:wikidata": "Q2831861", "name": "Albertsons", "opening_hours": "Mo-Fr 06:00-23:00; Sa 06:00-23:00; Su 06:00-23:00", "phone": "+1 406-245-4118", "shop": "supermarket", "website": "https://local.albertsons.com/mt/billings/1212-grand-ave.html"}}, {"type": "node", "id": 7792004802, "lat": 45.783342, "lon": -108.546639, "tags": {"amenity": "restaurant", "cuisine": "mexican", "name": "Los Mayas"}}, {"type": "node", "id": 7792004803, "lat": 45.7830562, "lon": -108.546783, "tags": {"amenity": "restaurant", "cuisine": "chinese", "name": "China Bistro", "website": "http://www.mtchinabistro.com/"}}, {"type": "node", "id": 7792008002, "lat": 45.783451, "lon": -108.546602, "tags": {"addr:city": "Billings", "addr:housenumber": "1212", "addr:state": "MT", "addr:street": "Grand Avenue", "addr:unit": "13", "name": "Abarrote Asuncion Mexican Grocery Store", "phone": "+1-406-702-1228", "shop": "convenience"}}, {"type": "node", "id": 7851485762, "lat": 45.7876616, "lon": -108.5586597, "tags": {"addr:city": "Billings", "addr:housenumber": "1707", "addr:postcode": "59102", "addr:state": "MT", "addr:street": "17th Street West", "amenity": "cafe", "cuisine": "dutch;coffee_shop;european", "email": "order@caramelcookiewaffles.com", "name": "Caramel Cookie Waffles", "outdoor_seating": "yes", "phone": "+1-406-252-1960", "source": "esri_USDOT_Montana", "website": "https://www.caramelcookiewaffles.com", "wheelchair": "yes"}}, {"type": "node", "id": 7851485763, "lat": 45.7878313, "lon": -108.5586636, "tags": {"name": "McFiny's", "payment:cash": "yes", "payment:credit_cards": "yes", "shop": "convenience"}}, {"type": "node", "id": 7851485774, "lat": 45.7868566, "lon": -108.55651, "tags": {"amenity": "bar", "name": "Shooters Sports Bar Grill & Casino"}}, {"type": "node", "id": 7851485775, "lat": 45.7852126, "lon": -108.556886, "tags": {"amenity": "restaurant", "cuisine": "japanese", "name": "UMI Japanese Steakhouse & Sushi Bar"}}, {"type": "node", "id": 7851487473, "lat": 45.7856613, "lon": -108.554889, "tags": {"amenity": "loading_dock"}}, {"type": "node", "id": 7851487478, "lat": 45.7852129, "lon": -108.5544922}, {"type": "node", "id": 7851487547, "lat": 45.7838945, "lon": -108.5588044, "tags": {"brand": "T-Mobile", "brand:wikidata": "Q3511885", "name": "T-Mobile", "shop": "mobile_phone", "website": "https://www.t-mobile.com/stores/bd/t-mobile-billings-mt-59102-284f"}}, {"type": "node", "id": 7851487548, "lat": 45.7843919, "lon": -108.559433, "tags": {"alt_name": "Verizon Wireless", "brand": "Verizon", "brand:wikidata": "Q919641", "name": "Verizon", "shop": "mobile_phone"}}, {"type": "node", "id": 7851487549, "lat": 45.7837879, "lon": -108.5604205, "tags": {"name": "The Basecamp", "shop": "outdoor"}}, {"type": "node", "id": 7851487550, "lat": 45.7837851, "lon": -108.5593308, "tags": {"name": "Mattress King", "shop": "bed"}}, {"type": "node", "id": 7851487551, "lat": 45.7837834, "lon": -108.5596365, "tags": {"name": "Montana Harvest", "shop": "health_food"}}, {"type": "node", "id": 7851487557, "lat": 45.7852398, "lon": -108.5559725, "tags": {"amenity": "restaurant", "brand": "Red Robin", "brand:wikidata": "Q7304886", "cuisine": "burger", "name": "Red Robin", "official_name": "Red Robin Gourmet Burgers and Brews"}}, {"type": "node", "id": 7851500318, "lat": 45.7863259, "lon": -108.5571901}, {"type": "node", "id": 7851500319, "lat": 45.7864039, "lon": -108.5570844}, {"type": "node", "id": 7851500320, "lat": 45.7864399, "lon": -108.5571399}, {"type": "node", "id": 7851500348, "lat": 45.7857394, "lon": -108.5559614}, {"type": "node", "id": 7851500349, "lat": 45.7856808, "lon": -108.5560658}, {"type": "node", "id": 7851500350, "lat": 45.7855848, "lon": -108.5560525}, {"type": "node", "id": 7851500351, "lat": 45.785513, "lon": -108.5559973}, {"type": "node", "id": 7859734682, "lat": 45.784435, "lon": -108.541587}, {"type": "node", "id": 7859734683, "lat": 45.78423, "lon": -108.541584}, {"type": "node", "id": 7859734684, "lat": 45.784231, "lon": -108.541528}, {"type": "node", "id": 7859777185, "lat": 45.7842, "lon": -108.541527}, {"type": "node", "id": 7859777186, "lat": 45.784202, "lon": -108.541272}, {"type": "node", "id": 7859780767, "lat": 45.78677, "lon": -108.548863}, {"type": "node", "id": 7859780768, "lat": 45.7868096, "lon": -108.5491839}, {"type": "node", "id": 7859780769, "lat": 45.786637, "lon": -108.549165}, {"type": "node", "id": 7859780770, "lat": 45.7866388, "lon": -108.5488661}, {"type": "node", "id": 7860332446, "lat": 45.784274, "lon": -108.56639}, {"type": "node", "id": 7860332447, "lat": 45.784563, "lon": -108.566395}, {"type": "node", "id": 7860332448, "lat": 45.78456, "lon": -108.566681}, {"type": "node", "id": 7860332450, "lat": 45.784253, "lon": -108.566186}, {"type": "node", "id": 7860332451, "lat": 45.784386, "lon": -108.566186}, {"type": "node", "id": 7860332452, "lat": 45.784386, "lon": -108.566302}, {"type": "node", "id": 7874641936, "lat": 45.7758126, "lon": -108.5755653, "tags": {"amenity": "restaurant", "name": "Golden Phoenix West"}}, {"type": "node", "id": 8229431992, "lat": 45.786718, "lon": -108.5490354, "tags": {"addr:city": "Billings", "addr:housenumber": "1302", "addr:postcode": "59102", "addr:state": "MT", "addr:street": "Avenue D", "description": "Rentable Office Spaces", "name": "Attrium", "office": "yes"}}, {"type": "node", "id": 9215370787, "lat": 45.7853956, "lon": -108.591939, "tags": {"brand": "Great Clips", "brand:wikidata": "Q5598967", "name": "Great Clips", "shop": "hairdresser"}}, {"type": "node", "id": 9215370789, "lat": 45.7854335, "lon": -108.591737, "tags": {"brand": "H&R Block", "brand:wikidata": "Q5627799", "name": "H&R Block", "office": "tax_advisor"}}, {"type": "node", "id": 9215370790, "lat": 45.7855041, "lon": -108.591475, "tags": {"beauty": "nails", "name": "Star Nails", "shop": "beauty"}}, {"type": "node", "id": 9215370793, "lat": 45.7851341, "lon": -108.5894813, "tags": {"name": "Bernina Sewing Center", "shop": "sewing"}}, {"type": "node", "id": 9215370794, "lat": 45.7849948, "lon": -108.5892556, "tags": {"diet:gluten_free": "only", "name": "Rae Raes Gluten Free Bakery", "shop": "bakery"}}, {"type": "node", "id": 9215370796, "lat": 45.7846715, "lon": -108.5896925, "tags": {"name": "Zip Trip", "shop": "convenience"}}, {"type": "node", "id": 9215370799, "lat": 45.7845798, "lon": -108.5912836, "tags": {"name": "PostNet", "shop": "copyshop"}}, {"type": "node", "id": 9215370803, "lat": 45.7837727, "lon": -108.5913428, "tags": {"name": "The Beauty Outlet", "shop": "wigs"}}, {"type": "node", "id": 9215370807, "lat": 45.7837616, "lon": -108.5892354, "tags": {"name": "Aviation Adventures", "office": "educational_institution"}}, {"type": "node", "id": 9215370823, "lat": 45.7837566, "lon": -108.5834972, "tags": {"amenity": "bar", "name": "Craft B&B"}}, {"type": "node", "id": 9215370838, "lat": 45.7836611, "lon": -108.5823138, "tags": {"name": "The Ritzz Salon", "shop": "beauty"}}, {"type": "node", "id": 9215370839, "lat": 45.7836613, "lon": -108.5825167, "tags": {"brand": "Farmers Insurance", "brand:wikidata": "Q1396863", "name": "Farmers Insurance", "office": "insurance"}}, {"type": "node", "id": 9215370840, "lat": 45.7836617, "lon": -108.5821686, "tags": {"name": "Smoker Friendly", "shop": "tobacco"}}, {"type": "node", "id": 9215370841, "lat": 45.7836671, "lon": -108.5819506, "tags": {"brand": "Allstate", "brand:wikidata": "Q2645636", "name": "Allstate", "office": "insurance"}}, {"type": "node", "id": 9215370843, "lat": 45.783634, "lon": -108.5799107, "tags": {"brand": "State Farm", "brand:wikidata": "Q2007336", "name": "State Farm", "office": "insurance"}}, {"type": "node", "id": 9215370844, "lat": 45.7837593, "lon": -108.5798573, "tags": {"name": "Conver & Winchell Insurance", "office": "insurance"}}, {"type": "node", "id": 9215370845, "lat": 45.7835886, "lon": -108.5795785, "tags": {"name": "Sound MD", "shop": "hifi"}}, {"type": "node", "id": 9215370846, "lat": 45.7838111, "lon": -108.5790735, "tags": {"name": "Bombshell Body Piercing & Tattoo", "shop": "tattoo"}}, {"type": "node", "id": 9215370847, "lat": 45.783904, "lon": -108.5790704, "tags": {"name": "SI Staffing of Billings", "office": "employment_agency"}}, {"type": "node", "id": 9215370907, "lat": 45.7843506, "lon": -108.5760163, "tags": {"name": "Montana Lil's Liquor Store", "shop": "alcohol"}}, {"type": "node", "id": 9215370908, "lat": 45.7838123, "lon": -108.5757266, "tags": {"alt_name": "MetroPCS", "brand": "Metro by T-Mobile", "brand:wikidata": "Q1925685", "name": "Metro by T-Mobile", "shop": "mobile_phone"}}, {"type": "node", "id": 9215370909, "lat": 45.7838248, "lon": -108.5754344, "tags": {"name": "Exotic Pets", "shop": "pet"}}, {"type": "node", "id": 9215370912, "lat": 45.7844168, "lon": -108.5741619, "tags": {"name": "Girl Scouts of Montana and Wyoming", "office": "association"}}, {"type": "node", "id": 9215370914, "lat": 45.7844723, "lon": -108.5728616, "tags": {"name": "Montana Hot Spring Spas", "shop": "swimming_pool"}}, {"type": "node", "id": 9215370915, "lat": 45.7844237, "lon": -108.5721518, "tags": {"name": "Jayne's Signature Sweets", "shop": "bakery"}}, {"type": "node", "id": 9215370916, "lat": 45.7836814, "lon": -108.5718356, "tags": {"brand": "U-Haul", "brand:wikidata": "Q7862902", "name": "U-Haul", "shop": "rental"}}, {"type": "node", "id": 9215370918, "lat": 45.783831, "lon": -108.5710845, "tags": {"name": "Ski Station", "shop": "outdoor"}}, {"type": "node", "id": 9215370919, "lat": 45.784444, "lon": -108.5710282, "tags": {"name": "Montana Flooring Liquidators", "shop": "houseware"}}, {"type": "node", "id": 9215410977, "lat": 45.7843686, "lon": -108.5698018, "tags": {"name": "Adventure Scuba", "shop": "scuba_diving"}}, {"type": "node", "id": 9215410978, "lat": 45.7838819, "lon": -108.5693754, "tags": {"amenity": "restaurant", "brand": "Village Inn", "brand:wikidata": "Q7930659", "cuisine": "american", "name": "Village Inn", "source": "microsoft/BuildingFootprints"}}, {"type": "node", "id": 9215410980, "lat": 45.784334, "lon": -108.5688218, "tags": {"amenity": "bar", "name": "Club 90"}}, {"type": "node", "id": 9215411000, "lat": 45.783737, "lon": -108.5689559, "tags": {"name": "Dana Motors", "second_hand": "only", "shop": "car"}}, {"type": "node", "id": 9215411001, "lat": 45.7838054, "lon": -108.5684379, "tags": {"name": "World Famous Carpet Barn", "shop": "carpet"}}, {"type": "node", "id": 9215411002, "lat": 45.7842716, "lon": -108.5684239, "tags": {"name": "Metro Realtors", "office": "estate_agent"}}, {"type": "node", "id": 9215411003, "lat": 45.7844034, "lon": -108.5679303, "tags": {"brand": "Sherwin-Williams", "brand:wikidata": "Q48881", "name": "Sherwin-Williams", "shop": "paint"}}, {"type": "node", "id": 9215411004, "lat": 45.7843936, "lon": -108.5676468, "tags": {"addr:city": "Billings", "addr:housenumber": "2011", "addr:postcode": "59102", "addr:state": "MT", "addr:street": "Grand Avenue", "name": "Yellowstone River Native American Trading", "phone": "+1 406-656-4304", "shop": "pawnbroker"}}, {"type": "node", "id": 9215411005, "lat": 45.784357, "lon": -108.5671428, "tags": {"name": "A-1 Rentals", "shop": "rental"}}, {"type": "node", "id": 9215411006, "lat": 45.7838054, "lon": -108.5679933, "tags": {"name": "Peggy's Medium Aura Reading", "shop": "psychic"}}, {"type": "node", "id": 9215411007, "lat": 45.7837785, "lon": -108.5672373, "tags": {"name": "The Bike Shop", "shop": "bicycle"}}, {"type": "node", "id": 9215411008, "lat": 45.7837834, "lon": -108.5674228, "tags": {"name": "Mattress By Appointment", "shop": "bed"}}, {"type": "node", "id": 9215411009, "lat": 45.7837812, "lon": -108.5670508, "tags": {"name": "Blown Away Salon & Spa", "shop": "hairdresser"}}, {"type": "node", "id": 9215411011, "lat": 45.7838074, "lon": -108.566517, "tags": {"name": "Ardie's Coins", "shop": "collector"}}, {"type": "node", "id": 9215411012, "lat": 45.7837424, "lon": -108.5663108, "tags": {"name": "Meraki", "shop": "beauty"}}, {"type": "node", "id": 9215411013, "lat": 45.7838913, "lon": -108.5661513, "tags": {"name": "Alterations and More", "shop": "tailor"}}, {"type": "node", "id": 9215420030, "lat": 45.784272, "lon": -108.566676}, {"type": "node", "id": 9215420037, "lat": 45.7837732, "lon": -108.5644858, "tags": {"name": "Billings Paint Center", "shop": "paint"}}, {"type": "node", "id": 9215420039, "lat": 45.7838693, "lon": -108.5656485, "tags": {"name": "Fischer & Erwin Property Management", "office": "yes"}}, {"type": "node", "id": 9215420040, "lat": 45.7837777, "lon": -108.564015, "tags": {"name": "Magic City Floral", "shop": "florist"}}, {"type": "node", "id": 9215420041, "lat": 45.7838358, "lon": -108.5638036, "tags": {"brand": "H&R Block", "brand:wikidata": "Q5627799", "name": "H&R Block", "office": "tax_advisor"}}, {"type": "node", "id": 9215420056, "lat": 45.7837586, "lon": -108.5610167, "tags": {"addr:city": "Billings", "addr:housenumber": "1744", "addr:postcode": "59102", "addr:state": "MT", "addr:street": "Grand Avenue", "amenity": "bar", "name": "Cadillac Jax Bar & Grill", "source": "microsoft/BuildingFootprints"}}, {"type": "node", "id": 9215420057, "lat": 45.7843595, "lon": -108.563352, "tags": {"addr:housenumber": "1827", "addr:street": "Grand Avenue", "addr:unit": "#2", "name": "Music Villa", "phone": "+1-406-254-1399", "shop": "musical_instrument"}}, {"type": "node", "id": 9215420059, "lat": 45.7838569, "lon": -108.5624657, "tags": {"clothes": "wedding", "name": "Step'n Out", "shop": "clothes"}}, {"type": "node", "id": 9215420060, "lat": 45.7843282, "lon": -108.5624368, "tags": {"name": "Off The Avenue Salon", "shop": "beauty"}}, {"type": "node", "id": 9215420061, "lat": 45.783781, "lon": -108.5621966, "tags": {"name": "The Produce Market", "shop": "supermarket"}}, {"type": "node", "id": 9215420062, "lat": 45.7843908, "lon": -108.5621037, "tags": {"name": "Legacy Estate Sales & Services", "office": "yes"}}, {"type": "node", "id": 9215420063, "lat": 45.7843617, "lon": -108.5614952, "tags": {"name": "2nd Chance Marketplace", "shop": "second_hand"}}, {"type": "node", "id": 9215420064, "lat": 45.7843863, "lon": -108.5607393, "tags": {"name": "Emmaus Road", "shop": "books"}}, {"type": "node", "id": 9215420077, "lat": 45.7843987, "lon": -108.5596048, "tags": {"name": "Vision Optical", "shop": "optician"}}, {"type": "node", "id": 9215420081, "lat": 45.7838321, "lon": -108.5577149, "tags": {"name": "MasterLube", "shop": "car_repair"}}, {"type": "node", "id": 9215420082, "lat": 45.7838404, "lon": -108.5571227, "tags": {"amenity": "restaurant", "brand": "Pizza Hut", "brand:wikidata": "Q191615", "cuisine": "pizza", "name": "Pizza Hut"}}, {"type": "node", "id": 9215420083, "lat": 45.7834133, "lon": -108.5570456, "tags": {"brand": "Allstate", "brand:wikidata": "Q2645636", "name": "Allstate", "office": "insurance"}}, {"type": "node", "id": 9215420084, "lat": 45.7834188, "lon": -108.557256, "tags": {"name": "Immortal Tattoo", "shop": "tattoo"}}, {"type": "node", "id": 9215420085, "lat": 45.7853094, "lon": -108.5574341, "tags": {"name": "Town & Country Foods", "shop": "supermarket"}}, {"type": "node", "id": 9215420086, "lat": 45.7853483, "lon": -108.5579588, "tags": {"name": "Gainan's Midtown Flowers", "shop": "florist"}}, {"type": "node", "id": 9215420087, "lat": 45.7854934, "lon": -108.5568538, "tags": {"beauty": "tanning", "name": "Versa TAN", "shop": "beauty"}}, {"type": "node", "id": 9215420088, "lat": 45.7854532, "lon": -108.5560714, "tags": {"brand": "Massage Envy", "brand:wikidata": "Q10327170", "name": "Massage Envy", "shop": "massage"}}, {"type": "node", "id": 9215420089, "lat": 45.7853999, "lon": -108.5549086, "tags": {"brand": "U-Haul", "brand:wikidata": "Q7862902", "name": "U-Haul", "shop": "rental"}}, {"type": "node", "id": 9215420090, "lat": 45.7854852, "lon": -108.5555665, "tags": {"name": "Wholesale Jewelry Billings", "shop": "jewelry"}}, {"type": "node", "id": 9215420091, "lat": 45.7857013, "lon": -108.5558457, "tags": {"name": "Charter College", "office": "educational_institution"}}, {"type": "node", "id": 9215420092, "lat": 45.7859093, "lon": -108.5562167, "tags": {"amenity": "restaurant", "cuisine": "pizza", "name": "Sam & Louie's Italian Restaurant & New York Pizzeria"}}, {"type": "node", "id": 9215420093, "lat": 45.7860133, "lon": -108.5565189, "tags": {"amenity": "restaurant", "cuisine": "japanese", "name": "The Ohana Poke Company"}}, {"type": "node", "id": 9215420094, "lat": 45.7863041, "lon": -108.5568172, "tags": {"name": "Time Out Sports Inc", "shop": "shoes"}}, {"type": "node", "id": 9251293514, "lat": 45.7831419, "lon": -108.5551837}, {"type": "node", "id": 9251299119, "lat": 45.7835094, "lon": -108.554631}, {"type": "node", "id": 9254765260, "lat": 45.7787243, "lon": -108.5560669, "tags": {"addr:city": "Billings", "addr:housenumber": "821", "addr:postcode": "59102", "addr:state": "MT", "addr:street": "16th Street West", "name": "Meat and Poultry Palace", "opening_hours": "Mo-Sa 09:00-18:00", "shop": "butcher", "source": "microsoft/BuildingFootprints"}}, {"type": "node", "id": 9254765262, "lat": 45.7779301, "lon": -108.550052, "tags": {"name": "First National Pawn", "shop": "pawnbroker"}}, {"type": "node", "id": 9254765263, "lat": 45.7782719, "lon": -108.5510001, "tags": {"name": "Nearly New Shoppe", "second_hand": "only", "shop": "clothes"}}, {"type": "node", "id": 9254765264, "lat": 45.7784663, "lon": -108.5510129, "tags": {"name": "Park Place Salon", "shop": "beauty"}}, {"type": "node", "id": 9254765266, "lat": 45.7783501, "lon": -108.5516759, "tags": {"name": "Ivory Salon and Spa", "shop": "beauty"}}, {"type": "node", "id": 9254765274, "lat": 45.7782965, "lon": -108.5535217, "tags": {"brand": "State Farm", "brand:wikidata": "Q2007336", "name": "State Farm", "office": "insurance"}}, {"type": "node", "id": 9254765275, "lat": 45.7780843, "lon": -108.5558996, "tags": {"brand": "Franz", "brand:wikidata": "Q7889571", "name": "Franz", "shop": "bakery"}}, {"type": "node", "id": 9254765277, "lat": 45.7783178, "lon": -108.555894, "tags": {"name": "Jim's Junction", "shop": "toys"}}, {"type": "node", "id": 9254765279, "lat": 45.7774048, "lon": -108.5490189, "tags": {"name": "Willard's Garage", "shop": "car_repair"}}, {"type": "node", "id": 9254765282, "lat": 45.777437, "lon": -108.545593}, {"type": "node", "id": 9254765294, "lat": 45.7787029, "lon": -108.5457097, "tags": {"name": "Ballard Petroleum Holdings", "office": "yes"}}, {"type": "node", "id": 9254778855, "lat": 45.7816302, "lon": -108.5757795, "tags": {"name": "Brewhalla", "shop": "brewing_supplies"}}, {"type": "node", "id": 9254778856, "lat": 45.7817466, "lon": -108.5757795, "tags": {"name": "Point of Hue Salon", "shop": "beauty"}}, {"type": "node", "id": 9254778870, "lat": 45.7827388, "lon": -108.5756812, "tags": {"name": "Montana Rescue Mission West End Bargain Center", "shop": "second_hand"}}, {"type": "node", "id": 9254778871, "lat": 45.7830122, "lon": -108.5769626, "tags": {"name": "Thompson Pools & Spas", "shop": "swimming_pool"}}, {"type": "node", "id": 9254778872, "lat": 45.7833811, "lon": -108.5769482, "tags": {"name": "Four Winds Quilting", "shop": "sewing"}}, {"type": "node", "id": 9254778874, "lat": 45.7832675, "lon": -108.5769611, "tags": {"name": "Boy Scouts of America", "office": "association"}}, {"type": "node", "id": 9254778876, "lat": 45.779896, "lon": -108.5758111, "tags": {"brand": "Play It Again Sports", "brand:wikidata": "Q7203029", "name": "Play It Again Sports", "shop": "sports"}}, {"type": "node", "id": 9254778877, "lat": 45.7795189, "lon": -108.5758173, "tags": {"name": "Precious Seconds", "shop": "second_hand"}}, {"type": "node", "id": 9254778879, "lat": 45.7788509, "lon": -108.5760681, "tags": {"name": "Rituals Institute", "office": "educational_institution"}}, {"type": "node", "id": 9254778880, "lat": 45.7781471, "lon": -108.575844, "tags": {"name": "The Basement", "shop": "shoes"}}, {"type": "node", "id": 9254778881, "lat": 45.7773142, "lon": -108.5760105, "tags": {"name": "Stones and Bones Lapidary Jewelry", "shop": "jewelry"}}, {"type": "node", "id": 9254778883, "lat": 45.7772225, "lon": -108.5760085, "tags": {"name": "BodyWorks Tattoo & Piercing", "shop": "tattoo"}}, {"type": "node", "id": 9254778884, "lat": 45.777244, "lon": -108.5757598, "tags": {"name": "Billings Tech Guys", "office": "it"}}, {"type": "node", "id": 9254778885, "lat": 45.7772913, "lon": -108.5754473, "tags": {"brand": "State Farm", "brand:wikidata": "Q2007336", "name": "State Farm", "office": "insurance"}}, {"type": "node", "id": 9254778886, "lat": 45.7773586, "lon": -108.5748307, "tags": {"name": "La Vixen Salon", "shop": "hairdresser"}}, {"type": "node", "id": 9254778887, "lat": 45.7765028, "lon": -108.575324, "tags": {"name": "Well Pared", "shop": "health_food"}}, {"type": "node", "id": 9254778888, "lat": 45.7763036, "lon": -108.5754473, "tags": {"amenity": "cafe", "name": "The Bean Grinder"}}, {"type": "node", "id": 9254778891, "lat": 45.7759882, "lon": -108.575509, "tags": {"name": "The Banyan Tree", "shop": "clothes"}}, {"type": "node", "id": 9254778892, "lat": 45.775657, "lon": -108.5755028, "tags": {"name": "Hansen Music", "shop": "musical_instrument"}}, {"type": "node", "id": 9254778893, "lat": 45.7755581, "lon": -108.5755234, "tags": {"name": "Carizzma Salon & Day Spa", "shop": "beauty"}}, {"type": "node", "id": 9254778894, "lat": 45.7754506, "lon": -108.5755008, "tags": {"name": "Twice As Nice Consignment Shop", "shop": "second_hand"}}, {"type": "node", "id": 9254778895, "lat": 45.7752914, "lon": -108.5754268, "tags": {"name": "Rusty Razar", "shop": "hairdresser"}}, {"type": "node", "id": 9254778896, "lat": 45.7753715, "lon": -108.575884, "tags": {"amenity": "restaurant", "name": "India Grill"}}, {"type": "node", "id": 9254778897, "lat": 45.7748186, "lon": -108.575955, "tags": {"name": "Auto Works 360", "shop": "car_repair"}}, {"type": "node", "id": 9254778898, "lat": 45.7744405, "lon": -108.5759694, "tags": {"name": "Berkman Custom Jewelers", "shop": "jewelry"}}, {"type": "node", "id": 9254778904, "lat": 45.7767576, "lon": -108.5734175, "tags": {"name": "Red Tree CPAs", "office": "accountant"}}, {"type": "node", "id": 9254778905, "lat": 45.7772115, "lon": -108.5727761, "tags": {"name": "Nail-issimo! Salon and Spa", "shop": "beauty"}}, {"type": "node", "id": 9254778906, "lat": 45.7766657, "lon": -108.5724168, "tags": {"name": "Total Body Works Massage Therapy", "shop": "massage"}}, {"type": "node", "id": 9254778907, "lat": 45.777344, "lon": -108.5721253, "tags": {"name": "Barnett Opticians", "shop": "optician"}}, {"type": "node", "id": 9254778908, "lat": 45.7772784, "lon": -108.5715723, "tags": {"name": "Lauren Bond Real Estate", "office": "estate_agent"}}, {"type": "node", "id": 9254778909, "lat": 45.7767562, "lon": -108.5707804, "tags": {"name": "Metro Property Management", "office": "yes"}}, {"type": "node", "id": 9254778910, "lat": 45.7773663, "lon": -108.5693547, "tags": {"name": "Vintage Vapor", "shop": "e-cigarette"}}, {"type": "node", "id": 9254778911, "lat": 45.7773676, "lon": -108.5692325, "tags": {"name": "Forget Me Not Tattoo", "shop": "tattoo"}}, {"type": "node", "id": 9254778912, "lat": 45.7773689, "lon": -108.5690876, "tags": {"name": "Kab Sports Cards & Collectables", "shop": "collector"}}, {"type": "node", "id": 9254778913, "lat": 45.7772141, "lon": -108.5685365, "tags": {"brand": "Farmers Insurance", "brand:wikidata": "Q1396863", "name": "Farmers Insurance", "office": "insurance"}}, {"type": "node", "id": 9254778915, "lat": 45.7773033, "lon": -108.5685365, "tags": {"name": "Williston Trucking Insurance", "office": "insurance"}}, {"type": "node", "id": 9254778921, "lat": 45.7767347, "lon": -108.564732, "tags": {"name": "The Spoke Shop", "shop": "bicycle"}}, {"type": "node", "id": 9254778922, "lat": 45.7766862, "lon": -108.5644028, "tags": {"name": "Big Sky Bubbles", "self_service": "yes", "shop": "laundry"}}, {"type": "node", "id": 9254778923, "lat": 45.7767295, "lon": -108.5637031, "tags": {"name": "Broadwater Mercantile", "shop": "antiques"}}, {"type": "node", "id": 9254778924, "lat": 45.7762152, "lon": -108.5636918, "tags": {"beauty": "tanning", "name": "Tanz & Things", "shop": "beauty"}}, {"type": "node", "id": 9254778925, "lat": 45.7773237, "lon": -108.5645251, "tags": {"beauty": "nails", "name": "Envy Nails & Spa", "shop": "beauty"}}, {"type": "node", "id": 9254778926, "lat": 45.7771886, "lon": -108.5648222, "tags": {"name": "Honeycomb Salon and Spa", "shop": "hairdresser"}}, {"type": "node", "id": 9254778927, "lat": 45.7773054, "lon": -108.5648128, "tags": {"name": "Western Management", "office": "yes"}}, {"type": "node", "id": 9254778964, "lat": 45.7773387, "lon": -108.5554218, "tags": {"amenity": "bar", "name": "Squire Lounge & Patio"}}, {"type": "node", "id": 9254778968, "lat": 45.7776778, "lon": -108.5555772, "tags": {"name": "Automotive Performance Center", "shop": "car_parts"}}, {"type": "node", "id": 9254778971, "lat": 45.7773094, "lon": -108.5542453, "tags": {"name": "Standard Auto Sales", "shop": "car"}}, {"type": "node", "id": 9254778988, "lat": 45.7766649, "lon": -108.554488, "tags": {"name": "B-Town Vapes & Glass Shop", "shop": "e-cigarette"}}, {"type": "node", "id": 9254778989, "lat": 45.7766821, "lon": -108.554308, "tags": {"name": "Hidden Beauty Salon", "shop": "hairdresser"}}, {"type": "node", "id": 9254778990, "lat": 45.7766783, "lon": -108.5541362, "tags": {"amenity": "restaurant", "name": "Red Rooster Cafe"}}, {"type": "node", "id": 9254778991, "lat": 45.7774258, "lon": -108.5527535, "tags": {"name": "Doc & Eddy's Liquor Store", "shop": "alcohol"}}, {"type": "node", "id": 9254778992, "lat": 45.7773117, "lon": -108.5527153, "tags": {"amenity": "bar", "name": "Eddy's Bar"}}, {"type": "node", "id": 9254778999, "lat": 45.7767582, "lon": -108.5515971, "tags": {"clothes": "underwear", "name": "TLC Lingerie", "shop": "clothes"}}, {"type": "node", "id": 9254796932, "lat": 45.7778327, "lon": -108.5406905, "tags": {"name": "Mountain States Trailer", "shop": "repair"}}, {"type": "node", "id": 9254796934, "lat": 45.7782599, "lon": -108.5389105, "tags": {"name": "YWCA Billings", "office": "association"}}, {"type": "node", "id": 9254796935, "lat": 45.7797079, "lon": -108.5395737, "tags": {"amenity": "restaurant", "cuisine": "pizza", "name": "Bruno's A Taste of Italy"}}, {"type": "node", "id": 9254986359, "lat": 45.7863734, "lon": -108.5766977, "tags": {"name": "Kirk Violins", "shop": "musical_instrument"}}, {"type": "node", "id": 9254986360, "lat": 45.7863304, "lon": -108.5757392, "tags": {"name": "Mountain Agency", "office": "insurance"}}, {"type": "node", "id": 9254986361, "lat": 45.7860688, "lon": -108.576982, "tags": {"name": "The Joy of Living", "shop": "clothes"}}, {"type": "node", "id": 9254986362, "lat": 45.7858971, "lon": -108.5772575, "tags": {"name": "North Acre Real Estate", "office": "estate_agent"}}, {"type": "node", "id": 9254986363, "lat": 45.7857397, "lon": -108.5772663, "tags": {"name": "Sanctuary-Aveda Spa & Salon", "shop": "beauty"}}, {"type": "node", "id": 9254986400, "lat": 45.7844483, "lon": -108.5533531, "tags": {"name": "Good Vibrations", "shop": "hifi"}}, {"type": "node", "id": 9254986401, "lat": 45.7843322, "lon": -108.5528742, "tags": {"name": "Tire-Rama", "shop": "tyres"}}, {"type": "node", "id": 9254986406, "lat": 45.7832701, "lon": -108.5543253, "tags": {"amenity": "restaurant", "name": "Fat Texan Barbecue"}}, {"type": "node", "id": 9254986408, "lat": 45.782972, "lon": -108.5530078, "tags": {"name": "Rimrock Property Management", "office": "company"}}, {"type": "node", "id": 9254986410, "lat": 45.7837761, "lon": -108.5524323, "tags": {"name": "State Liquor Store #3", "shop": "alcohol"}}, {"type": "node", "id": 9254986411, "lat": 45.7832945, "lon": -108.5519349, "tags": {"addr:city": "Billings", "addr:housenumber": "1400", "addr:postcode": "59102", "addr:state": "MT", "addr:street": "Grand Avenue", "addr:unit": "B", "brand": "Harbor Freight Tools", "brand:wikidata": "Q5654601", "name": "Harbor Freight Tools", "opening_hours": "Mo-Sa 08:00-20:00; Su 09:00-18:00", "phone": "+1 406-248-8179", "shop": "hardware", "website": "https://www.harborfreight.com/storelocator/1400-grand-ave-ste-b-billings-59102?number=207"}}, {"type": "node", "id": 9254986413, "lat": 45.784305, "lon": -108.5477624, "tags": {"name": "Pawn Fathers", "shop": "pawnbroker"}}, {"type": "node", "id": 9254986414, "lat": 45.7846616, "lon": -108.5469994, "tags": {"amenity": "restaurant", "cuisine": "mexican", "name": "Guadalajara Grand"}}, {"type": "node", "id": 9255043219, "lat": 45.7842763, "lon": -108.5467717, "tags": {"brand": "Farmers Insurance", "brand:wikidata": "Q1396863", "name": "Farmers Insurance", "office": "insurance"}}, {"type": "node", "id": 9255043220, "lat": 45.7844039, "lon": -108.5467841, "tags": {"name": "Caldwell Tony", "office": "insurance"}}, {"type": "node", "id": 9255043221, "lat": 45.7843795, "lon": -108.5464367, "tags": {"name": "Living Independently For Today & Tomorrow", "office": "association"}}, {"type": "node", "id": 9255043222, "lat": 45.7843896, "lon": -108.5462661, "tags": {"name": "CASA of Yellowstone County", "office": "association"}}, {"type": "node", "id": 9255043225, "lat": 45.7836084, "lon": -108.5458365, "tags": {"name": "Mufflers & More", "shop": "car_parts"}}, {"type": "node", "id": 9255043226, "lat": 45.7837374, "lon": -108.5454213, "tags": {"brand": "AutoZone", "brand:wikidata": "Q4826087", "name": "AutoZone", "shop": "car_parts", "website": "https://www.autozone.com/locations/mt/billings/1142-grand-ave.html"}}, {"type": "node", "id": 9255043227, "lat": 45.783713, "lon": -108.5447389, "tags": {"name": "Grace Studio", "shop": "beauty"}}, {"type": "node", "id": 9255043229, "lat": 45.7835181, "lon": -108.5437133, "tags": {"name": "Yurick's Barber Shop", "shop": "hairdresser"}}, {"type": "node", "id": 9255043231, "lat": 45.7828329, "lon": -108.5470842, "tags": {"brand": "Dollar Tree", "brand:wikidata": "Q5289230", "check_date": "2024-07-11", "check_date:opening_hours": "2024-07-11", "name": "Dollar Tree", "opening_hours": "Mo-Sa 09:00-22:00; Su 09:00-20:00", "shop": "variety_store", "website": "https://www.dollartree.com/locations/mt/billings/3799/"}}, {"type": "node", "id": 9255043234, "lat": 45.7835555, "lon": -108.5412111, "tags": {"name": "Pawnbrokers West", "shop": "pawnbroker"}}, {"type": "node", "id": 9278155133, "lat": 45.7842106, "lon": -108.5412721}, {"type": "node", "id": 9278683691, "lat": 45.7844247, "lon": -108.5663926}, {"type": "node", "id": 9701450520, "lat": 45.7838188, "lon": -108.5664694, "tags": {"addr:city": "Billings", "addr:housenumber": "1942", "addr:postcode": "59102", "addr:state": "MT", "addr:street": "Grand Avenue", "name": "Beartooth Guns", "opening_hours": "We-Sa 10:00-16:00", "payment:cash": "yes", "payment:credit_cards": "yes", "phone": "+1-406-245-4448", "shop": "weapons"}}, {"type": "node", "id": 9962817271, "lat": 45.7953325, "lon": -108.5715436, "tags": {"addr:city": "Billings", "addr:housenumber": "2147", "addr:postcode": "59102", "addr:state": "MT", "addr:street": "Poly Drive", "air_conditioning": "no", "amenity": "cafe", "cuisine": "coffee_shop", "delivery": "no", "email": "woof@blackdogcoffeehouse.com", "internet_access": "wlan", "internet_access:fee": "no", "name": "Black Dog Coffee Roasters", "opening_hours": "Mo-Su 07:00-16:00", "outdoor_seating": "yes", "payment:cash": "yes", "payment:credit_cards": "yes", "payment:debit_cards": "yes", "phone": "+1-406-534-8822", "source": "esri_USDOT_Montana", "takeaway": "yes", "website": "https://www.blackdogcoffeehouse.com/", "wheelchair": "yes"}}, {"type": "node", "id": 10069608161, "lat": 45.7808834, "lon": -108.5755408, "tags": {"name": "Pentecostals Of Billings", "office": "religion"}}, {"type": "node", "id": 10069608184, "lat": 45.7766715, "lon": -108.5714423, "tags": {"name": "Hometown Property Management", "office": "yes"}}, {"type": "node", "id": 10069608185, "lat": 45.776708, "lon": -108.5687541, "tags": {"name": "Billings Builders Exchange", "office": "yes"}}, {"type": "node", "id": 10155653083, "lat": 45.7828072, "lon": -108.556755, "tags": {"clothes": "wedding", "name": "Party Solutions", "shop": "clothes"}}, {"type": "node", "id": 10155653084, "lat": 45.7826572, "lon": -108.5570701, "tags": {"name": "The Spiked Olive", "shop": "deli"}}, {"type": "node", "id": 10155653085, "lat": 45.7826691, "lon": -108.5567763, "tags": {"name": "Bliss Salon & Spa", "shop": "beauty"}}, {"type": "node", "id": 10155653086, "lat": 45.7829408, "lon": -108.5575214, "tags": {"name": "Xanadu Salon", "shop": "beauty"}}, {"type": "node", "id": 10155653087, "lat": 45.782142, "lon": -108.5575321, "tags": {"beauty": "nails", "name": "Reflections Hair & Nails", "shop": "beauty"}}, {"type": "node", "id": 10155653089, "lat": 45.7816981, "lon": -108.5575342, "tags": {"name": "Legendary Tattoo Studio & Art Gallery", "shop": "tattoo"}}, {"type": "node", "id": 10155653091, "lat": 45.7815066, "lon": -108.5575023, "tags": {"amenity": "restaurant", "cuisine": "pizza", "name": "American Classic Pizzeria"}}, {"type": "node", "id": 10155653092, "lat": 45.7814814, "lon": -108.5572468, "tags": {"name": "The Book Cellar", "shop": "books"}}, {"type": "node", "id": 10155653093, "lat": 45.7815645, "lon": -108.5567635, "tags": {"name": "Creative Treasures Thrift Store", "shop": "second_hand"}}, {"type": "node", "id": 10155653094, "lat": 45.780889, "lon": -108.5571872, "tags": {"name": "Beard Insurance Agency Inc.", "office": "insurance"}}, {"type": "node", "id": 10155653095, "lat": 45.781085, "lon": -108.5582814, "tags": {"name": "Accent Massage & Therapy", "shop": "massage"}}, {"type": "node", "id": 10155653096, "lat": 45.7809751, "lon": -108.5582814, "tags": {"name": "Sacred Raven Massage", "shop": "massage"}}, {"type": "node", "id": 10155653097, "lat": 45.7808296, "lon": -108.5582452, "tags": {"name": "A Time For Tranquility", "shop": "massage"}}, {"type": "node", "id": 10247716070, "lat": 45.7767076, "lon": -108.5542054, "tags": {"addr:city": "Billings", "addr:housenumber": "1500", "addr:postcode": "59102", "addr:state": "MT", "addr:street": "Broadwater Avenue", "addr:unit": "Suite 2", "name": "Art's Paper and Paint", "opening_hours": "Tu-Fr 10:00-18:00, Sa 10:00-16:00", "phone": "+1 406-794-3812", "shop": "art"}}, {"type": "node", "id": 11848111613, "lat": 45.7839157, "lon": -108.5935182, "tags": {"addr:city": "Billings", "addr:housenumber": "3049", "addr:postcode": "59102", "addr:state": "MT", "addr:street": "Meadow View Drive", "amenity": "cafe", "branch": "Grand & 30th St West - Billings", "brand": "Starbucks", "brand:wikidata": "Q37158", "cuisine": "coffee_shop", "name": "Starbucks", "official_name": "Starbucks Coffee", "phone": "+1 406-717-0855", "ref": "1038635", "takeaway": "yes", "website": "https://www.starbucks.com/store-locator/store/91135/albertsons-billings-4041-3137-grand-ave-billings-mt-59102-us"}}, {"type": "node", "id": 11848111614, "lat": 45.783905, "lon": -108.5940112, "tags": {"addr:city": "Billings", "addr:housenumber": "3135", "addr:postcode": "59102", "addr:state": "MT", "addr:street": "Meadow View Drive", "brand": "Coldwell Banker", "brand:wikidata": "Q738853", "name": "Coldwell Banker", "office": "estate_agent"}}, {"type": "node", "id": 12884170830, "lat": 45.79474, "lon": -108.559525, "tags": {"addr:housenumber": "1704", "addr:street": "Poly Drive", "amenity": "cafe", "check_date": "2025-06-03", "contact:facebook": "https://www.facebook.com/polysplace/", "cuisine": "coffee_shop", "description": "A neighborhood coffeehouse with a fun nostalgic vibe housed within an old gas station", "name": "Poly\u2019s Place", "opening_hours": "Mo-Fr 07:00-16:00; Sa 08:00-13:00; Su off", "outdoor_seating": "yes", "website": "https://www.polysplacecoffee.com/", "website:menu": "https://www.polysplacecoffee.com/menu"}}, {"type": "way", "id": 283124122, "nodes": [2870393014, 7851500320, 7851500319, 7851500318, 5767437146, 5767437147, 5767437148, 5767437149, 5767437150, 5767437151, 2870393018, 2870393004, 7851500348, 7851500349, 7851500350, 2870392364, 7851500351, 2870393025, 2870392398, 2870392353, 2870392358, 2870393021, 7851487478, 2870392383, 2870392373, 2870392374, 7851487473, 2870393042, 2870392386, 2870392390, 2870392389, 3756400827, 3756400826, 2870393003, 3756400825, 3756395324, 2870392363, 2870392391, 2870393014], "tags": {"building": "retail", "shop": "mall"}}, {"type": "way", "id": 504830106, "nodes": [4949354827, 4949354828, 4949354829, 4949354830, 4949354831, 4949354832, 4949354833, 4949354834, 4949354835, 4949354836, 4949354837, 4949354838, 4949354839, 4949354840, 9251299119, 4949354841, 4949354842, 4949354843, 9251293514, 4949354844, 4949354845, 4949354827], "tags": {"addr:city": "Billings", "addr:housenumber": "1532", "addr:postcode": "59102", "addr:state": "MT", "addr:street": "Grand Avenue", "building": "yes", "description": "As the Toyota dealership for Montana's largest city, Lithia Toyota of Billings features a wide selection of new Toyotas and quality used vehicles.", "name": "Lithia Toyota of Billings", "opening_hours": "Mo-Sa 08:30-19:00; Su 11:00-17:00", "phone": "+1 406-545-0381", "second_hand": "yes", "shop": "car", "website": "https://www.lithiatoyotabillings.com/"}}, {"type": "way", "id": 528009670, "nodes": [4358578212, 5132216440, 5132216441, 5132216442, 4358578212], "tags": {"brand": "Holiday", "brand:wikidata": "Q5880490", "building": "yes", "name": "Holiday", "operator": "Holiday", "shop": "convenience", "source": "Bing"}}, {"type": "way", "id": 608836142, "nodes": [5767426137, 6032130410, 6032130411, 6032130412, 6032130413, 5767426138, 5767426139, 5767426140, 5767426137], "tags": {"addr:city": "Billings", "addr:housenumber": "910", "addr:postcode": "59102", "addr:state": "MT", "addr:street": "Grand Avenue", "amenity": "cafe", "branch": "Billings - Grand and 9th", "brand": "Starbucks", "brand:wikidata": "Q37158", "building": "yes", "cuisine": "coffee_shop", "drive_through": "yes", "name": "Starbucks", "official_name": "Starbucks Coffee", "phone": "+1 406-248-9026", "ref": "1008777", "takeaway": "yes", "website": "https://www.starbucks.com/store-locator/store/1008777/billings-grand-and-9th-910-grand-ave-billings-mt-591023302-us"}}, {"type": "way", "id": 640293796, "nodes": [6032004786, 6032004787, 6032004788, 6032004789, 6032004790, 6032004791, 6032004792, 6032004793, 6032004818, 6032004794, 6032004795, 6032004796, 6032004797, 6032004798, 6032004799, 6032004800, 6032004801, 6032004786], "tags": {"addr:city": "Billings", "addr:housenumber": "1311", "addr:postcode": "59102", "addr:state": "MT", "addr:street": "Grand Avenue", "brand": "CVS Pharmacy", "brand:website": "https://www.cvs.com/", "brand:wikidata": "Q2078880", "building": "yes", "name": "CVS Pharmacy", "shop": "chemist", "short_name": "CVS", "source": "esri_USDOT_Montana", "website": "https://www.cvs.com/store-locator/billings-mt-pharmacies/1311-grand-ave-billings-mt-59102/storeid=5301"}}, {"type": "way", "id": 832714484, "nodes": [9254765282, 7774043841, 7774046576, 7774044038, 9254765282], "tags": {"amenity": "bar", "building": "yes", "name": "1145 Club", "source": "microsoft/BuildingFootprints"}}, {"type": "way", "id": 842507893, "nodes": [6032129983, 7859734682, 7859734683, 7859734684, 7859777185, 7859777186, 9278155133, 6032129983], "tags": {"addr:city": "Billings", "addr:housenumber": "1005", "addr:postcode": "59102", "addr:state": "MT", "addr:street": "Grand Avenue", "amenity": "restaurant", "building": "yes", "cuisine": "chinese", "name": "Four Seas", "source": "esri_USDOT_Montana"}}, {"type": "way", "id": 842508457, "nodes": [7859780767, 7859780768, 7859780769, 7859780770, 7859780767], "tags": {"addr:city": "Billings", "addr:housenumber": "1302", "addr:postcode": "59102", "addr:state": "MT", "addr:street": "Avenue D", "building": "yes", "office": "yes", "source": "esri_USDOT_Montana"}}, {"type": "way", "id": 842573724, "nodes": [9215420030, 7860332446, 9278683691, 7860332447, 7860332448, 9215420030], "tags": {"building": "yes", "name": "Bighorn Boots Work Warehouse", "shop": "shoes", "source": "microsoft/BuildingFootprints"}}, {"type": "way", "id": 842573725, "nodes": [4584899089, 7860332450, 7860332451, 7860332452, 4584899089], "tags": {"addr:city": "Billings", "addr:housenumber": "1939", "addr:postcode": "59102", "addr:state": "MT", "addr:street": "Grand Avenue", "amenity": "cafe", "building": "yes", "cuisine": "coffee_shop", "name": "Big Sky Coffee Roasters", "phone": "+1-406-245-5253", "source": "esri_USDOT_Montana;microsoft/BuildingFootprints", "website": "http://bigskycoffeeroasters.net"}}]}