{"version": 0.6, "generator": "Overpass API 0.7.62.8 e802775f", "osm3s": {"timestamp_osm_base": "2025-12-06T04:41:53Z", "copyright": "The data included in this document is from www.openstreetmap.org. The data is made available under ODbL."}, "elements": [{"type": "node", "id": 1916429879, "lat": 48.7420815, "lon": -113.4299512}, {"type": "node", "id": 1916429880, "lat": 48.742086, "lon": -113.4295085}, {"type": "node", "id": 1916429881, "lat": 48.742358, "lon": -113.4299532}, {"type": "node", "id": 1916429882, "lat": 48.742365, "lon": -113.4295079}, {"type": "node", "id": 4308191880, "lat": 48.7466993, "lon": -113.42905}, {"type": "node", "id": 4308191881, "lat": 48.7467586, "lon": -113.4294312}, {"type": "node", "id": 4308191882, "lat": 48.7466505, "lon": -113.4294698}, {"type": "node", "id": 4308191883, "lat": 48.7465913, "lon": -113.4290885}, {"type": "node", "id": 4951344051, "lat": 48.7466379, "lon": -113.4290726, "tags": {"entrance": "yes"}}, {"type": "node", "id": 4951344053, "lat": 48.7464536, "lon": -113.4291982, "tags": {"shop": "gift"}}, {"type": "node", "id": 5816706020, "lat": 48.7429893, "lon": -113.4298009, "tags": {"name": "Sinclair", "shop": "convenience"}}, {"type": "node", "id": 5816706025, "lat": 48.7430886, "lon": -113.4299215, "tags": {"name": "Trail & Creek Outfitters", "shop": "gift"}}, {"type": "node", "id": 6122273455, "lat": 48.7477772, "lon": -113.4271184}, {"type": "node", "id": 9118805709, "lat": 48.7458112, "lon": -113.4293497}, {"type": "node", "id": 9118805710, "lat": 48.7458609, "lon": -113.4293456}, {"type": "node", "id": 9118805711, "lat": 48.7458637, "lon": -113.4294211}, {"type": "node", "id": 9118805712, "lat": 48.7458069, "lon": -113.4292277}, {"type": "node", "id": 9118805713, "lat": 48.7459547, "lon": -113.4292156}, {"type": "node", "id": 9118805714, "lat": 48.7459617, "lon": -113.4294129}, {"type": "node", "id": 9919484690, "lat": 48.7463272, "lon": -113.4291513, "tags": {"opening_hours": "Mo-Fr 07:00-21:00", "shop": "convenience"}}, {"type": "node", "id": 9954485539, "lat": 48.7476355, "lon": -113.4271978}, {"type": "node", "id": 9954485540, "lat": 48.7475918, "lon": -113.4270186}, {"type": "node", "id": 9954485541, "lat": 48.7475996, "lon": -113.4269296}, {"type": "node", "id": 9954485542, "lat": 48.7477519, "lon": -113.4270143}, {"type": "node", "id": 9954485543, "lat": 48.7478408, "lon": -113.4269645}, {"type": "node", "id": 9954485544, "lat": 48.7478043, "lon": -113.4268149}, {"type": "node", "id": 9954485545, "lat": 48.7476178, "lon": -113.4270041}, {"type": "node", "id": 11112367358, "lat": 48.7458045, "lon": -113.4298342, "tags": {"amenity": "restaurant", "contact:facebook": "https://facebook.com/profile.php/?id=100067044675791", "cuisine": "mexican", "name": "Frog\u2019s Cantina", "outdoor_seating": "yes"}}, {"type": "way", "id": 181198580, "nodes": [1916429881, 1916429879, 1916429880, 1916429882, 1916429881], "tags": {"building": "yes", "name": "St. Mary Supermarket", "shop": "supermarket"}}, {"type": "way", "id": 431591152, "nodes": [4308191880, 4308191881, 4308191882, 4308191883, 4951344051, 4308191880], "tags": {"amenity": "cafe", "building": "yes", "name": "Park Cafe"}}, {"type": "way", "id": 986503776, "nodes": [9118805714, 9118805713, 9118805712, 9118805709, 9118805710, 9118805711, 9118805714], "tags": {"addr:city": "Babb", "addr:housenumber": "3141", "addr:postcode": "59411", "addr:state": "MT", "addr:street": "US Highway 89 West", "amenity": "restaurant", "building": "yes", "cuisine": "pizza", "name": "Rising Sun", "website": "https://www.glacierpizza.com/"}}, {"type": "way", "id": 1086404312, "nodes": [6122273455, 9954485539, 9954485540, 9954485545, 9954485541, 9954485544, 9954485543, 9954485542, 6122273455], "tags": {"amenity": "restaurant", "cuisine": "burger;sandwich;american;diner", "delivery": "no", "name": "Johnson's of St. Mary Restaurant", "outdoor_seating": "no", "smoking": "no"}}]}