{"version": 0.6, "generator": "Overpass API 0.7.62.8 e802775f", "osm3s": {"timestamp_osm_base": "2025-12-12T23:39:13Z", "copyright": "The data included in this document is from www.openstreetmap.org. The data is made available under ODbL."}, "elements": [{"type": "node", "id": 3651474768, "lat": 39.7188195, "lon": -105.0618619}, {"type": "node", "id": 3651474860, "lat": 39.7187633, "lon": -105.0617712}, {"type": "node", "id": 3651474903, "lat": 39.7189708, "lon": -105.0617216}, {"type": "node", "id": 3651474908, "lat": 39.7189456, "lon": -105.0617217}, {"type": "node", "id": 3651474943, "lat": 39.7187312, "lon": -105.0617713}, {"type": "node", "id": 3651474967, "lat": 39.7189457, "lon": -105.0617829}, {"type": "node", "id": 3651474971, "lat": 39.7189707, "lon": -105.0616504}, {"type": "node", "id": 3651474979, "lat": 39.7187635, "lon": -105.0618621}, {"type": "node", "id": 3651474983, "lat": 39.7188289, "lon": -105.0617832}, {"type": "node", "id": 3651475000, "lat": 39.7188291, "lon": -105.0618619}, {"type": "node", "id": 5120899077, "lat": 39.7068268, "lon": -105.082581, "tags": {"addr:city": "Lakewood", "addr:housename": "Lakewood City Common", "addr:housenumber": "7700", "addr:postcode": "80226", "addr:state": "CO", "addr:street": "West Virginia Avenue", "addr:unit": "A", "brand": "Orangetheory Fitness", "brand:wikidata": "Q25005163", "leisure": "fitness_centre", "name": "Orangetheory Fitness", "phone": "+1 720-402-3888", "ref": "2049", "sport": "athletics"}}, {"type": "node", "id": 8057931641, "lat": 39.7262814, "lon": -105.0659049}, {"type": "node", "id": 8057931642, "lat": 39.7259344, "lon": -105.0659015}, {"type": "node", "id": 8057931643, "lat": 39.7259423, "lon": -105.0645359}, {"type": "node", "id": 8057931644, "lat": 39.7262951, "lon": -105.0645393}, {"type": "node", "id": 8057931645, "lat": 39.7262915, "lon": -105.0651663}, {"type": "node", "id": 8057931646, "lat": 39.7264143, "lon": -105.0651676}, {"type": "node", "id": 8057931647, "lat": 39.7264132, "lon": -105.06536}, {"type": "node", "id": 8057931648, "lat": 39.7264007, "lon": -105.0653599}, {"type": "node", "id": 8057931649, "lat": 39.7264003, "lon": -105.0654251}, {"type": "node", "id": 8057931650, "lat": 39.7263322, "lon": -105.0654245}, {"type": "node", "id": 8057931651, "lat": 39.7263326, "lon": -105.0653583}, {"type": "node", "id": 8057931652, "lat": 39.7262846, "lon": -105.0653578}, {"type": "node", "id": 9371817091, "lat": 39.7093971, "lon": -105.0793525, "tags": {"addr:city": "Lakewood", "addr:housenumber": "7349", "addr:postcode": "80226", "addr:state": "CO", "addr:street": "West Alaska Drive", "brand": "CorePower Yoga", "brand:wikidata": "Q21015663", "leisure": "fitness_centre", "name": "CorePower Yoga", "phone": "+1-720-638-9935", "sport": "yoga", "website": "https://www.corepoweryoga.com/yoga-studios/co/denver/belmar"}}, {"type": "node", "id": 12042064034, "lat": 39.7093948, "lon": -105.0789736, "tags": {"addr:city": "Lakewood", "addr:housenumber": "7349", "addr:postcode": "80226", "addr:state": "CO", "addr:street": "West Alaska Drive", "brand": "F45 Training", "brand:wikidata": "Q64390973", "leisure": "fitness_centre", "name": "F45 Training", "opening_hours": "Su-Sa 06:00-18:00", "phone": "+1-303-285-4219", "short_name": "F45", "sport": "fitness", "website": "https://f45training.com/studio/belmar/"}}, {"type": "node", "id": 12566369395, "lat": 39.7160464, "lon": -105.0799694, "tags": {"addr:city": "Lakewood", "addr:housenumber": "98", "addr:postcode": "80226", "addr:state": "CO", "addr:street": "South Wadsworth Boulevard", "addr:unit": "125B", "brand": "Planet Fitness", "brand:wikidata": "Q7201095", "leisure": "fitness_centre", "name": "Planet Fitness", "opening_hours": "24/7", "phone": "+1-303-237-2676", "website": "https://www.planetfitness.com/gyms/lakewood-fairfield-commons-co"}}, {"type": "node", "id": 12566448412, "lat": 39.718731, "lon": -105.0616512}, {"type": "node", "id": 12859756836, "lat": 39.7096927, "lon": -105.0766316, "tags": {"addr:city": "Lakewood", "addr:housenumber": "378", "addr:postcode": "80226", "addr:state": "CO", "addr:street": "South Teller Street", "leisure": "fitness_centre", "name": "Wonder Gym", "phone": "+1-303-588-6285", "sport": "gymnastics;dance", "website": "https://www.wondergym.org"}}, {"type": "way", "id": 360624183, "nodes": [3651474971, 12566448412, 3651474943, 3651474860, 3651474979, 3651474768, 3651475000, 3651474983, 3651474967, 3651474908, 3651474903, 3651474971], "tags": {"addr:city": "Lakewood", "addr:housenumber": "5925", "addr:postcode": "80226", "addr:state": "CO", "addr:street": "West 1st Avenue", "building": "yoga_studio", "leisure": "fitness_centre", "name": "Kriya Yoga Temple of Peace", "phone": "+1-303-923-8895", "source": "Apple Maps;esri/USA_NAD_Addresses", "sport": "yoga", "website": "templeofpeace.co"}}, {"type": "way", "id": 864522070, "nodes": [8057931641, 8057931642, 8057931643, 8057931644, 8057931645, 8057931646, 8057931647, 8057931648, 8057931649, 8057931650, 8057931651, 8057931652, 8057931641], "tags": {"addr:city": "Lakewood", "addr:housenumber": "6305", "addr:postcode": "80214", "addr:state": "CO", "addr:street": "West 6th Avenue", "building": "yes", "leisure": "fitness_centre", "name": "Meadow Creek Tennis and Fitness Club", "sport": "tennis;pickleball", "website": "https://www.meadowcreektennis.com"}}]}