{"version": 0.6, "generator": "Overpass API 0.7.62.8 e802775f", "osm3s": {"timestamp_osm_base": "2025-12-13T00:24:06Z", "copyright": "The data included in this document is from www.openstreetmap.org. The data is made available under ODbL."}, "elements": [{"type": "node", "id": 7495969416, "lat": 40.9588492, "lon": -102.3879307}, {"type": "node", "id": 7495969417, "lat": 40.9587639, "lon": -102.3879291}, {"type": "node", "id": 7495969418, "lat": 40.9587617, "lon": -102.3881395}, {"type": "node", "id": 7495969419, "lat": 40.9586456, "lon": -102.3881374}, {"type": "node", "id": 7495969420, "lat": 40.9586474, "lon": -102.3879703}, {"type": "node", "id": 7495969421, "lat": 40.9582943, "lon": -102.3879637}, {"type": "node", "id": 7495969422, "lat": 40.9582909, "lon": -102.388289}, {"type": "node", "id": 7495969423, "lat": 40.9588453, "lon": -102.3882994}, {"type": "node", "id": 7495969444, "lat": 40.9594313, "lon": -102.3881659}, {"type": "node", "id": 7495969445, "lat": 40.9594312, "lon": -102.3879441}, {"type": "node", "id": 7495969446, "lat": 40.9593544, "lon": -102.3879442}, {"type": "node", "id": 7495969447, "lat": 40.959339, "lon": -102.3879625}, {"type": "node", "id": 7495969448, "lat": 40.9592218, "lon": -102.3879624}, {"type": "node", "id": 7495969449, "lat": 40.9592218, "lon": -102.3879245}, {"type": "node", "id": 7495969450, "lat": 40.959133, "lon": -102.3879245}, {"type": "node", "id": 7495969451, "lat": 40.9591329, "lon": -102.3880372}, {"type": "node", "id": 7495969452, "lat": 40.9591889, "lon": -102.3880372}, {"type": "node", "id": 7495969453, "lat": 40.9591889, "lon": -102.3880747}, {"type": "node", "id": 7495969454, "lat": 40.9591144, "lon": -102.3880746}, {"type": "node", "id": 7495969455, "lat": 40.9591143, "lon": -102.3882937}, {"type": "node", "id": 7495969456, "lat": 40.9591917, "lon": -102.3882937}, {"type": "node", "id": 7495969457, "lat": 40.9591917, "lon": -102.3883049}, {"type": "node", "id": 7495969458, "lat": 40.9592714, "lon": -102.3883049}, {"type": "node", "id": 7495969459, "lat": 40.9592714, "lon": -102.3881952}, {"type": "node", "id": 7495969460, "lat": 40.9593351, "lon": -102.3881951}, {"type": "node", "id": 7495969461, "lat": 40.9593351, "lon": -102.3881505}, {"type": "node", "id": 7495969462, "lat": 40.9593789, "lon": -102.3881505}, {"type": "node", "id": 7495969463, "lat": 40.9593789, "lon": -102.388166}, {"type": "node", "id": 7495969468, "lat": 40.9584422, "lon": -102.3875619}, {"type": "node", "id": 7495969469, "lat": 40.9584443, "lon": -102.3873974}, {"type": "node", "id": 7495969470, "lat": 40.9583668, "lon": -102.3873956}, {"type": "node", "id": 7495969471, "lat": 40.9583656, "lon": -102.3874799}, {"type": "node", "id": 7495969472, "lat": 40.9583002, "lon": -102.3874784}, {"type": "node", "id": 7495969473, "lat": 40.9582992, "lon": -102.3875586}, {"type": "node", "id": 7495971876, "lat": 40.9604304, "lon": -102.3883302}, {"type": "node", "id": 7495971877, "lat": 40.960436, "lon": -102.3879727}, {"type": "node", "id": 7495971878, "lat": 40.9602272, "lon": -102.387967}, {"type": "node", "id": 7495971879, "lat": 40.9602216, "lon": -102.3883244}, {"type": "node", "id": 7495971880, "lat": 40.9602474, "lon": -102.3879659, "tags": {"amenity": "vending_machine", "vending": "drinks"}}, {"type": "node", "id": 7495971881, "lat": 40.960333, "lon": -102.3879675, "tags": {"amenity": "vending_machine", "vending": "newspapers"}}, {"type": "node", "id": 7495971882, "lat": 40.960703, "lon": -102.3882023}, {"type": "node", "id": 7495971883, "lat": 40.9607072, "lon": -102.3880108}, {"type": "node", "id": 7495971884, "lat": 40.9606137, "lon": -102.3880071}, {"type": "node", "id": 7495971885, "lat": 40.9606095, "lon": -102.3881987}, {"type": "node", "id": 7495971886, "lat": 40.9607194, "lon": -102.3874215}, {"type": "node", "id": 7495971887, "lat": 40.9607225, "lon": -102.3872539}, {"type": "node", "id": 7495971888, "lat": 40.9605128, "lon": -102.3872485}, {"type": "node", "id": 7495971889, "lat": 40.9605098, "lon": -102.3873934}, {"type": "node", "id": 7495971890, "lat": 40.960444, "lon": -102.3873907}, {"type": "node", "id": 7495971891, "lat": 40.9604399, "lon": -102.3876106}, {"type": "node", "id": 7495971892, "lat": 40.9606374, "lon": -102.38762}, {"type": "node", "id": 7495971893, "lat": 40.9606546, "lon": -102.3875476}, {"type": "node", "id": 7495971894, "lat": 40.960687, "lon": -102.3874859}, {"type": "node", "id": 7495971895, "lat": 40.9601633, "lon": -102.3883056}, {"type": "node", "id": 7495971896, "lat": 40.9601662, "lon": -102.3879609}, {"type": "node", "id": 7495971897, "lat": 40.9600211, "lon": -102.3879588}, {"type": "node", "id": 7495971898, "lat": 40.9600185, "lon": -102.3882571}, {"type": "node", "id": 7495971899, "lat": 40.960086, "lon": -102.3882581}, {"type": "node", "id": 7495971900, "lat": 40.9600856, "lon": -102.3883045}, {"type": "node", "id": 7495971929, "lat": 40.9618714, "lon": -102.3876516}, {"type": "node", "id": 7495971930, "lat": 40.9618743, "lon": -102.3874282}, {"type": "node", "id": 7495971931, "lat": 40.9617835, "lon": -102.3874262}, {"type": "node", "id": 7495971932, "lat": 40.9617825, "lon": -102.3874993}, {"type": "node", "id": 7495971933, "lat": 40.9616983, "lon": -102.3874974}, {"type": "node", "id": 7495971934, "lat": 40.9616964, "lon": -102.3876477}, {"type": "node", "id": 7495971935, "lat": 40.9620164, "lon": -102.3876134}, {"type": "node", "id": 7495971936, "lat": 40.9620196, "lon": -102.3874364}, {"type": "node", "id": 7495971937, "lat": 40.9619033, "lon": -102.3874327}, {"type": "node", "id": 7495971938, "lat": 40.9619001, "lon": -102.3876097}, {"type": "node", "id": 7495971939, "lat": 40.9618176, "lon": -102.3880305, "tags": {"amenity": "fuel", "brand": "Cenex", "brand:wikidata": "Q5011381", "compressed_air": "yes", "name": "Cenex"}}, {"type": "node", "id": 7495971940, "lat": 40.9647057, "lon": -102.3877677}, {"type": "node", "id": 7495971941, "lat": 40.9646894, "lon": -102.385195}, {"type": "node", "id": 7495971942, "lat": 40.964138, "lon": -102.3851673}, {"type": "node", "id": 7495971943, "lat": 40.9641171, "lon": -102.3847113}, {"type": "node", "id": 7495971944, "lat": 40.9635587, "lon": -102.384702}, {"type": "node", "id": 7495971945, "lat": 40.9635191, "lon": -102.3877584}, {"type": "node", "id": 7496312004, "lat": 40.9605034, "lon": -102.3873821}, {"type": "node", "id": 7496312005, "lat": 40.9605063, "lon": -102.3872441}, {"type": "node", "id": 7496312006, "lat": 40.9602354, "lon": -102.3872402}, {"type": "node", "id": 7496312007, "lat": 40.9602296, "lon": -102.3876002}, {"type": "node", "id": 7496312008, "lat": 40.9604303, "lon": -102.3876092}, {"type": "node", "id": 7496312009, "lat": 40.960441, "lon": -102.3873808}, {"type": "node", "id": 7496312012, "lat": 40.9607008, "lon": -102.3883625}, {"type": "node", "id": 7496312013, "lat": 40.9607, "lon": -102.388212}, {"type": "node", "id": 7496312014, "lat": 40.9606024, "lon": -102.3882075}, {"type": "node", "id": 7496312015, "lat": 40.9606024, "lon": -102.3879885}, {"type": "node", "id": 7496312016, "lat": 40.960443, "lon": -102.387975}, {"type": "node", "id": 7496312017, "lat": 40.9604353, "lon": -102.3883434}, {"type": "way", "id": 801465074, "nodes": [7495969416, 7495969417, 7495969418, 7495969419, 7495969420, 7495969421, 7495969422, 7495969423, 7495969416], "tags": {"addr:city": "Ovid", "addr:housenumber": "101", "addr:postcode": "80744", "addr:state": "CO", "addr:street": "Main Street", "building": "yes", "name": "Kelley Bean Co.", "shop": "agrarian"}}, {"type": "way", "id": 801465078, "nodes": [7495969444, 7495969445, 7495969446, 7495969447, 7495969448, 7495969449, 7495969450, 7495969451, 7495969452, 7495969453, 7495969454, 7495969455, 7495969456, 7495969457, 7495969458, 7495969459, 7495969460, 7495969461, 7495969462, 7495969463, 7495969444], "tags": {"addr:city": "Ovid", "addr:housenumber": "115", "addr:postcode": "80744", "addr:state": "CO", "addr:street": "Main Street", "building": "yes", "name": "D & L Meat Co.", "shop": "butcher"}}, {"type": "way", "id": 801465080, "nodes": [7495969468, 7495969469, 7495969470, 7495969471, 7495969472, 7495969473, 7495969468], "tags": {"addr:city": "Ovid", "addr:housenumber": "100", "addr:postcode": "80744", "addr:state": "CO", "addr:street": "Main Street", "building": "yes", "name": "Highline Electric Association", "office": "energy_supplier"}}, {"type": "way", "id": 801465104, "nodes": [7495971876, 7495971877, 7495971878, 7495971879, 7495971876], "tags": {"addr:city": "Ovid", "addr:housenumber": "217", "addr:postcode": "80744", "addr:state": "CO", "addr:street": "Main Street", "amenity": "restaurant", "building": "yes", "cuisine": "american", "name": "Big B's Bar and Grill"}}, {"type": "way", "id": 801465105, "nodes": [7495971882, 7495971883, 7495971884, 7495971885, 7495971882], "tags": {"addr:city": "Ovid", "addr:housenumber": "231", "addr:postcode": "80744", "addr:state": "CO", "addr:street": "Main Street", "amenity": "post_office", "brand": "United States Post Office", "brand:wikidata": "Q668687", "building": "yes", "name": "United States Post Office", "operator": "United States Postal Service", "operator:short": "USPS", "operator:type": "public", "operator:website": "https://www.usps.com", "operator:wikidata": "Q668687", "operator:wikipedia": "en:United States Postal Service", "short_name": "USPS"}}, {"type": "way", "id": 801465106, "nodes": [7495971886, 7495971887, 7495971888, 7495971889, 7495971890, 7495971891, 7495971892, 7495971893, 7495971894, 7495971886], "tags": {"addr:city": "Ovid", "addr:housenumber": "222", "addr:postcode": "80744", "addr:state": "CO", "addr:street": "Main Street", "amenity": "place_of_worship", "building": "yes", "denomination": "baptist", "name": "Harvest Baptist Church", "religion": "christian"}}, {"type": "way", "id": 801465107, "nodes": [7495971895, 7495971896, 7495971897, 7495971898, 7495971899, 7495971900, 7495971895], "tags": {"addr:city": "Ovid", "addr:housenumber": "211", "addr:postcode": "80744", "addr:state": "CO", "addr:street": "Main Street", "building": "yes", "name": "Ovid Town Clerk", "office": "government"}}, {"type": "way", "id": 801465114, "nodes": [7495971929, 7495971930, 7495971931, 7495971932, 7495971933, 7495971934, 7495971929], "tags": {"addr:city": "Ovid", "addr:housenumber": "322", "addr:postcode": "80744", "addr:state": "CO", "addr:street": "Main Street", "amenity": "fire_station", "building": "yes", "name": "Ovid Volunteer Fire Department"}}, {"type": "way", "id": 801465115, "nodes": [7495971935, 7495971936, 7495971937, 7495971938, 7495971935], "tags": {"addr:city": "Ovid", "addr:housenumber": "324", "addr:postcode": "80744", "addr:state": "CO", "addr:street": "Main Street", "building": "yes", "name": "Dunker's Farm Repair", "shop": "car_repair"}}, {"type": "way", "id": 801465116, "nodes": [7495971940, 7495971941, 7495971942, 7495971943, 7495971944, 7495971945, 7495971940], "tags": {"amenity": "school", "name": "Revere Jr - Sr High School"}}, {"type": "way", "id": 801476316, "nodes": [7496312004, 7496312005, 7496312006, 7496312007, 7496312008, 7496312009, 7496312004], "tags": {"amenity": "parking"}}, {"type": "way", "id": 801476318, "nodes": [7496312012, 7496312013, 7496312014, 7496312015, 7496312016, 7496312017, 7496312012], "tags": {"amenity": "parking"}}]}