{"version": 0.6, "generator": "Overpass API 0.7.62.8 e802775f", "osm3s": {"timestamp_osm_base": "2025-12-06T04:18:14Z", "copyright": "The data included in this document is from www.openstreetmap.org. The data is made available under ODbL."}, "elements": [{"type": "node", "id": 7910125457, "lat": 45.6700798, "lon": -108.7715934, "tags": {"brand": "Farmers Insurance", "brand:wikidata": "Q1396863", "name": "Farmers Union Insurance", "office": "insurance"}}, {"type": "node", "id": 10281126487, "lat": 45.67532, "lon": -108.7472814, "tags": {"amenity": "bar", "name": "Sid's East Side Bar & Grill"}}, {"type": "node", "id": 10281138986, "lat": 45.6744637, "lon": -108.7437827, "tags": {"name": "Montana Rail Link", "office": "yes"}}, {"type": "node", "id": 10281189944, "lat": 45.672103, "lon": -108.7604194, "tags": {"name": "Fast Lane C-Store", "shop": "convenience"}}, {"type": "node", "id": 10281191540, "lat": 45.6720719, "lon": -108.7614846, "tags": {"name": "Town & Country Supply", "shop": "agrarian"}}, {"type": "node", "id": 10281191622, "lat": 45.6716378, "lon": -108.762835, "tags": {"amenity": "restaurant", "name": "The Pelican Cafe"}}, {"type": "node", "id": 10281244941, "lat": 45.671503, "lon": -108.7634426, "tags": {"name": "Laurel Auto Clinic", "shop": "car_repair"}}, {"type": "node", "id": 10281244942, "lat": 45.671503, "lon": -108.7638782, "tags": {"name": "My Creative Fix", "shop": "art"}}, {"type": "node", "id": 10281525481, "lat": 45.6709169, "lon": -108.7656282, "tags": {"name": "Thomae Lumber of Laurel", "office": "yes"}}, {"type": "node", "id": 10281525483, "lat": 45.6707336, "lon": -108.7664464, "tags": {"name": "Laurel Outlook", "office": "newspaper"}}, {"type": "node", "id": 10281525485, "lat": 45.6705112, "lon": -108.7670445, "tags": {"name": "Red Rooster Kitchen", "shop": "bakery"}}, {"type": "node", "id": 10281525486, "lat": 45.670619, "lon": -108.7671388, "tags": {"name": "406Spices", "shop": "spices"}}, {"type": "node", "id": 10281525487, "lat": 45.6709648, "lon": -108.7672716, "tags": {"name": "Cabinet Depot and Design Center", "shop": "kitchen"}}, {"type": "node", "id": 10281525488, "lat": 45.6717059, "lon": -108.7676347, "tags": {"name": "Smith Funeral Chapels & Crematorium", "shop": "funeral_directors"}}, {"type": "node", "id": 10281527961, "lat": 45.6704036, "lon": -108.7679325, "tags": {"branch": "Laurel", "brand": "Crash Champions", "brand:wikidata": "Q121435028", "check_date": "2024-09-30", "name": "Crash Champions Collision Repair", "phone": "+1 406-633-4258", "service:vehicle:body_repair": "yes", "shop": "car_repair", "website": "https://crashchampions.com/locations/crash-champions-laurel"}}, {"type": "node", "id": 10281527963, "lat": 45.6706093, "lon": -108.7686589, "tags": {"name": "First National Pawn", "shop": "pawnbroker"}}, {"type": "node", "id": 10281527964, "lat": 45.670813, "lon": -108.7687486, "tags": {"name": "Highline Supply", "shop": "medical_supply"}}, {"type": "node", "id": 10281554256, "lat": 45.6701602, "lon": -108.769245, "tags": {"name": "Statewide Liquor", "shop": "alcohol"}}, {"type": "node", "id": 10281554257, "lat": 45.6701992, "lon": -108.770026, "tags": {"name": "Orchid Dry Cleaners", "shop": "dry_cleaning"}}, {"type": "node", "id": 10281554260, "lat": 45.6698592, "lon": -108.7699171, "tags": {"name": "The Pelham School of Arts & Sciences", "office": "educational_institution"}}, {"type": "node", "id": 10281588857, "lat": 45.6707501, "lon": -108.7719355, "tags": {"name": "Montana Sweet Peas", "shop": "hairdresser"}}, {"type": "node", "id": 10281588858, "lat": 45.6706345, "lon": -108.7719495, "tags": {"name": "Dynamic Designs", "shop": "copyshop"}}, {"type": "node", "id": 10281588859, "lat": 45.6703819, "lon": -108.7722382, "tags": {"name": "The Front Porch", "shop": "clothes"}}, {"type": "node", "id": 10281588860, "lat": 45.6702506, "lon": -108.7726978, "tags": {"name": "Yellowstone County Motor Vehicle", "office": "government"}}, {"type": "node", "id": 10281588874, "lat": 45.670165, "lon": -108.7715874, "tags": {"name": "Purple Cow Insurance Agency", "office": "insurance"}}, {"type": "node", "id": 10281588875, "lat": 45.6702019, "lon": -108.7714501, "tags": {"alt_name": "Edward Jones Investments", "brand": "Edward Jones", "brand:wikidata": "Q5343830", "name": "Edward Jones", "office": "financial_advisor"}}, {"type": "node", "id": 10281588877, "lat": 45.6703229, "lon": -108.7708185, "tags": {"amenity": "cafe", "name": "Mountain Mudd Espresso"}}, {"type": "node", "id": 10281588878, "lat": 45.6694772, "lon": -108.7711545, "tags": {"name": "Country Cuts", "shop": "hairdresser"}}, {"type": "node", "id": 10281588879, "lat": 45.6695348, "lon": -108.7709472, "tags": {"name": "Trackside Quilting", "shop": "fabric"}}, {"type": "node", "id": 10281588880, "lat": 45.6695881, "lon": -108.7707303, "tags": {"amenity": "cafe", "name": "Laurel's Main St. Perk"}}, {"type": "node", "id": 10281588881, "lat": 45.6696176, "lon": -108.770624, "tags": {"name": "Uniquities", "shop": "antiques"}}, {"type": "node", "id": 10281588882, "lat": 45.6696373, "lon": -108.7705119, "tags": {"name": "Pollination Floral & Boutique", "shop": "clothes"}}, {"type": "node", "id": 10281588883, "lat": 45.6696547, "lon": -108.7704373, "tags": {"name": "Marilyn's Paint & Decor", "shop": "paint"}}, {"type": "node", "id": 10281588884, "lat": 45.6696914, "lon": -108.7702827, "tags": {"name": "Hair On Main", "shop": "beauty"}}, {"type": "node", "id": 10281588885, "lat": 45.6699008, "lon": -108.7703837, "tags": {"name": "Therapeutic Massage by Danielle", "shop": "massage"}}, {"type": "node", "id": 10281588886, "lat": 45.6696701, "lon": -108.7703685, "tags": {"amenity": "bar", "name": "Lucky Louie's"}}, {"type": "node", "id": 10281588887, "lat": 45.6701383, "lon": -108.7705773, "tags": {"brand": "CenturyLink", "brand:wikidata": "Q110391616", "name": "CenturyLink", "shop": "telecommunication"}}, {"type": "node", "id": 10281588888, "lat": 45.6703626, "lon": -108.7706527, "tags": {"name": "A Haus of Realty", "office": "estate_agent"}}, {"type": "node", "id": 10281588893, "lat": 45.6691668, "lon": -108.770553, "tags": {"name": "Laurel Chamber of Commerce", "office": "government"}}, {"type": "node", "id": 10281588947, "lat": 45.6693383, "lon": -108.7717596, "tags": {"name": "Blessed Beginnings", "shop": "antiques"}}, {"type": "node", "id": 10281588951, "lat": 45.6691437, "lon": -108.7725515, "tags": {"name": "King Koin Launderette", "self_service": "yes", "shop": "laundry"}}, {"type": "node", "id": 10281588952, "lat": 45.6691304, "lon": -108.7726216, "tags": {"name": "Elite Beauty Salon", "shop": "beauty"}}, {"type": "node", "id": 10281588953, "lat": 45.6695838, "lon": -108.7718357, "tags": {"name": "Thrifty Treasures Room", "shop": "variety_store"}}, {"type": "node", "id": 10281588955, "lat": 45.6698997, "lon": -108.7720047, "tags": {"name": "Barber and Beauty", "shop": "hairdresser"}}, {"type": "node", "id": 10281588956, "lat": 45.6699779, "lon": -108.7720491, "tags": {"name": "At 1 With The Earth", "shop": "beauty"}}, {"type": "node", "id": 10281603670, "lat": 45.6689355, "lon": -108.7734319, "tags": {"name": "Parks Real Estate", "office": "estate_agent"}}, {"type": "node", "id": 10281603671, "lat": 45.6689236, "lon": -108.7737506, "tags": {"name": "KC Interiors", "shop": "flooring"}}, {"type": "node", "id": 10281603672, "lat": 45.6690968, "lon": -108.7733198, "tags": {"name": "MonkeyWorks Automotive", "shop": "car_repair"}}, {"type": "node", "id": 10281603708, "lat": 45.6696783, "lon": -108.7735255, "tags": {"name": "The Sunshine Academy", "office": "educational_institution"}}, {"type": "node", "id": 10281615531, "lat": 45.6759248, "lon": -108.7723282, "tags": {"brand": "Town Pump", "brand:wikidata": "Q7830004", "name": "Town Pump", "shop": "convenience"}}, {"type": "node", "id": 10281671147, "lat": 45.6686774, "lon": -108.774502, "tags": {"name": "Coburn Tax Service", "office": "tax_advisor"}}, {"type": "node", "id": 10281671148, "lat": 45.6686279, "lon": -108.7747352, "tags": {"name": "Big Sky Woodcrafters", "shop": "trophy"}}, {"type": "node", "id": 10281671154, "lat": 45.6690472, "lon": -108.7747441, "tags": {"name": "Laurel Insurance", "office": "insurance"}}, {"type": "node", "id": 10283104914, "lat": 45.6687594, "lon": -108.7722624, "tags": {"amenity": "cafe", "cuisine": "coffee_shop", "name": "Koo Beans Coffee"}}, {"type": "node", "id": 10285530092, "lat": 45.6644037, "lon": -108.7699845}, {"type": "node", "id": 10285530093, "lat": 45.6645609, "lon": -108.7701661}, {"type": "node", "id": 10285530094, "lat": 45.6644894, "lon": -108.7702927}, {"type": "node", "id": 10285530095, "lat": 45.6643323, "lon": -108.7701111}, {"type": "node", "id": 10285530296, "lat": 45.6680727, "lon": -108.7720399, "tags": {"name": "Rapid Tire", "shop": "car_repair"}}, {"type": "node", "id": 10285530299, "lat": 45.6670698, "lon": -108.7720773, "tags": {"brand": "H&R Block", "brand:wikidata": "Q5627799", "name": "H&R Block", "office": "tax_advisor"}}, {"type": "node", "id": 10285530302, "lat": 45.6660563, "lon": -108.7722035, "tags": {"amenity": "restaurant", "cuisine": "mexican", "name": "Fiesta Mexican"}}, {"type": "node", "id": 10285530303, "lat": 45.6658177, "lon": -108.7719782, "tags": {"amenity": "bar", "name": "Fowl Play Sports Bar & Casino"}}, {"type": "node", "id": 10285530305, "lat": 45.6648204, "lon": -108.7719884, "tags": {"brand": "Town Pump", "brand:wikidata": "Q7830004", "name": "Town Pump", "shop": "convenience"}}, {"type": "node", "id": 10285530310, "lat": 45.6666679, "lon": -108.7703376, "tags": {"brand": "Albertsons", "brand:wikidata": "Q2831861", "name": "Albertsons", "shop": "supermarket"}}, {"type": "node", "id": 10285530315, "lat": 45.6655994, "lon": -108.7695363, "tags": {"name": "MasterLube", "shop": "car_repair"}}, {"type": "node", "id": 10285530316, "lat": 45.6650141, "lon": -108.770743, "tags": {"amenity": "cafe", "name": "Mazevo Coffee"}}, {"type": "node", "id": 10285530318, "lat": 45.665092, "lon": -108.7707595, "tags": {"alt_name": "Verizon Wireless", "brand": "Verizon", "brand:wikidata": "Q919641", "name": "Verizon", "shop": "mobile_phone"}}, {"type": "node", "id": 10285530320, "lat": 45.6647439, "lon": -108.7707997, "tags": {"brand": "Conoco", "brand:wikidata": "Q109341187", "name": "Conoco", "shop": "convenience"}}, {"type": "node", "id": 10285530322, "lat": 45.6648821, "lon": -108.7686156, "tags": {"brand": "Chevrolet", "brand:wikidata": "Q29570", "name": "Laurel Chevrolet", "shop": "car"}}, {"type": "node", "id": 10300767687, "lat": 45.6659489, "lon": -108.7674753, "tags": {"brand": "CVS Pharmacy", "brand:website": "https://www.cvs.com/", "brand:wikidata": "Q2078880", "name": "CVS Pharmacy", "shop": "chemist", "short_name": "CVS", "website": "https://www.cvs.com/store-locator/laurel-mt-pharmacies/307-se-4th-st-laurel-mt-59044/storeid=5305"}}, {"type": "node", "id": 10300769567, "lat": 45.6676003, "lon": -108.7722722}, {"type": "node", "id": 10300769568, "lat": 45.667419, "lon": -108.772182}, {"type": "node", "id": 10300769569, "lat": 45.6675371, "lon": -108.7716962}, {"type": "node", "id": 10300769570, "lat": 45.6676398, "lon": -108.7717473}, {"type": "node", "id": 10300769571, "lat": 45.6675859, "lon": -108.7719687}, {"type": "node", "id": 10300769572, "lat": 45.6675309, "lon": -108.7719413}, {"type": "node", "id": 10300769573, "lat": 45.6675187, "lon": -108.7719916}, {"type": "node", "id": 10300769574, "lat": 45.6676523, "lon": -108.7720581}, {"type": "node", "id": 10300771117, "lat": 45.6645027, "lon": -108.7669584, "tags": {"addr:city": "Laurel", "addr:housenumber": "400", "addr:postcode": "59044", "addr:state": "MT", "addr:street": "Southeast 4th Street", "brand": "Tractor Supply Company", "brand:wikidata": "Q15109925", "name": "Tractor Supply Company", "opening_hours": "Mo-Sa 08:00-21:00; Su 09:00-19:00", "phone": "+1 406-628-2292", "ref": "1381", "shop": "country_store"}}, {"type": "node", "id": 10301559531, "lat": 45.6679115, "lon": -108.7600055}, {"type": "node", "id": 10301559532, "lat": 45.6675179, "lon": -108.7599987}, {"type": "node", "id": 10301559533, "lat": 45.6675168, "lon": -108.7601247}, {"type": "node", "id": 10301559534, "lat": 45.6671027, "lon": -108.7601175}, {"type": "node", "id": 10301559535, "lat": 45.6671056, "lon": -108.7597716}, {"type": "node", "id": 10301559536, "lat": 45.66713, "lon": -108.759772}, {"type": "node", "id": 10301559537, "lat": 45.6671321, "lon": -108.7595199}, {"type": "node", "id": 10301559538, "lat": 45.666999, "lon": -108.7595176}, {"type": "node", "id": 10301559539, "lat": 45.6669994, "lon": -108.7594774}, {"type": "node", "id": 10301559540, "lat": 45.6669825, "lon": -108.7594771}, {"type": "node", "id": 10301559541, "lat": 45.6669843, "lon": -108.7592599}, {"type": "node", "id": 10301559542, "lat": 45.6670078, "lon": -108.7592603}, {"type": "node", "id": 10301559543, "lat": 45.6670086, "lon": -108.7591557}, {"type": "node", "id": 10301559544, "lat": 45.6670602, "lon": -108.7591566}, {"type": "node", "id": 10301559545, "lat": 45.6670633, "lon": -108.7587918}, {"type": "node", "id": 10301559546, "lat": 45.6670033, "lon": -108.7587908}, {"type": "node", "id": 10301559547, "lat": 45.6670043, "lon": -108.7586755}, {"type": "node", "id": 10301559548, "lat": 45.6669837, "lon": -108.7586751}, {"type": "node", "id": 10301559549, "lat": 45.6669868, "lon": -108.7583024}, {"type": "node", "id": 10301559550, "lat": 45.6670562, "lon": -108.7583036}, {"type": "node", "id": 10301559551, "lat": 45.6670577, "lon": -108.7581266}, {"type": "node", "id": 10301559552, "lat": 45.667856, "lon": -108.7581404}, {"type": "node", "id": 10301559553, "lat": 45.667852, "lon": -108.7586151}, {"type": "node", "id": 10301559554, "lat": 45.6679982, "lon": -108.7586176}, {"type": "node", "id": 10301559555, "lat": 45.6679956, "lon": -108.758926}, {"type": "node", "id": 10301559556, "lat": 45.6679206, "lon": -108.7589247}, {"type": "node", "id": 10301559577, "lat": 45.6668581, "lon": -108.7628133, "tags": {"name": "Pet Palace", "shop": "pet_grooming"}}, {"type": "node", "id": 10301565520, "lat": 45.6648603, "lon": -108.7657929, "tags": {"brand": "Ford", "brand:wikidata": "Q44294", "name": "Laurel Ford", "shop": "car"}}, {"type": "node", "id": 10301565598, "lat": 45.6655428, "lon": -108.7661874, "tags": {"amenity": "cafe", "cuisine": "coffee_shop", "name": "Heidi's Coffee Cabin"}}, {"type": "node", "id": 10301565599, "lat": 45.6660669, "lon": -108.7658038, "tags": {"addr:city": "Laurel", "addr:housenumber": "415", "addr:postcode": "59044-3314", "addr:state": "MT", "addr:street": "Southeast 4th Street", "brand": "Ace Hardware", "brand:wikidata": "Q4672981", "name": "Ace Hardware", "opening_hours": "Mo-Fr 07:30-20:00; Sa 07:30-19:00; Su 08:30-18:00", "phone": "+1 406-628-8276", "ref": "15460", "shop": "doityourself"}}, {"type": "node", "id": 10301565601, "lat": 45.6660684, "lon": -108.7664788, "tags": {"name": "Cloudz Vape and Glass", "shop": "e-cigarette"}}, {"type": "node", "id": 10301565602, "lat": 45.6660753, "lon": -108.7663484, "tags": {"name": "Outlaw Tattoo", "shop": "tattoo"}}, {"type": "node", "id": 10301565620, "lat": 45.6650037, "lon": -108.7634969, "tags": {"name": "On Target Outdoors", "shop": "weapons"}}, {"type": "node", "id": 10301565662, "lat": 45.6667387, "lon": -108.764325, "tags": {"name": "Square One Cabinets", "shop": "kitchen"}}, {"type": "node", "id": 10301565696, "lat": 45.6671547, "lon": -108.7641131, "tags": {"name": "Canyon Creek Stations", "shop": "storage_rental"}}, {"type": "node", "id": 10301565712, "lat": 45.6649643, "lon": -108.7621582, "tags": {"brand": "O'Reilly Auto Parts", "brand:wikidata": "Q7071951", "name": "O'Reilly Auto Parts", "shop": "car_parts", "website": "https://locations.oreillyauto.com/mt/laurel/autoparts-4301.html"}}, {"type": "node", "id": 10301565814, "lat": 45.6655122, "lon": -108.7605684, "tags": {"brand": "AutoZone", "brand:wikidata": "Q4826087", "name": "AutoZone", "shop": "car_parts", "website": "https://www.autozone.com/locations/mt/laurel/321-bernhardt-rd.html"}}, {"type": "node", "id": 10301565818, "lat": 45.6663384, "lon": -108.7609024, "tags": {"addr:city": "Laurel", "addr:housenumber": "211", "addr:postcode": "59044", "addr:state": "MT", "addr:street": "Bernhardt Road", "amenity": "restaurant", "brand": "Pizza Hut", "brand:wikidata": "Q191615", "cuisine": "pizza", "name": "Pizza Hut", "phone": "+1 406-628-6382", "website": "https://locations.pizzahut.com/mt/laurel/211-bernhardt-road"}}, {"type": "node", "id": 10301577462, "lat": 45.6688857, "lon": -108.7655446, "tags": {"name": "BNSF Railway", "office": "yes"}}, {"type": "node", "id": 10307752244, "lat": 45.6674208, "lon": -108.7549044, "tags": {"name": "Fiberglass Structures Inc. Tank", "shop": "wholesale"}}, {"type": "node", "id": 10307752245, "lat": 45.6671719, "lon": -108.7541707, "tags": {"name": "Laurel Trading Post", "shop": "caravan"}}, {"type": "node", "id": 10307752246, "lat": 45.6674954, "lon": -108.7513815, "tags": {"name": "Midway Rental", "shop": "rental"}}, {"type": "node", "id": 10307752247, "lat": 45.6679119, "lon": -108.7495708, "tags": {"name": "Nana's Bloomers", "shop": "garden_centre"}}, {"type": "node", "id": 10659671068, "lat": 45.6603369, "lon": -108.7659456, "tags": {"name": "Cenex Pipeline", "office": "company"}}, {"type": "node", "id": 11757146058, "lat": 45.6655832, "lon": -108.7628154, "tags": {"addr:city": "Laurel", "addr:housenumber": "331", "addr:postcode": "59044", "addr:state": "MT", "addr:street": "South Washington Avenue", "addr:unit": "A", "amenity": "restaurant", "cuisine": "american", "name": "Carlton Depot", "source": "esri_USDOT_Montana"}}, {"type": "node", "id": 11844775072, "lat": 45.6664147, "lon": -108.770349, "tags": {"brand": "NAPA Auto Parts", "brand:wikidata": "Q6970842", "name": "NAPA Auto Parts", "shop": "car_parts"}}, {"type": "node", "id": 11844775074, "lat": 45.6644098, "lon": -108.7700829, "tags": {"amenity": "cafe", "name": "City Brew Coffee"}}, {"type": "way", "id": 1124746668, "nodes": [10285530092, 10285530093, 10285530094, 10285530095, 10285530092], "tags": {"addr:city": "Laurel", "addr:housenumber": "415", "addr:postcode": "59044", "addr:state": "MT", "addr:street": "South 1st Avenue", "amenity": "restaurant", "building": "yes", "name": "Chens Express", "source": "esri_USDOT_Montana;microsoft/BuildingFootprints"}}, {"type": "way", "id": 1126503602, "nodes": [10300769567, 10300769568, 10300769569, 10300769570, 10300769571, 10300769572, 10300769573, 10300769574, 10300769567], "tags": {"amenity": "restaurant", "building": "yes", "name": "Yourpie"}}, {"type": "way", "id": 1126592318, "nodes": [10301559531, 10301559532, 10301559533, 10301559534, 10301559535, 10301559536, 10301559537, 10301559538, 10301559539, 10301559540, 10301559541, 10301559542, 10301559543, 10301559544, 10301559545, 10301559546, 10301559547, 10301559548, 10301559549, 10301559550, 10301559551, 10301559552, 10301559553, 10301559554, 10301559555, 10301559556, 10301559531], "tags": {"addr:city": "Laurel", "addr:country": "US", "addr:housenumber": "101", "addr:postcode": "59044", "addr:state": "MT", "addr:street": "Bernhardt Road", "brand": "Walmart", "brand:wikidata": "Q483551", "building": "yes", "name": "Walmart Supercenter", "opening_hours": "24/7", "operator": "Walmart", "payment:app:walmart": "yes", "payment:apple_pay": "no", "payment:google_pay": "no", "payment:samsung_pay": "no", "phone": "+1 406-628-3000", "ref": "4412", "ref:walmart": "4412", "sensory_friendly:accommodation": "dimmed_light;static_screens;no_pa", "sensory_friendly:conditional": "yes @ 08:00-10:00", "shop": "supermarket", "source": "esri_USDOT_Montana", "website": "https://www.walmart.com/store/4412-laurel-mt"}}]}