{"version": 0.6, "generator": "Overpass API 0.7.62.8 e802775f", "osm3s": {"timestamp_osm_base": "2025-12-06T21:38:24Z", "copyright": "The data included in this document is from www.openstreetmap.org. The data is made available under ODbL."}, "elements": [{"type": "node", "id": 4345466010, "lat": 47.3075196, "lon": -122.2272687}, {"type": "node", "id": 4958673281, "lat": 47.3078344, "lon": -122.2272961}, {"type": "node", "id": 4971892478, "lat": 47.3159074, "lon": -122.2155941, "tags": {"leisure": "fitness_centre", "name": "Summit Fitness"}}, {"type": "node", "id": 6172451817, "lat": 47.3078264, "lon": -122.2274956}, {"type": "node", "id": 6172451818, "lat": 47.3075116, "lon": -122.2274682}, {"type": "node", "id": 6177981294, "lat": 47.3092479, "lon": -122.2263484, "tags": {"leisure": "fitness_centre", "name": "Longevita Pilates & Yoga Studio"}}, {"type": "node", "id": 6177981301, "lat": 47.3075939, "lon": -122.226453, "tags": {"leisure": "fitness_centre", "name": "Corestar Pilates"}}, {"type": "way", "id": 506082275, "nodes": [6172451818, 6172451817, 4958673281, 4345466010, 6172451818], "tags": {"addr:city": "Auburn", "addr:housenumber": "131", "addr:postcode": "98002", "addr:state": "WA", "addr:street": "East Main Street", "building": "yes", "leisure": "fitness_centre", "name": "Turning Point Studios"}}]}