{"version": 0.6, "generator": "Overpass API 0.7.62.8 e802775f", "osm3s": {"timestamp_osm_base": "2025-12-06T16:47:30Z", "copyright": "The data included in this document is from www.openstreetmap.org. The data is made available under ODbL."}, "elements": [{"type": "node", "id": 1837170305, "lat": 47.4258425, "lon": -122.3407}, {"type": "node", "id": 1837170306, "lat": 47.424233, "lon": -122.3440932}, {"type": "node", "id": 1837170308, "lat": 47.4242585, "lon": -122.3406244}, {"type": "node", "id": 1837170309, "lat": 47.4257821, "lon": -122.3457265}, {"type": "node", "id": 2761673016, "lat": 47.4053057, "lon": -122.3283781}, {"type": "node", "id": 2761673021, "lat": 47.4053834, "lon": -122.3284962}, {"type": "node", "id": 2761673026, "lat": 47.4057238, "lon": -122.3279397}, {"type": "node", "id": 2761673029, "lat": 47.4056477, "lon": -122.3278341}, {"type": "node", "id": 3526942396, "lat": 47.4134068, "lon": -122.3394752, "tags": {"amenity": "bench"}}, {"type": "node", "id": 3526942397, "lat": 47.4134279, "lon": -122.34194, "tags": {"amenity": "bench"}}, {"type": "node", "id": 3526942415, "lat": 47.4142169, "lon": -122.339686, "tags": {"amenity": "bench"}}, {"type": "node", "id": 3526942423, "lat": 47.4143711, "lon": -122.3400565, "tags": {"amenity": "bench"}}, {"type": "node", "id": 4331007808, "lat": 47.4243796, "lon": -122.3364835, "tags": {"addr:unit": "302", "amenity": "restaurant", "cuisine": "vietnamese", "name": "Rose Pho", "opening_hours": "Mo-Sa 10:30-21:00; Su 11:00-21:00", "phone": "+1-206-592-2451", "website": "http://rose-pho.com"}}, {"type": "node", "id": 4331007809, "lat": 47.4240722, "lon": -122.335741, "tags": {"addr:city": "Normandy Park", "addr:housenumber": "19893", "addr:postcode": "98148", "addr:state": "WA", "addr:street": "1st Avenue", "addr:unit": "201", "amenity": "fast_food", "branch": "1st Avenue South", "brand": "Papa John's", "brand:wikidata": "Q2759586", "cuisine": "pizza", "name": "Papa John's", "opening_hours": "Mo-Th 10:30-23:00; Fr-Sa 10:30-24:00; Su 10:30-23:00", "phone": "+1-206-248-3333", "takeaway": "yes", "website": "https://locations.papajohns.com/united-states/wa/98148/normandy-park/19893-1st-ave"}}, {"type": "node", "id": 4331007810, "lat": 47.4238168, "lon": -122.335696, "tags": {"addr:city": "Normandy Park", "addr:housenumber": "19987", "addr:postcode": "98148", "addr:state": "WA", "addr:street": "1st Avenue", "addr:unit": "107", "amenity": "fast_food", "brand": "Subway", "brand:wikidata": "Q244457", "cuisine": "sandwich", "indoor_seating": "yes", "name": "Subway", "opening_hours": "Mo-Su 10:00-21:00", "outdoor_seating": "no", "phone": "+1-206-429-3090", "takeaway": "yes", "website": "https://restaurants.subway.com/united-states/wa/normandy-park/19987-1st-ave"}}, {"type": "node", "id": 4331007811, "lat": 47.4242425, "lon": -122.3357341, "tags": {"addr:unit": "204", "alt_name": "Soggy Doggy", "name": "Soggy Dog", "opening_hours": "Th-Mo 10:00-20:00; Tu-We off", "phone": "+1-206-824-6600", "shop": "pet", "website": "https://thesoggydoggy.com/"}}, {"type": "node", "id": 4331007812, "lat": 47.4243401, "lon": -122.3370586, "tags": {"addr:unit": "409", "amenity": "doctors", "healthcare": "doctor", "name": "Marina Medical"}}, {"type": "node", "id": 4331091102, "lat": 47.4246191, "lon": -122.3372757, "tags": {"addr:unit": "101", "amenity": "childcare", "name": "Auntie's Playhouse Childcare Center", "phone": "+1-206-592-6141", "website": "http://www.auntiesplayhouse.com"}}, {"type": "node", "id": 4331096505, "lat": 47.424039, "lon": -122.3370547, "tags": {"addr:city": "Normandy Park", "addr:housenumber": "19901", "addr:postcode": "98148-2411", "addr:state": "WA", "addr:street": "1st Avenue South", "addr:unit": "402", "brand": "Ace Hardware", "brand:wikidata": "Q4672981", "name": "Ace Hardware", "opening_hours": "Mo-Sa 08:00-19:00; Su 09:00-18:00", "phone": "+1-206-824-2288", "ref": "15827", "shop": "doityourself"}}, {"type": "node", "id": 4331097608, "lat": 47.4243715, "lon": -122.3363516, "tags": {"addr:unit": "301", "amenity": "cafe", "cuisine": "coffee_shop", "name": "Empire Coffee"}}, {"type": "node", "id": 4350084569, "lat": 47.4050809, "lon": -122.3288064}, {"type": "node", "id": 4350084570, "lat": 47.4050464, "lon": -122.3287528}, {"type": "node", "id": 4350084571, "lat": 47.4048403, "lon": -122.329029}, {"type": "node", "id": 4350084572, "lat": 47.4047124, "lon": -122.3291859}, {"type": "node", "id": 4350084573, "lat": 47.4046652, "lon": -122.3292409}, {"type": "node", "id": 4350084574, "lat": 47.4046615, "lon": -122.3293321}, {"type": "node", "id": 4405111253, "lat": 47.4053269, "lon": -122.3284426, "tags": {"amenity": "bicycle_parking", "bicycle_parking": "stands", "covered": "no"}}, {"type": "node", "id": 4405134003, "lat": 47.4051453, "lon": -122.3286258, "tags": {"amenity": "drinking_water"}}, {"type": "node", "id": 5877079603, "lat": 47.4250829, "lon": -122.3357049, "tags": {"amenity": "pub", "name": "Normandy Park Alehouse"}}, {"type": "node", "id": 6102529174, "lat": 47.4161697, "lon": -122.3348149}, {"type": "node", "id": 6102529178, "lat": 47.416238, "lon": -122.3348116}, {"type": "node", "id": 6102529182, "lat": 47.4162409, "lon": -122.3349418}, {"type": "node", "id": 6102529186, "lat": 47.4161726, "lon": -122.3349451}, {"type": "node", "id": 6102532308, "lat": 47.4221683, "lon": -122.3361889}, {"type": "node", "id": 6102532309, "lat": 47.4219997, "lon": -122.3361789}, {"type": "node", "id": 6102532311, "lat": 47.4221765, "lon": -122.3358915}, {"type": "node", "id": 6102532312, "lat": 47.4219732, "lon": -122.3356102}, {"type": "node", "id": 6102532313, "lat": 47.4220859, "lon": -122.3356168}, {"type": "node", "id": 6102532314, "lat": 47.422005, "lon": -122.33599}, {"type": "node", "id": 6102532315, "lat": 47.4219628, "lon": -122.3359878}, {"type": "node", "id": 6102532332, "lat": 47.4221812, "lon": -122.335692}, {"type": "node", "id": 6102532333, "lat": 47.4222727, "lon": -122.3357682}, {"type": "node", "id": 6102532334, "lat": 47.4220853, "lon": -122.335637}, {"type": "node", "id": 6102532335, "lat": 47.4221829, "lon": -122.3356422}, {"type": "node", "id": 6102532338, "lat": 47.4222563, "lon": -122.3357966}, {"type": "node", "id": 6102532339, "lat": 47.4222727, "lon": -122.3358288}, {"type": "node", "id": 6110341252, "lat": 47.4300069, "lon": -122.3372949}, {"type": "node", "id": 6110341253, "lat": 47.429828, "lon": -122.3372817}, {"type": "node", "id": 6110341254, "lat": 47.4299555, "lon": -122.337059}, {"type": "node", "id": 6110341255, "lat": 47.4300132, "lon": -122.3370614}, {"type": "node", "id": 6110341256, "lat": 47.4298879, "lon": -122.3366187}, {"type": "node", "id": 6110341257, "lat": 47.4299341, "lon": -122.3364799}, {"type": "node", "id": 6110341258, "lat": 47.429847, "lon": -122.3367331}, {"type": "node", "id": 6110341259, "lat": 47.4299095, "lon": -122.3366786}, {"type": "node", "id": 6110341264, "lat": 47.429931, "lon": -122.3368691}, {"type": "node", "id": 6110341265, "lat": 47.4299256, "lon": -122.3370276}, {"type": "node", "id": 6110341267, "lat": 47.4299579, "lon": -122.3368482}, {"type": "node", "id": 6110341276, "lat": 47.4300658, "lon": -122.3364734}, {"type": "node", "id": 6110341277, "lat": 47.430054, "lon": -122.3365001}, {"type": "node", "id": 6110341278, "lat": 47.4300312, "lon": -122.33648}, {"type": "node", "id": 6110341279, "lat": 47.4300431, "lon": -122.3364532}, {"type": "node", "id": 6110341282, "lat": 47.4301009, "lon": -122.3366335}, {"type": "node", "id": 6110341283, "lat": 47.4300946, "lon": -122.336855}, {"type": "node", "id": 6126154100, "lat": 47.4046971, "lon": -122.3289441}, {"type": "node", "id": 6126154101, "lat": 47.4048278, "lon": -122.3287697}, {"type": "node", "id": 6126154102, "lat": 47.4048967, "lon": -122.3288825}, {"type": "node", "id": 6126154103, "lat": 47.404766, "lon": -122.3290569}, {"type": "node", "id": 6313248286, "lat": 47.4049682, "lon": -122.328789, "tags": {"amenity": "toilets", "changing_table": "yes", "wheelchair": "yes"}}, {"type": "node", "id": 6703555430, "lat": 47.4299693, "lon": -122.3361956}, {"type": "node", "id": 6703555435, "lat": 47.4302269, "lon": -122.3364299}, {"type": "node", "id": 6703555436, "lat": 47.4301498, "lon": -122.3364876}, {"type": "node", "id": 6703555437, "lat": 47.4301339, "lon": -122.3363611}, {"type": "node", "id": 6703555438, "lat": 47.4301076, "lon": -122.336289}, {"type": "node", "id": 6703555439, "lat": 47.4300497, "lon": -122.3362287}, {"type": "node", "id": 7284307935, "lat": 47.4300061, "lon": -122.3360625}, {"type": "node", "id": 7284307936, "lat": 47.4301387, "lon": -122.3361397}, {"type": "node", "id": 7284307937, "lat": 47.4302062, "lon": -122.3362905}, {"type": "node", "id": 7284307944, "lat": 47.4299345, "lon": -122.3360679}, {"type": "node", "id": 9325841387, "lat": 47.4169716, "lon": -122.3350137, "tags": {"name": "Point of View Salon", "shop": "hairdresser"}}, {"type": "node", "id": 9325841388, "lat": 47.4170674, "lon": -122.3350246, "tags": {"amenity": "dentist", "healthcare": "dentist", "name": "Vivian Bae Family Dental Care"}}, {"type": "node", "id": 9325841390, "lat": 47.4235408, "lon": -122.335695, "tags": {"name": "Pier View Salon", "shop": "hairdresser"}}, {"type": "node", "id": 9325841391, "lat": 47.4236375, "lon": -122.3357026, "tags": {"name": "Mia Bella Salon", "shop": "hairdresser"}}, {"type": "node", "id": 9325841392, "lat": 47.4241452, "lon": -122.3357388, "tags": {"amenity": "veterinary", "name": "Priceless Pet Clinic"}}, {"type": "node", "id": 9325841393, "lat": 47.4243773, "lon": -122.3357419, "tags": {"beauty": "tanning", "name": "Desert Sun Tanning Salon", "shop": "beauty"}}, {"type": "node", "id": 9325841394, "lat": 47.4243217, "lon": -122.3357388, "tags": {"beauty": "nails", "name": "BK Nails Spa", "shop": "beauty"}}, {"type": "node", "id": 9325841395, "lat": 47.4244454, "lon": -122.335749, "tags": {"brand": "T-Mobile", "brand:wikidata": "Q3511885", "name": "T-Mobile", "shop": "mobile_phone", "website": "https://www.t-mobile.com/stores/bd/t-mobile-normandy-park-wa-98148-5374"}}, {"type": "node", "id": 9325841398, "lat": 47.4250689, "lon": -122.336047, "tags": {"name": "International Frieght Systems", "office": "yes"}}, {"type": "node", "id": 9325841409, "lat": 47.4269922, "lon": -122.3360126, "tags": {"name": "Posh Beauty Bar", "shop": "beauty"}}, {"type": "node", "id": 9325841410, "lat": 47.4267013, "lon": -122.3359458, "tags": {"brand": "Farmers Insurance", "brand:wikidata": "Q1396863", "name": "Farmers Insurance", "office": "insurance"}}, {"type": "node", "id": 12054093353, "lat": 47.4040078, "lon": -122.3303276, "tags": {"amenity": "bench", "backrest": "yes", "material": "composite"}}, {"type": "node", "id": 12054093360, "lat": 47.404576, "lon": -122.3292286, "tags": {"amenity": "bench", "backrest": "yes"}}, {"type": "node", "id": 12150618642, "lat": 47.4241291, "lon": -122.3369802, "tags": {"amenity": "polling_station", "polling_station": "ballot_box"}}, {"type": "node", "id": 13075413905, "lat": 47.4249171, "lon": -122.3370565, "tags": {"brand": "Grocery Outlet", "brand:wikidata": "Q5609934", "name": "Grocery Outlet", "official_name": "Grocery Outlet Bargain Market", "opening_hours": "Mo-Su 07:00-21:00", "shop": "supermarket", "wheelchair": "yes"}}, {"type": "way", "id": 172869526, "nodes": [1837170309, 1837170305, 1837170308, 1837170306, 1837170309], "tags": {"amenity": "school", "name": "Marvista Elementary School", "operator": "Highline School District"}}, {"type": "way", "id": 271202619, "nodes": [2761673016, 2761673021, 2761673026, 2761673029, 2761673016], "tags": {"amenity": "parking", "fee": "yes", "park_ride": "yes", "parking": "surface", "supervised": "no"}}, {"type": "way", "id": 437188814, "nodes": [4350084569, 4350084570, 4350084571, 4350084572, 4350084573, 4350084574, 4350084569], "tags": {"amenity": "parking", "fee": "yes", "parking": "surface"}}, {"type": "way", "id": 650541361, "nodes": [6102529178, 6102529174, 6102529186, 6102529182, 6102529178], "tags": {"addr:city": "Des Moines", "addr:housenumber": "20738", "addr:postcode": "98198", "addr:state": "WA", "addr:street": "1st Avenue South", "amenity": "cafe", "building": "yes", "cuisine": "coffee_shop", "name": "Espresso"}}, {"type": "way", "id": 650544384, "nodes": [6102532339, 6102532338, 6102532333, 6102532332, 6102532335, 6102532334, 6102532313, 6102532312, 6102532315, 6102532314, 6102532309, 6102532308, 6102532311, 6102532339], "tags": {"addr:city": "Normandy Park", "addr:housenumber": "20107", "addr:postcode": "98198", "addr:state": "WA", "addr:street": "1st Avenue South", "amenity": "place_of_worship", "building": "yes", "name": "New Life Church", "religion": "christian"}}, {"type": "way", "id": 651649657, "nodes": [6110341283, 6110341282, 6110341277, 6110341276, 6110341279, 6110341278, 6110341257, 6110341256, 6110341259, 6110341258, 6110341253, 6110341252, 6110341255, 6110341254, 6110341265, 6110341264, 6110341267, 6110341283], "tags": {"addr:city": "Normandy Park", "addr:housenumber": "19247", "addr:postcode": "98148", "addr:state": "WA", "addr:street": "1st Avenue South", "amenity": "place_of_worship", "building": "yes", "name": "Normandy Park United Church of Christ", "religion": "christian"}}, {"type": "way", "id": 653706049, "nodes": [6126154103, 6126154102, 6126154101, 6126154100, 6126154103], "tags": {"addr:city": "Des Moines", "addr:housenumber": "22030", "addr:postcode": "98198", "addr:state": "WA", "addr:street": "Cliff Avenue South", "addr:unit": "C", "amenity": "shelter", "building": "picnic_shelter", "building:colour": "red", "shelter_type": "picnic_shelter"}}, {"type": "way", "id": 713109991, "nodes": [6703555430, 7284307944, 7284307935, 7284307936, 7284307937, 6703555435, 6703555436, 6703555437, 6703555438, 6703555439, 6703555430], "tags": {"access": "yes", "amenity": "parking", "capacity": "10", "fee": "no", "name": "Normandy Park Congregational Park & Ride", "park_ride": "yes", "parking": "surface", "surface": "asphalt"}}]}