{"version": 0.6, "generator": "Overpass API 0.7.62.8 e802775f", "osm3s": {"timestamp_osm_base": "2025-12-06T19:46:00Z", "copyright": "The data included in this document is from www.openstreetmap.org. The data is made available under ODbL."}, "elements": [{"type": "node", "id": 2350317121, "lat": 47.5761404, "lon": -122.3338905, "tags": {"addr:city": "Seattle", "addr:housenumber": "2946", "addr:postcode": "98134", "addr:state": "WA", "addr:street": "1st Avenue South", "check_date": "2024-06-22", "leisure": "fitness_centre", "name": "The Athletic Form", "source": "King County GIS;data.seattle.gov"}}, {"type": "node", "id": 2373916340, "lat": 47.5753543, "lon": -122.3095222, "tags": {"addr:city": "Seattle", "addr:housenumber": "3063", "addr:postcode": "98144", "addr:state": "WA", "addr:street": "Beacon Avenue South", "check_date": "2025-03-19", "leisure": "fitness_centre", "name": "Yoga on Beacon", "short_name": "Yo Be", "source": "King County GIS;data.seattle.gov", "sport": "yoga"}}, {"type": "node", "id": 2434527263, "lat": 47.5981017, "lon": -122.324341, "tags": {"addr:city": "Seattle", "addr:housenumber": "511", "addr:postcode": "98104", "addr:state": "WA", "addr:street": "Maynard Alley South", "amenity": "place_of_worship", "denomination": "experimential", "leisure": "fitness_centre", "name": "Mother Yoga Seattle", "religion": "spiritualist", "service_times": "06:30", "source": "King County GIS;data.seattle.gov", "sport": "yoga", "website": "https://www.motheryogaseattle.com"}}, {"type": "node", "id": 2936142194, "lat": 47.5773334, "lon": -122.2976967, "tags": {"addr:city": "Seattle", "addr:housenumber": "2909", "addr:postcode": "98144", "addr:state": "WA", "addr:street": "Rainier Avenue South", "leisure": "fitness_centre", "source:addr:id": "1086816"}}, {"type": "node", "id": 4359053791, "lat": 47.5993506, "lon": -122.320798, "tags": {"addr:city": "Seattle", "addr:housenumber": "900", "addr:postcode": "98104", "addr:state": "WA", "addr:street": "South Jackson Street", "leisure": "fitness_centre"}}, {"type": "node", "id": 4439632989, "lat": 47.5609518, "lon": -122.3389816, "tags": {"check_date": "2025-03-22", "leisure": "fitness_centre", "name": "Arena Sports Indoor Soccer", "name:en": "Arena Sports Indoor Soccer"}}, {"type": "node", "id": 6737269589, "lat": 47.5972677, "lon": -122.3246731, "tags": {"leisure": "fitness_centre", "name": "Northwest Kung Fu Fitness Studios"}}, {"type": "node", "id": 10978328410, "lat": 47.5758162, "lon": -122.3337242, "tags": {"branch": "Main", "check_date": "2023-06-14", "leisure": "fitness_centre", "name": "Raven Studios", "website": "https://www.ravenstudiosseattle.com"}}, {"type": "node", "id": 11756473372, "lat": 47.5993549, "lon": -122.308309, "tags": {"addr:housenumber": "1800", "addr:state": "WA", "addr:street": "South Jackson Street", "addr:unit": "B", "check_date": "2024-03-23", "leisure": "fitness_centre", "name": "M Bodied"}}, {"type": "node", "id": 11756473374, "lat": 47.5990715, "lon": -122.3087627, "tags": {"addr:housenumber": "1801", "addr:state": "WA", "addr:street": "South Jackson Street", "brand": "F45 Training", "brand:wikidata": "Q64390973", "check_date": "2024-03-23", "leisure": "fitness_centre", "name": "F45 Training", "short_name": "F45"}}, {"type": "node", "id": 11882656388, "lat": 47.5803922, "lon": -122.3294217, "tags": {"addr:housenumber": "2445", "addr:street": "4th Avenue South", "addr:unit": "102", "check_date": "2024-05-05", "leisure": "fitness_centre", "name": "Yoga Rama", "sport": "yoga"}}, {"type": "node", "id": 12060515169, "lat": 47.5758262, "lon": -122.3304938, "tags": {"addr:housenumber": "270", "addr:street": "South Hanford Street", "leisure": "fitness_centre", "name": "The Nest"}}, {"type": "node", "id": 12373079737, "lat": 47.5830754, "lon": -122.3293527, "tags": {"addr:city": "Seattle", "addr:housenumber": "2227", "addr:postcode": "98134", "addr:state": "WA", "addr:street": "4th Avenue South", "leisure": "fitness_centre", "name": "RCF Barbell Sodo", "opening_hours": "24/7", "sport": "weightlifting;olympic_weightlifting;strength_training;fitness", "website": "https://www.rcfbarbellclub.com/"}}]}