{"version": 0.6, "generator": "Overpass API 0.7.62.8 e802775f", "osm3s": {"timestamp_osm_base": "2025-12-06T05:11:34Z", "copyright": "The data included in this document is from www.openstreetmap.org. The data is made available under ODbL."}, "elements": [{"type": "node", "id": 1328829588, "lat": 46.7315262, "lon": -117.0016577, "tags": {"addr:city": "Moscow", "addr:country": "US", "addr:county": "Latah", "addr:housenumber": "403", "addr:postcode": "83843", "addr:state": "ID", "addr:street": "South Main Street", "shop": "religion"}}, {"type": "node", "id": 1328830006, "lat": 46.7318388, "lon": -117.0016523, "tags": {"addr:city": "Moscow", "addr:housenumber": "313", "addr:postcode": "83843", "addr:state": "ID", "addr:street": "South Main Street", "amenity": "bar", "name": "The Garden Lounge", "opening_hours": "Mo-Fr 15:00-02:00; Sa-Su 17:00-02:00", "outdoor_seating": "no", "phone": "+1-208-882-8513"}}, {"type": "node", "id": 1448530704, "lat": 46.7218033, "lon": -116.9822182}, {"type": "node", "id": 1448530705, "lat": 46.721114, "lon": -116.9824156}, {"type": "node", "id": 1448530706, "lat": 46.7204704, "lon": -116.9828769}, {"type": "node", "id": 1448530707, "lat": 46.721362, "lon": -116.9822075}, {"type": "node", "id": 1448530708, "lat": 46.7226751, "lon": -116.982422}, {"type": "node", "id": 1448530709, "lat": 46.7217997, "lon": -116.9826527}, {"type": "node", "id": 1448530710, "lat": 46.7206045, "lon": -116.9824757}, {"type": "node", "id": 1448530711, "lat": 46.7211524, "lon": -116.9825079}, {"type": "node", "id": 1448530712, "lat": 46.7209706, "lon": -116.9822869}, {"type": "node", "id": 1448530713, "lat": 46.7225942, "lon": -116.9824971}, {"type": "node", "id": 1448530714, "lat": 46.7206727, "lon": -116.9827911}, {"type": "node", "id": 1448530715, "lat": 46.7206964, "lon": -116.9835164}, {"type": "node", "id": 1448530716, "lat": 46.7214045, "lon": -116.982303}, {"type": "node", "id": 1448530717, "lat": 46.7206449, "lon": -116.9831516}, {"type": "node", "id": 1448530718, "lat": 46.7207278, "lon": -116.9836011}, {"type": "node", "id": 1448530719, "lat": 46.7207168, "lon": -116.9834027}, {"type": "node", "id": 1448530720, "lat": 46.7212958, "lon": -116.9832374}, {"type": "node", "id": 1448530721, "lat": 46.7224986, "lon": -116.9825615}, {"type": "node", "id": 1448530722, "lat": 46.7218293, "lon": -116.9832267}, {"type": "node", "id": 1448530723, "lat": 46.7205309, "lon": -116.9831516}, {"type": "node", "id": 1448530724, "lat": 46.7211156, "lon": -116.9833769}, {"type": "node", "id": 1448530725, "lat": 46.7220841, "lon": -116.9825586}, {"type": "node", "id": 1448530726, "lat": 46.7226972, "lon": -116.9824971}, {"type": "node", "id": 1448530727, "lat": 46.7226438, "lon": -116.9825551}, {"type": "node", "id": 1448530728, "lat": 46.7210163, "lon": -116.9824703}, {"type": "node", "id": 1448530729, "lat": 46.7226659, "lon": -116.9832203}, {"type": "node", "id": 1448530730, "lat": 46.7214503, "lon": -116.9821377}, {"type": "node", "id": 1448530731, "lat": 46.7214613, "lon": -116.9822075}, {"type": "node", "id": 1448530732, "lat": 46.7218366, "lon": -116.9826473}, {"type": "node", "id": 1448530733, "lat": 46.7220828, "lon": -116.9826366}, {"type": "node", "id": 1448530734, "lat": 46.7224986, "lon": -116.9824757}, {"type": "node", "id": 1518564284, "lat": 46.7236736, "lon": -116.9958723}, {"type": "node", "id": 1518564286, "lat": 46.72368, "lon": -116.995514}, {"type": "node", "id": 1518564289, "lat": 46.7237867, "lon": -116.9958765}, {"type": "node", "id": 1518564292, "lat": 46.723793, "lon": -116.9955183}, {"type": "node", "id": 1518564345, "lat": 46.7244487, "lon": -116.996224}, {"type": "node", "id": 1518564351, "lat": 46.7244499, "lon": -116.996649}, {"type": "node", "id": 1518564361, "lat": 46.7245691, "lon": -116.9962232}, {"type": "node", "id": 1518564363, "lat": 46.7245703, "lon": -116.9966482}, {"type": "node", "id": 1518570213, "lat": 46.7249194, "lon": -116.9975243}, {"type": "node", "id": 1518570217, "lat": 46.7249194, "lon": -116.9976693}, {"type": "node", "id": 1518570220, "lat": 46.7250076, "lon": -116.9975243}, {"type": "node", "id": 1518570224, "lat": 46.7250076, "lon": -116.9976693}, {"type": "node", "id": 1518570240, "lat": 46.7251726, "lon": -116.9980806}, {"type": "node", "id": 1518570243, "lat": 46.7251726, "lon": -116.9983456}, {"type": "node", "id": 1518570246, "lat": 46.7254354, "lon": -116.9980806}, {"type": "node", "id": 1518570249, "lat": 46.7254354, "lon": -116.9983456}, {"type": "node", "id": 2453585657, "lat": 46.7306513, "lon": -117.0001489}, {"type": "node", "id": 2453585658, "lat": 46.7302081, "lon": -117.0016277, "tags": {"addr:city": "Moscow", "addr:country": "US", "addr:county": "Latah", "addr:housenumber": "533", "addr:postcode": "83843", "addr:state": "ID", "addr:street": "South Main Street", "amenity": "cafe", "cuisine": "coffee_shop", "internet_access": "wlan", "internet_access:fee": "no", "name": "One World Cafe", "opening_hours": "Mo-Su 06:30-21:00", "outdoor_seating": "yes", "phone": "+1-208-883-3537", "toilets:wheelchair": "yes", "website": "https://www.owc-moscow.com/", "wheelchair": "yes"}}, {"type": "node", "id": 2494027616, "lat": 46.7304345, "lon": -117.0016175, "tags": {"addr:city": "Moscow", "addr:country": "US", "addr:county": "Latah", "addr:housenumber": "527", "addr:postcode": "83843", "addr:state": "ID", "addr:street": "South Main Street", "amenity": "restaurant", "cuisine": "greek", "name": "Mikey's Greek Gyros", "phone": "+1-208-882-0780", "toilets:wheelchair": "no", "wheelchair": "limited"}}, {"type": "node", "id": 2494027617, "lat": 46.7299345, "lon": -117.0018052, "tags": {"addr:city": "Moscow", "addr:housenumber": "105", "addr:postcode": "83843", "addr:state": "ID", "addr:street": "West 6th Street", "amenity": "restaurant", "cuisine": "regional", "name": "Nectar", "opening_hours": "Mo-Sa 16:00-22:00", "phone": "+1-208-882-5914", "toilets:wheelchair": "no", "website": "https://moscownectar.com/", "wheelchair": "yes"}}, {"type": "node", "id": 2494070860, "lat": 46.7311898, "lon": -117.0016308, "tags": {"addr:city": "Moscow", "addr:country": "US", "addr:housenumber": "415", "addr:postcode": "83843", "addr:state": "ID", "addr:street": "South Main Street", "amenity": "restaurant", "cuisine": "mexican", "name": "La Casa Lopez", "opening_hours": "Su-Mo 11:00-21:00,Tu-Sa 11:00-22:00", "outdoor_seating": "yes", "phone": "+1-208-883-0536", "takeaway": "yes", "website": "http://lacasalopez.com"}}, {"type": "node", "id": 2494070867, "lat": 46.7310023, "lon": -117.0016121, "tags": {"addr:city": "Moscow", "addr:country": "US", "addr:housenumber": "501", "addr:postcode": "83843", "addr:state": "ID", "addr:street": "South Main Street", "amenity": "restaurant", "cuisine": "breakfast", "name": "The Breakfast Club", "opening_hours": "Mo-Su 07:00-14:00", "phone": "+1-208-882-6481", "website": "https://thebreakfastclubmoscow.com/", "wheelchair": "limited"}}, {"type": "node", "id": 2494070879, "lat": 46.7302871, "lon": -117.0007699, "tags": {"addr:city": "Moscow", "addr:housenumber": "114", "addr:postcode": "83843", "addr:state": "ID", "addr:street": "East 6th Street", "amenity": "bar", "name": "John's Alley Tavern"}}, {"type": "node", "id": 2494070883, "lat": 46.7330098, "lon": -117.0017, "tags": {"addr:city": "Moscow", "addr:housenumber": "201", "addr:postcode": "83843", "addr:state": "ID", "addr:street": "South Main Street", "amenity": "cafe", "cuisine": "coffee_shop", "diet:vegetarian": "yes", "internet_access": "yes", "name": "Bucer's Coffeehouse Pub", "opening_hours": "Mo-Th 07:00-22:00; Fr-Sa 07:00-23:00", "phone": "+1-208-596-0887", "website": "https://bucerspub.com/"}}, {"type": "node", "id": 2494144844, "lat": 46.7305902, "lon": -117.0015941}, {"type": "node", "id": 2494144855, "lat": 46.7306972, "lon": -117.0015954}, {"type": "node", "id": 2494144859, "lat": 46.7306954, "lon": -117.0018743}, {"type": "node", "id": 2494144860, "lat": 46.7305872, "lon": -117.0018716}, {"type": "node", "id": 2610853451, "lat": 46.7241681, "lon": -116.9957584}, {"type": "node", "id": 2610853452, "lat": 46.7241678, "lon": -116.9955753}, {"type": "node", "id": 2610853453, "lat": 46.7245444, "lon": -116.9957569}, {"type": "node", "id": 2610853454, "lat": 46.7245441, "lon": -116.9955738}, {"type": "node", "id": 2700932777, "lat": 46.7303692, "lon": -117.0006549}, {"type": "node", "id": 2700932778, "lat": 46.7302646, "lon": -117.0006539}, {"type": "node", "id": 2700932779, "lat": 46.7302664, "lon": -117.0001459}, {"type": "node", "id": 2700932781, "lat": 46.7306499, "lon": -117.0005669}, {"type": "node", "id": 2700932782, "lat": 46.7306217, "lon": -117.0005669}, {"type": "node", "id": 2700932783, "lat": 46.7306215, "lon": -117.0006189}, {"type": "node", "id": 2700932784, "lat": 46.7303693, "lon": -117.0006169}, {"type": "node", "id": 2710455019, "lat": 46.7315344, "lon": -117.001171, "tags": {"addr:housenumber": "401", "addr:postcode": "83843", "addr:state": "ID", "addr:street": "South Main Street", "name": "Hyperspud Sports", "opening_hours": "Mo-Fr 10:00-18:00; Sa 09:00-18:00; Su 12:00-16:00", "phone": "+1-208-883-1150", "shop": "outdoor", "website": "https://www.hyperspud.com/"}}, {"type": "node", "id": 3451338601, "lat": 46.7297546, "lon": -117.0007171}, {"type": "node", "id": 3451338602, "lat": 46.7297555, "lon": -117.0009821}, {"type": "node", "id": 3451338604, "lat": 46.7297563, "lon": -117.0012188}, {"type": "node", "id": 3451338613, "lat": 46.7298538, "lon": -117.0012181}, {"type": "node", "id": 3451338614, "lat": 46.7298666, "lon": -117.0011743}, {"type": "node", "id": 3451338616, "lat": 46.7298793, "lon": -117.0011288}, {"type": "node", "id": 3451338625, "lat": 46.729899, "lon": -117.0010865}, {"type": "node", "id": 3451338628, "lat": 46.7299267, "lon": -117.0010443}, {"type": "node", "id": 3451338633, "lat": 46.7299499, "lon": -117.0010123}, {"type": "node", "id": 3451338637, "lat": 46.7299788, "lon": -117.0009852}, {"type": "node", "id": 3451338639, "lat": 46.7300043, "lon": -117.00097}, {"type": "node", "id": 3451338642, "lat": 46.730034, "lon": -117.0007152}, {"type": "node", "id": 3451338643, "lat": 46.7300348, "lon": -117.0009616}, {"type": "node", "id": 4371622349, "lat": 46.7320328, "lon": -117.0016011}, {"type": "node", "id": 4371622356, "lat": 46.7321005, "lon": -117.0016011}, {"type": "node", "id": 4371622357, "lat": 46.7320958, "lon": -117.0019791}, {"type": "node", "id": 4371622358, "lat": 46.7320273, "lon": -117.0019788}, {"type": "node", "id": 4371622362, "lat": 46.7320702, "lon": -117.001979}, {"type": "node", "id": 4371622392, "lat": 46.7307685, "lon": -117.0016154, "tags": {"addr:city": "Moscow", "addr:country": "US", "addr:county": "Latah", "addr:housenumber": "521", "addr:postcode": "83843", "addr:state": "ID", "addr:street": "South Main Street", "name": "BookPeople of Moscow", "opening_hours": "Mo-Sa 10:00-18:00; Su 10:00-16:00", "phone": "+1-208-882-2669", "shop": "books", "website": "https://www.bookpeopleofmoscow.com/"}}, {"type": "node", "id": 4371622393, "lat": 46.7304545, "lon": -117.0011659, "tags": {"addr:city": "Moscow", "addr:country": "US", "addr:county": "Latah", "addr:housenumber": "520", "addr:postcode": "83843", "addr:state": "ID", "addr:street": "South Main Street", "alt_name": "Howard Hughes Video", "name": "Main Street Video Co-op", "opening_hours": "Mo-Th 14:00-21:00; Fr-Sa 12:00-22:00; Su 12:00-21:00", "phone": "+1-208-882-3456", "shop": "video", "website": "https://www.facebook.com/MainStVideo/"}}, {"type": "node", "id": 4371622394, "lat": 46.7318197, "lon": -117.0004384, "tags": {"email": "pagallery@uidaho.edu", "fee": "no", "name": "Pritchard Art Gallery", "operator": "University of Idaho", "phone": "+1 208-885-3586", "shop": "art", "tourism": "gallery"}}, {"type": "node", "id": 4371622447, "lat": 46.73269, "lon": -117.0006762}, {"type": "node", "id": 4371622450, "lat": 46.7326914, "lon": -117.0004253}, {"type": "node", "id": 4371622452, "lat": 46.7326921, "lon": -117.0003064}, {"type": "node", "id": 4371622457, "lat": 46.7326928, "lon": -117.0001874}, {"type": "node", "id": 4371622458, "lat": 46.7327604, "lon": -117.0001883}, {"type": "node", "id": 4371622459, "lat": 46.7327767, "lon": -117.0005557}, {"type": "node", "id": 5052366882, "lat": 46.7318188, "lon": -117.000995, "tags": {"addr:city": "Moscow", "addr:housenumber": "112", "addr:postcode": "83843", "addr:state": "ID", "addr:street": "East 4th Street", "name": "Balance, A Wellness Spa", "opening_hours": "\"on appointment\"", "operator": "Laura Gessner", "phone": "+1-509-595-4225", "shop": "massage", "website": "http://balancewellnessspa.com/"}}, {"type": "node", "id": 5061070410, "lat": 46.7225268, "lon": -116.981012}, {"type": "node", "id": 5061070411, "lat": 46.722037, "lon": -116.9810045}, {"type": "node", "id": 5061070412, "lat": 46.7220389, "lon": -116.9807506}, {"type": "node", "id": 5061070413, "lat": 46.7220244, "lon": -116.9807504}, {"type": "node", "id": 5061070414, "lat": 46.7220248, "lon": -116.9806975}, {"type": "node", "id": 5061070415, "lat": 46.7222628, "lon": -116.9807011}, {"type": "node", "id": 5061070416, "lat": 46.722264, "lon": -116.980536}, {"type": "node", "id": 5061070417, "lat": 46.7224078, "lon": -116.9805383}, {"type": "node", "id": 5061070418, "lat": 46.7224067, "lon": -116.9806938}, {"type": "node", "id": 5061070419, "lat": 46.7225291, "lon": -116.9806957}, {"type": "node", "id": 5061246752, "lat": 46.7226856, "lon": -116.9876212}, {"type": "node", "id": 5061246753, "lat": 46.7226838, "lon": -116.9870759}, {"type": "node", "id": 5061246754, "lat": 46.7222402, "lon": -116.9870733}, {"type": "node", "id": 5061246755, "lat": 46.7222438, "lon": -116.9876186}, {"type": "node", "id": 5125490027, "lat": 46.7325094, "lon": -117.0012038, "tags": {"addr:city": "Moscow", "addr:housenumber": "218", "addr:postcode": "83843", "addr:state": "ID", "addr:street": "South Main Street", "amenity": "cafe", "cuisine": "coffee_shop", "diet:halal": "no", "diet:kosher": "no", "diet:vegan": "yes", "diet:vegetarian": "yes", "internet_access": "wlan", "internet_access:fee": "customers", "name": "Cafe Artista", "opening_hours": "Mo-Sa 07:00-18:00; Su 08:00-18:00", "phone": "+1 208-882-1324", "website": "https://www.cafeartista.com/", "wheelchair": "yes"}}, {"type": "node", "id": 5162273252, "lat": 46.722577, "lon": -116.9898303}, {"type": "node", "id": 5162273253, "lat": 46.7225462, "lon": -116.9895864}, {"type": "node", "id": 5162273254, "lat": 46.7225084, "lon": -116.9895962}, {"type": "node", "id": 5162273255, "lat": 46.7224984, "lon": -116.9895169}, {"type": "node", "id": 5162273256, "lat": 46.7223913, "lon": -116.9895457}, {"type": "node", "id": 5162273257, "lat": 46.7224321, "lon": -116.989869}, {"type": "node", "id": 5204786559, "lat": 46.71529, "lon": -116.9965839}, {"type": "node", "id": 5204786560, "lat": 46.7153966, "lon": -116.9965035}, {"type": "node", "id": 5204786561, "lat": 46.7152127, "lon": -116.9965839}, {"type": "node", "id": 5204786562, "lat": 46.7153966, "lon": -116.9959134}, {"type": "node", "id": 5204786563, "lat": 46.7152127, "lon": -116.9959134}, {"type": "node", "id": 5204786564, "lat": 46.7154297, "lon": -116.9965035}, {"type": "node", "id": 5204786565, "lat": 46.71529, "lon": -116.9966322}, {"type": "node", "id": 5204786566, "lat": 46.7154297, "lon": -116.9966322}, {"type": "node", "id": 5215044618, "lat": 46.7308768, "lon": -117.0011678, "tags": {"addr:city": "Moscow", "addr:housenumber": "504", "addr:postcode": "83843", "addr:state": "ID", "addr:street": "South Main Street", "name": "The Storm Cellar", "opening_hours": "Tu-Sa 10:00-18:00", "phone": "+1-208-874-4345", "second_hand": "yes", "shop": "clothes", "website": "https://www.moscowstormcellar.com/"}}, {"type": "node", "id": 5772166089, "lat": 46.7315062, "lon": -117.0011741, "tags": {"addr:city": "Moscow", "addr:housenumber": "404", "addr:postcode": "83843", "addr:state": "ID", "addr:street": "South Main Street", "email": "gemstate@frontier.com", "name": "Gem State Crystals", "opening_hours": "Tu-Sa 10:00-17:30, Sa 10:00-15:00", "phone": "+1-208-883-0939", "shop": "jewelry", "website": "https://www.facebook.com/gemstatecrystals/"}}, {"type": "node", "id": 7083203329, "lat": 46.7295165, "lon": -117.0011644, "tags": {"addr:city": "Moscow", "addr:housenumber": "618", "addr:postcode": "83843", "addr:state": "ID", "addr:street": "South Main Street", "fixme": "Not sure on new name?", "name": "Vine", "opening_hours": "Tu-Th 14:00-20:00; Fr 12:00-20:00", "phone": "+1-208-882-6502", "shop": "wine", "website": "https://wineco5.wixsite.com/moscow"}}, {"type": "node", "id": 7152077940, "lat": 46.7230298, "lon": -116.9810755}, {"type": "node", "id": 7152077941, "lat": 46.7229417, "lon": -116.9812644}, {"type": "node", "id": 7152077942, "lat": 46.7230415, "lon": -116.9813633}, {"type": "node", "id": 7152077943, "lat": 46.7231295, "lon": -116.9811743}, {"type": "node", "id": 7152129476, "lat": 46.7230612, "lon": -116.979936}, {"type": "node", "id": 7152129477, "lat": 46.7230659, "lon": -116.9793466}, {"type": "node", "id": 7152129478, "lat": 46.7231817, "lon": -116.9793486}, {"type": "node", "id": 7152129479, "lat": 46.7231798, "lon": -116.9795871}, {"type": "node", "id": 7152129480, "lat": 46.7231921, "lon": -116.9795873}, {"type": "node", "id": 7152129481, "lat": 46.7231893, "lon": -116.9799382}, {"type": "node", "id": 7182351938, "lat": 46.7219256, "lon": -116.987926, "tags": {"addr:city": "Moscow", "addr:housenumber": "872", "addr:postcode": "83843", "addr:state": "ID", "addr:street": "Troy Road", "addr:unit": "110", "building": "yes", "drive_through": "no", "name": "Idaho State Liquor Store 309", "opening_hours": "Mo-Th 11:00-20:00; Fr-Sa 11:00-21:00; Su 12:00-17:00", "operator": "Idaho State Liquor Division", "phone": "+1-208-882-5279", "shop": "alcohol", "website": "https://liquor.idaho.gov/"}}, {"type": "node", "id": 7221735877, "lat": 46.7328703, "lon": -116.997425, "tags": {"addr:city": "Moscow", "addr:housenumber": "327", "addr:postcode": "83843", "addr:state": "ID", "addr:street": "East 2nd Street", "name": "Latah County Historical Society", "office": "ngo", "website": "https://www.latahcountyhistoricalsociety.org/", "wikidata": "Q30258081"}}, {"type": "node", "id": 7417615188, "lat": 46.7226394, "lon": -116.9793797}, {"type": "node", "id": 7417615191, "lat": 46.722637, "lon": -116.9799871}, {"type": "node", "id": 7417615200, "lat": 46.7222194, "lon": -116.9793762}, {"type": "node", "id": 7417615201, "lat": 46.7221588, "lon": -116.9793761}, {"type": "node", "id": 7417615202, "lat": 46.7221588, "lon": -116.9799877}, {"type": "node", "id": 7468383727, "lat": 46.7244091, "lon": -117.0012554}, {"type": "node", "id": 7468383728, "lat": 46.7244107, "lon": -117.0007809}, {"type": "node", "id": 7468383749, "lat": 46.7247019, "lon": -117.0012547}, {"type": "node", "id": 7810599575, "lat": 46.7216119, "lon": -116.9861714}, {"type": "node", "id": 7810599576, "lat": 46.7216742, "lon": -116.9863937}, {"type": "node", "id": 7810599577, "lat": 46.7218241, "lon": -116.9863044}, {"type": "node", "id": 7810599578, "lat": 46.7219543, "lon": -116.9867694}, {"type": "node", "id": 7810599579, "lat": 46.7218707, "lon": -116.9868192}, {"type": "node", "id": 7810599580, "lat": 46.7218556, "lon": -116.9867653}, {"type": "node", "id": 7810599581, "lat": 46.7216287, "lon": -116.9869004}, {"type": "node", "id": 7810599582, "lat": 46.7214514, "lon": -116.9862669}, {"type": "node", "id": 7826444130, "lat": 46.7246603, "lon": -116.9979703}, {"type": "node", "id": 7826444131, "lat": 46.7245305, "lon": -116.9976623}, {"type": "node", "id": 7826444132, "lat": 46.7244533, "lon": -116.9977323}, {"type": "node", "id": 7826444133, "lat": 46.7245831, "lon": -116.9980393}, {"type": "node", "id": 8657290921, "lat": 46.7321904, "lon": -117.003101}, {"type": "node", "id": 8657290922, "lat": 46.7321904, "lon": -117.002892}, {"type": "node", "id": 8657290923, "lat": 46.7320826, "lon": -117.0028921}, {"type": "node", "id": 8657290924, "lat": 46.7320827, "lon": -117.003026}, {"type": "node", "id": 8657290925, "lat": 46.7320629, "lon": -117.003026}, {"type": "node", "id": 8657290926, "lat": 46.7320629, "lon": -117.0031011}, {"type": "node", "id": 8927646399, "lat": 46.7234092, "lon": -116.9945389}, {"type": "node", "id": 8927646400, "lat": 46.7233781, "lon": -116.9944244}, {"type": "node", "id": 8927646401, "lat": 46.7233528, "lon": -116.9944391}, {"type": "node", "id": 8927646402, "lat": 46.723384, "lon": -116.9945535}, {"type": "node", "id": 9696443689, "lat": 46.7304446, "lon": -117.0018412, "tags": {"addr:city": "Moscow", "addr:housenumber": "527", "addr:postcode": "83843", "addr:state": "ID", "addr:street": "South Main Street", "addr:unit": "1", "clothes": "women", "name": "Tye Dye Everything", "opening_hours": "Mo-Sa 11:00-17:30", "operator": "Arlene Falcon", "payment:american_express": "yes", "payment:cash": "yes", "payment:discover_card": "yes", "payment:mastercard": "yes", "payment:visa": "yes", "phone": "+1-208-883-4779", "shop": "clothes", "website": "https://www.tyedye-everything.com"}}, {"type": "node", "id": 9809994423, "lat": 46.7326907, "lon": -117.0005546}, {"type": "node", "id": 9809994424, "lat": 46.7327775, "lon": -117.0004235}, {"type": "node", "id": 9809994425, "lat": 46.7327589, "lon": -117.0004233}, {"type": "node", "id": 9809994426, "lat": 46.7329018, "lon": -117.0005568}, {"type": "node", "id": 9809994427, "lat": 46.7329013, "lon": -117.000678}, {"type": "node", "id": 11747158575, "lat": 46.7321879, "lon": -117.0016561, "tags": {"addr:city": "Moscow", "addr:housenumber": "301", "addr:postcode": "83843", "addr:state": "ID", "addr:street": "South Main Street", "name": "Nine2Five", "office": "yes", "opening_hours": "Mo-Fr 09:00-17:00", "website": "https://nine2fiveoffice.com/"}}, {"type": "node", "id": 11845901335, "lat": 46.7308908, "lon": -117.0016047, "tags": {"amenity": "restaurant", "cuisine": "burger;american", "name": "Humble Burger"}}, {"type": "node", "id": 11920046344, "lat": 46.7226378, "lon": -116.9800544}, {"type": "node", "id": 11920046345, "lat": 46.7225919, "lon": -116.9800487}, {"type": "node", "id": 11920046346, "lat": 46.722589, "lon": -116.9800828}, {"type": "node", "id": 11920046347, "lat": 46.7221648, "lon": -116.9800686}, {"type": "node", "id": 11920046348, "lat": 46.7222272, "lon": -116.979326}, {"type": "node", "id": 11920046349, "lat": 46.7226436, "lon": -116.9793218}, {"type": "node", "id": 12088201318, "lat": 46.7317035, "lon": -117.0030592, "tags": {"addr:city": "Moscow", "addr:housenumber": "315", "addr:postcode": "83843", "addr:state": "ID", "addr:street": "South Jackson Street", "name": "Populi, Inc.", "office": "it", "opening_hours": "Mo-Fr 06:00-17:00", "phone": "+1-877-476-7854", "website": "https://populi.co/"}}, {"type": "node", "id": 12088208737, "lat": 46.7313667, "lon": -117.0029467, "tags": {"addr:city": "Moscow", "addr:housenumber": "409", "addr:postcode": "83843", "addr:state": "ID", "addr:street": "South Jackson Street", "name": "Thrivent Financial", "office": "financial_advisor", "opening_hours": "Mo-Th 09:00-17:00; Fr 09:00-12:00", "phone": "+1 208-883-4733", "website": "https://local.thrivent.com/directory/id/moscow"}}, {"type": "node", "id": 12414443046, "lat": 46.7247937, "lon": -117.0011779}, {"type": "node", "id": 12414443047, "lat": 46.7247981, "lon": -117.0010532}, {"type": "node", "id": 12414443051, "lat": 46.7244675, "lon": -117.0007803}, {"type": "node", "id": 12414443052, "lat": 46.7247877, "lon": -117.0007775}, {"type": "node", "id": 12414443053, "lat": 46.7247887, "lon": -117.0010236}, {"type": "node", "id": 12414443067, "lat": 46.7245351, "lon": -117.0012551}, {"type": "node", "id": 12414443070, "lat": 46.7245811, "lon": -117.001255}, {"type": "node", "id": 12414443071, "lat": 46.724751, "lon": -117.0012202}, {"type": "node", "id": 12414443073, "lat": 46.7246547, "lon": -117.0012548}, {"type": "node", "id": 12414443074, "lat": 46.7246009, "lon": -117.0012549}, {"type": "node", "id": 12414443077, "lat": 46.7246394, "lon": -117.0012548}, {"type": "node", "id": 12618815963, "lat": 46.7312009, "lon": -117.0001794, "tags": {"addr:housenumber": "409", "addr:street": "South Washington Street", "name": "The Yarn Underground", "opening_hours": "Tu,We,Fr 12:00-17:00; Th 12:00-20:00; Sa 10:00-16:00", "phone": "+12088827700", "shop": "wool", "website": "https://www.yarnunderground.com/"}}, {"type": "way", "id": 131635396, "nodes": [1448530704, 1448530709, 1448530732, 1448530722, 1448530720, 1448530724, 1448530718, 1448530715, 1448530719, 1448530717, 1448530723, 1448530706, 1448530714, 1448530710, 1448530712, 1448530728, 1448530705, 1448530711, 1448530716, 1448530707, 1448530730, 1448530731, 1448530704], "tags": {"addr:city": "Moscow", "addr:country": "US", "addr:county": "Latah", "addr:postcode": "83843", "addr:state": "ID", "building": "retail", "name": "East Side Marketplace", "shop": "mall", "wheelchair": "limited"}}, {"type": "way", "id": 131635397, "nodes": [1448530732, 1448530722, 1448530729, 1448530727, 1448530726, 1448530708, 1448530713, 1448530734, 1448530721, 1448530725, 1448530733, 1448530732], "tags": {"addr:city": "Moscow", "addr:country": "US", "addr:county": "Latah", "addr:housenumber": "1320", "addr:postcode": "83843", "addr:state": "ID", "addr:street": "South Blaine Street", "brand": "Safeway", "brand:wikidata": "Q1508234", "building": "yes", "name": "Safeway", "opening_hours": "06:00-24:00", "phone": "+1-208-883-0713", "ref": "0383", "shop": "supermarket", "toilets:wheelchair": "yes", "website": "https://local.safeway.com/safeway/id/moscow/1320-s-blaine-st.html", "wheelchair": "yes"}}, {"type": "way", "id": 138493323, "nodes": [1518564284, 1518564289, 1518564292, 1518564286, 1518564284], "tags": {"addr:city": "Moscow", "addr:country": "US", "addr:county": "Latah", "addr:housenumber": "427", "addr:postcode": "83843", "addr:state": "ID", "addr:street": "Troy Road", "building": "yes", "name": "Affordable Consignments", "shop": "second_hand", "source": "bing"}}, {"type": "way", "id": 138493350, "nodes": [1518564351, 1518564363, 1518564361, 1518564345, 1518564351], "tags": {"addr:city": "Moscow", "addr:country": "US", "addr:county": "Latah", "addr:housenumber": "414", "addr:postcode": "83843", "addr:state": "ID", "addr:street": "Troy Road", "brand": "NAPA Auto Parts", "brand:wikidata": "Q6970842", "building": "yes", "name": "NAPA Auto Parts", "opening_hours": "Mo-Fr 08:00-17:30; Sa 08:00-16:00", "phone": "+1-208-882-5596", "shop": "car_parts", "website": "https://www.napaonline.com/en/id/moscow/store/23481"}}, {"type": "way", "id": 138493816, "nodes": [1518570224, 1518570220, 1518570213, 1518570217, 1518570224], "tags": {"addr:city": "Moscow", "addr:country": "US", "addr:county": "Latah", "addr:housenumber": "326", "addr:postcode": "83843", "addr:state": "ID", "addr:street": "Troy Road", "brand": "Jiffy Lube", "brand:wikidata": "Q6192247", "building": "yes", "name": "Jiffy Lube", "opening_hours": "Mo-Fr 08:00-19:00; Sa 08:00-17:00", "phone": "+1-208-883-3141", "service:vehicle:oil_change": "yes", "shop": "car_repair", "website": "https://www.jiffylube.com/locations/id/moscow/1020"}}, {"type": "way", "id": 138493828, "nodes": [1518570249, 1518570246, 1518570240, 1518570243, 1518570249], "tags": {"addr:city": "Moscow", "addr:country": "US", "addr:county": "Latah", "addr:housenumber": "306", "addr:postcode": "83843", "addr:state": "ID", "addr:street": "Veatch Street", "building": "yes", "name": "Auto Repair at the Hive", "opening_hours": "Mo-Fr 07:30-17:30; PH off", "phone": "+1 208 2731046", "shop": "car_repair", "source": "bing", "website": "https://autorepairatthehive.com", "wheelchair": "yes"}}, {"type": "way", "id": 241831318, "nodes": [2494144844, 2494144855, 2494144859, 2494144860, 2494144844], "tags": {"addr:city": "Moscow", "addr:country": "US", "addr:county": "Latah", "addr:housenumber": "519", "addr:postcode": "83843", "addr:state": "ID", "addr:street": "South Main Street", "brand": "Oil & Vinegar", "brand:wikidata": "Q107987188", "building": "retail", "name": "Oil & Vinegar", "opening_hours": "Mo-Sa 10:00-18:00", "phone": "+1-208-883-3866", "shop": "deli", "website": "https://www.ampersandoil.com/"}}, {"type": "way", "id": 255391933, "nodes": [2610853453, 2610853454, 2610853452, 2610853451, 2610853453], "tags": {"addr:city": "Moscow", "addr:country": "US", "addr:county": "Latah", "addr:housenumber": "428", "addr:postcode": "83843", "addr:state": "ID", "addr:street": "Troy Road", "building": "yes", "name": "Pets Are People Too", "opening_hours": "Mo-Sa 09:30-18:00; Su 12:00-17:00", "phone": "+1-208-883-0690", "shop": "pet", "website": "https://petspeople.biz/"}}, {"type": "way", "id": 264407818, "nodes": [2700932777, 2700932778, 2700932779, 2453585657, 2700932781, 2700932782, 2700932783, 2700932784, 2700932777], "tags": {"addr:city": "Moscow", "addr:country": "US", "addr:county": "Latah", "addr:housenumber": "121", "addr:postcode": "83843", "addr:state": "ID", "addr:street": "East 5th Street", "building": "yes", "name": "Moscow Food Co-op", "phone": "+1-208-882-8537", "shop": "supermarket", "website": "https://www.moscowfood.coop/", "wheelchair": "yes"}}, {"type": "way", "id": 338072233, "nodes": [3451338643, 3451338642, 3451338601, 3451338602, 3451338604, 3451338613, 3451338614, 3451338616, 3451338625, 3451338628, 3451338633, 3451338637, 3451338639, 3451338643], "tags": {"addr:city": "Moscow", "addr:country": "US", "addr:county": "Latah", "addr:housenumber": "602", "addr:postcode": "83843", "addr:state": "ID", "addr:street": "South Main Street", "amenity": "restaurant", "building": "yes", "cuisine": "pizza", "name": "Maialina Pizzeria Napoletana", "opening_hours": "Mo-Th 11:30-21:00; Fr 11:30-22:00; Sa 10:00-22:00; Su 10:00-21:00", "phone": "+1-208-882-2694", "source": "Bing", "website": "https://www.maialina.com/"}}, {"type": "way", "id": 439536516, "nodes": [4371622349, 4371622356, 4371622357, 4371622362, 4371622358, 4371622349], "tags": {"addr:city": "Moscow", "addr:housenumber": "309", "addr:postcode": "83843", "addr:state": "ID", "addr:street": "South Main Street", "building": "yes", "name": "Hodgins Drug & Gift", "shop": "toys"}}, {"type": "way", "id": 439536549, "nodes": [4371622457, 4371622458, 9809994425, 9809994424, 4371622459, 9809994423, 4371622450, 4371622452, 4371622457], "tags": {"amenity": "restaurant", "bar": "yes", "building": "yes", "cuisine": "pizza", "diet:gluten_free": "yes", "name": "Slice Taphouse", "website": "https://slicetaphouse.com"}}, {"type": "way", "id": 518932633, "nodes": [5061070410, 5061070411, 5061070412, 5061070413, 5061070414, 5061070415, 5061070416, 5061070417, 5061070418, 5061070419, 5061070410], "tags": {"addr:city": "Moscow", "addr:housenumber": "1421", "addr:postcode": "83843", "addr:state": "ID", "addr:street": "White Avenue", "brand": "Les Schwab Tire Center", "brand:wikidata": "Q6529977", "building": "commercial", "name": "Les Schwab Tire Center", "opening_hours": "Mo-Fr 08:00-18:00; Sa 08:00-17:00", "phone": "+1-208-882-3538", "shop": "tyres", "website": "https://www.lesschwab.com/store/id/moscow/85"}}, {"type": "way", "id": 518949651, "nodes": [5061246752, 5061246753, 5061246754, 5061246755, 5061246752], "tags": {"addr:city": "Moscow", "addr:housenumber": "915", "addr:postcode": "83843", "addr:state": "ID", "addr:street": "White Avenue", "building": "yes", "name": "Spence Hardware & Supply", "opening_hours": "Mo-Fr 07:00-19:00; Sa 08:00-18:00; Su 08:00-17:00", "phone": "+1-208-883-8131", "shop": "hardware", "website": "https://spencehardware.com/"}}, {"type": "way", "id": 531869511, "nodes": [5162273252, 5162273253, 5162273254, 5162273255, 5162273256, 5162273257, 5162273252], "tags": {"brand": "Mobil Mart", "brand:wikidata": "Q109676002", "building": "yes", "name": "Mobil Mart", "shop": "convenience"}}, {"type": "way", "id": 537496214, "nodes": [5204786560, 5204786562, 5204786563, 5204786561, 5204786559, 5204786565, 5204786566, 5204786564, 5204786560], "tags": {"addr:city": "Moscow", "addr:housenumber": "435", "addr:postcode": "83843", "addr:state": "ID", "addr:street": "East Palouse River Drive", "building": "yes", "name": "University Collision", "opening_hours": "Mo-Fr 08:00-17:00", "phone": "+1-208-882-8535", "service:vehicle:body_repair": "yes", "shop": "car_repair", "website": "https://www.universitycollisionrepair.com/"}}, {"type": "way", "id": 765791425, "nodes": [7152077940, 7152077941, 7152077942, 7152077943, 7152077940], "tags": {"addr:city": "Moscow", "addr:housenumber": "1420", "addr:postcode": "83843", "addr:state": "ID", "addr:street": "White Avenue", "building": "yes", "email": "pcac2667@gmail.com", "name": "Palouse Country Auto Care", "opening_hours": "Mo-Fr 07:30-17:00", "phone": "+1-208-882-2667", "service:vehicle:air_conditioning": "yes", "service:vehicle:brakes": "yes", "service:vehicle:car_repair": "yes", "service:vehicle:oil_change": "yes", "shop": "car_repair", "website": "https://palousecountryautocare.com/"}}, {"type": "way", "id": 765797964, "nodes": [7152129476, 7152129477, 7152129478, 7152129479, 7152129480, 7152129481, 7152129476], "tags": {"addr:city": "Moscow", "addr:housenumber": "1220", "addr:postcode": "83843", "addr:state": "ID", "addr:street": "South Mountain View Road", "building": "yes", "name": "Mountain View Automotive", "phone": "+1-208-882-5678", "shop": "car_repair"}}, {"type": "way", "id": 836874559, "nodes": [7810599575, 7810599576, 7810599577, 7810599578, 7810599579, 7810599580, 7810599581, 7810599582, 7810599575], "tags": {"addr:city": "Moscow", "addr:housenumber": "1401", "addr:postcode": "83843", "addr:state": "ID", "addr:street": "South Blaine Street", "building": "yes", "name": "Spense Hardware & Supply", "opening_hours": "Mo-Fr 08:00-17:30; Sa 08:00-14:00", "phone": "+1-208-882-3134", "shop": "hardware", "website": "http://spencehardwaresupply.com"}}, {"type": "way", "id": 838600875, "nodes": [7826444130, 7826444131, 7826444132, 7826444133, 7826444130], "tags": {"addr:city": "Moscow", "addr:housenumber": "301", "addr:postcode": "83843", "addr:state": "ID", "addr:street": "Troy Road", "building": "yes", "name": "Electrical Specialists", "shop": "car_repair"}}, {"type": "way", "id": 934089718, "nodes": [8657290921, 8657290922, 8657290923, 8657290924, 8657290925, 8657290926, 8657290921], "tags": {"addr:housenumber": "203", "addr:state": "ID", "addr:street": "West 3rd Street", "amenity": "restaurant", "building": "yes", "cuisine": "american", "name": "Jack Jack's Diner"}}, {"type": "way", "id": 965077278, "nodes": [8927646399, 8927646400, 8927646401, 8927646402, 8927646399], "tags": {"addr:housenumber": "503", "addr:state": "ID", "addr:street": "Troy Road", "building": "yes", "coffee": "yes", "cuisine": "coffee_shop", "drive_through": "yes", "name": "The Bean", "shop": "kiosk"}}, {"type": "way", "id": 1068675916, "nodes": [4371622459, 9809994426, 9809994427, 4371622447, 9809994423, 4371622459], "tags": {"amenity": "restaurant", "building": "yes", "cuisine": "thai;asian", "name": "Suchadas Thai cuisine"}}, {"type": "way", "id": 1284901042, "nodes": [7417615191, 11920046344, 11920046345, 11920046346, 11920046347, 7417615202, 7417615201, 7417615200, 11920046348, 11920046349, 7417615188, 7417615191], "tags": {"addr:housenumber": "1306", "addr:street": "South Mountain View Road", "building": "yes", "layer": "-1", "name": "Axess Self Storage", "shop": "storage_rental"}}, {"type": "way", "id": 1341994354, "nodes": [12414443047, 12414443053, 12414443052, 12414443051, 7468383728, 7468383727, 12414443067, 12414443070, 12414443074, 12414443077, 12414443073, 7468383749, 12414443071, 12414443046, 12414443047], "tags": {"addr:city": "Moscow", "addr:housenumber": "1104", "addr:postcode": "83843", "addr:state": "ID", "addr:street": "South Main Street", "amenity": "restaurant", "brand": "Pizza Hut", "brand:wikidata": "Q191615", "cuisine": "pizza", "indoor_seating": "yes", "name": "Pizza Hut", "outdoor_seating": "no", "phone": "+1 208 8820444", "website": "https://locations.pizzahut.com/id/moscow/1104-s-main-st"}}]}