{"version": 0.6, "generator": "Overpass API 0.7.62.8 e802775f", "osm3s": {"timestamp_osm_base": "2025-12-12T18:39:16Z", "copyright": "The data included in this document is from www.openstreetmap.org. The data is made available under ODbL."}, "elements": [{"type": "node", "id": 358945821, "lat": 38.868598, "lon": -107.5964461, "tags": {"amenity": "place_of_worship", "denomination": "methodist", "ele": "1724", "gnis:feature_id": "1795163", "name": "United Methodist Church", "religion": "christian"}}, {"type": "node", "id": 358945824, "lat": 38.8683203, "lon": -107.5956128, "tags": {"amenity": "place_of_worship", "ele": "1727", "gnis:feature_id": "1795164", "name": "Friends Church", "religion": "christian"}}, {"type": "node", "id": 358945828, "lat": 38.8683203, "lon": -107.5950572, "tags": {"amenity": "place_of_worship", "ele": "1727", "gnis:feature_id": "1795165", "name": "First Christian Church", "religion": "christian"}}, {"type": "node", "id": 358945837, "lat": 38.8685981, "lon": -107.5939461, "tags": {"amenity": "place_of_worship", "ele": "1729", "gnis:feature_id": "1795167", "name": "Church of the Nazarene", "religion": "christian"}}, {"type": "node", "id": 358945839, "lat": 38.8685983, "lon": -107.5872794, "tags": {"amenity": "place_of_worship", "ele": "1737", "gnis:feature_id": "1795168", "name": "Bible Center Church", "religion": "christian"}}, {"type": "node", "id": 358945841, "lat": 38.8672095, "lon": -107.583946, "tags": {"amenity": "place_of_worship", "ele": "1746", "gnis:feature_id": "1795169", "name": "Church of Christ", "religion": "christian"}}, {"type": "node", "id": 358945844, "lat": 38.8735981, "lon": -107.590335, "tags": {"amenity": "place_of_worship", "denomination": "pentecostal", "ele": "1729", "gnis:feature_id": "1795170", "name": "Paonia Assembly of God", "religion": "christian"}}, {"type": "node", "id": 358945849, "lat": 38.8707619, "lon": -107.5954278, "tags": {"amenity": "school", "ele": "1724", "gnis:feature_id": "1795172", "name": "Paonia Elementary School"}}, {"type": "node", "id": 358945854, "lat": 38.8713758, "lon": -107.5983907, "tags": {"amenity": "place_of_worship", "ele": "1720", "gnis:feature_id": "1795174", "name": "Saint Michaels Episcopal Church", "religion": "christian"}}, {"type": "node", "id": 358945856, "lat": 38.8665483, "lon": -107.5976336, "tags": {"addr:city": "Paonia", "addr:housenumber": "125", "addr:postcode": "81428", "addr:state": "CO", "addr:street": "Grand Avenue", "amenity": "post_office", "ele": "1721", "gnis:feature_id": "1795177", "name": "Paonia Post Office", "phone": "+1-970-527-3115"}}, {"type": "node", "id": 358946044, "lat": 38.8643046, "lon": -107.5814201, "tags": {"amenity": "nursing_home", "gnis:feature_id": "1795298", "old_name": "Community Care Hospital of America"}}, {"type": "node", "id": 358946046, "lat": 38.8724871, "lon": -107.5900571, "tags": {"alt_name": "Paonia Ward", "amenity": "place_of_worship", "denomination": "mormon", "ele": "1732", "gnis:feature_id": "1795299", "name": "The Church of Jesus Christ of Latter-day Saints", "religion": "christian"}}, {"type": "node", "id": 366394773, "lat": 38.8665339, "lon": -107.5910563, "tags": {"addr:state": "CO", "amenity": "fire_station", "ele": "1720", "gnis:feature_id": "1795162", "name": "Paonia Fire Department"}}, {"type": "node", "id": 366395574, "lat": 38.8689712, "lon": -107.6016447, "tags": {"addr:city": "Paonia", "addr:housenumber": "80", "addr:postcode": "81428", "addr:state": "CO", "addr:street": "Samuel Wade Road", "amenity": "library", "ele": "1721", "gnis:feature_id": "1795176", "name": "Paonia Public Library", "operator": "Delta County Libraries", "phone": "+1-970-399-7881"}}, {"type": "node", "id": 3793114642, "lat": 38.8704765, "lon": -107.5877536, "tags": {"addr:city": "Paonia", "addr:housenumber": "403", "addr:postcode": "81428", "addr:state": "CO", "addr:street": "Rio Grande Avenue", "amenity": "ranger_station", "name": "Paonia Ranger District Office", "operator": "US Forest Service", "website": "https://www.fs.usda.gov/detail/gmug/about-forest/districts/"}}, {"type": "node", "id": 3882027988, "lat": 38.8755683, "lon": -107.6025391}, {"type": "node", "id": 3882027989, "lat": 38.8762046, "lon": -107.601492}, {"type": "node", "id": 3882027990, "lat": 38.876638, "lon": -107.5992564}, {"type": "node", "id": 3882027991, "lat": 38.8754169, "lon": -107.5984435}, {"type": "node", "id": 3882027992, "lat": 38.8753688, "lon": -107.5994332}, {"type": "node", "id": 3882027993, "lat": 38.8747565, "lon": -107.6007232}, {"type": "node", "id": 3882027994, "lat": 38.8744435, "lon": -107.6007939}, {"type": "node", "id": 3882027995, "lat": 38.8741615, "lon": -107.6016643}, {"type": "node", "id": 3882028000, "lat": 38.8754783, "lon": -107.6009797}, {"type": "node", "id": 3882028001, "lat": 38.8750335, "lon": -107.6006846}, {"type": "node", "id": 3882028002, "lat": 38.8750816, "lon": -107.6005854}, {"type": "node", "id": 3882028003, "lat": 38.8752256, "lon": -107.6006578}, {"type": "node", "id": 3882028004, "lat": 38.8754386, "lon": -107.6006095}, {"type": "node", "id": 3882028005, "lat": 38.8755054, "lon": -107.6004379}, {"type": "node", "id": 3882028006, "lat": 38.8757143, "lon": -107.600572}, {"type": "node", "id": 3882028007, "lat": 38.8756036, "lon": -107.6008563}, {"type": "node", "id": 3882028008, "lat": 38.8754094, "lon": -107.6005532}, {"type": "node", "id": 3882028009, "lat": 38.8751985, "lon": -107.6005988}, {"type": "node", "id": 3882028010, "lat": 38.8750376, "lon": -107.6004873}, {"type": "node", "id": 3882028011, "lat": 38.875381, "lon": -107.5996697}, {"type": "node", "id": 3882028012, "lat": 38.8756905, "lon": -107.5998842}, {"type": "node", "id": 3882028013, "lat": 38.876537, "lon": -107.5995393}, {"type": "node", "id": 3882028014, "lat": 38.8762405, "lon": -107.5993435}, {"type": "node", "id": 3882028015, "lat": 38.8762739, "lon": -107.5992497}, {"type": "node", "id": 3882028016, "lat": 38.8761047, "lon": -107.5990968}, {"type": "node", "id": 3882028017, "lat": 38.8761632, "lon": -107.5989761}, {"type": "node", "id": 3882028018, "lat": 38.876608, "lon": -107.5992711}, {"type": "node", "id": 6419935094, "lat": 38.8683787, "lon": -107.5925692}, {"type": "node", "id": 6419935095, "lat": 38.8683826, "lon": -107.5927331}, {"type": "node", "id": 6905537988, "lat": 38.8676446, "lon": -107.5976954}, {"type": "node", "id": 6905537989, "lat": 38.8675632, "lon": -107.5976962}, {"type": "node", "id": 6905537990, "lat": 38.8675633, "lon": -107.5973026}, {"type": "node", "id": 6905537991, "lat": 38.8675821, "lon": -107.5973026}, {"type": "node", "id": 6905537992, "lat": 38.8675821, "lon": -107.5973407}, {"type": "node", "id": 6905537993, "lat": 38.8676447, "lon": -107.5973416}, {"type": "node", "id": 8839633184, "lat": 38.8665226, "lon": -107.5969526, "tags": {"addr:city": "Paonia", "addr:housenumber": "213", "addr:postcode": "81428", "addr:state": "CO", "addr:street": "2nd Street", "name": "Don's Market", "phone": "+1-970-527-4522", "shop": "supermarket", "website": "https://dons-super-market.hub.biz/"}}, {"type": "node", "id": 8839813554, "lat": 38.87045, "lon": -107.59226}, {"type": "node", "id": 8839813555, "lat": 38.87045, "lon": -107.592145}, {"type": "node", "id": 8839813556, "lat": 38.870627, "lon": -107.592145}, {"type": "node", "id": 8839813557, "lat": 38.870627, "lon": -107.59226}, {"type": "node", "id": 8840289510, "lat": 38.8678318, "lon": -107.5976831, "tags": {"amenity": "waste_basket", "waste": "trash"}}, {"type": "node", "id": 8840289512, "lat": 38.8668759, "lon": -107.597184}, {"type": "node", "id": 8840289513, "lat": 38.8668718, "lon": -107.5966907}, {"type": "node", "id": 8840289514, "lat": 38.8666214, "lon": -107.5966942}, {"type": "node", "id": 8840289515, "lat": 38.8666229, "lon": -107.5968639}, {"type": "node", "id": 8840289516, "lat": 38.8666562, "lon": -107.5968634}, {"type": "node", "id": 8840303317, "lat": 38.8666573, "lon": -107.5969861}, {"type": "node", "id": 8840303318, "lat": 38.8666328, "lon": -107.5969864}, {"type": "node", "id": 8840303319, "lat": 38.8666344, "lon": -107.5971874}, {"type": "node", "id": 8840303320, "lat": 38.8678559, "lon": -107.5984855}, {"type": "node", "id": 8840303321, "lat": 38.8678569, "lon": -107.5987611}, {"type": "node", "id": 8840303322, "lat": 38.8676512, "lon": -107.5988741}, {"type": "node", "id": 8840303323, "lat": 38.8675172, "lon": -107.5989013}, {"type": "node", "id": 8840303324, "lat": 38.8675149, "lon": -107.5985019}, {"type": "node", "id": 8840370193, "lat": 38.8668063, "lon": -107.5911564}, {"type": "node", "id": 8840370194, "lat": 38.8662688, "lon": -107.5911737}, {"type": "node", "id": 8840370195, "lat": 38.8662645, "lon": -107.5909553}, {"type": "node", "id": 8840370196, "lat": 38.866802, "lon": -107.5909378}, {"type": "node", "id": 8840484442, "lat": 38.8649794, "lon": -107.596934, "tags": {"amenity": "social_centre", "name": "Wilson Head American Legion Post 97", "website": "https://www.facebook.com/PaoniaAmericanLegion/"}}, {"type": "node", "id": 8840488363, "lat": 38.8713834, "lon": -107.5951343}, {"type": "node", "id": 8840488364, "lat": 38.8713274, "lon": -107.5950904}, {"type": "node", "id": 8840488365, "lat": 38.8713165, "lon": -107.5945376}, {"type": "node", "id": 8840488366, "lat": 38.8713752, "lon": -107.5945376}, {"type": "node", "id": 8840501777, "lat": 38.8676376, "lon": -107.5980082}, {"type": "node", "id": 8840501778, "lat": 38.8674947, "lon": -107.5980098}, {"type": "node", "id": 8840501779, "lat": 38.8674956, "lon": -107.598139}, {"type": "node", "id": 8840501780, "lat": 38.8674797, "lon": -107.5981392}, {"type": "node", "id": 8840501781, "lat": 38.8674814, "lon": -107.598381}, {"type": "node", "id": 8840501782, "lat": 38.867505, "lon": -107.5983807}, {"type": "node", "id": 8840501783, "lat": 38.8675052, "lon": -107.5984159}, {"type": "node", "id": 8840501784, "lat": 38.8676021, "lon": -107.5984148}, {"type": "node", "id": 8840501785, "lat": 38.8676018, "lon": -107.5983646}, {"type": "node", "id": 8840501786, "lat": 38.8676401, "lon": -107.5983642}, {"type": "node", "id": 8840501791, "lat": 38.8668565, "lon": -107.5980319, "tags": {"amenity": "ice_cream", "name": "Ollie's Ice Cream Shop"}}, {"type": "node", "id": 8840501792, "lat": 38.8671233, "lon": -107.5980331, "tags": {"amenity": "restaurant", "cuisine": "pizza", "name": "Louie's Pizza"}}, {"type": "node", "id": 8840501793, "lat": 38.8672312, "lon": -107.5980767, "tags": {"name": "Paonia Farm & Home Supply", "shop": "agrarian"}}, {"type": "node", "id": 8840501794, "lat": 38.8684025, "lon": -107.598023, "tags": {"amenity": "restaurant", "cuisine": "mexican", "name": "Rio Bravo"}}, {"type": "node", "id": 8840501810, "lat": 38.866799, "lon": -107.5976171, "tags": {"amenity": "bank", "name": "First Colorado National Bank"}}, {"type": "node", "id": 8840501811, "lat": 38.8664116, "lon": -107.59812, "tags": {"amenity": "bank", "name": "First State Bank of Colorado"}}, {"type": "node", "id": 8840501812, "lat": 38.8655202, "lon": -107.5981469, "tags": {"name": "High Country Printing & Graphics Inc.", "shop": "copyshop"}}, {"type": "node", "id": 8840501813, "lat": 38.86558, "lon": -107.5971569, "tags": {"amenity": "pub", "microbrewery": "yes", "name": "Chrysalis Barrel Aged Beer"}}, {"type": "node", "id": 8840501814, "lat": 38.8668059, "lon": -107.5973148, "tags": {"amenity": "atm", "check_date": "2024-05-05"}}, {"type": "node", "id": 8842434784, "lat": 38.8678142, "lon": -107.5973863, "tags": {"amenity": "bench", "backrest": "yes", "colour": "brown", "material": "wood", "seats": "10"}}, {"type": "node", "id": 8842434786, "lat": 38.8678203, "lon": -107.5976587, "tags": {"access": "yes", "amenity": "bicycle_parking", "bicycle_parking": "rack", "capacity": "6", "covered": "no"}}, {"type": "node", "id": 8842459922, "lat": 38.8677494, "lon": -107.5976257, "tags": {"amenity": "bench", "backrest": "no", "colour": "white", "leisure": "picnic_table", "material": "concrete", "seats": "6"}}, {"type": "node", "id": 8842459924, "lat": 38.8677403, "lon": -107.5974595, "tags": {"amenity": "bench", "backrest": "no", "colour": "white", "material": "plastic", "seats": "3"}}, {"type": "node", "id": 8888283385, "lat": 38.8672271, "lon": -107.5992493, "tags": {"access": "customers", "amenity": "bicycle_parking", "bicycle_parking": "rack", "capacity": "8", "covered": "no", "fee": "no", "operator": "SK Bikes"}}, {"type": "node", "id": 8890080735, "lat": 38.8672779, "lon": -107.599301, "tags": {"contact:facebook": "https://www.facebook.com/Espresso-Paeonia-110476457878251", "name": "Espresso Paeonia", "shop": "coffee"}}, {"type": "node", "id": 8890080736, "lat": 38.8672168, "lon": -107.59935, "tags": {"contact:facebook": "https://www.facebook.com/ShishKabikes", "name": "SK Bikes", "opening_hours": "Tu-Fr 10:00-17:30; Sa 10:00-16:00; PH closed", "phone": "+1-970-527-9588", "roof:shape": "gabled", "service:bicycle:rental": "yes", "service:bicycle:repair": "yes", "service:bicycle:retail": "yes", "shop": "bicycle", "website": "https://skbikescolorado.com/"}}, {"type": "node", "id": 8890192204, "lat": 38.8694555, "lon": -107.6014763}, {"type": "node", "id": 8890192205, "lat": 38.8689639, "lon": -107.601488}, {"type": "node", "id": 8890192206, "lat": 38.8689637, "lon": -107.6014163}, {"type": "node", "id": 8890192207, "lat": 38.8694879, "lon": -107.6014052}, {"type": "node", "id": 8890192208, "lat": 38.8691851, "lon": -107.601644}, {"type": "node", "id": 8890192209, "lat": 38.8693762, "lon": -107.6016386}, {"type": "node", "id": 8890192210, "lat": 38.8694117, "lon": -107.6015621}, {"type": "node", "id": 8890192211, "lat": 38.8691851, "lon": -107.6015662}, {"type": "node", "id": 8890192212, "lat": 38.8686427, "lon": -107.6020126}, {"type": "node", "id": 8890192213, "lat": 38.8686133, "lon": -107.6017492}, {"type": "node", "id": 8890192214, "lat": 38.868663, "lon": -107.60174}, {"type": "node", "id": 8890192215, "lat": 38.8686924, "lon": -107.6020034}, {"type": "node", "id": 8890192216, "lat": 38.8682807, "lon": -107.6017929}, {"type": "node", "id": 8890192917, "lat": 38.8684758, "lon": -107.6017628}, {"type": "node", "id": 8890192918, "lat": 38.8684684, "lon": -107.6016841}, {"type": "node", "id": 8890192919, "lat": 38.8682733, "lon": -107.6017142}, {"type": "node", "id": 8890192920, "lat": 38.8686138, "lon": -107.6015748}, {"type": "node", "id": 8890192921, "lat": 38.8684635, "lon": -107.6015978}, {"type": "node", "id": 8890192922, "lat": 38.8684553, "lon": -107.6015093}, {"type": "node", "id": 8890192923, "lat": 38.8686056, "lon": -107.6014863}, {"type": "node", "id": 8890192924, "lat": 38.8683372, "lon": -107.6015347, "tags": {"amenity": "cafe", "name": "Berg Harvest Mercantile and Cafe", "opening_hours": "Tu-Th 11:00-20:00; Fr-Sa 11:00-21:00; PH off", "outdoor_seating": "yes", "phone": "+1-970-527-6372", "takeaway": "yes", "website": "https://www.bergharvest.com/menu"}}, {"type": "node", "id": 10015783705, "lat": 38.8710635, "lon": -107.5871506}, {"type": "node", "id": 10015783706, "lat": 38.8710092, "lon": -107.5869361}, {"type": "node", "id": 10015783707, "lat": 38.8708818, "lon": -107.5864425}, {"type": "node", "id": 10015783708, "lat": 38.8706876, "lon": -107.5864291}, {"type": "node", "id": 10015783709, "lat": 38.8707001, "lon": -107.5865203}, {"type": "node", "id": 10015783710, "lat": 38.8707482, "lon": -107.5867161}, {"type": "node", "id": 10015783711, "lat": 38.8708025, "lon": -107.5869066}, {"type": "node", "id": 10015783712, "lat": 38.8708254, "lon": -107.5869709}, {"type": "node", "id": 10015783713, "lat": 38.8708985, "lon": -107.5870648}, {"type": "node", "id": 10015783714, "lat": 38.8709612, "lon": -107.5873169}, {"type": "node", "id": 10015783715, "lat": 38.8711157, "lon": -107.5872928}, {"type": "node", "id": 12193446684, "lat": 38.8675895, "lon": -107.5979983, "tags": {"amenity": "bicycle_parking"}}, {"type": "node", "id": 12193446685, "lat": 38.8675592, "lon": -107.5979983, "tags": {"amenity": "polling_station", "location": "outdoor", "opening_hours": "24/7", "polling_station": "ballot_box"}}, {"type": "node", "id": 13060192683, "lat": 38.8682074, "lon": -107.5925759}, {"type": "node", "id": 13060192684, "lat": 38.8682082, "lon": -107.5926108}, {"type": "node", "id": 13060192685, "lat": 38.8681718, "lon": -107.5926123}, {"type": "node", "id": 13060192686, "lat": 38.8681749, "lon": -107.5927412}, {"type": "node", "id": 13060192693, "lat": 38.8683635, "lon": -107.5927338}, {"type": "node", "id": 13060192694, "lat": 38.8682413, "lon": -107.5927386}, {"type": "node", "id": 13060192695, "lat": 38.8682457, "lon": -107.5929233}, {"type": "node", "id": 13060192696, "lat": 38.868368, "lon": -107.5929184}, {"type": "way", "id": 384847455, "nodes": [3882027988, 3882027989, 3882027990, 3882027991, 3882027992, 3882027993, 3882027994, 3882027995, 3882027988], "tags": {"amenity": "school", "gnis:feature_id": "1795180", "name": "Paonia High School", "website": "http://phs.deltaschools.com/"}}, {"type": "way", "id": 384847457, "nodes": [3882028000, 3882028001, 3882028002, 3882028003, 3882028004, 3882028005, 3882028006, 3882028007, 3882028000], "tags": {"amenity": "parking"}}, {"type": "way", "id": 384847458, "nodes": [3882028008, 3882028009, 3882028010, 3882028011, 3882028012, 3882028008], "tags": {"amenity": "parking"}}, {"type": "way", "id": 384847459, "nodes": [3882028013, 3882028014, 3882028015, 3882028016, 3882028017, 3882028018, 3882028013], "tags": {"amenity": "parking"}}, {"type": "way", "id": 685153840, "nodes": [6419935095, 6419935094, 13060192683, 13060192684, 13060192685, 13060192686, 13060192694, 13060192695, 13060192696, 13060192693, 6419935095], "tags": {"addr:city": "Paonia", "addr:housenumber": "235", "addr:postcode": "81428", "addr:state": "CO", "addr:street": "North Fork Avenue", "amenity": "place_of_worship", "building": "church", "denomination": "roman_catholic", "description": "Also serves the mission of Saint Margaret Mary in Hotchkiss, CO", "description_1": "Mail goes to:Box 988 Paonia, CO 81428-0988", "diocese": "Pueblo", "ele": "1728", "gnis:feature_id": "1795166", "name": "Sacred Heart Catholic Church", "phone": "+1 970-527-3214", "religion": "christian", "website": "https://sites.google.com/view/northforkcatholiccommunity/"}}, {"type": "way", "id": 737561775, "nodes": [6905537988, 6905537989, 6905537990, 6905537991, 6905537992, 6905537993, 6905537988], "tags": {"addr:city": "Paonia", "addr:housenumber": "215", "addr:state": "CO", "addr:street": "Grand Avenue", "amenity": "cinema", "building": "yes", "name": "Paradise Theatre", "wikidata": "Q42386417"}}, {"type": "way", "id": 955071809, "nodes": [8839813554, 8839813555, 8839813556, 8839813557, 8839813554], "tags": {"amenity": "shelter", "building": "yes", "shelter_type": "picnic_shelter", "source": "microsoft/BuildingFootprints"}}, {"type": "way", "id": 955130412, "nodes": [8840289512, 8840289513, 8840289514, 8840289515, 8840289516, 8840303317, 8840303318, 8840303319, 8840289512], "tags": {"access": "customers", "amenity": "parking", "fee": "no", "operator": "Don's Market", "parking": "surface", "surface": "asphalt"}}, {"type": "way", "id": 955130413, "nodes": [8840303320, 8840303321, 8840303322, 8840303323, 8840303324, 8840303320], "tags": {"amenity": "parking", "parking": "surface", "surface": "asphalt"}}, {"type": "way", "id": 955139689, "nodes": [8840370193, 8840370194, 8840370195, 8840370196, 8840370193], "tags": {"amenity": "fire_station", "building": "yes"}}, {"type": "way", "id": 955151610, "nodes": [8840488363, 8840488364, 8840488365, 8840488366, 8840488363], "tags": {"amenity": "parking"}}, {"type": "way", "id": 955154586, "nodes": [8840501777, 8840501778, 8840501779, 8840501780, 8840501781, 8840501782, 8840501783, 8840501784, 8840501785, 8840501786, 8840501777], "tags": {"amenity": "townhall", "building": "yes", "name": "Paonia Town Hall"}}, {"type": "way", "id": 961037046, "nodes": [8890192207, 8890192206, 8890192205, 8890192204, 8890192207], "tags": {"access": "customers", "amenity": "parking", "operator": "Paonia Public Library"}}, {"type": "way", "id": 961037047, "nodes": [8890192211, 8890192210, 8890192209, 8890192208, 8890192211], "tags": {"access": "customers", "amenity": "parking", "operator": "Paonia Public Library"}}, {"type": "way", "id": 961037048, "nodes": [8890192215, 8890192214, 8890192213, 8890192212, 8890192215], "tags": {"access": "customers", "amenity": "parking", "operator": "Berg Harvest"}}, {"type": "way", "id": 961037049, "nodes": [8890192919, 8890192918, 8890192917, 8890192216, 8890192919], "tags": {"access": "customers", "amenity": "parking", "operator": "Berg Harvest"}}, {"type": "way", "id": 961037050, "nodes": [8890192923, 8890192922, 8890192921, 8890192920, 8890192923], "tags": {"access": "customers", "amenity": "parking", "operator": "Berg Harvest"}}, {"type": "way", "id": 1093579196, "nodes": [10015783715, 10015783714, 10015783713, 10015783712, 10015783711, 10015783710, 10015783709, 10015783708, 10015783707, 10015783706, 10015783705, 10015783715], "tags": {"amenity": "parking", "parking": "surface"}}]}