{"version": 0.6, "generator": "Overpass API 0.7.62.8 e802775f", "osm3s": {"timestamp_osm_base": "2025-12-06T04:20:15Z", "copyright": "The data included in this document is from www.openstreetmap.org. The data is made available under ODbL."}, "elements": [{"type": "node", "id": 3637991105, "lat": 45.7693622, "lon": -111.1640671}, {"type": "node", "id": 4526182075, "lat": 45.7747029, "lon": -111.1726392}, {"type": "node", "id": 4526182076, "lat": 45.7744596, "lon": -111.1728994}, {"type": "node", "id": 4526182077, "lat": 45.7743612, "lon": -111.1727102}, {"type": "node", "id": 4526182078, "lat": 45.7746044, "lon": -111.17245}, {"type": "node", "id": 4526182087, "lat": 45.7708922, "lon": -111.1660758}, {"type": "node", "id": 4526182088, "lat": 45.7708371, "lon": -111.1661656}, {"type": "node", "id": 4526182089, "lat": 45.7708009, "lon": -111.16612}, {"type": "node", "id": 4526182090, "lat": 45.7708561, "lon": -111.1660302}, {"type": "node", "id": 5345908746, "lat": 45.7726806, "lon": -111.1689909}, {"type": "node", "id": 5345908747, "lat": 45.7724943, "lon": -111.1691852}, {"type": "node", "id": 5345908748, "lat": 45.7724436, "lon": -111.1690852}, {"type": "node", "id": 5345908749, "lat": 45.7726299, "lon": -111.1688909}, {"type": "node", "id": 7055223527, "lat": 45.7856628, "lon": -111.1375795}, {"type": "node", "id": 7055223528, "lat": 45.7854302, "lon": -111.1375789}, {"type": "node", "id": 7055223529, "lat": 45.7854305, "lon": -111.1373354}, {"type": "node", "id": 7055223531, "lat": 45.7851425, "lon": -111.1375635}, {"type": "node", "id": 7055223532, "lat": 45.7852019, "lon": -111.1375635}, {"type": "node", "id": 7055223533, "lat": 45.7852024, "lon": -111.1378815}, {"type": "node", "id": 7055223534, "lat": 45.7849752, "lon": -111.1378825}, {"type": "node", "id": 7055223535, "lat": 45.7849747, "lon": -111.1375645}, {"type": "node", "id": 7055223536, "lat": 45.7850217, "lon": -111.1375645}, {"type": "node", "id": 7055223537, "lat": 45.7850215, "lon": -111.1374275}, {"type": "node", "id": 7055223551, "lat": 45.7823987, "lon": -111.1377901}, {"type": "node", "id": 7055223552, "lat": 45.7820355, "lon": -111.1377871}, {"type": "node", "id": 7055223553, "lat": 45.7820368, "lon": -111.1375231}, {"type": "node", "id": 7055223561, "lat": 45.7810899, "lon": -111.1403723}, {"type": "node", "id": 7055223562, "lat": 45.7808165, "lon": -111.1403753}, {"type": "node", "id": 7055223563, "lat": 45.7808147, "lon": -111.1401063}, {"type": "node", "id": 7055223565, "lat": 45.780878, "lon": -111.1416239}, {"type": "node", "id": 7055223566, "lat": 45.7805254, "lon": -111.141614}, {"type": "node", "id": 7055223567, "lat": 45.7805298, "lon": -111.141296}, {"type": "node", "id": 7055223580, "lat": 45.7850923, "lon": -111.1366232, "tags": {"addr:city": "Belgrade", "addr:housenumber": "654", "addr:postcode": "59714", "addr:state": "MT", "addr:street": "Jetway Drive", "addr:unit": "C", "name": "Advanced Water Solutions", "office": "water_softening_equipment"}}, {"type": "node", "id": 8534941355, "lat": 45.7786563, "lon": -111.1609366, "tags": {"air_conditioning": "yes", "amenity": "restaurant", "check_date": "2024-08-23", "diet:halal": "no", "diet:kosher": "no", "diet:vegan": "no", "diet:vegetarian": "yes", "indoor_seating": "yes", "name": "Copper Horse Restaurant", "opening_hours": "Mo-Su 04:00-20:00+", "outdoor_seating": "no", "payment:cash": "yes", "payment:credit_cards": "yes", "payment:debit_cards": "yes", "wheelchair": "yes"}}, {"type": "node", "id": 8534941356, "lat": 45.7780647, "lon": -111.1608628, "tags": {"amenity": "restaurant", "check_date": "2024-08-21", "name": "Bozeman Bistro"}}, {"type": "node", "id": 8573343223, "lat": 45.7692181, "lon": -111.1642121}, {"type": "node", "id": 8573343224, "lat": 45.7690528, "lon": -111.1638744}, {"type": "node", "id": 8573343225, "lat": 45.7691969, "lon": -111.1637303}, {"type": "node", "id": 8573364893, "lat": 45.7653485, "lon": -111.1461389}, {"type": "node", "id": 8573364894, "lat": 45.7649494, "lon": -111.1461408}, {"type": "node", "id": 8573364895, "lat": 45.7649474, "lon": -111.145217}, {"type": "node", "id": 8573364896, "lat": 45.7655426, "lon": -111.1452143}, {"type": "node", "id": 8573364897, "lat": 45.7655428, "lon": -111.1453427}, {"type": "node", "id": 8573364898, "lat": 45.7656104, "lon": -111.1453681}, {"type": "node", "id": 8573364899, "lat": 45.7655161, "lon": -111.1459702}, {"type": "node", "id": 8573364900, "lat": 45.7655695, "lon": -111.1456946}, {"type": "node", "id": 8573365029, "lat": 45.7678302, "lon": -111.1488613}, {"type": "node", "id": 8573365030, "lat": 45.7675879, "lon": -111.1491982}, {"type": "node", "id": 8573365031, "lat": 45.7672514, "lon": -111.148701}, {"type": "node", "id": 8573365032, "lat": 45.7674003, "lon": -111.1484939}, {"type": "node", "id": 8573365033, "lat": 45.7676688, "lon": -111.1488906}, {"type": "node", "id": 8573365034, "lat": 45.7677622, "lon": -111.1487607}, {"type": "node", "id": 8961895386, "lat": 45.7857377, "lon": -111.1417932}, {"type": "node", "id": 8961895387, "lat": 45.7857377, "lon": -111.1415422}, {"type": "node", "id": 8961895388, "lat": 45.7859537, "lon": -111.1415422}, {"type": "node", "id": 8961895414, "lat": 45.7868608, "lon": -111.1428649}, {"type": "node", "id": 8961895415, "lat": 45.7868606, "lon": -111.1428124}, {"type": "node", "id": 8961895416, "lat": 45.7867531, "lon": -111.1428133}, {"type": "node", "id": 8961895417, "lat": 45.7867521, "lon": -111.1425554}, {"type": "node", "id": 8961895418, "lat": 45.7868358, "lon": -111.1425547}, {"type": "node", "id": 8961895419, "lat": 45.7868361, "lon": -111.142615}, {"type": "node", "id": 8961895420, "lat": 45.7869954, "lon": -111.1426136}, {"type": "node", "id": 8961895422, "lat": 45.7868133, "lon": -111.1440346}, {"type": "node", "id": 8961895423, "lat": 45.786812, "lon": -111.143764}, {"type": "node", "id": 8961895424, "lat": 45.7871664, "lon": -111.1437606}, {"type": "node", "id": 9007176088, "lat": 45.7778872, "lon": -111.1605471, "tags": {"check_date": "2024-08-21", "name": "Yellowstone Forever Park Store", "shop": "gift"}}, {"type": "node", "id": 9351802033, "lat": 45.7784843, "lon": -111.1609796, "tags": {"name": "Montana Gift Corral", "opening_hours": "Mo-Su 04:45-20:00+", "shop": "gift", "wheelchair": "limited"}}, {"type": "node", "id": 9351802042, "lat": 45.7792943, "lon": -111.1621463, "tags": {"check_date": "2024-08-23", "name": "Montana Gift Corral", "opening_hours": "Mo-Su 04:45-20:00+", "payment:cash": "yes", "payment:credit_cards": "yes", "payment:debit_cards": "yes", "shop": "gift", "wheelchair": "limited"}}, {"type": "node", "id": 10767825983, "lat": 45.7604684, "lon": -111.1357776, "tags": {"name": "Silver Eagle Storage", "shop": "storage_rental"}}, {"type": "node", "id": 10767832928, "lat": 45.765453, "lon": -111.1462256}, {"type": "node", "id": 10767833040, "lat": 45.7625246, "lon": -111.1620367}, {"type": "node", "id": 10767833041, "lat": 45.7622669, "lon": -111.1620446}, {"type": "node", "id": 10767833042, "lat": 45.7622633, "lon": -111.1618032}, {"type": "node", "id": 10767833043, "lat": 45.7623512, "lon": -111.1618005}, {"type": "node", "id": 10767833044, "lat": 45.7623508, "lon": -111.1617704}, {"type": "node", "id": 10767833045, "lat": 45.7624566, "lon": -111.1617671}, {"type": "node", "id": 10767833046, "lat": 45.7624572, "lon": -111.1618027}, {"type": "node", "id": 10767833047, "lat": 45.7625144, "lon": -111.1618009}, {"type": "node", "id": 10767833048, "lat": 45.7625139, "lon": -111.1617666}, {"type": "node", "id": 10767833049, "lat": 45.7625524, "lon": -111.1617654}, {"type": "node", "id": 10767833050, "lat": 45.7625651, "lon": -111.1617145}, {"type": "node", "id": 10767833051, "lat": 45.7626424, "lon": -111.161754}, {"type": "node", "id": 10767833052, "lat": 45.76259, "lon": -111.1619645}, {"type": "node", "id": 10767833053, "lat": 45.7625433, "lon": -111.1619407}, {"type": "node", "id": 10767833054, "lat": 45.7625355, "lon": -111.161972}, {"type": "node", "id": 10767833055, "lat": 45.7625236, "lon": -111.1619723}, {"type": "node", "id": 10767833077, "lat": 45.7625614, "lon": -111.1619499}, {"type": "node", "id": 10767833078, "lat": 45.7626116, "lon": -111.1617383}, {"type": "node", "id": 10782325101, "lat": 45.7871676, "lon": -111.1440311}, {"type": "node", "id": 10782325103, "lat": 45.7869965, "lon": -111.1428637}, {"type": "node", "id": 10782325104, "lat": 45.7863043, "lon": -111.1420567, "tags": {"name": "Artisan Framework", "shop": "frame"}}, {"type": "node", "id": 10782325105, "lat": 45.7859537, "lon": -111.1417932}, {"type": "node", "id": 10782325108, "lat": 45.7871978, "lon": -111.1396447, "tags": {"name": "Cady Company", "shop": "car_repair"}}, {"type": "node", "id": 10782325110, "lat": 45.7862541, "lon": -111.1366641, "tags": {"name": "RJL Truck Repair", "shop": "car_repair"}}, {"type": "node", "id": 10782325111, "lat": 45.7856631, "lon": -111.137336}, {"type": "node", "id": 10782325112, "lat": 45.7856658, "lon": -111.136026, "tags": {"name": "Beartooth Vanworks", "shop": "car_repair"}}, {"type": "node", "id": 10782325113, "lat": 45.7853193, "lon": -111.1367326, "tags": {"name": "One Stop Auto Detailing", "shop": "car_parts"}}, {"type": "node", "id": 10782325114, "lat": 45.7850983, "lon": -111.136223, "tags": {"name": "Holler Auto Subaru Repair", "shop": "car_repair"}}, {"type": "node", "id": 10782325115, "lat": 45.7846743, "lon": -111.1364799, "tags": {"name": "Ram Workz", "shop": "car_repair"}}, {"type": "node", "id": 10782325116, "lat": 45.7843726, "lon": -111.1376233, "tags": {"name": "Airport North Storage", "shop": "storage_rental"}}, {"type": "node", "id": 10782325117, "lat": 45.7851422, "lon": -111.1374265}, {"type": "node", "id": 10782325118, "lat": 45.7838115, "lon": -111.1364271, "tags": {"name": "Zippy Detail", "shop": "car_repair"}}, {"type": "node", "id": 10782325119, "lat": 45.7828709, "lon": -111.1367394, "tags": {"name": "Smiley's Storage Units", "shop": "storage_rental"}}, {"type": "node", "id": 10782325166, "lat": 45.7828318, "lon": -111.1360073}, {"type": "node", "id": 10782325167, "lat": 45.7828318, "lon": -111.1359235}, {"type": "node", "id": 10782325168, "lat": 45.7828156, "lon": -111.1359235}, {"type": "node", "id": 10782325169, "lat": 45.7828155, "lon": -111.1357376}, {"type": "node", "id": 10782325170, "lat": 45.7828302, "lon": -111.1357376}, {"type": "node", "id": 10782325171, "lat": 45.7828302, "lon": -111.1356633}, {"type": "node", "id": 10782325172, "lat": 45.7829601, "lon": -111.1356632}, {"type": "node", "id": 10782325173, "lat": 45.7829601, "lon": -111.135605}, {"type": "node", "id": 10782325174, "lat": 45.78308, "lon": -111.1356049}, {"type": "node", "id": 10782325175, "lat": 45.78308, "lon": -111.1356538}, {"type": "node", "id": 10782325176, "lat": 45.7831969, "lon": -111.1356538}, {"type": "node", "id": 10782325180, "lat": 45.7825296, "lon": -111.137725, "tags": {"name": "Bozeman Pro Detail", "shop": "car_repair"}}, {"type": "node", "id": 10782325181, "lat": 45.7831969, "lon": -111.1360074}, {"type": "node", "id": 10782325182, "lat": 45.7824, "lon": -111.1375261}, {"type": "node", "id": 10782327182, "lat": 45.7805153, "lon": -111.1396308, "tags": {"name": "406 Logistics and Dirt", "office": "yes"}}, {"type": "node", "id": 10782327183, "lat": 45.7808316, "lon": -111.1396006, "tags": {"name": "Mountain Home Building", "office": "architect"}}, {"type": "node", "id": 10782327184, "lat": 45.7810881, "lon": -111.1401023}, {"type": "node", "id": 10782327187, "lat": 45.7808823, "lon": -111.1413059}, {"type": "node", "id": 10782327192, "lat": 45.7806301, "lon": -111.1434004, "tags": {"name": "LB Diesel Repair", "shop": "car_repair"}}, {"type": "node", "id": 10782327194, "lat": 45.7804989, "lon": -111.1435247, "tags": {"name": "Bridger Detail", "shop": "car_repair"}}, {"type": "node", "id": 10926902178, "lat": 45.7793787, "lon": -111.1623074, "tags": {"amenity": "bar", "indoor_seating": "yes", "name": "Ross Peak Grill & Go Bar", "outdoor_seating": "no"}}, {"type": "node", "id": 12519303010, "lat": 45.7594194, "lon": -111.1656094, "tags": {"brand": "Tractor Supply Company", "brand:wikidata": "Q15109925", "name": "Tractor Supply Company", "shop": "country_store"}}, {"type": "node", "id": 13341691569, "lat": 45.7707977, "lon": -111.1673664, "tags": {"addr:city": "Belgrade", "addr:housenumber": "20900", "addr:postcode": "59714-8557", "addr:state": "MT", "addr:street": "Frontage Road", "amenity": "restaurant", "check_date": "2025-11-30", "cuisine": "barbecue", "currency:XBT": "yes", "name": "Sheridan's BBQ", "opening_hours": "Th-Mo 11:30-19:00", "payment:lightning": "yes", "payment:lightning:operator": "square", "payment:lightning_contactless": "no", "payment:onchain": "no"}}, {"type": "way", "id": 456356801, "nodes": [4526182078, 4526182077, 4526182076, 4526182075, 4526182078], "tags": {"building": "yes", "shop": "convenience"}}, {"type": "way", "id": 456356805, "nodes": [4526182090, 4526182089, 4526182088, 4526182087, 4526182090], "tags": {"amenity": "cafe", "building": "yes", "cuisine": "coffee_shop", "name": "Beautiful Day Espresso", "takeaway": "yes"}}, {"type": "way", "id": 553866686, "nodes": [5345908746, 5345908747, 5345908748, 5345908749, 5345908746], "tags": {"addr:city": "Belgrade", "addr:postcode": "59714", "addr:state": "MT", "addr:street": "Frontage Road", "building": "yes", "shop": "car"}}, {"type": "way", "id": 755276017, "nodes": [10782325111, 7055223527, 7055223528, 7055223529, 10782325111], "tags": {"building": "yes", "name": "Montana Doorways Plus", "shop": "doors"}}, {"type": "way", "id": 755276018, "nodes": [10782325117, 7055223531, 7055223532, 7055223533, 7055223534, 7055223535, 7055223536, 7055223537, 10782325117], "tags": {"building": "yes", "name": "Morton Buildings, Inc.", "office": "yes"}}, {"type": "way", "id": 755276021, "nodes": [10782325182, 7055223551, 7055223552, 7055223553, 10782325182], "tags": {"building": "yes", "name": "Montana Black Gold Inc.", "shop": "sports"}}, {"type": "way", "id": 755276023, "nodes": [10782327184, 7055223561, 7055223562, 7055223563, 10782327184], "tags": {"building": "yes", "name": "Elle's Belles Cookies Cakes Desserts", "shop": "bakery"}}, {"type": "way", "id": 755276024, "nodes": [10782327187, 7055223565, 7055223566, 7055223567, 10782327187], "tags": {"building": "yes", "name": "Noreen Firearms", "shop": "weapons"}}, {"type": "way", "id": 923584754, "nodes": [3637991105, 8573343223, 8573343224, 8573343225, 3637991105], "tags": {"addr:city": "Belgrade", "addr:housenumber": "21000", "addr:postcode": "59714", "addr:state": "MT", "addr:street": "Frontage Road", "building": "yes", "name": "Manifest Creative", "office": "design", "source": "microsoft/BuildingFootprints"}}, {"type": "way", "id": 923586144, "nodes": [10767832928, 8573364893, 8573364894, 8573364895, 8573364896, 8573364897, 8573364898, 8573364900, 8573364899, 10767832928], "tags": {"building": "yes", "name": "Veterans Affairs Division", "office": "government"}}, {"type": "way", "id": 923586175, "nodes": [8573365029, 8573365030, 8573365031, 8573365032, 8573365033, 8573365034, 8573365029], "tags": {"addr:city": "Belgrade", "addr:housenumber": "210", "addr:postcode": "59714", "addr:state": "MT", "addr:street": "Airport Road", "building": "yes", "name": "Ridgeline Aviation", "office": "yes", "phone": "+1-406-813-7624", "website": "https://flyridgelinemt.com"}}, {"type": "way", "id": 968659305, "nodes": [10782325105, 8961895386, 8961895387, 8961895388, 10782325105], "tags": {"building": "yes", "name": "Battle Ridge Diesel", "shop": "car_repair"}}, {"type": "way", "id": 968659312, "nodes": [10782325103, 8961895414, 8961895415, 8961895416, 8961895417, 8961895418, 8961895419, 8961895420, 10782325103], "tags": {"building": "yes", "name": "Western Automotive & Racing", "shop": "car_repair"}}, {"type": "way", "id": 968659313, "nodes": [10782325101, 8961895422, 8961895423, 8961895424, 10782325101], "tags": {"building": "yes", "name": "A-Core Concrete Specialists of Bozeman", "shop": "doityourself"}}, {"type": "way", "id": 1157843746, "nodes": [10767833040, 10767833041, 10767833042, 10767833043, 10767833044, 10767833045, 10767833046, 10767833047, 10767833048, 10767833049, 10767833050, 10767833078, 10767833051, 10767833052, 10767833077, 10767833053, 10767833054, 10767833055, 10767833040], "tags": {"brand": "Holiday", "brand:wikidata": "Q5880490", "building": "commercial", "building:levels": "1", "building:use": "retail", "name": "Holiday", "opening_hours": "24/7", "roof:shape": "flat", "shop": "convenience", "toilets": "yes", "wheelchair": "designated"}}, {"type": "way", "id": 1159451037, "nodes": [10782325181, 10782325166, 10782325167, 10782325168, 10782325169, 10782325170, 10782325171, 10782325172, 10782325173, 10782325174, 10782325175, 10782325176, 10782325181], "tags": {"building": "yes", "layer": "1", "name": "Big Sky Rod Box", "shop": "outdoor"}}]}