{"version": 0.6, "generator": "Overpass API 0.7.62.8 e802775f", "osm3s": {"timestamp_osm_base": "2025-12-12T23:53:34Z", "copyright": "The data included in this document is from www.openstreetmap.org. The data is made available under ODbL."}, "elements": [{"type": "node", "id": 4587931399, "lat": 39.0761353, "lon": -108.5355549, "tags": {"addr:city": "Grand Junction", "addr:housenumber": "2401", "addr:postcode": "81501", "addr:state": "CO", "addr:street": "North Avenue", "branch": "Grand Junction, CO", "brand": "Planet Fitness", "brand:wikidata": "Q7201095", "check_date": "2025-04-07", "fee": "yes", "leisure": "fitness_centre", "name": "Planet Fitness", "opening_hours": "Mo 05:00-24:00; Tu-Th 00:00-24:00; Fr 00:00-21:00; Sa, Su 06:00-20:00", "payment:credit_cards": "yes", "payment:debit_cards": "yes", "payment:mastercard": "yes", "payment:visa": "yes", "payment:visa_debit": "yes", "phone": "+1-970-628-1261", "sport": "yoga;athletics;canoe", "website": "https://www.planetfitness.com/gyms/grand-junction-co"}}, {"type": "node", "id": 5893314465, "lat": 39.0776569, "lon": -108.5168275}, {"type": "node", "id": 5893314466, "lat": 39.0783377, "lon": -108.516829}, {"type": "node", "id": 5893314467, "lat": 39.0783374, "lon": -108.5170371}, {"type": "node", "id": 5893314468, "lat": 39.0776567, "lon": -108.5170356}, {"type": "node", "id": 7798611979, "lat": 39.0785296, "lon": -108.5393052, "tags": {"addr:city": "Grand Junction", "addr:housenumber": "1227", "addr:postcode": "81501", "addr:state": "CO", "addr:street": "North 23rd Street", "addr:unit": "105", "check_date": "2024-06-20", "contact:facebook": "https://www.facebook.com/Orangedoorcommunitywellness", "email": "info@orangedoorgj.org", "leisure": "fitness_centre", "level": "0", "name": "Orange Door Community Wellness", "phone": "+1-970-623-7883", "sport": "yoga", "website": "https://www.orangedoorgj.org/"}}, {"type": "way", "id": 624116652, "nodes": [5893314468, 5893314467, 5893314466, 5893314465, 5893314468], "tags": {"addr:city": "Grand Junction", "addr:housenumber": "2892", "addr:postcode": "81501", "addr:state": "CO", "addr:street": "North Avenue", "addr:unit": "A", "alt_name": "Armour Athletics Sports Training Facility", "building": "commercial", "check_date": "2025-04-12", "contact:facebook": "https://www.facebook.com/people/Armour-Athletics/61571318220440/", "contact:instagram": "https://www.instagram.com/armourathletics/", "description": "Indoor batting cages", "email": "info@armourathletics.com", "leisure": "fitness_centre", "name": "Armour Athletics", "opening_hours": "Tu-Sa 10:00-21:00; Su 10:00-17:00; Mo off", "phone": "+1-970-314-2565", "source:start_date": "https://www.facebook.com/permalink.php?story_fbid=pfbid0QZesPGMsPzkgBNrKd2rW6CahBEpFmKeZEDyTy83adHwxpAQ5rKEpaxZzqftMcy9yl&id=61571318220440", "sport": "baseball;softball", "start_date": "2025-01-17", "website": "https://www.armourathletics.com/"}}]}