{"version": 0.6, "generator": "Overpass API 0.7.62.8 e802775f", "osm3s": {"timestamp_osm_base": "2025-12-06T21:40:28Z", "copyright": "The data included in this document is from www.openstreetmap.org. The data is made available under ODbL."}, "elements": [{"type": "node", "id": 3771970860, "lat": 47.8069886, "lon": -122.377353, "tags": {"addr:city": "Edmonds", "addr:housenumber": "505", "addr:postcode": "98020", "addr:street": "5th Avenue South", "addr:unit": "A-103", "check_date:opening_hours": "2023-10-11", "leisure": "fitness_centre", "name": "Woodway", "opening_hours:signed": "no"}}, {"type": "node", "id": 7134240342, "lat": 47.7787605, "lon": -122.3615957, "tags": {"addr:city": "Edmonds", "addr:housenumber": "9649", "addr:postcode": "98020", "addr:street": "Firdale Avenue", "healthcare": "counselling", "leisure": "fitness_centre", "name": "Aftermath Agency", "sport": "yoga", "website": "https://www.theaftermathagency.com/"}}, {"type": "node", "id": 7134240352, "lat": 47.7789935, "lon": -122.3620104, "tags": {"addr:city": "Edmonds", "addr:housenumber": "9681", "addr:postcode": "98020", "addr:street": "Firdale Avenue", "leisure": "sports_hall", "name": "Kindred Jiu Jitsu", "sport": "martial_arts", "website": "https://kindredjj.com/"}}, {"type": "node", "id": 7141990167, "lat": 47.7920691, "lon": -122.367933, "tags": {"addr:city": "Edmonds", "addr:housenumber": "22824", "addr:postcode": "98020", "addr:state": "WA", "addr:street": "100th Avenue West", "branch": "Edmonds", "brand": "Anytime Fitness", "brand:wikidata": "Q4778364", "check_date": "2024-08-25", "leisure": "fitness_centre", "name": "Anytime Fitness", "phone": "+1-425-670-2373", "ref": "4755", "website": "https://www.anytimefitness.com/gyms/4755/edmonds-wa-98020/"}}, {"type": "node", "id": 11938755543, "lat": 47.8068048, "lon": -122.3780461, "tags": {"addr:housenumber": "514", "addr:street": "5th Avenue South", "addr:unit": "C", "check_date": "2024-05-27", "leisure": "fitness_centre", "name": "Bodyworks"}}]}