{"version": 0.6, "generator": "Overpass API 0.7.62.8 e802775f", "osm3s": {"timestamp_osm_base": "2025-12-06T05:09:45Z", "copyright": "The data included in this document is from www.openstreetmap.org. The data is made available under ODbL."}, "elements": [{"type": "node", "id": 731226161, "lat": 43.6802634, "lon": -114.364498, "tags": {"amenity": "restaurant", "name": "Smokey Mountain Pizza"}}, {"type": "node", "id": 731226162, "lat": 43.6823913, "lon": -114.3638167, "tags": {"name": "Atkinson's Market", "shop": "supermarket"}}, {"type": "node", "id": 731226183, "lat": 43.6802304, "lon": -114.363924, "tags": {"amenity": "restaurant", "name": "Sawtooth Club"}}, {"type": "node", "id": 731226184, "lat": 43.6800849, "lon": -114.3637362, "tags": {"amenity": "restaurant", "name": "Cornerstone Bar and Grill"}}, {"type": "node", "id": 731242365, "lat": 43.6804845, "lon": -114.364278, "tags": {"addr:housenumber": "291", "addr:state": "ID", "addr:street": "Main Street", "name": "Sotheby's", "office": "estate_agent"}}, {"type": "node", "id": 2420299853, "lat": 43.6798982, "lon": -114.3624748}, {"type": "node", "id": 2420299857, "lat": 43.6800915, "lon": -114.3621984}, {"type": "node", "id": 2420299859, "lat": 43.6801126, "lon": -114.3627614}, {"type": "node", "id": 2420299861, "lat": 43.680124, "lon": -114.3622418}, {"type": "node", "id": 2420299865, "lat": 43.6801543, "lon": -114.3621986}, {"type": "node", "id": 2420299886, "lat": 43.6803361, "lon": -114.3624417}, {"type": "node", "id": 2420352210, "lat": 43.6801778, "lon": -114.3638617}, {"type": "node", "id": 2421244445, "lat": 43.6792583, "lon": -114.3648544}, {"type": "node", "id": 2421244455, "lat": 43.679314, "lon": -114.3647766}, {"type": "node", "id": 2421244467, "lat": 43.6793582, "lon": -114.3649911}, {"type": "node", "id": 2421244482, "lat": 43.6794139, "lon": -114.3649133}, {"type": "node", "id": 2421244977, "lat": 43.6815414, "lon": -114.3719514}, {"type": "node", "id": 2421244984, "lat": 43.6815823, "lon": -114.3718567}, {"type": "node", "id": 2421244989, "lat": 43.6815947, "lon": -114.371873}, {"type": "node", "id": 2421244996, "lat": 43.6816206, "lon": -114.3720545}, {"type": "node", "id": 2421245002, "lat": 43.6816443, "lon": -114.3717657}, {"type": "node", "id": 2421245008, "lat": 43.6816568, "lon": -114.3717819}, {"type": "node", "id": 2421245028, "lat": 43.6816948, "lon": -114.3719456}, {"type": "node", "id": 2421245029, "lat": 43.6816977, "lon": -114.3719494}, {"type": "node", "id": 2421245045, "lat": 43.6817335, "lon": -114.3718969}, {"type": "node", "id": 2421245047, "lat": 43.68174, "lon": -114.3716597}, {"type": "node", "id": 2421245050, "lat": 43.6817451, "lon": -114.371912}, {"type": "node", "id": 2421245070, "lat": 43.6818338, "lon": -114.3717817}, {"type": "node", "id": 4674481659, "lat": 43.6800633, "lon": -114.36353, "tags": {"addr:city": "Ketchum", "addr:housenumber": "200", "addr:postcode": "83340", "addr:state": "ID", "addr:street": "Main St N", "amenity": "restaurant", "cuisine": "italian", "name": "Rico's Authentic Italian", "phone": "+1-208-726-7426", "website": "http://ricosauthenticitalian.com"}}, {"type": "node", "id": 6420646645, "lat": 43.6792624, "lon": -114.365294, "tags": {"addr:city": "Ketchum", "addr:housenumber": "251", "addr:postcode": "83340", "addr:state": "ID", "addr:street": "1st Avenue North", "fax": "+1-208-726-2244", "name": "Idaho Mountain Real Estate", "office": "estate_agent", "phone": "+1-208-726-2266", "website": "https://imresv.com/"}}, {"type": "node", "id": 7884438856, "lat": 43.681606, "lon": -114.362016, "tags": {"amenity": "post_office", "brand": "The UPS Store", "brand:wikidata": "Q7771029", "name": "The UPS Store", "shop": "copyshop", "short_name": "UPS"}}, {"type": "node", "id": 7884464779, "lat": 43.6815975, "lon": -114.3621057, "tags": {"amenity": "restaurant", "name": "The Haven"}}, {"type": "node", "id": 7884467258, "lat": 43.6816967, "lon": -114.363048, "tags": {"addr:city": "Ketchum", "addr:housenumber": "491", "addr:postcode": "83340", "addr:state": "ID", "addr:street": "Sun Valley Road", "amenity": "cafe", "branch": "Town Square Ketchum", "brand": "Starbucks", "brand:wikidata": "Q37158", "cuisine": "coffee_shop", "name": "Starbucks", "official_name": "Starbucks Coffee", "phone": "+1 208-928-7039", "ref": "68811", "takeaway": "yes", "website": "https://www.starbucks.com/store-locator/store/68811/town-square-ketchum-491-sun-valley-rd-ketchum-id-83340-us"}}, {"type": "node", "id": 8920491975, "lat": 43.6797811, "lon": -114.3633132}, {"type": "node", "id": 8920491976, "lat": 43.6798445, "lon": -114.3633965}, {"type": "node", "id": 8920491977, "lat": 43.6797588, "lon": -114.3635224}, {"type": "node", "id": 8920491978, "lat": 43.6797173, "lon": -114.3634686}, {"type": "node", "id": 8920491979, "lat": 43.6796676, "lon": -114.3635391}, {"type": "node", "id": 8920491980, "lat": 43.6796441, "lon": -114.3635075}, {"type": "node", "id": 8920505979, "lat": 43.680281, "lon": -114.3640032}, {"type": "node", "id": 8920505981, "lat": 43.6800927, "lon": -114.3642659}, {"type": "node", "id": 8920505983, "lat": 43.6799895, "lon": -114.3641245}, {"type": "node", "id": 8920525703, "lat": 43.6812357, "lon": -114.3643326}, {"type": "node", "id": 8920525704, "lat": 43.6811423, "lon": -114.3644823}, {"type": "node", "id": 8920525705, "lat": 43.6810931, "lon": -114.3644073}, {"type": "node", "id": 8920525706, "lat": 43.6810006, "lon": -114.3645637}, {"type": "node", "id": 8920525707, "lat": 43.6808922, "lon": -114.36442}, {"type": "node", "id": 8920525708, "lat": 43.6810788, "lon": -114.3641296}, {"type": "node", "id": 8948968084, "lat": 43.6808542, "lon": -114.3643533}, {"type": "node", "id": 8948968085, "lat": 43.6807755, "lon": -114.364244}, {"type": "node", "id": 8948968086, "lat": 43.6809753, "lon": -114.3639779}, {"type": "node", "id": 8948968087, "lat": 43.6810479, "lon": -114.3640834}, {"type": "node", "id": 8951943091, "lat": 43.6824097, "lon": -114.363188}, {"type": "node", "id": 8951943092, "lat": 43.6825313, "lon": -114.3630178}, {"type": "node", "id": 8951943093, "lat": 43.6824232, "lon": -114.3628716}, {"type": "node", "id": 8951943094, "lat": 43.6822677, "lon": -114.3630795}, {"type": "node", "id": 8951943095, "lat": 43.6823744, "lon": -114.3632364}, {"type": "node", "id": 9157946919, "lat": 43.6832402, "lon": -114.366806, "tags": {"addr:city": "Ketchum", "addr:housenumber": "650", "addr:postcode": "83340", "addr:state": "ID", "addr:street": "North Main Street", "name": "Black Tie Ski Rentals of Sun Valley", "opening_hours": "Mo-Su 08:00-20:00", "shop": "sports"}}, {"type": "node", "id": 9164600618, "lat": 43.6809978, "lon": -114.36451, "tags": {"addr:city": "Ketchum", "addr:housenumber": "340", "addr:postcode": "83340", "addr:state": "ID", "addr:street": "North Main Street", "name": "Sturtevants of Sun Valley", "opening_hours": "Mo-Sa 09:00-18:00; Su 09:00-17:00", "shop": "sports"}}, {"type": "node", "id": 9268858173, "lat": 43.682479, "lon": -114.362002, "tags": {"addr:city": "Ketchum", "addr:housenumber": "303", "addr:postcode": "83340", "addr:state": "ID", "addr:street": "Walnut Avenue", "alt_name": "Olympic Bar", "amenity": "restaurant", "bar": "yes", "cuisine": "french", "loc_name": "The Christy", "name": "Michel's Christiania", "website": "https://www.michelschristiania.com/"}}, {"type": "node", "id": 9268859555, "lat": 43.6811371, "lon": -114.36296, "tags": {"addr:city": "Ketchum", "addr:housenumber": "260", "addr:postcode": "83340", "addr:state": "ID", "addr:street": "Leadville Avenue", "amenity": "restaurant", "cuisine": "american", "name": "The Kneadery"}}, {"type": "node", "id": 10820791630, "lat": 43.681292, "lon": -114.3630577, "tags": {"amenity": "restaurant", "cuisine": "american", "level": "-1", "name": "The Cellar"}}, {"type": "node", "id": 10822381964, "lat": 43.6711076, "lon": -114.3676904, "tags": {"name": "Brass Ranch", "shop": "sports"}}, {"type": "node", "id": 10822381965, "lat": 43.6706381, "lon": -114.3675294, "tags": {"amenity": "bar"}}, {"type": "node", "id": 11103978424, "lat": 43.6788304, "lon": -114.3678393, "tags": {"name": "Wood River Lodge", "shop": "travel_agency"}}, {"type": "node", "id": 11106941166, "lat": 43.6831799, "lon": -114.3673295, "tags": {"name": "Backwoods Mountain Sports", "opening_hours": "Mo-Su 06:00-21:00", "shop": "sports"}}, {"type": "node", "id": 11106951519, "lat": 43.6831118, "lon": -114.3666188, "tags": {"female": "yes", "male": "yes", "name": "The Hive Salon", "opening_hours": "Th,Fr 09:00-17:00; Mo-We 09:00-17:00", "shop": "hairdresser"}}, {"type": "node", "id": 11106952880, "lat": 43.682068, "lon": -114.3658284, "tags": {"name": "Silver Creek Outfitters", "opening_hours": "Mo-Sa 08:00-18:00; Su 08:00-17:00", "shop": "clothes"}}, {"type": "node", "id": 11106962068, "lat": 43.6826335, "lon": -114.366288, "tags": {"name": "Hotel Ketchum", "opening_hours": "24/7", "shop": "travel_agency"}}, {"type": "node", "id": 11106963123, "lat": 43.6824118, "lon": -114.3654163, "tags": {"name": "Deja Vu", "shop": "clothes"}}, {"type": "node", "id": 11106965853, "lat": 43.6823128, "lon": -114.3652512, "tags": {"name": "Theodore", "opening_hours": "Tu-Fr 11:00-17:00, Fr,Sa 00:00-16:00; Su off", "shop": "clothes"}}, {"type": "node", "id": 11106965854, "lat": 43.6812932, "lon": -114.3646599, "tags": {"name:signed": "no", "shop": "vacant"}}, {"type": "node", "id": 11106977243, "lat": 43.6812954, "lon": -114.3646817, "tags": {"name": "Cycle Haus", "opening_hours": "Mo-Sa 09:30-18:00; Su 11:00-17:00", "shop": "sports"}}, {"type": "node", "id": 11108304752, "lat": 43.6823074, "lon": -114.3654385, "tags": {"beauty": "nails", "name": "In & Out Salon", "opening_hours": "Mo-Sa 09:00-17:00; Su off", "shop": "beauty"}}, {"type": "node", "id": 11108319139, "lat": 43.6822673, "lon": -114.3652523, "tags": {"female": "yes", "male": "yes", "name": "Brush Hair Studio", "opening_hours": "Tu-Fr 11:00-17:30; Sa-Mo off", "shop": "hairdresser"}}, {"type": "node", "id": 11108327892, "lat": 43.6821108, "lon": -114.3649953, "tags": {"beauty": "nails", "name": "Nails By Sherine", "shop": "beauty"}}, {"type": "node", "id": 11108353319, "lat": 43.6816874, "lon": -114.3645752, "tags": {"name": "Warren and Company interior architecture & design", "office": "architect"}}, {"type": "node", "id": 11108354703, "lat": 43.6817391, "lon": -114.3663613, "tags": {"amenity": "restaurant", "name": "The Covey", "opening_hours": "Mo-Fr 17:30-21:00; Sa,Su off"}}, {"type": "node", "id": 11108382457, "lat": 43.6814103, "lon": -114.3665336, "tags": {"name": "Mountain Adventure Tours", "office": "guide"}}, {"type": "node", "id": 11108402911, "lat": 43.6815877, "lon": -114.3662071, "tags": {"name": "American Capital Advisory", "office": "estate_agent"}}, {"type": "node", "id": 11108402912, "lat": 43.6816696, "lon": -114.366187, "tags": {"name": "Rixon + Cronin | Keller Williams Sun Valley Southern Idaho", "office": "estate_agent"}}, {"type": "node", "id": 11108403151, "lat": 43.6816299, "lon": -114.366281, "tags": {"name": "Latham Interiors", "shop": "interior_decoration"}}, {"type": "way", "id": 233686125, "nodes": [2420299859, 2420299886, 2420299865, 2420299861, 2420299857, 2420299853, 2420299859], "tags": {"addr:city": "Ketchum", "addr:housenumber": "100 N", "addr:postcode": "83340", "addr:state": "ID", "addr:street": "Main Street", "building": "yes", "name": "Village Market", "shop": "supermarket", "source": "Bing"}}, {"type": "way", "id": 233788634, "nodes": [2421245047, 2421245008, 2421245002, 2421244984, 2421244989, 2421244977, 2421244996, 2421245028, 2421245029, 2421245045, 2421245050, 2421245070, 2421245047], "tags": {"addr:city": "Ketchum", "addr:housenumber": "900", "addr:postcode": "83340", "addr:state": "ID", "addr:street": "3rd Avenue", "building": "yes", "name": "City of Ketchum Recreation Department", "office": "government", "source": "Bing"}}, {"type": "way", "id": 233788697, "nodes": [2421244482, 2421244455, 2421244445, 2421244467, 2421244482], "tags": {"addr:city": "Ketchum", "addr:housenumber": "131", "addr:postcode": "83340", "addr:state": "ID", "addr:street": "2nd Street East", "building": "yes", "name": "Durance Cycleworks", "shop": "bicycle", "source": "Bing", "website": "https://www.durance.com/"}}, {"type": "way", "id": 964406891, "nodes": [8920491975, 8920491976, 8920491977, 8920491978, 8920491979, 8920491980, 8920491975], "tags": {"addr:city": "Ketchum", "addr:housenumber": "151", "addr:postcode": "83340", "addr:state": "ID", "addr:street": "North Main Street", "amenity": "restaurant", "building": "yes", "name": "NourishMe"}}, {"type": "way", "id": 964410887, "nodes": [2420352210, 8920505979, 8920505981, 8920505983, 2420352210], "tags": {"addr:city": "Ketchum", "addr:housenumber": "251", "addr:postcode": "83340", "addr:state": "ID", "addr:street": "North Main Street", "amenity": "restaurant", "building": "yes", "name": "Whiskey Jacques"}}, {"type": "way", "id": 964411081, "nodes": [8920525703, 8920525704, 8920525705, 8920525706, 8920525707, 8920525708, 8920525703], "tags": {"addr:city": "Ketchum", "addr:housenumber": "320", "addr:postcode": "83340", "addr:state": "ID", "addr:street": "North Main Street", "amenity": "restaurant", "building": "yes", "name": "Pioneer Saloon", "opening_hours": "Mo-Su 16:00-21:30"}}, {"type": "way", "id": 967291434, "nodes": [8948968084, 8948968085, 8948968086, 8948968087, 8948968084], "tags": {"addr:city": "Ketchum", "addr:housenumber": "300", "addr:postcode": "83340", "addr:state": "ID", "addr:street": "North Main Street", "amenity": "restaurant", "building": "yes", "cuisine": "pizza", "name": "Enoteca", "opening_hours": "Su-Th 05:00-21:00; Fr,Sa 05:00-21:15"}}, {"type": "way", "id": 967629072, "nodes": [8951943091, 8951943092, 8951943093, 8951943094, 8951943095, 8951943091], "tags": {"addr:city": "Ketchum", "addr:housenumber": "380", "addr:postcode": "83340", "addr:state": "ID", "addr:street": "East Avenue", "amenity": "cafe", "building": "yes", "name": "Wildflour Cafe"}}]}