{"version": 0.6, "generator": "Overpass API 0.7.62.8 e802775f", "osm3s": {"timestamp_osm_base": "2025-12-12T22:27:23Z", "copyright": "The data included in this document is from www.openstreetmap.org. The data is made available under ODbL."}, "elements": [{"type": "node", "id": 559714055, "lat": 39.6075782, "lon": -104.9591232}, {"type": "node", "id": 559714056, "lat": 39.6073005, "lon": -104.9591317}, {"type": "node", "id": 559714058, "lat": 39.6073005, "lon": -104.9590116}, {"type": "node", "id": 559714059, "lat": 39.6075782, "lon": -104.959003}, {"type": "node", "id": 1368581673, "lat": 39.6093802, "lon": -104.9581076, "tags": {"addr:city": "Greenwood Village", "addr:housename": "Cherry Hills Marketplace", "addr:housenumber": "2500", "addr:postcode": "80121", "addr:street": "East Orchard Road", "addr:unit": "E", "amenity": "restaurant", "cuisine": "pizza", "delivery": "no", "name": "Sazza", "phone": "+1-303-797-2992", "smoking": "no", "takeaway": "yes", "website": "https://sazzarestaurant.com/", "wheelchair": "yes"}}, {"type": "node", "id": 1368581675, "lat": 39.6081307, "lon": -104.95813, "tags": {"addr:city": "Greenwood Village", "addr:housename": "Cherry Hills Marketplace", "addr:housenumber": "5910", "addr:postcode": "80121", "addr:state": "CO", "addr:street": "South University Boulevard", "addr:unit": "A20", "alt_name": "TJ Maxx Homegoods", "brand": "TJ Maxx", "brand:wikidata": "Q10860683", "name": "TJ Maxx", "opening_hours": "Mo-Sa 09:30-21:30, Su 09:30-18:00", "phone": "+1-303-794-5921", "shop": "department_store"}}, {"type": "node", "id": 1368581676, "lat": 39.6089863, "lon": -104.9572195, "tags": {"addr:city": "Greenwood Village", "addr:housename": "Cherry Hills Marketplace", "addr:housenumber": "5910", "addr:postcode": "80121", "addr:state": "CO", "addr:street": "South University Boulevard", "addr:unit": "D3", "amenity": "cafe", "branch": "Cherry Hills", "brand": "Starbucks", "brand:wikidata": "Q37158", "check_date": "2018-01-12", "cuisine": "coffee_shop", "name": "Starbucks", "official_name": "Starbucks Coffee", "opening_hours": "Mo-Sa 05:00-20:00, Su 06:00-18:00", "phone": "+1 303-794-2966", "takeaway": "yes", "website": "https://www.starbucks.com/store-locator/store/14997/cherry-hills-5910-south-university-blvd-d-3-littleton-co-801212"}}, {"type": "node", "id": 1368581677, "lat": 39.6082311, "lon": -104.9586051, "tags": {"addr:city": "Greenwood Village", "addr:housename": "Cherry Hills Marketplace", "addr:housenumber": "5910", "addr:postcode": "80121", "addr:state": "CO", "addr:street": "South University Boulevard", "addr:unit": "A17", "brand": "Ace Hardware", "brand:wikidata": "Q4672981", "name": "Ace Hardware", "opening_hours": "Mo-Fr 08:00-19:00, Sa 08:00-18:00, Su 09:00-17:00", "phone": "+1 720-974-1080", "ref": "14516", "shop": "doityourself"}}, {"type": "node", "id": 2688946704, "lat": 39.609257, "lon": -104.957115, "tags": {"addr:city": "Greenwood Village", "addr:housename": "Cherry Hills Marketplace", "addr:housenumber": "5910", "addr:postcode": "80121", "addr:state": "CO", "addr:street": "South University Boulevard", "addr:unit": "E1", "alt_name": "Trader Joe's - Greenwood Village", "branch": "Greenwood Village", "brand": "Trader Joe's", "brand:wikidata": "Q688825", "check_date": "2023-12-18", "name": "Trader Joe's", "opening_hours": "Mo-Su 09:00-21:00", "phone": "+1 303-730-3848", "ref": "303", "shop": "supermarket", "website": "https://www.traderjoes.com/"}}, {"type": "node", "id": 3438481298, "lat": 39.6100647, "lon": -104.9617601}, {"type": "node", "id": 3438484650, "lat": 39.6098418, "lon": -104.9623489, "tags": {"amenity": "drinking_water"}}, {"type": "node", "id": 3699202925, "lat": 39.6082312, "lon": -104.95913, "tags": {"addr:city": "Greenwood Village", "addr:housenumber": "5910", "addr:postcode": "80121", "addr:street": "South University Boulevard", "addr:unit": "A14", "name": "Swoozie's", "opening_hours": "Mo-Sa 09:00-18:00, Su 12:00-17:00", "phone": "+1-720-328-7195", "shop": "gift", "website": "https://www.swoozies.com/"}}, {"type": "node", "id": 5322799476, "lat": 39.60826, "lon": -104.959582, "tags": {"addr:city": "Greenwood Village", "addr:housename": "Cherry Hills Marketplace", "addr:housenumber": "5910", "addr:postcode": "80121", "addr:state": "CO", "addr:street": "South University Boulevard", "addr:unit": "A10", "brand": "Great Harvest Bread Company", "brand:wikidata": "Q5599297", "email": "spschroeder@greatharvest.com", "name": "Great Harvest Bread Company", "opening_hours": "Mo-Sa 06:00-20:00, Su closed", "operator": "Steve and Penni Schroeder", "phone": "+1-303-347-8767", "shop": "bakery", "website": "http://www.ghgreenwoodvillage.com"}}, {"type": "node", "id": 5322799478, "lat": 39.6081988, "lon": -104.9594378, "tags": {"addr:city": "Greenwood Village", "addr:housename": "Cherry Hills Marketplace", "addr:housenumber": "5910", "addr:postcode": "80121", "addr:state": "CO", "addr:street": "South University Boulevard", "addr:unit": "A9", "amenity": "fast_food", "cuisine": "yogurt", "name": "Yogurt Shack"}}, {"type": "node", "id": 5322817036, "lat": 39.607768, "lon": -104.9595324, "tags": {"addr:city": "Greenwood Village", "addr:housename": "Cherry Hills Marketplace", "addr:housenumber": "5910", "addr:postcode": "80121", "addr:state": "CO", "addr:street": "South University Boulevard", "addr:unit": "A1", "beauty": "nails", "name": "European Nails", "opening_hours": "Mo-Fr 09:30-19:00, Sa 09:30-18:30, Su 10:00-17:30", "shop": "beauty"}}, {"type": "node", "id": 5322817037, "lat": 39.607906, "lon": -104.9595022, "tags": {"addr:city": "Greenwood Village", "addr:housename": "Cherry Hills Marketplace", "addr:housenumber": "5910", "addr:postcode": "80121", "addr:state": "CO", "addr:street": "South University Boulevard", "addr:unit": "A4", "name": "Finley's Barbershop", "shop": "hairdresser"}}, {"type": "node", "id": 5322817039, "lat": 39.6079863, "lon": -104.9594459, "tags": {"addr:city": "Greenwood Village", "addr:housename": "Cherry Hills Marketplace", "addr:housenumber": "5910", "addr:postcode": "80121", "addr:state": "CO", "addr:street": "South University Boulevard", "addr:unit": "A7", "alt_name": "Chez Jose Mexican Restaurant", "amenity": "restaurant", "cuisine": "mexican", "name": "Chez Jose", "opening_hours": "Mo-Sa 08:00-21:00, Su 09:00-20:00"}}, {"type": "node", "id": 5322844718, "lat": 39.6078907, "lon": -104.958682, "tags": {"addr:city": "Greenwood Village", "addr:housename": "Cherry Hills Marketplace", "addr:housenumber": "5910", "addr:postcode": "80121", "addr:state": "CO", "addr:street": "South University Boulevard", "amenity": "post_office", "brand": "United States Post Office", "brand:wikidata": "Q668687", "name": "United States Post Office", "note": "located in Ace Hardware", "operator": "United States Postal Service", "operator:short": "USPS", "operator:type": "public", "operator:website": "https://www.usps.com", "operator:wikidata": "Q668687", "operator:wikipedia": "en:United States Postal Service", "short_name": "USPS"}}, {"type": "node", "id": 5322844719, "lat": 39.6074697, "lon": -104.9597291}, {"type": "node", "id": 5322846621, "lat": 39.6082319, "lon": -104.958372, "tags": {"addr:city": "Greenwood Village", "addr:housename": "Cherry Hills Marketplace", "addr:housenumber": "5910", "addr:postcode": "80121", "addr:state": "CO", "addr:street": "South University Boulevard", "addr:unit": "A18", "alt_name": "Sally Beauty Supply", "brand": "Sally Beauty", "brand:wikidata": "Q7405065", "name": "Sally Beauty", "opening_hours": "Mo-Sa 09:00-20:00, Su 11:00-18:00", "shop": "hairdresser_supply"}}, {"type": "node", "id": 5322867789, "lat": 39.6083174, "lon": -104.957572, "tags": {"addr:city": "Greenwood Village", "addr:housename": "Cherry Hills Marketplace", "addr:housenumber": "5910", "addr:postcode": "80121", "addr:state": "CO", "addr:street": "South University Boulevard", "addr:unit": "B3", "alt_name": "Sweet Cheeks Boutique", "name": "Sweet Cheeks", "opening_hours": "Mo-Fr 10:00-18:00, Sa 09:00-16:00, Su-Mo closed", "shop": "clothes"}}, {"type": "node", "id": 5322867790, "lat": 39.6082542, "lon": -104.9578145, "tags": {"addr:city": "Greenwood Village", "addr:housename": "Cherry Hills Marketplace", "addr:housenumber": "5910", "addr:postcode": "80121", "addr:state": "CO", "addr:street": "South University Boulevard", "addr:unit": "B1", "alt_name": "Menya Sushi Ramen Tapas", "amenity": "restaurant", "cuisine": "japanese;sushi", "name": "Menya"}}, {"type": "node", "id": 5322867791, "lat": 39.6082599, "lon": -104.9573798, "tags": {"addr:city": "Greenwood Village", "addr:housename": "Cherry Hills Marketplace", "addr:housenumber": "5910", "addr:postcode": "80121", "addr:state": "CO", "addr:street": "South University Boulevard", "addr:unit": "B4", "amenity": "veterinary", "name": "Cherry Hills Animal Hospital", "opening_hours": "Mo-Fr 08:00-18:00, Sa 08:00-13:00, Su closed"}}, {"type": "node", "id": 5322867792, "lat": 39.6083998, "lon": -104.957724, "tags": {"addr:city": "Greenwood Village", "addr:housename": "Cherry Hills Marketplace", "addr:housenumber": "5910", "addr:postcode": "80121", "addr:state": "CO", "addr:street": "South University Boulevard", "addr:unit": "B2", "alt_name": "Foot Solutions", "brand": "Foot Solutions", "brand:wikidata": "Q69982369", "healthcare:speciality": "pedorthist", "name": "Foot Solutions", "opening_hours": "Mo-Sa 10:00-18:00, Su closed", "phone": "+1-303-333-1553", "shoes": "orthopaedic", "shop": "shoes", "website": "http://www.footsavvy.com"}}, {"type": "node", "id": 5322892003, "lat": 39.6083342, "lon": -104.957261, "tags": {"addr:city": "Greenwood Village", "addr:housename": "Cherry Hills Marketplace", "addr:housenumber": "5910", "addr:postcode": "80121", "addr:state": "CO", "addr:street": "South University Boulevard", "addr:unit": "C4", "name": "Edward Jones", "not:brand:wikidata": "Q5343830", "office": "financial_advisor", "opening_hours": "Mo-Fr 08:30-17:00, Sa-Su \"by appointment\"", "phone": "+1 303 797 0446", "website": "https://www.edwardjones.com/"}}, {"type": "node", "id": 5322892004, "lat": 39.6084485, "lon": -104.957377, "tags": {"addr:city": "Greenwood Village", "addr:housename": "Cherry Hills Marketplace", "addr:housenumber": "5910", "addr:postcode": "80121", "addr:state": "CO", "addr:street": "South University Boulevard", "addr:unit": "C8", "name": "Original Glass Works", "opening_hours": "Mo-Sa, Su closed", "phone": "+1-303-730-7166", "shop": "houseware", "website": "http://www.originalglassworks.com"}}, {"type": "node", "id": 5322915896, "lat": 39.6088544, "lon": -104.95721, "tags": {"addr:city": "Greenwood Village", "addr:housename": "Cherry Hills Marketplace", "addr:housenumber": "5910", "addr:postcode": "80121", "addr:state": "CO", "addr:street": "South University Boulevard", "addr:unit": "C18", "amenity": "post_office", "brand": "The UPS Store", "brand:wikidata": "Q7771029", "name": "The UPS Store", "opening_hours": "Mo-Fr 08:00-18:30, Sa 09:00-17:00, Su closed", "operator": "The UPS Store", "operator:type": "private", "operator:wikidata": "Q7771029", "operator:wikipedia": "en:The UPS Store", "shop": "copyshop", "short_name": "UPS"}}, {"type": "node", "id": 5322915897, "lat": 39.6085122, "lon": -104.9572771, "tags": {"addr:city": "Greenwood Village", "addr:housename": "Cherry Hills Marketplace", "addr:housenumber": "5910", "addr:postcode": "80121", "addr:state": "CO", "addr:street": "South University Boulevard", "addr:unit": "C11", "name": "Franklin & Martin Jewelers", "shop": "jewelry"}}, {"type": "node", "id": 5322915898, "lat": 39.6086714, "lon": -104.9572044, "tags": {"addr:city": "Greenwood Village", "addr:housename": "Cherry Hills Marketplace", "addr:housenumber": "5910", "addr:postcode": "80121", "addr:state": "CO", "addr:street": "South University Boulevard", "addr:unit": "C14", "name": "Rebel", "shop": "clothes"}}, {"type": "node", "id": 5322915899, "lat": 39.6089021, "lon": -104.9573684, "tags": {"addr:city": "Greenwood Village", "addr:housename": "Cherry Hills Marketplace", "addr:housenumber": "5910", "addr:postcode": "80121", "addr:state": "CO", "addr:street": "South University Boulevard", "addr:unit": "D1", "name": "Razzle Toys", "opening_hours": "Mo-Sa 09:00-18:00, Su 11:00-16:00", "shop": "toys"}}, {"type": "node", "id": 5322915900, "lat": 39.6087574, "lon": -104.957381, "tags": {"addr:city": "Greenwood Village", "addr:housename": "Cherry Hills Marketplace", "addr:housenumber": "5910", "addr:postcode": "80121", "addr:state": "CO", "addr:street": "South University Boulevard", "addr:unit": "C16", "check_date": "2025-11-12", "contact:facebook": "TheBundtShoppe", "contact:instagram": "thebundtshoppe", "currency:XBT": "yes", "email": "info@thebundtshoppe.com", "name": "The Bundt Shoppe", "opening_hours": "Mo-Fr 09:00-18:00; Sa 09:00-16:00", "payment:lightning": "yes", "payment:lightning:operator": "square", "payment:lightning_contactless": "no", "payment:onchain": "no", "phone": "+1 303 798 4145", "shop": "bakery", "website": "http://wwe.thebundtshoppe.com"}}, {"type": "node", "id": 5322915901, "lat": 39.6086057, "lon": -104.9573758, "tags": {"addr:city": "Greenwood Village", "addr:housename": "Cherry Hills Marketplace", "addr:housenumber": "5910", "addr:postcode": "80121", "addr:state": "CO", "addr:street": "South University Boulevard", "addr:unit": "C12", "name": "be.", "opening_hours": "Mo-Sa 10:00-18:00, Su closed", "shop": "gift"}}, {"type": "node", "id": 5322915902, "lat": 39.6090847, "lon": -104.9573609, "tags": {"addr:city": "Greenwood Village", "addr:housename": "Cherry Hills Marketplace", "addr:housenumber": "5910", "addr:postcode": "80121", "addr:state": "CO", "addr:street": "South University Boulevard", "addr:unit": "D4", "alt_name": "Bouzy Wine & Spirits", "name": "Bouzy", "shop": "alcohol"}}, {"type": "node", "id": 5322954670, "lat": 39.609477, "lon": -104.9573037, "tags": {"amenity": "atm", "operator": "Colorado State Bank & Trust"}}, {"type": "node", "id": 5322954671, "lat": 39.6093935, "lon": -104.9572277, "tags": {"addr:city": "Greenwood Village", "addr:housename": "Cherry Hills Marketplace", "addr:housenumber": "5910", "addr:postcode": "80121", "addr:state": "CO", "addr:street": "South University Boulevard", "addr:unit": "E3", "name": "Dwell Antiques", "shop": "antiques"}}, {"type": "node", "id": 5322954672, "lat": 39.6091684, "lon": -104.9573567, "tags": {"amenity": "bicycle_parking", "capacity": "9"}}, {"type": "node", "id": 5322954673, "lat": 39.609335, "lon": -104.957327, "tags": {"addr:city": "Greenwood Village", "addr:housename": "Cherry Hills Marketplace", "addr:housenumber": "5910", "addr:postcode": "80121", "addr:state": "CO", "addr:street": "South University Boulevard", "addr:unit": "E2", "amenity": "pharmacy", "brand": "Pharmaca", "brand:wikidata": "Q113391431", "healthcare": "pharmacy", "name": "Pharmaca", "opening_hours:pharmacy": "Mo-Fr 09:00-20:00, Sa 09:00-18:00, Su 10:00-18:00", "opening_hours:store": "Mo-Sa 09:00-20:00, Su 10:00-18:00"}}, {"type": "node", "id": 5322954674, "lat": 39.6094612, "lon": -104.9570763, "tags": {"addr:city": "Greenwood Village", "addr:housename": "Cherry Hills Marketplace", "addr:housenumber": "5910", "addr:postcode": "80121", "addr:state": "CO", "addr:street": "South University Boulevard", "addr:unit": "E5", "amenity": "bank", "atm": "yes", "name": "Colorado State Bank and Trust", "opening_hours": "Mo-Fr 09:00-17:00, Sa 09:00-12:00, Su closed", "opening_hours:drive_through": "Mo-Fr 09:00-17:00, Sa 09:00-12:00, Su closed"}}, {"type": "node", "id": 5394414808, "lat": 39.6083856, "lon": -104.9604304, "tags": {"addr:city": "Greenwood Village", "addr:housename": "Cherry Crest Shopette", "addr:housenumber": "5999", "addr:postcode": "80121", "addr:state": "CO", "addr:street": "South University Boulevard", "check_date": "2025-11-13", "delivery": "yes", "dine_in": "no", "drive_through": "no", "email": "info@annasdonutsburritos.com", "name": "Anna's Donuts & Burritos", "opening_hours": "Mo off; Tu-Su 06:00-13:00", "opening_hours:delivery": "Mo-Sa 17:00-21:00, Su 17:00-20:00", "opening_hours:pickup": "Mo-Sa 11:00-21:00, Su 17:00-21:00", "phone": "+1-720-968-2293", "shop": "bakery", "takeaway": "yes", "website": "https://annasdonutsburritos.com/"}}, {"type": "node", "id": 5394437393, "lat": 39.6089702, "lon": -104.9605067, "tags": {"addr:city": "Greenwood Village", "addr:housename": "Cherry Crest Shopette", "addr:postcode": "80121", "addr:state": "CO", "addr:street": "South University Boulevard", "amenity": "restaurant", "name": "Tzatziki's Restaurant"}}, {"type": "node", "id": 5394437394, "lat": 39.6087189, "lon": -104.9605296, "tags": {"addr:city": "Greenwood Village", "addr:housename": "Cherry Crest Shopette", "addr:postcode": "80121", "addr:state": "CO", "addr:street": "South University Boulevard", "beauty": "nails", "shop": "beauty"}}, {"type": "node", "id": 5394437395, "lat": 39.6086166, "lon": -104.960455, "tags": {"addr:city": "Greenwood Village", "addr:housename": "Cherry Crest Shopette", "addr:postcode": "80121", "addr:state": "CO", "addr:street": "South University Boulevard", "amenity": "dentist", "healthcare": "dentist"}}, {"type": "node", "id": 5394437396, "lat": 39.6085624, "lon": -104.9605471, "tags": {"addr:city": "Greenwood Village", "addr:housename": "Cherry Crest Shopette", "addr:postcode": "80121", "addr:state": "CO", "addr:street": "South University Boulevard", "amenity": "restaurant", "cuisine": "italian", "name": "Sansone's Bistro"}}, {"type": "node", "id": 5394437397, "lat": 39.6084967, "lon": -104.960421, "tags": {"addr:city": "Greenwood Village", "addr:housename": "Cherry Crest Shopette", "addr:postcode": "80121", "addr:state": "CO", "addr:street": "South University Boulevard", "alt_name": "Tend Home/Garden Flowers", "name": "Tend Flowers", "shop": "florist"}}, {"type": "node", "id": 5394437398, "lat": 39.6084523, "lon": -104.9605671, "tags": {"addr:city": "Greenwood Village", "addr:housename": "Cherry Crest Shopette", "addr:postcode": "80121", "addr:state": "CO", "addr:street": "South University Boulevard", "name": "Patina Antiques & Home", "shop": "antiques"}}, {"type": "node", "id": 5394453480, "lat": 39.6088783, "lon": -104.9605664, "tags": {"addr:city": "Greenwood Village", "addr:housename": "Cherry Crest Shopette", "addr:housenumber": "7582", "addr:postcode": "80121", "addr:state": "CO", "addr:street": "South University Boulevard", "shop": "massage"}}, {"type": "node", "id": 5394453481, "lat": 39.6088026, "lon": -104.9604503, "tags": {"addr:city": "Greenwood Village", "addr:housename": "Cherry Crest Shopette", "addr:postcode": "80121", "addr:state": "CO", "addr:street": "South University Boulevard", "name": "Gopher Liquors", "shop": "alcohol"}}, {"type": "node", "id": 5394483949, "lat": 39.6094266, "lon": -104.959234, "tags": {"addr:city": "Greenwood Village", "addr:housenumber": "5900", "addr:postcode": "80121", "addr:state": "CO", "addr:street": "South University Boulevard", "addr:unit": "C5", "branch": "Authorized Retailer", "brand": "AT&T", "brand:wikidata": "Q298594", "name": "AT&T", "opening_hours": "Mo-Sa 10:00-20:00, Su 11:00-18:00", "phone": "+1-720-214-0550", "shop": "mobile_phone", "website": "https://www.att.com/"}}, {"type": "node", "id": 5394483950, "lat": 39.6093088, "lon": -104.9590959, "tags": {"addr:city": "Greenwood Village", "addr:housenumber": "5900", "addr:postcode": "80121", "addr:state": "CO", "addr:street": "South University Boulevard", "addr:unit": "C6", "alt_name": "Massage Envy Cherry Hills", "brand": "Massage Envy", "brand:wikidata": "Q22922899", "email": "clinic0071@massageenvy.com", "fax": "+1-303-531-8808", "name": "Massage Envy", "opening_hours": "Mo-Su 08:00-22:00", "phone": "+1-303-741-3689", "shop": "massage", "website": "http://www.MassageEnvy.com"}}, {"type": "node", "id": 5394483951, "lat": 39.609469, "lon": -104.958988, "tags": {"addr:city": "Greenwood Village", "addr:housenumber": "5900", "addr:postcode": "80121", "addr:state": "CO", "addr:street": "South University Boulevard", "addr:unit": "C7", "alt_name": "Castle & Cooke Mortgage LLC", "branch": "SPX Realty", "brand": "Century 21", "brand:wikidata": "Q1054480", "fax": "+1-303-957-5931", "name": "Century 21", "office": "estate_agent", "opening_hours": "Mo-Fr 08:30-17:30", "phone": "+1-303-331-6430", "website": "http://www.ColoradoHomeSearch.com"}}, {"type": "node", "id": 5394513508, "lat": 39.6093202, "lon": -104.9594125, "tags": {"addr:city": "Greenwood Village", "addr:housenumber": "5900", "addr:postcode": "80121", "addr:state": "CO", "addr:street": "South University Boulevard", "addr:unit": "C3", "alt_name": "PetSmart Store 2569", "brand": "PetSmart", "brand:wikidata": "Q3307147", "fax": "+1 303-795-3433", "name": "PetSmart", "opening_hours": "Mo-Sa 09:00-21:00, Su 10:00-18:00", "opening_hours:grooming": "Tu-Sa 08:00-18:00, Su-Mo 08:00-17:00", "phone": "+1 303-357-3854", "ref": "2609", "shop": "pet", "website": "https://www.petsmart.com/stores/us/co/greenwood-village-store2609.html"}}, {"type": "node", "id": 5394523082, "lat": 39.6093821, "lon": -104.9596847, "tags": {"addr:city": "Greenwood Village", "addr:housenumber": "5900", "addr:postcode": "80121", "addr:state": "CO", "addr:street": "South University Boulevard", "addr:unit": "A", "alt_name": "Cili The Salon & Day Spa", "name": "Cili", "phone": "+1-303-730-0400", "shop": "hairdresser", "website": "http://cilithesalonanddayspa.com/"}}, {"type": "node", "id": 5394531447, "lat": 39.609061, "lon": -104.9604598, "tags": {"addr:city": "Greenwood Village", "addr:housename": "Cherry Crest Shopette", "addr:postcode": "80121", "addr:state": "CO", "addr:street": "South University Boulevard", "amenity": "restaurant", "cuisine": "seafood", "name": "Cherry Crest Seafood Restaurant & Market"}}, {"type": "node", "id": 5394897466, "lat": 39.6095072, "lon": -104.960344, "tags": {"amenity": "fuel", "brand": "Shell", "brand:wikidata": "Q110716465", "name": "Shell", "source": "Bing"}}, {"type": "node", "id": 5394897479, "lat": 39.609345, "lon": -104.960408, "tags": {"brand": "Shell", "brand:wikidata": "Q110716465", "name": "Shell", "shop": "convenience", "source": "Bing"}}, {"type": "node", "id": 5394897480, "lat": 39.6086558, "lon": -104.96038}, {"type": "node", "id": 5394911554, "lat": 39.6091339, "lon": -104.9601969}, {"type": "node", "id": 5394911556, "lat": 39.6092045, "lon": -104.9602841}, {"type": "node", "id": 5394911558, "lat": 39.6083052, "lon": -104.9605175, "tags": {"traffic_calming": "bump"}}, {"type": "node", "id": 5394911560, "lat": 39.6086951, "lon": -104.9602851}, {"type": "node", "id": 5394911561, "lat": 39.6084533, "lon": -104.9602861}, {"type": "node", "id": 5394911562, "lat": 39.6084089, "lon": -104.9607093}, {"type": "node", "id": 5394911563, "lat": 39.60832, "lon": -104.9606663}, {"type": "node", "id": 5394911564, "lat": 39.6082374, "lon": -104.9605166}, {"type": "node", "id": 5394911566, "lat": 39.6084192, "lon": -104.9601941}, {"type": "node", "id": 5394911569, "lat": 39.6083872, "lon": -104.9607079}, {"type": "node", "id": 5394911570, "lat": 39.608287, "lon": -104.9608045}, {"type": "node", "id": 5394911571, "lat": 39.6085298, "lon": -104.9607079, "tags": {"traffic_calming": "bump"}}, {"type": "node", "id": 5394911573, "lat": 39.609095, "lon": -104.960702}, {"type": "node", "id": 5394911576, "lat": 39.6092096, "lon": -104.9607911}, {"type": "node", "id": 5394911578, "lat": 39.6082374, "lon": -104.9606669}, {"type": "node", "id": 5394911579, "lat": 39.6091348, "lon": -104.9602832}, {"type": "node", "id": 5394911580, "lat": 39.6090257, "lon": -104.9601922}, {"type": "node", "id": 5394911581, "lat": 39.6091356, "lon": -104.9604169, "tags": {"traffic_calming": "bump"}}, {"type": "node", "id": 5394911583, "lat": 39.6088026, "lon": -104.9607049, "tags": {"traffic_calming": "bump"}}, {"type": "node", "id": 5394911584, "lat": 39.6083076, "lon": -104.9606248}, {"type": "node", "id": 5394911585, "lat": 39.6083056, "lon": -104.9605993}, {"type": "node", "id": 5394911586, "lat": 39.6083665, "lon": -104.9607039}, {"type": "node", "id": 5394911587, "lat": 39.608349, "lon": -104.9606959}, {"type": "node", "id": 5394911588, "lat": 39.6090485, "lon": -104.9607022, "tags": {"traffic_calming": "bump"}}, {"type": "node", "id": 5394911589, "lat": 39.6083128, "lon": -104.9606489}, {"type": "node", "id": 5394911590, "lat": 39.6090681, "lon": -104.9602835}, {"type": "node", "id": 5394911591, "lat": 39.6090598, "lon": -104.9608005}, {"type": "node", "id": 5394911592, "lat": 39.6090826, "lon": -104.9603766}, {"type": "node", "id": 5394911593, "lat": 39.6091373, "lon": -104.9607018}, {"type": "node", "id": 5394943311, "lat": 39.6093543, "lon": -104.958849, "tags": {"addr:city": "Greenwood Village", "addr:housename": "Cherry Hills Marketplace", "addr:housenumber": "5900", "addr:postcode": "80121", "addr:state": "CO", "addr:street": "South University Boulevard", "addr:unit": "D", "amenity": "restaurant", "brand": "The Original Pancake House", "brand:wikidata": "Q7755384", "check_date": "2023-10-18", "check_date:opening_hours": "2023-10-18", "cuisine": "breakfast;pancake", "name": "The Original Pancake House", "opening_hours": "Mo-Su 06:00-14:00", "website": "https://originalpancakehouse.com"}}, {"type": "node", "id": 5559978399, "lat": 39.6074067, "lon": -104.9598135}, {"type": "node", "id": 5559978400, "lat": 39.6074067, "lon": -104.9598217}, {"type": "node", "id": 5559978401, "lat": 39.6074755, "lon": -104.9598222}, {"type": "node", "id": 5559978402, "lat": 39.6074759, "lon": -104.9597291}, {"type": "node", "id": 5559978403, "lat": 39.6074703, "lon": -104.9595696}, {"type": "node", "id": 5559978404, "lat": 39.607266, "lon": -104.9595681}, {"type": "node", "id": 5559978405, "lat": 39.6072653, "lon": -104.9597325}, {"type": "node", "id": 5559978406, "lat": 39.6072615, "lon": -104.9597324}, {"type": "node", "id": 5559978407, "lat": 39.6072611, "lon": -104.959822}, {"type": "node", "id": 5559978408, "lat": 39.6073313, "lon": -104.9598225}, {"type": "node", "id": 5559978409, "lat": 39.6073313, "lon": -104.959813}, {"type": "node", "id": 6953062274, "lat": 39.6069206, "lon": -104.9632901, "tags": {"amenity": "bench", "source": "Bing"}}, {"type": "node", "id": 6953062276, "lat": 39.6059428, "lon": -104.9626646, "tags": {"amenity": "bench", "source": "Bing"}}, {"type": "node", "id": 7520781919, "lat": 39.6101742, "lon": -104.941093}, {"type": "node", "id": 7520781920, "lat": 39.6101856, "lon": -104.9410273}, {"type": "node", "id": 7520781921, "lat": 39.6099263, "lon": -104.9406853}, {"type": "node", "id": 7520781922, "lat": 39.6097113, "lon": -104.940629}, {"type": "node", "id": 7520781923, "lat": 39.6096938, "lon": -104.940806}, {"type": "node", "id": 7520781924, "lat": 39.6100626, "lon": -104.9410903}, {"type": "node", "id": 9508125724, "lat": 39.609941, "lon": -104.9617569}, {"type": "node", "id": 9508125725, "lat": 39.609943, "lon": -104.9616322}, {"type": "node", "id": 9508125726, "lat": 39.6099672, "lon": -104.9616328}, {"type": "node", "id": 9508125727, "lat": 39.6099678, "lon": -104.9615968}, {"type": "node", "id": 9508125728, "lat": 39.6102079, "lon": -104.9616032}, {"type": "node", "id": 9508125729, "lat": 39.6102061, "lon": -104.9617219}, {"type": "node", "id": 9508125730, "lat": 39.6100653, "lon": -104.9617181}, {"type": "node", "id": 11193989550, "lat": 39.6093816, "lon": -104.9583393, "tags": {"amenity": "fast_food", "brand": "N\u00e9kter Juice Bar", "brand:wikidata": "Q112826281", "check_date": "2024-07-24", "cuisine": "juice", "drive_through": "no", "name": "N\u00e9kter Juice Bar", "takeaway": "yes", "website": "https://www.nekterjuicebar.com/"}}, {"type": "node", "id": 11194092839, "lat": 39.6082415, "lon": -104.9588603, "tags": {"alt_name": "Sierra Trading Post", "brand": "Sierra", "brand:wikidata": "Q7511598", "name": "Sierra", "shop": "outdoor"}}, {"type": "node", "id": 11867189650, "lat": 39.609385, "lon": -104.9584439, "tags": {"addr:city": "Greenwood Village", "addr:housenumber": "2500", "addr:postcode": "80121", "addr:state": "CO", "addr:street": "East Orchard Road", "addr:unit": "A", "name": "Masten Framing", "opening_hours": "Tu-Sa 10:00-18:00", "phone": "+1 303 276 3152", "shop": "frame", "website": "https://www.frameshopgreenwoodvillage.com/"}}, {"type": "node", "id": 11867189651, "lat": 39.6093832, "lon": -104.9582119, "tags": {"addr:city": "Greenwood Village", "addr:housenumber": "2500", "addr:postcode": "80121", "addr:state": "CO", "addr:street": "East Orchard Road", "addr:unit": "C", "amenity": "restaurant", "cuisine": "chicken", "name": "Chook", "opening_hours": "11:00-20:00", "phone": "+1 303 282 8399", "website": "https://www.chookchicken.com/"}}, {"type": "node", "id": 13332389482, "lat": 39.6093807, "lon": -104.952102, "tags": {"addr:city": "Centennial", "addr:housenumber": "5905", "addr:postcode": "80121", "addr:state": "CO", "addr:street": "South Milwaukee Way", "amenity": "social_facility", "contact:facebook": "RockyMountainAssistedLiving", "contact:person": "David Lewis", "email": "info@rockymountainassistedliving.com", "language:en": "yes", "name": "Rocky Mountain Assisted Living and Memory Care", "opening_hours": "24/7", "phone": "+1-303-625-9370", "social_facility": "assisted_living", "social_facility:for": "senior", "website": "https://rockymountainassistedliving.com/tour-our-locations/centennial-memory-care/"}}, {"type": "way", "id": 44022292, "nodes": [559714055, 559714056, 559714058, 559714059, 559714055], "tags": {"amenity": "car_wash", "automatic": "no", "building": "yes", "service": "self"}}, {"type": "way", "id": 559324544, "nodes": [5394911564, 5394911558, 5394911585, 5394911584, 5394911589, 5394911563, 5394911578, 5394911564], "tags": {"amenity": "parking", "capacity": "4", "parking": "surface", "source": "Bing"}}, {"type": "way", "id": 559324545, "nodes": [5394911560, 5394911561, 5394911566, 5394911580, 5394911590, 5394911579, 5394911592, 5394897480, 5394911560], "tags": {"amenity": "parking", "capacity": "30", "capacity:disabled": "2", "parking": "surface", "source": "Bing"}}, {"type": "way", "id": 559324549, "nodes": [5394911573, 5394911588, 5394911583, 5394911571, 5394911562, 5394911569, 5394911586, 5394911587, 5394911570, 5394911591, 5394911573], "tags": {"amenity": "parking", "capacity": "27", "parking": "surface", "source": "Bing"}}, {"type": "way", "id": 559324551, "nodes": [5394911593, 5394911581, 5394911579, 5394911554, 5394911556, 5394911576, 5394911593], "tags": {"amenity": "parking", "capacity": "9", "capacity:disabled": "1", "parking": "surface", "source": "Bing"}}, {"type": "way", "id": 580960486, "nodes": [5559978409, 5559978408, 5559978407, 5559978406, 5559978405, 5559978404, 5559978403, 5322844719, 5559978402, 5559978401, 5559978400, 5559978399, 5559978409], "tags": {"addr:city": "Greenwood Village", "addr:housenumber": "5990", "addr:postcode": "80121", "addr:state": "CO", "addr:street": "South University Boulevard", "amenity": "clinic", "building": "commercial", "healthcare": "clinic", "name": "AFC Urgent Care", "opening_hours": "Mo-Sa 08:00-20:00; Su 08:00-17:00", "operator": "AFC Urgent Care", "operator:wikidata": "Q110552174", "operator:wikipedia": "en:HCA Healthcare", "phone": "+1 720 446 5890", "urgent_care": "yes", "website": "https://www.carenow.com/locations/denver/greenwood-village/"}}, {"type": "way", "id": 804073289, "nodes": [7520781919, 7520781920, 7520781921, 7520781922, 7520781923, 7520781924, 7520781919], "tags": {"amenity": "parking", "parking": "surface"}}, {"type": "way", "id": 1031688282, "nodes": [3438481298, 9508125724, 9508125725, 9508125726, 9508125727, 9508125728, 9508125729, 9508125730, 3438481298], "tags": {"addr:city": "Greenwood Village", "addr:housenumber": "2349", "addr:postcode": "80112", "addr:state": "CO", "addr:street": "East Orchard Road", "amenity": "arts_centre", "building": "yes", "heritage": "yes", "name": "Curtis Arts and Humanities Center", "source": "microsoft/BuildingFootprints", "wikidata": "Q55608704", "wikipedia": "en:Curtis School (Greenwood Village, Colorado)"}}]}