{"version": 0.6, "generator": "Overpass API 0.7.62.8 e802775f", "osm3s": {"timestamp_osm_base": "2025-12-12T22:46:55Z", "copyright": "The data included in this document is from www.openstreetmap.org. The data is made available under ODbL."}, "elements": [{"type": "node", "id": 358921115, "lat": 39.6973948, "lon": -104.9360016, "tags": {"amenity": "school", "ele": "1642", "gnis:feature_id": "184850", "name": "Saint Andrew Seminary"}}, {"type": "node", "id": 366395198, "lat": 39.6986409, "lon": -104.9355427, "tags": {"addr:state": "CO", "amenity": "fire_station", "ele": "1640", "gnis:feature_id": "2368706", "name": "Denver Fire Department Station 5"}}, {"type": "node", "id": 569675872, "lat": 39.7036707, "lon": -104.9290359, "tags": {"amenity": "parking", "name": "4 Mile Historic Park"}}, {"type": "node", "id": 569676781, "lat": 39.7036387, "lon": -104.9294651}, {"type": "node", "id": 569676782, "lat": 39.7038224, "lon": -104.9289662}, {"type": "node", "id": 569676784, "lat": 39.7038864, "lon": -104.9286363}, {"type": "node", "id": 569676786, "lat": 39.7037502, "lon": -104.9285853}, {"type": "node", "id": 569676788, "lat": 39.7036552, "lon": -104.9286658}, {"type": "node", "id": 569676791, "lat": 39.7035087, "lon": -104.9290279}, {"type": "node", "id": 569676792, "lat": 39.7035438, "lon": -104.9290815}, {"type": "node", "id": 569676793, "lat": 39.7034757, "lon": -104.92928}, {"type": "node", "id": 569676794, "lat": 39.7034737, "lon": -104.9294222}, {"type": "node", "id": 569676795, "lat": 39.7034984, "lon": -104.9294839}, {"type": "node", "id": 1068506222, "lat": 39.7076223, "lon": -104.936557}, {"type": "node", "id": 1068506226, "lat": 39.7110269, "lon": -104.9385764, "tags": {"addr:city": "Glendale", "addr:housenumber": "4250", "addr:postcode": "80246", "addr:state": "CO", "addr:street": "East Alameda Avenue", "air_conditioning": "yes", "amenity": "fast_food", "brand": "Wendy's", "brand:wikidata": "Q550258", "cuisine": "burger", "drive_through": "yes", "name": "Wendy's", "opening_hours": "Mo-Th 06:00-01:00; Fr-Sa 06:00-01:30; Su 06:00-01:00", "opening_hours:drive_through": "Mo-Th 06:00-01:00; Fr-Sa 06:00-01:30; Su 06:00-01:00", "phone": "+1 303-355-6275", "ref": "04702014", "takeaway": "yes", "website": "https://locations.wendys.com/united-states/co/glendale/4250-e-alameda-ave"}}, {"type": "node", "id": 1068506236, "lat": 39.7080577, "lon": -104.939482}, {"type": "node", "id": 1068506243, "lat": 39.7102243, "lon": -104.937131, "tags": {"addr:city": "Glendale", "addr:housenumber": "4300", "addr:postcode": "80246", "addr:state": "CO", "addr:street": "East Alameda Avenue", "brand": "PetSmart", "brand:wikidata": "Q3307147", "name": "PetSmart", "opening_hours": "Mo-Sa 09:00-21:00; Su 10:00-19:00", "phone": "+1 303-399-0880", "ref": "1787", "shop": "pet", "website": "https://www.petsmart.com/stores/us/co/glendale-store1787.html"}}, {"type": "node", "id": 1068506249, "lat": 39.7098452, "lon": -104.937124, "tags": {"addr:city": "Glendale", "addr:housenumber": "370", "addr:postcode": "80246", "addr:state": "CO", "addr:street": "South Colorado Boulevard", "brand": "Dick's Sporting Goods", "brand:wikidata": "Q5272601", "name": "Dick's Sporting Goods", "old_name": "Bed Bath & Beyond", "opening_hours": "Mo-Sa 09:00-21:00; Su 10:00-19:00", "phone": "+1-303-209-6920", "shop": "sports", "website": "https://stores.dickssportinggoods.com/co/glendale/1642/"}}, {"type": "node", "id": 1068514618, "lat": 39.7080577, "lon": -104.939195}, {"type": "node", "id": 1068514619, "lat": 39.707905, "lon": -104.939195}, {"type": "node", "id": 1068514620, "lat": 39.707905, "lon": -104.9392929}, {"type": "node", "id": 1068514621, "lat": 39.7078967, "lon": -104.9393076}, {"type": "node", "id": 1068514624, "lat": 39.7078967, "lon": -104.9393505}, {"type": "node", "id": 1068514627, "lat": 39.707905, "lon": -104.9393639}, {"type": "node", "id": 1068514630, "lat": 39.707905, "lon": -104.9394793}, {"type": "node", "id": 1068523766, "lat": 39.7076223, "lon": -104.9375897}, {"type": "node", "id": 1068523767, "lat": 39.7077688, "lon": -104.9375897}, {"type": "node", "id": 1068523769, "lat": 39.7077688, "lon": -104.9376218}, {"type": "node", "id": 1068523771, "lat": 39.7079834, "lon": -104.9376218}, {"type": "node", "id": 1068523773, "lat": 39.707975, "lon": -104.9376984}, {"type": "node", "id": 1068523775, "lat": 39.708157, "lon": -104.9376984}, {"type": "node", "id": 1068523777, "lat": 39.7081599, "lon": -104.9376719}, {"type": "node", "id": 1068523778, "lat": 39.7081798, "lon": -104.9376716}, {"type": "node", "id": 1068523780, "lat": 39.7081845, "lon": -104.9376926}, {"type": "node", "id": 1068523782, "lat": 39.7082629, "lon": -104.937717}, {"type": "node", "id": 1068523786, "lat": 39.7084562, "lon": -104.9377274}, {"type": "node", "id": 1068523788, "lat": 39.7086254, "lon": -104.9377089}, {"type": "node", "id": 1068523791, "lat": 39.7086949, "lon": -104.9376857}, {"type": "node", "id": 1068523793, "lat": 39.7086968, "lon": -104.937668}, {"type": "node", "id": 1068523796, "lat": 39.708718, "lon": -104.9376701}, {"type": "node", "id": 1068523800, "lat": 39.7087208, "lon": -104.9377006}, {"type": "node", "id": 1068523804, "lat": 39.7089016, "lon": -104.9376933}, {"type": "node", "id": 1068523807, "lat": 39.7089044, "lon": -104.9376582}, {"type": "node", "id": 1068523811, "lat": 39.7091665, "lon": -104.9376533}, {"type": "node", "id": 1068523814, "lat": 39.7091656, "lon": -104.9376282}, {"type": "node", "id": 1068523815, "lat": 39.7094858, "lon": -104.9376252}, {"type": "node", "id": 1068523820, "lat": 39.7094805, "lon": -104.9369067}, {"type": "node", "id": 1068523823, "lat": 39.7092194, "lon": -104.9369057}, {"type": "node", "id": 1068523826, "lat": 39.7092194, "lon": -104.9365543}, {"type": "node", "id": 1068534274, "lat": 39.7112636, "lon": -104.9403713, "tags": {"addr:city": "Denver", "addr:housenumber": "302", "addr:postcode": "80246", "addr:state": "CO", "addr:street": "South Colorado Boulevard", "alt_name": "Kentucky Fried Chicken", "amenity": "fast_food", "brand": "KFC", "brand:wikidata": "Q524757", "cuisine": "chicken", "name": "KFC", "old_name": "Kentucky Fried Chicken", "takeaway": "yes", "website": "https://locations.kfc.com/co/denver/302-south-colorado-boulevard"}}, {"type": "node", "id": 1068534277, "lat": 39.711194, "lon": -104.940156, "tags": {"amenity": "fast_food", "brand": "A&W", "brand:wikidata": "Q277641", "cuisine": "burger", "name": "A&W", "takeaway": "yes", "website": "https://awrestaurants.com/locations/colorado/denver/302-south-colorado-boulevard/"}}, {"type": "node", "id": 1068535583, "lat": 39.7106607, "lon": -104.9402678, "tags": {"brand": "DXL Men's Apparel", "brand:wikidata": "Q61981830", "clothes": "oversize;men", "name": "DXL Men's Apparel", "shop": "clothes", "short_name": "DXL"}}, {"type": "node", "id": 1068538404, "lat": 39.7103419, "lon": -104.9395383, "tags": {"amenity": "pharmacy", "brand": "Walgreens", "brand:wikidata": "Q1591889", "healthcare": "pharmacy", "name": "Walgreens"}}, {"type": "node", "id": 1068569585, "lat": 39.7107198, "lon": -104.9372134, "tags": {"amenity": "parking"}}, {"type": "node", "id": 1068569586, "lat": 39.7106187, "lon": -104.9385116, "tags": {"amenity": "parking"}}, {"type": "node", "id": 1068569611, "lat": 39.7110339, "lon": -104.9403709}, {"type": "node", "id": 1068569616, "lat": 39.7108768, "lon": -104.940497}, {"type": "node", "id": 1129126911, "lat": 39.6988331, "lon": -104.9392982, "tags": {"brand": "Barnes & Noble", "brand:wikidata": "Q795454", "name": "Barnes & Noble", "shop": "books"}}, {"type": "node", "id": 1129126913, "lat": 39.6989858, "lon": -104.9393411, "tags": {"amenity": "cafe", "brand": "Starbucks", "brand:wikidata": "Q37158", "cuisine": "coffee_shop", "description": "Starbucks coffee shop in the Barnes and Noble; External entrance to Starbucks", "internet_access": "wlan", "name": "Starbucks", "official_name": "Starbucks Coffee", "takeaway": "yes"}}, {"type": "node", "id": 1129126919, "lat": 39.6960784, "lon": -104.939669, "tags": {"addr:city": "Glendale", "addr:housenumber": "1120", "addr:postcode": "80246", "addr:state": "CO", "addr:street": "South Colorado Boulevard", "amenity": "fast_food", "brand": "Smashburger", "brand:wikidata": "Q17061332", "cuisine": "burger", "drive_through": "no", "name": "Smashburger", "opening_hours": "08:00-22:00", "phone": "+1-303-757-4301", "takeaway": "yes", "website": "https://smashburger.com/locations/us/co/glendale/1120-s-colorado-blvd/"}}, {"type": "node", "id": 1129126921, "lat": 39.6967611, "lon": -104.9375655, "tags": {"amenity": "restaurant", "cuisine": "chinese", "name": "Ming's Dynasty"}}, {"type": "node", "id": 1129126922, "lat": 39.6973059, "lon": -104.9371203, "tags": {"name": "Bookies", "shop": "books"}}, {"type": "node", "id": 1129129086, "lat": 39.7017715, "lon": -104.9378486}, {"type": "node", "id": 1129129095, "lat": 39.7015117, "lon": -104.9412079, "tags": {"name": "Colorado Liquor Mart", "shop": "alcohol"}}, {"type": "node", "id": 1129134606, "lat": 39.7110617, "lon": -104.9410603, "tags": {"amenity": "fuel", "source": "Bing"}}, {"type": "node", "id": 1360847635, "lat": 39.694978, "lon": -104.9410568}, {"type": "node", "id": 1360847637, "lat": 39.6949799, "lon": -104.9412292}, {"type": "node", "id": 1360847640, "lat": 39.6950228, "lon": -104.9412284}, {"type": "node", "id": 1360847646, "lat": 39.6950232, "lon": -104.941261}, {"type": "node", "id": 1360847649, "lat": 39.6951879, "lon": -104.9412306}, {"type": "node", "id": 1360847652, "lat": 39.6951882, "lon": -104.9412579}, {"type": "node", "id": 1360847653, "lat": 39.6952616, "lon": -104.9411585}, {"type": "node", "id": 1360847654, "lat": 39.695262, "lon": -104.941196}, {"type": "node", "id": 1360847655, "lat": 39.6952685, "lon": -104.9410513}, {"type": "node", "id": 1360847656, "lat": 39.695269, "lon": -104.9410926}, {"type": "node", "id": 1360847657, "lat": 39.6952717, "lon": -104.9411958}, {"type": "node", "id": 1360847665, "lat": 39.695272, "lon": -104.941229}, {"type": "node", "id": 1360847667, "lat": 39.6952865, "lon": -104.9410923}, {"type": "node", "id": 1360847669, "lat": 39.6952873, "lon": -104.941158}, {"type": "node", "id": 1360847670, "lat": 39.6954615, "lon": -104.9410219}, {"type": "node", "id": 1360847672, "lat": 39.6954633, "lon": -104.9412438}, {"type": "node", "id": 1360847673, "lat": 39.6956621, "lon": -104.9410209}, {"type": "node", "id": 1360847675, "lat": 39.6956631, "lon": -104.9412424}, {"type": "node", "id": 1360954817, "lat": 39.6960721, "lon": -104.9409115}, {"type": "node", "id": 1360954819, "lat": 39.6960728, "lon": -104.9411638}, {"type": "node", "id": 1360954820, "lat": 39.6960777, "lon": -104.9412168}, {"type": "node", "id": 1360954822, "lat": 39.696095, "lon": -104.9412393}, {"type": "node", "id": 1360954823, "lat": 39.6961364, "lon": -104.9412498}, {"type": "node", "id": 1360954831, "lat": 39.6961983, "lon": -104.9409075}, {"type": "node", "id": 1360954832, "lat": 39.6963331, "lon": -104.9412449}, {"type": "node", "id": 1360954839, "lat": 39.6964042, "lon": -104.9409075}, {"type": "node", "id": 1360954840, "lat": 39.6964598, "lon": -104.9409501}, {"type": "node", "id": 1360954842, "lat": 39.6964629, "lon": -104.9412433}, {"type": "node", "id": 1459687356, "lat": 39.7010153, "lon": -104.9378642}, {"type": "node", "id": 1459687363, "lat": 39.7014731, "lon": -104.9384395}, {"type": "node", "id": 1459687367, "lat": 39.7009047, "lon": -104.9378645}, {"type": "node", "id": 1459687383, "lat": 39.7010789, "lon": -104.9403785}, {"type": "node", "id": 1459687402, "lat": 39.7019184, "lon": -104.9377343}, {"type": "node", "id": 1459687414, "lat": 39.7010335, "lon": -104.9403783}, {"type": "node", "id": 1459687439, "lat": 39.7010354, "lon": -104.9394134}, {"type": "node", "id": 1459687449, "lat": 39.7017922, "lon": -104.9378628}, {"type": "node", "id": 1459687456, "lat": 39.7019293, "lon": -104.9386698}, {"type": "node", "id": 1459687463, "lat": 39.701794, "lon": -104.9377318}, {"type": "node", "id": 1459687471, "lat": 39.7015195, "lon": -104.939559}, {"type": "node", "id": 1459687476, "lat": 39.7010787, "lon": -104.9404371}, {"type": "node", "id": 1459687481, "lat": 39.7014745, "lon": -104.937866}, {"type": "node", "id": 1459687493, "lat": 39.7010359, "lon": -104.9395566}, {"type": "node", "id": 1459687494, "lat": 39.7019163, "lon": -104.9384425}, {"type": "node", "id": 1459687495, "lat": 39.7015169, "lon": -104.9404393}, {"type": "node", "id": 1459687496, "lat": 39.7019207, "lon": -104.9393924}, {"type": "node", "id": 1459687498, "lat": 39.7003108, "lon": -104.938995}, {"type": "node", "id": 1459687499, "lat": 39.7009008, "lon": -104.9389993}, {"type": "node", "id": 1459687507, "lat": 39.7014721, "lon": -104.9386599}, {"type": "node", "id": 1459687508, "lat": 39.7003113, "lon": -104.9394121}, {"type": "node", "id": 1699751280, "lat": 39.7018729, "lon": -104.9376782}, {"type": "node", "id": 1699751287, "lat": 39.700307, "lon": -104.9384712}, {"type": "node", "id": 1699751290, "lat": 39.7005733, "lon": -104.9369809}, {"type": "node", "id": 1699751295, "lat": 39.7003072, "lon": -104.9383276}, {"type": "node", "id": 1699751297, "lat": 39.7004054, "lon": -104.938328}, {"type": "node", "id": 1699751307, "lat": 39.7006199, "lon": -104.9376656}, {"type": "node", "id": 1699751319, "lat": 39.7014623, "lon": -104.9367411}, {"type": "node", "id": 1699751320, "lat": 39.7018798, "lon": -104.9366615}, {"type": "node", "id": 1699751321, "lat": 39.7014629, "lon": -104.9366567}, {"type": "node", "id": 1699751325, "lat": 39.7004056, "lon": -104.9382372}, {"type": "node", "id": 1699751333, "lat": 39.7005682, "lon": -104.9366992}, {"type": "node", "id": 1699751343, "lat": 39.7006917, "lon": -104.9376689}, {"type": "node", "id": 1699751358, "lat": 39.7015626, "lon": -104.9378462}, {"type": "node", "id": 1699751361, "lat": 39.7015633, "lon": -104.937735}, {"type": "node", "id": 1699751363, "lat": 39.700821, "lon": -104.9396533, "tags": {"addr:city": "Glendale", "addr:housenumber": "870", "addr:postcode": "80246", "addr:state": "CO", "addr:street": "South Colorado Boulevard", "branch": "Colorado Boulevard", "brand": "Whole Foods Market", "brand:wikidata": "Q1809448", "check_date": "2024-10-03", "check_date:opening_hours": "2024-10-03", "name": "Whole Foods Market", "opening_hours": "Mo-Su 08:00-21:00", "phone": "+1 303-691-0101", "ref": "coloradoblvd", "shop": "supermarket", "website": "https://www.wholefoodsmarket.com/stores/coloradoblvd"}}, {"type": "node", "id": 1699751370, "lat": 39.7006206, "lon": -104.9382379}, {"type": "node", "id": 1699751374, "lat": 39.7006905, "lon": -104.937725}, {"type": "node", "id": 1699751375, "lat": 39.7006201, "lon": -104.9384722}, {"type": "node", "id": 1699751423, "lat": 39.7017727, "lon": -104.9376771}, {"type": "node", "id": 1699751425, "lat": 39.7021849, "lon": -104.939516, "tags": {"addr:city": "Glendale", "addr:housenumber": "780", "addr:postcode": "80246", "addr:state": "CO", "addr:street": "South Colorado Boulevard", "addr:unit": "A", "amenity": "fast_food", "brand": "Dairy Queen", "brand:wikidata": "Q1141226", "cuisine": "ice_cream;burger", "name": "Dairy Queen", "phone": "+1 303-782-9364", "takeaway": "yes", "website": "https://www.dairyqueen.com/us-en/locator/Detail/?localechange=1&&store-id=4251"}}, {"type": "node", "id": 1932700095, "lat": 39.7084346, "lon": -104.9304801, "tags": {"addr:city": "Denver", "addr:housenumber": "4966", "addr:postcode": "80246", "addr:state": "CO", "addr:street": "South Leetsdale Drive", "alt_name": "Emerald Pathway", "amenity": "pharmacy", "designation": "Dispensary", "dispensing": "yes", "healthcare": "pharmacy", "name": "Medicine Man Medical Market, LLC", "website": "http://medicinemanmedicalmarket.com"}}, {"type": "node", "id": 1932700111, "lat": 39.7083021, "lon": -104.9297881, "tags": {"shop": "alcohol"}}, {"type": "node", "id": 2016835448, "lat": 39.6963981, "lon": -104.939668, "tags": {"addr:city": "Glendale", "addr:housenumber": "4090", "addr:postcode": "80246", "addr:state": "CO", "addr:street": "East Mississippi Avenue", "amenity": "cafe", "check_date": "2025-01-11", "cuisine": "bubble_tea", "email": "TEASTREETDENVER@GMAIL.COM", "internet_access": "wlan", "internet_access:fee": "customers", "name": "Tea Street", "opening_hours": "Mo,We-Th,Su 12:00-20:00; Tu off; Fr-Sa 12:00-21:00", "payment:cash": "yes", "payment:credit_cards": "yes", "payment:debit_cards": "yes", "phone": "+1-720-863-8636", "website": "https://www.teastreetdenver.com/"}}, {"type": "node", "id": 2027463349, "lat": 39.7082587, "lon": -104.9332402}, {"type": "node", "id": 2027463388, "lat": 39.7082663, "lon": -104.93194}, {"type": "node", "id": 2027463389, "lat": 39.7076644, "lon": -104.9328726}, {"type": "node", "id": 2027463390, "lat": 39.7088117, "lon": -104.932025, "tags": {"amenity": "fuel", "brand": "King Soopers", "brand:wikidata": "Q6412065", "name": "King Soopers", "operator": "King Soopers", "source": "bing"}}, {"type": "node", "id": 2027463395, "lat": 39.7082668, "lon": -104.9321969}, {"type": "node", "id": 2027463404, "lat": 39.7076954, "lon": -104.933242}, {"type": "node", "id": 2027463431, "lat": 39.7081633, "lon": -104.931941}, {"type": "node", "id": 2027463441, "lat": 39.7076462, "lon": -104.933181}, {"type": "node", "id": 2027463447, "lat": 39.7082009, "lon": -104.9320813, "tags": {"addr:city": "Glendale", "addr:housenumber": "4600", "addr:postcode": "80246", "addr:state": "CO", "addr:street": "Leetsdale Drive", "amenity": "pharmacy", "dispensing": "yes", "healthcare": "pharmacy", "name": "King Soopers Pharmacy", "source": "bing", "website": "https://www.kingsoopers.com/"}}, {"type": "node", "id": 2027463502, "lat": 39.7083489, "lon": -104.9329496}, {"type": "node", "id": 2027463508, "lat": 39.7082894, "lon": -104.9332052}, {"type": "node", "id": 2027463509, "lat": 39.7077596, "lon": -104.9323448}, {"type": "node", "id": 2027463510, "lat": 39.7083475, "lon": -104.9321966}, {"type": "node", "id": 2027463512, "lat": 39.7076971, "lon": -104.9328725}, {"type": "node", "id": 2027463513, "lat": 39.7076423, "lon": -104.9323452}, {"type": "node", "id": 2027463521, "lat": 39.7082889, "lon": -104.9329497}, {"type": "node", "id": 2027463527, "lat": 39.7076963, "lon": -104.932461}, {"type": "node", "id": 2027463540, "lat": 39.7082304, "lon": -104.9319409}, {"type": "node", "id": 2027463547, "lat": 39.7076425, "lon": -104.9324612}, {"type": "node", "id": 2027463550, "lat": 39.7076457, "lon": -104.9328967}, {"type": "node", "id": 2027463553, "lat": 39.7077589, "lon": -104.9319415}, {"type": "node", "id": 2029900501, "lat": 39.708957, "lon": -104.9304173}, {"type": "node", "id": 2029900505, "lat": 39.7092318, "lon": -104.9313748}, {"type": "node", "id": 2029900507, "lat": 39.7092984, "lon": -104.9313687}, {"type": "node", "id": 2029900509, "lat": 39.7092981, "lon": -104.9314402}, {"type": "node", "id": 2029900521, "lat": 39.7093887, "lon": -104.9302614}, {"type": "node", "id": 2029900523, "lat": 39.7094459, "lon": -104.9302674}, {"type": "node", "id": 2029900525, "lat": 39.7094049, "lon": -104.9311979}, {"type": "node", "id": 2029900527, "lat": 39.7093983, "lon": -104.9312122}, {"type": "node", "id": 2029900529, "lat": 39.7094471, "lon": -104.9311979}, {"type": "node", "id": 2029900531, "lat": 39.7095246, "lon": -104.9302075}, {"type": "node", "id": 2029900533, "lat": 39.7094666, "lon": -104.9314381}, {"type": "node", "id": 2029900535, "lat": 39.709468, "lon": -104.9313785}, {"type": "node", "id": 2029900537, "lat": 39.7094873, "lon": -104.9312582}, {"type": "node", "id": 2029900539, "lat": 39.7094978, "lon": -104.9313847}, {"type": "node", "id": 2029900541, "lat": 39.7095254, "lon": -104.9312888}, {"type": "node", "id": 2029900543, "lat": 39.709526, "lon": -104.9312598}, {"type": "node", "id": 2029900561, "lat": 39.7095043, "lon": -104.9313901}, {"type": "node", "id": 2029900568, "lat": 39.7096799, "lon": -104.9313846}, {"type": "node", "id": 2029900570, "lat": 39.7096578, "lon": -104.931437}, {"type": "node", "id": 2029900577, "lat": 39.7098153, "lon": -104.9304231}, {"type": "node", "id": 2029900584, "lat": 39.7098119, "lon": -104.9302186}, {"type": "node", "id": 2029900589, "lat": 39.7097748, "lon": -104.9310638}, {"type": "node", "id": 2029900590, "lat": 39.7097709, "lon": -104.9311241}, {"type": "node", "id": 2029900595, "lat": 39.7098177, "lon": -104.9310624}, {"type": "node", "id": 2029900635, "lat": 39.7100422, "lon": -104.9317189}, {"type": "node", "id": 2029900637, "lat": 39.7102282, "lon": -104.9311104}, {"type": "node", "id": 2029900647, "lat": 39.7100926, "lon": -104.9317085}, {"type": "node", "id": 2029900671, "lat": 39.7101463, "lon": -104.9316973}, {"type": "node", "id": 2029900673, "lat": 39.7101482, "lon": -104.9324842}, {"type": "node", "id": 2029900692, "lat": 39.7102293, "lon": -104.9311331}, {"type": "node", "id": 2029900695, "lat": 39.7102477, "lon": -104.9323956}, {"type": "node", "id": 2029900696, "lat": 39.7103122, "lon": -104.9337106}, {"type": "node", "id": 2029900697, "lat": 39.7103315, "lon": -104.9326543}, {"type": "node", "id": 2029900709, "lat": 39.7103858, "lon": -104.9321385}, {"type": "node", "id": 2029900712, "lat": 39.7104007, "lon": -104.9311348}, {"type": "node", "id": 2029900716, "lat": 39.7103926, "lon": -104.9320419}, {"type": "node", "id": 2029900720, "lat": 39.7104107, "lon": -104.9345106}, {"type": "node", "id": 2029900722, "lat": 39.7104236, "lon": -104.9344435}, {"type": "node", "id": 2029900724, "lat": 39.7104246, "lon": -104.9345908}, {"type": "node", "id": 2029900725, "lat": 39.710431, "lon": -104.934507}, {"type": "node", "id": 2029900727, "lat": 39.7104214, "lon": -104.9322283}, {"type": "node", "id": 2029900729, "lat": 39.7104249, "lon": -104.9319784}, {"type": "node", "id": 2029900737, "lat": 39.7104485, "lon": -104.9326171}, {"type": "node", "id": 2029900739, "lat": 39.7104485, "lon": -104.9345824}, {"type": "node", "id": 2029900741, "lat": 39.7104531, "lon": -104.933913}, {"type": "node", "id": 2029900745, "lat": 39.7104596, "lon": -104.9346447}, {"type": "node", "id": 2029900747, "lat": 39.7104001, "lon": -104.9311051}, {"type": "node", "id": 2029900755, "lat": 39.7104946, "lon": -104.9344172}, {"type": "node", "id": 2029900758, "lat": 39.7104955, "lon": -104.9339776}, {"type": "node", "id": 2029900763, "lat": 39.7105056, "lon": -104.9336746}, {"type": "node", "id": 2029900767, "lat": 39.710513, "lon": -104.9326219}, {"type": "node", "id": 2029900777, "lat": 39.7105775, "lon": -104.9345489}, {"type": "node", "id": 2029900781, "lat": 39.7105793, "lon": -104.9346076}, {"type": "node", "id": 2029900783, "lat": 39.7105934, "lon": -104.9322546}, {"type": "node", "id": 2029900800, "lat": 39.7106475, "lon": -104.9346136}, {"type": "node", "id": 2029900804, "lat": 39.7106329, "lon": -104.9320071}, {"type": "node", "id": 2029900806, "lat": 39.7106287, "lon": -104.9322118}, {"type": "node", "id": 2029900811, "lat": 39.7106632, "lon": -104.9344902}, {"type": "node", "id": 2029900812, "lat": 39.7106641, "lon": -104.9339812}, {"type": "node", "id": 2029900813, "lat": 39.7106559, "lon": -104.9321089}, {"type": "node", "id": 2029900816, "lat": 39.7106991, "lon": -104.9345333}, {"type": "node", "id": 2029900830, "lat": 39.7107323, "lon": -104.9346315}, {"type": "node", "id": 2029900836, "lat": 39.7107748, "lon": -104.9314417}, {"type": "node", "id": 2029900838, "lat": 39.7108059, "lon": -104.9313733}, {"type": "node", "id": 2029900862, "lat": 39.7107134, "lon": -104.931103}, {"type": "node", "id": 2029900870, "lat": 39.7108709, "lon": -104.9313513}, {"type": "node", "id": 2029900890, "lat": 39.7109027, "lon": -104.9342699}, {"type": "node", "id": 2029900891, "lat": 39.7109009, "lon": -104.9313033}, {"type": "node", "id": 2029900892, "lat": 39.7109092, "lon": -104.934495}, {"type": "node", "id": 2029900895, "lat": 39.7109079, "lon": -104.9312245}, {"type": "node", "id": 2029900898, "lat": 39.7109294, "lon": -104.9339118}, {"type": "node", "id": 2029900901, "lat": 39.7109302, "lon": -104.9338129}, {"type": "node", "id": 2029900904, "lat": 39.7109313, "lon": -104.933677}, {"type": "node", "id": 2029900910, "lat": 39.7109525, "lon": -104.9345693}, {"type": "node", "id": 2029900917, "lat": 39.7109807, "lon": -104.9342578}, {"type": "node", "id": 2029900928, "lat": 39.7110022, "lon": -104.934507}, {"type": "node", "id": 2029900931, "lat": 39.7110085, "lon": -104.9326975}, {"type": "node", "id": 2029900933, "lat": 39.7110094, "lon": -104.9336652}, {"type": "node", "id": 2029900937, "lat": 39.7110229, "lon": -104.933692}, {"type": "node", "id": 2029900938, "lat": 39.711026, "lon": -104.9326967}, {"type": "node", "id": 2029900940, "lat": 39.7110352, "lon": -104.9337167}, {"type": "node", "id": 2029900942, "lat": 39.7110492, "lon": -104.9345333}, {"type": "node", "id": 2029900944, "lat": 39.7110649, "lon": -104.9342447}, {"type": "node", "id": 2029900946, "lat": 39.7110676, "lon": -104.9344675}, {"type": "node", "id": 2029900948, "lat": 39.7110711, "lon": -104.9336616}, {"type": "node", "id": 2029926043, "lat": 39.7069853, "lon": -104.9390787}, {"type": "node", "id": 2029926054, "lat": 39.7070205, "lon": -104.9344961}, {"type": "node", "id": 2029926128, "lat": 39.7072614, "lon": -104.9390811}, {"type": "node", "id": 2033731964, "lat": 39.6986459, "lon": -104.9393251, "tags": {"brand": "GameStop", "brand:wikidata": "Q202210", "name": "GameStop", "shop": "video_games", "website": "https://www.gamestop.com/store/us/co/denver/813/colorado-blvd-denver-gamestop"}}, {"type": "node", "id": 2033733679, "lat": 39.6982411, "lon": -104.9392688, "tags": {"amenity": "restaurant", "cuisine": "japanese", "name": "Tokyo Joe's"}}, {"type": "node", "id": 2033733680, "lat": 39.6982225, "lon": -104.9391132, "tags": {"amenity": "restaurant", "name": "Mod Market"}}, {"type": "node", "id": 2033740583, "lat": 39.6967004, "lon": -104.9374486}, {"type": "node", "id": 2033740584, "lat": 39.6968605, "lon": -104.9377262}, {"type": "node", "id": 2033740586, "lat": 39.6968563, "lon": -104.9374447}, {"type": "node", "id": 2043329924, "lat": 39.7110818, "lon": -104.9316808}, {"type": "node", "id": 2043329925, "lat": 39.710725, "lon": -104.9316774}, {"type": "node", "id": 2043329927, "lat": 39.7107216, "lon": -104.9322968}, {"type": "node", "id": 2043329929, "lat": 39.7110783, "lon": -104.9323002}, {"type": "node", "id": 2059277369, "lat": 39.7007043, "lon": -104.9367325}, {"type": "node", "id": 2059277371, "lat": 39.7017511, "lon": -104.9395503}, {"type": "node", "id": 2059277373, "lat": 39.7017517, "lon": -104.9393916}, {"type": "node", "id": 2059277375, "lat": 39.7007049, "lon": -104.9366444}, {"type": "node", "id": 2093035202, "lat": 39.7030947, "lon": -104.9324398, "tags": {"addr:housename": "Bull & Bush", "addr:housenumber": "4700", "addr:postcode": "80246", "addr:street": "Cherry Creek South Drive", "amenity": "pub", "internet_access": "wlan", "internet_access:fee": "no", "microbrewery": "yes", "name": "Bull & Bush", "website": "https://bullandbush.com/"}}, {"type": "node", "id": 2553218231, "lat": 39.7047343, "lon": -104.9392581, "tags": {"addr:city": "Glendale", "addr:housenumber": "682", "addr:postcode": "80246", "addr:state": "CO", "addr:street": "South Colorado Boulevard", "amenity": "restaurant", "cuisine": "mexican", "name": "Las Tortas", "phone": "+1-720-379-7269", "website": "https://lastortasendenver.com/"}}, {"type": "node", "id": 2596850347, "lat": 39.6998816, "lon": -104.938259, "tags": {"addr:city": "Denver", "addr:housenumber": "940", "addr:postcode": "80264", "addr:street": "South Colorado Boulevard", "brand": "Mercedes-Benz", "brand:wikidata": "Q36008", "name": "Mercedes-Benz of Denver", "phone": "+1-303-759-3400", "shop": "car", "website": "https://www.mercedesbenzofdenver.com/"}}, {"type": "node", "id": 2626530397, "lat": 39.6953995, "lon": -104.9402941}, {"type": "node", "id": 2626530398, "lat": 39.695282, "lon": -104.9402939}, {"type": "node", "id": 2626530399, "lat": 39.6952821, "lon": -104.9401328}, {"type": "node", "id": 2626530400, "lat": 39.6952352, "lon": -104.9401327}, {"type": "node", "id": 2626530401, "lat": 39.6952354, "lon": -104.9399489}, {"type": "node", "id": 2626530402, "lat": 39.6952981, "lon": -104.939949}, {"type": "node", "id": 2626530403, "lat": 39.6952983, "lon": -104.9397646}, {"type": "node", "id": 2626530404, "lat": 39.6953256, "lon": -104.9397646}, {"type": "node", "id": 2626530405, "lat": 39.6953257, "lon": -104.9396572}, {"type": "node", "id": 2626530406, "lat": 39.6954, "lon": -104.9396573}, {"type": "node", "id": 2795584887, "lat": 39.7112755, "lon": -104.9410995, "tags": {"name": "Sinclair", "shop": "convenience", "source": "Bing"}}, {"type": "node", "id": 2805195024, "lat": 39.7103853, "lon": -104.9320765}, {"type": "node", "id": 2805195025, "lat": 39.7106394, "lon": -104.9321901}, {"type": "node", "id": 2805195035, "lat": 39.7103836, "lon": -104.932113}, {"type": "node", "id": 2805195036, "lat": 39.7104873, "lon": -104.9319338}, {"type": "node", "id": 2805195042, "lat": 39.7105689, "lon": -104.9339792}, {"type": "node", "id": 2805195043, "lat": 39.710393, "lon": -104.9321707}, {"type": "node", "id": 2805195046, "lat": 39.7104058, "lon": -104.9322028}, {"type": "node", "id": 2805195048, "lat": 39.7106537, "lon": -104.932074}, {"type": "node", "id": 2805195051, "lat": 39.7104041, "lon": -104.932012}, {"type": "node", "id": 2805195053, "lat": 39.7106127, "lon": -104.932235}, {"type": "node", "id": 2805195062, "lat": 39.7106443, "lon": -104.9320341}, {"type": "node", "id": 2805195068, "lat": 39.7104183, "lon": -104.9345544}, {"type": "node", "id": 2805195074, "lat": 39.7104452, "lon": -104.9319573}, {"type": "node", "id": 2805195080, "lat": 39.7106212, "lon": -104.9319875}, {"type": "node", "id": 2805195082, "lat": 39.7104658, "lon": -104.9324445}, {"type": "node", "id": 2805195088, "lat": 39.7105648, "lon": -104.9318464}, {"type": "node", "id": 2805195091, "lat": 39.7106534, "lon": -104.9321393}, {"type": "node", "id": 2805195092, "lat": 39.7104875, "lon": -104.9318459}, {"type": "node", "id": 2805195101, "lat": 39.7104743, "lon": -104.9319387}, {"type": "node", "id": 2805195104, "lat": 39.7104446, "lon": -104.9322533}, {"type": "node", "id": 2805195109, "lat": 39.7105863, "lon": -104.932259}, {"type": "node", "id": 2805195112, "lat": 39.7104658, "lon": -104.9322669}, {"type": "node", "id": 2805195115, "lat": 39.7105643, "lon": -104.931939}, {"type": "node", "id": 2805195116, "lat": 39.7105911, "lon": -104.9319548}, {"type": "node", "id": 2805195120, "lat": 39.7110786, "lon": -104.9326858}, {"type": "node", "id": 2805195129, "lat": 39.7105866, "lon": -104.9324442}, {"type": "node", "id": 2930617204, "lat": 39.6974469, "lon": -104.933688, "tags": {"addr:city": "Glendale", "addr:housenumber": "1050", "addr:postcode": "80246", "addr:state": "CO", "addr:street": "South Cherry Street", "amenity": "car_wash", "automated": "no", "name": "Hi Performance Car Wash II", "opening_hours": "24/7", "self_service": "yes", "source": "Bing", "website": "http://www.hiperformancecarwash.com/"}}, {"type": "node", "id": 3371306247, "lat": 39.7008777, "lon": -104.9394537, "tags": {"amenity": "bicycle_repair_station", "brand": "Dero", "note": "Whole Foods", "opening_hours": "24/7", "service:bicycle:chain_tool": "no", "source": "osmsync:dero"}}, {"type": "node", "id": 3462850552, "lat": 39.7086631, "lon": -104.934621}, {"type": "node", "id": 3462850559, "lat": 39.7086854, "lon": -104.9341951}, {"type": "node", "id": 3462850560, "lat": 39.7093098, "lon": -104.9348167}, {"type": "node", "id": 3462850561, "lat": 39.7093096, "lon": -104.9342578}, {"type": "node", "id": 3462850565, "lat": 39.7087021, "lon": -104.9341663}, {"type": "node", "id": 3462850571, "lat": 39.7086458, "lon": -104.9346}, {"type": "node", "id": 3462850572, "lat": 39.7092578, "lon": -104.9348174}, {"type": "node", "id": 3462850574, "lat": 39.7086847, "lon": -104.9342555}, {"type": "node", "id": 3462850578, "lat": 39.7087135, "lon": -104.9341552}, {"type": "node", "id": 3462850580, "lat": 39.7086283, "lon": -104.9341508}, {"type": "node", "id": 3462850581, "lat": 39.7086157, "lon": -104.9342615}, {"type": "node", "id": 3462850586, "lat": 39.708621, "lon": -104.9345402}, {"type": "node", "id": 3462850588, "lat": 39.7086189, "lon": -104.9342045}, {"type": "node", "id": 3462850701, "lat": 39.7092573, "lon": -104.9348966}, {"type": "node", "id": 3462850708, "lat": 39.7086316, "lon": -104.9345728}, {"type": "node", "id": 3462850713, "lat": 39.7086923, "lon": -104.9341775}, {"type": "node", "id": 3462850716, "lat": 39.7086833, "lon": -104.9342142}, {"type": "node", "id": 3462850720, "lat": 39.7086587, "lon": -104.9340707}, {"type": "node", "id": 3462850722, "lat": 39.7086631, "lon": -104.9348939}, {"type": "node", "id": 3462850724, "lat": 39.7086161, "lon": -104.9344919}, {"type": "node", "id": 3462859875, "lat": 39.7067453, "lon": -104.9347506}, {"type": "node", "id": 3462859892, "lat": 39.7070467, "lon": -104.9344961}, {"type": "node", "id": 3462864905, "lat": 39.7070465, "lon": -104.9345423}, {"type": "node", "id": 3462864906, "lat": 39.70777, "lon": -104.9335368}, {"type": "node", "id": 3462864908, "lat": 39.7071661, "lon": -104.9345431}, {"type": "node", "id": 3462864910, "lat": 39.7070206, "lon": -104.9343361}, {"type": "node", "id": 3462864918, "lat": 39.7083092, "lon": -104.9337171, "tags": {"addr:city": "Glendale", "addr:housenumber": "435", "addr:postcode": "80246", "addr:street": "South Cherry Street", "amenity": "restaurant", "cuisine": "american", "name": "Sam's No. 3 - Glendale", "phone": "+1-303-333-4403", "website": "https://samsno3.com/"}}, {"type": "node", "id": 3462864931, "lat": 39.7067469, "lon": -104.9343344}, {"type": "node", "id": 3462864941, "lat": 39.7071653, "lon": -104.9347533}, {"type": "node", "id": 3462876692, "lat": 39.7081216, "lon": -104.9350972}, {"type": "node", "id": 3462878495, "lat": 39.7079946, "lon": -104.9352525}, {"type": "node", "id": 3462878497, "lat": 39.7086225, "lon": -104.9350182}, {"type": "node", "id": 3462878498, "lat": 39.708463, "lon": -104.9350176}, {"type": "node", "id": 3462878500, "lat": 39.70788, "lon": -104.9354689}, {"type": "node", "id": 3462878502, "lat": 39.7083563, "lon": -104.9351563}, {"type": "node", "id": 3462878507, "lat": 39.7078963, "lon": -104.9354451}, {"type": "node", "id": 3462878510, "lat": 39.7086569, "lon": -104.935606}, {"type": "node", "id": 3462878512, "lat": 39.7076924, "lon": -104.9354682}, {"type": "node", "id": 3462878519, "lat": 39.7076924, "lon": -104.935558}, {"type": "node", "id": 3462878520, "lat": 39.7086227, "lon": -104.9349391}, {"type": "node", "id": 3462878524, "lat": 39.7078933, "lon": -104.9354643}, {"type": "node", "id": 3462878527, "lat": 39.7079418, "lon": -104.935314}, {"type": "node", "id": 3462878528, "lat": 39.7078956, "lon": -104.9354566}, {"type": "node", "id": 3462878531, "lat": 39.7076924, "lon": -104.9356084}, {"type": "node", "id": 3462878532, "lat": 39.7081224, "lon": -104.9351555}, {"type": "node", "id": 3462878540, "lat": 39.7079411, "lon": -104.9354455}, {"type": "node", "id": 3462878541, "lat": 39.7078881, "lon": -104.9354679}, {"type": "node", "id": 3462878542, "lat": 39.7079946, "lon": -104.9350966}, {"type": "node", "id": 3462878548, "lat": 39.708658, "lon": -104.9349396}, {"type": "node", "id": 3462878554, "lat": 39.707942, "lon": -104.9352522}, {"type": "node", "id": 3462883072, "lat": 39.7105864, "lon": -104.9323008}, {"type": "node", "id": 3700470502, "lat": 39.7029335, "lon": -104.9393019}, {"type": "node", "id": 3700470503, "lat": 39.7029332, "lon": -104.9392319}, {"type": "node", "id": 3700470504, "lat": 39.7030055, "lon": -104.9392315}, {"type": "node", "id": 3700470505, "lat": 39.7030034, "lon": -104.9386114}, {"type": "node", "id": 3700470506, "lat": 39.7029453, "lon": -104.9386118}, {"type": "node", "id": 3700470507, "lat": 39.7029456, "lon": -104.9386979}, {"type": "node", "id": 3700470508, "lat": 39.7025676, "lon": -104.9387001}, {"type": "node", "id": 3700470509, "lat": 39.7025696, "lon": -104.939304}, {"type": "node", "id": 3700470511, "lat": 39.7038295, "lon": -104.939549}, {"type": "node", "id": 3700470512, "lat": 39.7032544, "lon": -104.9395427}, {"type": "node", "id": 3700470513, "lat": 39.7032549, "lon": -104.9394737}, {"type": "node", "id": 3700470514, "lat": 39.7032002, "lon": -104.9394731}, {"type": "node", "id": 3700470515, "lat": 39.7032066, "lon": -104.9385098}, {"type": "node", "id": 3700470516, "lat": 39.7032436, "lon": -104.9385103}, {"type": "node", "id": 3700470517, "lat": 39.7032442, "lon": -104.938423}, {"type": "node", "id": 3700470518, "lat": 39.7038376, "lon": -104.9384296}, {"type": "node", "id": 3700470519, "lat": 39.7038371, "lon": -104.9385117}, {"type": "node", "id": 3700470520, "lat": 39.7038793, "lon": -104.9385122}, {"type": "node", "id": 3700470521, "lat": 39.703873, "lon": -104.9394765}, {"type": "node", "id": 3700470522, "lat": 39.70383, "lon": -104.939476}, {"type": "node", "id": 3700470543, "lat": 39.7036079, "lon": -104.9380456}, {"type": "node", "id": 3700470544, "lat": 39.7031663, "lon": -104.9380495}, {"type": "node", "id": 3700470545, "lat": 39.70316, "lon": -104.9368359}, {"type": "node", "id": 3700470546, "lat": 39.7036016, "lon": -104.936832}, {"type": "node", "id": 3700470555, "lat": 39.7023275, "lon": -104.9402814}, {"type": "node", "id": 3700470556, "lat": 39.7023263, "lon": -104.9400853}, {"type": "node", "id": 3700470557, "lat": 39.7023618, "lon": -104.9400849}, {"type": "node", "id": 3700470558, "lat": 39.702361, "lon": -104.9399629}, {"type": "node", "id": 3700470559, "lat": 39.7022965, "lon": -104.9399636}, {"type": "node", "id": 3700470560, "lat": 39.7022964, "lon": -104.9399479}, {"type": "node", "id": 3700470561, "lat": 39.7022086, "lon": -104.9399489}, {"type": "node", "id": 3700470562, "lat": 39.7022088, "lon": -104.9399796}, {"type": "node", "id": 3700470563, "lat": 39.7021913, "lon": -104.9399798}, {"type": "node", "id": 3700470564, "lat": 39.7021928, "lon": -104.9402181}, {"type": "node", "id": 3700470565, "lat": 39.702229, "lon": -104.9402177}, {"type": "node", "id": 3700470566, "lat": 39.7022293, "lon": -104.9402712}, {"type": "node", "id": 3700470567, "lat": 39.7022565, "lon": -104.9402709}, {"type": "node", "id": 3700470568, "lat": 39.7022566, "lon": -104.940294}, {"type": "node", "id": 3700470569, "lat": 39.7022975, "lon": -104.9402935}, {"type": "node", "id": 3700470570, "lat": 39.7022974, "lon": -104.9402818}, {"type": "node", "id": 3751042441, "lat": 39.6977266, "lon": -104.9290551, "tags": {"amenity": "fountain", "source": "Bing"}}, {"type": "node", "id": 3751042477, "lat": 39.6976657, "lon": -104.9291785, "tags": {"amenity": "fountain", "source": "Bing"}}, {"type": "node", "id": 3751042505, "lat": 39.6977792, "lon": -104.9292348, "tags": {"amenity": "fountain", "source": "Bing"}}, {"type": "node", "id": 3751042934, "lat": 39.6977462, "lon": -104.9291382, "tags": {"amenity": "fountain", "source": "Bing"}}, {"type": "node", "id": 3751042963, "lat": 39.6977627, "lon": -104.9290041, "tags": {"amenity": "fountain", "source": "Bing"}}, {"type": "node", "id": 3751052111, "lat": 39.7033244, "lon": -104.9351806}, {"type": "node", "id": 3751053026, "lat": 39.7033242, "lon": -104.9347455}, {"type": "node", "id": 3751053039, "lat": 39.7033243, "lon": -104.9349795}, {"type": "node", "id": 3751053064, "lat": 39.703324, "lon": -104.9343874}, {"type": "node", "id": 3751053071, "lat": 39.7033241, "lon": -104.9346211}, {"type": "node", "id": 3751053077, "lat": 39.7028742, "lon": -104.9343877}, {"type": "node", "id": 3751053078, "lat": 39.7028745, "lon": -104.935181}, {"type": "node", "id": 3751053083, "lat": 39.703324, "lon": -104.9344101}, {"type": "node", "id": 3751069332, "lat": 39.7023511, "lon": -104.9352028}, {"type": "node", "id": 3751069333, "lat": 39.7036018, "lon": -104.936861}, {"type": "node", "id": 3751069336, "lat": 39.7023511, "lon": -104.935838}, {"type": "node", "id": 3751069340, "lat": 39.7036019, "lon": -104.9368895}, {"type": "node", "id": 3751069342, "lat": 39.7023509, "lon": -104.9350934}, {"type": "node", "id": 3751069345, "lat": 39.7017578, "lon": -104.9352202}, {"type": "node", "id": 3751069352, "lat": 39.7020221, "lon": -104.9350935}, {"type": "node", "id": 3751069369, "lat": 39.7037544, "lon": -104.935588}, {"type": "node", "id": 3751069376, "lat": 39.703662, "lon": -104.9395475}, {"type": "node", "id": 3751069383, "lat": 39.7037561, "lon": -104.9357285}, {"type": "node", "id": 3751069386, "lat": 39.7029318, "lon": -104.935236}, {"type": "node", "id": 3751069391, "lat": 39.7037956, "lon": -104.9357283}, {"type": "node", "id": 3751069412, "lat": 39.7017578, "lon": -104.935838}, {"type": "node", "id": 3751069417, "lat": 39.7020221, "lon": -104.9352202}, {"type": "node", "id": 3751071227, "lat": 39.7037955, "lon": -104.9356187}, {"type": "node", "id": 3751071231, "lat": 39.7037534, "lon": -104.9352324}, {"type": "node", "id": 3751071235, "lat": 39.702934, "lon": -104.9360923}, {"type": "node", "id": 3751071238, "lat": 39.703687, "lon": -104.9395475}, {"type": "node", "id": 3751071247, "lat": 39.7037114, "lon": -104.9395475}, {"type": "node", "id": 3751071252, "lat": 39.7037955, "lon": -104.9356977}, {"type": "node", "id": 3751071257, "lat": 39.7037952, "lon": -104.9355878}, {"type": "node", "id": 3751071278, "lat": 39.703757, "lon": -104.9360887}, {"type": "node", "id": 3751071279, "lat": 39.7022866, "lon": -104.9350936}, {"type": "node", "id": 4104016297, "lat": 39.7110659, "lon": -104.9354747}, {"type": "node", "id": 4104016311, "lat": 39.708207, "lon": -104.92896, "tags": {"brand": "Public Storage", "brand:wikidata": "Q1156045", "name": "Public Storage", "shop": "storage_rental", "source": "Bing"}}, {"type": "node", "id": 4110985190, "lat": 39.7077032, "lon": -104.929289, "tags": {"brand": "Goodwill", "brand:wikidata": "Q5583655", "name": "Goodwill", "opening_hours": "Mo-Sa 09:00-20:00; Su 09:00-19:00", "operator": "Goodwill of Colorado", "operator:wikidata": "Q109727757", "second_hand": "yes", "shop": "charity", "website": "https://www.goodwilldenver.org"}}, {"type": "node", "id": 4160412511, "lat": 39.6969855, "lon": -104.9335956, "tags": {"addr:city": "Denver", "addr:housenumber": "4615", "addr:postcode": "80246", "addr:state": "CO", "addr:street": "East Mississippi Avenue", "amenity": "restaurant", "cuisine": "pizza", "email": "piesocietyglendale@gmail.com", "name": "Pie Society Pizza", "opening_hours": "11:00-20:00", "opening_hours:covid19": "Mo off, Tu-Th 11:30-20:00, Fr 11:30-21:00, Sa 12:00-21:00, Su 12:00-20:00", "phone": "+1-303-757-3333", "website": "https://piesocietypizza.com/"}}, {"type": "node", "id": 4160412512, "lat": 39.6971466, "lon": -104.9335985, "tags": {"addr:city": "Glendale", "addr:housenumber": "4609", "addr:postcode": "80246", "addr:state": "CO", "addr:street": "East Mississippi Avenue", "name": "Cherri Plaza Laundry", "shop": "laundry"}}, {"type": "node", "id": 4160412513, "lat": 39.6970916, "lon": -104.9335982, "tags": {"addr:city": "Glendale", "addr:housenumber": "4611", "addr:postcode": "80246", "addr:state": "CO", "addr:street": "East Mississippi Avenue", "name": "Cherri Plaza Liquors", "shop": "alcohol"}}, {"type": "node", "id": 4160412517, "lat": 39.6971514, "lon": -104.9338478, "tags": {"addr:city": "Glendale", "addr:housenumber": "4601", "addr:postcode": "80246", "addr:state": "CO", "addr:street": "East Mississippi Avenue", "email": "cherrypeak@yumaway.com", "name": "Cherry Peak Dispensary", "opening_hours": "Mo-Su 08:00-23:45", "operator": "Yuma Way", "phone": "+1-303-386-3185", "shop": "cannabis", "website": "https://yumaway.com/locations/cherrypeak/"}}, {"type": "node", "id": 4597624884, "lat": 39.7084255, "lon": -104.930398, "tags": {"addr:city": "Glendale", "addr:housenumber": "4966", "addr:postcode": "80246", "addr:state": "CO", "addr:street": "South Leetsdale Drive", "name": "Life Flower Dispensary", "phone": "+1-720-389-7442", "shop": "cannabis", "website": "https://lifeflowerdispensary.com/"}}, {"type": "node", "id": 5031431518, "lat": 39.7045454, "lon": -104.9385095}, {"type": "node", "id": 5031431519, "lat": 39.7050004, "lon": -104.9394201}, {"type": "node", "id": 5031431627, "lat": 39.7050481, "lon": -104.9395428}, {"type": "node", "id": 5031444530, "lat": 39.7054688, "lon": -104.9394979}, {"type": "node", "id": 5031444533, "lat": 39.7051094, "lon": -104.9395186}, {"type": "node", "id": 5031444546, "lat": 39.7051314, "lon": -104.9395113}, {"type": "node", "id": 5031444553, "lat": 39.7049849, "lon": -104.939573}, {"type": "node", "id": 5031444557, "lat": 39.7050772, "lon": -104.9395306}, {"type": "node", "id": 5031444559, "lat": 39.7054915, "lon": -104.9395032}, {"type": "node", "id": 5031446034, "lat": 39.7042484, "lon": -104.9386425}, {"type": "node", "id": 5031446036, "lat": 39.7042355, "lon": -104.9386948}, {"type": "node", "id": 5031446041, "lat": 39.7042342, "lon": -104.938668}, {"type": "node", "id": 5031446047, "lat": 39.7046814, "lon": -104.9387823}, {"type": "node", "id": 5031446048, "lat": 39.7042386, "lon": -104.9386553}, {"type": "node", "id": 5031446054, "lat": 39.7045972, "lon": -104.9386134}, {"type": "node", "id": 5031446058, "lat": 39.704233, "lon": -104.938683}, {"type": "node", "id": 5031446061, "lat": 39.7042402, "lon": -104.9387112}, {"type": "node", "id": 5031454042, "lat": 39.7047971, "lon": -104.9396681}, {"type": "node", "id": 5031454066, "lat": 39.7057629, "lon": -104.9402349}, {"type": "node", "id": 5031454068, "lat": 39.705085, "lon": -104.9403864}, {"type": "node", "id": 5031454072, "lat": 39.7055184, "lon": -104.9403847}, {"type": "node", "id": 5031454076, "lat": 39.7057629, "lon": -104.9403845}, {"type": "node", "id": 5031454095, "lat": 39.7057268, "lon": -104.9395086}, {"type": "node", "id": 5031454097, "lat": 39.7048931, "lon": -104.9403682}, {"type": "node", "id": 5031454110, "lat": 39.7048584, "lon": -104.9399167}, {"type": "node", "id": 5031469977, "lat": 39.7045361, "lon": -104.93911, "tags": {"addr:city": "Glendale", "addr:housename": "CitySet Cherry Creek", "addr:housenumber": "686", "addr:postcode": "80246", "addr:state": "CO", "addr:street": "South Colorado Boulevard", "alt_phone": "+1 (303) 758-9061", "amenity": "restaurant", "cuisine": "pizza", "name": "Pizza Republica", "opening_hours:dinner": "Mo-Th 1430-2200, Fr-Sa 1430-2300, Su 1530-2100", "opening_hours:lunch": "Mo-Sa 1100-1430", "phone": "+1-720-389-7660", "reservation:url": "https://pizzarepublica.com/reserve-a-table/reservations-glendale/", "website": "https://pizzarepublica.com/our-locations/"}}, {"type": "node", "id": 5031469982, "lat": 39.7044577, "lon": -104.9390862, "tags": {"amenity": "bicycle_parking", "bicycle_parking": "stands", "capacity": "6", "covered": "no"}}, {"type": "node", "id": 5031469987, "lat": 39.7055906, "lon": -104.939282, "tags": {"addr:city": "Glendale", "addr:housename": "CitySet Cherry Creek", "addr:housenumber": "650", "addr:postcode": "80246", "addr:state": "CO", "addr:street": "South Colorado Boulevard", "amenity": "restaurant", "cuisine": "seafood", "email": "info@jaxglendale.com", "name": "Jax Fish House & Oyster Bar", "opening_hours:url": "http://www.jaxfishhouse.com/glendale/hours-info/", "phone": "+1-303-756-6449", "website": "https://www.jaxfishhouse.com/glendale/"}}, {"type": "node", "id": 5031469989, "lat": 39.7050963, "lon": -104.9398559, "tags": {"addr:city": "Glendale", "addr:housename": "CitySet Cherry Creek", "addr:housenumber": "600", "addr:postcode": "80246", "addr:state": "CO", "addr:street": "South Colorado Boulevard", "amenity": "bar", "email": "info@hgicherrycreek.com", "name": "Zink Bar + Patio", "phone": "+1-303-754-9800", "website": "http://www.hgicherrycreek.com/"}}, {"type": "node", "id": 5031469990, "lat": 39.7049488, "lon": -104.940159, "tags": {"addr:city": "Glendale", "addr:housename": "CitySet Cherry Creek", "addr:housenumber": "640", "addr:postcode": "80246", "addr:state": "CO", "addr:street": "South Colorado Boulevard", "amenity": "fast_food", "brand": "Panera Bread", "brand:wikidata": "Q7130852", "cuisine": "sandwich;bakery", "drive_through": "yes", "name": "Panera Bread", "opening_hours": "Mo-Sa 06:00-21:00; Su 07:00-20:30", "phone": "+1-303-656-4800", "short_name": "Panera", "takeaway": "yes", "website": "https://locations.panerabread.com/co/glendale/640-south-colorado-boulevard.html"}}, {"type": "node", "id": 5031469991, "lat": 39.7055844, "lon": -104.939805, "tags": {"addr:city": "Glendale", "addr:housename": "Hilton Garden Inn Cherry Creek", "addr:housenumber": "600", "addr:postcode": "80246", "addr:state": "CO", "addr:street": "South Colorado Boulevard", "amenity": "restaurant", "contact:email": "info@hgicherrycreek.com", "contact:phone": "+1 303-754-9800", "cuisine": "american", "name": "Great American Grill"}}, {"type": "node", "id": 5031469992, "lat": 39.7056225, "lon": -104.9401805, "tags": {"addr:city": "Glendale", "addr:housename": "CitySet Cherry Creek", "addr:housenumber": "610", "addr:postcode": "80246", "addr:state": "CO", "addr:street": "South Colorado Boulevard", "alt_name": "Cafe Rio Mexican Grill", "amenity": "restaurant", "brand": "Cafe Rio", "brand:wikidata": "Q5017108", "cuisine": "mexican", "name": "Cafe Rio", "opening_hours": "Mo-Th 10:30-21:00; Fr-Sa 10:30-22:00; Su 11:00-21:00", "phone": "+1-303-389-3400", "website": "https://www.caferio.com/locations/colorado-blvd"}}, {"type": "node", "id": 5031469993, "lat": 39.7054987, "lon": -104.9387281, "tags": {"addr:city": "Glendale", "addr:housename": "CitySet Cherry Creek", "addr:housenumber": "658", "addr:postcode": "80246", "addr:state": "CO", "addr:street": "South Colorado Boulevard", "amenity": "restaurant", "cuisine": "american", "instagram": "@nextdooreatery", "name": "Next Door American Eatery", "opening_hours": "11:00-23:00; 15:00-18:00 open \"Happy Hour\"", "phone": "+1-303-757-0878", "website": "https://www.nextdooreatery.com/location/glendale/"}}, {"type": "node", "id": 5031469994, "lat": 39.7047043, "lon": -104.939497, "tags": {"addr:city": "Glendale", "addr:housename": "CitySet Cherry Creek", "addr:housenumber": "680", "addr:postcode": "80246", "addr:state": "CO", "addr:street": "South Colorado Boulevard", "amenity": "cafe", "cuisine": "regional", "diet:vegan": "only", "diet:vegetarian": "yes", "name": "Native Foods Cafe", "opening_hours": "Mo-Su 11:00-22:00", "phone": "+1-303-758-3440", "website": "https://www.nativefoods.com/locations/colorado/glendale/"}}, {"type": "node", "id": 5031469995, "lat": 39.7053419, "lon": -104.940214, "tags": {"addr:city": "Glendale", "addr:housename": "CitySet Cherry Creek", "addr:housenumber": "630", "addr:postcode": "80246", "addr:state": "CO", "addr:street": "South Colorado Boulevard", "amenity": "restaurant", "cuisine": "kebab", "name": "Garbanzo Mediterranean Grill", "opening_hours": "10:30-22:00", "phone": "+1-303-757-5900", "website": "https://www.eatgarbanzo.com/"}}, {"type": "node", "id": 5031469996, "lat": 39.7047208, "lon": -104.939228, "tags": {"addr:city": "Glendale", "addr:housename": "CitySet Cherry Creek", "addr:housenumber": "682", "addr:postcode": "80246", "addr:state": "CO", "addr:street": "South Colorado Boulevard", "alt_name": "Platform T - a Tea Lounge", "amenity": "cafe", "cuisine": "coffee_shop", "name": "Platform T", "opening_hours": "08:00-20:00", "phone": "+1-303-756-1464", "website": "https://www.platformt.com/locations/"}}, {"type": "node", "id": 5031469998, "lat": 39.7055575, "lon": -104.9389319, "tags": {"addr:city": "Glendale", "addr:housename": "CitySet Cherry Creek", "addr:housenumber": "654", "addr:postcode": "80246", "addr:state": "CO", "addr:street": "South Colorado Boulevard", "alt_name": "Cuba Cuba Sandwicheria", "amenity": "restaurant", "cuisine": "sandwich", "name": "Cuba Cuba", "opening_hours": "11:00-21:00; Mo-Fr 15:00-18:00 open \"Happy Hour\"", "phone": "+1-303-758-1167", "website": "https://www.cubacubaglendale.com/"}}, {"type": "node", "id": 5031469999, "lat": 39.7052501, "lon": -104.9382828, "tags": {"addr:city": "Glendale", "addr:housename": "CitySet Cherry Creek", "addr:housenumber": "670", "addr:postcode": "80246", "addr:state": "CO", "addr:street": "South Colorado Boulevard", "amenity": "bar", "name": "The Mix", "phone": "+1-303-758-6200", "website": "http://www.residenceinncherrycreek.com/"}}, {"type": "node", "id": 5031470002, "lat": 39.7054596, "lon": -104.940219, "tags": {"addr:city": "Glendale", "addr:housename": "CitySet Cherry Creek", "addr:housenumber": "620", "addr:postcode": "80246", "addr:state": "CO", "addr:street": "South Colorado Boulevard", "alt_name": "Verizon Wireless", "brand": "Verizon", "brand:wikidata": "Q919641", "name": "Verizon", "opening_hours": "Mo-Sa 09:00-20:00; Su 10:00-18:00", "phone": "+1-303-758-1559", "shop": "mobile_phone", "website": "https://www.gowireless.com/store/stores/colorado/glendale/glendale---coloradoblvd----602209/"}}, {"type": "node", "id": 5031470003, "lat": 39.7056401, "lon": -104.9390687, "tags": {"addr:city": "Glendale", "addr:housename": "CitySet Cherry Creek", "addr:housenumber": "652", "addr:postcode": "80246", "addr:state": "CO", "addr:street": "South Colorado Boulevard", "amenity": "restaurant", "cuisine": "burger", "name": "Big Smoke Burger", "opening_hours": "Su-Th 11:00-22:00; Fr-Sa 11:00-23:00", "phone": "+1-303-756-3145", "website": "http://bigsmokeburger.com/locations/?city=Denver#locations"}}, {"type": "node", "id": 5031470004, "lat": 39.7054265, "lon": -104.9382547, "tags": {"addr:city": "Glendale", "addr:housename": "CitySet Cherry Creek", "addr:housenumber": "670", "addr:postcode": "80246", "addr:state": "CO", "addr:street": "South Colorado Boulevard", "amenity": "restaurant", "name": "Silvi's Kitchen", "phone": "+1-303-758-6200", "website": "http://www.residenceinncherrycreek.com/"}}, {"type": "node", "id": 5033425693, "lat": 39.7057941, "lon": -104.9394018}, {"type": "node", "id": 5033425702, "lat": 39.7055075, "lon": -104.9396154}, {"type": "node", "id": 5033425707, "lat": 39.7053155, "lon": -104.9387252}, {"type": "node", "id": 5033425719, "lat": 39.7054343, "lon": -104.9393221}, {"type": "node", "id": 5033426825, "lat": 39.7049641, "lon": -104.9387023}, {"type": "node", "id": 5033426827, "lat": 39.705155, "lon": -104.9388068}, {"type": "node", "id": 5033426828, "lat": 39.7052629, "lon": -104.938513}, {"type": "node", "id": 5033426835, "lat": 39.7055713, "lon": -104.9383116}, {"type": "node", "id": 5033426847, "lat": 39.7048623, "lon": -104.9389015}, {"type": "node", "id": 5033426849, "lat": 39.7048219, "lon": -104.938798}, {"type": "node", "id": 5033426852, "lat": 39.7054382, "lon": -104.9393888}, {"type": "node", "id": 5033426853, "lat": 39.7053765, "lon": -104.9389506}, {"type": "node", "id": 5033426863, "lat": 39.7050743, "lon": -104.9388758}, {"type": "node", "id": 5033426866, "lat": 39.7052656, "lon": -104.9393862}, {"type": "node", "id": 5033426867, "lat": 39.7051973, "lon": -104.9389539}, {"type": "node", "id": 5033426873, "lat": 39.7052448, "lon": -104.939194}, {"type": "node", "id": 5033426879, "lat": 39.7049136, "lon": -104.938984}, {"type": "node", "id": 5033426888, "lat": 39.7054045, "lon": -104.9390959}, {"type": "node", "id": 5033426892, "lat": 39.7054375, "lon": -104.9393709}, {"type": "node", "id": 5033426895, "lat": 39.705347, "lon": -104.9388316}, {"type": "node", "id": 5033426897, "lat": 39.7056603, "lon": -104.9395078}, {"type": "node", "id": 5033426898, "lat": 39.7054188, "lon": -104.9391839}, {"type": "node", "id": 5033426900, "lat": 39.7053932, "lon": -104.9390351}, {"type": "node", "id": 5033426901, "lat": 39.7053611, "lon": -104.9388847}, {"type": "node", "id": 5033426903, "lat": 39.7052106, "lon": -104.9390109}, {"type": "node", "id": 5033426918, "lat": 39.7054311, "lon": -104.9392837}, {"type": "node", "id": 5033426919, "lat": 39.7054256, "lon": -104.9392358}, {"type": "node", "id": 5033426920, "lat": 39.7054135, "lon": -104.9391484}, {"type": "node", "id": 5033427021, "lat": 39.70566, "lon": -104.9396173}, {"type": "node", "id": 5033427022, "lat": 39.7052662, "lon": -104.9394004}, {"type": "node", "id": 5033427038, "lat": 39.7052628, "lon": -104.9393436}, {"type": "node", "id": 5033427041, "lat": 39.7053354, "lon": -104.9387005}, {"type": "node", "id": 5033427042, "lat": 39.7056438, "lon": -104.9384991}, {"type": "node", "id": 5033427043, "lat": 39.7050387, "lon": -104.9387828}, {"type": "node", "id": 5033427051, "lat": 39.7054689, "lon": -104.9393981}, {"type": "node", "id": 5033427067, "lat": 39.7051716, "lon": -104.9388618}, {"type": "node", "id": 5033427068, "lat": 39.7053324, "lon": -104.9387814}, {"type": "node", "id": 5033427070, "lat": 39.7050042, "lon": -104.9388059}, {"type": "node", "id": 5033427072, "lat": 39.705185, "lon": -104.9389078}, {"type": "node", "id": 5033427079, "lat": 39.7052555, "lon": -104.9392712}, {"type": "node", "id": 5033427088, "lat": 39.7052367, "lon": -104.9391465}, {"type": "node", "id": 5033427089, "lat": 39.7048776, "lon": -104.9388912}, {"type": "node", "id": 5033427090, "lat": 39.705226, "lon": -104.9390891}, {"type": "node", "id": 5033427092, "lat": 39.7052493, "lon": -104.939224}, {"type": "node", "id": 5033427096, "lat": 39.7052602, "lon": -104.9393124}, {"type": "node", "id": 5033427098, "lat": 39.7055078, "lon": -104.9395053}, {"type": "node", "id": 5033427099, "lat": 39.7057939, "lon": -104.9395094}, {"type": "node", "id": 5035841229, "lat": 39.7049201, "lon": -104.9394447}, {"type": "node", "id": 5035841230, "lat": 39.7046137, "lon": -104.9384559}, {"type": "node", "id": 5035841231, "lat": 39.704881, "lon": -104.9389918}, {"type": "node", "id": 5035841232, "lat": 39.7050683, "lon": -104.9393656}, {"type": "node", "id": 5035841233, "lat": 39.7047998, "lon": -104.9388293}, {"type": "node", "id": 5035841234, "lat": 39.7048139, "lon": -104.9390478}, {"type": "node", "id": 5035841235, "lat": 39.7047329, "lon": -104.9388857}, {"type": "node", "id": 5035841236, "lat": 39.704778, "lon": -104.9389761}, {"type": "node", "id": 5035841237, "lat": 39.7049863, "lon": -104.9393919}, {"type": "node", "id": 5035841238, "lat": 39.7047131, "lon": -104.9390314}, {"type": "node", "id": 5035852056, "lat": 39.7043502, "lon": -104.9387829}, {"type": "node", "id": 5035852057, "lat": 39.7047666, "lon": -104.9398733}, {"type": "node", "id": 5035852058, "lat": 39.7044186, "lon": -104.9385316}, {"type": "node", "id": 5035852059, "lat": 39.704542, "lon": -104.9386513}, {"type": "node", "id": 5035852060, "lat": 39.7050135, "lon": -104.9396713}, {"type": "node", "id": 5035852061, "lat": 39.7048264, "lon": -104.9397868}, {"type": "node", "id": 5035852062, "lat": 39.704794, "lon": -104.9400169}, {"type": "node", "id": 5035852063, "lat": 39.7048926, "lon": -104.9397325}, {"type": "node", "id": 5035852064, "lat": 39.704489, "lon": -104.9385966}, {"type": "node", "id": 5035852065, "lat": 39.7042028, "lon": -104.9386423}, {"type": "node", "id": 5035852066, "lat": 39.7044569, "lon": -104.9390534}, {"type": "node", "id": 5035852067, "lat": 39.7047109, "lon": -104.9395931}, {"type": "node", "id": 5035852068, "lat": 39.7045527, "lon": -104.9387497}, {"type": "node", "id": 5035852069, "lat": 39.7042992, "lon": -104.938728}, {"type": "node", "id": 5035852070, "lat": 39.7051495, "lon": -104.9396138}, {"type": "node", "id": 5035852071, "lat": 39.7043091, "lon": -104.9387053}, {"type": "node", "id": 5035852072, "lat": 39.7043916, "lon": -104.9384424}, {"type": "node", "id": 5035852073, "lat": 39.7048632, "lon": -104.9396346}, {"type": "node", "id": 5035852074, "lat": 39.7049548, "lon": -104.9394696}, {"type": "node", "id": 5035852075, "lat": 39.704585, "lon": -104.9387278}, {"type": "node", "id": 5035852076, "lat": 39.7046603, "lon": -104.9389157}, {"type": "node", "id": 5035852077, "lat": 39.704357, "lon": -104.9388715}, {"type": "node", "id": 5035852078, "lat": 39.7044133, "lon": -104.9384424}, {"type": "node", "id": 5035852079, "lat": 39.7045024, "lon": -104.9385738}, {"type": "node", "id": 5035852080, "lat": 39.7047528, "lon": -104.9398184}, {"type": "node", "id": 5035852081, "lat": 39.7044467, "lon": -104.9385134}, {"type": "node", "id": 5035852082, "lat": 39.7048581, "lon": -104.939998}, {"type": "node", "id": 5035852083, "lat": 39.7041997, "lon": -104.9385779}, {"type": "node", "id": 5035852084, "lat": 39.7051008, "lon": -104.9396311}, {"type": "node", "id": 5035852085, "lat": 39.7047662, "lon": -104.9395651}, {"type": "node", "id": 5035852086, "lat": 39.70478, "lon": -104.9399364}, {"type": "node", "id": 5035852087, "lat": 39.7047442, "lon": -104.9396948}, {"type": "node", "id": 5035852088, "lat": 39.7050745, "lon": -104.9396422}, {"type": "node", "id": 5035852089, "lat": 39.7051305, "lon": -104.93962}, {"type": "node", "id": 5035852090, "lat": 39.7043816, "lon": -104.9388656}, {"type": "node", "id": 5035861536, "lat": 39.7052902, "lon": -104.9404967}, {"type": "node", "id": 5035861537, "lat": 39.7052897, "lon": -104.9402757}, {"type": "node", "id": 5035861538, "lat": 39.7049407, "lon": -104.9403863}, {"type": "node", "id": 5035861539, "lat": 39.705325, "lon": -104.9404291}, {"type": "node", "id": 5035861540, "lat": 39.7053248, "lon": -104.9402756}, {"type": "node", "id": 5035861541, "lat": 39.7049505, "lon": -104.940387}, {"type": "node", "id": 5035861542, "lat": 39.7057803, "lon": -104.9396832}, {"type": "node", "id": 5035861543, "lat": 39.705431, "lon": -104.9404962}, {"type": "node", "id": 5035861544, "lat": 39.7057628, "lon": -104.9404888}, {"type": "node", "id": 5035861545, "lat": 39.7056741, "lon": -104.939807}, {"type": "node", "id": 5035861546, "lat": 39.7057065, "lon": -104.9402745}, {"type": "node", "id": 5035861547, "lat": 39.7048739, "lon": -104.94035}, {"type": "node", "id": 5035861548, "lat": 39.7048724, "lon": -104.9404983}, {"type": "node", "id": 5035861549, "lat": 39.7048722, "lon": -104.9403478}, {"type": "node", "id": 5035861551, "lat": 39.7057065, "lon": -104.9403845}, {"type": "node", "id": 5035861552, "lat": 39.7050998, "lon": -104.9402763}, {"type": "node", "id": 5035861554, "lat": 39.7049147, "lon": -104.9403795}, {"type": "node", "id": 5035861555, "lat": 39.7056858, "lon": -104.9400529}, {"type": "node", "id": 5035861556, "lat": 39.7058073, "lon": -104.9404278}, {"type": "node", "id": 5035861557, "lat": 39.7057928, "lon": -104.9398817}, {"type": "node", "id": 5035861558, "lat": 39.7053249, "lon": -104.9403387}, {"type": "node", "id": 5035861559, "lat": 39.70529, "lon": -104.9404293}, {"type": "node", "id": 5035861560, "lat": 39.7056826, "lon": -104.9399698}, {"type": "node", "id": 5035861561, "lat": 39.7057999, "lon": -104.9400467}, {"type": "node", "id": 5035861562, "lat": 39.7056789, "lon": -104.9398916}, {"type": "node", "id": 5035861563, "lat": 39.7055972, "lon": -104.9403846}, {"type": "node", "id": 5035861564, "lat": 39.7056893, "lon": -104.9402358}, {"type": "node", "id": 5035861565, "lat": 39.7055972, "lon": -104.9404891}, {"type": "node", "id": 5035861566, "lat": 39.704906, "lon": -104.9403756}, {"type": "node", "id": 5035861567, "lat": 39.7057966, "lon": -104.9399615}, {"type": "node", "id": 5035861568, "lat": 39.7058057, "lon": -104.9402341}, {"type": "node", "id": 5035861570, "lat": 39.7056696, "lon": -104.939737}, {"type": "node", "id": 5035861571, "lat": 39.7056667, "lon": -104.9396973}, {"type": "node", "id": 5035861572, "lat": 39.7057879, "lon": -104.9397953}, {"type": "node", "id": 5035861573, "lat": 39.7056877, "lon": -104.9401243}, {"type": "node", "id": 5035861574, "lat": 39.7049215, "lon": -104.9403821}, {"type": "node", "id": 5035861575, "lat": 39.7057833, "lon": -104.9397237}, {"type": "node", "id": 5035861576, "lat": 39.7058028, "lon": -104.9401315}, {"type": "node", "id": 5035861577, "lat": 39.7057628, "lon": -104.9404285}, {"type": "node", "id": 5035861578, "lat": 39.7052898, "lon": -104.9403388}, {"type": "node", "id": 5035861579, "lat": 39.7054305, "lon": -104.940385}, {"type": "node", "id": 5035861580, "lat": 39.7050998, "lon": -104.9403863}, {"type": "node", "id": 5035861582, "lat": 39.7048829, "lon": -104.9403598}, {"type": "node", "id": 5035861584, "lat": 39.7053252, "lon": -104.9404966}, {"type": "node", "id": 5035861585, "lat": 39.7049325, "lon": -104.9403851}, {"type": "node", "id": 5035889040, "lat": 39.7051669, "lon": -104.939129, "tags": {"amenity": "parking", "layer": "-1", "operator": "CitySet Cherry Creek", "parking": "underground", "source": "knowledge;Bing"}}, {"type": "node", "id": 5035889047, "lat": 39.7051408, "lon": -104.939195, "tags": {"amenity": "parking_entrance", "parking": "underground"}}, {"type": "node", "id": 5035889048, "lat": 39.705153, "lon": -104.9390104, "tags": {"amenity": "parking_entrance", "entrance": "parking"}}, {"type": "node", "id": 5307805163, "lat": 39.7058531, "lon": -104.9329431, "tags": {"addr:city": "Denver", "addr:housenumber": "1127", "addr:postcode": "80204", "addr:state": "CO", "addr:street": "South Cherry Street", "addr:unit": "4", "name": "Marketplace Home Mortgage", "office": "financial", "opening_hours": "Mo-Fr 08:00-19:00; Sa-Su 10:00-16:00", "operator": "Brian Quigley", "phone": "+1-720-524-3215", "start_date": "2003", "website": "https://www.brianquigley.com/"}}, {"type": "node", "id": 5312754931, "lat": 39.7027761, "lon": -104.939604, "tags": {"addr:city": "Glendale", "addr:housenumber": "760", "addr:postcode": "80246", "addr:state": "CO", "addr:street": "South Colorado Boulevard", "addr:unit": "P", "facebook": "https://facebook.com/SalonPhoenixCO2", "name": "Salon Phoenix", "opening_hours": "Tu-Fr 08:00-19:30, Sa 08:00-18:00, Su-Mo closed", "phone": "+1-303-757-7157", "shop": "hairdresser", "source": "knowledge", "website": "http://www.salonphoenix.online"}}, {"type": "node", "id": 5312846743, "lat": 39.7057412, "lon": -104.9400739}, {"type": "node", "id": 5312846769, "lat": 39.7056864, "lon": -104.9400764}, {"type": "node", "id": 5312846788, "lat": 39.7057425, "lon": -104.9401218}, {"type": "node", "id": 5312865862, "lat": 39.7017632, "lon": -104.9399554}, {"type": "node", "id": 5312865880, "lat": 39.7019382, "lon": -104.9403535}, {"type": "node", "id": 5312865887, "lat": 39.701776, "lon": -104.9400708}, {"type": "node", "id": 5312865905, "lat": 39.7018482, "lon": -104.9399554}, {"type": "node", "id": 5312865917, "lat": 39.7017632, "lon": -104.9400708}, {"type": "node", "id": 5312865948, "lat": 39.7017761, "lon": -104.9403535}, {"type": "node", "id": 5312865955, "lat": 39.7019381, "lon": -104.9399782}, {"type": "node", "id": 5312865959, "lat": 39.7018482, "lon": -104.9399782}, {"type": "node", "id": 5510036858, "lat": 39.7089758, "lon": -104.9302565}, {"type": "node", "id": 5510036859, "lat": 39.7107767, "lon": -104.9349504}, {"type": "node", "id": 5510036861, "lat": 39.7089744, "lon": -104.9301971}, {"type": "node", "id": 5510036862, "lat": 39.7092749, "lon": -104.9313512}, {"type": "node", "id": 5510036881, "lat": 39.7110711, "lon": -104.9349547}, {"type": "node", "id": 5510036883, "lat": 39.7107747, "lon": -104.9354839}, {"type": "node", "id": 5510036889, "lat": 39.7093863, "lon": -104.9302011}, {"type": "node", "id": 5510036897, "lat": 39.7089975, "lon": -104.930398}, {"type": "node", "id": 5544710287, "lat": 39.6955487, "lon": -104.9376066}, {"type": "node", "id": 5546832665, "lat": 39.6955467, "lon": -104.9381655}, {"type": "node", "id": 5546832670, "lat": 39.6954705, "lon": -104.9382906}, {"type": "node", "id": 5578079785, "lat": 39.7062948, "lon": -104.932811, "tags": {"amenity": "parking_entrance", "parking": "multi-storey"}}, {"type": "node", "id": 5578080167, "lat": 39.7106196, "lon": -104.9403934}, {"type": "node", "id": 5578324397, "lat": 39.6989164, "lon": -104.9379556, "tags": {"amenity": "parking_entrance"}}, {"type": "node", "id": 5578324482, "lat": 39.6967911, "lon": -104.9373105}, {"type": "node", "id": 5578324483, "lat": 39.6967911, "lon": -104.9369979}, {"type": "node", "id": 5578324528, "lat": 39.694883, "lon": -104.9375707}, {"type": "node", "id": 5578324535, "lat": 39.6950245, "lon": -104.9383003}, {"type": "node", "id": 5578324536, "lat": 39.6950255, "lon": -104.9384598}, {"type": "node", "id": 5578324537, "lat": 39.6951694, "lon": -104.9384671}, {"type": "node", "id": 5578324538, "lat": 39.6951731, "lon": -104.938893}, {"type": "node", "id": 5578324539, "lat": 39.695333, "lon": -104.9390848}, {"type": "node", "id": 5578324540, "lat": 39.695331, "lon": -104.9393745}, {"type": "node", "id": 5578324546, "lat": 39.6948821, "lon": -104.9393745}, {"type": "node", "id": 5632373766, "lat": 39.70712, "lon": -104.9341025, "tags": {"addr:city": "Denver", "addr:housenumber": "501", "addr:postcode": "80246", "addr:state": "CO", "addr:street": "South Cherry Street", "addr:unit": "610", "name": "Denver Traffic Lawyer, LLC", "office": "lawyer", "opening_hours": "Mo-Fr 08:00-20:00; Sa 08:00-15:00", "phone": "+1-303-625-9400", "website": "https://www.denvertrafficlawyer.com/"}}, {"type": "node", "id": 5649897914, "lat": 39.708312, "lon": -104.931459, "tags": {"addr:city": "Glendale", "addr:country": "US", "addr:housenumber": "4750", "addr:postcode": "80246", "addr:state": "CO", "addr:street": "Leetsdale Drive", "brand": "Brakes Plus", "brand:wikidata": "Q62075246", "name": "Brakes Plus", "opening_hours": "Mo-Fr 08:00-18:00;Sa 08:00-17:00", "operator": "Brakes Plus", "phone": "+1-303-333-5511", "ref:expressoil": "BP127", "shop": "car_repair", "website": "https://www.brakesplus.com"}}, {"type": "node", "id": 5950462165, "lat": 39.6989608, "lon": -104.9335757, "tags": {"addr:city": "Denver", "addr:housenumber": "950", "addr:postcode": "80246", "addr:state": "CO", "addr:street": "South Cherry Street", "addr:unit": "714", "fax": "+1 303-292-2249", "name": "Law Offices Of Rebecca L Shandrick, LLC", "office": "lawyer", "opening_hours": "Mo-Fr 09:30-17:30", "phone": "+1-303-292-1327", "website": "http://elderlawdenver.com"}}, {"type": "node", "id": 6029828457, "lat": 39.6977136, "lon": -104.9402997}, {"type": "node", "id": 6029828458, "lat": 39.6977378, "lon": -104.9392037}, {"type": "node", "id": 6029828459, "lat": 39.6972099, "lon": -104.9391991}, {"type": "node", "id": 6029828460, "lat": 39.6972978, "lon": -104.9402961}, {"type": "node", "id": 6236417135, "lat": 39.7033955, "lon": -104.9418659}, {"type": "node", "id": 6236417137, "lat": 39.7023269, "lon": -104.9418039}, {"type": "node", "id": 6236417138, "lat": 39.702094, "lon": -104.9412508}, {"type": "node", "id": 6236417139, "lat": 39.7032406, "lon": -104.9416028}, {"type": "node", "id": 6236417140, "lat": 39.7032869, "lon": -104.9418087}, {"type": "node", "id": 6236417142, "lat": 39.7026638, "lon": -104.9418811}, {"type": "node", "id": 6236417143, "lat": 39.702255, "lon": -104.9417663}, {"type": "node", "id": 6236417144, "lat": 39.7032862, "lon": -104.9415071}, {"type": "node", "id": 6236417146, "lat": 39.7023546, "lon": -104.9418038}, {"type": "node", "id": 6236417147, "lat": 39.7021919, "lon": -104.9417145}, {"type": "node", "id": 6236417148, "lat": 39.7020939, "lon": -104.9412231}, {"type": "node", "id": 6236417149, "lat": 39.7033953, "lon": -104.9418083}, {"type": "node", "id": 6236417151, "lat": 39.7023269, "lon": -104.9417761}, {"type": "node", "id": 6236417152, "lat": 39.7020527, "lon": -104.9417151}, {"type": "node", "id": 6236417153, "lat": 39.7022724, "lon": -104.9412629}, {"type": "node", "id": 6236417154, "lat": 39.7034506, "lon": -104.9412585}, {"type": "node", "id": 6236417155, "lat": 39.7032865, "lon": -104.9416467}, {"type": "node", "id": 6236417157, "lat": 39.7026411, "lon": -104.9419702}, {"type": "node", "id": 6236417158, "lat": 39.7020517, "lon": -104.941251}, {"type": "node", "id": 6236417159, "lat": 39.7034519, "lon": -104.9418657}, {"type": "node", "id": 6236417160, "lat": 39.7032407, "lon": -104.9416469}, {"type": "node", "id": 6236417163, "lat": 39.702255, "lon": -104.9417764}, {"type": "node", "id": 6236417164, "lat": 39.7022723, "lon": -104.9412225}, {"type": "node", "id": 6236417165, "lat": 39.7032864, "lon": -104.9416026}, {"type": "node", "id": 6236417166, "lat": 39.7027265, "lon": -104.9419214}, {"type": "node", "id": 6236417167, "lat": 39.7023547, "lon": -104.9418468}, {"type": "node", "id": 6236417168, "lat": 39.702192, "lon": -104.9417665}, {"type": "node", "id": 6267910059, "lat": 39.6977302, "lon": -104.9364094}, {"type": "node", "id": 6267910060, "lat": 39.6977592, "lon": -104.9364099}, {"type": "node", "id": 6267910061, "lat": 39.6977868, "lon": -104.9364091}, {"type": "node", "id": 6267910062, "lat": 39.6977879, "lon": -104.9363925}, {"type": "node", "id": 6267910063, "lat": 39.697795, "lon": -104.936384}, {"type": "node", "id": 6267910064, "lat": 39.6978434, "lon": -104.9363844}, {"type": "node", "id": 6267910065, "lat": 39.6978461, "lon": -104.9358654}, {"type": "node", "id": 6267910066, "lat": 39.6978426, "lon": -104.9358537}, {"type": "node", "id": 6267910067, "lat": 39.6978352, "lon": -104.9358532}, {"type": "node", "id": 6267910068, "lat": 39.6974657, "lon": -104.9358567}, {"type": "node", "id": 6267910069, "lat": 39.6974668, "lon": -104.935935}, {"type": "node", "id": 6267910070, "lat": 39.6974602, "lon": -104.9359431}, {"type": "node", "id": 6267910071, "lat": 39.6974453, "lon": -104.9359457}, {"type": "node", "id": 6267910072, "lat": 39.6974317, "lon": -104.9359467}, {"type": "node", "id": 6267910073, "lat": 39.6974168, "lon": -104.9359568}, {"type": "node", "id": 6267910074, "lat": 39.697416, "lon": -104.9359756}, {"type": "node", "id": 6267910075, "lat": 39.6974164, "lon": -104.9360097}, {"type": "node", "id": 6267910076, "lat": 39.6974598, "lon": -104.9360107}, {"type": "node", "id": 6267910077, "lat": 39.6974602, "lon": -104.9362119}, {"type": "node", "id": 6267910078, "lat": 39.6977222, "lon": -104.9362074}, {"type": "node", "id": 6267910079, "lat": 39.6977304, "lon": -104.9362155}, {"type": "node", "id": 6267910080, "lat": 39.6977312, "lon": -104.9362323}, {"type": "node", "id": 6267910081, "lat": 39.6974416, "lon": -104.9361816}, {"type": "node", "id": 6267910082, "lat": 39.6970116, "lon": -104.936179}, {"type": "node", "id": 6267910083, "lat": 39.6970122, "lon": -104.9360067}, {"type": "node", "id": 6267910084, "lat": 39.6974422, "lon": -104.9360093}, {"type": "node", "id": 6267910285, "lat": 39.6973859, "lon": -104.9355226}, {"type": "node", "id": 6267910286, "lat": 39.697386, "lon": -104.9354768}, {"type": "node", "id": 6267910287, "lat": 39.6972364, "lon": -104.9354765}, {"type": "node", "id": 6267910288, "lat": 39.6972364, "lon": -104.9355224}, {"type": "node", "id": 6268867606, "lat": 39.7110196, "lon": -104.9363849}, {"type": "node", "id": 6268867607, "lat": 39.7110344, "lon": -104.9364041}, {"type": "node", "id": 6268867608, "lat": 39.7110338, "lon": -104.9365237}, {"type": "node", "id": 6268867609, "lat": 39.7109417, "lon": -104.9365229}, {"type": "node", "id": 6268867610, "lat": 39.710954, "lon": -104.9365069}, {"type": "node", "id": 6268867611, "lat": 39.7108589, "lon": -104.9365037}, {"type": "node", "id": 6268867612, "lat": 39.7108612, "lon": -104.9363874}, {"type": "node", "id": 6268867613, "lat": 39.7109041, "lon": -104.9363888}, {"type": "node", "id": 6268867614, "lat": 39.7109043, "lon": -104.9363811}, {"type": "node", "id": 6419248154, "lat": 39.7069075, "lon": -104.9349132}, {"type": "node", "id": 6419248155, "lat": 39.7069031, "lon": -104.9349879}, {"type": "node", "id": 6419248156, "lat": 39.7062776, "lon": -104.9349872}, {"type": "node", "id": 6419248251, "lat": 39.703096, "lon": -104.9343876}, {"type": "node", "id": 6419956719, "lat": 39.699995, "lon": -104.9285507}, {"type": "node", "id": 6419956720, "lat": 39.6999822, "lon": -104.9285004}, {"type": "node", "id": 6419956721, "lat": 39.6999477, "lon": -104.9285153}, {"type": "node", "id": 6419956722, "lat": 39.6999605, "lon": -104.9285656}, {"type": "node", "id": 6446689978, "lat": 39.6977144, "lon": -104.9401464}, {"type": "node", "id": 6446689979, "lat": 39.697668, "lon": -104.940146}, {"type": "node", "id": 6446689980, "lat": 39.6976687, "lon": -104.9399955}, {"type": "node", "id": 6446689981, "lat": 39.6978286, "lon": -104.9399969}, {"type": "node", "id": 6446689982, "lat": 39.6978301, "lon": -104.939709}, {"type": "node", "id": 6446689983, "lat": 39.6976686, "lon": -104.9397076}, {"type": "node", "id": 6446689984, "lat": 39.6976698, "lon": -104.9394674}, {"type": "node", "id": 6446690085, "lat": 39.6977364, "lon": -104.939468}, {"type": "node", "id": 6446690086, "lat": 39.6972468, "lon": -104.9401396}, {"type": "node", "id": 6446690087, "lat": 39.6972475, "lon": -104.9399975}, {"type": "node", "id": 6446690088, "lat": 39.6972086, "lon": -104.9399971}, {"type": "node", "id": 6446690089, "lat": 39.6972091, "lon": -104.9399079}, {"type": "node", "id": 6446690090, "lat": 39.6972542, "lon": -104.9399083}, {"type": "node", "id": 6446690091, "lat": 39.6972549, "lon": -104.9397764}, {"type": "node", "id": 6446690092, "lat": 39.6972069, "lon": -104.939776}, {"type": "node", "id": 6446690093, "lat": 39.6972986, "lon": -104.9401401}, {"type": "node", "id": 6446735046, "lat": 39.6994719, "lon": -104.9402841, "tags": {"addr:city": "Denver", "addr:housenumber": "940", "addr:postcode": "80246", "addr:state": "CO", "addr:street": "South Colorado Boulevard", "brand": "Mercedes-Benz", "brand:wikidata": "Q36008", "name": "Mercedes-Benz of Denver", "shop": "car"}}, {"type": "node", "id": 6579524590, "lat": 39.6984791, "lon": -104.9280998}, {"type": "node", "id": 6579524591, "lat": 39.6985082, "lon": -104.9280853}, {"type": "node", "id": 6579524592, "lat": 39.6985176, "lon": -104.9281169}, {"type": "node", "id": 6579524593, "lat": 39.6984884, "lon": -104.9281314}, {"type": "node", "id": 6579524598, "lat": 39.6992321, "lon": -104.9287253}, {"type": "node", "id": 6579524599, "lat": 39.6992598, "lon": -104.9287065}, {"type": "node", "id": 6579524600, "lat": 39.6992718, "lon": -104.9287365}, {"type": "node", "id": 6579524601, "lat": 39.6992441, "lon": -104.9287553}, {"type": "node", "id": 6579524602, "lat": 39.7001005, "lon": -104.928565}, {"type": "node", "id": 6579524603, "lat": 39.700101, "lon": -104.9285244}, {"type": "node", "id": 6579524604, "lat": 39.7001271, "lon": -104.928525}, {"type": "node", "id": 6579524605, "lat": 39.7001265, "lon": -104.9285656}, {"type": "node", "id": 6579524606, "lat": 39.7001052, "lon": -104.9275553}, {"type": "node", "id": 6579524607, "lat": 39.7001287, "lon": -104.927582}, {"type": "node", "id": 6579524608, "lat": 39.7001115, "lon": -104.9276075}, {"type": "node", "id": 6579524609, "lat": 39.700088, "lon": -104.9275807}, {"type": "node", "id": 6685026649, "lat": 39.7032802, "lon": -104.929401, "tags": {"amenity": "bicycle_repair_station", "brand": "Dero", "fee": "no", "mapillary": "170165088970281", "note": "Cherry Creek Trail", "opening_hours": "24/7", "service:bicycle:pump": "yes", "service:bicycle:tools": "yes"}}, {"type": "node", "id": 7105062787, "lat": 39.7071914, "lon": -104.9341169, "tags": {"addr:city": "Glendale", "addr:housenumber": "501", "addr:postcode": "80246", "addr:state": "CO", "addr:street": "South Cherry Street", "addr:unit": "660", "name": "Helen C. Shreves", "office": "lawyer"}}, {"type": "node", "id": 7442888268, "lat": 39.7003798, "lon": -104.9388853, "tags": {"access": "yes", "amenity": "bicycle_parking", "bicycle_parking": "rack", "covered": "no", "fee": "no"}}, {"type": "node", "id": 7679292269, "lat": 39.6967079, "lon": -104.9409722}, {"type": "node", "id": 7679292270, "lat": 39.6991408, "lon": -104.9409658}, {"type": "node", "id": 7679305200, "lat": 39.697022, "lon": -104.9410265}, {"type": "node", "id": 7679305247, "lat": 39.6955925, "lon": -104.9401677}, {"type": "node", "id": 7679305275, "lat": 39.696058, "lon": -104.9409062}, {"type": "node", "id": 7679305330, "lat": 39.7003025, "lon": -104.9409491}, {"type": "node", "id": 7679305366, "lat": 39.698667, "lon": -104.9416693}, {"type": "node", "id": 7679305378, "lat": 39.6949238, "lon": -104.9400673}, {"type": "node", "id": 7679305493, "lat": 39.6971121, "lon": -104.9412039}, {"type": "node", "id": 7679305669, "lat": 39.6967169, "lon": -104.9411741}, {"type": "node", "id": 7679305743, "lat": 39.6957443, "lon": -104.9409724}, {"type": "node", "id": 7679305800, "lat": 39.7003114, "lon": -104.9411811}, {"type": "node", "id": 7679305836, "lat": 39.6986968, "lon": -104.9417014}, {"type": "node", "id": 7679305876, "lat": 39.696058, "lon": -104.9412247}, {"type": "node", "id": 7679305930, "lat": 39.7003046, "lon": -104.9411686}, {"type": "node", "id": 7679305965, "lat": 39.6986659, "lon": -104.9415919}, {"type": "node", "id": 7679306091, "lat": 39.6969092, "lon": -104.9411207}, {"type": "node", "id": 7679306269, "lat": 39.6967165, "lon": -104.9410705}, {"type": "node", "id": 7679306342, "lat": 39.6961501, "lon": -104.9403143}, {"type": "node", "id": 7679306398, "lat": 39.7004106, "lon": -104.9411943}, {"type": "node", "id": 7679306433, "lat": 39.6988491, "lon": -104.9416813}, {"type": "node", "id": 7679306525, "lat": 39.6949978, "lon": -104.9401696}, {"type": "node", "id": 7679306560, "lat": 39.6968297, "lon": -104.9410157}, {"type": "node", "id": 7679306686, "lat": 39.6970686, "lon": -104.9411331}, {"type": "node", "id": 7679306735, "lat": 39.6991421, "lon": -104.9412288}, {"type": "node", "id": 7679306866, "lat": 39.7004531, "lon": -104.9411815}, {"type": "node", "id": 7679306867, "lat": 39.6989466, "lon": -104.940964}, {"type": "node", "id": 7679306940, "lat": 39.6957316, "lon": -104.9410358}, {"type": "node", "id": 7679306996, "lat": 39.7003253, "lon": -104.9411949}, {"type": "node", "id": 7679307031, "lat": 39.6986966, "lon": -104.9414229}, {"type": "node", "id": 7679307070, "lat": 39.6957333, "lon": -104.9409724}, {"type": "node", "id": 7679307158, "lat": 39.6986633, "lon": -104.9414177}, {"type": "node", "id": 7679307335, "lat": 39.6969011, "lon": -104.9409711}, {"type": "node", "id": 7679307336, "lat": 39.6991384, "lon": -104.9409659}, {"type": "node", "id": 7679307467, "lat": 39.6970361, "lon": -104.9409598}, {"type": "node", "id": 7679307541, "lat": 39.6957281, "lon": -104.9410358}, {"type": "node", "id": 7679307631, "lat": 39.6986834, "lon": -104.9414209}, {"type": "node", "id": 7679307643, "lat": 39.6949408, "lon": -104.940067}, {"type": "node", "id": 7679307723, "lat": 39.6950244, "lon": -104.9401983}, {"type": "node", "id": 7679307758, "lat": 39.6969131, "lon": -104.941205}, {"type": "node", "id": 7679307935, "lat": 39.696901, "lon": -104.9409464}, {"type": "node", "id": 7679307936, "lat": 39.6991402, "lon": -104.9412256}, {"type": "node", "id": 7679308009, "lat": 39.6961487, "lon": -104.9401086}, {"type": "node", "id": 7679308066, "lat": 39.7003114, "lon": -104.9411789}, {"type": "node", "id": 7679308102, "lat": 39.6987979, "lon": -104.9417111}, {"type": "node", "id": 7679308141, "lat": 39.6957451, "lon": -104.9412247}, {"type": "node", "id": 7679308196, "lat": 39.7003063, "lon": -104.9411762}, {"type": "node", "id": 7679308231, "lat": 39.6986961, "lon": -104.9415911}, {"type": "node", "id": 7679308243, "lat": 39.6949388, "lon": -104.9398924}, {"type": "node", "id": 7679308358, "lat": 39.6969134, "lon": -104.9412896}, {"type": "node", "id": 7679308535, "lat": 39.6967083, "lon": -104.9410705}, {"type": "node", "id": 7679308608, "lat": 39.696138, "lon": -104.9403141}, {"type": "node", "id": 7679308664, "lat": 39.7003087, "lon": -104.9411789}, {"type": "node", "id": 7679308700, "lat": 39.6988107, "lon": -104.9416823}, {"type": "node", "id": 7679308827, "lat": 39.6988109, "lon": -104.9412787}, {"type": "node", "id": 7679308839, "lat": 39.6949249, "lon": -104.940171}, {"type": "node", "id": 7679308954, "lat": 39.6971119, "lon": -104.9411329}, {"type": "node", "id": 7679309003, "lat": 39.6989401, "lon": -104.9412311}, {"type": "node", "id": 7679309076, "lat": 39.6961496, "lon": -104.940378}, {"type": "node", "id": 7679309134, "lat": 39.6970223, "lon": -104.9411112}, {"type": "node", "id": 7679309136, "lat": 39.6989405, "lon": -104.9409689}, {"type": "node", "id": 7679309207, "lat": 39.6961383, "lon": -104.9402723}, {"type": "node", "id": 7679309263, "lat": 39.7003253, "lon": -104.941181}, {"type": "node", "id": 7679309298, "lat": 39.698811, "lon": -104.9417021}, {"type": "node", "id": 7679309425, "lat": 39.6986632, "lon": -104.9414091}, {"type": "node", "id": 7679309602, "lat": 39.6989401, "lon": -104.9412274}, {"type": "node", "id": 7679309732, "lat": 39.6970665, "lon": -104.9409596}, {"type": "node", "id": 7679309806, "lat": 39.6957281, "lon": -104.9409724}, {"type": "node", "id": 7679309815, "lat": 39.6988095, "lon": -104.9415914}, {"type": "node", "id": 7679309862, "lat": 39.7003033, "lon": -104.9411686}, {"type": "node", "id": 7679309898, "lat": 39.6986688, "lon": -104.9414186}, {"type": "node", "id": 7679309990, "lat": 39.6949981, "lon": -104.9401988}, {"type": "node", "id": 7679310025, "lat": 39.6986039, "lon": -104.9414106}, {"type": "node", "id": 7679310203, "lat": 39.697036, "lon": -104.9409456}, {"type": "node", "id": 7679310204, "lat": 39.699142, "lon": -104.9412255}, {"type": "node", "id": 7679310277, "lat": 39.6962727, "lon": -104.9401103}, {"type": "node", "id": 7679310335, "lat": 39.6970667, "lon": -104.9410263}, {"type": "node", "id": 7679310371, "lat": 39.6987088, "lon": -104.9417134}, {"type": "node", "id": 7679310382, "lat": 39.6955947, "lon": -104.9397568}, {"type": "node", "id": 7679310410, "lat": 39.6957444, "lon": -104.9409062}, {"type": "node", "id": 7679310465, "lat": 39.7003063, "lon": -104.9411723}, {"type": "node", "id": 7679310500, "lat": 39.6986963, "lon": -104.9416686}, {"type": "node", "id": 7679310627, "lat": 39.6967064, "lon": -104.9412908}, {"type": "node", "id": 7679310804, "lat": 39.696706, "lon": -104.9411742}, {"type": "node", "id": 7679310806, "lat": 39.6991408, "lon": -104.9409618}, {"type": "node", "id": 7679310851, "lat": 39.6959424, "lon": -104.9397598}, {"type": "node", "id": 7679310934, "lat": 39.7003086, "lon": -104.9411762}, {"type": "node", "id": 7679310970, "lat": 39.698709, "lon": -104.9417009}, {"type": "node", "id": 7679311062, "lat": 39.7003046, "lon": -104.9411723}, {"type": "node", "id": 7679311097, "lat": 39.6988096, "lon": -104.941571}, {"type": "node", "id": 7679311223, "lat": 39.6968299, "lon": -104.941121}, {"type": "node", "id": 7679311401, "lat": 39.6970685, "lon": -104.941111}, {"type": "node", "id": 7679311402, "lat": 39.6989379, "lon": -104.9409689}, {"type": "node", "id": 7679311475, "lat": 39.6961473, "lon": -104.9402724}, {"type": "node", "id": 7679311531, "lat": 39.7004105, "lon": -104.9411818}, {"type": "node", "id": 7679311567, "lat": 39.6987978, "lon": -104.9417024}, {"type": "node", "id": 7679311694, "lat": 39.696909, "lon": -104.9410153}, {"type": "node", "id": 7679311870, "lat": 39.6989422, "lon": -104.9412273}, {"type": "node", "id": 7679312000, "lat": 39.7004523, "lon": -104.9409481}, {"type": "node", "id": 7679312002, "lat": 39.6989379, "lon": -104.9409641}, {"type": "node", "id": 7679312074, "lat": 39.6957451, "lon": -104.9410358}, {"type": "node", "id": 7679312083, "lat": 39.6988477, "lon": -104.9415915}, {"type": "node", "id": 7679312130, "lat": 39.7003033, "lon": -104.9411642}, {"type": "node", "id": 7679312166, "lat": 39.6986964, "lon": -104.9414876}, {"type": "node", "id": 7679312258, "lat": 39.6950211, "lon": -104.9398908}, {"type": "node", "id": 7679312293, "lat": 39.698602, "lon": -104.941284}, {"type": "node", "id": 7717361116, "lat": 39.6962564, "lon": -104.9375838}, {"type": "node", "id": 7717361117, "lat": 39.6956276, "lon": -104.93758}, {"type": "node", "id": 7717361118, "lat": 39.6956257, "lon": -104.9381209}, {"type": "node", "id": 7717361119, "lat": 39.6957318, "lon": -104.9381215}, {"type": "node", "id": 7717361120, "lat": 39.6957315, "lon": -104.9381882}, {"type": "node", "id": 7717361121, "lat": 39.6962542, "lon": -104.9381914}, {"type": "node", "id": 7717361125, "lat": 39.6960332, "lon": -104.9397041}, {"type": "node", "id": 7717361138, "lat": 39.6974178, "lon": -104.937718}, {"type": "node", "id": 8019754629, "lat": 39.7005985, "lon": -104.9389333}, {"type": "node", "id": 8019754630, "lat": 39.7004035, "lon": -104.9389341}, {"type": "node", "id": 8019754631, "lat": 39.700403, "lon": -104.9387331}, {"type": "node", "id": 8019754632, "lat": 39.7005179, "lon": -104.9387326}, {"type": "node", "id": 8019754633, "lat": 39.700518, "lon": -104.9387467}, {"type": "node", "id": 8019754634, "lat": 39.7005006, "lon": -104.9387467}, {"type": "node", "id": 8019754635, "lat": 39.7005007, "lon": -104.9387755}, {"type": "node", "id": 8019754636, "lat": 39.7005981, "lon": -104.9387751}, {"type": "node", "id": 8019754637, "lat": 39.7008402, "lon": -104.940104, "tags": {"addr:city": "Glendale", "addr:housenumber": "870", "addr:postcode": "80246", "addr:state": "CO", "addr:street": "South Colorado Boulevard", "addr:unit": "100", "brand": "Staples", "brand:wikidata": "Q785943", "fax": "+1 303-758-9903", "name": "Staples", "opening_hours": "Mo-Sa 08:00-21:00, Su 10:00-18:00", "phone": "+1 303-758-9900", "shop": "stationery", "website": "https://stores.staples.com/co/glendale/870-south-colorado-blvd"}}, {"type": "node", "id": 8020552510, "lat": 39.7017634, "lon": -104.9396908, "tags": {"amenity": "atm"}}, {"type": "node", "id": 8020552511, "lat": 39.7023596, "lon": -104.939437, "tags": {"addr:city": "Glendale", "addr:housenumber": "780", "addr:postcode": "80246", "addr:state": "CO", "addr:street": "South Colorado Boulevard", "addr:unit": "B", "amenity": "restaurant", "cuisine": "vietnamese", "name": "Vivi Pho", "opening_hours": "Mo-Sa 10:30-21:30, Su 11:00-21:00", "phone": "+1-303-757-0145", "website": "https://www.vivipho.com/"}}, {"type": "node", "id": 8020552512, "lat": 39.702741, "lon": -104.939603, "tags": {"addr:city": "Glendale", "addr:housenumber": "760", "addr:postcode": "80246", "addr:state": "CO", "addr:street": "South Colorado Boulevard", "addr:unit": "H", "brand": "GNC", "brand:wikidata": "Q4808595", "name": "GNC", "opening_hours": "Mo-Fr 10:00-21:00, Sa 10:00-18:00, Su 11:00-18:00", "phone": "+1-303-692-1997", "shop": "nutrition_supplements", "website": "https://www.gnc.com/store-details?StoreID=7082"}}, {"type": "node", "id": 8020552513, "lat": 39.7027391, "lon": -104.939738, "tags": {"addr:city": "Glendale", "addr:housenumber": "760", "addr:postcode": "80246", "addr:state": "CO", "addr:street": "South Colorado Boulevard", "addr:unit": "G", "clothes": "medical", "name": "Crazy Scrubs", "opening_hours": "Mo-Fr 10:00-18:00, Sa-Su 12:00-17:00", "phone": "+1-303-282-9228", "shop": "clothes", "website": "https://www.crazyscrubs.com/"}}, {"type": "node", "id": 8020552514, "lat": 39.7027391, "lon": -104.939816, "tags": {"addr:city": "Glendale", "addr:housenumber": "760", "addr:postcode": "80246", "addr:state": "CO", "addr:street": "South Colorado Boulevard", "addr:unit": "F", "amenity": "fast_food", "cuisine": "juice", "drive_through": "no", "name": "Emerald City Smoothie", "opening_hours": "Mo-Fr 08:00-18:00, Sa 08:00-17:00, Su 09:00-17:00", "phone": "+1-303-757-7557", "website": "https://www.emeraldcitysmoothie.com/directory/locations/denver"}}, {"type": "node", "id": 8020552515, "lat": 39.7027373, "lon": -104.939902, "tags": {"addr:city": "Glendale", "addr:housenumber": "760", "addr:postcode": "80246", "addr:state": "CO", "addr:street": "South Colorado Boulevard", "addr:unit": "E", "beauty": "waxing", "name": "Waxxpot", "opening_hours": "Mo-Fr 08:00-20:00, Sa 08:00-18:00, Su 09:00-17:00", "phone": "+1-303-997-9233", "shop": "beauty", "website": "https://waxxpot.com/locations/denver/"}}, {"type": "node", "id": 8020552516, "lat": 39.7027425, "lon": -104.9399456, "tags": {"addr:city": "Glendale", "addr:housenumber": "760", "addr:postcode": "80246", "addr:state": "CO", "addr:street": "South Colorado Boulevard", "addr:unit": "L1", "brand": "H&R Block", "brand:wikidata": "Q5627799", "name": "H&R Block", "office": "tax_advisor", "phone": "+1-303-320-0026", "website": "https://www.hrblock.com/block-advisors/local-tax-offices/colorado/denver/760-s-colorado-blvd/7015"}}, {"type": "node", "id": 8020552517, "lat": 39.7027746, "lon": -104.939816, "tags": {"addr:city": "Glendale", "addr:housenumber": "760", "addr:postcode": "80246", "addr:state": "CO", "addr:street": "South Colorado Boulevard", "addr:unit": "M", "beauty": "laser_hair_removal", "name": "Simplicity Laser", "opening_hours": "Mo 07:00-19:00, Tu 13:00-19:00, We-Fr 07:00-19:00, Sa 08:00-15:00, Su off", "phone": "+1-800-559-9138", "shop": "beauty", "website": "https://www.simplicitylaser.com/pages/denver-co"}}, {"type": "node", "id": 8020552519, "lat": 39.7027428, "lon": -104.940145, "tags": {"addr:city": "Glendale", "addr:housenumber": "760", "addr:postcode": "80246", "addr:state": "CO", "addr:street": "South Colorado Boulevard", "addr:unit": "B1", "email": "glendaleco@devicepitstop.com", "mobile_phone": "repair", "name": "Device Pitstop", "opening_hours": "Mo-Sa 10:00-20:00, Su 11:00-17:00", "phone": "+1-720-398-9045", "shop": "mobile_phone"}}, {"type": "node", "id": 8020552520, "lat": 39.7027448, "lon": -104.940246, "tags": {"addr:city": "Glendale", "addr:housenumber": "760", "addr:postcode": "80246", "addr:state": "CO", "addr:street": "South Colorado Boulevard", "addr:unit": "A", "amenity": "clinic", "brand": "AFC Urgent Care", "clinic": "urgent_care", "healthcare": "clinic", "name": "AFC Urgent Care", "opening_hours": "Mo-Fr 08:00-20:00, Sa-Su 08:00-18:00", "operator": "AFC Urgent Care", "operator:type": "private", "operator:wikidata": "Q110552174", "phone": "+1-303-692-8000", "urgent_care": "yes", "website": "https://afcurgentcaredenver.com/contact-us/urgent-care-at-cherry-creek/"}}, {"type": "node", "id": 8020552521, "lat": 39.702785, "lon": -104.940354, "tags": {"addr:city": "Glendale", "addr:housenumber": "760", "addr:postcode": "80246", "addr:state": "CO", "addr:street": "South Colorado Boulevard", "addr:unit": "I", "beauty": "hair", "name": "Jack & Jill Salon Spa Shoppe", "phone": "+1-303-780-0050", "shop": "beauty", "website": "https://www.jackandjillchildrenssalon.com/"}}, {"type": "node", "id": 8026914962, "lat": 39.6971517, "lon": -104.933757, "tags": {"addr:city": "Glendale", "addr:housenumber": "4605", "addr:postcode": "80246", "addr:state": "CO", "addr:street": "East Mississippi Avenue", "beauty": "nails", "name": "Centro De Belleza Salon", "opening_hours": "Mo-Sa 10:00-19:00, Su 10:00-16:00", "phone": "+1-720-877-8375", "shop": "beauty"}}, {"type": "node", "id": 8026914963, "lat": 39.6971517, "lon": -104.933667, "tags": {"addr:city": "Glendale", "addr:housenumber": "4607", "addr:postcode": "80246", "addr:state": "CO", "addr:street": "East Mississippi Avenue", "brand": "Boost Mobile", "brand:wikidata": "Q4943790", "name": "Boost Mobile", "opening_hours": "Mo-Sa 10:00-19:00, Su 10:00-17:00", "phone": "+1-303-351-5061", "shop": "mobile_phone", "website": "https://boostmobilelocal.com/co/glendale/2445/"}}, {"type": "node", "id": 8026914964, "lat": 39.6968553, "lon": -104.933596, "tags": {"addr:city": "Glendale", "addr:housenumber": "4619", "addr:postcode": "80246", "addr:state": "CO", "addr:street": "East Mississippi Avenue", "name": "7 Corners Market", "phone": "+1-303-757-2277", "shop": "convenience"}}, {"type": "node", "id": 8026914965, "lat": 39.6967619, "lon": -104.9335997, "tags": {"addr:city": "Glendale", "addr:housenumber": "4623", "addr:postcode": "80246", "addr:state": "CO", "addr:street": "East Mississippi Avenue", "name": "Cherry Massage", "phone": "+1-720-251-3372", "shop": "massage"}}, {"type": "node", "id": 8026918209, "lat": 39.7023204, "lon": -104.934414, "tags": {"addr:city": "Glendale", "addr:housenumber": "801", "addr:postcode": "80246", "addr:state": "CO", "addr:street": "South Cherry Street", "contact:facebook": "https://www.facebook.com/AMLICherryCreek", "contact:instagram": "https://www.instagram.com/amlicherrycreek/", "contact:phone": "+1-866-935-6217", "contact:website": "https://www.amli.com/apartments/denver/glendale-denver-apartments/amli-cherry-creek", "name": "AMLI Cherry Creek", "office": "apartments", "opening_hours": "Mo-Sa 10:00-18:00; Su 12:00-17:00"}}, {"type": "node", "id": 8033183350, "lat": 39.6986266, "lon": -104.935894}, {"type": "node", "id": 8033183351, "lat": 39.6985729, "lon": -104.935894}, {"type": "node", "id": 8033183352, "lat": 39.6985729, "lon": -104.9356622}, {"type": "node", "id": 8033183353, "lat": 39.6985238, "lon": -104.9356634}, {"type": "node", "id": 8033183354, "lat": 39.6985238, "lon": -104.9354044}, {"type": "node", "id": 8033183355, "lat": 39.6986648, "lon": -104.9354055}, {"type": "node", "id": 8033183356, "lat": 39.698663, "lon": -104.935473}, {"type": "node", "id": 8033183357, "lat": 39.6987941, "lon": -104.9354718}, {"type": "node", "id": 8033183358, "lat": 39.6987932, "lon": -104.9355226}, {"type": "node", "id": 8033183359, "lat": 39.6988414, "lon": -104.9355215}, {"type": "node", "id": 8033183360, "lat": 39.6988505, "lon": -104.9355238}, {"type": "node", "id": 8033183361, "lat": 39.698855, "lon": -104.9355356}, {"type": "node", "id": 8033183362, "lat": 39.6988532, "lon": -104.9355475}, {"type": "node", "id": 8033183363, "lat": 39.6988459, "lon": -104.9355534}, {"type": "node", "id": 8033183364, "lat": 39.6988387, "lon": -104.9355534}, {"type": "node", "id": 8033183365, "lat": 39.6988396, "lon": -104.9357284}, {"type": "node", "id": 8033183366, "lat": 39.6986658, "lon": -104.9357261}, {"type": "node", "id": 8033183367, "lat": 39.6986667, "lon": -104.9357473}, {"type": "node", "id": 8033183368, "lat": 39.6986275, "lon": -104.9357462}, {"type": "node", "id": 8033183387, "lat": 39.6966571, "lon": -104.9369957}, {"type": "node", "id": 8033183388, "lat": 39.696656, "lon": -104.9373132}, {"type": "node", "id": 8033183475, "lat": 39.6955003, "lon": -104.9382135}, {"type": "node", "id": 8033183476, "lat": 39.6962705, "lon": -104.940379}, {"type": "node", "id": 8033183477, "lat": 39.6963093, "lon": -104.939668, "tags": {"addr:city": "Glendale", "addr:housenumber": "1108", "addr:postcode": "80246", "addr:state": "CO", "addr:street": "South Colorado Boulevard", "amenity": "fast_food", "brand": "Wingstop", "brand:wikidata": "Q8025339", "cuisine": "wings", "fixme:atp": "no ATP match, check if still exists", "name": "Wingstop", "phone": "+1 303-759-9464", "takeaway": "yes", "website": "https://www.wingstop.com/location/wingstop-1091-glendale-co-80222/menu"}}, {"type": "node", "id": 8034502312, "lat": 39.6962226, "lon": -104.939665, "tags": {"addr:city": "Glendale", "addr:housenumber": "1112", "addr:postcode": "80246", "addr:state": "CO", "addr:street": "South Colorado Boulevard", "brand": "Warhammer", "brand:wikidata": "Q587270", "facebook": "https://www.facebook.com/GWSquareOneDenver", "name": "Warhammer", "opening_hours": "We 11:00-18:00; Th-Fr 12:00-18:00; Sa-Su 11:00-19:00", "phone": "+1-303-759-5400", "shop": "games", "website": "https://www.games-workshop.com/Games-Workshop-Square-One-Denver"}}, {"type": "node", "id": 8034502313, "lat": 39.6961708, "lon": -104.939666, "tags": {"addr:city": "Glendale", "addr:housenumber": "1116", "addr:postcode": "80246", "addr:state": "CO", "addr:street": "South Colorado Boulevard", "beauty": "nails", "name": "Sao Nails & Spa", "phone": "+1-303-757-1788", "shop": "beauty"}}, {"type": "node", "id": 8034502334, "lat": 39.695927, "lon": -104.939719, "tags": {"addr:city": "Glendale", "addr:housenumber": "1124", "addr:postcode": "80246", "addr:state": "CO", "addr:street": "South Colorado Boulevard", "email": "info@coloradogoldmart.com", "name": "Colorado Gold Mart", "opening_hours": "Mo-Fr 10:00-18:00; Sa 10:00-14:00", "phone": "+1-303-692-0555", "shop": "pawnbroker", "website": "https://coloradogoldmart.com/"}}, {"type": "node", "id": 8034502335, "lat": 39.6958445, "lon": -104.939718, "tags": {"addr:city": "Glendale", "addr:housenumber": "1128", "addr:postcode": "80246", "addr:state": "CO", "addr:street": "South Colorado Boulevard", "amenity": "restaurant", "check_date": "2025-01-11", "cuisine": "hawaiian", "name": "PokeCity", "opening_hours": "11:00-20:00", "payment:cash": "yes", "payment:credit_cards": "yes", "payment:debit_cards": "yes", "phone": "+1-303-954-0005", "website": "https://www.thepokecity.com/"}}, {"type": "node", "id": 8034502336, "lat": 39.6957753, "lon": -104.939717, "tags": {"addr:city": "Glendale", "addr:housenumber": "1136", "addr:postcode": "80246", "addr:state": "CO", "addr:street": "South Colorado Boulevard", "amenity": "fast_food", "brand": "Domino's", "brand:wikidata": "Q839466", "cuisine": "pizza", "delivery": "Su-Th 10:30-01:00;Fr-Sa 10:30-02:00", "drive_in": "Mo-Fr 16:00-22:00;Sa-Su 10:30-22:00", "drive_through": "no", "name": "Domino's", "opening_hours": "Mo-Th 10:30-01:00; Fr-Sa 10:30-02:00; Su 10:30-01:00", "phone": "+1 303-758-8050", "ref": "6211", "takeaway": "10:30-22:00", "website": "https://pizza.dominos.com/colorado/denver/1136-s-colorado-blvd"}}, {"type": "node", "id": 8034502337, "lat": 39.6957134, "lon": -104.939718, "tags": {"addr:city": "Glendale", "addr:housenumber": "1140", "addr:postcode": "80246", "addr:state": "CO", "addr:street": "South Colorado Boulevard", "amenity": "fast_food", "brand": "Jimmy John's", "brand:wikidata": "Q1689380", "cuisine": "sandwich", "name": "Jimmy John's", "official_name": "Jimmy John's Gourmet Sandwiches", "opening_hours": "11:00-19:00", "phone": "+1-303-757-1080", "takeaway": "yes", "website": "https://locations.jimmyjohns.com/co/glendale/sandwiches-1676.html"}}, {"type": "node", "id": 8779090045, "lat": 39.7069863, "lon": -104.9388714}, {"type": "node", "id": 8779090046, "lat": 39.7072624, "lon": -104.9388737}, {"type": "node", "id": 8804654218, "lat": 39.7084647, "lon": -104.9403531}, {"type": "node", "id": 8804654219, "lat": 39.7084665, "lon": -104.9401583}, {"type": "node", "id": 8804654220, "lat": 39.7082765, "lon": -104.9401554}, {"type": "node", "id": 8804654221, "lat": 39.7082762, "lon": -104.9401957}, {"type": "node", "id": 8804654222, "lat": 39.7082462, "lon": -104.9401952}, {"type": "node", "id": 8804654223, "lat": 39.708245, "lon": -104.9403213}, {"type": "node", "id": 8804654224, "lat": 39.7082732, "lon": -104.9403217}, {"type": "node", "id": 8804654225, "lat": 39.7082729, "lon": -104.9403501}, {"type": "node", "id": 8804654240, "lat": 39.7094291, "lon": -104.9400606, "tags": {"amenity": "bank", "brand": "Wells Fargo", "brand:wikidata": "Q744149", "name": "Wells Fargo"}}, {"type": "node", "id": 8804654241, "lat": 39.7089714, "lon": -104.9404039}, {"type": "node", "id": 8804654242, "lat": 39.7089708, "lon": -104.9402286}, {"type": "node", "id": 8804654243, "lat": 39.7087777, "lon": -104.9402297}, {"type": "node", "id": 8804654244, "lat": 39.7087783, "lon": -104.940405}, {"type": "node", "id": 8804654256, "lat": 39.7104894, "lon": -104.940486}, {"type": "node", "id": 8804654257, "lat": 39.7104894, "lon": -104.940415}, {"type": "node", "id": 8804654258, "lat": 39.7105714, "lon": -104.9404103}, {"type": "node", "id": 8804654259, "lat": 39.7105841, "lon": -104.9399063}, {"type": "node", "id": 8804654260, "lat": 39.7105058, "lon": -104.9399015}, {"type": "node", "id": 8804654261, "lat": 39.7105076, "lon": -104.9398258}, {"type": "node", "id": 8804654262, "lat": 39.7103893, "lon": -104.9398258}, {"type": "node", "id": 8804654263, "lat": 39.7103857, "lon": -104.9399015}, {"type": "node", "id": 8804654264, "lat": 39.7103256, "lon": -104.9399086}, {"type": "node", "id": 8804654265, "lat": 39.7103256, "lon": -104.9398211}, {"type": "node", "id": 8804654266, "lat": 39.7101964, "lon": -104.9398282}, {"type": "node", "id": 8804654267, "lat": 39.7101946, "lon": -104.9399063}, {"type": "node", "id": 8804654268, "lat": 39.7100963, "lon": -104.9398968}, {"type": "node", "id": 8804654269, "lat": 39.7100999, "lon": -104.9391846}, {"type": "node", "id": 8804654270, "lat": 39.710089, "lon": -104.9389219}, {"type": "node", "id": 8804654271, "lat": 39.7099524, "lon": -104.9388344}, {"type": "node", "id": 8804654272, "lat": 39.7099524, "lon": -104.9387445}, {"type": "node", "id": 8804654273, "lat": 39.7093102, "lon": -104.9387232}, {"type": "node", "id": 8804654274, "lat": 39.7093102, "lon": -104.9388137}, {"type": "node", "id": 8804654275, "lat": 39.7092625, "lon": -104.9388131}, {"type": "node", "id": 8804654276, "lat": 39.7092628, "lon": -104.9387155}, {"type": "node", "id": 8804654277, "lat": 39.7091345, "lon": -104.9387198}, {"type": "node", "id": 8804654278, "lat": 39.7091315, "lon": -104.9388012}, {"type": "node", "id": 8804654279, "lat": 39.709006, "lon": -104.9388008}, {"type": "node", "id": 8804654280, "lat": 39.7086545, "lon": -104.9390663}, {"type": "node", "id": 8804654281, "lat": 39.7086564, "lon": -104.9394023}, {"type": "node", "id": 8804654282, "lat": 39.7087292, "lon": -104.9394141}, {"type": "node", "id": 8804654283, "lat": 39.7087237, "lon": -104.9398684}, {"type": "node", "id": 8804654284, "lat": 39.7087401, "lon": -104.9399063}, {"type": "node", "id": 8804654285, "lat": 39.7087328, "lon": -104.9401098}, {"type": "node", "id": 8804654286, "lat": 39.7088093, "lon": -104.9401074}, {"type": "node", "id": 8804654287, "lat": 39.7088075, "lon": -104.9401737}, {"type": "node", "id": 8804654288, "lat": 39.708984, "lon": -104.9401737}, {"type": "node", "id": 8804654289, "lat": 39.708984, "lon": -104.9400743}, {"type": "node", "id": 8804654290, "lat": 39.7089822, "lon": -104.9398069}, {"type": "node", "id": 8804654291, "lat": 39.7091788, "lon": -104.9398022}, {"type": "node", "id": 8804654292, "lat": 39.7091752, "lon": -104.9395513}, {"type": "node", "id": 8804654293, "lat": 39.7096485, "lon": -104.9395868}, {"type": "node", "id": 8804654294, "lat": 39.7096503, "lon": -104.9394543}, {"type": "node", "id": 8804654295, "lat": 39.7098323, "lon": -104.9393384}, {"type": "node", "id": 8804654296, "lat": 39.7098305, "lon": -104.9393762}, {"type": "node", "id": 8804654297, "lat": 39.7097904, "lon": -104.9394141}, {"type": "node", "id": 8804654298, "lat": 39.7098014, "lon": -104.9404623}, {"type": "node", "id": 8804654299, "lat": 39.7100872, "lon": -104.9404671}, {"type": "node", "id": 8804654300, "lat": 39.710109, "lon": -104.9404836}, {"type": "node", "id": 8804654301, "lat": 39.7097577, "lon": -104.9394579}, {"type": "node", "id": 8804654302, "lat": 39.7097768, "lon": -104.9393863}, {"type": "node", "id": 8804654303, "lat": 39.7078544, "lon": -104.9398761}, {"type": "node", "id": 8804654304, "lat": 39.707857, "lon": -104.9395693}, {"type": "node", "id": 8804654305, "lat": 39.7076934, "lon": -104.9395671}, {"type": "node", "id": 8804654306, "lat": 39.7076917, "lon": -104.9398734}, {"type": "node", "id": 8804654307, "lat": 39.7075961, "lon": -104.9395661}, {"type": "node", "id": 8804654308, "lat": 39.7075953, "lon": -104.939672}, {"type": "node", "id": 8804654310, "lat": 39.7075938, "lon": -104.9398728}, {"type": "node", "id": 8804670220, "lat": 39.7085149, "lon": -104.9399371}, {"type": "node", "id": 8804670221, "lat": 39.708231, "lon": -104.9399314}, {"type": "node", "id": 8804670222, "lat": 39.7082317, "lon": -104.9398828}, {"type": "node", "id": 8804670223, "lat": 39.7081791, "lon": -104.9398808}, {"type": "node", "id": 8804670224, "lat": 39.7081755, "lon": -104.9390507}, {"type": "node", "id": 8804670225, "lat": 39.7084686, "lon": -104.9390602}, {"type": "node", "id": 8804670226, "lat": 39.7084704, "lon": -104.9391004}, {"type": "node", "id": 8804670227, "lat": 39.708516, "lon": -104.9391027}, {"type": "node", "id": 8804670228, "lat": 39.7081737, "lon": -104.9404917}, {"type": "node", "id": 8804670229, "lat": 39.7078042, "lon": -104.9404965}, {"type": "node", "id": 8804670230, "lat": 39.7078042, "lon": -104.940442}, {"type": "node", "id": 8804670231, "lat": 39.7076422, "lon": -104.9404491}, {"type": "node", "id": 8804670232, "lat": 39.7075748, "lon": -104.9403805}, {"type": "node", "id": 8804670233, "lat": 39.7075748, "lon": -104.9400161}, {"type": "node", "id": 8804670234, "lat": 39.7076786, "lon": -104.9400066}, {"type": "node", "id": 8804670235, "lat": 39.7076814, "lon": -104.9398901}, {"type": "node", "id": 8804670236, "lat": 39.7078973, "lon": -104.9398924}, {"type": "node", "id": 8804670237, "lat": 39.7078912, "lon": -104.9396241}, {"type": "node", "id": 8804670238, "lat": 39.708178, "lon": -104.9396263}, {"type": "node", "id": 8804670239, "lat": 39.7103384, "lon": -104.9382869}, {"type": "node", "id": 8804670240, "lat": 39.7103477, "lon": -104.9377681}, {"type": "node", "id": 8804670241, "lat": 39.7102707, "lon": -104.9377135}, {"type": "node", "id": 8804670242, "lat": 39.7097269, "lon": -104.9377074}, {"type": "node", "id": 8804670243, "lat": 39.7096825, "lon": -104.9377408}, {"type": "node", "id": 8804670244, "lat": 39.7088913, "lon": -104.9378561}, {"type": "node", "id": 8804670245, "lat": 39.7079204, "lon": -104.93785}, {"type": "node", "id": 8804670246, "lat": 39.7075353, "lon": -104.9377499}, {"type": "node", "id": 8804670247, "lat": 39.707519, "lon": -104.9389452}, {"type": "node", "id": 8804670248, "lat": 39.707673, "lon": -104.9389483}, {"type": "node", "id": 8804670249, "lat": 39.7081235, "lon": -104.9388815}, {"type": "node", "id": 8804670250, "lat": 39.7085529, "lon": -104.9388846}, {"type": "node", "id": 8804670251, "lat": 39.708714, "lon": -104.9388542}, {"type": "node", "id": 8804670252, "lat": 39.7091294, "lon": -104.9385599}, {"type": "node", "id": 8804670253, "lat": 39.7102217, "lon": -104.9385599}, {"type": "node", "id": 8804670254, "lat": 39.7077895, "lon": -104.940226, "tags": {"facebook": "https://www.facebook.com/smokingunapothecary/", "name": "Smokin' Gun Apothecary", "phone": "+1-720-519-0891", "shop": "cannabis", "website": "https://www.smokingunapothecary.com/"}}, {"type": "node", "id": 8804670255, "lat": 39.7078604, "lon": -104.939475}, {"type": "node", "id": 8804670256, "lat": 39.7078586, "lon": -104.9393017}, {"type": "node", "id": 8804670257, "lat": 39.7078221, "lon": -104.939297}, {"type": "node", "id": 8804670258, "lat": 39.7078184, "lon": -104.9392234}, {"type": "node", "id": 8804670259, "lat": 39.7074971, "lon": -104.9392258}, {"type": "node", "id": 8804670260, "lat": 39.7074971, "lon": -104.9394797}, {"type": "node", "id": 8804670263, "lat": 39.7067745, "lon": -104.9403821, "tags": {"name": "Authentic Rugs", "shop": "flooring"}}, {"type": "node", "id": 8804670264, "lat": 39.7101113, "lon": -104.9410584, "tags": {"name": "Supplement Giant", "shop": "nutrition_supplements"}}, {"type": "node", "id": 8804670265, "lat": 39.7102497, "lon": -104.9410631, "tags": {"addr:housenumber": "347", "addr:street": "South Colorado Boulevard", "name": "Mac Outlet", "shop": "computer"}}, {"type": "node", "id": 8804670266, "lat": 39.7103236, "lon": -104.9410649, "tags": {"addr:housenumber": "345", "addr:street": "South Colorado Boulevard", "name": "Mark's Optical", "shop": "optician"}}, {"type": "node", "id": 8804670267, "lat": 39.7104019, "lon": -104.9410649, "tags": {"beauty": "nails", "name": "5280 Nails & Spa", "phone": "+1-303-780-5424", "shop": "beauty"}}, {"type": "node", "id": 8804670268, "lat": 39.710624, "lon": -104.9410769, "tags": {"addr:housenumber": "341", "addr:street": "South Colorado Boulevard", "brand": "Midas", "brand:wikidata": "Q3312613", "name": "Midas", "shop": "car_repair"}}, {"type": "node", "id": 8809474499, "lat": 39.7076633, "lon": -104.9398737}, {"type": "node", "id": 8809474506, "lat": 39.7076251, "lon": -104.9397247, "tags": {"addr:unit": "101", "amenity": "bar", "name": "T-Bar"}}, {"type": "node", "id": 9033525636, "lat": 39.6956305, "lon": -104.939716, "tags": {"addr:city": "Denver", "addr:housenumber": "1144", "addr:postcode": "80246", "addr:state": "CO", "addr:street": "South Colorado Boulevard", "amenity": "cafe", "brand": "Mango Mango Dessert", "brand:wikidata": "Q117811257", "check_date": "2025-01-11", "cuisine": "asian;dessert", "internet_access": "wlan", "name": "Mango Mango Dessert", "opening_hours": "Mo-Fr 12:00-21:00; Sa-Su 12:00-23:00", "payment:cash": "yes", "payment:credit_cards": "yes", "payment:debit_cards": "yes", "phone": "+1-720-390-7671", "takeaway": "yes", "website": "https://www.mangmangdessert.com/"}}, {"type": "node", "id": 9322040448, "lat": 39.6989122, "lon": -104.9385328}, {"type": "node", "id": 9322040449, "lat": 39.6989193, "lon": -104.9375533}, {"type": "node", "id": 9322040450, "lat": 39.6984693, "lon": -104.9375478}, {"type": "node", "id": 9322040451, "lat": 39.6984622, "lon": -104.9385273}, {"type": "node", "id": 9322040466, "lat": 39.6999356, "lon": -104.9378303}, {"type": "node", "id": 9322040467, "lat": 39.6992973, "lon": -104.9378325}, {"type": "node", "id": 9322040468, "lat": 39.6992969, "lon": -104.9376356}, {"type": "node", "id": 9322040469, "lat": 39.6995738, "lon": -104.9376346}, {"type": "node", "id": 9322040470, "lat": 39.6995737, "lon": -104.9375502}, {"type": "node", "id": 9322040471, "lat": 39.699759, "lon": -104.9375495}, {"type": "node", "id": 9322040472, "lat": 39.6997592, "lon": -104.9376539}, {"type": "node", "id": 9322040473, "lat": 39.6999353, "lon": -104.9376533}, {"type": "node", "id": 9351333727, "lat": 39.6972834, "lon": -104.9374187, "tags": {"addr:city": "Glendale", "addr:housenumber": "4201", "addr:postcode": "80246", "addr:state": "CO", "addr:street": "East Mississippi Avenue", "amenity": "bar", "name": "Dr. Proctor's Bar", "opening_hours": "Mo-Su 11:00-14:00"}}, {"type": "node", "id": 9351333728, "lat": 39.6967902, "lon": -104.936791, "tags": {"beauty": "nails", "name": "Devana Salon", "shop": "beauty"}}, {"type": "node", "id": 9351333729, "lat": 39.6968727, "lon": -104.9368125, "tags": {"addr:city": "Glendale", "addr:housenumber": "4395", "addr:postcode": "80246", "addr:state": "CO", "addr:street": "E Mississippi Ave", "name": "CosmoProf", "not:brand:wikidata": "Q109570386", "phone": "+1-303-756-6447", "shop": "beauty"}}, {"type": "node", "id": 9351333730, "lat": 39.6970647, "lon": -104.9368178, "tags": {"addr:city": "Glendale", "addr:housenumber": "4379", "addr:postcode": "80246", "addr:state": "CO", "addr:street": "E Mississippi Ave", "amenity": "restaurant", "cuisine": "american", "name": "Caitlin's", "opening_hours": "Mo-Su 07:00-13:30", "phone": "+1-303-798-6600", "website": "https://caitlinsrestaurant.hrpos.heartland.us/menu"}}, {"type": "node", "id": 9351333732, "lat": 39.6972731, "lon": -104.9367427, "tags": {"name": "Glendale Laundromat", "self_service": "yes", "shop": "laundry"}}, {"type": "node", "id": 9351339154, "lat": 39.6984371, "lon": -104.9409472}, {"type": "node", "id": 9351339161, "lat": 39.6988716, "lon": -104.9409604}, {"type": "node", "id": 9351339162, "lat": 39.6988763, "lon": -104.9412639}, {"type": "node", "id": 9351339163, "lat": 39.6984437, "lon": -104.9412701}, {"type": "node", "id": 9351339164, "lat": 39.6986001, "lon": -104.9409497}, {"type": "node", "id": 9351342531, "lat": 39.6967663, "lon": -104.9410926, "tags": {"addr:city": "Denver", "addr:housenumber": "1091", "addr:postcode": "80246", "addr:state": "CO", "addr:street": "South Colorado Boulevard", "name": "Horan & McConaty Funeral Service and Cremation", "shop": "funeral_directors"}}, {"type": "node", "id": 9351361420, "lat": 39.6968789, "lon": -104.9401813, "tags": {"addr:city": "Denver", "addr:housenumber": "4085", "addr:postcode": "80246", "addr:state": "CO", "addr:street": "East Mississippi Avenue", "addr:unit": "A & b", "amenity": "restaurant", "brand": "Pizza Hut", "brand:wikidata": "Q191615", "cuisine": "pizza", "name": "Pizza Hut", "phone": "+1 303-692-8008", "website": "https://locations.pizzahut.com/co/denver/4085-e-mississippi-ave-a&b"}}, {"type": "node", "id": 9351361421, "lat": 39.6968766, "lon": -104.940083, "tags": {"addr:city": "Denver", "addr:housenumber": "4085", "addr:postcode": "80246", "addr:state": "CO", "addr:street": "East Mississippi Avenue", "addr:unit": "Suite F", "name": "The Glam House", "phone": "+1-720-484-1372", "shop": "hairdresser"}}, {"type": "node", "id": 9351361422, "lat": 39.6969175, "lon": -104.9400061, "tags": {"beauty": "nails", "name": "C T Nails", "shop": "beauty"}}, {"type": "node", "id": 9351361423, "lat": 39.6968753, "lon": -104.9397795, "tags": {"addr:city": "Denver", "addr:housenumber": "4085", "addr:postcode": "80246", "addr:state": "CO", "addr:street": "East Mississippi Avenue", "atm": "yes", "brand": "7-Eleven", "brand:wikidata": "Q259340", "contact:website": "https://www.7-eleven.com/locations/co/denver/4085-e-mississippi-ave-21938", "fast_food": "yes", "fuel:propane": "yes", "name": "7-Eleven", "opening_hours": "24/7", "phone": "+1 303-759-8324", "ref": "21938", "shop": "convenience", "website": "https://www.7-eleven.com/locations/co/denver/4085-e.-mississippi-21938"}}, {"type": "node", "id": 9351363056, "lat": 39.6959296, "lon": -104.9359193}, {"type": "node", "id": 9351363057, "lat": 39.6959327, "lon": -104.9352407}, {"type": "node", "id": 9351363058, "lat": 39.6958739, "lon": -104.9352354}, {"type": "node", "id": 9351363059, "lat": 39.6958688, "lon": -104.935918, "tags": {"amenity": "parking_space", "capacity": "1"}}, {"type": "node", "id": 9351363060, "lat": 39.6964095, "lon": -104.9355398}, {"type": "node", "id": 9351363061, "lat": 39.6964136, "lon": -104.9351093}, {"type": "node", "id": 9351363062, "lat": 39.6959348, "lon": -104.9351039}, {"type": "node", "id": 9351363063, "lat": 39.6959348, "lon": -104.9351764}, {"type": "node", "id": 9351363064, "lat": 39.695878, "lon": -104.935175}, {"type": "node", "id": 9351363065, "lat": 39.695882, "lon": -104.9352361}, {"type": "node", "id": 9351363066, "lat": 39.6958739, "lon": -104.9359341}, {"type": "node", "id": 9351363067, "lat": 39.6959038, "lon": -104.9359327}, {"type": "node", "id": 9351363068, "lat": 39.6959007, "lon": -104.9359757}, {"type": "node", "id": 9351363069, "lat": 39.6959131, "lon": -104.9359743}, {"type": "node", "id": 9351363070, "lat": 39.6959111, "lon": -104.9360494}, {"type": "node", "id": 9351363071, "lat": 39.6958708, "lon": -104.9360494}, {"type": "node", "id": 9351363072, "lat": 39.6958719, "lon": -104.9361272}, {"type": "node", "id": 9351363073, "lat": 39.6959947, "lon": -104.9361259}, {"type": "node", "id": 9351363074, "lat": 39.6959998, "lon": -104.9361017}, {"type": "node", "id": 9351363075, "lat": 39.6960648, "lon": -104.9361044}, {"type": "node", "id": 9351363076, "lat": 39.6960648, "lon": -104.935977}, {"type": "node", "id": 9351363077, "lat": 39.6959947, "lon": -104.9359797}, {"type": "node", "id": 9351363078, "lat": 39.6959967, "lon": -104.9359287}, {"type": "node", "id": 9351363079, "lat": 39.6960524, "lon": -104.9359287}, {"type": "node", "id": 9351363080, "lat": 39.6960555, "lon": -104.935525}, {"type": "node", "id": 9351374269, "lat": 39.6980797, "lon": -104.9403208, "tags": {"addr:city": "Glendale", "addr:housenumber": "1000", "addr:postcode": "80246", "addr:state": "CO", "addr:street": "South Colorado Boulevard", "branch": "Colorado", "brand": "Mattress Firm", "brand:wikidata": "Q6791878", "contact:sms": "+1 719-223-4324", "delivery": "yes", "name": "Mattress Firm", "phone": "+1 303-759-3122", "ref": "18107", "shop": "bed", "website": "https://www.mattressfirm.com/en-us/stores/co/glendale/003025/"}}, {"type": "node", "id": 9351374270, "lat": 39.6980961, "lon": -104.9401916, "tags": {"addr:city": "Glendale", "addr:housenumber": "1000", "addr:postcode": "80246", "addr:state": "CO", "addr:street": "South Colorado Boulevard", "addr:unit": "Bldg A Ste 107", "amenity": "ice_cream", "brand": "Pinkberry", "brand:wikidata": "Q2904053", "cuisine": "frozen_yogurt", "name": "Pinkberry", "takeaway": "yes"}}, {"type": "node", "id": 9351374271, "lat": 39.6980647, "lon": -104.9400925, "tags": {"addr:city": "Glendale", "addr:housenumber": "1000", "addr:postcode": "80246", "addr:state": "CO", "addr:street": "S Colorado Blvd", "addr:unit": "103", "amenity": "restaurant", "cuisine": "mediterranean;kebab", "name": "Crave Mediterranean Grill", "phone": "+1-720-379-8465", "website": "https://cravemediterraneangrill.com/"}}, {"type": "node", "id": 9351374272, "lat": 39.6981138, "lon": -104.9399385, "tags": {"brand": "Sport Clips", "brand:wikidata": "Q7579310", "male": "yes", "name": "Sport Clips", "shop": "hairdresser"}}, {"type": "node", "id": 9351374273, "lat": 39.6999028, "lon": -104.941064, "tags": {"amenity": "bank", "brand": "Bank of America", "brand:wikidata": "Q487907", "name": "Bank of America", "website": "https://locators.bankofamerica.com/co/denver/sales-office-atm-denver-110545.html"}}, {"type": "node", "id": 9351374274, "lat": 39.7000458, "lon": -104.9410481, "tags": {"amenity": "language_school", "name": "Language Center in Denver, CO"}}, {"type": "node", "id": 9351374275, "lat": 39.700378, "lon": -104.9410799, "tags": {"brand": "Sleep Number", "brand:wikidata": "Q7447640", "name": "Sleep Number", "shop": "bed"}}, {"type": "node", "id": 9351374276, "lat": 39.7008273, "lon": -104.93972, "tags": {"amenity": "parcel_locker", "brand": "Amazon Hub", "brand:wikidata": "Q100274430", "name": "Amazon Hub Locker", "parcel_mail_in": "yes", "parcel_pickup": "yes"}}, {"type": "node", "id": 9351374277, "lat": 39.6997272, "lon": -104.9411542}, {"type": "node", "id": 9351374278, "lat": 39.6997286, "lon": -104.9410127}, {"type": "node", "id": 9351374279, "lat": 39.6995148, "lon": -104.9410162}, {"type": "node", "id": 9351374280, "lat": 39.6995148, "lon": -104.9411542}, {"type": "node", "id": 9351374281, "lat": 39.695554, "lon": -104.9401173, "tags": {"addr:city": "Glendale", "addr:housenumber": "1156", "addr:postcode": "80246", "addr:state": "CO", "addr:street": "South Colorado Boulevard", "amenity": "fast_food", "branch": "Colorado & Mississippi", "brand": "Qdoba", "brand:wikidata": "Q1363885", "cuisine": "mexican", "name": "Qdoba", "official_name": "Qdoba Mexican Eats", "opening_hours": "Mo-Su 10:30-23:00", "phone": "+1 303-756-3400", "takeaway": "yes", "website": "https://locations.qdoba.com/us/co/glendale/1156-s-colorado-blvd.html"}}, {"type": "node", "id": 9351374282, "lat": 39.6955594, "lon": -104.939981, "tags": {"brand": "Supercuts", "brand:wikidata": "Q7643239", "female": "yes", "male": "yes", "name": "Supercuts", "shop": "hairdresser"}}, {"type": "node", "id": 9351374283, "lat": 39.6955444, "lon": -104.9398731, "tags": {"name": "SugarPlum Skincare & Lashes", "shop": "beauty"}}, {"type": "node", "id": 9351409057, "lat": 39.6999907, "lon": -104.937165, "tags": {"name": "Pop Cult Hair Design", "shop": "hairdresser"}}, {"type": "node", "id": 9351409058, "lat": 39.6999556, "lon": -104.937157, "tags": {"addr:city": "Denver", "addr:housenumber": "4340", "addr:postcode": "80246", "addr:state": "CO", "addr:street": "East Kentucky Avenue", "addr:unit": "#149", "name": "Tiny Tempest Tattoo", "phone": "+1-720-439-7143", "shop": "tattoo"}}, {"type": "node", "id": 9351409059, "lat": 39.6999195, "lon": -104.9371543, "tags": {"amenity": "cafe", "name": "Cafe Typica"}}, {"type": "node", "id": 9351409060, "lat": 39.6998689, "lon": -104.9372267, "tags": {"name": "Denver Electronic Cigarettes: Vape Shop", "shop": "e-cigarette"}}, {"type": "node", "id": 9351409061, "lat": 39.7000216, "lon": -104.9372911, "tags": {"addr:city": "Glendale", "addr:housenumber": "4340", "addr:postcode": "80246", "addr:state": "CO", "addr:street": "East Kentucky Avenue", "name": "identifyu", "shop": "hairdresser"}}, {"type": "node", "id": 9351409062, "lat": 39.6999257, "lon": -104.9373595, "tags": {"name": "Color Me Impressed", "shop": "clothes"}}, {"type": "node", "id": 9351409063, "lat": 39.6998875, "lon": -104.9373595, "tags": {"name": "Revol Hair and Makeup Artistry", "shop": "hairdresser"}}, {"type": "node", "id": 9351409065, "lat": 39.6996966, "lon": -104.9374265, "tags": {"name": "Sabrinas Hair Design", "shop": "hairdresser"}}, {"type": "node", "id": 9351409066, "lat": 39.699743, "lon": -104.9372267, "tags": {"name": "JBC Agency", "office": "advertising_agency", "phone": "+1-720-365-7999", "website": "https://jbcagency.com/"}}, {"type": "node", "id": 9351409068, "lat": 39.7027673, "lon": -104.941313, "tags": {"beauty": "nails", "name": "Belcaro Nails", "shop": "beauty"}}, {"type": "node", "id": 9351409069, "lat": 39.7026625, "lon": -104.9412607}, {"type": "node", "id": 9351409070, "lat": 39.7027594, "lon": -104.9412603}, {"type": "node", "id": 9351409072, "lat": 39.7027607, "lon": -104.9418794}, {"type": "node", "id": 9351409073, "lat": 39.7032843, "lon": -104.9412586}, {"type": "node", "id": 9351409074, "lat": 39.7033524, "lon": -104.9412889, "tags": {"name": "Sub Zero Appliance Repair", "shop": "appliance"}}, {"type": "node", "id": 9351409075, "lat": 39.7031006, "lon": -104.9413224, "tags": {"amenity": "bank", "brand": "Chase", "brand:wikidata": "Q524629", "name": "Chase"}}, {"type": "node", "id": 9351409076, "lat": 39.7024283, "lon": -104.9413163, "tags": {"amenity": "pharmacy", "brand": "Kroger Pharmacy", "brand:wikidata": "Q153417", "dispensing": "yes", "healthcare": "pharmacy", "name": "Kroger Pharmacy"}}, {"type": "node", "id": 9351409077, "lat": 39.7021332, "lon": -104.941324, "tags": {"amenity": "atm", "brand": "Western Union", "brand:wikidata": "Q861042", "operator": "Western Union", "operator:wikidata": "Q861042"}}, {"type": "node", "id": 9363205508, "lat": 39.6954701, "lon": -104.9348638}, {"type": "node", "id": 9363205509, "lat": 39.6950576, "lon": -104.9348638}, {"type": "node", "id": 9363205510, "lat": 39.695062, "lon": -104.9344426}, {"type": "node", "id": 9363205511, "lat": 39.6952357, "lon": -104.934447}, {"type": "node", "id": 9363205512, "lat": 39.6952368, "lon": -104.934148}, {"type": "node", "id": 9363205513, "lat": 39.694874, "lon": -104.9341509}, {"type": "node", "id": 9363205514, "lat": 39.6948629, "lon": -104.9350679}, {"type": "node", "id": 9363205515, "lat": 39.6954193, "lon": -104.9350708}, {"type": "node", "id": 9363205516, "lat": 39.6954204, "lon": -104.935019}, {"type": "node", "id": 9363220917, "lat": 39.6954701, "lon": -104.9349371}, {"type": "node", "id": 9363220924, "lat": 39.6947023, "lon": -104.9368212}, {"type": "node", "id": 9363220925, "lat": 39.6930484, "lon": -104.9367347}, {"type": "node", "id": 9363220951, "lat": 39.6946961, "lon": -104.9361405}, {"type": "node", "id": 9363220952, "lat": 39.6947029, "lon": -104.9351685}, {"type": "node", "id": 9363220953, "lat": 39.6930287, "lon": -104.9351486}, {"type": "node", "id": 9363220954, "lat": 39.6930218, "lon": -104.9361206}, {"type": "node", "id": 9364550442, "lat": 39.6951154, "lon": -104.9401076}, {"type": "node", "id": 9364550443, "lat": 39.6951175, "lon": -104.939665}, {"type": "node", "id": 9364550444, "lat": 39.6949648, "lon": -104.9396543}, {"type": "node", "id": 9364550445, "lat": 39.6949627, "lon": -104.9395389}, {"type": "node", "id": 9364550446, "lat": 39.6947604, "lon": -104.9395416}, {"type": "node", "id": 9364550447, "lat": 39.6947625, "lon": -104.9404455}, {"type": "node", "id": 9364550448, "lat": 39.6948884, "lon": -104.9404455}, {"type": "node", "id": 9364550453, "lat": 39.6974178, "lon": -104.9378701}, {"type": "node", "id": 9364550454, "lat": 39.6966531, "lon": -104.9378584}, {"type": "node", "id": 9364550455, "lat": 39.6966538, "lon": -104.937723}, {"type": "node", "id": 9364550456, "lat": 39.6966553, "lon": -104.9374474}, {"type": "node", "id": 9364550457, "lat": 39.6966581, "lon": -104.9368964}, {"type": "node", "id": 9364550458, "lat": 39.6972256, "lon": -104.9368964}, {"type": "node", "id": 9364550459, "lat": 39.6972166, "lon": -104.937723}, {"type": "node", "id": 9364550460, "lat": 39.6962842, "lon": -104.9392898}, {"type": "node", "id": 9364550461, "lat": 39.6962734, "lon": -104.9392104}, {"type": "node", "id": 9364550462, "lat": 39.6961207, "lon": -104.9392151}, {"type": "node", "id": 9364550463, "lat": 39.6961404, "lon": -104.9392828}, {"type": "node", "id": 9364550464, "lat": 39.6954585, "lon": -104.9402452}, {"type": "node", "id": 9364550465, "lat": 39.6954599, "lon": -104.9404027}, {"type": "node", "id": 9364550466, "lat": 39.696074, "lon": -104.9404208}, {"type": "node", "id": 9364550467, "lat": 39.6960808, "lon": -104.940385}, {"type": "node", "id": 9364550468, "lat": 39.6961394, "lon": -104.9403903}, {"type": "node", "id": 9364550469, "lat": 39.6961448, "lon": -104.9400222}, {"type": "node", "id": 9364550470, "lat": 39.6962878, "lon": -104.9400491}, {"type": "node", "id": 9364550471, "lat": 39.6962823, "lon": -104.9403761}, {"type": "node", "id": 9364550472, "lat": 39.6963953, "lon": -104.9403743}, {"type": "node", "id": 9364550473, "lat": 39.6964008, "lon": -104.9401602}, {"type": "node", "id": 9364550474, "lat": 39.6964389, "lon": -104.9401691}, {"type": "node", "id": 9364550475, "lat": 39.6964443, "lon": -104.9399656}, {"type": "node", "id": 9364550476, "lat": 39.6963967, "lon": -104.9399673}, {"type": "node", "id": 9364550477, "lat": 39.6963994, "lon": -104.9399019}, {"type": "node", "id": 9364550478, "lat": 39.6964253, "lon": -104.9399054}, {"type": "node", "id": 9364550479, "lat": 39.6964226, "lon": -104.9397058}, {"type": "node", "id": 9364550480, "lat": 39.6956599, "lon": -104.9409014}, {"type": "node", "id": 9364550481, "lat": 39.6954666, "lon": -104.9408448}, {"type": "node", "id": 9364550482, "lat": 39.6956082, "lon": -104.9408465}, {"type": "node", "id": 9364564573, "lat": 39.7066323, "lon": -104.9359881}, {"type": "node", "id": 9364564574, "lat": 39.7066638, "lon": -104.9359006}, {"type": "node", "id": 9364564575, "lat": 39.7065964, "lon": -104.9358597}, {"type": "node", "id": 9364564576, "lat": 39.7065659, "lon": -104.9359473}, {"type": "node", "id": 9364564585, "lat": 39.7066889, "lon": -104.9347599}, {"type": "node", "id": 9364564586, "lat": 39.7066934, "lon": -104.9336345}, {"type": "node", "id": 9364564587, "lat": 39.7062964, "lon": -104.9336321}, {"type": "node", "id": 9364564588, "lat": 39.7062964, "lon": -104.9347494}, {"type": "node", "id": 9364564589, "lat": 39.7067177, "lon": -104.9349117}, {"type": "node", "id": 9364564590, "lat": 39.7067222, "lon": -104.934987}, {"type": "node", "id": 9364564591, "lat": 39.7066566, "lon": -104.934987}, {"type": "node", "id": 9364564592, "lat": 39.7066575, "lon": -104.9349187}, {"type": "node", "id": 9364564593, "lat": 39.7062777, "lon": -104.934921}, {"type": "node", "id": 9364564594, "lat": 39.7061806, "lon": -104.9349923}, {"type": "node", "id": 9364564595, "lat": 39.7061788, "lon": -104.9349269}, {"type": "node", "id": 9364564596, "lat": 39.7060782, "lon": -104.9349421}, {"type": "node", "id": 9364564597, "lat": 39.7059695, "lon": -104.9349678}, {"type": "node", "id": 9364564598, "lat": 39.7059246, "lon": -104.9349864}, {"type": "node", "id": 9364564599, "lat": 39.7059461, "lon": -104.9350495}, {"type": "node", "id": 9364564600, "lat": 39.7060198, "lon": -104.9350203}, {"type": "node", "id": 9364564601, "lat": 39.7060961, "lon": -104.9349993}, {"type": "node", "id": 9364564602, "lat": 39.7072566, "lon": -104.9350238}, {"type": "node", "id": 9364564603, "lat": 39.707306, "lon": -104.9350238}, {"type": "node", "id": 9364564604, "lat": 39.7073006, "lon": -104.9353565}, {"type": "node", "id": 9364564605, "lat": 39.7072521, "lon": -104.9353554}, {"type": "node", "id": 9364564606, "lat": 39.7072665, "lon": -104.9362683}, {"type": "node", "id": 9364564607, "lat": 39.7072656, "lon": -104.9359508}, {"type": "node", "id": 9364564608, "lat": 39.7072099, "lon": -104.9359531}, {"type": "node", "id": 9364564609, "lat": 39.7072135, "lon": -104.9362672}, {"type": "node", "id": 9364666637, "lat": 39.6931021, "lon": -104.9367352}, {"type": "node", "id": 9364666638, "lat": 39.6931017, "lon": -104.9368059}, {"type": "node", "id": 9364666639, "lat": 39.6947052, "lon": -104.9363114}, {"type": "node", "id": 9364666640, "lat": 39.693047, "lon": -104.9362908}, {"type": "node", "id": 9364666641, "lat": 39.6947496, "lon": -104.939523}, {"type": "node", "id": 9364666642, "lat": 39.6947598, "lon": -104.9375149}, {"type": "node", "id": 9364666643, "lat": 39.6934516, "lon": -104.9374956}, {"type": "node", "id": 9364666644, "lat": 39.6934483, "lon": -104.9395119}, {"type": "node", "id": 9364959813, "lat": 39.6958486, "lon": -104.9361298}, {"type": "node", "id": 9364959814, "lat": 39.6956914, "lon": -104.9361273}, {"type": "node", "id": 9364959815, "lat": 39.6956948, "lon": -104.9353057}, {"type": "node", "id": 9364959816, "lat": 39.694887, "lon": -104.9352997}, {"type": "node", "id": 9364985017, "lat": 39.6948855, "lon": -104.935104}, {"type": "node", "id": 9364985018, "lat": 39.6957891, "lon": -104.9350961}, {"type": "node", "id": 9364985019, "lat": 39.6957922, "lon": -104.9352285}, {"type": "node", "id": 9364985020, "lat": 39.69585, "lon": -104.9352384}, {"type": "node", "id": 9364985021, "lat": 39.6965049, "lon": -104.9363294}, {"type": "node", "id": 9364985022, "lat": 39.6948596, "lon": -104.9363236}, {"type": "node", "id": 9364985023, "lat": 39.6948501, "lon": -104.9367887}, {"type": "node", "id": 9364985024, "lat": 39.6950176, "lon": -104.9367888}, {"type": "node", "id": 9364985025, "lat": 39.6950243, "lon": -104.9363665}, {"type": "node", "id": 9364985026, "lat": 39.695215, "lon": -104.9363647}, {"type": "node", "id": 9364985027, "lat": 39.695216, "lon": -104.936663}, {"type": "node", "id": 9364985028, "lat": 39.6953621, "lon": -104.9366642}, {"type": "node", "id": 9364985029, "lat": 39.6953614, "lon": -104.9363682}, {"type": "node", "id": 9364985030, "lat": 39.6955628, "lon": -104.93637}, {"type": "node", "id": 9364985031, "lat": 39.6955615, "lon": -104.9366893}, {"type": "node", "id": 9364985032, "lat": 39.6957454, "lon": -104.9366928}, {"type": "node", "id": 9364985033, "lat": 39.6957441, "lon": -104.9367431}, {"type": "node", "id": 9364985034, "lat": 39.6958663, "lon": -104.9367434}, {"type": "node", "id": 9364985035, "lat": 39.6958657, "lon": -104.9363788}, {"type": "node", "id": 9364985036, "lat": 39.6960624, "lon": -104.9363769}, {"type": "node", "id": 9364985037, "lat": 39.6960598, "lon": -104.9368081}, {"type": "node", "id": 9364985038, "lat": 39.6965042, "lon": -104.936808}, {"type": "node", "id": 9364985039, "lat": 39.6957036, "lon": -104.9366903}, {"type": "node", "id": 9364985040, "lat": 39.6957077, "lon": -104.9363209}, {"type": "node", "id": 9364985041, "lat": 39.695711, "lon": -104.9366927}, {"type": "node", "id": 9364985042, "lat": 39.6957119, "lon": -104.9363188}, {"type": "node", "id": 9364985043, "lat": 39.6964461, "lon": -104.9366936}, {"type": "node", "id": 9364985044, "lat": 39.6964468, "lon": -104.9364461}, {"type": "node", "id": 9364985045, "lat": 39.6961495, "lon": -104.9364447}, {"type": "node", "id": 9364985046, "lat": 39.6961488, "lon": -104.9366923}, {"type": "node", "id": 9364985047, "lat": 39.6943662, "lon": -104.9352126}, {"type": "node", "id": 9364985048, "lat": 39.6946927, "lon": -104.9352131}, {"type": "node", "id": 9364985049, "lat": 39.6946919, "lon": -104.9361096}, {"type": "node", "id": 9364985050, "lat": 39.6943653, "lon": -104.9361091}, {"type": "node", "id": 9655419252, "lat": 39.7068448, "lon": -104.934476, "tags": {"addr:door": "1100", "addr:housenumber": "501", "addr:postcode": "80246", "addr:street": "South Cherry Street", "name": "JD Rowe Financial", "name:en": "Derek Rowe", "office": "financial_advisor", "opening_hours": "Mo-Fr 09:00-18:00", "phone": "+1-303-907-2389", "source": "https://jd-rowe-financial.business.site/", "website": "https://jdrowefinancial.com/"}}, {"type": "node", "id": 9690924119, "lat": 39.7107736, "lon": -104.9311341, "tags": {"barrier": "kerb", "kerb": "flush", "tactile_paving": "yes", "wheelchair": "yes"}}, {"type": "node", "id": 9776603324, "lat": 39.7102182, "lon": -104.941123, "tags": {"addr:city": "Denver", "addr:country": "US", "addr:housenumber": "349", "addr:postcode": "80246", "addr:state": "CO", "addr:street": "South Colorado Boulevard", "name": "Master Tailors", "opening_hours": "Mo-Fr 09:00-18:00, Sa 09:00-15:00", "payment:american_express": "yes", "payment:cash": "yes", "payment:cheque": "yes", "payment:discover_card": "yes", "payment:mastercard": "yes", "payment:visa": "yes", "phone": "+1-303-322-6362", "shop": "tailor", "website": "https://mastertailorsco.com"}}, {"type": "node", "id": 9818025191, "lat": 39.7077337, "lon": -104.9403326}, {"type": "node", "id": 9818025192, "lat": 39.7077347, "lon": -104.9402044}, {"type": "node", "id": 9818025193, "lat": 39.707682, "lon": -104.9401727}, {"type": "node", "id": 9818025194, "lat": 39.707684, "lon": -104.9400331}, {"type": "node", "id": 9818025195, "lat": 39.707886, "lon": -104.9400357}, {"type": "node", "id": 9818025196, "lat": 39.707886, "lon": -104.9400623}, {"type": "node", "id": 9818025197, "lat": 39.7078352, "lon": -104.940061}, {"type": "node", "id": 9818025198, "lat": 39.7078343, "lon": -104.9403034}, {"type": "node", "id": 9818025199, "lat": 39.707885, "lon": -104.9403084}, {"type": "node", "id": 9818025200, "lat": 39.7078655, "lon": -104.9403414}, {"type": "node", "id": 9818025201, "lat": 39.7077454, "lon": -104.9403427}, {"type": "node", "id": 9952919455, "lat": 39.6997996, "lon": -104.9371709, "tags": {"addr:city": "Denver", "addr:housenumber": "4340", "addr:postcode": "80246", "addr:state": "CO", "addr:street": "East Kentucky Avenue", "addr:unit": "121", "email": "david@ideachic.net", "name": "Idea Ch\u00edc", "opening_hours": "Tu-Fr 11:00-17:00; Sa 11:00-16:00", "phone": "+1-303-884-7787", "shop": "stationery", "website": "https://www.ideachic.net"}}, {"type": "node", "id": 9993458635, "lat": 39.6944791, "lon": -104.939519}, {"type": "node", "id": 9993458638, "lat": 39.694639, "lon": -104.939522}, {"type": "node", "id": 10089735856, "lat": 39.7069608, "lon": -104.934488, "tags": {"addr:city": "Denver", "addr:housenumber": "501", "addr:postcode": "80246", "addr:state": "CO", "addr:street": "South Cherry Street", "addr:unit": "900", "beauty": "aesthetic", "name": "Rejuvenate MedSpa", "opening_hours": "Mo-Fr 09:00-18:00", "operator": "Dr. Andrew Wolfe", "payment:cash": "yes", "payment:credit_cards": "yes", "phone": "+1-303-951-2102", "shop": "beauty", "website": "https://www.rejuvenatecolorado.com/"}}, {"type": "node", "id": 10208453516, "lat": 39.7034196, "lon": -104.9294952}, {"type": "node", "id": 10208477917, "lat": 39.7033561, "lon": -104.9295296}, {"type": "node", "id": 10208477918, "lat": 39.7033325, "lon": -104.929456}, {"type": "node", "id": 10208477919, "lat": 39.703396, "lon": -104.9294216}, {"type": "node", "id": 10253015690, "lat": 39.7094092, "lon": -104.9312462}, {"type": "node", "id": 10253015691, "lat": 39.7094316, "lon": -104.9312753}, {"type": "node", "id": 10253015692, "lat": 39.7094505, "lon": -104.9312873}, {"type": "node", "id": 10253015693, "lat": 39.7095314, "lon": -104.9312814}, {"type": "node", "id": 10253015694, "lat": 39.7095317, "lon": -104.9312671}, {"type": "node", "id": 10253015695, "lat": 39.7094871, "lon": -104.9305853}, {"type": "node", "id": 10253015696, "lat": 39.7095265, "lon": -104.9305853}, {"type": "node", "id": 10253015697, "lat": 39.7095342, "lon": -104.9305753}, {"type": "node", "id": 10253015698, "lat": 39.7095335, "lon": -104.93056}, {"type": "node", "id": 10253015699, "lat": 39.7095167, "lon": -104.9305184}, {"type": "node", "id": 10253015700, "lat": 39.7095014, "lon": -104.930481}, {"type": "node", "id": 10253015701, "lat": 39.7094942, "lon": -104.9304395}, {"type": "node", "id": 10253015702, "lat": 39.7097715, "lon": -104.9310688}, {"type": "node", "id": 10253015703, "lat": 39.7097735, "lon": -104.9311335}, {"type": "node", "id": 10253015704, "lat": 39.7097834, "lon": -104.9311368}, {"type": "node", "id": 10253015705, "lat": 39.7097966, "lon": -104.9311364}, {"type": "node", "id": 10253015706, "lat": 39.709806, "lon": -104.9311318}, {"type": "node", "id": 10253015707, "lat": 39.7098169, "lon": -104.931112}, {"type": "node", "id": 10253015708, "lat": 39.7107212, "lon": -104.9311075}, {"type": "node", "id": 10253015709, "lat": 39.7107312, "lon": -104.9311194}, {"type": "node", "id": 10253015710, "lat": 39.710743, "lon": -104.9311272}, {"type": "node", "id": 10253015711, "lat": 39.710754, "lon": -104.9311326}, {"type": "node", "id": 10253015712, "lat": 39.7108192, "lon": -104.9311335}, {"type": "node", "id": 10253015716, "lat": 39.7108484, "lon": -104.9311362}, {"type": "node", "id": 10253015717, "lat": 39.710871, "lon": -104.9311518}, {"type": "node", "id": 10253015718, "lat": 39.7108943, "lon": -104.9311773}, {"type": "node", "id": 10253015719, "lat": 39.7109079, "lon": -104.9312688}, {"type": "node", "id": 10253015720, "lat": 39.7108428, "lon": -104.9313707}, {"type": "node", "id": 10253015723, "lat": 39.7108874, "lon": -104.9313321, "tags": {"barrier": "kerb", "kerb": "flush", "wheelchair": "yes"}}, {"type": "node", "id": 10253015761, "lat": 39.7096774, "lon": -104.931381}, {"type": "node", "id": 10253015762, "lat": 39.7096392, "lon": -104.9313802}, {"type": "node", "id": 10253015763, "lat": 39.7096334, "lon": -104.9313882}, {"type": "node", "id": 10253015765, "lat": 39.7094878, "lon": -104.9313778}, {"type": "node", "id": 10253015766, "lat": 39.7094657, "lon": -104.931383}, {"type": "node", "id": 10253015769, "lat": 39.7094755, "lon": -104.9313785}, {"type": "node", "id": 10253015770, "lat": 39.7094777, "lon": -104.9312884}, {"type": "node", "id": 10253015773, "lat": 39.709447, "lon": -104.9311255}, {"type": "node", "id": 10253015776, "lat": 39.7094871, "lon": -104.9306333}, {"type": "node", "id": 10253015791, "lat": 39.7094462, "lon": -104.930481}, {"type": "node", "id": 10253015848, "lat": 39.7092871, "lon": -104.9313554}, {"type": "node", "id": 10253109873, "lat": 39.7087576, "lon": -104.9284919, "tags": {"name": "Peepers Optical", "phone": "+1-303-333-2800", "shop": "optician"}}, {"type": "node", "id": 10264508840, "lat": 39.7078234, "lon": -104.941095, "tags": {"amenity": "parking_entrance"}}, {"type": "node", "id": 10266522735, "lat": 39.7045477, "lon": -104.9317485}, {"type": "node", "id": 10266522736, "lat": 39.7059331, "lon": -104.9317489}, {"type": "node", "id": 10266522737, "lat": 39.7059331, "lon": -104.9319728}, {"type": "node", "id": 10266522738, "lat": 39.7056722, "lon": -104.9319727}, {"type": "node", "id": 10266522739, "lat": 39.7063465, "lon": -104.9327339}, {"type": "node", "id": 10266522746, "lat": 39.7062304, "lon": -104.9329068}, {"type": "node", "id": 10266522747, "lat": 39.7058565, "lon": -104.9324827}, {"type": "node", "id": 10266522748, "lat": 39.7057432, "lon": -104.9326515}, {"type": "node", "id": 10266522749, "lat": 39.7053692, "lon": -104.9322274}, {"type": "node", "id": 10266522750, "lat": 39.7053905, "lon": -104.9321956}, {"type": "node", "id": 10266522751, "lat": 39.7052861, "lon": -104.9321957}, {"type": "node", "id": 10266522752, "lat": 39.7052862, "lon": -104.9322249}, {"type": "node", "id": 10266522753, "lat": 39.7052472, "lon": -104.9322249}, {"type": "node", "id": 10266522754, "lat": 39.7052473, "lon": -104.9324181}, {"type": "node", "id": 10266522755, "lat": 39.7047472, "lon": -104.9324185}, {"type": "node", "id": 10266522758, "lat": 39.7045476, "lon": -104.9319744}, {"type": "node", "id": 10756037339, "lat": 39.7004575, "lon": -104.9361546, "tags": {"addr:city": "Denver", "addr:housenumber": "4411", "addr:postcode": "80246", "addr:state": "CO", "addr:street": "East Kentucky Avenue", "amenity": "clinic", "description": "At Zinnia Healing Denver ,formerly known as Golden Peak Recovery drug rehab and alcohol treatment centers near Denver, Colorado, we\u2019re enthusiastic about recovery.", "healthcare": "clinic", "healthcare:speciality": "addiction_treatment_center", "name": "Zinnia Healing Denver", "opening_hours": "24/7", "phone": "+1-833-627-0898", "website": "https://zinniahealth.com/locations/zinnia-denver"}}, {"type": "node", "id": 10760263538, "lat": 39.7042126, "lon": -104.9358746, "tags": {"addr:city": "Denver", "addr:housenumber": "4500", "addr:postcode": "80246", "addr:state": "CO", "addr:street": "Cherry Creek South Drive", "addr:unit": "220", "aerospace:product": "spaceplane", "company": "aerospace", "email": "info@reactionengines.com", "name": "Reaction Engines", "office": "company", "phone": "+1-303-644-3121", "website": "https://reactionengines.co.uk", "wikidata": "Q1688976", "wikipedia": "en:Reaction Engines"}}, {"type": "node", "id": 11356039779, "lat": 39.710619, "lon": -104.9404945}, {"type": "node", "id": 11356039780, "lat": 39.7108773, "lon": -104.9403959}, {"type": "node", "id": 11356039781, "lat": 39.7111608, "lon": -104.940434}, {"type": "node", "id": 11356039782, "lat": 39.7111611, "lon": -104.9401495}, {"type": "node", "id": 11356039783, "lat": 39.7111168, "lon": -104.9401495}, {"type": "node", "id": 11356039784, "lat": 39.7111166, "lon": -104.9404339}, {"type": "node", "id": 11356039785, "lat": 39.7111609, "lon": -104.9403161}, {"type": "node", "id": 11356039786, "lat": 39.7111167, "lon": -104.940316}, {"type": "node", "id": 11356039787, "lat": 39.7111168, "lon": -104.9402182}, {"type": "node", "id": 11356039788, "lat": 39.711161, "lon": -104.9402184}, {"type": "node", "id": 11356039789, "lat": 39.7109289, "lon": -104.9403711}, {"type": "node", "id": 11356039790, "lat": 39.7109286, "lon": -104.9401632}, {"type": "node", "id": 11356039791, "lat": 39.7110336, "lon": -104.940163}, {"type": "node", "id": 11374525974, "lat": 39.7093708, "lon": -104.9331357, "tags": {"amenity": "charging_station", "brand": "Electrify America", "capacity": "4", "frequency": "0", "operator": "Electrify America", "operator:wikidata": "Q59773555", "socket:type1_combo": "4", "socket:type1_combo:output": "135"}}, {"type": "node", "id": 11665220416, "lat": 39.7005705, "lon": -104.9368669}, {"type": "node", "id": 11665220417, "lat": 39.7006226, "lon": -104.9368276}, {"type": "node", "id": 11665220418, "lat": 39.700618, "lon": -104.936656}, {"type": "node", "id": 11665220419, "lat": 39.7006205, "lon": -104.9369822}, {"type": "node", "id": 11665220420, "lat": 39.7003965, "lon": -104.9376645}, {"type": "node", "id": 11665220421, "lat": 39.7003973, "lon": -104.9370358}, {"type": "node", "id": 11665220422, "lat": 39.7004421, "lon": -104.9369818}, {"type": "node", "id": 11665220423, "lat": 39.7005779, "lon": -104.9369821}, {"type": "node", "id": 11665220424, "lat": 39.7004519, "lon": -104.9376654}, {"type": "node", "id": 11665220427, "lat": 39.7005868, "lon": -104.9369822}, {"type": "node", "id": 11665220428, "lat": 39.7006149, "lon": -104.9368095, "tags": {"amenity": "loading_dock"}}, {"type": "node", "id": 11665220429, "lat": 39.7005976, "lon": -104.9367686, "tags": {"amenity": "loading_dock"}}, {"type": "node", "id": 11868493259, "lat": 39.7042512, "lon": -104.9356632, "tags": {"addr:city": "Denver", "addr:housenumber": "4500", "addr:postcode": "80246", "addr:state": "CO", "addr:street": "Cherry Creek South Drive", "addr:unit": "Suite 400", "contact:facebook": "https://www.facebook.com/people/Levine-Law-LLC", "description": "As a full-service Denver personal injury law firm, our first and most important goal is to work for you and to put your mind at ease.", "email": "jordan@levlawllc.com", "name": "Levine Law LLC", "office": "lawyer", "opening_hours": "24/7", "phone": "+1 303-333-8000", "start_date": "2003-07-10", "website": "https://www.mydenveraccidentlawfirm.com"}}, {"type": "node", "id": 11968557130, "lat": 39.6966535, "lon": -104.9377751}, {"type": "node", "id": 12054194099, "lat": 39.7101348, "lon": -104.9295414}, {"type": "node", "id": 12054194100, "lat": 39.7100406, "lon": -104.929544}, {"type": "node", "id": 12054194101, "lat": 39.7096068, "lon": -104.9295159}, {"type": "node", "id": 12054194102, "lat": 39.7095812, "lon": -104.9282503}, {"type": "node", "id": 12054194103, "lat": 39.7100641, "lon": -104.9282541}, {"type": "node", "id": 12054194104, "lat": 39.7100749, "lon": -104.9290885}, {"type": "node", "id": 12054194105, "lat": 39.7101309, "lon": -104.9290885}, {"type": "node", "id": 12094300385, "lat": 39.7054755, "lon": -104.9276919, "tags": {"amenity": "bicycle_repair_station", "note": "bicycle repair station"}}, {"type": "node", "id": 12179450943, "lat": 39.6988997, "lon": -104.9360869, "tags": {"amenity": "polling_station", "location": "outdoor", "opening_hours": "24/7", "polling_station": "ballot_box"}}, {"type": "node", "id": 12179450944, "lat": 39.6990769, "lon": -104.9359915, "tags": {"addr:city": "Glendale", "addr:housenumber": "950", "addr:postcode": "80246", "addr:state": "CO", "addr:street": "South Birch Street", "amenity": "police", "ele": "1639", "emergency": "psap", "gnis:feature_id": "2369888", "name": "Glendale Police Department"}}, {"type": "node", "id": 12203711584, "lat": 39.6953481, "lon": -104.940294}, {"type": "node", "id": 12203711585, "lat": 39.6953588, "lon": -104.9396572}, {"type": "node", "id": 12203711587, "lat": 39.6949947, "lon": -104.9398792}, {"type": "node", "id": 12203711588, "lat": 39.6949285, "lon": -104.9398757}, {"type": "node", "id": 12203711589, "lat": 39.6949228, "lon": -104.9400752}, {"type": "node", "id": 12203711590, "lat": 39.6949905, "lon": -104.9401792}, {"type": "node", "id": 12333920268, "lat": 39.7077706, "lon": -104.9341394}, {"type": "node", "id": 12333920269, "lat": 39.7074915, "lon": -104.9341583}, {"type": "node", "id": 12333920270, "lat": 39.7075046, "lon": -104.9335342}, {"type": "node", "id": 12493996681, "lat": 39.696857, "lon": -104.9400859, "tags": {"addr:housenumber": "4085", "addr:postcode": "80246", "addr:street": "East Mississippi Avenue", "amenity": "restaurant", "check_date": "2025-01-11", "cuisine": "thai", "internet_access": "no", "name": "Thai Pan", "opening_hours": "Mo-Fr 10:00-20:45; Sa 12:00-20:45; Su off", "payment:cash": "yes", "payment:credit_cards": "yes", "payment:debit_cards": "yes", "phone": "+1 303-757-2750"}}, {"type": "node", "id": 12588338001, "lat": 39.7036654, "lon": -104.9413055, "tags": {"addr:housenumber": "703", "addr:postcode": "80246", "addr:street": "South Colorado Boulevard", "amenity": "restaurant", "cuisine": "chinese;noodles", "name": "Noodles Express"}}, {"type": "node", "id": 12656269001, "lat": 39.7089802, "lon": -104.9338343, "tags": {"addr:housenumber": "425 penthouse", "amenity": "clinic", "name": "Serenity Mental Health"}}, {"type": "node", "id": 12684649841, "lat": 39.705145, "lon": -104.9329946, "tags": {"addr:city": "Denver", "addr:housenumber": "650", "addr:postcode": "80246", "addr:state": "CO", "addr:street": "South Cherry Street", "addr:unit": "835", "amenity": "clinic", "healthcare": "clinic", "healthcare:speciality": "travel_clinic;vaccination", "name": "Passport Health Denver Cherry Creek Travel Clinic", "operator": "Passport Health", "operator:type": "private", "operator:wikidata": "Q30270336"}}, {"type": "node", "id": 12790598551, "lat": 39.6979296, "lon": -104.9349122, "tags": {"amenity": "bench", "armrest": "yes", "backrest": "yes", "material": "metal", "seats": "3"}}, {"type": "node", "id": 12790627658, "lat": 39.6975851, "lon": -104.9355592, "tags": {"amenity": "bench", "armrest": "no", "backrest": "no", "material": "metal", "seats": "4"}}, {"type": "node", "id": 12790627760, "lat": 39.6973606, "lon": -104.9354979, "tags": {"amenity": "bench", "armrest": "no", "backrest": "no", "material": "metal", "seats": "4"}}, {"type": "node", "id": 12790635287, "lat": 39.6979345, "lon": -104.9350399, "tags": {"amenity": "bench", "armrest": "yes", "backrest": "yes", "material": "metal", "seats": "3"}}, {"type": "node", "id": 12790636726, "lat": 39.6970248, "lon": -104.9355605, "tags": {"amenity": "bench", "armrest": "no", "backrest": "no", "material": "metal", "seats": "4"}}, {"type": "node", "id": 12790642469, "lat": 39.6981503, "lon": -104.9343279, "tags": {"amenity": "bench", "armrest": "yes", "backrest": "yes", "material": "metal", "seats": "3"}}, {"type": "node", "id": 12790643344, "lat": 39.6979682, "lon": -104.9357307, "tags": {"amenity": "bench", "armrest": "yes", "backrest": "yes", "material": "metal", "seats": "3"}}, {"type": "node", "id": 12790693851, "lat": 39.6980189, "lon": -104.934331, "tags": {"amenity": "bench", "armrest": "yes", "backrest": "yes", "material": "metal", "seats": "3"}}, {"type": "node", "id": 12790696207, "lat": 39.6972649, "lon": -104.9354978, "tags": {"amenity": "bench", "armrest": "no", "backrest": "no", "material": "metal", "seats": "4"}}, {"type": "node", "id": 12790699527, "lat": 39.6982321, "lon": -104.9348609, "tags": {"amenity": "bench", "armrest": "yes", "backrest": "yes", "material": "metal", "seats": "3"}}, {"type": "node", "id": 12790700472, "lat": 39.6981896, "lon": -104.9357382, "tags": {"amenity": "bench", "armrest": "yes", "backrest": "yes", "material": "metal", "seats": "3"}}, {"type": "node", "id": 12790944910, "lat": 39.6982419, "lon": -104.9350486, "tags": {"amenity": "bench", "armrest": "yes", "backrest": "yes", "material": "metal", "seats": "3"}}, {"type": "node", "id": 12862724001, "lat": 39.7096771, "lon": -104.9375779, "tags": {"access": "yes", "amenity": "bicycle_parking", "bicycle_parking": "wave", "capacity": "5", "covered": "no", "indoor": "no"}}, {"type": "node", "id": 12898278916, "lat": 39.6979885, "lon": -104.934983, "tags": {"amenity": "waste_basket"}}, {"type": "node", "id": 12918220205, "lat": 39.696856, "lon": -104.9399406, "tags": {"addr:housenumber": "4085", "addr:postcode": "80246", "addr:street": "East Mississippi Avenue", "addr:unit": "D2", "amenity": "cafe", "check_date": "2025-06-15", "cuisine": "bubble_tea;crepe", "internet_access": "no", "name": "Boba And Crepes", "opening_hours": "Mo off; Tu-Th 11:00-20:00; Fr-Sa 11:00-21:00; Su 12:00-19:00", "outdoor_seating": "no", "payment:cash": "yes", "payment:credit_cards": "yes", "payment:debit_cards": "yes"}}, {"type": "node", "id": 12964605594, "lat": 39.7034115, "lon": -104.929633, "tags": {"amenity": "bicycle_parking", "bicycle_parking": "stands", "capacity": "8"}}, {"type": "node", "id": 12971490391, "lat": 39.710793, "lon": -104.9311088, "tags": {"amenity": "bicycle_parking", "bicycle_parking": "stands", "capacity": "4"}}, {"type": "node", "id": 12971490392, "lat": 39.7098561, "lon": -104.9304143, "tags": {"amenity": "bicycle_parking", "bicycle_parking": "wave", "capacity": "7"}}, {"type": "node", "id": 12971490393, "lat": 39.7106543, "lon": -104.9307824, "tags": {"amenity": "bicycle_parking", "bicycle_parking": "rack", "capacity": "24"}}, {"type": "node", "id": 13126304802, "lat": 39.7032241, "lon": -104.9323837, "tags": {"amenity": "bicycle_parking", "bicycle_parking": "rack", "capacity": "7"}}, {"type": "node", "id": 13130053502, "lat": 39.6982209, "lon": -104.9395513, "tags": {"amenity": "bicycle_parking", "bicycle_parking": "stands", "capacity": "10"}}, {"type": "node", "id": 13130054901, "lat": 39.6981581, "lon": -104.9399318, "tags": {"amenity": "bicycle_parking", "bicycle_parking": "stands", "capacity": "10"}}, {"type": "node", "id": 13142432804, "lat": 39.7077731, "lon": -104.9398748}, {"type": "node", "id": 13264396796, "lat": 39.6973573, "lon": -104.9373236, "tags": {"addr:city": "Glendale", "addr:housenumber": "4221", "addr:postcode": "80246", "addr:state": "CO", "addr:street": "E Mississippi Ave", "name": "Hong Kong Spa", "opening_hours": "Mo-Su 09:00-22:30", "phone": "+1-303-304-9523", "shop": "massage"}}, {"type": "node", "id": 13264396797, "lat": 39.6982449, "lon": -104.9393206, "tags": {"addr:city": "Glendale", "addr:housenumber": "1000", "addr:postcode": "80246", "addr:state": "CO", "addr:street": "S Colorado Blvd", "addr:unit": "102", "amenity": "restaurant", "cuisine": "asian", "name": "Lan's Noodles & Dumplings", "phone": "+1-720-387-8432", "website": "https://order.mealkeyway.com/customer/release/index?mid=6943376d774b5744682b47303171764d78394a3169513d3d#/main"}}, {"type": "node", "id": 13264396798, "lat": 39.7095154, "lon": -104.9401984, "tags": {"addr:city": "Denver", "addr:housenumber": "400", "addr:postcode": "80246", "addr:state": "CO", "addr:street": "S Colorado Blvd", "addr:unit": "A", "brand": "Crumbl Cookies", "brand:wikidata": "Q106924414", "name": "Crumbl Cookies", "phone": "+1-720-603-1651", "shop": "pastry", "short_name": "Crumbl"}}, {"type": "node", "id": 13264396799, "lat": 39.7094172, "lon": -104.9401871, "tags": {"addr:city": "Denver", "addr:housenumber": "400", "addr:postcode": "80246", "addr:state": "CO", "addr:street": "East Dakota Avenue", "addr:unit": "440", "amenity": "dentist", "healthcare": "dentist", "name": "Creekview Dental", "operator": "Creekview Dental"}}, {"type": "node", "id": 13264396800, "lat": 39.7094587, "lon": -104.9398676, "tags": {"addr:city": "Denver", "addr:housenumber": "400", "addr:postcode": "80246", "addr:state": "CO", "addr:street": "South Colorado Boulevard", "addr:unit": "450", "amenity": "dentist", "healthcare": "dentist", "healthcare:speciality": "dental_oral_maxillo_facial_surgery", "name": "Colorado Oral Surgery"}}, {"type": "way", "id": 44923047, "nodes": [569676781, 569676782, 569676784, 569676786, 569676788, 569676791, 569676792, 569676793, 569676794, 569676795, 569676781], "tags": {"amenity": "parking"}}, {"type": "way", "id": 91973258, "nodes": [1068506236, 1068514618, 1068514619, 1068514620, 1068514621, 1068514624, 1068514627, 1068514630, 1068506236], "tags": {"addr:city": "Glendale", "addr:housenumber": "4111", "addr:postcode": "80246", "addr:state": "CO", "addr:street": "East Virginia Avenue", "building": "retail", "building:levels": "2", "check_date:opening_hours": "2025-11-25", "min_age": "18", "name": "Fascinations", "opening_hours": "Mo-Th 10:00-23:00; Fr-Sa 10:00-24:00; Su 11:00-22:00", "phone": "+1-303-322-3324", "shop": "erotic", "website": "https://www.fascinations.net/a/store-locator/glendale-co.html"}}, {"type": "way", "id": 91973657, "nodes": [1068506222, 1068523766, 1068523767, 1068523769, 1068523771, 1068523773, 1068523775, 1068523777, 1068523778, 1068523780, 1068523782, 1068523786, 1068523788, 1068523791, 1068523793, 1068523796, 1068523800, 1068523804, 1068523807, 1068523811, 1068523814, 1068523815, 1068523820, 1068523823, 1068523826, 1068506222], "tags": {"addr:city": "Glendale", "addr:housenumber": "4301", "addr:postcode": "80246-1510", "addr:state": "CO", "addr:street": "East Virginia Avenue", "brand": "Target", "brand:wikidata": "Q1046951", "building": "retail", "building:levels": "2", "name": "Target", "opening_hours": "Mo-Su 07:00-22:00", "phone": "+1-303-209-0182", "roof:levels": "0", "roof:shape": "flat", "shop": "department_store", "source": "bing", "toilets": "yes", "toilets:wheelchair": "yes", "website": "https://www.target.com/sl/glendale/1806", "wheelchair": "yes"}}, {"type": "way", "id": 121600941, "nodes": [1360847649, 1360847665, 1360847657, 1360847654, 1360847653, 1360847669, 1360847667, 1360847656, 1360847655, 1360847635, 1360847637, 1360847640, 1360847646, 1360847652, 1360847649], "tags": {"addr:city": "Denver", "addr:housenumber": "1195", "addr:postcode": "80246", "addr:state": "CO", "addr:street": "South Colorado Boulevard", "amenity": "fast_food", "brand": "McDonald's", "brand:website": "https://www.mcdonalds.com/", "brand:wikidata": "Q38076", "building": "retail", "cuisine": "burger", "drive_through": "yes", "height": "5", "internet_access": "wlan", "name": "McDonald's", "opening_hours": "06:00-22:00", "phone": "+1 303-756-8430", "source": "DRCOG PLANIMETRICS DATA", "takeaway": "yes", "website": "https://www.mcdonalds.com/us/en-us/location/7805.html"}}, {"type": "way", "id": 121600943, "nodes": [1360847673, 1360847675, 1360847672, 1360847670, 1360847673], "tags": {"addr:city": "Denver", "addr:housenumber": "1155", "addr:postcode": "80246", "addr:state": "CO", "addr:street": "South Colorado Boulevard", "building": "yes", "building:levels": "1", "height": "5", "name": "Native Roots", "phone": "+1-720-428-8075", "shop": "cannabis", "source": "DRCOG PLANIMETRICS DATA", "website": "https://nativerootscannabis.com/"}}, {"type": "way", "id": 121615778, "nodes": [1360954842, 1360954832, 1360954823, 1360954822, 1360954820, 1360954819, 1360954817, 1360954831, 1360954839, 1360954840, 1360954842], "tags": {"amenity": "parking"}}, {"type": "way", "id": 157717709, "nodes": [1699751375, 1699751370, 1699751325, 1699751297, 1699751295, 1699751287, 1699751375], "tags": {"addr:city": "Glendale", "addr:housenumber": "4301", "addr:postcode": "80246", "addr:state": "CO", "addr:street": "East Kentucky Avenue", "amenity": "restaurant", "building": "yes", "cuisine": "mexican", "name": "Las Delicias", "opening_hours": "Mo-Su 11:00-20:00", "phone": "+1-303-692-0912", "website": "https://www.lasdelicias.us/"}}, {"type": "way", "id": 157717711, "nodes": [1129129086, 1699751423, 1699751280, 1699751320, 1699751321, 1699751319, 2059277369, 2059277375, 11665220418, 1699751333, 11665220429, 11665220428, 11665220417, 11665220416, 1699751290, 11665220423, 11665220427, 11665220419, 1699751307, 1699751343, 1699751374, 1699751361, 1699751358, 1129129086], "tags": {"addr:city": "Glendale", "addr:housenumber": "860", "addr:postcode": "80246", "addr:state": "CO", "addr:street": "South Colorado Boulevard", "alt_name": "Home Depot", "branch": "Glendale,CO", "brand": "The Home Depot", "brand:wikidata": "Q864407", "building": "retail", "name": "The Home Depot", "opening_hours": "Mo-Sa 06:00-22:00; Su 07:00-20:00", "phone": "+1 720-524-2480", "ref": "1526", "shop": "doityourself", "website": "https://www.homedepot.com/l/Glendale-CO/CO/Glendale/80246/1526"}}, {"type": "way", "id": 192181626, "nodes": [2027463508, 2027463521, 2027463502, 2027463510, 2027463395, 2027463388, 2027463540, 2027463431, 2027463553, 2027463509, 2027463513, 2027463547, 2027463527, 2027463512, 2027463389, 2027463550, 2027463441, 2027463404, 2027463349, 2027463508], "tags": {"addr:city": "Glendale", "addr:housenumber": "4600", "addr:postcode": "80246", "addr:state": "CO", "addr:street": "Leetsdale Drive", "brand": "King Soopers", "brand:wikidata": "Q6412065", "building": "retail", "name": "King Soopers", "shop": "supermarket", "source": "bing", "website": "https://www.kingsoopers.com/"}}, {"type": "way", "id": 192434186, "nodes": [2029900898, 2029900741, 2029900696, 2029900697, 2029900673, 2029900635, 2029900647, 2029900671, 2029900695, 2029900737, 2029900767, 2029900763, 2029900904, 2029900901, 2029900898], "tags": {"amenity": "parking", "parking": "surface"}}, {"type": "way", "id": 192434187, "nodes": [2029900944, 2029900946, 2029900942, 2029900928, 2029900910, 2029900830, 2029900800, 2029900777, 2029900781, 2029900745, 2029900739, 2029900724, 2805195068, 2029900720, 2029900725, 2029900722, 2029900755, 2029900758, 2805195042, 2029900812, 2029900811, 2029900816, 2029900892, 2029900890, 2029900917, 2029900944], "tags": {"amenity": "parking", "parking": "surface"}}, {"type": "way", "id": 192434190, "nodes": [2029900870, 10253015720, 2029900838, 2029900836, 2029900570, 2029900568, 10253015761, 10253015762, 10253015763, 2029900561, 2029900539, 10253015765, 10253015769, 2029900535, 10253015766, 2029900533, 2029900509, 2029900507, 10253015848, 5510036862, 2029900505, 2029900501, 5510036897, 5510036858, 5510036861, 5510036889, 2029900521, 2029900523, 10253015791, 10253015773, 2029900529, 2029900525, 2029900527, 10253015690, 10253015691, 10253015692, 10253015770, 2029900541, 10253015693, 10253015694, 2029900543, 2029900537, 10253015776, 10253015695, 10253015696, 10253015697, 10253015698, 10253015699, 10253015700, 10253015701, 2029900531, 2029900584, 2029900577, 2029900595, 2029900589, 10253015702, 2029900590, 10253015703, 10253015704, 10253015705, 10253015706, 10253015707, 2029900637, 2029900692, 2029900712, 2029900747, 2029900862, 10253015708, 10253015709, 10253015710, 10253015711, 9690924119, 10253015712, 10253015716, 10253015717, 10253015718, 2029900895, 10253015719, 2029900891, 10253015723, 2029900870], "tags": {"amenity": "parking", "parking": "surface"}}, {"type": "way", "id": 192434191, "nodes": [2029900940, 2029900948, 2805195120, 2029900938, 2029900931, 2029900933, 2029900937, 2029900940], "tags": {"amenity": "parking", "parking": "surface"}}, {"type": "way", "id": 193822251, "nodes": [2043329929, 2043329924, 2043329925, 2043329927, 2043329929], "tags": {"amenity": "parking", "parking": "surface"}}, {"type": "way", "id": 195487124, "nodes": [2059277373, 1459687496, 1459687456, 1459687507, 1459687363, 1459687494, 1459687402, 1459687463, 1459687449, 1459687481, 1459687356, 1459687367, 1459687499, 1459687498, 1459687508, 1459687439, 1459687493, 1459687414, 1459687383, 1459687476, 1459687495, 1459687471, 2059277371, 2059277373], "tags": {"amenity": "parking", "parking": "surface"}}, {"type": "way", "id": 257037183, "nodes": [2626530397, 12203711584, 2626530398, 2626530399, 2626530400, 2626530401, 2626530402, 2626530403, 2626530404, 2626530405, 12203711585, 2626530406, 2626530397], "tags": {"addr:city": "Denver", "addr:housenumber": "1160", "addr:postcode": "80246", "addr:state": "CO", "addr:street": "South Colorado Boulevard", "amenity": "car_wash", "building": "yes", "height": "4", "name": "Finish Line Car Wash and Detail", "phone": "+1 303 756 9565", "source": "DRCOG PLANIMETRICS DATA", "website": "http://finishlinecarwashes.com"}}, {"type": "way", "id": 275858773, "nodes": [2805195088, 2805195092, 2805195036, 2805195101, 2805195074, 2029900729, 2805195051, 2029900716, 2805195024, 2805195035, 2029900709, 2805195043, 2805195046, 2029900727, 2805195104, 2805195112, 2805195082, 2805195129, 3462883072, 2805195109, 2029900783, 2805195053, 2029900806, 2805195025, 2805195091, 2029900813, 2805195048, 2805195062, 2029900804, 2805195080, 2805195116, 2805195115, 2805195088], "tags": {"addr:city": "Denver", "addr:housenumber": "4610", "addr:postcode": "80246", "addr:state": "CO", "addr:street": "East Alameda Avenue", "alt_name": "Greek Orthodox Cathedral", "amenity": "place_of_worship", "building": "church", "denomination": "greek_orthodox", "name": "Assumption of the Theotokos Greek Orthodox Metropolis Cathedral of Denver", "phone": "+1-303-388-9314", "religion": "christian", "website": "https://www.assumptioncathedral.org/"}}, {"type": "way", "id": 339097923, "nodes": [3462850701, 3462850572, 3462850560, 3462850561, 3462850574, 3462850716, 3462850559, 3462850713, 3462850565, 3462850578, 3462850720, 3462850580, 3462850588, 3462850581, 3462850724, 3462850586, 3462850708, 3462850571, 3462850552, 3462850722, 3462850701], "tags": {"amenity": "parking", "building": "yes", "parking": "multi-storey", "source": "Bing"}}, {"type": "way", "id": 339099011, "nodes": [3462859875, 3462864931, 3462864910, 2029926054, 3462859892, 3462864905, 3462864908, 3462864941, 3462859875], "tags": {"amenity": "parking", "building": "yes", "parking": "multi-storey", "source": "Bing"}}, {"type": "way", "id": 339100604, "nodes": [3462878507, 3462878528, 3462878524, 3462878541, 3462878500, 3462878512, 3462878519, 3462878531, 3462878510, 3462878548, 3462878520, 3462878497, 3462878498, 3462878502, 3462878532, 3462876692, 3462878542, 3462878495, 3462878554, 3462878527, 3462878540, 3462878507], "tags": {"amenity": "parking", "building": "yes", "layer": "1", "parking": "multi-storey", "source": "Bing"}}, {"type": "way", "id": 366055510, "nodes": [3700470502, 3700470503, 3700470504, 3700470505, 3700470506, 3700470507, 3700470508, 3700470509, 3700470502], "tags": {"addr:city": "Glendale", "addr:housenumber": "770", "addr:postcode": "80246", "addr:state": "CO", "addr:street": "South Colorado Boulevard", "brand": "World Market", "brand:wikidata": "Q5174750", "building": "yes", "name": "World Market", "official_name": "Cost Plus World Market", "shop": "interior_decoration"}}, {"type": "way", "id": 366055511, "nodes": [3700470511, 3751071247, 3751071238, 3751069376, 3700470512, 3700470513, 3700470514, 3700470515, 3700470516, 3700470517, 3700470518, 3700470519, 3700470520, 3700470521, 3700470522, 3700470511], "tags": {"amenity": "parking", "building": "parking", "name": "Galleria Office Towers Parking Garage", "parking": "multi-storey", "source": "Bing"}}, {"type": "way", "id": 366055513, "nodes": [3700470543, 3700470544, 3700470545, 3700470546, 3751069333, 3751069340, 3700470543], "tags": {"addr:city": "Glendale", "addr:housename": "The Campus at Cherry Creek", "addr:housenumber": "710", "addr:postcode": "80246", "addr:state": "CO", "addr:street": "South Ash Street", "building": "yes", "building:levels": "2", "name": "Beasley Amber", "office": "yes"}}, {"type": "way", "id": 371540670, "nodes": [3751052111, 3751053039, 3751053026, 3751053071, 3751053083, 3751053064, 6419248251, 3751053077, 3751053078, 3751052111], "tags": {"amenity": "parking", "building": "yes", "building:levels": "5", "name": "4550 Cherry Creek", "parking": "multi-storey", "source": "Bing"}}, {"type": "way", "id": 371542606, "nodes": [3751071278, 3751069383, 3751069391, 3751071252, 3751071227, 3751071257, 3751069369, 3751071231, 3751069386, 3751071235, 3751071278], "tags": {"amenity": "parking", "building": "yes", "building:levels": "4", "name": "4500 Cherry Creek Corporate Center", "parking": "multi-storey", "source": "Bing"}}, {"type": "way", "id": 371542608, "nodes": [3751069336, 3751069332, 3751069342, 3751071279, 3751069352, 3751069417, 3751069345, 3751069412, 3751069336], "tags": {"amenity": "parking", "building": "yes", "parking": "multi-storey", "source": "Bing"}}, {"type": "way", "id": 515385955, "nodes": [5033426897, 5031454095, 5033427099, 5033425693, 5033427051, 5031444530, 5031444559, 5033427098, 5033425702, 5033427021, 5033426897], "tags": {"amenity": "parking", "capacity": "19", "capacity:disabled": "3", "parking": "surface", "source": "Bing"}}, {"type": "way", "id": 515385959, "nodes": [5033425707, 5033426827, 5033427067, 5033427072, 5033426867, 5033426903, 5033427090, 5033427088, 5033426873, 5033427092, 5033427079, 5033427096, 5033427038, 5033426866, 5033427022, 5033426852, 5033426892, 5033425719, 5033426918, 5033426919, 5033426898, 5033426920, 5033426888, 5033426900, 5033426853, 5033426901, 5033426895, 5033427068, 5033425707], "tags": {"amenity": "parking", "capacity": "41", "capacity:disabled": "2", "parking": "surface", "source": "Bing"}}, {"type": "way", "id": 515385960, "nodes": [5033427041, 5033427042, 5033426835, 5033426828, 5033427041], "tags": {"amenity": "parking", "capacity": "29", "capacity:disabled": "3", "parking": "surface", "source": "Bing"}}, {"type": "way", "id": 515385968, "nodes": [5033426847, 5033427089, 5033426879, 5033426863, 5033427043, 5033427070, 5033426825, 5033426849, 5033426847], "tags": {"amenity": "parking", "capacity": "15", "capacity:disabled": "0", "parking": "surface", "source": "Bing"}}, {"type": "way", "id": 515707046, "nodes": [5035841234, 5035841236, 5035841238, 5035841229, 5035841237, 5031431519, 5035841232, 5035841231, 5035841234], "tags": {"amenity": "parking", "capacity": "30", "capacity:disabled": "3", "parking": "surface", "source": "Bing"}}, {"type": "way", "id": 515707047, "nodes": [5035841235, 5035841233, 5035841230, 5031431518, 5031446054, 5031446047, 5035841235], "tags": {"amenity": "parking", "capacity": "15", "capacity:disabled": "0", "parking": "surface", "source": "Bing"}}, {"type": "way", "id": 515707860, "nodes": [5031454110, 5035852082, 5035852062, 5035852086, 5035852057, 5035852080, 5035852061, 5031454110], "tags": {"amenity": "parking", "capacity": "7", "capacity:disabled": "0", "parking": "surface", "source": "Bing"}}, {"type": "way", "id": 515707861, "nodes": [5031446061, 5031446036, 5031446058, 5031446041, 5031446048, 5031446034, 5035852071, 5035852069, 5035852056, 5035852077, 5035852090, 5035852066, 5035852076, 5035852075, 5035852068, 5035852059, 5035852064, 5035852079, 5035852081, 5035852058, 5035852078, 5035852072, 5035852083, 5035852065, 5031446061], "tags": {"amenity": "parking", "capacity": "57", "capacity:disabled": "0", "parking": "surface", "source": "Bing"}}, {"type": "way", "id": 515707862, "nodes": [5031454042, 5035852073, 5035852063, 5035852060, 5035852088, 5035852084, 5035852089, 5035852070, 5031444546, 5031444533, 5031444557, 5031431627, 5031444553, 5035852074, 5035852085, 5035852067, 5035852087, 5031454042], "tags": {"amenity": "parking", "capacity": "22", "capacity:disabled": "0", "parking": "surface", "source": "Bing"}}, {"type": "way", "id": 515709156, "nodes": [5031454076, 5035861577, 5035861544, 5035861565, 5035861563, 5031454072, 5035861579, 5035861543, 5035861584, 5035861539, 5035861559, 5035861536, 5035861548, 5035861549, 5035861547, 5035861582, 5031454097, 5035861566, 5035861554, 5035861574, 5035861585, 5035861538, 5035861541, 5031454068, 5035861580, 5035861552, 5035861537, 5035861578, 5035861558, 5035861540, 5035861546, 5035861551, 5031454076], "tags": {"amenity": "parking", "capacity": "53", "capacity:disabled": "4", "parking": "surface", "source": "Bing"}}, {"type": "way", "id": 550010067, "nodes": [5035861568, 5035861576, 5035861561, 5035861567, 5035861557, 5035861572, 5035861575, 5035861542, 5035861571, 5035861570, 5035861545, 5035861562, 5035861560, 5035861555, 5312846769, 5312846743, 5312846788, 5035861573, 5035861564, 5031454066, 5031454076, 5035861577, 5035861556, 5035861568], "tags": {"amenity": "parking", "capacity": "32", "capacity:disabled": "0", "parking": "surface", "source": "Bing"}}, {"type": "way", "id": 550012191, "nodes": [5312865955, 5312865959, 5312865905, 5312865862, 5312865917, 5312865887, 5312865948, 5312865880, 5312865955], "tags": {"addr:city": "Glendale", "addr:housenumber": "830", "addr:postcode": "80246", "addr:state": "CO", "addr:street": "South Colorado Boulevard", "alt_name": "FirstBank", "amenity": "bank", "brand": "First Bank", "brand:wikidata": "Q5452217", "building": "yes", "name": "First Bank", "opening_hours": "Mo-Fr 09:00-17:00, Sa 09:00-12:00", "phone": "+1-303-512-1100", "short_name": "1STBank", "source": "Bing", "website": "https://www.efirstbank.com/customer-service/find-location.htm#location/GLEN"}}, {"type": "way", "id": 550012202, "nodes": [3700470555, 3700470556, 3700470557, 3700470558, 3700470559, 3700470560, 3700470561, 3700470562, 3700470563, 3700470564, 3700470565, 3700470566, 3700470567, 3700470568, 3700470569, 3700470570, 3700470555], "tags": {"amenity": "restaurant", "brand": "Chili's", "brand:wikidata": "Q1072948", "building": "retail", "cuisine": "tex-mex", "name": "Chili's", "official_name": "Chili's Grill & Bar", "source": "Bing"}}, {"type": "way", "id": 573824267, "nodes": [4104016297, 5510036881, 5510036859, 5510036883, 4104016297], "tags": {"addr:city": "Denver", "addr:housenumber": "4500", "addr:postcode": "80246", "addr:state": "CO", "addr:street": "East Alameda Avenue", "brand": "Natural Grocers", "brand:wikidata": "Q17146520", "building": "supermarket", "name": "Natural Grocers", "opening_hours": "Mo-Sa 07:57-20:36; Su 08:57-19:36", "organic": "only", "phone": "+1-303-399-0164", "shop": "supermarket", "website": "https://www.naturalgrocers.com/store/denver-leetsdale-and-alameda"}}, {"type": "way", "id": 640032734, "nodes": [6029828457, 6446689978, 6446689979, 6446689980, 6446689981, 6446689982, 6446689983, 6446689984, 6446690085, 6029828458, 6029828459, 6446690092, 6446690091, 6446690090, 6446690089, 6446690088, 6446690087, 6446690086, 6446690093, 6029828460, 6029828457], "tags": {"addr:city": "Denver", "addr:housenumber": "1040", "addr:postcode": "80246", "addr:state": "CO", "addr:street": "South Colorado Boulevard", "brand": "BMW", "brand:wikidata": "Q26678", "building": "yes", "name": "BMW of Denver Downtown", "shop": "car"}}, {"type": "way", "id": 669340134, "nodes": [6267910059, 6267910060, 6267910061, 6267910062, 6267910063, 6267910064, 6267910065, 6267910066, 6267910067, 6267910068, 6267910069, 6267910070, 6267910071, 6267910072, 6267910073, 6267910074, 6267910075, 6267910084, 6267910076, 6267910077, 6267910078, 6267910079, 6267910080, 6267910059], "tags": {"amenity": "parking"}}, {"type": "way", "id": 669340135, "nodes": [6267910081, 6267910082, 6267910083, 6267910084, 6267910081], "tags": {"amenity": "place_of_worship", "building": "yes", "denomination": "catholic", "name": "St. Andrew Avelino Seminario", "religion": "christian"}}, {"type": "way", "id": 669340136, "nodes": [6267910285, 6267910286, 6267910287, 6267910288, 6267910285], "tags": {"amenity": "shelter", "building": "yes", "roof:shape": "round"}}, {"type": "way", "id": 669435765, "nodes": [6268867606, 6268867607, 6268867608, 6268867609, 6268867610, 6268867611, 6268867612, 6268867613, 6268867614, 6268867606], "tags": {"addr:city": "Denver", "addr:housenumber": "4380", "addr:postcode": "80246", "addr:state": "CO", "addr:street": "East Alameda Avenue", "building": "yes", "name": "Kind Love Dispensary", "phone": "+1 303-565-3600", "shop": "cannabis", "website": "https://www.cannabisstoredenver.com/"}}, {"type": "way", "id": 685155410, "nodes": [6419956719, 6419956720, 6419956721, 6419956722, 6419956719], "tags": {"amenity": "post_office", "building": "yes", "check_date": "2025-02-12", "noname": "yes", "opening_hours": "24/7"}}, {"type": "way", "id": 700621703, "nodes": [6579524590, 6579524591, 6579524592, 6579524593, 6579524590], "tags": {"access": "private", "amenity": "waste_disposal", "barrier": "fence", "fence_type": "wood"}}, {"type": "way", "id": 700621705, "nodes": [6579524598, 6579524599, 6579524600, 6579524601, 6579524598], "tags": {"access": "private", "amenity": "waste_disposal", "barrier": "fence", "fence_type": "wood"}}, {"type": "way", "id": 700621706, "nodes": [6579524602, 6579524603, 6579524604, 6579524605, 6579524602], "tags": {"access": "private", "amenity": "waste_disposal", "barrier": "fence", "fence_type": "wood"}}, {"type": "way", "id": 700621707, "nodes": [6579524606, 6579524607, 6579524608, 6579524609, 6579524606], "tags": {"access": "private", "amenity": "waste_disposal", "barrier": "fence", "fence_type": "wood"}}, {"type": "way", "id": 822436767, "nodes": [7679305330, 7679312130, 7679309862, 7679305930, 7679311062, 7679310465, 7679308196, 7679310934, 7679308664, 7679308066, 7679305800, 7679309263, 7679306996, 7679306398, 7679311531, 7679306866, 7679312000, 7679305330], "tags": {"addr:city": "Denver", "addr:housenumber": "895", "addr:postcode": "80246", "addr:state": "CO", "addr:street": "South Colorado Boulevard", "brand": "Sleep Number", "brand:wikidata": "Q7447640", "building": "yes", "height": "5", "name": "Sleep Number", "shop": "bed", "source": "DRCOG PLANIMETRICS DATA"}}, {"type": "way", "id": 822436821, "nodes": [7679311097, 7679308827, 7679312293, 7679310025, 7679309425, 7679307158, 7679309898, 7679307631, 7679307031, 7679312166, 7679308231, 7679305965, 7679305366, 7679310500, 7679305836, 7679310970, 7679310371, 7679308102, 7679311567, 7679309298, 7679308700, 7679306433, 7679312083, 7679309815, 7679311097], "tags": {"addr:city": "Denver", "addr:housenumber": "999", "addr:postcode": "80246", "addr:state": "CO", "addr:street": "South Colorado Boulevard", "amenity": "place_of_worship", "building": "yes", "denomination": "pentecostal", "height": "10", "name": "Lovingway United Pentecostal Church", "religion": "christian", "source": "DRCOG PLANIMETRICS DATA"}}, {"type": "way", "id": 822436856, "nodes": [7679310806, 7679306867, 7679312002, 7679311402, 7679309136, 7679311870, 7679309602, 7679309003, 7679306735, 7679310204, 7679307936, 7679307336, 7679292270, 7679310806], "tags": {"addr:city": "Denver", "addr:housenumber": "965", "addr:postcode": "80246", "addr:state": "CO", "addr:street": "South Colorado Boulevard", "alt_name": "Einstein Brothers Bagels", "amenity": "fast_food", "branch": "Colorado & Kentucky", "brand": "Einstein Bros. Bagels", "brand:wikidata": "Q5349788", "building": "yes", "cuisine": "bagel", "height": "5", "name": "Einstein Bros. Bagels", "opening_hours": "06:00-14:00", "source": "DRCOG PLANIMETRICS DATA", "takeaway": "yes", "website": "https://locations.einsteinbros.com/us/co/denver/967-s-colorado-blvd"}}, {"type": "way", "id": 822436876, "nodes": [7679306091, 7679311223, 7679306560, 7679311694, 7679306091]}, {"type": "way", "id": 822436919, "nodes": [7679306525, 7679309990, 7679307723, 7679312258, 7679308243, 7679307643, 7679305378, 7679308839, 7679306525], "tags": {"addr:city": "Denver", "addr:housenumber": "1190", "addr:postcode": "80246", "addr:state": "CO", "addr:street": "South Colorado Boulevard", "amenity": "fast_food", "brand": "Raising Cane's", "brand:wikidata": "Q7285144", "building": "yes", "cuisine": "chicken", "height": "9", "name": "Raising Cane's", "official_name": "Raising Cane's Chicken Fingers", "source": "DRCOG PLANIMETRICS DATA", "takeaway": "yes"}}, {"type": "way", "id": 822437082, "nodes": [7679311401, 7679309134, 7679305200, 7679310335, 7679309732, 7679307467, 7679310203, 7679307935, 7679307335, 7679292269, 7679308535, 7679306269, 7679305669, 7679310804, 7679310627, 7679308358, 7679307758, 7679305493, 7679308954, 7679306686, 7679311401]}, {"type": "way", "id": 822437275, "nodes": [8033183476, 7679310277, 7679308009, 7679311475, 7679309207, 7679308608, 7679306342, 7679309076, 8033183476], "tags": {"addr:city": "Glendale", "addr:housenumber": "1100", "addr:postcode": "80246", "addr:state": "CO", "addr:street": "South Colorado Boulevard", "amenity": "dentist", "building": "yes", "healthcare": "dentist", "height": "5", "name": "Cherry Creek Modern Dentistry", "phone": "+1-303-758-0575", "source": "DRCOG PLANIMETRICS DATA", "website": "https://www.cherrycreekmoderndentistry.com/"}}, {"type": "way", "id": 822437331, "nodes": [7679307070, 7679309806, 7679307541, 7679306940, 7679312074, 7679308141, 7679305876, 7679305275, 7679310410, 7679305743, 7679307070], "tags": {"addr:city": "Denver", "addr:housenumber": "1111", "addr:postcode": "80246", "addr:state": "CO", "addr:street": "South Colorado Boulevard", "amenity": "pharmacy", "brand": "Walgreens", "brand:wikidata": "Q1591889", "building": "yes", "healthcare": "pharmacy", "height": "5", "name": "Walgreens", "source": "DRCOG PLANIMETRICS DATA"}}, {"type": "way", "id": 826562222, "nodes": [7717361116, 7717361117, 7717361118, 7717361119, 7717361120, 7717361121, 7717361116], "tags": {"addr:city": "Glendale", "amenity": "parking", "building": "parking", "note": "Also part of 4100 E Mississippi according to Arapahoe County GIS, Colorado", "parking": "multi-storey"}}, {"type": "way", "id": 860493219, "nodes": [8019754629, 8019754630, 8019754631, 8019754632, 8019754633, 8019754634, 8019754635, 8019754636, 8019754629], "tags": {"addr:city": "Glendale", "addr:housenumber": "4151", "addr:postcode": "80246", "addr:state": "CO", "addr:street": "East Kentucky Avenue", "building": "yes", "name": "The Green Solution", "opening_hours": "Mo-Fr 08:00-23:45", "operator": "The Green Solution", "phone": "+1-720-501-2373", "shop": "cannabis", "website": "https://www.tgscolorado.com/stores/glendale"}}, {"type": "way", "id": 862177728, "nodes": [8033183350, 8033183351, 8033183352, 8033183353, 8033183354, 8033183355, 8033183356, 8033183357, 8033183358, 8033183359, 8033183360, 8033183361, 8033183362, 8033183363, 8033183364, 8033183365, 8033183366, 8033183367, 8033183368, 8033183350], "tags": {"amenity": "fire_station", "building": "yes"}}, {"type": "way", "id": 948448339, "nodes": [8779090045, 2029926043, 2029926128, 8779090046, 8779090045], "tags": {"addr:city": "Glendale", "addr:housenumber": "4182", "addr:postcode": "80246", "addr:state": "CO", "addr:street": "East Virginia Avenue", "building": "yes", "name": "Emerald Fields Glendale Recreational Dispensary", "phone": "+1-303-377-1501", "shop": "cannabis", "website": "https://emeraldfields.com/locations/glendale-co-marijuana-dispensary/"}}, {"type": "way", "id": 951220135, "nodes": [8804654218, 8804654219, 8804654220, 8804654221, 8804654222, 8804654223, 8804654224, 8804654225, 8804654218], "tags": {"addr:city": "Glendale", "addr:housenumber": "430", "addr:postcode": "80246", "addr:state": "CO", "addr:street": "South Colorado Boulevard", "amenity": "fast_food", "branch": "Cherry Creek", "brand": "Chick-fil-A", "brand:wikidata": "Q491516", "building": "yes", "cuisine": "chicken", "delivery": "yes", "drive_through": "yes", "indoor_seating": "yes", "internet_access": "wlan", "name": "Chick-fil-A", "opening_hours": "Mo-Sa 06:00-22:00; Su off", "phone": "+1 303-333-3828", "ref": "03643", "takeaway": "yes", "website": "https://www.chick-fil-a.com/locations/co/cherry-creek"}}, {"type": "way", "id": 951220139, "nodes": [8804654241, 8804654242, 8804654243, 8804654244, 8804654241], "tags": {"addr:city": "Glendale", "addr:housenumber": "410", "addr:postcode": "80246", "addr:state": "CO", "addr:street": "South Colorado Boulevard", "amenity": "cafe", "branch": "Colorado and Virginia", "brand": "Starbucks", "brand:wikidata": "Q37158", "building": "yes", "cuisine": "coffee_shop", "name": "Starbucks", "official_name": "Starbucks Coffee", "phone": "+1 720-413-5622", "ref": "1026668", "takeaway": "yes", "website": "https://www.starbucks.com/store-locator/store/1026668/colorado-and-virginia-410-s-colorado-blvd-glendale-co-802461207-us"}}, {"type": "way", "id": 951220145, "nodes": [8804654256, 8804654257, 8804654258, 8804654259, 8804654260, 8804654261, 8804654262, 8804654263, 8804654264, 8804654265, 8804654266, 8804654267, 8804654268, 8804654269, 8804654270, 8804654271, 8804654272, 8804654273, 8804654274, 8804654275, 8804654276, 8804654277, 8804654278, 8804654279, 8804654280, 8804654281, 8804654282, 8804654283, 8804654284, 8804654285, 8804654286, 8804654287, 8804654288, 8804654289, 8804654290, 8804654291, 8804654292, 8804654293, 8804654294, 8804654301, 8804654302, 8804654295, 8804654296, 8804654297, 8804654298, 8804654299, 8804654300, 8804654256], "tags": {"amenity": "parking"}}, {"type": "way", "id": 951220147, "nodes": [8804654304, 8804654305, 8804654307, 8804654308, 8804654310, 8809474499, 8804654306, 13142432804, 8804654303, 8804654304], "tags": {"addr:city": "Glendale", "addr:housenumber": "490", "addr:postcode": "80246", "addr:state": "CO", "addr:street": "South Colorado Boulevard", "amenity": "stripclub", "building": "yes", "building:levels": "2", "name": "Shotgun Willie's", "opening_hours": "Mo-Su 14:00-04:30", "phone": "+1-303-388-9601", "website": "https://www.shotgun-willies.com/"}}, {"type": "way", "id": 951220148, "nodes": [8804670220, 8804670221, 8804670222, 8804670223, 8804670238, 8804670224, 8804670225, 8804670226, 8804670227, 8804670220], "tags": {"amenity": "parking"}}, {"type": "way", "id": 951220149, "nodes": [8804670223, 8804670228, 8804670229, 8804670230, 8804670231, 8804670232, 8804670233, 8804670234, 8804670235, 8804670236, 8804670237, 8804670238, 8804670223]}, {"type": "way", "id": 951220150, "nodes": [8804670239, 8804670240, 8804670241, 8804670242, 8804670243, 8804670244, 8804670245, 8804670246, 8804670247, 8804670248, 8804670249, 8804670250, 8804670251, 8804670252, 8804670253, 8804670239], "tags": {"access": "yes", "amenity": "parking", "fee": "no", "parking": "surface"}}, {"type": "way", "id": 951220151, "nodes": [8804670255, 8804670256, 8804670257, 8804670258, 8804670259, 8804670260, 8804670255], "tags": {"access": "customers", "amenity": "parking", "fee": "no"}}, {"type": "way", "id": 1010338640, "nodes": [9322040448, 5578324397, 9322040449, 9322040450, 9322040451, 9322040448], "tags": {"amenity": "parking", "building": "parking", "parking": "multi-storey"}}, {"type": "way", "id": 1010338643, "nodes": [9322040466, 9322040467, 9322040468, 9322040469, 9322040470, 9322040471, 9322040472, 9322040473, 9322040466], "tags": {"building": "yes", "name": "Murray Motor Imports", "shop": "car_repair"}}, {"type": "way", "id": 1013584594, "nodes": [9351339161, 9351339162, 9351339163, 9351339154, 9351339164, 9351339161], "tags": {"amenity": "parking"}}, {"type": "way", "id": 1013586362, "nodes": [9351374277, 9351374278, 9351374279, 9351374280, 9351374277], "tags": {"addr:city": "Denver", "addr:housenumber": "925", "addr:postcode": "80209", "addr:street": "South Colorado Boulevard", "brand": "T-Mobile", "brand:wikidata": "Q3511885", "building": "yes", "name": "T-Mobile", "shop": "mobile_phone"}}, {"type": "way", "id": 1013590093, "nodes": [6236417142, 9351409069, 9351409070, 9351409072, 6236417166, 6236417142], "tags": {"amenity": "bank", "brand": "Chase", "brand:wikidata": "Q524629", "building:part": "yes", "name": "Chase"}}, {"type": "way", "id": 1013590095, "nodes": [9351409073, 6236417144, 6236417165, 6236417139, 6236417160, 6236417155, 6236417140, 6236417149, 6236417135, 6236417159, 6236417154, 9351409073], "tags": {"building:part": "yes", "name": "Paradise Cleaners", "shop": "dry_cleaning"}}, {"type": "way", "id": 1013590096, "nodes": [6236417142, 9351409069, 6236417153, 6236417164, 6236417148, 6236417138, 6236417158, 6236417152, 6236417147, 6236417168, 6236417143, 6236417163, 6236417151, 6236417137, 6236417146, 6236417167, 6236417157, 6236417142], "tags": {"addr:city": "Denver", "addr:housenumber": "825", "addr:postcode": "80246", "addr:state": "CO", "addr:street": "South Colorado Boulevard", "brand": "King Soopers", "brand:wikidata": "Q6412065", "building:levels": "1", "building:part": "retail", "diet:halal": "yes", "diet:kosher": "yes", "name": "King Soopers", "opening_hours": "Mo-Su 06:00-23:00", "roof:levels": "0", "roof:shape": "flat", "shop": "supermarket", "wheelchair": "yes"}}, {"type": "way", "id": 1013591533, "nodes": [9351363056, 9351363057, 9351363065, 9351363058, 9351363059, 9351363056], "tags": {"amenity": "parking", "operator": "Peregrine Place", "operator:type": "private", "parking": "surface"}}, {"type": "way", "id": 1013591534, "nodes": [9351363060, 9351363061, 9351363062, 9351363063, 9351363064, 9351363065, 9351363057, 9351363056, 9351363059, 9351363066, 9351363067, 9351363068, 9351363069, 9351363070, 9351363071, 9351363072, 9351363073, 9351363074, 9351363075, 9351363076, 9351363077, 9351363078, 9351363079, 9351363080, 9351363060], "tags": {"access": "private", "amenity": "parking", "capacity:disabled": "2", "operator": "Peregrine Place", "operator:type": "private", "parking": "surface"}}, {"type": "way", "id": 1014992873, "nodes": [9363205508, 9363205509, 9363205510, 9363205511, 9363205512, 9363205513, 9363205514, 9363205515, 9363205516, 9363220917, 9363205508], "tags": {"access": "private", "amenity": "parking", "parking": "surface"}}, {"type": "way", "id": 1014992879, "nodes": [9363220951, 9363220952, 9363220953, 9363220954, 9363220951]}, {"type": "way", "id": 1015141040, "nodes": [5546832665, 5544710287, 5578324528, 5578324546, 5578324540, 5578324539, 5578324538, 5578324537, 5578324536, 5578324535, 5546832670, 8033183475, 5546832665], "tags": {"amenity": "parking", "surface": "asphalt"}}, {"type": "way", "id": 1015141041, "nodes": [9364550442, 9364550443, 9364550444, 9364550445, 9364550446, 9364550447, 9364550448, 12203711590, 12203711589, 12203711588, 12203711587, 9364550442], "tags": {"amenity": "parking"}}, {"type": "way", "id": 1015141043, "nodes": [7717361138, 9364550453, 9364550454, 11968557130, 9364550455, 2033740584, 2033740586, 2033740583, 9364550456, 8033183388, 5578324482, 5578324483, 8033183387, 9364550457, 9364550458, 9364550459, 7717361138], "tags": {"access": "yes", "amenity": "parking", "surface": "asphalt"}}, {"type": "way", "id": 1015141044, "nodes": [9364550460, 9364550461, 9364550462, 9364550463, 9364550460], "tags": {"amenity": "parking", "capacity": "5", "surface": "asphalt"}}, {"type": "way", "id": 1015141045, "nodes": [9364550464, 9364550465, 9364550466, 9364550467, 9364550468, 9364550469, 9364550470, 9364550471, 9364550472, 9364550473, 9364550474, 9364550475, 9364550476, 9364550477, 9364550478, 9364550479, 7717361125, 7679310851, 7679310382, 7679305247, 9364550464], "tags": {"access": "yes", "amenity": "parking", "fee": "no", "parking": "surface", "surface": "asphalt"}}, {"type": "way", "id": 1015141046, "nodes": [9364550480, 1360847673, 1360847670, 9364550481, 9364550482, 9364550480], "tags": {"amenity": "parking"}}, {"type": "way", "id": 1015141703, "nodes": [9364564573, 9364564574, 9364564575, 9364564576, 9364564573], "tags": {"amenity": "toilets", "building": "yes", "toilets:disposal": "flush", "wheelchair": "yes"}}, {"type": "way", "id": 1015141706, "nodes": [9364564585, 9364564586, 9364564587, 9364564588, 9364564585], "tags": {"access": "yes", "amenity": "parking"}}, {"type": "way", "id": 1015141707, "nodes": [6419248155, 6419248154, 9364564589, 9364564590, 6419248155], "tags": {"amenity": "parking"}}, {"type": "way", "id": 1015141708, "nodes": [9364564591, 9364564592, 9364564593, 6419248156, 9364564591], "tags": {"amenity": "parking"}}, {"type": "way", "id": 1015141709, "nodes": [9364564594, 9364564595, 9364564596, 9364564597, 9364564598, 9364564599, 9364564600, 9364564601, 9364564594], "tags": {"amenity": "parking"}}, {"type": "way", "id": 1015141710, "nodes": [9364564602, 9364564603, 9364564604, 9364564605, 9364564602], "tags": {"amenity": "parking"}}, {"type": "way", "id": 1015141711, "nodes": [9364564606, 9364564607, 9364564608, 9364564609, 9364564606], "tags": {"amenity": "parking"}}, {"type": "way", "id": 1015154621, "nodes": [9363220924, 9364666639, 9364666640, 9363220925, 9364666637, 9364666638, 9363220924]}, {"type": "way", "id": 1015154622, "nodes": [9364666641, 9364666642, 9364666643, 9364666644, 9993458635, 9993458638, 9364666641]}, {"type": "way", "id": 1015193587, "nodes": [9364959813, 9364959814, 9364959815, 9364959816, 9364985017, 9364985018, 9364985019, 9364985020, 9364959813], "tags": {"access": "private", "amenity": "parking", "parking": "surface", "surface": "asphalt"}}, {"type": "way", "id": 1015193588, "nodes": [9364985040, 9364985022, 9364985023, 9364985024, 9364985025, 9364985026, 9364985027, 9364985028, 9364985029, 9364985030, 9364985031, 9364985039, 9364985040]}, {"type": "way", "id": 1015193589, "nodes": [9364985042, 9364985041, 9364985032, 9364985033, 9364985034, 9364985035, 9364985036, 9364985037, 9364985038, 9364985021, 9364985042]}, {"type": "way", "id": 1015193590, "nodes": [9364985043, 9364985044, 9364985045, 9364985046, 9364985043]}, {"type": "way", "id": 1015193591, "nodes": [9364985047, 9364985048, 9364985049, 9364985050, 9364985047], "tags": {"access": "private", "amenity": "parking", "parking": "surface", "surface": "asphalt"}}, {"type": "way", "id": 1069692031, "nodes": [9818025191, 9818025192, 9818025193, 9818025194, 9818025195, 9818025196, 9818025197, 9818025198, 9818025199, 9818025200, 9818025201, 9818025191]}, {"type": "way", "id": 1116127277, "nodes": [10208453516, 10208477917, 10208477918, 10208477919, 10208453516], "tags": {"amenity": "shelter", "building": "yes", "shelter_type": "picnic_shelter"}}, {"type": "way", "id": 1122521904, "nodes": [10266522758, 10266522735, 10266522736, 10266522737, 10266522738, 10266522739, 5578079785, 10266522746, 10266522747, 10266522748, 10266522749, 10266522750, 10266522751, 10266522752, 10266522753, 10266522754, 10266522755, 10266522758], "tags": {"amenity": "parking", "building": "parking", "parking": "multi-storey", "source": "microsoft/BuildingFootprints"}}, {"type": "way", "id": 1224495278, "nodes": [1068569616, 11356039779, 5578080167, 11356039780, 1068569616], "tags": {"access": "yes", "amenity": "parking", "fee": "no", "parking": "surface"}}, {"type": "way", "id": 1224495279, "nodes": [11356039781, 11356039785, 11356039788, 11356039782, 11356039783, 11356039787, 11356039786, 11356039784, 11356039781], "tags": {"amenity": "parking"}}, {"type": "way", "id": 1224495280, "nodes": [11356039785, 11356039786, 11356039787, 11356039788, 11356039785], "tags": {"amenity": "parking_space", "parking_space": "disabled"}}, {"type": "way", "id": 1224495281, "nodes": [1068569611, 11356039789, 11356039790, 11356039791, 1068569611], "tags": {"amenity": "parking"}}, {"type": "way", "id": 1254876329, "nodes": [1699751307, 11665220424, 11665220420, 11665220421, 11665220422, 11665220423, 11665220427, 11665220419, 1699751307], "tags": {"shop": "garden_centre"}}, {"type": "way", "id": 1301407731, "nodes": [12054194099, 12054194100, 12054194101, 12054194102, 12054194103, 12054194104, 12054194105, 12054194099], "tags": {"amenity": "parking"}}, {"type": "way", "id": 1333148915, "nodes": [12333920268, 12333920269, 12333920270, 3462864906, 12333920268], "tags": {"amenity": "parking"}}, {"type": "relation", "id": 11267105, "members": [{"type": "way", "ref": 822437082, "role": "outer"}, {"type": "way", "ref": 822436876, "role": "inner"}], "tags": {"addr:city": "Denver", "addr:housenumber": "1091", "addr:postcode": "80246", "addr:state": "CO", "addr:street": "South Colorado Boulevard", "building": "yes", "height": "10", "shop": "funeral_directors", "source": "DRCOG PLANIMETRICS DATA", "type": "multipolygon"}}, {"type": "relation", "id": 13591476, "members": [{"type": "way", "ref": 1015154621, "role": "outer"}, {"type": "way", "ref": 1014992879, "role": "outer"}, {"type": "way", "ref": 1015154622, "role": "outer"}], "tags": {"addr:city": "Denver", "addr:housenumber": "1251", "addr:postcode": "80246", "addr:state": "CO", "addr:street": "South Bellaire Street", "landuse": "residential", "name": "Mint Urban Infinity Apartments", "office": "estate_agent", "opening_hours": "Mo-Fr 10:00-18:00; Sa 10:00-17:00; Su 11:00-16:00", "phone": "+1-303-953-4447", "residential": "apartments", "type": "multipolygon", "website": "https://minturbaninfinity.com/"}}, {"type": "relation", "id": 13592017, "members": [{"type": "way", "ref": 1015193589, "role": "outer"}, {"type": "way", "ref": 1015193588, "role": "outer"}, {"type": "way", "ref": 1015193590, "role": "inner"}], "tags": {"access": "private", "amenity": "parking", "parking": "surface", "surface": "asphalt", "type": "multipolygon"}}, {"type": "relation", "id": 14253088, "members": [{"type": "way", "ref": 951220149, "role": "outer"}, {"type": "way", "ref": 1069692031, "role": "inner"}], "tags": {"access": "customers", "amenity": "parking", "fee": "no", "type": "multipolygon"}}]}