{"version": 0.6, "generator": "Overpass API 0.7.62.8 e802775f", "osm3s": {"timestamp_osm_base": "2025-12-07T00:51:56Z", "copyright": "The data included in this document is from www.openstreetmap.org. The data is made available under ODbL."}, "elements": [{"type": "node", "id": 3983444821, "lat": 47.3448713, "lon": -122.7310306}, {"type": "node", "id": 3983444822, "lat": 47.3449112, "lon": -122.7306789}, {"type": "node", "id": 3983444823, "lat": 47.3448193, "lon": -122.7306562}, {"type": "node", "id": 3983444824, "lat": 47.3447794, "lon": -122.7310078}, {"type": "node", "id": 3983447448, "lat": 47.3429412, "lon": -122.7298568}, {"type": "node", "id": 3983447449, "lat": 47.3430172, "lon": -122.7297198}, {"type": "node", "id": 3983447450, "lat": 47.3430656, "lon": -122.7298742}, {"type": "node", "id": 3985125885, "lat": 47.3393124, "lon": -122.7456679}, {"type": "node", "id": 3985125887, "lat": 47.3390969, "lon": -122.7463715}, {"type": "node", "id": 3985125888, "lat": 47.3389818, "lon": -122.7461372}, {"type": "node", "id": 3985125889, "lat": 47.3387114, "lon": -122.7463418}, {"type": "node", "id": 3985125890, "lat": 47.3387976, "lon": -122.7465942}, {"type": "node", "id": 3985125899, "lat": 47.3392171, "lon": -122.7444499}, {"type": "node", "id": 3985125900, "lat": 47.3394034, "lon": -122.7443884}, {"type": "node", "id": 3985125901, "lat": 47.3393612, "lon": -122.7441098}, {"type": "node", "id": 3985125902, "lat": 47.3391749, "lon": -122.7441712}, {"type": "node", "id": 3985125903, "lat": 47.3392015, "lon": -122.7469733}, {"type": "node", "id": 3985125904, "lat": 47.3393578, "lon": -122.7468419}, {"type": "node", "id": 3985125905, "lat": 47.3394335, "lon": -122.7470381}, {"type": "node", "id": 3985125906, "lat": 47.3393281, "lon": -122.7471268}, {"type": "node", "id": 3985125907, "lat": 47.3392876, "lon": -122.747022}, {"type": "node", "id": 3985125908, "lat": 47.3392368, "lon": -122.7470647}, {"type": "node", "id": 3985126361, "lat": 47.3410388, "lon": -122.7468481}, {"type": "node", "id": 3985126362, "lat": 47.3409167, "lon": -122.7468453}, {"type": "node", "id": 3985126363, "lat": 47.3409158, "lon": -122.7471599}, {"type": "node", "id": 3985126364, "lat": 47.3410372, "lon": -122.7471577}, {"type": "node", "id": 3985126365, "lat": 47.3410631, "lon": -122.7460312}, {"type": "node", "id": 3985126366, "lat": 47.340909, "lon": -122.7460258}, {"type": "node", "id": 3985126367, "lat": 47.3409046, "lon": -122.7463025}, {"type": "node", "id": 3985126368, "lat": 47.3410587, "lon": -122.7463078}, {"type": "node", "id": 3985126373, "lat": 47.3410185, "lon": -122.7453209}, {"type": "node", "id": 3985126374, "lat": 47.3409356, "lon": -122.7453076}, {"type": "node", "id": 3985126375, "lat": 47.3408847, "lon": -122.7453946}, {"type": "node", "id": 3985126376, "lat": 47.3408729, "lon": -122.7455543}, {"type": "node", "id": 3985126377, "lat": 47.3409999, "lon": -122.7455746}, {"type": "node", "id": 3985126378, "lat": 47.3409723, "lon": -122.7456725}, {"type": "node", "id": 3985126379, "lat": 47.340886, "lon": -122.7456692}, {"type": "node", "id": 3985126380, "lat": 47.3408835, "lon": -122.7458095}, {"type": "node", "id": 3985126381, "lat": 47.3409699, "lon": -122.7458128}, {"type": "node", "id": 4042823964, "lat": 47.3451662, "lon": -122.7305152}, {"type": "node", "id": 4042823965, "lat": 47.345183, "lon": -122.7304026}, {"type": "node", "id": 4042823966, "lat": 47.3454385, "lon": -122.7304857}, {"type": "node", "id": 4042823967, "lat": 47.3454217, "lon": -122.7305984}, {"type": "node", "id": 8973148908, "lat": 47.3397328, "lon": -122.7449318, "tags": {"addr:city": "Lakebay", "addr:housenumber": "9023", "addr:postcode": "98349", "addr:state": "WA", "addr:street": "Key Peninsula Highway North", "addr:unit": "104", "amenity": "fast_food", "brand": "Subway", "brand:wikidata": "Q244457", "cuisine": "sandwich", "name": "Subway", "opening_hours": "Mo-We 08:30-20:00; Th 08:30-22:00; Fr-Sa 08:30-22:30; Su 09:00-20:00", "phone": "+1-253-884-9715", "takeaway": "yes", "website": "https://restaurants.subway.com/united-states/wa/lakebay/9023-key-peninsula-hwy-north"}}, {"type": "node", "id": 9916116006, "lat": 47.3410375, "lon": -122.7470469}, {"type": "node", "id": 9916116007, "lat": 47.3410384, "lon": -122.7469931}, {"type": "node", "id": 9916116008, "lat": 47.3410554, "lon": -122.747047}, {"type": "node", "id": 9916116009, "lat": 47.3410555, "lon": -122.7469932}, {"type": "node", "id": 9916116010, "lat": 47.3410009, "lon": -122.7468479}, {"type": "node", "id": 9916116011, "lat": 47.3409585, "lon": -122.7468455}, {"type": "node", "id": 9916116012, "lat": 47.3410009, "lon": -122.7468177}, {"type": "node", "id": 9916116013, "lat": 47.3409585, "lon": -122.7468175}, {"type": "node", "id": 9916116014, "lat": 47.3409475, "lon": -122.7471601}, {"type": "node", "id": 9916116015, "lat": 47.341009, "lon": -122.7471575}, {"type": "node", "id": 9916116016, "lat": 47.3410087, "lon": -122.7472407}, {"type": "node", "id": 9916169817, "lat": 47.3409472, "lon": -122.7472403}, {"type": "node", "id": 9916169827, "lat": 47.3396795, "lon": -122.7449624, "tags": {"amenity": "fast_food", "brand": "Figaro's Pizza", "brand:wikidata": "Q48802600", "cuisine": "pizza", "name": "Figaro's Pizza", "takeaway": "yes"}}, {"type": "node", "id": 9916169842, "lat": 47.3394672, "lon": -122.7452855, "tags": {"alt_name": "Key Center IGA", "name": "Key IGA", "shop": "supermarket"}}, {"type": "node", "id": 9916169843, "lat": 47.3396272, "lon": -122.7450044, "tags": {"name": "The Cellar at Food Market", "shop": "alcohol"}}, {"type": "node", "id": 9916169844, "lat": 47.3395882, "lon": -122.7452728, "tags": {"amenity": "cafe", "cuisine": "coffee_shop", "name": "Close to Home Espresso"}}, {"type": "node", "id": 9916169848, "lat": 47.3390543, "lon": -122.746247}, {"type": "node", "id": 9916169849, "lat": 47.3390264, "lon": -122.7462678}, {"type": "node", "id": 9916169850, "lat": 47.3387982, "lon": -122.7462738}, {"type": "node", "id": 9916169851, "lat": 47.3387195, "lon": -122.7463358}, {"type": "node", "id": 9916169852, "lat": 47.3386911, "lon": -122.7462528}, {"type": "node", "id": 9916169853, "lat": 47.3387708, "lon": -122.7461935}, {"type": "node", "id": 10920660586, "lat": 47.3403497, "lon": -122.7429451, "tags": {"addr:city": "Lakebay", "addr:housenumber": "9127", "addr:postcode": "98349", "addr:state": "WA", "addr:street": "154th Avenue Court NW", "name": "Food Backpacks 4 Kids", "office": "association", "opening_hours": "We-Fr 12:00-16:00", "website": "https://www.foodbackpacks4kids.org/"}}, {"type": "node", "id": 10920688864, "lat": 47.338388, "lon": -122.7465362, "tags": {"addr:city": "Lakebay", "addr:housenumber": "8905", "addr:postcode": "98349", "addr:state": "WA", "addr:street": "Key Peninsula Highway Northwest", "amenity": "library", "name": "Key Center Pierce County Library", "opening_hours": "Mo-We 10:00-19:00, Th-Fr 10:00-18:00, Sa 10:00-17:00", "operator": "Pierce County", "operator:type": "government_facility-public"}}, {"type": "node", "id": 12170898271, "lat": 47.3396865, "lon": -122.7456193, "tags": {"amenity": "polling_station", "location": "outdoor", "polling_station": "ballot_box"}}, {"type": "node", "id": 12988496588, "lat": 47.3392602, "lon": -122.7455429}, {"type": "node", "id": 12988496589, "lat": 47.3391963, "lon": -122.7456009}, {"type": "node", "id": 12988496590, "lat": 47.3392484, "lon": -122.745726}, {"type": "node", "id": 12988496591, "lat": 47.3395685, "lon": -122.7434026}, {"type": "node", "id": 12988496592, "lat": 47.3395153, "lon": -122.7430691}, {"type": "node", "id": 12988496593, "lat": 47.3387544, "lon": -122.7433335}, {"type": "node", "id": 12988496594, "lat": 47.3388075, "lon": -122.7436669}, {"type": "node", "id": 12989023372, "lat": 47.3405984, "lon": -122.7469809}, {"type": "node", "id": 12989023373, "lat": 47.3401553, "lon": -122.7471655}, {"type": "node", "id": 12989023374, "lat": 47.3399699, "lon": -122.7466049}, {"type": "node", "id": 12989023375, "lat": 47.3399626, "lon": -122.7462777}, {"type": "node", "id": 12989023376, "lat": 47.3402099, "lon": -122.7461293}, {"type": "node", "id": 12989023377, "lat": 47.3405834, "lon": -122.746662}, {"type": "node", "id": 12996451481, "lat": 47.3403447, "lon": -122.7466697}, {"type": "node", "id": 12996451482, "lat": 47.3409584, "lon": -122.7453113, "tags": {"entrance": "main"}}, {"type": "node", "id": 12996451483, "lat": 47.3408851, "lon": -122.7457209, "tags": {"entrance": "yes"}}, {"type": "node", "id": 12996468508, "lat": 47.3412733, "lon": -122.7468428, "tags": {"amenity": "post_box"}}, {"type": "node", "id": 12996468509, "lat": 47.3410009, "lon": -122.7468304, "tags": {"entrance": "main", "wheelchair": "yes"}}, {"type": "node", "id": 12996468510, "lat": 47.3410555, "lon": -122.7470201, "tags": {"entrance": "yes", "wheelchair": "yes"}}, {"type": "node", "id": 12996468511, "lat": 47.3410089, "lon": -122.7471991, "tags": {"access": "permissive", "amenity": "loading_dock"}}, {"type": "node", "id": 12996468514, "lat": 47.3410584, "lon": -122.7471427}, {"type": "node", "id": 12996468515, "lat": 47.3410571, "lon": -122.7466625}, {"type": "node", "id": 12996468516, "lat": 47.3411746, "lon": -122.7467329}, {"type": "node", "id": 12996468517, "lat": 47.341224, "lon": -122.7467347}, {"type": "node", "id": 12996468518, "lat": 47.3412257, "lon": -122.7470834}, {"type": "node", "id": 12996468519, "lat": 47.3411713, "lon": -122.7471063}, {"type": "node", "id": 12996468520, "lat": 47.3411713, "lon": -122.747126}, {"type": "node", "id": 12996468521, "lat": 47.3413143, "lon": -122.7472649}, {"type": "node", "id": 12996468522, "lat": 47.3412901, "lon": -122.7473254}, {"type": "node", "id": 12996468523, "lat": 47.3411608, "lon": -122.7473186}, {"type": "node", "id": 12996468524, "lat": 47.3411165, "lon": -122.7472235}, {"type": "node", "id": 12996468525, "lat": 47.3411123, "lon": -122.7471458}, {"type": "node", "id": 12996468526, "lat": 47.3406397, "lon": -122.744443}, {"type": "node", "id": 12996468527, "lat": 47.3404424, "lon": -122.7446102}, {"type": "node", "id": 12996468528, "lat": 47.3405093, "lon": -122.7447861}, {"type": "node", "id": 12996468529, "lat": 47.3406502, "lon": -122.7446797}, {"type": "node", "id": 12996468530, "lat": 47.3406453, "lon": -122.7445699, "tags": {"entrance": "yes"}}, {"type": "node", "id": 12996468532, "lat": 47.338739, "lon": -122.7474389, "tags": {"name": "Serve Nutrition", "opening_hours": "Mo-Fr 08:00-16:00", "shop": "health_food", "website": "https://www.servenutritionkp.com/"}}, {"type": "node", "id": 12996468534, "lat": 47.3388066, "lon": -122.7474088, "tags": {"amenity": "dentist", "healthcare": "dentist", "name": "Custom Dentures DIrect", "website": "https://www.customdenturesdirect.com/"}}, {"type": "node", "id": 13341732386, "lat": 47.3405263, "lon": -122.7452675, "tags": {"amenity": "bench", "armrest": "no", "backrest": "yes", "colour": "sky blue", "material": "wood"}}, {"type": "way", "id": 395485936, "nodes": [3983444821, 3983444822, 3983444823, 3983444824, 3983444821], "tags": {"amenity": "toilets", "building": "yes", "name": "Shower House"}}, {"type": "way", "id": 395485964, "nodes": [3983447448, 3983447449, 3983447450, 3983447448], "tags": {"amenity": "bench"}}, {"type": "way", "id": 395687363, "nodes": [3985125887, 9916169848, 9916169849, 3985125888, 9916169850, 9916169853, 9916169852, 9916169851, 3985125889, 3985125890, 3985125887], "tags": {"amenity": "fire_station", "building": "yes", "name": "Key Peninsula Fire Department"}}, {"type": "way", "id": 395687366, "nodes": [3985125899, 3985125900, 3985125901, 3985125902, 3985125899], "tags": {"addr:city": "Gig Harbor", "addr:housenumber": "9016", "addr:postcode": "98349", "addr:state": "WA", "addr:street": "154th Avenue Court Northwest", "amenity": "social_facility", "building": "yes", "name": "The Mustard Seed Project of Key Peninsula", "social_facility": "assisted_living", "social_facility:for": "senior"}}, {"type": "way", "id": 395687367, "nodes": [3985125903, 3985125904, 3985125905, 3985125906, 3985125907, 3985125908, 3985125903], "tags": {"addr:city": "Lakebay", "addr:housenumber": "8920", "addr:postcode": "98349", "addr:state": "WA", "addr:street": "Key Peninsula Highway Northwest", "amenity": "bank", "building": "yes", "name": "Sound Credit Union"}}, {"type": "way", "id": 395687377, "nodes": [3985126361, 9916116010, 12996468509, 9916116012, 9916116013, 9916116011, 3985126362, 3985126363, 9916116014, 9916169817, 9916116016, 12996468511, 9916116015, 3985126364, 9916116006, 9916116008, 12996468510, 9916116009, 9916116007, 3985126361], "tags": {"addr:city": "Vaugn", "addr:housenumber": "15613", "addr:postcode": "98394", "addr:state": "WA", "addr:street": "Olson Drive Northwest", "amenity": "post_office", "branch": "Vaughn", "building": "yes", "fax": "+1-253-884-9079", "name": "United States Post Office", "opening_hours": "Mo-Fr 08:00-12:00,12:30-16:30; Sa 09:00-11:00", "operator": "United States Postal Service", "operator:short": "USPS", "operator:type": "public", "operator:website": "https://www.usps.com", "operator:wikidata": "Q668687", "operator:wikipedia": "en:United States Postal Service", "phone": "+1-253-884-2564", "ref": "1385783", "short_name": "USPS"}}, {"type": "way", "id": 395687378, "nodes": [3985126365, 3985126366, 3985126367, 3985126368, 3985126365], "tags": {"amenity": "restaurant", "building": "yes", "cuisine": "mexican", "name": "El Sombrero", "takeaway": "yes"}}, {"type": "way", "id": 395687380, "nodes": [3985126373, 12996451482, 3985126374, 3985126375, 3985126376, 3985126377, 3985126373], "tags": {"building": "yes", "name": "KP Smoke Shop", "shop": "tobacco"}}, {"type": "way", "id": 395687381, "nodes": [3985126378, 3985126379, 12996451483, 3985126380, 3985126381, 3985126378], "tags": {"addr:city": "Gig Harbor", "addr:housenumber": "15607", "addr:state": "WA", "addr:street": "92nd Street Northwest", "amenity": "cafe", "building": "yes", "name": "Madrona Cafe"}}, {"type": "way", "id": 401874180, "nodes": [4042823964, 4042823965, 4042823966, 4042823967, 4042823964], "tags": {"amenity": "parking"}}, {"type": "way", "id": 1413359298, "nodes": [3985125885, 12988496588, 12988496589, 12988496590, 3985125885], "tags": {"addr:city": "Lakebay", "addr:housenumber": "9013", "addr:postcode": "98349", "addr:state": "WA", "addr:street": "Key Peninsula Highway Northwest", "addr:unit": "E", "amenity": "post_office", "building": "retail", "name": "Goin' Postal"}}, {"type": "way", "id": 1413359299, "nodes": [12988496591, 12988496592, 12988496593, 12988496594, 12988496591], "tags": {"amenity": "social_facility", "name": "The Mustard Seed", "social_facility": "assisted_living", "social_facility:for": "senior", "website": "https://themustardseedproject.org/", "wheelchair": "yes"}}, {"type": "way", "id": 1413417256, "nodes": [12989023372, 12989023373, 12989023374, 12989023375, 12989023376, 12996451481, 12989023377, 12989023372], "tags": {"area": "yes", "name": "Sunnycrest Nursery", "shop": "garden_centre"}}, {"type": "way", "id": 1414331485, "nodes": [12996468514, 12996468515, 12996468516, 12996468517, 12996468518, 12996468519, 12996468520, 12996468521, 12996468522, 12996468523, 12996468524, 12996468525, 12996468514], "tags": {"access": "yes", "amenity": "parking"}}, {"type": "way", "id": 1414331486, "nodes": [12996468526, 12996468527, 12996468528, 12996468529, 12996468530, 12996468526], "tags": {"addr:city": "Gig Harbor", "addr:housenumber": "15510", "addr:state": "WA", "addr:street": "92nd Street Northwest", "building": "yes", "name": "Aspen Land Surveying", "office": "surveyor"}}]}