{"version": 0.6, "generator": "Overpass API 0.7.62.8 e802775f", "osm3s": {"timestamp_osm_base": "2025-12-08T22:06:44Z", "copyright": "The data included in this document is from www.openstreetmap.org. The data is made available under ODbL."}, "elements": [{"type": "node", "id": 44358044, "lat": 45.4562817, "lon": -112.1974506}, {"type": "node", "id": 357983843, "lat": 45.4559708, "lon": -112.1928575}, {"type": "node", "id": 357983921, "lat": 45.4536026, "lon": -112.1964994, "tags": {"addr:city": "Sheridan", "addr:housenumber": "304", "addr:postcode": "59749", "addr:street": "South Main Street", "amenity": "place_of_worship", "denomination": "anglican", "gnis:feature_id": "1797450", "name": "Christ Episcopal Church", "phone": "+1 406-842-7713", "religion": "christian", "website": "http://www.christepiscopalsheridanmt.org/", "wikidata": "Q5108899", "wikipedia": "en:Christ Episcopal Church and Rectory (Sheridan, Montana)"}}, {"type": "node", "id": 357983936, "lat": 45.454697, "lon": -112.1963267, "tags": {"amenity": "place_of_worship", "denomination": "methodist", "ele": "1559", "gnis:feature_id": "1797453;1797452", "name": "United Bethel Methodist Church", "religion": "christian"}}, {"type": "node", "id": 357983941, "lat": 45.4562254, "lon": -112.1991207, "tags": {"addr:city": "Sheridan", "addr:postcode": "59749", "amenity": "place_of_worship", "denomination": "baptist", "gnis:feature_id": "1797454", "name": "Ruby Valley Baptist Church", "phone": "+1 406-842-5602", "religion": "christian", "website": "http://rubyvalleybaptistchurch.com/"}}, {"type": "node", "id": 357984237, "lat": 45.4529809, "lon": -112.1922148, "tags": {"addr:city": "Sheridan", "addr:housenumber": "210", "addr:postcode": "59759", "addr:street": "East Crofoot Street", "amenity": "doctors", "gnis:feature_id": "1797547", "name": "Ruby Valley Medical Clinic", "opening_hours": "Mo-Fr 08:00-17:00", "phone": "+1 406 842 5056", "website": "https://www.rubyvalleyhospital.com/clinics"}}, {"type": "node", "id": 357984243, "lat": 45.4518697, "lon": -112.1916592, "tags": {"addr:city": "Sheridan", "addr:housenumber": "326", "addr:postcode": "59749", "addr:street": "Madison Street", "amenity": "nursing_home", "gnis:feature_id": "1797548", "name": "Tobacco Root Mountains Care Center", "phone": "+1 406 842 5600", "website": "https://www.madisoncountymt.gov/DocumentCenter/View/718"}}, {"type": "node", "id": 357984246, "lat": 45.4532953, "lon": -112.1918788}, {"type": "node", "id": 357984434, "lat": 45.4549692, "lon": -112.197146, "tags": {"amenity": "post_office", "ele": "1559", "gnis:feature_id": "1797608", "name": "Sheridan Post Office"}}, {"type": "node", "id": 366093258, "lat": 45.4560099, "lon": -112.1961194, "tags": {"addr:state": "MT", "amenity": "fire_station", "ele": "1559", "gnis:feature_id": "1797437", "name": "Sheridan Fire Department", "source": "USGS Geonames"}}, {"type": "node", "id": 366093423, "lat": 45.4562581, "lon": -112.1951795, "tags": {"addr:city": "Sheridan", "addr:housenumber": "109", "addr:postcode": "59749", "addr:state": "MT", "addr:street": "East Hamilton Street", "amenity": "library", "gnis:feature_id": "1797552", "name": "Sheridan Public Library", "opening_hours": "Tu-Sa 11:00-17:00", "phone": "+1 406-842-5770", "source": "USGS Geonames", "website": "https://sites.google.com/site/sheridanlibrary/", "wikidata": "Q69513874"}}, {"type": "node", "id": 3257154471, "lat": 45.4534373, "lon": -112.1917029}, {"type": "node", "id": 3257154472, "lat": 45.4538419, "lon": -112.1898785}, {"type": "node", "id": 3257154484, "lat": 45.4548795, "lon": -112.1912792}, {"type": "node", "id": 3257154486, "lat": 45.4550859, "lon": -112.1904121}, {"type": "node", "id": 3257154487, "lat": 45.4561785, "lon": -112.191801}, {"type": "node", "id": 4915617758, "lat": 45.4531139, "lon": -112.1927098}, {"type": "node", "id": 4915617759, "lat": 45.4523958, "lon": -112.1923748}, {"type": "node", "id": 4915617760, "lat": 45.4525494, "lon": -112.1915595}, {"type": "node", "id": 5283264559, "lat": 45.4564195, "lon": -112.1980214}, {"type": "node", "id": 5283264560, "lat": 45.4562582, "lon": -112.1979562}, {"type": "node", "id": 5283264561, "lat": 45.456321, "lon": -112.1976234}, {"type": "node", "id": 5283264562, "lat": 45.4564848, "lon": -112.1976933}, {"type": "node", "id": 5283264563, "lat": 45.4571264, "lon": -112.1980426}, {"type": "node", "id": 5283264564, "lat": 45.4569704, "lon": -112.198055}, {"type": "node", "id": 5283264565, "lat": 45.4569584, "lon": -112.1977494}, {"type": "node", "id": 5283264566, "lat": 45.4571145, "lon": -112.197737}, {"type": "node", "id": 5284890170, "lat": 45.4561314, "lon": -112.1978586}, {"type": "node", "id": 5284890171, "lat": 45.4560081, "lon": -112.1978041}, {"type": "node", "id": 5284890172, "lat": 45.45607, "lon": -112.197522}, {"type": "node", "id": 5284890173, "lat": 45.4561933, "lon": -112.1975743}, {"type": "node", "id": 5284890174, "lat": 45.4559966, "lon": -112.1977102}, {"type": "node", "id": 5284890175, "lat": 45.4559087, "lon": -112.1976636}, {"type": "node", "id": 5284890176, "lat": 45.4559516, "lon": -112.1974683}, {"type": "node", "id": 5284890177, "lat": 45.4560436, "lon": -112.197512}, {"type": "node", "id": 5284890178, "lat": 45.4558983, "lon": -112.1970144}, {"type": "node", "id": 5284890179, "lat": 45.4558729, "lon": -112.1970016}, {"type": "node", "id": 5284890180, "lat": 45.4558954, "lon": -112.1969106}, {"type": "node", "id": 5284890181, "lat": 45.4559209, "lon": -112.1969234}, {"type": "node", "id": 5284890182, "lat": 45.455976, "lon": -112.19707}, {"type": "node", "id": 5284890185, "lat": 45.456021, "lon": -112.1968659}, {"type": "node", "id": 5284890186, "lat": 45.4553481, "lon": -112.1975406}, {"type": "node", "id": 5284890187, "lat": 45.4552246, "lon": -112.1974949}, {"type": "node", "id": 5284890188, "lat": 45.4552581, "lon": -112.197311}, {"type": "node", "id": 5284890189, "lat": 45.4553816, "lon": -112.1973567}, {"type": "node", "id": 5284890190, "lat": 45.4562451, "lon": -112.1980226}, {"type": "node", "id": 5284890191, "lat": 45.4561882, "lon": -112.1980017}, {"type": "node", "id": 5284890192, "lat": 45.4562673, "lon": -112.1976035}, {"type": "node", "id": 5284890193, "lat": 45.4566491, "lon": -112.1973095}, {"type": "node", "id": 5284890194, "lat": 45.4565725, "lon": -112.1972966}, {"type": "node", "id": 5284890195, "lat": 45.456603, "lon": -112.1969258}, {"type": "node", "id": 5284890196, "lat": 45.4566796, "lon": -112.1969386}, {"type": "node", "id": 5284890197, "lat": 45.4565677, "lon": -112.1968952}, {"type": "node", "id": 5284890198, "lat": 45.4564381, "lon": -112.1968764}, {"type": "node", "id": 5284890199, "lat": 45.4564447, "lon": -112.1967843}, {"type": "node", "id": 5284890200, "lat": 45.4565743, "lon": -112.1968031}, {"type": "node", "id": 5284890201, "lat": 45.4538587, "lon": -112.1960628}, {"type": "node", "id": 5284890202, "lat": 45.4537294, "lon": -112.1960024}, {"type": "node", "id": 5284890203, "lat": 45.453752, "lon": -112.1959042}, {"type": "node", "id": 5284890204, "lat": 45.4538813, "lon": -112.1959645}, {"type": "node", "id": 5284890205, "lat": 45.455316, "lon": -112.1895787}, {"type": "node", "id": 5284890206, "lat": 45.4548753, "lon": -112.1894309}, {"type": "node", "id": 5284890207, "lat": 45.4545405, "lon": -112.1901156}, {"type": "node", "id": 7122709157, "lat": 45.4564176, "lon": -112.1970743}, {"type": "node", "id": 7122709159, "lat": 45.456588, "lon": -112.1971087}, {"type": "node", "id": 7122709160, "lat": 45.4563986, "lon": -112.1972452}, {"type": "node", "id": 7122709161, "lat": 45.456436, "lon": -112.1969083}, {"type": "node", "id": 7122709162, "lat": 45.456333, "lon": -112.1968851}, {"type": "node", "id": 7122709163, "lat": 45.4563027, "lon": -112.1972203}, {"type": "node", "id": 7122709170, "lat": 45.4559979, "lon": -112.1970792}, {"type": "node", "id": 7122709171, "lat": 45.4560425, "lon": -112.1968754}, {"type": "node", "id": 7122709176, "lat": 45.4588769, "lon": -112.1978111, "tags": {"name": "Alder Creek Coffee Company", "shop": "coffee"}}, {"type": "node", "id": 7122709177, "lat": 45.4562374, "lon": -112.1975912}, {"type": "node", "id": 7122709178, "lat": 45.4561917, "lon": -112.1978167}, {"type": "node", "id": 7122709179, "lat": 45.4562216, "lon": -112.197829}, {"type": "node", "id": 7122709180, "lat": 45.4561527, "lon": -112.197761}, {"type": "node", "id": 7122709181, "lat": 45.4561998, "lon": -112.1977786}, {"type": "node", "id": 7122709182, "lat": 45.4560077, "lon": -112.1976637}, {"type": "node", "id": 7122709183, "lat": 45.4560354, "lon": -112.1976788}, {"type": "node", "id": 7122709184, "lat": 45.4561878, "lon": -112.1974073}, {"type": "node", "id": 7122724785, "lat": 45.4562721, "lon": -112.1972412}, {"type": "node", "id": 7122724786, "lat": 45.4557745, "lon": -112.1970226}, {"type": "node", "id": 7122724787, "lat": 45.4556817, "lon": -112.1971737, "tags": {"crossing": "marked", "highway": "crossing"}}, {"type": "node", "id": 7122724790, "lat": 45.4556794, "lon": -112.1972895}, {"type": "node", "id": 7122724791, "lat": 45.4557358, "lon": -112.1971987}, {"type": "node", "id": 7122724792, "lat": 45.4565264, "lon": -112.1975123}, {"type": "node", "id": 7122724793, "lat": 45.4564565, "lon": -112.1976368}, {"type": "node", "id": 7122724794, "lat": 45.456257, "lon": -112.1975577}, {"type": "node", "id": 8881488783, "lat": 45.4534051, "lon": -112.1978286}, {"type": "node", "id": 8881488784, "lat": 45.4532333, "lon": -112.1977426}, {"type": "node", "id": 8881488785, "lat": 45.4532201, "lon": -112.1977962}, {"type": "node", "id": 8881488786, "lat": 45.4532521, "lon": -112.1978122}, {"type": "node", "id": 8881488787, "lat": 45.4532434, "lon": -112.1978475}, {"type": "node", "id": 8881488788, "lat": 45.4532727, "lon": -112.1978622}, {"type": "node", "id": 8881488789, "lat": 45.4532679, "lon": -112.197882}, {"type": "node", "id": 8881488790, "lat": 45.4533784, "lon": -112.1979373}, {"type": "node", "id": 8889304028, "lat": 45.4533876, "lon": -112.1978733}, {"type": "node", "id": 8889304029, "lat": 45.45341, "lon": -112.1976331}, {"type": "node", "id": 8889304030, "lat": 45.4534787, "lon": -112.1973342}, {"type": "node", "id": 8889304031, "lat": 45.4533916, "lon": -112.1972934}, {"type": "node", "id": 8889304032, "lat": 45.4533228, "lon": -112.1975923}, {"type": "node", "id": 9956251955, "lat": 45.4568319, "lon": -112.1973921}, {"type": "node", "id": 9956251956, "lat": 45.4566607, "lon": -112.1973574}, {"type": "node", "id": 9956251957, "lat": 45.4566832, "lon": -112.1971321}, {"type": "node", "id": 9956251958, "lat": 45.4567385, "lon": -112.1971433}, {"type": "node", "id": 9956251959, "lat": 45.4567326, "lon": -112.1972023}, {"type": "node", "id": 9956251960, "lat": 45.4568485, "lon": -112.1972259}, {"type": "node", "id": 12292704953, "lat": 45.4534403, "lon": -112.1974924}, {"type": "way", "id": 319302044, "nodes": [357983843, 3257154471, 3257154472, 5284890207, 5284890206, 5284890205, 3257154486, 3257154484, 3257154487, 357983843], "tags": {"amenity": "school", "gnis:feature_id": "1797429", "name": "Sheridan Public Schools", "phone": "+1 406-842-5401", "website": "https://www.sheridan.k12.mt.us/"}}, {"type": "way", "id": 500530425, "nodes": [357984246, 4915617760, 4915617759, 4915617758, 357984246], "tags": {"addr:city": "Sheridan", "addr:housenumber": "220", "addr:postcode": "59759", "addr:state": "MT", "addr:street": "East Crofoot Street", "amenity": "hospital", "emergency": "yes", "gnis:feature_id": "1797549", "healthcare": "hospital", "name": "Ruby Valley Hospital", "opening_hours": "24/7", "phone": "+1 406 842 5453", "website": "https://www.rubyvalleyhospital.com/"}}, {"type": "way", "id": 546735101, "nodes": [5283264559, 5283264560, 5283264561, 5283264562, 5283264559], "tags": {"building": "yes", "name": "IGA", "shop": "supermarket"}}, {"type": "way", "id": 546735102, "nodes": [5283264563, 5283264564, 5283264565, 5283264566, 5283264563], "tags": {"amenity": "bank", "building": "yes", "name": "Ruby Valley Bank"}}, {"type": "way", "id": 546925759, "nodes": [5284890170, 5284890171, 7122709183, 5284890172, 5284890173, 7122709180, 5284890170], "tags": {"building": "yes", "name": "NAPA Auto Parts", "shop": "car_parts"}}, {"type": "way", "id": 546925760, "nodes": [5284890174, 5284890175, 5284890176, 5284890177, 7122709182, 5284890174], "tags": {"amenity": "bar", "building": "yes", "name": "Stockman Bar"}}, {"type": "way", "id": 546925761, "nodes": [5284890178, 5284890179, 5284890180, 5284890181, 5284890178], "tags": {"amenity": "bank", "building": "yes", "name": "ATM"}}, {"type": "way", "id": 546925763, "nodes": [5284890186, 5284890187, 5284890188, 5284890189, 5284890186], "tags": {"amenity": "fuel", "compressed_air": "no", "name": "McCleod Mercantile"}}, {"type": "way", "id": 546925764, "nodes": [5284890190, 5284890191, 7122709179, 5284890192, 5283264561, 5284890190], "tags": {"building": "yes", "name": "Headlines", "shop": "hairdresser"}}, {"type": "way", "id": 546925765, "nodes": [5284890193, 5284890194, 7122709159, 5284890195, 5284890196, 5284890193], "tags": {"amenity": "restaurant", "building": "yes", "name": "The Shovel & Spoon"}}, {"type": "way", "id": 546925766, "nodes": [5284890197, 5284890198, 5284890199, 5284890200, 5284890197], "tags": {"building": "yes", "name": "Kindred Spirit Gift Gallery", "shop": "yes"}}, {"type": "way", "id": 546925767, "nodes": [5284890201, 5284890202, 5284890203, 5284890204, 5284890201], "tags": {"amenity": "car_wash", "building": "yes"}}, {"type": "way", "id": 762289216, "nodes": [7122709160, 7122709157, 7122709161, 7122709162, 7122709163, 7122709160], "tags": {"amenity": "parking"}}, {"type": "way", "id": 762289218, "nodes": [5284890182, 7122709170, 7122709171, 5284890185, 5284890182], "tags": {"amenity": "restaurant", "building": "yes", "cuisine": "bakery", "name": "Bread Zepplin"}}, {"type": "way", "id": 762289220, "nodes": [5284890192, 7122709177, 7122709181, 7122709178, 7122709179, 5284890192], "tags": {"building": "yes", "name": "Clear Creek Reality", "office": "estate_agent"}}, {"type": "way", "id": 762289221, "nodes": [7122709177, 5284890173, 7122709180, 7122709181, 7122709177], "tags": {"building": "yes", "name": "RW Outdoors", "shop": "sports"}}, {"type": "way", "id": 762289223, "nodes": [7122709184, 7122724785, 7122724786, 7122724787, 7122724791, 7122709184], "tags": {"amenity": "parking"}}, {"type": "way", "id": 762289225, "nodes": [7122724790, 7122724791, 44358044, 7122724792, 7122724793, 7122724794, 7122724790], "tags": {"amenity": "parking"}}, {"type": "way", "id": 959923761, "nodes": [8881488790, 8881488789, 8881488788, 8881488787, 8881488786, 8881488785, 8881488784, 8881488783, 8889304028, 8881488790], "tags": {"addr:city": "Sheridan", "addr:housenumber": "105", "addr:postcode": "59746", "addr:state": "MT", "addr:street": "West Poppelton Street", "amenity": "place_of_worship", "building": "church", "denomination": "roman_catholic", "diocese": "Helena", "fax": "+1 406-842-7433", "gnis:feature_id": "1797455", "name": "Saint Joseph Catholic Church", "phone": "+1 406-842-5588", "religion": "christian"}}, {"type": "way", "id": 960937449, "nodes": [8889304029, 8889304032, 8889304031, 8889304030, 12292704953, 8889304029], "tags": {"building": "office", "denomination": "roman_catholic", "description": "A pastoral unit comprised of St. Patrick Parish, Ennis; St. Mary of the Assumption Parish, Laurin, St. Joseph Parish, Sheridan and Notre Dame, Twin Bridges", "diocese": "Helena", "fax": "+1 406-842-7433", "name": "Madison County Catholic Community", "office": "religion", "phone": "+1 406-842-5588", "religion": "christian"}}, {"type": "way", "id": 1086592821, "nodes": [9956251955, 9956251956, 9956251957, 9956251958, 9956251959, 9956251960, 9956251955], "tags": {"amenity": "restaurant", "building": "yes", "name": "The Prospector Drive-in"}}]}