{"version": 0.6, "generator": "Overpass API 0.7.62.8 e802775f", "osm3s": {"timestamp_osm_base": "2025-12-12T18:30:03Z", "copyright": "The data included in this document is from www.openstreetmap.org. The data is made available under ODbL."}, "elements": [{"type": "node", "id": 366395475, "lat": 39.4728036, "lon": -104.8775297}, {"type": "node", "id": 456354517, "lat": 39.4925452, "lon": -104.9179143, "tags": {"amenity": "parking"}}, {"type": "node", "id": 928448801, "lat": 39.4688485, "lon": -104.8794904}, {"type": "node", "id": 928448862, "lat": 39.4682996, "lon": -104.8812416}, {"type": "node", "id": 928448990, "lat": 39.4687966, "lon": -104.8794606}, {"type": "node", "id": 928449091, "lat": 39.4689746, "lon": -104.878964}, {"type": "node", "id": 928449374, "lat": 39.4694399, "lon": -104.8808755}, {"type": "node", "id": 928449463, "lat": 39.468292, "lon": -104.8808592}, {"type": "node", "id": 928449511, "lat": 39.4695982, "lon": -104.8797103}, {"type": "node", "id": 928449992, "lat": 39.4686974, "lon": -104.8799275}, {"type": "node", "id": 928450047, "lat": 39.4695325, "lon": -104.8793924}, {"type": "node", "id": 928450095, "lat": 39.4687493, "lon": -104.8798422}, {"type": "node", "id": 928450507, "lat": 39.468863, "lon": -104.8816804}, {"type": "node", "id": 928580623, "lat": 39.4740481, "lon": -104.899048}, {"type": "node", "id": 928580626, "lat": 39.4735264, "lon": -104.8997346}, {"type": "node", "id": 928580637, "lat": 39.4723421, "lon": -104.8998527}, {"type": "node", "id": 928580640, "lat": 39.4724497, "lon": -104.8993269}, {"type": "node", "id": 928580643, "lat": 39.4724994, "lon": -104.8989836}, {"type": "node", "id": 928580644, "lat": 39.4725243, "lon": -104.8985437}, {"type": "node", "id": 928580646, "lat": 39.472516, "lon": -104.8980931}, {"type": "node", "id": 928580648, "lat": 39.4724249, "lon": -104.8974709}, {"type": "node", "id": 928580650, "lat": 39.4735347, "lon": -104.897149}, {"type": "node", "id": 928580665, "lat": 39.465418, "lon": -104.8928575}, {"type": "node", "id": 928580668, "lat": 39.4653932, "lon": -104.8938874}, {"type": "node", "id": 928580669, "lat": 39.4653435, "lon": -104.8941878}, {"type": "node", "id": 928580671, "lat": 39.4652524, "lon": -104.8945097}, {"type": "node", "id": 928580685, "lat": 39.4648217, "lon": -104.8952607}, {"type": "node", "id": 928580689, "lat": 39.4651695, "lon": -104.8955075}, {"type": "node", "id": 928580690, "lat": 39.4653352, "lon": -104.8953573}, {"type": "node", "id": 928580691, "lat": 39.4654926, "lon": -104.8952393}, {"type": "node", "id": 928580692, "lat": 39.4657162, "lon": -104.8951534}, {"type": "node", "id": 928580693, "lat": 39.4665196, "lon": -104.8950032}, {"type": "node", "id": 928580696, "lat": 39.4671822, "lon": -104.8945741}, {"type": "node", "id": 928580700, "lat": 39.4670828, "lon": -104.8937801}, {"type": "node", "id": 928580703, "lat": 39.4671325, "lon": -104.8934905}, {"type": "node", "id": 928580705, "lat": 39.4663788, "lon": -104.8933617}, {"type": "node", "id": 928580706, "lat": 39.4659316, "lon": -104.8929218}, {"type": "node", "id": 928580709, "lat": 39.4657742, "lon": -104.8928467}, {"type": "node", "id": 980022562, "lat": 39.4913405, "lon": -104.8997468, "tags": {"amenity": "toilets"}}, {"type": "node", "id": 980022563, "lat": 39.4908996, "lon": -104.9003798}, {"type": "node", "id": 980022564, "lat": 39.4910094, "lon": -104.9001116}, {"type": "node", "id": 980022565, "lat": 39.491117, "lon": -104.8999587}, {"type": "node", "id": 980022567, "lat": 39.4913012, "lon": -104.8998193}, {"type": "node", "id": 980022570, "lat": 39.4912702, "lon": -104.899771}, {"type": "node", "id": 980022572, "lat": 39.4912929, "lon": -104.8997442}, {"type": "node", "id": 980022573, "lat": 39.4912433, "lon": -104.8996798}, {"type": "node", "id": 980022574, "lat": 39.4912205, "lon": -104.8996986}, {"type": "node", "id": 980022575, "lat": 39.4911915, "lon": -104.899661}, {"type": "node", "id": 980022576, "lat": 39.4909949, "lon": -104.8998166}, {"type": "node", "id": 980022577, "lat": 39.4908976, "lon": -104.8999453}, {"type": "node", "id": 980022578, "lat": 39.4908417, "lon": -104.9000633}, {"type": "node", "id": 980022579, "lat": 39.4907713, "lon": -104.9002726}, {"type": "node", "id": 2102284990, "lat": 39.4713418, "lon": -104.8767071}, {"type": "node", "id": 2102284991, "lat": 39.4713434, "lon": -104.8769114}, {"type": "node", "id": 2102284992, "lat": 39.4713857, "lon": -104.876454}, {"type": "node", "id": 2102284995, "lat": 39.4713878, "lon": -104.8767065}, {"type": "node", "id": 2102284998, "lat": 39.4714848, "lon": -104.8764526}, {"type": "node", "id": 2102284999, "lat": 39.4714886, "lon": -104.8769093}, {"type": "node", "id": 2102302778, "lat": 39.4699607, "lon": -104.8828079}, {"type": "node", "id": 2102302779, "lat": 39.4701268, "lon": -104.8824259}, {"type": "node", "id": 2102302780, "lat": 39.470255, "lon": -104.8830161}, {"type": "node", "id": 2102302781, "lat": 39.4704229, "lon": -104.8826828}, {"type": "node", "id": 2102302782, "lat": 39.470814, "lon": -104.8842786}, {"type": "node", "id": 2102302783, "lat": 39.4708154, "lon": -104.8839341}, {"type": "node", "id": 2102302784, "lat": 39.4708754, "lon": -104.8843404}, {"type": "node", "id": 2102302785, "lat": 39.4708756, "lon": -104.8842789}, {"type": "node", "id": 2102302786, "lat": 39.470871, "lon": -104.8839345}, {"type": "node", "id": 2102302787, "lat": 39.4708712, "lon": -104.8838681}, {"type": "node", "id": 2102302788, "lat": 39.4710891, "lon": -104.8843416}, {"type": "node", "id": 2102302789, "lat": 39.4710907, "lon": -104.8838694}, {"type": "node", "id": 2260269881, "lat": 39.490405, "lon": -104.8992615}, {"type": "node", "id": 2260269897, "lat": 39.4901217, "lon": -104.8989202}, {"type": "node", "id": 2260269950, "lat": 39.490012, "lon": -104.8990757}, {"type": "node", "id": 2260269960, "lat": 39.4902935, "lon": -104.8994271}, {"type": "node", "id": 2260307870, "lat": 39.4871647, "lon": -104.9142866}, {"type": "node", "id": 2260307984, "lat": 39.4869836, "lon": -104.9145783}, {"type": "node", "id": 2260307994, "lat": 39.4869665, "lon": -104.9145319}, {"type": "node", "id": 2260307997, "lat": 39.4873019, "lon": -104.9143664}, {"type": "node", "id": 2260308005, "lat": 39.4868222, "lon": -104.9145172}, {"type": "node", "id": 2260308014, "lat": 39.4867607, "lon": -104.9141752}, {"type": "node", "id": 2260308017, "lat": 39.4870956, "lon": -104.9140653}, {"type": "node", "id": 2260308020, "lat": 39.4868666, "lon": -104.9145025}, {"type": "node", "id": 2260308034, "lat": 39.4872767, "lon": -104.9142946}, {"type": "node", "id": 2512351531, "lat": 39.468588, "lon": -104.879621, "tags": {"addr:city": "Castle Pines", "addr:housenumber": "7284", "addr:postcode": "80108", "addr:state": "CO", "addr:street": "Lagae Road", "brand": "King Soopers", "brand:wikidata": "Q6412065", "name": "King Soopers", "shop": "supermarket"}}, {"type": "node", "id": 2512351584, "lat": 39.468956, "lon": -104.8821098}, {"type": "node", "id": 2512351592, "lat": 39.4690944, "lon": -104.8820496}, {"type": "node", "id": 2512351593, "lat": 39.4690956, "lon": -104.8816517}, {"type": "node", "id": 2512351597, "lat": 39.4691733, "lon": -104.8815009}, {"type": "node", "id": 2512351599, "lat": 39.4692212, "lon": -104.8823494}, {"type": "node", "id": 2512351603, "lat": 39.4692759, "lon": -104.8822373}, {"type": "node", "id": 2512351607, "lat": 39.4692922, "lon": -104.8822048}, {"type": "node", "id": 2512351608, "lat": 39.4693131, "lon": -104.8816216}, {"type": "node", "id": 2512351644, "lat": 39.4697183, "lon": -104.8827512}, {"type": "node", "id": 2512351645, "lat": 39.4697207, "lon": -104.8828721}, {"type": "node", "id": 2512351666, "lat": 39.4699638, "lon": -104.882263}, {"type": "node", "id": 2512351673, "lat": 39.4701791, "lon": -104.874064}, {"type": "node", "id": 2512351674, "lat": 39.4701737, "lon": -104.8745363}, {"type": "node", "id": 2512351679, "lat": 39.4702241, "lon": -104.8832967}, {"type": "node", "id": 2512351686, "lat": 39.4702926, "lon": -104.8745385}, {"type": "node", "id": 2512351687, "lat": 39.4703061, "lon": -104.8739364}, {"type": "node", "id": 2512351688, "lat": 39.4703468, "lon": -104.8832633}, {"type": "node", "id": 2512351701, "lat": 39.4705555, "lon": -104.8828275}, {"type": "node", "id": 2512351712, "lat": 39.4707557, "lon": -104.8739343}, {"type": "node", "id": 2512351716, "lat": 39.4708097, "lon": -104.8754142}, {"type": "node", "id": 2512351720, "lat": 39.4708875, "lon": -104.8753245}, {"type": "node", "id": 2512351721, "lat": 39.4708993, "lon": -104.8738322}, {"type": "node", "id": 2512351725, "lat": 39.4710396, "lon": -104.8757183}, {"type": "node", "id": 2512351731, "lat": 39.4711298, "lon": -104.8757589}, {"type": "node", "id": 2512351733, "lat": 39.4712638, "lon": -104.8745267}, {"type": "node", "id": 2512351737, "lat": 39.4713488, "lon": -104.8744223}, {"type": "node", "id": 2512351738, "lat": 39.4713332, "lon": -104.8756893}, {"type": "node", "id": 2512351744, "lat": 39.4715221, "lon": -104.8754479}, {"type": "node", "id": 2512351745, "lat": 39.4715524, "lon": -104.8748823}, {"type": "node", "id": 2512351808, "lat": 39.4731486, "lon": -104.8910272}, {"type": "node", "id": 2512351812, "lat": 39.4732413, "lon": -104.8911843}, {"type": "node", "id": 2512351814, "lat": 39.473491, "lon": -104.8907962}, {"type": "node", "id": 2512351817, "lat": 39.4735285, "lon": -104.8909925}, {"type": "node", "id": 3882986858, "lat": 39.4692151, "lon": -104.882, "tags": {"addr:city": "Castle Pines", "addr:housenumber": "7298", "addr:postcode": "80108", "addr:state": "CO", "addr:street": "Lagae Road", "amenity": "cafe", "cuisine": "coffee", "internet_access": "yes", "name": "Ziggie's Coffee"}}, {"type": "node", "id": 5545986811, "lat": 39.4726799, "lon": -104.8773645}, {"type": "node", "id": 5545987277, "lat": 39.4729431, "lon": -104.9156892}, {"type": "node", "id": 5546133965, "lat": 39.4713086, "lon": -104.8745782}, {"type": "node", "id": 5546133966, "lat": 39.4714457, "lon": -104.8747492}, {"type": "node", "id": 5546134086, "lat": 39.4685059, "lon": -104.8985553}, {"type": "node", "id": 6387140931, "lat": 39.4739915, "lon": -104.8992096}, {"type": "node", "id": 6387140932, "lat": 39.4739757, "lon": -104.8993029}, {"type": "node", "id": 6387140933, "lat": 39.4739549, "lon": -104.8994307}, {"type": "node", "id": 6387140934, "lat": 39.473921, "lon": -104.899591}, {"type": "node", "id": 7520402468, "lat": 39.4915309, "lon": -104.9012637}, {"type": "node", "id": 7520402469, "lat": 39.4912483, "lon": -104.9010465}, {"type": "node", "id": 7520402470, "lat": 39.49109, "lon": -104.90143}, {"type": "node", "id": 7520402471, "lat": 39.4913715, "lon": -104.9016379}, {"type": "node", "id": 8174108617, "lat": 39.4639434, "lon": -104.8869101}, {"type": "node", "id": 8174108619, "lat": 39.4638943, "lon": -104.8868042}, {"type": "node", "id": 8174108624, "lat": 39.4641405, "lon": -104.8873534}, {"type": "node", "id": 8425982526, "lat": 39.4738659, "lon": -104.899981}, {"type": "node", "id": 8674613334, "lat": 39.4728995, "lon": -104.9149421}, {"type": "node", "id": 8674613335, "lat": 39.4728909, "lon": -104.9151174}, {"type": "node", "id": 8674613336, "lat": 39.4729547, "lon": -104.9152383}, {"type": "node", "id": 8674613337, "lat": 39.4730443, "lon": -104.9153617}, {"type": "node", "id": 8674613338, "lat": 39.4730433, "lon": -104.9154938}, {"type": "node", "id": 8674613339, "lat": 39.4729928, "lon": -104.9155061}, {"type": "node", "id": 8674613340, "lat": 39.472929, "lon": -104.9157826}, {"type": "node", "id": 8674613341, "lat": 39.4728823, "lon": -104.9158529}, {"type": "node", "id": 8674613342, "lat": 39.4727985, "lon": -104.9158788}, {"type": "node", "id": 8674613343, "lat": 39.4727042, "lon": -104.9158332}, {"type": "node", "id": 8674613344, "lat": 39.4726118, "lon": -104.9157702}, {"type": "node", "id": 8674613345, "lat": 39.4725308, "lon": -104.9156641}, {"type": "node", "id": 8674613346, "lat": 39.4724746, "lon": -104.9155086}, {"type": "node", "id": 8674613347, "lat": 39.4723717, "lon": -104.9154136}, {"type": "node", "id": 8674613348, "lat": 39.4722926, "lon": -104.9153037}, {"type": "node", "id": 8674613349, "lat": 39.4723774, "lon": -104.9151001}, {"type": "node", "id": 8674613350, "lat": 39.4724727, "lon": -104.9151112}, {"type": "node", "id": 8674613351, "lat": 39.4725927, "lon": -104.9149644}, {"type": "node", "id": 8674613352, "lat": 39.4726632, "lon": -104.914878}, {"type": "node", "id": 8674613353, "lat": 39.4727642, "lon": -104.9148508}, {"type": "node", "id": 9468139807, "lat": 39.4640189, "lon": -104.8879053}, {"type": "node", "id": 9468139809, "lat": 39.4636538, "lon": -104.8891038}, {"type": "node", "id": 9468139810, "lat": 39.4629156, "lon": -104.8893645}, {"type": "node", "id": 9468139811, "lat": 39.4625307, "lon": -104.8888038}, {"type": "node", "id": 9468139812, "lat": 39.4627151, "lon": -104.8879366}, {"type": "node", "id": 9468139813, "lat": 39.463108, "lon": -104.8870902}, {"type": "node", "id": 9468139814, "lat": 39.4636452, "lon": -104.8864878}, {"type": "node", "id": 9941154063, "lat": 39.4694921, "lon": -104.8814477, "tags": {"amenity": "fuel", "name": "King Soopers Fuel Center"}}, {"type": "node", "id": 9941170852, "lat": 39.4705346, "lon": -104.8798655, "tags": {"addr:city": "Castle Pines", "addr:housenumber": "361", "addr:postcode": "80108", "addr:state": "CO", "addr:street": "Village Square Lane", "addr:unit": "125", "amenity": "post_office", "name": "USPS Post Office", "operator": "United States Postal Service", "operator:short": "USPS", "operator:type": "public", "operator:website": "https://www.usps.com", "operator:wikidata": "Q668687", "operator:wikipedia": "en:United States Postal Service"}}, {"type": "node", "id": 9941170853, "lat": 39.4705947, "lon": -104.8796211, "tags": {"addr:city": "Castle Pines", "addr:housenumber": "361", "addr:postcode": "80108", "addr:state": "CO", "addr:street": "Village Square Lane", "addr:unit": "100", "amenity": "dentist", "healthcare": "dentist", "name": "Sierk Children\u2019s Dentistry - Castle Pines"}}, {"type": "node", "id": 9941170854, "lat": 39.4704908, "lon": -104.8819778, "tags": {"addr:city": "Castle Pines", "addr:housenumber": "250", "addr:postcode": "80108", "addr:state": "CO", "addr:street": "Max Drive", "addr:unit": "102", "amenity": "doctors", "healthcare": "doctor", "name": "Jason Chu, MD | Family Medicine"}}, {"type": "node", "id": 9941170855, "lat": 39.4705686, "lon": -104.8818317, "tags": {"addr:city": "Castle Pines", "addr:housenumber": "250", "addr:postcode": "80108", "addr:state": "CO", "addr:street": "Max Drive", "addr:unit": "201", "amenity": "dentist", "healthcare": "dentist", "healthcare:speciality": "orthodontics", "name": "Castle Pines Orthodontics"}}, {"type": "node", "id": 9941170856, "lat": 39.4707975, "lon": -104.8788373, "tags": {"addr:city": "Castle Pines", "addr:housenumber": "363", "addr:postcode": "80108", "addr:state": "CO", "addr:street": "Village Square Lane", "addr:unit": "115", "amenity": "veterinary", "name": "Castle Pines Veterinary Hospital"}}, {"type": "node", "id": 9941183001, "lat": 39.4682272, "lon": -104.8806686, "tags": {"addr:city": "Castle Pines", "addr:housenumber": "7280", "addr:postcode": "80108", "addr:state": "CO", "addr:street": "Lagae Road", "amenity": "restaurant", "name": "The Berg Haus"}}, {"type": "node", "id": 9941183002, "lat": 39.4683207, "lon": -104.8804593, "tags": {"brand": "Great Clips", "brand:wikidata": "Q5598967", "name": "Great Clips", "shop": "hairdresser"}}, {"type": "node", "id": 9941183003, "lat": 39.4683452, "lon": -104.8803404, "tags": {"beauty": "nails", "name": "Expo Nails", "shop": "beauty"}}, {"type": "node", "id": 9941183005, "lat": 39.4684368, "lon": -104.8801558, "tags": {"addr:city": "Castle Pines", "addr:housenumber": "7280", "addr:postcode": "80108", "addr:state": "CO", "addr:street": "Lagae Road", "name": "Castle Pines North Wine & Spirits", "shop": "alcohol"}}, {"type": "node", "id": 9941183006, "lat": 39.4703358, "lon": -104.8789864, "tags": {"addr:city": "Castle Pines", "addr:housenumber": "7437", "addr:postcode": "80108", "addr:state": "CO", "addr:street": "Village Square Drive", "addr:unit": "125", "name": "The Bundt Shoppe", "shop": "bakery"}}, {"type": "node", "id": 9941183008, "lat": 39.4704828, "lon": -104.8800595, "tags": {"addr:city": "Castle Pines", "addr:housenumber": "361", "addr:postcode": "80108", "addr:state": "CO", "addr:street": "Village Square Lane", "addr:unit": "130", "amenity": "restaurant", "cuisine": "italian", "name": "Pino's Italian Kitchen & Bar"}}, {"type": "node", "id": 9941183009, "lat": 39.470609, "lon": -104.8795678, "tags": {"addr:city": "Castle Pines", "addr:housenumber": "361", "addr:postcode": "80108", "addr:state": "CO", "addr:street": "Village Square Lane", "addr:unit": "100", "amenity": "dentist", "healthcare": "dentist", "healthcare:speciality": "orthodontics", "name": "Brandon Linn Orthodontics"}}, {"type": "node", "id": 9941183010, "lat": 39.4706875, "lon": -104.8792499, "tags": {"addr:city": "Castle Pines", "addr:housenumber": "363", "addr:postcode": "80108", "addr:state": "CO", "addr:street": "Village Square Lane", "addr:unit": "145", "amenity": "restaurant", "name": "Golden Flame Hot Wings"}}, {"type": "node", "id": 9941183011, "lat": 39.470759, "lon": -104.8790039, "tags": {"addr:city": "Castle Pines", "addr:housenumber": "363", "addr:postcode": "80108", "addr:state": "CO", "addr:street": "Village Square Lane", "amenity": "restaurant", "cuisine": "vietnamese", "name": "Pho 5"}}, {"type": "node", "id": 9941183012, "lat": 39.4708714, "lon": -104.8785068, "tags": {"addr:city": "Castle Pines", "addr:housenumber": "363", "addr:postcode": "80108", "addr:state": "CO", "addr:street": "Village Square Lane", "amenity": "restaurant", "cuisine": "steak_house", "name": "Duke's Steakhouse"}}, {"type": "node", "id": 10080864481, "lat": 39.4726074, "lon": -104.8774598}, {"type": "node", "id": 10080864485, "lat": 39.4725331, "lon": -104.8779754}, {"type": "node", "id": 10080864486, "lat": 39.4725642, "lon": -104.8779358}, {"type": "node", "id": 10080864487, "lat": 39.4725787, "lon": -104.8778694}, {"type": "node", "id": 10080864488, "lat": 39.4725895, "lon": -104.8777581}, {"type": "node", "id": 10080864489, "lat": 39.472646, "lon": -104.8777514}, {"type": "node", "id": 10080864490, "lat": 39.4727407, "lon": -104.8777702}, {"type": "node", "id": 10080864491, "lat": 39.4727065, "lon": -104.8780263}, {"type": "node", "id": 10080864492, "lat": 39.4726434, "lon": -104.8780773}, {"type": "node", "id": 10080864493, "lat": 39.4725854, "lon": -104.8781497}, {"type": "node", "id": 10080864494, "lat": 39.472499, "lon": -104.8780163}, {"type": "node", "id": 10080864496, "lat": 39.4726136, "lon": -104.8774948}, {"type": "node", "id": 10080864497, "lat": 39.4726025, "lon": -104.8774981}, {"type": "node", "id": 10080864498, "lat": 39.4726152, "lon": -104.8775703}, {"type": "node", "id": 10080864499, "lat": 39.4726259, "lon": -104.8775672}, {"type": "node", "id": 10080864500, "lat": 39.4726303, "lon": -104.8775919}, {"type": "node", "id": 10080864501, "lat": 39.4726331, "lon": -104.8775911}, {"type": "node", "id": 10080864502, "lat": 39.4726713, "lon": -104.877652}, {"type": "node", "id": 10080864503, "lat": 39.4726452, "lon": -104.8776597}, {"type": "node", "id": 10080864504, "lat": 39.4727143, "lon": -104.8776798}, {"type": "node", "id": 10080864505, "lat": 39.4727067, "lon": -104.8776367}, {"type": "node", "id": 10080864506, "lat": 39.4728025, "lon": -104.8776083}, {"type": "node", "id": 10080864507, "lat": 39.4727969, "lon": -104.8775766}, {"type": "node", "id": 10080864508, "lat": 39.4728222, "lon": -104.8775242}, {"type": "node", "id": 10080864509, "lat": 39.4727591, "lon": -104.8773653}, {"type": "node", "id": 10080864510, "lat": 39.4727924, "lon": -104.8773555}, {"type": "node", "id": 10080864511, "lat": 39.472755, "lon": -104.8773423}, {"type": "node", "id": 10080864512, "lat": 39.472595, "lon": -104.8773896}, {"type": "node", "id": 10080864513, "lat": 39.4726781, "lon": -104.8776905}, {"type": "node", "id": 10080864514, "lat": 39.4728111, "lon": -104.8775724}, {"type": "node", "id": 10131226427, "lat": 39.4741392, "lon": -104.898415}, {"type": "node", "id": 10555634210, "lat": 39.4709699, "lon": -104.8766671, "tags": {"addr:city": "Castle Pines", "addr:housenumber": "556", "addr:state": "CO", "addr:street": "Village Square Lane", "addr:unit": "200", "amenity": "restaurant", "cuisine": "indian", "name": "Tandoori Flames"}}, {"type": "node", "id": 10555825410, "lat": 39.469153, "lon": -104.8816976}, {"type": "node", "id": 10610296368, "lat": 39.4689333, "lon": -104.879083}, {"type": "node", "id": 10610296369, "lat": 39.4689271, "lon": -104.8790795}, {"type": "node", "id": 10610296370, "lat": 39.4688173, "lon": -104.8795816}, {"type": "node", "id": 10610296371, "lat": 39.4688348, "lon": -104.8795916}, {"type": "node", "id": 10610296372, "lat": 39.4687302, "lon": -104.8798313}, {"type": "node", "id": 10610296373, "lat": 39.4686389, "lon": -104.879894}, {"type": "node", "id": 10610296374, "lat": 39.4685953, "lon": -104.880022}, {"type": "node", "id": 10610296375, "lat": 39.4686026, "lon": -104.8800261}, {"type": "node", "id": 10610296376, "lat": 39.4685793, "lon": -104.8800943}, {"type": "node", "id": 10610296377, "lat": 39.4685839, "lon": -104.8800969}, {"type": "node", "id": 10610296378, "lat": 39.4685697, "lon": -104.8801381}, {"type": "node", "id": 10610296379, "lat": 39.4685461, "lon": -104.8801245}, {"type": "node", "id": 10610296380, "lat": 39.4684637, "lon": -104.880365}, {"type": "node", "id": 10610296381, "lat": 39.4684231, "lon": -104.8803417}, {"type": "node", "id": 10610296382, "lat": 39.4683986, "lon": -104.8804133}, {"type": "node", "id": 10610296383, "lat": 39.4684182, "lon": -104.8804246}, {"type": "node", "id": 10610296384, "lat": 39.4683643, "lon": -104.8805817}, {"type": "node", "id": 10610296385, "lat": 39.4683456, "lon": -104.8805709}, {"type": "node", "id": 10610296386, "lat": 39.4683226, "lon": -104.880638}, {"type": "node", "id": 10610296387, "lat": 39.4683604, "lon": -104.8806598}, {"type": "node", "id": 10610296388, "lat": 39.4682951, "lon": -104.8812002}, {"type": "node", "id": 10610296389, "lat": 39.4682993, "lon": -104.8812001}, {"type": "node", "id": 10610296394, "lat": 39.4699374, "lon": -104.8806006}, {"type": "node", "id": 10610296395, "lat": 39.4698838, "lon": -104.8806582}, {"type": "node", "id": 10610296396, "lat": 39.469827, "lon": -104.8805695}, {"type": "node", "id": 10610296397, "lat": 39.4698173, "lon": -104.8805799}, {"type": "node", "id": 10610296398, "lat": 39.4697735, "lon": -104.8805114}, {"type": "node", "id": 10610296399, "lat": 39.469761, "lon": -104.8805248}, {"type": "node", "id": 10610296400, "lat": 39.4697306, "lon": -104.8804773}, {"type": "node", "id": 10610296401, "lat": 39.4697434, "lon": -104.8804636}, {"type": "node", "id": 10610296402, "lat": 39.4697102, "lon": -104.8804116}, {"type": "node", "id": 10610296403, "lat": 39.4697538, "lon": -104.8803648}, {"type": "node", "id": 10610296404, "lat": 39.4697472, "lon": -104.8803546}, {"type": "node", "id": 10610314905, "lat": 39.4697987, "lon": -104.8802994}, {"type": "node", "id": 10610314906, "lat": 39.4698052, "lon": -104.8803095}, {"type": "node", "id": 10610314907, "lat": 39.4698588, "lon": -104.880252}, {"type": "node", "id": 10610314908, "lat": 39.4698911, "lon": -104.8803027}, {"type": "node", "id": 10610314909, "lat": 39.4698986, "lon": -104.8802947}, {"type": "node", "id": 10610314910, "lat": 39.4699331, "lon": -104.8803487}, {"type": "node", "id": 10610314911, "lat": 39.4699255, "lon": -104.8803567}, {"type": "node", "id": 10610314912, "lat": 39.4699671, "lon": -104.8804217}, {"type": "node", "id": 10610314913, "lat": 39.4698816, "lon": -104.8805135}, {"type": "node", "id": 10610314914, "lat": 39.4701751, "lon": -104.8797609}, {"type": "node", "id": 10610314915, "lat": 39.4701537, "lon": -104.8797512}, {"type": "node", "id": 10610314916, "lat": 39.4701562, "lon": -104.8797419}, {"type": "node", "id": 10610314917, "lat": 39.4700188, "lon": -104.8796795}, {"type": "node", "id": 10610314918, "lat": 39.4701749, "lon": -104.879103}, {"type": "node", "id": 10610314919, "lat": 39.4703204, "lon": -104.8791691}, {"type": "node", "id": 10610314920, "lat": 39.4702077, "lon": -104.8795855}, {"type": "node", "id": 10610314921, "lat": 39.4702209, "lon": -104.8795915}, {"type": "node", "id": 10610314985, "lat": 39.4711587, "lon": -104.877767}, {"type": "node", "id": 10610314986, "lat": 39.4712206, "lon": -104.8776475}, {"type": "node", "id": 10610314987, "lat": 39.4711984, "lon": -104.8776282}, {"type": "node", "id": 10610314988, "lat": 39.4712447, "lon": -104.8775387}, {"type": "node", "id": 10610314989, "lat": 39.4712677, "lon": -104.8775587}, {"type": "node", "id": 10610314990, "lat": 39.4713707, "lon": -104.8773599}, {"type": "node", "id": 10610314991, "lat": 39.4714798, "lon": -104.8774548}, {"type": "node", "id": 10610314992, "lat": 39.4714724, "lon": -104.877469}, {"type": "node", "id": 10610314993, "lat": 39.471483, "lon": -104.8774782}, {"type": "node", "id": 10610314994, "lat": 39.4713863, "lon": -104.8776643}, {"type": "node", "id": 10610314995, "lat": 39.4713948, "lon": -104.8776717}, {"type": "node", "id": 10610314996, "lat": 39.4713192, "lon": -104.8778169}, {"type": "node", "id": 10610314997, "lat": 39.4713012, "lon": -104.8778321}, {"type": "node", "id": 10610314998, "lat": 39.4712805, "lon": -104.8778402}, {"type": "node", "id": 10610314999, "lat": 39.4712571, "lon": -104.8778414}, {"type": "node", "id": 10610315000, "lat": 39.4712363, "lon": -104.8778344}, {"type": "node", "id": 10610315001, "lat": 39.4716455, "lon": -104.8779027}, {"type": "node", "id": 10610315002, "lat": 39.4716244, "lon": -104.877804}, {"type": "node", "id": 10610315003, "lat": 39.4719777, "lon": -104.8776768}, {"type": "node", "id": 10610315004, "lat": 39.4719988, "lon": -104.8777754}, {"type": "node", "id": 10610315005, "lat": 39.4719334, "lon": -104.8775159}, {"type": "node", "id": 10610315006, "lat": 39.471879, "lon": -104.8775352}, {"type": "node", "id": 10610315007, "lat": 39.471876, "lon": -104.8775208}, {"type": "node", "id": 10610315008, "lat": 39.4717194, "lon": -104.8775763}, {"type": "node", "id": 10610315009, "lat": 39.4717223, "lon": -104.8775898}, {"type": "node", "id": 10610315010, "lat": 39.4716805, "lon": -104.8776046}, {"type": "node", "id": 10610315011, "lat": 39.4716479, "lon": -104.8774505}, {"type": "node", "id": 10610315012, "lat": 39.4718876, "lon": -104.8773654}, {"type": "node", "id": 10610315013, "lat": 39.4719038, "lon": -104.8774418}, {"type": "node", "id": 10610315014, "lat": 39.4719168, "lon": -104.8774372}, {"type": "node", "id": 10610315015, "lat": 39.4718889, "lon": -104.8772631}, {"type": "node", "id": 10610315016, "lat": 39.4717805, "lon": -104.8773004}, {"type": "node", "id": 10610315017, "lat": 39.4717749, "lon": -104.8772729}, {"type": "node", "id": 10610315018, "lat": 39.4717603, "lon": -104.8772779}, {"type": "node", "id": 10610315019, "lat": 39.4717493, "lon": -104.8772246}, {"type": "node", "id": 10610315020, "lat": 39.471762, "lon": -104.8772203}, {"type": "node", "id": 10610315021, "lat": 39.471761, "lon": -104.8772153}, {"type": "node", "id": 10610315022, "lat": 39.4718719, "lon": -104.8771771}, {"type": "node", "id": 10610315023, "lat": 39.4718733, "lon": -104.8771837}, {"type": "node", "id": 10610315024, "lat": 39.4718845, "lon": -104.8771799}, {"type": "node", "id": 10610315025, "lat": 39.4718942, "lon": -104.8772271}, {"type": "node", "id": 10610315026, "lat": 39.4718824, "lon": -104.8772312}, {"type": "node", "id": 10610315038, "lat": 39.4717, "lon": -104.8764365}, {"type": "node", "id": 10610315039, "lat": 39.4717558, "lon": -104.8764355}, {"type": "node", "id": 10610315040, "lat": 39.471755, "lon": -104.8763647}, {"type": "node", "id": 10610315041, "lat": 39.4718214, "lon": -104.8763636}, {"type": "node", "id": 10610315042, "lat": 39.4718221, "lon": -104.8764316}, {"type": "node", "id": 10610315043, "lat": 39.4718585, "lon": -104.876431}, {"type": "node", "id": 10610315044, "lat": 39.4718591, "lon": -104.8764911}, {"type": "node", "id": 10610315045, "lat": 39.4718744, "lon": -104.8764909}, {"type": "node", "id": 10610315046, "lat": 39.4718752, "lon": -104.8765696}, {"type": "node", "id": 10610315047, "lat": 39.471859, "lon": -104.8765699}, {"type": "node", "id": 10610315048, "lat": 39.4718591, "lon": -104.8765853}, {"type": "node", "id": 10610315049, "lat": 39.4718643, "lon": -104.8765852}, {"type": "node", "id": 10610315050, "lat": 39.4718653, "lon": -104.8766956}, {"type": "node", "id": 10610315051, "lat": 39.4718425, "lon": -104.876696}, {"type": "node", "id": 10610315052, "lat": 39.4718428, "lon": -104.8767227}, {"type": "node", "id": 10610315053, "lat": 39.4718083, "lon": -104.8767233}, {"type": "node", "id": 10610315054, "lat": 39.4718104, "lon": -104.8769287}, {"type": "node", "id": 10610315055, "lat": 39.4717458, "lon": -104.8769297}, {"type": "node", "id": 10610315056, "lat": 39.4717435, "lon": -104.876697}, {"type": "node", "id": 10610315173, "lat": 39.4700996, "lon": -104.88248}, {"type": "node", "id": 10610315174, "lat": 39.4700854, "lon": -104.882468}, {"type": "node", "id": 10610315175, "lat": 39.4699473, "lon": -104.8827211}, {"type": "node", "id": 10610315176, "lat": 39.4699595, "lon": -104.8827179}, {"type": "node", "id": 10610315177, "lat": 39.469975, "lon": -104.8828093}, {"type": "node", "id": 10610315178, "lat": 39.4701664, "lon": -104.8829712}, {"type": "node", "id": 10610315179, "lat": 39.470177, "lon": -104.8829501}, {"type": "node", "id": 10610315180, "lat": 39.4704043, "lon": -104.882667}, {"type": "node", "id": 10610315181, "lat": 39.470435, "lon": -104.882606}, {"type": "node", "id": 10610315182, "lat": 39.4703718, "lon": -104.8825526}, {"type": "node", "id": 10610315183, "lat": 39.4703434, "lon": -104.8826089}, {"type": "node", "id": 10610315184, "lat": 39.4708144, "lon": -104.884169}, {"type": "node", "id": 10610315185, "lat": 39.470815, "lon": -104.8840462}, {"type": "node", "id": 10610315186, "lat": 39.4707557, "lon": -104.8840459}, {"type": "node", "id": 10610315187, "lat": 39.4707552, "lon": -104.8841686}, {"type": "node", "id": 10610315211, "lat": 39.4722118, "lon": -104.8804955}, {"type": "node", "id": 10610315212, "lat": 39.4719421, "lon": -104.88028}, {"type": "node", "id": 10610315213, "lat": 39.472033, "lon": -104.880089}, {"type": "node", "id": 10610315214, "lat": 39.4720837, "lon": -104.8800735}, {"type": "node", "id": 10610315215, "lat": 39.472068, "lon": -104.8799874}, {"type": "node", "id": 10610315216, "lat": 39.4721232, "lon": -104.8799705}, {"type": "node", "id": 10610315217, "lat": 39.4722379, "lon": -104.8797369}, {"type": "node", "id": 10610315218, "lat": 39.4722237, "lon": -104.8796664}, {"type": "node", "id": 10610315219, "lat": 39.4722591, "lon": -104.8796544}, {"type": "node", "id": 10610315220, "lat": 39.4722693, "lon": -104.879705}, {"type": "node", "id": 10610315221, "lat": 39.4723163, "lon": -104.879607}, {"type": "node", "id": 10610315222, "lat": 39.4722966, "lon": -104.8795912}, {"type": "node", "id": 10610315223, "lat": 39.4723599, "lon": -104.879459}, {"type": "node", "id": 10610315224, "lat": 39.4724004, "lon": -104.8794915}, {"type": "node", "id": 10610315225, "lat": 39.4724228, "lon": -104.8794447}, {"type": "node", "id": 10610315226, "lat": 39.4725804, "lon": -104.8795711}, {"type": "node", "id": 10610315227, "lat": 39.4725569, "lon": -104.8796201}, {"type": "node", "id": 10610315228, "lat": 39.472592, "lon": -104.8796482}, {"type": "node", "id": 10610315229, "lat": 39.47253, "lon": -104.8797779}, {"type": "node", "id": 10610315230, "lat": 39.472514, "lon": -104.879765}, {"type": "node", "id": 10610315231, "lat": 39.4724667, "lon": -104.8798642}, {"type": "node", "id": 10610315232, "lat": 39.4725075, "lon": -104.8798532}, {"type": "node", "id": 10610315233, "lat": 39.4725222, "lon": -104.8799453}, {"type": "node", "id": 10610315234, "lat": 39.4725721, "lon": -104.8799319}, {"type": "node", "id": 10610315235, "lat": 39.4727164, "lon": -104.8800445}, {"type": "node", "id": 10610315236, "lat": 39.4725538, "lon": -104.880394}, {"type": "node", "id": 10610315237, "lat": 39.4724045, "lon": -104.8802775}, {"type": "node", "id": 10610315238, "lat": 39.4723936, "lon": -104.8802151}, {"type": "node", "id": 10610315239, "lat": 39.472291, "lon": -104.8802451}, {"type": "node", "id": 10610315240, "lat": 39.4723017, "lon": -104.8803067}, {"type": "node", "id": 10610315242, "lat": 39.4725254, "lon": -104.875859}, {"type": "node", "id": 10610315243, "lat": 39.4725007, "lon": -104.8754293}, {"type": "node", "id": 10610315244, "lat": 39.4725935, "lon": -104.8754203}, {"type": "node", "id": 10610315245, "lat": 39.4726181, "lon": -104.87585}, {"type": "node", "id": 10610315246, "lat": 39.4729078, "lon": -104.8758492}, {"type": "node", "id": 10610315247, "lat": 39.4727816, "lon": -104.8758609}, {"type": "node", "id": 10610315248, "lat": 39.4727726, "lon": -104.8758142}, {"type": "node", "id": 10610315249, "lat": 39.4727663, "lon": -104.8757768}, {"type": "node", "id": 10610315250, "lat": 39.47276, "lon": -104.8757441}, {"type": "node", "id": 10610315251, "lat": 39.4727563, "lon": -104.8757068}, {"type": "node", "id": 10610315252, "lat": 39.4727554, "lon": -104.8756694}, {"type": "node", "id": 10610315253, "lat": 39.4727545, "lon": -104.8756332}, {"type": "node", "id": 10610315254, "lat": 39.4727545, "lon": -104.8755947}, {"type": "node", "id": 10610315255, "lat": 39.4727563, "lon": -104.8755562}, {"type": "node", "id": 10610315256, "lat": 39.4727609, "lon": -104.8755071}, {"type": "node", "id": 10610315257, "lat": 39.472887, "lon": -104.8755001}, {"type": "node", "id": 10610345092, "lat": 39.4697094, "lon": -104.8776768}, {"type": "node", "id": 10610345093, "lat": 39.4697292, "lon": -104.8776067}, {"type": "node", "id": 10610345094, "lat": 39.469798, "lon": -104.8776392}, {"type": "node", "id": 10610345095, "lat": 39.4697783, "lon": -104.8777094}, {"type": "node", "id": 10610345326, "lat": 39.4717026, "lon": -104.8766976}, {"type": "node", "id": 10610345327, "lat": 39.4717891, "lon": -104.8764778, "tags": {"addr:city": "Castle Pines", "addr:housenumber": "506", "addr:postcode": "80108", "addr:state": "CO", "addr:street": "East Castle Pines Parkway", "air_conditioning": "yes", "amenity": "cafe", "bar": "no", "branch": "Castle Pines Parkway & Debbie", "brand": "Starbucks", "brand:wikidata": "Q37158", "cuisine": "coffee_shop", "drive_through": "yes", "internet_access": "wlan", "internet_access:fee": "no", "level": "0", "name": "Starbucks", "official_name": "Starbucks Coffee", "opening_hours": "Sa-Su 06:00-18:00,Mo-Fr 05:30-17:30", "outdoor_seating": "yes", "payment:cash": "yes", "payment:credit_cards": "yes", "payment:debit_cards": "yes", "payment:mastercard": "yes", "payment:visa": "yes", "phone": "+1 303-663-0196", "smoking": "no", "takeaway": "yes", "toilets": "yes", "website": "https://www.starbucks.com/store-locator/store/14765/castle-pines-pkwy-debbie-506-castle-pines-pkwy-castle-pines-co-801084606-us", "wheelchair": "yes"}}, {"type": "node", "id": 11384151553, "lat": 39.4684216, "lon": -104.898271}, {"type": "node", "id": 11384151554, "lat": 39.4684205, "lon": -104.8983488}, {"type": "node", "id": 11384151555, "lat": 39.4684226, "lon": -104.8983742}, {"type": "node", "id": 11384151556, "lat": 39.4684278, "lon": -104.8984064}, {"type": "node", "id": 11384151557, "lat": 39.4684355, "lon": -104.8984212}, {"type": "node", "id": 11384151558, "lat": 39.4684474, "lon": -104.8984353}, {"type": "node", "id": 11384151559, "lat": 39.4684583, "lon": -104.8984373}, {"type": "node", "id": 11384151560, "lat": 39.4684956, "lon": -104.8984004}, {"type": "node", "id": 11384151561, "lat": 39.4685789, "lon": -104.8984963}, {"type": "node", "id": 11384151562, "lat": 39.4685458, "lon": -104.8985479}, {"type": "node", "id": 11384151563, "lat": 39.468479, "lon": -104.8985821}, {"type": "node", "id": 11384151564, "lat": 39.4684371, "lon": -104.898627}, {"type": "node", "id": 11384151565, "lat": 39.4683061, "lon": -104.8984688}, {"type": "node", "id": 11384151566, "lat": 39.4683139, "lon": -104.8981462}, {"type": "node", "id": 11384151567, "lat": 39.4683703, "lon": -104.8981483}, {"type": "node", "id": 11384151568, "lat": 39.4684213, "lon": -104.8981481}, {"type": "node", "id": 11384152269, "lat": 39.468478, "lon": -104.8981496}, {"type": "node", "id": 11384152270, "lat": 39.4684785, "lon": -104.8982703}, {"type": "node", "id": 11384225997, "lat": 39.4871217, "lon": -104.9141946}, {"type": "node", "id": 11384225998, "lat": 39.4871445, "lon": -104.914208}, {"type": "node", "id": 11661422329, "lat": 39.4697848, "lon": -104.880212}, {"type": "node", "id": 11661422330, "lat": 39.4696385, "lon": -104.8803669}, {"type": "node", "id": 11661422331, "lat": 39.4696693, "lon": -104.8804138}, {"type": "node", "id": 11661422332, "lat": 39.4698145, "lon": -104.8802606}, {"type": "node", "id": 11661422333, "lat": 39.4697734, "lon": -104.8806063}, {"type": "node", "id": 11661422334, "lat": 39.4696701, "lon": -104.880438}, {"type": "node", "id": 11661422335, "lat": 39.4696308, "lon": -104.8804769}, {"type": "node", "id": 11661422336, "lat": 39.4697395, "lon": -104.8806448}, {"type": "node", "id": 11661422337, "lat": 39.4695824, "lon": -104.8805258}, {"type": "node", "id": 11661422338, "lat": 39.4695467, "lon": -104.880565}, {"type": "node", "id": 11661422339, "lat": 39.4696507, "lon": -104.8807333}, {"type": "node", "id": 11661422340, "lat": 39.4696875, "lon": -104.8806955}, {"type": "node", "id": 11729165057, "lat": 39.474419, "lon": -104.9126309, "tags": {"amenity": "fountain"}}, {"type": "node", "id": 11729170630, "lat": 39.4751649, "lon": -104.9061785}, {"type": "node", "id": 11729170631, "lat": 39.4752358, "lon": -104.9061549}, {"type": "node", "id": 11729170632, "lat": 39.4752227, "lon": -104.9060885}, {"type": "node", "id": 11729170633, "lat": 39.4753245, "lon": -104.9060547}, {"type": "node", "id": 11729170634, "lat": 39.4752964, "lon": -104.9059121}, {"type": "node", "id": 11729170635, "lat": 39.4751689, "lon": -104.9059543}, {"type": "node", "id": 11729170636, "lat": 39.4751835, "lon": -104.9060283}, {"type": "node", "id": 11729170637, "lat": 39.4751381, "lon": -104.9060433}, {"type": "node", "id": 12095766501, "lat": 39.4706947, "lon": -104.8792103, "tags": {"amenity": "restaurant", "name": "Scotty's Sliders", "opening_hours": "Su-Th 11:00-22:00; Fr-Sa 00:00-24:00"}}, {"type": "node", "id": 12187102448, "lat": 39.4700402, "lon": -104.8795304, "tags": {"amenity": "polling_station", "location": "outdoor", "opening_hours": "24/7", "polling_station": "ballot_box"}}, {"type": "node", "id": 12193635291, "lat": 39.4581112, "lon": -104.8872691, "tags": {"amenity": "bench"}}, {"type": "node", "id": 12193635292, "lat": 39.4580992, "lon": -104.8872483, "tags": {"amenity": "bench"}}, {"type": "node", "id": 12193635293, "lat": 39.4582475, "lon": -104.8872336}, {"type": "node", "id": 12193635294, "lat": 39.4582492, "lon": -104.8871922}, {"type": "node", "id": 12193635295, "lat": 39.4582792, "lon": -104.8871941}, {"type": "node", "id": 12193635296, "lat": 39.4582776, "lon": -104.8872356}, {"type": "node", "id": 12193695968, "lat": 39.4708393, "lon": -104.8756889, "tags": {"addr:city": "Castle Pines", "addr:housenumber": "558", "addr:postcode": "80108", "addr:state": "CO", "addr:street": "East Castle Pines Parkway", "addr:unit": "5B", "amenity": "fast_food", "brand": "Subway", "brand:wikidata": "Q244457", "cuisine": "sandwich", "drive_through": "no", "name": "Subway", "opening_hours": "Mo-Su 09:00-22:00", "phone": "+1-720-733-8729", "takeaway": "yes", "website": "https://restaurants.subway.com/united-states/co/castle-rock/558-e-castle-pines-parkway"}}, {"type": "node", "id": 12193695969, "lat": 39.4707618, "lon": -104.8755967, "tags": {"addr:city": "Castle Pines", "addr:housenumber": "558", "addr:postcode": "80108", "addr:state": "CO", "addr:street": "East Castle Pines Parkway", "addr:unit": "B7", "female": "yes", "name": "Curl Up-N-Dye Salon", "opening_hours": "Tu-sa 08:00-19:00", "phone": "+1-720-532-2382", "shop": "hairdresser", "website": "https://www.curlupcastlerock.com/"}}, {"type": "node", "id": 12193695970, "lat": 39.4707972, "lon": -104.875637, "tags": {"addr:city": "Castle Pines", "addr:housenumber": "558", "addr:postcode": "80108", "addr:state": "CO", "addr:street": "East Castle Pines Parkway", "addr:unit": "B6", "beauty": "nails", "name": "Nails Plus Castle Pines", "phone": "+1-303-481-8992", "shop": "beauty"}}, {"type": "node", "id": 12193695971, "lat": 39.4708759, "lon": -104.8757391, "tags": {"addr:city": "Castle Pines", "addr:housenumber": "558", "addr:postcode": "80108", "addr:state": "CO", "addr:street": "East Castle Pines Parkway", "addr:unit": "B4", "amenity": "post_office", "branch": "1228", "brand": "The UPS Store", "brand:wikidata": "Q7771029", "email": "store1228@theupsstore.com", "fax": "+1-303-663-5418", "name": "The UPS Store", "phone": "+1-303-663-5520", "shop": "copyshop", "short_name": "UPS", "website": "https://locations.theupsstore.com/co/castle-pines/558-castle-pines-parkway"}}, {"type": "node", "id": 12193695972, "lat": 39.4709678, "lon": -104.8758744, "tags": {"addr:city": "Castle Pines", "addr:housenumber": "558", "addr:postcode": "80108", "addr:state": "CO", "addr:street": "East Castle Pines Parkway", "addr:unit": "B1", "amenity": "fast_food", "brand": "Domino's", "brand:wikidata": "Q839466", "cuisine": "pizza", "drive_through": "no", "name": "Domino's", "opening_hours": "Mo-Th 10:00-00:00; Fr-Sa 10:00-01:00", "phone": "+1-720-738-3030", "takeaway": "yes", "website": "https://pizza.dominos.com/colorado/castle-rock/558-castle-pines-pkwy"}}, {"type": "node", "id": 12193695974, "lat": 39.4709078, "lon": -104.8757843, "tags": {"addr:city": "Castle Pines", "addr:housenumber": "558", "addr:postcode": "80108", "addr:state": "CO", "addr:street": "East Castle Pines Parkway", "addr:unit": "B3", "shop": "vacant"}}, {"type": "node", "id": 12193695975, "lat": 39.470941, "lon": -104.8758331, "tags": {"addr:city": "Castle Pines", "addr:housenumber": "558", "addr:postcode": "80108", "addr:state": "CO", "addr:street": "East Castle Pines Parkway", "addr:unit": "B2", "shop": "vacant"}}, {"type": "node", "id": 12193695983, "lat": 39.4713161, "lon": -104.8744625}, {"type": "node", "id": 12193695984, "lat": 39.4708607, "lon": -104.8738812}, {"type": "node", "id": 12193695998, "lat": 39.4713017, "lon": -104.8756476}, {"type": "node", "id": 12193695999, "lat": 39.4712953, "lon": -104.8756463}, {"type": "node", "id": 12193696000, "lat": 39.471215, "lon": -104.8757483}, {"type": "node", "id": 12193697601, "lat": 39.4712114, "lon": -104.8757656}, {"type": "node", "id": 12193697602, "lat": 39.4710697, "lon": -104.8756821}, {"type": "node", "id": 12193697603, "lat": 39.4711261, "lon": -104.8757433}, {"type": "node", "id": 12193697604, "lat": 39.4711129, "lon": -104.8757227}, {"type": "node", "id": 12193697605, "lat": 39.4710792, "lon": -104.875682}, {"type": "node", "id": 12193697606, "lat": 39.4710746, "lon": -104.8756787}, {"type": "node", "id": 12193697607, "lat": 39.4711273, "lon": -104.8759831}, {"type": "node", "id": 12193697608, "lat": 39.4712108, "lon": -104.8759349}, {"type": "node", "id": 12193697609, "lat": 39.4712144, "lon": -104.8759553}, {"type": "node", "id": 12193697610, "lat": 39.4712247, "lon": -104.8759812}, {"type": "node", "id": 12193697611, "lat": 39.4712366, "lon": -104.8759985}, {"type": "node", "id": 12193697612, "lat": 39.4711199, "lon": -104.8760067}, {"type": "node", "id": 12193697613, "lat": 39.4711109, "lon": -104.8760282}, {"type": "node", "id": 12193697614, "lat": 39.4712499, "lon": -104.8760109}, {"type": "node", "id": 12193697615, "lat": 39.4712626, "lon": -104.8760154}, {"type": "node", "id": 12193697616, "lat": 39.4710896, "lon": -104.8760511}, {"type": "node", "id": 12193697617, "lat": 39.4711015, "lon": -104.8760401}, {"type": "node", "id": 12193697618, "lat": 39.4715553, "lon": -104.8751996}, {"type": "node", "id": 12197728702, "lat": 39.4627631, "lon": -104.8880505}, {"type": "node", "id": 12197728703, "lat": 39.4628156, "lon": -104.8880182}, {"type": "node", "id": 12197728704, "lat": 39.462822, "lon": -104.8880111}, {"type": "node", "id": 12197728705, "lat": 39.4628252, "lon": -104.8879995}, {"type": "node", "id": 12197728706, "lat": 39.462911, "lon": -104.8876578}, {"type": "node", "id": 12197728707, "lat": 39.4629184, "lon": -104.8876345}, {"type": "node", "id": 12197728708, "lat": 39.4629242, "lon": -104.8876204}, {"type": "node", "id": 12197728709, "lat": 39.4629344, "lon": -104.8876051}, {"type": "node", "id": 12197728710, "lat": 39.4633727, "lon": -104.8870411}, {"type": "node", "id": 12197728711, "lat": 39.4633891, "lon": -104.887095}, {"type": "node", "id": 12197728712, "lat": 39.4633923, "lon": -104.8871016}, {"type": "node", "id": 12197728713, "lat": 39.463399, "lon": -104.8871025}, {"type": "node", "id": 12197728714, "lat": 39.4634041, "lon": -104.8871004}, {"type": "node", "id": 12197728715, "lat": 39.4634404, "lon": -104.8870528}, {"type": "node", "id": 12197728716, "lat": 39.4634831, "lon": -104.8869871}, {"type": "node", "id": 12197728717, "lat": 39.4635823, "lon": -104.8868232}, {"type": "node", "id": 12197728718, "lat": 39.4637292, "lon": -104.8865723}, {"type": "node", "id": 12197728719, "lat": 39.4637334, "lon": -104.8866984}, {"type": "node", "id": 12197728720, "lat": 39.4637212, "lon": -104.8867145}, {"type": "node", "id": 12197728721, "lat": 39.4635663, "lon": -104.8869787}, {"type": "node", "id": 12197728722, "lat": 39.463564, "lon": -104.8869878}, {"type": "node", "id": 12197728723, "lat": 39.4635656, "lon": -104.8869961}, {"type": "node", "id": 12197728724, "lat": 39.4635704, "lon": -104.8870024}, {"type": "node", "id": 12197728725, "lat": 39.4636108, "lon": -104.8870181}, {"type": "node", "id": 12197728726, "lat": 39.4635816, "lon": -104.887077}, {"type": "node", "id": 12197728727, "lat": 39.4635461, "lon": -104.8871301}, {"type": "node", "id": 12197728728, "lat": 39.463511, "lon": -104.887175}, {"type": "node", "id": 12197728729, "lat": 39.463477, "lon": -104.8871304}, {"type": "node", "id": 12197728730, "lat": 39.4634714, "lon": -104.8871291}, {"type": "node", "id": 12197728731, "lat": 39.4634663, "lon": -104.887131}, {"type": "node", "id": 12197728732, "lat": 39.4634622, "lon": -104.887137}, {"type": "node", "id": 12197728733, "lat": 39.4634617, "lon": -104.8871454}, {"type": "node", "id": 12197728734, "lat": 39.4634632, "lon": -104.887152}, {"type": "node", "id": 12197728735, "lat": 39.4634957, "lon": -104.8871929}, {"type": "node", "id": 12197728736, "lat": 39.463228, "lon": -104.8875402}, {"type": "node", "id": 12197728737, "lat": 39.4631749, "lon": -104.887511}, {"type": "node", "id": 12197728738, "lat": 39.4631676, "lon": -104.887511}, {"type": "node", "id": 12197728739, "lat": 39.4631616, "lon": -104.8875138}, {"type": "node", "id": 12197728740, "lat": 39.4631516, "lon": -104.8875295}, {"type": "node", "id": 12197728741, "lat": 39.4631373, "lon": -104.8875553}, {"type": "node", "id": 12197728742, "lat": 39.4631298, "lon": -104.8875697}, {"type": "node", "id": 12197728743, "lat": 39.4631286, "lon": -104.8875798}, {"type": "node", "id": 12197728744, "lat": 39.463132, "lon": -104.887588}, {"type": "node", "id": 12197728745, "lat": 39.463139, "lon": -104.8875924}, {"type": "node", "id": 12197728746, "lat": 39.4631732, "lon": -104.8876125}, {"type": "node", "id": 12197728747, "lat": 39.4631519, "lon": -104.8876373}, {"type": "node", "id": 12197728748, "lat": 39.4631337, "lon": -104.8876637}, {"type": "node", "id": 12197728749, "lat": 39.4631159, "lon": -104.8876892}, {"type": "node", "id": 12197728750, "lat": 39.4630999, "lon": -104.8877159}, {"type": "node", "id": 12197728751, "lat": 39.4630861, "lon": -104.8877445}, {"type": "node", "id": 12197728752, "lat": 39.4630725, "lon": -104.8877734}, {"type": "node", "id": 12197728753, "lat": 39.4630599, "lon": -104.887802}, {"type": "node", "id": 12197728754, "lat": 39.4630495, "lon": -104.8878319}, {"type": "node", "id": 12197728755, "lat": 39.463041, "lon": -104.8878614}, {"type": "node", "id": 12197728756, "lat": 39.463032, "lon": -104.8878944}, {"type": "node", "id": 12197728757, "lat": 39.4629803, "lon": -104.8878947}, {"type": "node", "id": 12197728758, "lat": 39.462973, "lon": -104.8878957}, {"type": "node", "id": 12197728759, "lat": 39.4629694, "lon": -104.8879029}, {"type": "node", "id": 12197728760, "lat": 39.4629679, "lon": -104.8879139}, {"type": "node", "id": 12197728761, "lat": 39.4629699, "lon": -104.8879218}, {"type": "node", "id": 12197728762, "lat": 39.462975, "lon": -104.8879271}, {"type": "node", "id": 12197728763, "lat": 39.4630247, "lon": -104.8879249}, {"type": "node", "id": 12197728764, "lat": 39.4629331, "lon": -104.8882771}, {"type": "node", "id": 12197728765, "lat": 39.4628763, "lon": -104.8882843}, {"type": "node", "id": 12197728766, "lat": 39.4628717, "lon": -104.8882865}, {"type": "node", "id": 12197728767, "lat": 39.4628686, "lon": -104.8882928}, {"type": "node", "id": 12197728768, "lat": 39.4628669, "lon": -104.8882997}, {"type": "node", "id": 12197728769, "lat": 39.4628681, "lon": -104.8883082}, {"type": "node", "id": 12197728770, "lat": 39.4628831, "lon": -104.888355}, {"type": "node", "id": 12197728771, "lat": 39.4627781, "lon": -104.8883575}, {"type": "node", "id": 12197728772, "lat": 39.4627623, "lon": -104.8883066}, {"type": "node", "id": 12197728773, "lat": 39.4627565, "lon": -104.8883038}, {"type": "node", "id": 12197728774, "lat": 39.4627504, "lon": -104.8883066}, {"type": "node", "id": 12197728775, "lat": 39.4626924, "lon": -104.8882867}, {"type": "node", "id": 12197728776, "lat": 39.4627123, "lon": -104.888203}, {"type": "node", "id": 12197728777, "lat": 39.4627258, "lon": -104.8881756}, {"type": "node", "id": 12197728778, "lat": 39.4627452, "lon": -104.8881499}, {"type": "node", "id": 12197728779, "lat": 39.4627604, "lon": -104.8881351}, {"type": "node", "id": 12197728780, "lat": 39.4627676, "lon": -104.8881231}, {"type": "node", "id": 12197728781, "lat": 39.4627689, "lon": -104.8881078}, {"type": "node", "id": 12197728782, "lat": 39.4638591, "lon": -104.8869595}, {"type": "node", "id": 12197728783, "lat": 39.4638959, "lon": -104.8869241}, {"type": "node", "id": 12197728784, "lat": 39.4640608, "lon": -104.8872048}, {"type": "node", "id": 12197728785, "lat": 39.4640291, "lon": -104.8872349}, {"type": "node", "id": 12197728786, "lat": 39.4640272, "lon": -104.8872404}, {"type": "node", "id": 12197728787, "lat": 39.4640278, "lon": -104.8872475}, {"type": "node", "id": 12197728788, "lat": 39.4640316, "lon": -104.8872519}, {"type": "node", "id": 12197728789, "lat": 39.4640739, "lon": -104.8872513}, {"type": "node", "id": 12197728790, "lat": 39.4640747, "lon": -104.8873493}, {"type": "node", "id": 12197728791, "lat": 39.4640443, "lon": -104.887349}, {"type": "node", "id": 12197728792, "lat": 39.4640398, "lon": -104.8873526}, {"type": "node", "id": 12197728793, "lat": 39.4640391, "lon": -104.88736}, {"type": "node", "id": 12197728794, "lat": 39.4640673, "lon": -104.8873996}, {"type": "node", "id": 12197728795, "lat": 39.4640377, "lon": -104.8874374}, {"type": "node", "id": 12197728796, "lat": 39.4640005, "lon": -104.8874367}, {"type": "node", "id": 12197728797, "lat": 39.4639981, "lon": -104.8873959}, {"type": "node", "id": 12197728798, "lat": 39.4639809, "lon": -104.8873971}, {"type": "node", "id": 12197728799, "lat": 39.4639785, "lon": -104.8873663}, {"type": "node", "id": 12197728800, "lat": 39.4639736, "lon": -104.8873402}, {"type": "node", "id": 12197728801, "lat": 39.4639615, "lon": -104.8873173}, {"type": "node", "id": 12197728802, "lat": 39.4639457, "lon": -104.8872966}, {"type": "node", "id": 12197728803, "lat": 39.4639273, "lon": -104.8872815}, {"type": "node", "id": 12197728804, "lat": 39.4639096, "lon": -104.8872715}, {"type": "node", "id": 12197728805, "lat": 39.4638934, "lon": -104.8872675}, {"type": "node", "id": 12197728806, "lat": 39.4638691, "lon": -104.887269}, {"type": "node", "id": 12197728807, "lat": 39.463846, "lon": -104.8872784}, {"type": "node", "id": 12197728808, "lat": 39.4638315, "lon": -104.8872878}, {"type": "node", "id": 12197728809, "lat": 39.4637236, "lon": -104.8873916}, {"type": "node", "id": 12197728810, "lat": 39.4636844, "lon": -104.8873196}, {"type": "node", "id": 12197728811, "lat": 39.463797, "lon": -104.8872101}, {"type": "node", "id": 12197728812, "lat": 39.4638106, "lon": -104.8871938}, {"type": "node", "id": 12197728813, "lat": 39.4638221, "lon": -104.887176}, {"type": "node", "id": 12197728814, "lat": 39.4638304, "lon": -104.8871556}, {"type": "node", "id": 12197728815, "lat": 39.4638353, "lon": -104.8871279}, {"type": "node", "id": 12197728816, "lat": 39.4638361, "lon": -104.8871028}, {"type": "node", "id": 12197728817, "lat": 39.4638327, "lon": -104.8870723}, {"type": "node", "id": 12197728818, "lat": 39.4638239, "lon": -104.8870489}, {"type": "node", "id": 12197728819, "lat": 39.4638135, "lon": -104.8870287}, {"type": "node", "id": 12197728820, "lat": 39.4638028, "lon": -104.8870122}, {"type": "node", "id": 12468093901, "lat": 39.4701637, "lon": -104.8797989, "tags": {"access": "yes", "amenity": "bicycle_parking", "bicycle_parking": "stands", "capacity": "6"}}, {"type": "node", "id": 12468096001, "lat": 39.4675335, "lon": -104.8931211, "tags": {"access": "yes", "amenity": "bicycle_parking", "bicycle_parking": "wave", "capacity": "15", "covered": "no", "indoor": "no"}}, {"type": "node", "id": 12873067185, "lat": 39.4703527, "lon": -104.8825904}, {"type": "node", "id": 12873067187, "lat": 39.4704157, "lon": -104.8826444}, {"type": "way", "id": 79554444, "nodes": [928448862, 928450507, 928449374, 928449511, 928450047, 928449091, 10610296368, 10610296369, 928448990, 928448801, 10610296370, 10610296371, 928450095, 10610296372, 928449992, 10610296373, 10610296374, 10610296375, 10610296376, 10610296377, 10610296378, 10610296379, 10610296380, 10610296381, 10610296382, 10610296383, 10610296384, 10610296385, 10610296386, 10610296387, 928449463, 10610296388, 10610296389, 928448862], "tags": {"amenity": "parking"}}, {"type": "way", "id": 79570980, "nodes": [10131226427, 928580623, 6387140931, 6387140932, 6387140933, 6387140934, 8425982526, 928580626, 928580637, 928580640, 928580643, 928580644, 928580646, 928580648, 928580650, 10131226427], "tags": {"addr:city": "Castle Pines", "addr:housenumber": "690", "addr:postcode": "80108", "addr:state": "CO", "addr:street": "West Castle Pines Parkway", "amenity": "school", "name": "Timber Trail Elementary School"}}, {"type": "way", "id": 79570981, "nodes": [928580665, 928580668, 928580669, 928580671, 928580685, 928580689, 928580690, 928580691, 928580692, 928580693, 928580696, 928580700, 928580703, 928580705, 928580706, 928580709, 928580665], "tags": {"addr:city": "Castle Pines", "addr:housenumber": "7075", "addr:postcode": "80108", "addr:state": "CO", "addr:street": "Shoreham Drive", "amenity": "school", "name": "Buffalo Ridge Elementary School"}}, {"type": "way", "id": 84270416, "nodes": [980022563, 980022564, 980022565, 980022567, 980022570, 980022572, 980022573, 980022574, 980022575, 980022576, 980022577, 980022578, 980022579, 980022563], "tags": {"amenity": "parking"}}, {"type": "way", "id": 200235897, "nodes": [2102284998, 2102284992, 2102284995, 2102284990, 2102284991, 2102284999, 2102284998], "tags": {"addr:city": "Castle Pines", "addr:housenumber": "508", "addr:postcode": "80108", "addr:state": "CO", "addr:street": "East Castle Pines Parkway", "brand": "Big O Tires", "brand:wikidata": "Q4906085", "building": "yes", "name": "Big O Tires", "shop": "tyres"}}, {"type": "way", "id": 200237470, "nodes": [2102302781, 10610315180, 12873067187, 10610315181, 10610315182, 12873067185, 10610315183, 2102302779, 10610315173, 10610315174, 10610315176, 10610315175, 2102302778, 10610315177, 10610315178, 10610315179, 2102302780, 2102302781], "tags": {"addr:city": "Castle Pines", "addr:country": "US", "addr:housenumber": "7370", "addr:postcode": "80108", "addr:state": "CO", "addr:street": "Lagae Road", "brand": "Walgreens", "brand:wikidata": "Q1591889", "building": "yes", "name": "Walgreens", "post_office": "post_partner", "post_office:brand": "FedEx OnSite", "post_office:website": "https://local.fedex.com/en-us/co/castle-rock/apawi", "shop": "chemist", "website": "https://www.walgreens.com/locator/walgreens-7370+lagae+rd-castle+pines-co-80108/id=7837"}}, {"type": "way", "id": 200237471, "nodes": [2102302788, 2102302789, 2102302787, 2102302786, 2102302783, 10610315185, 10610315186, 10610315187, 10610315184, 2102302782, 2102302785, 2102302784, 2102302788], "tags": {"addr:city": "Castle Pines", "addr:housenumber": "81", "addr:postcode": "80108", "addr:state": "CO", "addr:street": "Max Drive", "amenity": "childcare", "building": "school", "name": "HighPointe Academy Castle Pines"}}, {"type": "way", "id": 216636912, "nodes": [2260269960, 2260269881, 2260269897, 2260269950, 2260269960], "tags": {"amenity": "parking"}}, {"type": "way", "id": 216638764, "nodes": [2260307997, 2260307984, 2260307994, 2260308020, 2260308005, 2260308014, 2260308017, 11384225997, 11384225998, 2260307870, 2260308034, 2260307997], "tags": {"amenity": "parking"}}, {"type": "way", "id": 243872988, "nodes": [2512351688, 2512351701, 2102302781, 2102302780, 10610315179, 10610315178, 10610315177, 2102302778, 10610315175, 10610315176, 10610315174, 10610315173, 2102302779, 2512351666, 2512351644, 2512351645, 2512351679, 2512351688], "tags": {"amenity": "parking"}}, {"type": "way", "id": 243872990, "nodes": [2512351744, 12193697618, 2512351745, 5546133966, 5546133965, 2512351733, 12193695983, 2512351737, 2512351721, 12193695984, 2512351712, 2512351687, 2512351673, 2512351674, 2512351686, 2512351720, 2512351716, 2512351725, 12193697602, 12193697606, 12193697605, 12193697604, 12193697603, 2512351731, 12193697607, 12193697612, 12193697613, 12193697617, 12193697616, 12193697615, 12193697614, 12193697611, 12193697610, 12193697609, 12193697608, 12193697601, 12193696000, 12193695999, 12193695998, 2512351738, 2512351744], "tags": {"amenity": "parking"}}, {"type": "way", "id": 243872991, "nodes": [2512351817, 2512351814, 2512351808, 2512351812, 2512351817], "tags": {"amenity": "parking"}}, {"type": "way", "id": 243872994, "nodes": [2512351599, 2512351603, 2512351607, 2512351592, 2512351608, 2512351597, 2512351593, 10555825410, 2512351584, 2512351599], "tags": {"amenity": "parking"}}, {"type": "way", "id": 804026102, "nodes": [7520402468, 7520402469, 7520402470, 7520402471, 7520402468], "tags": {"amenity": "parking"}}, {"type": "way", "id": 936157879, "nodes": [8674613334, 8674613335, 8674613336, 8674613337, 8674613338, 8674613339, 5545987277, 8674613340, 8674613341, 8674613342, 8674613343, 8674613344, 8674613345, 8674613346, 8674613347, 8674613348, 8674613349, 8674613350, 8674613351, 8674613352, 8674613353, 8674613334], "tags": {"amenity": "parking"}}, {"type": "way", "id": 1026966615, "nodes": [8174108624, 9468139807, 9468139809, 9468139810, 9468139811, 9468139812, 9468139813, 9468139814, 8174108619, 8174108617, 8174108624], "tags": {"addr:city": "Castle Pines", "addr:housenumber": "6971", "addr:postcode": "80108", "addr:state": "CO", "addr:street": "Mira Vista Lane", "amenity": "school", "name": "American Academy - Castle Pines"}}, {"type": "way", "id": 1101589609, "nodes": [10080864494, 10080864493, 10080864492, 10080864491, 10080864490, 10080864489, 10080864488, 10080864487, 10080864486, 10080864485, 10080864494], "tags": {"access": "private", "amenity": "parking", "operator": "South Metro Fire Rescue Station 36"}}, {"type": "way", "id": 1101589610, "nodes": [10080864514, 366395475, 10080864508, 10080864510, 10080864509, 10080864511, 5545986811, 10080864512, 10080864481, 10080864496, 10080864497, 10080864498, 10080864499, 10080864500, 10080864501, 10080864503, 10080864502, 10080864513, 10080864504, 10080864505, 10080864506, 10080864507, 10080864514], "tags": {"addr:city": "Castle Pines", "addr:housenumber": "421", "addr:postcode": "80108", "addr:state": "CO", "addr:street": "East Castle Pines Parkway", "amenity": "fire_station", "building": "yes", "ele": "1958", "gnis:feature_id": "2368811", "name": "South Metro Fire Rescue Station 36", "operator": "South Metro Fire Rescue", "operator:short": "SMFR", "operator:wikidata": "Q96406078"}}, {"type": "way", "id": 1138235049, "nodes": [10610296394, 10610296395, 10610296396, 10610296397, 10610296398, 10610296399, 10610296400, 10610296401, 10610296402, 10610296403, 10610296404, 10610314905, 10610314906, 10610314907, 10610314908, 10610314909, 10610314910, 10610314911, 10610314912, 10610314913, 10610296394], "tags": {"addr:city": "Castle Pines", "addr:housenumber": "7288", "addr:postcode": "80108", "addr:state": "CO", "addr:street": "Lagae Road", "amenity": "bank", "atm": "yes", "brand": "KeyBank", "brand:wikidata": "Q1740314", "building": "yes", "layer": "1", "name": "KeyBank"}}, {"type": "way", "id": 1138235050, "nodes": [10610314914, 10610314915, 10610314916, 10610314917, 10610314918, 10610314919, 10610314920, 10610314921, 10610314914], "tags": {"addr:city": "Castle Pines", "addr:housenumber": "360", "addr:postcode": "80108", "addr:state": "CO", "addr:street": "Village Square Lane", "amenity": "library", "building": "yes", "name": "Douglas County Libraries"}}, {"type": "way", "id": 1138235056, "nodes": [10610314985, 10610314986, 10610314987, 10610314988, 10610314989, 10610314990, 10610314991, 10610314992, 10610314993, 10610314994, 10610314995, 10610314996, 10610314997, 10610314998, 10610314999, 10610315000, 10610314985], "tags": {"addr:city": "Castle Pines", "addr:housenumber": "7520", "addr:postcode": "80108", "addr:state": "CO", "addr:street": "Village Square Drive", "building": "yes", "name": "Simply Euro Automotive Repair", "shop": "car_repair"}}, {"type": "way", "id": 1138235057, "nodes": [10610315001, 10610315002, 10610315003, 10610315004, 10610315001], "tags": {"amenity": "fuel", "brand": "Conoco", "brand:wikidata": "Q214763", "building": "yes", "name": "Conoco", "website": "https://www.conoco.com/station/CON-CASTLE-PINES-0000904339/"}}, {"type": "way", "id": 1138235058, "nodes": [10610315005, 10610315006, 10610315007, 10610315008, 10610315009, 10610315010, 10610315011, 10610315012, 10610315013, 10610315014, 10610315005], "tags": {"addr:city": "Castle Pines", "addr:housenumber": "7530", "addr:postcode": "80108", "addr:state": "CO", "addr:street": "Village Square Drive", "atm": "yes", "brand": "7-Eleven", "brand:wikidata": "Q259340", "building": "yes", "delivery": "yes", "name": "7-Eleven", "phone": "+1 720-829-6935", "ref": "41861", "shop": "convenience", "website": "https://www.7-eleven.com/locations/co/castle-pines/7520-village-square-dr-41861"}}, {"type": "way", "id": 1138235059, "nodes": [10610315015, 10610315016, 10610315017, 10610315018, 10610315019, 10610315020, 10610315021, 10610315022, 10610315023, 10610315024, 10610315025, 10610315026, 10610315015], "tags": {"amenity": "car_wash", "building": "yes", "layer": "1"}}, {"type": "way", "id": 1138235062, "nodes": [10610345326, 10610315038, 10610315039, 10610315040, 10610315041, 10610315042, 10610315043, 10610315044, 10610315045, 10610315046, 10610315047, 10610315048, 10610315049, 10610315050, 10610315051, 10610315052, 10610315053, 10610315054, 10610315055, 10610315056, 10610345326], "tags": {"addr:city": "Castle Pines", "addr:housenumber": "506", "addr:postcode": "80108", "addr:state": "CO", "addr:street": "East Castle Pines Parkway", "amenity": "bank", "atm": "yes", "branch": "Castle Pines", "building": "yes", "building:levels": "1", "building:levels:underground": "1", "drive_through": "yes", "layer": "1", "name": "Independent Financial", "opening_hours": "Mo-Fr 09:00-17:00,Sa 09:00-12:00", "phone": "+1-720-733-5200", "website": "https://locations.ifinancial.com/co/castle-pines/506-castle-pines-pkwy", "wheelchair": "yes"}}, {"type": "way", "id": 1138235071, "nodes": [10610315211, 10610315212, 10610315213, 10610315214, 10610315215, 10610315216, 10610315217, 10610315218, 10610315219, 10610315220, 10610315221, 10610315222, 10610315223, 10610315224, 10610315225, 10610315226, 10610315227, 10610315228, 10610315229, 10610315230, 10610315231, 10610315232, 10610315233, 10610315234, 10610315235, 10610315236, 10610315237, 10610315238, 10610315239, 10610315240, 10610315211], "tags": {"addr:city": "Castle Pines", "addr:housenumber": "311", "addr:postcode": "80108", "addr:state": "CO", "addr:street": "Castle Pines Parkway", "amenity": "school", "building": "school", "ele": "1955", "gnis:feature_id": "2439216", "grades": "1-8", "name": "DCS Montessori Charter School", "operator": "Douglas County School Distric", "operator:type": "private", "religion": "none", "website": "https://dcsmontessori.org/"}}, {"type": "way", "id": 1138235072, "nodes": [10610315242, 10610315243, 10610315244, 10610315245, 10610315242], "tags": {"addr:city": "Castle Pines", "addr:housenumber": "7610", "addr:postcode": "80108", "addr:state": "CO", "addr:street": "North Debbie Lane", "amenity": "fuel", "brand": "Phillips 66", "brand:wikidata": "Q1656230", "building": "yes", "name": "Phillips 66", "website": "https://www.phillips66gas.com/station/P66-TWIN-STAR-ENERGY-LLC-2700531-0000876963/"}}, {"type": "way", "id": 1138235073, "nodes": [10610315246, 10610315247, 10610315248, 10610315249, 10610315250, 10610315251, 10610315252, 10610315253, 10610315254, 10610315255, 10610315256, 10610315257, 10610315246], "tags": {"addr:city": "Castle Pines", "addr:housenumber": "7610", "addr:postcode": "80108", "addr:state": "CO", "addr:street": "Debbie Lane", "atm": "yes", "brand": "7-Eleven", "brand:wikidata": "Q259340", "building": "yes", "delivery": "yes", "fuel:propane": "yes", "name": "7-Eleven", "opening_hours": "24/7", "payment:cash": "yes", "payment:coins": "yes", "payment:credit_cards": "yes", "payment:debit_cards": "yes", "payment:mastercard": "yes", "payment:visa": "yes", "phone": "+1 303-688-2336", "ref": "39741", "shop": "convenience", "website": "https://www.7-eleven.com/locations/co/castle-rock/7610-debbie-ln-39741"}}, {"type": "way", "id": 1138237451, "nodes": [10610345092, 10610345093, 10610345094, 10610345095, 10610345092], "tags": {"amenity": "parcel_locker", "building": "yes", "opening_hours": "24/7"}}, {"type": "way", "id": 1227630946, "nodes": [11384152270, 11384152269, 11384151568, 11384151567, 11384151566, 11384151565, 11384151564, 11384151563, 5546134086, 11384151562, 11384151561, 11384151560, 11384151559, 11384151558, 11384151557, 11384151556, 11384151555, 11384151554, 11384151553, 11384152270], "tags": {"amenity": "parking", "parking": "surface", "surface": "asphalt"}}, {"type": "way", "id": 1254484703, "nodes": [11661422332, 11661422331, 11661422330, 11661422329, 11661422332], "tags": {"amenity": "parking", "parking": "surface", "surface": "asphalt"}}, {"type": "way", "id": 1254484704, "nodes": [11661422336, 11661422335, 11661422334, 11661422333, 11661422336], "tags": {"amenity": "parking", "parking": "surface", "surface": "asphalt"}}, {"type": "way", "id": 1254484705, "nodes": [11661422340, 11661422339, 11661422338, 11661422337, 11661422340], "tags": {"amenity": "parking", "parking": "surface", "surface": "asphalt"}}, {"type": "way", "id": 1262375855, "nodes": [11729170630, 11729170631, 11729170632, 11729170633, 11729170634, 11729170635, 11729170636, 11729170637, 11729170630], "tags": {"amenity": "parking"}}, {"type": "way", "id": 1317485339, "nodes": [12193635293, 12193635294, 12193635295, 12193635296, 12193635293], "tags": {"amenity": "shelter", "building": "yes"}}, {"type": "way", "id": 1317970572, "nodes": [12197728702, 12197728703, 12197728704, 12197728705, 12197728706, 12197728707, 12197728708, 12197728709, 12197728710, 12197728711, 12197728712, 12197728713, 12197728714, 12197728715, 12197728716, 12197728717, 12197728718, 12197728719, 12197728720, 12197728721, 12197728722, 12197728723, 12197728724, 12197728725, 12197728726, 12197728727, 12197728728, 12197728729, 12197728730, 12197728731, 12197728732, 12197728733, 12197728734, 12197728735, 12197728736, 12197728737, 12197728738, 12197728739, 12197728740, 12197728741, 12197728742, 12197728743, 12197728744, 12197728745, 12197728746, 12197728747, 12197728748, 12197728749, 12197728750, 12197728751, 12197728752, 12197728753, 12197728754, 12197728755, 12197728756, 12197728757, 12197728758, 12197728759, 12197728760, 12197728761, 12197728762, 12197728763, 12197728764, 12197728765, 12197728766, 12197728767, 12197728768, 12197728769, 12197728770, 12197728771, 12197728772, 12197728773, 12197728774, 12197728775, 12197728776, 12197728777, 12197728778, 12197728779, 12197728780, 12197728781, 12197728702], "tags": {"amenity": "parking"}}, {"type": "way", "id": 1317970573, "nodes": [12197728782, 12197728783, 12197728784, 12197728785, 12197728786, 12197728787, 12197728788, 12197728789, 12197728790, 12197728791, 12197728792, 12197728793, 12197728794, 12197728795, 12197728796, 12197728797, 12197728798, 12197728799, 12197728800, 12197728801, 12197728802, 12197728803, 12197728804, 12197728805, 12197728806, 12197728807, 12197728808, 12197728809, 12197728810, 12197728811, 12197728812, 12197728813, 12197728814, 12197728815, 12197728816, 12197728817, 12197728818, 12197728819, 12197728820, 12197728782], "tags": {"amenity": "parking"}}]}