{"version": 0.6, "generator": "Overpass API 0.7.62.8 e802775f", "osm3s": {"timestamp_osm_base": "2025-12-06T04:19:16Z", "copyright": "The data included in this document is from www.openstreetmap.org. The data is made available under ODbL."}, "elements": [{"type": "node", "id": 1120191602, "lat": 46.5941312, "lon": -112.03946}, {"type": "node", "id": 1120191604, "lat": 46.5939653, "lon": -112.0395619}, {"type": "node", "id": 1120191608, "lat": 46.5938547, "lon": -112.0391488}, {"type": "node", "id": 1120191611, "lat": 46.5940206, "lon": -112.0390523}, {"type": "node", "id": 1120220810, "lat": 46.5891618, "lon": -112.0406441}, {"type": "node", "id": 1120220811, "lat": 46.588642, "lon": -112.0407138}, {"type": "node", "id": 1120220812, "lat": 46.5886236, "lon": -112.0404134}, {"type": "node", "id": 1120220813, "lat": 46.589136, "lon": -112.0403491}, {"type": "node", "id": 1120221146, "lat": 46.5859973, "lon": -112.0402732}, {"type": "node", "id": 1120221147, "lat": 46.5856336, "lon": -112.0406745}, {"type": "node", "id": 1120221148, "lat": 46.5855285, "lon": -112.0404729}, {"type": "node", "id": 1120221149, "lat": 46.5858923, "lon": -112.0400716}, {"type": "node", "id": 1120221306, "lat": 46.585019, "lon": -112.0397172}, {"type": "node", "id": 1120221307, "lat": 46.5849398, "lon": -112.0394965}, {"type": "node", "id": 1120221322, "lat": 46.5849126, "lon": -112.039804}, {"type": "node", "id": 1120657948, "lat": 46.5925408, "lon": -112.0383157}, {"type": "node", "id": 1120657950, "lat": 46.5923933, "lon": -112.0383587}, {"type": "node", "id": 1120657951, "lat": 46.5923343, "lon": -112.0379992}, {"type": "node", "id": 1120657952, "lat": 46.5924781, "lon": -112.0379563}, {"type": "node", "id": 1120658010, "lat": 46.5919232, "lon": -112.0367791}, {"type": "node", "id": 1120658012, "lat": 46.5918666, "lon": -112.0368034}, {"type": "node", "id": 1120658014, "lat": 46.5918224, "lon": -112.0365949}, {"type": "node", "id": 1120658017, "lat": 46.5916657, "lon": -112.03667}, {"type": "node", "id": 1120658019, "lat": 46.5916119, "lon": -112.0364062}, {"type": "node", "id": 1120658021, "lat": 46.5918345, "lon": -112.0362849}, {"type": "node", "id": 1122151017, "lat": 46.5881944, "lon": -112.036918}, {"type": "node", "id": 1122151019, "lat": 46.5881167, "lon": -112.0369334}, {"type": "node", "id": 1122151020, "lat": 46.5881232, "lon": -112.037003}, {"type": "node", "id": 1122151022, "lat": 46.5880798, "lon": -112.0370116}, {"type": "node", "id": 1122151023, "lat": 46.5880868, "lon": -112.0370872}, {"type": "node", "id": 1122151024, "lat": 46.5879612, "lon": -112.0371121}, {"type": "node", "id": 1122151026, "lat": 46.5879516, "lon": -112.0370094}, {"type": "node", "id": 1122151027, "lat": 46.5879321, "lon": -112.0370133}, {"type": "node", "id": 1122151028, "lat": 46.5879259, "lon": -112.036947}, {"type": "node", "id": 1122151030, "lat": 46.5879864, "lon": -112.036935}, {"type": "node", "id": 1122151031, "lat": 46.587977, "lon": -112.0368346}, {"type": "node", "id": 1122151032, "lat": 46.5881828, "lon": -112.0367938}, {"type": "node", "id": 1122215237, "lat": 46.5934775, "lon": -112.0363934}, {"type": "node", "id": 1122215244, "lat": 46.5941906, "lon": -112.0368159}, {"type": "node", "id": 1122215246, "lat": 46.5940647, "lon": -112.0368797}, {"type": "node", "id": 1122215249, "lat": 46.5940709, "lon": -112.0369056}, {"type": "node", "id": 1122215254, "lat": 46.5937949, "lon": -112.0370453}, {"type": "node", "id": 1122215256, "lat": 46.5937432, "lon": -112.0368289}, {"type": "node", "id": 1122215259, "lat": 46.5940132, "lon": -112.0366922}, {"type": "node", "id": 1122215261, "lat": 46.5940161, "lon": -112.036704}, {"type": "node", "id": 1122215268, "lat": 46.5941479, "lon": -112.0366373}, {"type": "node", "id": 1123709986, "lat": 46.5948527, "lon": -112.0359161}, {"type": "node", "id": 1123709987, "lat": 46.5946866, "lon": -112.0360302}, {"type": "node", "id": 1123709988, "lat": 46.5945944, "lon": -112.035746}, {"type": "node", "id": 1123709989, "lat": 46.5947604, "lon": -112.0356319}, {"type": "node", "id": 1123721469, "lat": 46.5945142, "lon": -112.0362786}, {"type": "node", "id": 1123721471, "lat": 46.5943909, "lon": -112.0363324}, {"type": "node", "id": 1123721472, "lat": 46.5944043, "lon": -112.0363971}, {"type": "node", "id": 1123721475, "lat": 46.5941751, "lon": -112.0364971}, {"type": "node", "id": 1123721477, "lat": 46.594128, "lon": -112.0362685}, {"type": "node", "id": 1123721478, "lat": 46.5942512, "lon": -112.0362148}, {"type": "node", "id": 1123721481, "lat": 46.5942364, "lon": -112.0361433}, {"type": "node", "id": 1123721482, "lat": 46.5942946, "lon": -112.0361179}, {"type": "node", "id": 1123721483, "lat": 46.5942797, "lon": -112.0360454}, {"type": "node", "id": 1123721485, "lat": 46.5944508, "lon": -112.0359708}, {"type": "node", "id": 1480439312, "lat": 46.5865678, "lon": -112.038574, "tags": {"addr:city": "Helena", "addr:housenumber": "106", "addr:postcode": "59601", "addr:state": "MT", "addr:street": "East Broadway Street", "amenity": "restaurant", "bar": "yes", "brand": "Italian", "name": "On Broadway", "opening_hours": "Mo-Th 17:00-21:30 open \"dining\", Fr-Sa 17:00-22:00 open \"dining\" || 16:00+ open \"Bar\"", "phone": "+1 406-443-1929", "website": "https://www.onbroadwayinhelena.com/"}}, {"type": "node", "id": 1525192219, "lat": 46.5860747, "lon": -112.0399985, "tags": {"name": "Lasso the Moon", "shop": "toys"}}, {"type": "node", "id": 1525192226, "lat": 46.5865366, "lon": -112.0415218, "tags": {"addr:housenumber": "44", "addr:postcode": "59601", "addr:street": "S Park Ave", "name": "Park Avenue Bakery", "shop": "bakery", "website": "https://www.parkavenuebakery.net/"}}, {"type": "node", "id": 1525192238, "lat": 46.5882895, "lon": -112.0390148, "tags": {"addr:housenumber": "42", "addr:postcode": "59601", "addr:street": "N Last Chance Gulch", "name": "The Parrot", "shop": "confectionery", "website": "https://parrotchocolate.com/"}}, {"type": "node", "id": 1973003247, "lat": 46.5862933, "lon": -112.0417121, "tags": {"addr:housenumber": "66", "addr:postcode": "59601", "addr:street": "S Park Ave", "amenity": "bar", "name": "Blackfoot River Brewing Company", "website": "https://blackfootriverbrewing.com/home/"}}, {"type": "node", "id": 1973004553, "lat": 46.5864399, "lon": -112.0416152, "tags": {"addr:housenumber": "52", "addr:postcode": "59601", "addr:street": "S Park Ave", "amenity": "restaurant", "name": "Miller's Crossing", "website": "http://www.millerscrossing.biz/"}}, {"type": "node", "id": 1973023815, "lat": 46.5887032, "lon": -112.0388561, "tags": {"addr:housenumber": "58", "addr:postcode": "59601", "addr:street": "N Last Chance Gulch", "amenity": "restaurant", "cuisine": "ice_cream", "name": "Big Dipper Ice Cream", "website": "https://www.bigdippericecream.com/index.php/fuseaction/history.main.htm"}}, {"type": "node", "id": 1973035831, "lat": 46.5874575, "lon": -112.0389934, "tags": {"addr:housenumber": "103", "addr:postcode": "59601", "addr:street": "N Last Chance Gulch", "amenity": "restaurant", "name": "Taco del Sol", "website": "http://www.tacodelsol.com/"}}, {"type": "node", "id": 2514545314, "lat": 46.5886336, "lon": -112.0375009, "tags": {"addr:housenumber": "108", "addr:postcode": "59601", "addr:street": "E. Sixth Ave", "amenity": "restaurant", "cuisine": "american", "name": "Benny's Bistro", "website": "http://bennysbistro.com/"}}, {"type": "node", "id": 2514545317, "lat": 46.5867279, "lon": -112.0413794, "tags": {"addr:housenumber": "42", "addr:postcode": "59601", "addr:street": "South Park Ave", "amenity": "restaurant", "cuisine": "greek", "name": "Mediterranean Grill", "website": "http://www.mediterraneangrillhelena.com/"}}, {"type": "node", "id": 2514545318, "lat": 46.5884437, "lon": -112.0376055, "tags": {"addr:housenumber": "105", "addr:postcode": "59601", "addr:street": "East 6th Ave", "amenity": "restaurant", "name": "Nosh", "website": "https://www.facebook.com/CieloCocina"}}, {"type": "node", "id": 2651269179, "lat": 46.590082, "lon": -112.039111, "tags": {"addr:city": "Helena", "addr:housenumber": "327", "addr:state": "MT", "addr:street": "Fuller Avenue", "name": "The Montana Land Reliance", "office": "ngo", "phone": "+1 406-443-7027", "wheelchair": "no"}}, {"type": "node", "id": 3309046536, "lat": 46.5901365, "lon": -112.0405793}, {"type": "node", "id": 3309046537, "lat": 46.5901329, "lon": -112.0409863}, {"type": "node", "id": 3309046538, "lat": 46.5896553, "lon": -112.0409774}, {"type": "node", "id": 3309046539, "lat": 46.5896587, "lon": -112.0405911}, {"type": "node", "id": 3309046540, "lat": 46.5897308, "lon": -112.0405924}, {"type": "node", "id": 3309046541, "lat": 46.589733, "lon": -112.0403455}, {"type": "node", "id": 3309046542, "lat": 46.5900599, "lon": -112.040348}, {"type": "node", "id": 3309046543, "lat": 46.5900578, "lon": -112.0405779}, {"type": "node", "id": 3309046544, "lat": 46.5909089, "lon": -112.0406613}, {"type": "node", "id": 3309046545, "lat": 46.5909142, "lon": -112.0403872}, {"type": "node", "id": 3309046546, "lat": 46.5906484, "lon": -112.0403793}, {"type": "node", "id": 3309046547, "lat": 46.5906415, "lon": -112.0406573}, {"type": "node", "id": 3309049550, "lat": 46.5865887, "lon": -112.0370969}, {"type": "node", "id": 3309049551, "lat": 46.5866388, "lon": -112.0372271}, {"type": "node", "id": 3309049552, "lat": 46.586397, "lon": -112.0374244}, {"type": "node", "id": 3309049553, "lat": 46.5863469, "lon": -112.0372942}, {"type": "node", "id": 3603237493, "lat": 46.5849584, "lon": -112.0434692, "tags": {"name": "Dundee's Barber Shop", "shop": "hairdresser"}}, {"type": "node", "id": 3603241195, "lat": 46.5850819, "lon": -112.0437052, "tags": {"building": "office", "name": "Western Environmental Law Center: Northern Rockies Office", "office": "lawyer"}}, {"type": "node", "id": 3603242994, "lat": 46.5851704, "lon": -112.0437756, "tags": {"building": "office", "name": "MRG Financial Services, PLLC", "note": "Marca R. Gibson, CPA, CMA", "office": "accountant"}}, {"type": "node", "id": 3603254493, "lat": 46.5854072, "lon": -112.0438801, "tags": {"building": "office", "name": "MPA Montana Preservation Alliance", "office": "travel_agent"}}, {"type": "node", "id": 4388503297, "lat": 46.5885071, "lon": -112.038907, "tags": {"amenity": "bar", "name": "Rialto Club Room"}}, {"type": "node", "id": 4388503298, "lat": 46.5861763, "lon": -112.0418191, "tags": {"addr:city": "Helena", "addr:country": "US", "addr:housenumber": "70", "addr:postcode": "59601", "addr:state": "MT", "addr:street": "South Park Avenue", "amenity": "restaurant", "contact:email": "brooklynpizzahelena@gmail.com", "contact:phone": "+1 406-422-0801", "contact:website": "https://brooklynpizzahelena.com/", "cuisine": "italian;pasta;pizza", "delivery": "yes", "name": "Brooklyn Pizza & Pasta Company", "opening_hours": "Mo-Su 11:00-21:00", "takeaway": "yes"}}, {"type": "node", "id": 4388503299, "lat": 46.5892953, "lon": -112.0384125, "tags": {"amenity": "cafe", "name": "Hub Coffee"}}, {"type": "node", "id": 5254896843, "lat": 46.5873168, "lon": -112.034593}, {"type": "node", "id": 5254896844, "lat": 46.5870952, "lon": -112.0347913}, {"type": "node", "id": 5254896845, "lat": 46.587, "lon": -112.0345522}, {"type": "node", "id": 5254896846, "lat": 46.5872274, "lon": -112.0343878}, {"type": "node", "id": 5921741502, "lat": 46.5859752, "lon": -112.0346894}, {"type": "node", "id": 5921741503, "lat": 46.5858625, "lon": -112.0347854}, {"type": "node", "id": 5921741504, "lat": 46.5860211, "lon": -112.0351796}, {"type": "node", "id": 5921741505, "lat": 46.5862864, "lon": -112.0349534}, {"type": "node", "id": 5921741506, "lat": 46.586223, "lon": -112.0347958}, {"type": "node", "id": 5921741507, "lat": 46.5860994, "lon": -112.0349011}, {"type": "node", "id": 5921741508, "lat": 46.5860751, "lon": -112.0348408}, {"type": "node", "id": 5921741509, "lat": 46.586004, "lon": -112.0349014}, {"type": "node", "id": 5921741510, "lat": 46.5859912, "lon": -112.0348696}, {"type": "node", "id": 5921741511, "lat": 46.5860333, "lon": -112.0348337}, {"type": "node", "id": 6001601067, "lat": 46.5848426, "lon": -112.0395766}, {"type": "node", "id": 6001601068, "lat": 46.5848701, "lon": -112.039554}, {"type": "node", "id": 6001601069, "lat": 46.5848776, "lon": -112.0395744}, {"type": "node", "id": 6001601070, "lat": 46.5848992, "lon": -112.0395582}, {"type": "node", "id": 6001601071, "lat": 46.5848912, "lon": -112.0395352}, {"type": "node", "id": 6001601079, "lat": 46.5871512, "lon": -112.0347441}, {"type": "node", "id": 6001601080, "lat": 46.5871715, "lon": -112.0347951}, {"type": "node", "id": 6001601081, "lat": 46.5872547, "lon": -112.034725}, {"type": "node", "id": 6001601082, "lat": 46.5872355, "lon": -112.0346766}, {"type": "node", "id": 6001601083, "lat": 46.5872908, "lon": -112.0346148}, {"type": "node", "id": 6001601084, "lat": 46.587293, "lon": -112.034628}, {"type": "node", "id": 6001602485, "lat": 46.5872476, "lon": -112.0344179}, {"type": "node", "id": 6001602486, "lat": 46.5872414, "lon": -112.0344231}, {"type": "node", "id": 6001602487, "lat": 46.5872031, "lon": -112.0344083}, {"type": "node", "id": 6001602488, "lat": 46.587195, "lon": -112.0343878}, {"type": "node", "id": 6096925188, "lat": 46.5899554, "lon": -112.0403461}, {"type": "node", "id": 6096925189, "lat": 46.5899551, "lon": -112.0403793}, {"type": "node", "id": 6096925190, "lat": 46.5898396, "lon": -112.0403771}, {"type": "node", "id": 6096925191, "lat": 46.5898342, "lon": -112.0403474}, {"type": "node", "id": 6096976710, "lat": 46.5901344, "lon": -112.040817}, {"type": "node", "id": 6096976717, "lat": 46.5897081, "lon": -112.040592}, {"type": "node", "id": 6096976718, "lat": 46.5896583, "lon": -112.04064}, {"type": "node", "id": 6096976733, "lat": 46.5896581, "lon": -112.0406566}, {"type": "node", "id": 6096976734, "lat": 46.5896565, "lon": -112.0408363}, {"type": "node", "id": 6096976760, "lat": 46.5899612, "lon": -112.0403462}, {"type": "node", "id": 6096976762, "lat": 46.5900401, "lon": -112.0403476}, {"type": "node", "id": 6096976764, "lat": 46.5900584, "lon": -112.0405175}, {"type": "node", "id": 6096976765, "lat": 46.5900598, "lon": -112.040364}, {"type": "node", "id": 6096978101, "lat": 46.5908781, "lon": -112.0403956}, {"type": "node", "id": 6096978102, "lat": 46.5908794, "lon": -112.0403857}, {"type": "node", "id": 6096978103, "lat": 46.5906871, "lon": -112.0403885}, {"type": "node", "id": 6096978104, "lat": 46.5906828, "lon": -112.0403793}, {"type": "node", "id": 6096978105, "lat": 46.590643, "lon": -112.0405968}, {"type": "node", "id": 6096978106, "lat": 46.5906388, "lon": -112.0405917}, {"type": "node", "id": 6096978107, "lat": 46.5906423, "lon": -112.0404458}, {"type": "node", "id": 6096978108, "lat": 46.5906471, "lon": -112.0404418}, {"type": "node", "id": 6096978109, "lat": 46.59091, "lon": -112.0406019}, {"type": "node", "id": 6096978110, "lat": 46.590913, "lon": -112.040599}, {"type": "node", "id": 6096978111, "lat": 46.5909153, "lon": -112.040449}, {"type": "node", "id": 6096978112, "lat": 46.5909126, "lon": -112.0404465}, {"type": "node", "id": 6097022515, "lat": 46.5924908, "lon": -112.0405146}, {"type": "node", "id": 6097022516, "lat": 46.5924905, "lon": -112.0405341}, {"type": "node", "id": 6097022517, "lat": 46.5924986, "lon": -112.0405343}, {"type": "node", "id": 6097022518, "lat": 46.5924975, "lon": -112.0406149}, {"type": "node", "id": 6097022519, "lat": 46.5924914, "lon": -112.0406147}, {"type": "node", "id": 6097022520, "lat": 46.5924899, "lon": -112.04072}, {"type": "node", "id": 6097022521, "lat": 46.5924233, "lon": -112.040718}, {"type": "node", "id": 6097022522, "lat": 46.5924246, "lon": -112.0406248}, {"type": "node", "id": 6097022523, "lat": 46.5924026, "lon": -112.0406241}, {"type": "node", "id": 6097022524, "lat": 46.5924042, "lon": -112.040512}, {"type": "node", "id": 6986221563, "lat": 46.5936266, "lon": -112.03617, "tags": {"name": "Her Alibi Salon", "shop": "beauty"}}, {"type": "node", "id": 6986221569, "lat": 46.5921097, "lon": -112.038364, "tags": {"name": "Carpet One", "shop": "carpet"}}, {"type": "node", "id": 6986221570, "lat": 46.5922664, "lon": -112.0384767, "tags": {"amenity": "cafe", "name": "Lattes & Sundaes"}}, {"type": "node", "id": 6986221576, "lat": 46.5916113, "lon": -112.0372676, "tags": {"name": "Wild Child Collective", "shop": "boutique"}}, {"type": "node", "id": 6986221577, "lat": 46.5915263, "lon": -112.036908, "tags": {"name": "Dave's Pawn", "shop": "pawnbroker"}}, {"type": "node", "id": 6986221578, "lat": 46.591215, "lon": -112.0374638, "tags": {"amenity": "cafe", "name": "Firetower Coffee", "opening_hours": "Mo-Sa 7:30-15:00", "phone": "+14064958840", "website": "https://www.firetowercoffee.com/"}}, {"type": "node", "id": 6986221579, "lat": 46.5913417, "lon": -112.0369898, "tags": {"amenity": "cafe", "name": "No Sweat Cafe", "opening_hours": "Tu-Su 08:00-14:00", "wheelchair": "yes"}}, {"type": "node", "id": 6986221581, "lat": 46.5909245, "lon": -112.0372046, "tags": {"amenity": "cafe", "name": "General Mercantile"}}, {"type": "node", "id": 6986221582, "lat": 46.5907978, "lon": -112.0375805, "tags": {"amenity": "bar", "name": "Rock's Western Bar"}}, {"type": "node", "id": 6986221583, "lat": 46.5906229, "lon": -112.0376225, "tags": {"amenity": "bar", "name": "The Gold Bar"}}, {"type": "node", "id": 6986242292, "lat": 46.5906261, "lon": -112.038668, "tags": {"name": "Allegra", "shop": "printer_ink"}}, {"type": "node", "id": 6986242293, "lat": 46.5906084, "lon": -112.0381713, "tags": {"name": "Prickly Pear Land Trust", "office": "yes"}}, {"type": "node", "id": 6986242294, "lat": 46.5901432, "lon": -112.0374287, "tags": {"name": "Barnes Jewelry", "shop": "jewelry"}}, {"type": "node", "id": 6986242295, "lat": 46.589973, "lon": -112.0375198, "tags": {"name": "Career Training Institute", "office": "yes"}}, {"type": "node", "id": 6986242296, "lat": 46.5898542, "lon": -112.0381362, "tags": {"name": "Montana Department of Revenue", "office": "government"}}, {"type": "node", "id": 6986242297, "lat": 46.5897371, "lon": -112.0376295, "tags": {"name": "Tread Lightly", "shop": "clothes"}}, {"type": "node", "id": 6986242301, "lat": 46.5895381, "lon": -112.0382226, "tags": {"name": "fourOsix", "shop": "clothes"}}, {"type": "node", "id": 6986242302, "lat": 46.5897387, "lon": -112.0373517, "tags": {"name": "Great Divide Cyclery", "shop": "bicycle"}}, {"type": "node", "id": 6986242304, "lat": 46.5894595, "lon": -112.0375035, "tags": {"name": "Cross Currents", "opening_hours": "Tu-Fr 09:00-18:00; Sa 09:00-16:00", "shop": "fishing"}}, {"type": "node", "id": 6986242309, "lat": 46.5890246, "lon": -112.0391216, "tags": {"amenity": "cafe", "name": "Suki Cafe"}}, {"type": "node", "id": 6986242310, "lat": 46.587703, "lon": -112.0389123, "tags": {"amenity": "bar", "name": "The Sapphire Bar"}}, {"type": "node", "id": 6986242311, "lat": 46.5882065, "lon": -112.0390397, "tags": {"amenity": "restaurant", "name": "The Hopper"}}, {"type": "node", "id": 6986242312, "lat": 46.5868164, "lon": -112.0403315, "tags": {"name": "The Base Camp", "shop": "outdoor"}}, {"type": "node", "id": 6986242313, "lat": 46.5865987, "lon": -112.0400094, "tags": {"name": "Birds & Beasleys", "shop": "gift"}}, {"type": "node", "id": 6986242314, "lat": 46.5864066, "lon": -112.0394874, "tags": {"name": "Montana Department of Corrections", "office": "government"}}, {"type": "node", "id": 6986242315, "lat": 46.5866668, "lon": -112.0387548, "tags": {"name": "Great Falls Tribune", "office": "newspaper"}}, {"type": "node", "id": 6986242344, "lat": 46.5897788, "lon": -112.0398484, "tags": {"name": "The Diamond Block", "shop": "jewelry"}}, {"type": "node", "id": 6986242345, "lat": 46.5896391, "lon": -112.0395252, "tags": {"amenity": "restaurant", "cuisine": "mexican", "name": "LaPa Grill"}}, {"type": "node", "id": 6986242346, "lat": 46.5894603, "lon": -112.0392976, "tags": {"amenity": "restaurant", "name": "The Montana Club"}}, {"type": "node", "id": 6989138285, "lat": 46.5886365, "lon": -112.0406247}, {"type": "node", "id": 7037441584, "lat": 46.5885851, "lon": -112.0388765, "tags": {"amenity": "restaurant", "name": "Lucca's"}}, {"type": "node", "id": 7037441794, "lat": 46.5874875, "lon": -112.0396508, "tags": {"amenity": "restaurant", "name": "Bella Roma"}}, {"type": "node", "id": 7042423239, "lat": 46.5863997, "lon": -112.0345778}, {"type": "node", "id": 7042423240, "lat": 46.5864162, "lon": -112.0346234}, {"type": "node", "id": 7042423241, "lat": 46.5864817, "lon": -112.0345658}, {"type": "node", "id": 7042423242, "lat": 46.5863951, "lon": -112.0343418}, {"type": "node", "id": 7042423243, "lat": 46.586337, "lon": -112.0343888}, {"type": "node", "id": 7042423244, "lat": 46.5864089, "lon": -112.0345685}, {"type": "node", "id": 7042596783, "lat": 46.5867511, "lon": -112.0343729}, {"type": "node", "id": 7042596784, "lat": 46.5866103, "lon": -112.0344946}, {"type": "node", "id": 7042616785, "lat": 46.5865066, "lon": -112.0342419}, {"type": "node", "id": 7042616786, "lat": 46.5866558, "lon": -112.0341156}, {"type": "node", "id": 7047701691, "lat": 46.5932866, "lon": -112.0365547}, {"type": "node", "id": 7047701692, "lat": 46.5932336, "lon": -112.036422}, {"type": "node", "id": 7047701693, "lat": 46.5934245, "lon": -112.0362607}, {"type": "node", "id": 7078455003, "lat": 46.5854813, "lon": -112.0348023}, {"type": "node", "id": 7078455004, "lat": 46.5854455, "lon": -112.0348324}, {"type": "node", "id": 7078455005, "lat": 46.5853761, "lon": -112.0346492}, {"type": "node", "id": 7078455006, "lat": 46.5854102, "lon": -112.0346209}, {"type": "node", "id": 7078469735, "lat": 46.5859642, "lon": -112.0377928}, {"type": "node", "id": 7078469736, "lat": 46.5857508, "lon": -112.0379796}, {"type": "node", "id": 7078469737, "lat": 46.5857083, "lon": -112.0378675}, {"type": "node", "id": 7078469738, "lat": 46.5859201, "lon": -112.0376807}, {"type": "node", "id": 7078469895, "lat": 46.5845542, "lon": -112.0382253}, {"type": "node", "id": 7078469896, "lat": 46.5844344, "lon": -112.0383275}, {"type": "node", "id": 7078469897, "lat": 46.5843319, "lon": -112.0380734}, {"type": "node", "id": 7078469898, "lat": 46.5843762, "lon": -112.0380355}, {"type": "node", "id": 7078469899, "lat": 46.5843165, "lon": -112.0378876}, {"type": "node", "id": 7078469900, "lat": 46.5846089, "lon": -112.0376378}, {"type": "node", "id": 7078469901, "lat": 46.5846646, "lon": -112.0377759}, {"type": "node", "id": 7078469902, "lat": 46.5844477, "lon": -112.0379611}, {"type": "node", "id": 7078469919, "lat": 46.5842544, "lon": -112.0389783}, {"type": "node", "id": 7078469920, "lat": 46.5841358, "lon": -112.0391004}, {"type": "node", "id": 7078469921, "lat": 46.5840294, "lon": -112.0388669}, {"type": "node", "id": 7078469922, "lat": 46.5841558, "lon": -112.0387616}, {"type": "node", "id": 7084961428, "lat": 46.5834467, "lon": -112.0363579}, {"type": "node", "id": 7084961429, "lat": 46.5834001, "lon": -112.0363954}, {"type": "node", "id": 7084961430, "lat": 46.5834319, "lon": -112.036479}, {"type": "node", "id": 7084961431, "lat": 46.5833432, "lon": -112.0365505}, {"type": "node", "id": 7084961432, "lat": 46.5833357, "lon": -112.0365308}, {"type": "node", "id": 7084961433, "lat": 46.5832015, "lon": -112.0366389}, {"type": "node", "id": 7084961434, "lat": 46.5831317, "lon": -112.0364554}, {"type": "node", "id": 7084961435, "lat": 46.5832223, "lon": -112.0363824}, {"type": "node", "id": 7084961436, "lat": 46.5832146, "lon": -112.0363624}, {"type": "node", "id": 7084961437, "lat": 46.5833936, "lon": -112.0362182}, {"type": "node", "id": 7089952781, "lat": 46.5829897, "lon": -112.0452645, "tags": {"name": "Hair Hair Salon & Spa", "shop": "hairdresser"}}, {"type": "node", "id": 7132138899, "lat": 46.5861956, "lon": -112.0404466, "tags": {"name": "Pan Handler", "shop": "kitchen"}}, {"type": "node", "id": 7132138900, "lat": 46.5861058, "lon": -112.0405026, "tags": {"name": "Aizada Imports", "shop": "gift"}}, {"type": "node", "id": 7132138901, "lat": 46.5864026, "lon": -112.0403719, "tags": {"name": "Y'Arnings", "shop": "fabric"}}, {"type": "node", "id": 7132138902, "lat": 46.5859501, "lon": -112.0411564, "tags": {"alt_name": "Edward Jones Investments", "brand": "Edward Jones", "brand:wikidata": "Q5343830", "name": "Edward Jones", "office": "financial_advisor"}}, {"type": "node", "id": 7132138904, "lat": 46.5857432, "lon": -112.0408854, "tags": {"name": "Topher Realty", "office": "estate_agent"}}, {"type": "node", "id": 7795533828, "lat": 46.58905, "lon": -112.0403597}, {"type": "node", "id": 7811535454, "lat": 46.589658, "lon": -112.0406719}, {"type": "node", "id": 7943354749, "lat": 46.5864753, "lon": -112.040742, "tags": {"addr:city": "Helena", "addr:housenumber": "38", "addr:postcode": "59601", "addr:state": "MT", "addr:street": "S. Last Chance Gulch", "addr:unit": "5A", "name": "Tempest Technologies", "office": "it"}}, {"type": "node", "id": 8911807665, "lat": 46.5881047, "lon": -112.0367866}, {"type": "node", "id": 8911807666, "lat": 46.5880754, "lon": -112.0367924}, {"type": "node", "id": 8911807667, "lat": 46.5880774, "lon": -112.0368147}, {"type": "node", "id": 8911807668, "lat": 46.5881068, "lon": -112.0368089}, {"type": "node", "id": 9687181181, "lat": 46.5944517, "lon": -112.0360484, "tags": {"name": "Hjem's Body Shop", "shop": "car_repair"}}, {"type": "node", "id": 9687181185, "lat": 46.5934574, "lon": -112.0360222, "tags": {"name": "The Shop", "office": "coworking"}}, {"type": "node", "id": 9687181187, "lat": 46.5933911, "lon": -112.0360804, "tags": {"name": "Downtown Barber Shop", "shop": "hairdresser"}}, {"type": "node", "id": 9913426070, "lat": 46.590602, "lon": -112.0378939, "tags": {"amenity": "restaurant", "name": "Old Salt Outpost"}}, {"type": "node", "id": 9913756148, "lat": 46.5895947, "lon": -112.037714, "tags": {"name": "Montana Book Co", "shop": "books"}}, {"type": "node", "id": 11212515846, "lat": 46.5915461, "lon": -112.0372739, "tags": {"beauty": "hair", "name": "Edge", "shop": "beauty"}}, {"type": "node", "id": 11212515847, "lat": 46.5911287, "lon": -112.0370819, "tags": {"name": "Aunt Bonnie's Books, Movies, Gifts", "shop": "books", "wheelchair": "yes"}}, {"type": "node", "id": 11212515848, "lat": 46.5912552, "lon": -112.0374043, "tags": {"addr:housenumber": "424", "addr:state": "MT", "addr:street": "North Last Chance Gulch Street", "level": "0", "name": "Buzz Boutique", "shop": "boutique", "wheelchair": "yes"}}, {"type": "node", "id": 11212515849, "lat": 46.5914294, "lon": -112.0369434, "tags": {"name": "Suite 431 Salon", "shop": "beauty", "wheelchair": "yes"}}, {"type": "node", "id": 11212515852, "lat": 46.5913899, "lon": -112.0373428, "tags": {"addr:housenumber": "428-430", "addr:street": "North Last Chance Gulch Street", "level": "0", "name": "Funky Trunk", "shop": "clothes", "wheelchair": "yes"}}, {"type": "node", "id": 11212515854, "lat": 46.5914769, "lon": -112.0373173, "tags": {"addr:housenumber": "434", "addr:street": "North Last Chance Gulch Street", "office": "vacant"}}, {"type": "node", "id": 11212515855, "lat": 46.5913186, "lon": -112.0373845, "tags": {"level": "0", "name": "Boxwoods", "shop": "interior_decoration", "wheelchair": "yes"}}, {"type": "node", "id": 11212515856, "lat": 46.5913873, "lon": -112.0369742, "tags": {"level": "0", "name": "Curiouser and Curiouser", "shop": "second_hand", "wheelchair": "yes"}}, {"type": "node", "id": 11215579792, "lat": 46.5895191, "lon": -112.0377577, "tags": {"name": "Sole Sisters", "shop": "boutique", "strapline": "The New Mecca"}}, {"type": "node", "id": 11215579794, "lat": 46.5894736, "lon": -112.0378003, "tags": {"addr:city": "Helena", "addr:housenumber": "325", "addr:state": "MT", "addr:street": "North Last Chance Gulch Street", "level": "0", "name": "Emerald Salon", "shop": "beauty"}}, {"type": "node", "id": 11215618837, "lat": 46.5889733, "lon": -112.0367239, "tags": {"amenity": "cafe", "internet_access": "wlan", "name": "Montago Coffee co.", "opening_hours": "Mo-Fr 07:00-16:00; Sa-Su 08:00-14:00"}}, {"type": "node", "id": 13311276557, "lat": 46.5849707, "lon": -112.0437632, "tags": {"addr:city": "Helena", "addr:housenumber": "139", "addr:postcode": "59601-0339", "addr:state": "MT", "addr:street": "Reeders Alley", "amenity": "restaurant", "check_date": "2025-11-17", "cuisine": "barbecue", "currency:XBT": "yes", "name": "RockstarrBBQ", "opening_hours": "Mo-Su 11:00-20:00", "payment:lightning": "yes", "payment:lightning:operator": "square", "payment:lightning_contactless": "no", "payment:onchain": "no"}}, {"type": "way", "id": 96731271, "nodes": [1120191602, 1120191604, 1120191608, 1120191611, 1120191602], "tags": {"addr:housenumber": "130", "addr:state": "MT", "addr:street": "Neill Avenue", "brand": "Keller Williams Realty", "brand:wikidata": "Q6385689", "building": "office", "building:levels": "2", "name": "Keller Williams Realty", "office": "estate_agent", "roof:levels": "0"}}, {"type": "way", "id": 96740376, "nodes": [1120220810, 1120220811, 6989138285, 1120220812, 7795533828, 1120220813, 1120220810], "tags": {"building": "yes", "name": "Montana Department of Labor & Industry", "office": "government"}}, {"type": "way", "id": 96740445, "nodes": [1120221146, 1120221147, 1120221148, 1120221149, 1120221146], "tags": {"building": "yes", "name": "Montana Community Foundations", "office": "association"}}, {"type": "way", "id": 96740454, "nodes": [1120221306, 1120221307, 6001601071, 6001601070, 6001601069, 6001601068, 6001601067, 1120221322, 1120221306], "tags": {"building": "yes", "name": "Montana Wilderness Association", "office": "association"}}, {"type": "way", "id": 96772216, "nodes": [1120657948, 1120657950, 1120657951, 1120657952, 1120657948], "tags": {"building": "yes", "name": "Montana Office of Consumer Protection", "office": "government"}}, {"type": "way", "id": 96772220, "nodes": [1120658010, 1120658012, 1120658014, 1120658017, 1120658019, 1120658021, 1120658010], "tags": {"building": "yes", "name": "Golden Girls Antique Mall", "shop": "antiques"}}, {"type": "way", "id": 96841533, "nodes": [1122151017, 1122151019, 1122151020, 1122151022, 1122151023, 1122151024, 1122151026, 1122151027, 1122151028, 1122151030, 1122151031, 8911807667, 8911807666, 8911807665, 8911807668, 1122151032, 1122151017], "tags": {"building": "yes", "name": "Helena Chamber of Commerce", "office": "government"}}, {"type": "way", "id": 96847232, "nodes": [1122215244, 1122215246, 1122215249, 1122215254, 1122215256, 1122215259, 1122215261, 1122215268, 1122215244], "tags": {"building": "yes", "name": "State Employment Service", "office": "employment_agency"}}, {"type": "way", "id": 96980609, "nodes": [1123709986, 1123709987, 1123709988, 1123709989, 1123709986], "tags": {"building": "yes", "name": "Action Print & Promotional Products", "shop": "copyshop"}}, {"type": "way", "id": 96982345, "nodes": [1123721469, 1123721471, 1123721472, 1123721475, 1123721477, 1123721478, 1123721481, 1123721482, 1123721483, 1123721485, 1123721469], "tags": {"building": "yes", "name": "Harry's Frame & Alignment Services", "shop": "car_repair"}}, {"type": "way", "id": 324169802, "nodes": [3309046536, 6096976710, 3309046537, 3309046538, 6096976734, 7811535454, 6096976733, 6096976718, 3309046539, 6096976717, 3309046540, 3309046541, 6096925191, 6096925190, 6096925189, 6096925188, 6096976760, 6096976762, 3309046542, 6096976765, 6096976764, 3309046543, 3309046536], "tags": {"building": "yes", "name": "Lewis & Clark County Motor Vehicles", "office": "government"}}, {"type": "way", "id": 324169803, "nodes": [3309046544, 6096978109, 6096978110, 6096978111, 6096978112, 3309046545, 6096978102, 6096978101, 6096978103, 6096978104, 3309046546, 6096978108, 6096978107, 6096978106, 6096978105, 3309046547, 3309046544], "tags": {"building": "yes", "name": "Reserve Financial Center", "office": "financial"}}, {"type": "way", "id": 324169997, "nodes": [3309049550, 3309049551, 3309049552, 3309049553, 3309049550], "tags": {"building": "yes", "name": "Provider Support Services", "office": "accountant"}}, {"type": "way", "id": 543589808, "nodes": [5254896843, 6001601083, 6001601084, 6001601082, 6001601081, 6001601080, 6001601079, 5254896844, 5254896845, 6001602488, 6001602487, 5254896846, 6001602486, 6001602485, 5254896843], "tags": {"building": "yes", "name": "Retz Funeral Home", "shop": "funeral_directors"}}, {"type": "way", "id": 627290110, "nodes": [5921741502, 5921741503, 5921741504, 5921741505, 5921741506, 5921741507, 5921741508, 5921741509, 5921741510, 5921741511, 5921741502], "tags": {"building": "yes", "name": "B & B Market", "shop": "convenience"}}, {"type": "way", "id": 649744865, "nodes": [6097022515, 6097022516, 6097022517, 6097022518, 6097022519, 6097022520, 6097022521, 6097022522, 6097022523, 6097022524, 6097022515], "tags": {"alt_name": "Edward Jones Investments", "brand": "Edward Jones", "brand:wikidata": "Q5343830", "building": "yes", "check_date": "2023-09-22", "name": "Edward Jones", "office": "financial_advisor"}}, {"type": "way", "id": 753756067, "nodes": [7042423239, 7042423240, 7042423241, 7042423242, 7042423243, 7042423244, 7042423239], "tags": {"building": "yes", "name": "Rodney Street Laundry", "self_service": "yes", "shop": "laundry"}}, {"type": "way", "id": 753774740, "nodes": [7042596783, 7042596784, 7042616785, 7042616786, 7042596783], "tags": {"amenity": "bar", "building": "yes", "name": "The Jester's Bar"}}, {"type": "way", "id": 754387445, "nodes": [1122215237, 7047701691, 7047701692, 7047701693, 1122215237], "tags": {"brand": "T-Mobile", "brand:wikidata": "Q3511885", "building": "yes", "name": "T-Mobile", "shop": "mobile_phone"}}, {"type": "way", "id": 757942108, "nodes": [7078455003, 7078455004, 7078455005, 7078455006, 7078455003], "tags": {"building": "yes", "name": "The Hairdressers Inc.", "shop": "hairdresser"}}, {"type": "way", "id": 757942129, "nodes": [7078469735, 7078469736, 7078469737, 7078469738, 7078469735], "tags": {"building": "yes", "name": "Herrmann & Co. Furniture", "shop": "furniture"}}, {"type": "way", "id": 757942147, "nodes": [7078469895, 7078469896, 7078469897, 7078469898, 7078469899, 7078469900, 7078469901, 7078469902, 7078469895], "tags": {"building": "yes", "name": "Nature Conservancy", "office": "association"}}, {"type": "way", "id": 757942150, "nodes": [7078469919, 7078469920, 7078469921, 7078469922, 7078469919], "tags": {"building": "yes", "name": "Margaret Stuart", "office": "yes"}}, {"type": "way", "id": 758601932, "nodes": [7084961428, 7084961429, 7084961430, 7084961431, 7084961432, 7084961433, 7084961434, 7084961435, 7084961436, 7084961437, 7084961428], "tags": {"building": "yes", "name": "Helena Public Schools", "office": "yes"}}]}