{"version": 0.6, "generator": "Overpass API 0.7.62.8 e802775f", "osm3s": {"timestamp_osm_base": "2025-12-06T17:16:00Z", "copyright": "The data included in this document is from www.openstreetmap.org. The data is made available under ODbL."}, "elements": [{"type": "node", "id": 5583693468, "lat": 47.4668845, "lon": -122.3452889, "tags": {"addr:city": "Burien", "addr:housenumber": "816", "addr:postcode": "98166", "addr:state": "WA", "addr:street": "Southwest 152nd Street", "check_date": "2023-04-15", "leisure": "fitness_centre", "name": "The Jungle Gym", "website": "https://www.junglegymfun.com/"}}, {"type": "node", "id": 5583694648, "lat": 47.4669516, "lon": -122.3435703, "tags": {"addr:city": "Burien", "addr:housenumber": "636", "addr:postcode": "98166", "addr:state": "WA", "addr:street": "Southwest 152nd Street", "addr:unit": "B", "check_date": "2023-04-15", "leisure": "fitness_centre", "name": "Be Yoga Burien"}}, {"type": "node", "id": 5583694671, "lat": 47.4666619, "lon": -122.343575, "tags": {"addr:city": "Burien", "addr:housenumber": "639", "addr:postcode": "98166", "addr:state": "WA", "addr:street": "Southwest 152nd Street", "check_date": "2023-04-15", "leisure": "fitness_centre", "name": "BodyStrong"}}, {"type": "node", "id": 5583694742, "lat": 47.4661787, "lon": -122.3381786, "tags": {"addr:city": "Burien", "addr:housenumber": "234", "addr:postcode": "98166", "addr:state": "WA", "addr:street": "Southwest 153rd Street", "check_date": "2023-04-15", "leisure": "fitness_centre", "name": "Renascent Crossfit", "sport": "fitness", "website": "https://renascentathletics.com/"}}, {"type": "node", "id": 5658984330, "lat": 47.4607391, "lon": -122.3359287, "tags": {"leisure": "fitness_centre", "name": "Self Defense Hapkido"}}, {"type": "node", "id": 9556691065, "lat": 47.4661852, "lon": -122.3385521, "tags": {"addr:city": "Burien", "addr:housenumber": "250", "addr:postcode": "98166", "addr:street": "Southwest 153rd Street", "addr:unit": "C", "check_date": "2023-04-15", "leisure": "fitness_centre", "name": "Limitless Studio", "sport": "yoga;barre"}}]}