{"version": 0.6, "generator": "Overpass API 0.7.62.8 e802775f", "osm3s": {"timestamp_osm_base": "2025-12-13T00:25:08Z", "copyright": "The data included in this document is from www.openstreetmap.org. The data is made available under ODbL."}, "elements": [{"type": "node", "id": 10799702069, "lat": 38.8973998, "lon": -104.8405806, "tags": {"addr:city": "Colorado Springs", "addr:housenumber": "750", "addr:postcode": "80907", "addr:state": "CO", "addr:street": "West Garden of the Gods Road", "addr:unit": "125", "contact:facebook": "https://www.facebook.com/AltitudeNinja", "email": "info@altitudemovement.com", "leisure": "fitness_centre", "name": "Altitude Movement", "phone": "+1-719-964-1798", "website": "https://altitudemovement.com"}}, {"type": "node", "id": 10799702072, "lat": 38.8974061, "lon": -104.8465081, "tags": {"leisure": "sports_hall", "name": "Colo Spgs Pickleball \"The Warehouse\" (Indoor Court)", "sport": "pickleball"}}, {"type": "node", "id": 11657761569, "lat": 38.8993802, "lon": -104.8499376, "tags": {"leisure": "fitness_centre", "name": "Kineo Fit Group Training Studio"}}, {"type": "node", "id": 12328224248, "lat": 38.8970631, "lon": -104.8402154, "tags": {"addr:city": "Colorado Springs", "addr:housenumber": "750", "addr:postcode": "80907", "addr:state": "CO", "addr:street": "West Garden of the Gods Road", "addr:unit": "104", "email": "flylifefitness@gmail.com", "leisure": "fitness_centre", "name": "Flylife Fitness", "phone": "+1-719-396-0615", "website": "https://flylifefitness.com"}}]}