{"version": 0.6, "generator": "Overpass API 0.7.62.8 e802775f", "osm3s": {"timestamp_osm_base": "2025-12-06T22:43:45Z", "copyright": "The data included in this document is from www.openstreetmap.org. The data is made available under ODbL."}, "elements": [{"type": "node", "id": 9473190196, "lat": 47.734997, "lon": -122.881743}, {"type": "node", "id": 9473267460, "lat": 47.7123809, "lon": -122.8867914}, {"type": "node", "id": 9473271699, "lat": 47.7333214, "lon": -122.8782182}, {"type": "node", "id": 9473271856, "lat": 47.7332476, "lon": -122.878631}, {"type": "node", "id": 9473271880, "lat": 47.733789, "lon": -122.878977}, {"type": "node", "id": 9473271905, "lat": 47.7332468, "lon": -122.8789875}, {"type": "node", "id": 11522829753, "lat": 47.7351697, "lon": -122.8808968}, {"type": "node", "id": 11522829754, "lat": 47.7351941, "lon": -122.8810514}, {"type": "node", "id": 11522829755, "lat": 47.7341911, "lon": -122.8814032}, {"type": "node", "id": 11522829756, "lat": 47.7341535, "lon": -122.8811703}, {"type": "node", "id": 11522829757, "lat": 47.7343706, "lon": -122.8810947}, {"type": "node", "id": 11522829758, "lat": 47.7343828, "lon": -122.881173}, {"type": "node", "id": 11522829759, "lat": 47.734675, "lon": -122.881892}, {"type": "node", "id": 11522829760, "lat": 47.734607, "lon": -122.881568}, {"type": "node", "id": 11522829761, "lat": 47.735066, "lon": -122.881355}, {"type": "node", "id": 11522829762, "lat": 47.735095, "lon": -122.881495}, {"type": "node", "id": 11522829763, "lat": 47.734959, "lon": -122.881558}, {"type": "node", "id": 11522829764, "lat": 47.7334679, "lon": -122.8788086}, {"type": "node", "id": 11522829765, "lat": 47.7335571, "lon": -122.8789046}, {"type": "node", "id": 11522829766, "lat": 47.7333156, "lon": -122.8791465}, {"type": "node", "id": 11522829767, "lat": 47.7332814, "lon": -122.8790649}, {"type": "node", "id": 11522829768, "lat": 47.7332372, "lon": -122.8791059}, {"type": "node", "id": 11522900469, "lat": 47.7332717, "lon": -122.878596}, {"type": "node", "id": 11522900470, "lat": 47.7332593, "lon": -122.878577}, {"type": "node", "id": 11522900471, "lat": 47.733315, "lon": -122.8784962}, {"type": "node", "id": 11522900472, "lat": 47.7333969, "lon": -122.878621}, {"type": "node", "id": 11522900473, "lat": 47.733317, "lon": -122.8787368}, {"type": "node", "id": 11522900474, "lat": 47.7332238, "lon": -122.8782651}, {"type": "node", "id": 11522900475, "lat": 47.7331641, "lon": -122.877992}, {"type": "node", "id": 11522900476, "lat": 47.7333297, "lon": -122.8779123}, {"type": "node", "id": 11522900477, "lat": 47.7333508, "lon": -122.8780079}, {"type": "node", "id": 11522900478, "lat": 47.7332827, "lon": -122.8780407}, {"type": "node", "id": 11522900479, "lat": 47.733895, "lon": -122.87891}, {"type": "node", "id": 11522900480, "lat": 47.733937, "lon": -122.879058}, {"type": "node", "id": 11522900481, "lat": 47.733832, "lon": -122.879125}, {"type": "node", "id": 11522900482, "lat": 47.7334107, "lon": -122.8790583}, {"type": "node", "id": 11522900483, "lat": 47.7334225, "lon": -122.8790295}, {"type": "node", "id": 11522900484, "lat": 47.7333952, "lon": -122.8789644}, {"type": "node", "id": 11522900485, "lat": 47.733378, "lon": -122.8789804}, {"type": "node", "id": 11522900486, "lat": 47.7333691, "lon": -122.8788742}, {"type": "node", "id": 11522900487, "lat": 47.7334464, "lon": -122.8788249}, {"type": "node", "id": 11522900488, "lat": 47.7334302, "lon": -122.8787778}, {"type": "node", "id": 11522900489, "lat": 47.7333604, "lon": -122.8787947}, {"type": "node", "id": 11522900490, "lat": 47.7332135, "lon": -122.8790496}, {"type": "node", "id": 11522900491, "lat": 47.7332563, "lon": -122.87901}, {"type": "node", "id": 11821413566, "lat": 47.7123853, "lon": -122.8869189}, {"type": "node", "id": 11821413567, "lat": 47.7122844, "lon": -122.8867987}, {"type": "node", "id": 11821413568, "lat": 47.7122888, "lon": -122.8869262}, {"type": "way", "id": 1240251504, "nodes": [11522829753, 11522829754, 11522829755, 11522829756, 11522829757, 11522829758, 11522829753], "tags": {"building": "yes", "source": "microsoft/BuildingFootprints"}}, {"type": "way", "id": 1240251505, "nodes": [9473190196, 11522829759, 11522829760, 11522829761, 11522829762, 11522829763, 9473190196], "tags": {"addr:city": "Brinnon", "addr:country": "US", "addr:county": "Jefferson", "addr:housenumber": "251", "addr:postcode": "98320", "addr:state": "WA", "addr:street": "Hjelvick Rd", "building": "yes", "name": "Yelviks General Store", "opening_hours": "Mo-Su 09:00-17:00", "shop": "general", "source": "microsoft/BuildingFootprints;Jefferson County Washington Open Data Site"}}, {"type": "way", "id": 1240251506, "nodes": [9473271905, 11522900486, 11522900489, 11522900488, 11522900487, 11522829764, 11522829765, 11522900483, 11522900484, 11522900485, 11522900482, 11522829766, 11522829767, 11522829768, 11522900490, 11522900491, 9473271905], "tags": {"addr:city": "Brinnon", "addr:country": "US", "addr:county": "Jefferson", "addr:housenumber": "428", "addr:postcode": "98320", "addr:state": "WA", "addr:street": "Wa Wa Point Rd", "building": "yes", "source": "microsoft/BuildingFootprints;Jefferson County Washington Open Data Site"}}, {"type": "way", "id": 1240251507, "nodes": [9473271856, 11522900469, 11522900470, 11522900471, 11522900472, 11522900473, 9473271856], "tags": {"addr:city": "Brinnon", "addr:country": "US", "addr:county": "Jefferson", "addr:housenumber": "424", "addr:postcode": "98320", "addr:state": "WA", "addr:street": "Wa Wa Point Rd", "building": "yes", "source": "microsoft/BuildingFootprints;Jefferson County Washington Open Data Site"}}, {"type": "way", "id": 1240251508, "nodes": [9473271699, 11522900474, 11522900475, 11522900476, 11522900477, 11522900478, 9473271699], "tags": {"addr:city": "Brinnon", "addr:country": "US", "addr:county": "Jefferson", "addr:housenumber": "434", "addr:postcode": "98320", "addr:state": "WA", "addr:street": "Wa Wa Point Rd", "building": "yes", "source": "microsoft/BuildingFootprints;Jefferson County Washington Open Data Site"}}, {"type": "way", "id": 1240251509, "nodes": [9473271880, 11522900479, 11522900480, 11522900481, 9473271880], "tags": {"addr:city": "Brinnon", "addr:country": "US", "addr:county": "Jefferson", "addr:housenumber": "422", "addr:postcode": "98320", "addr:state": "WA", "addr:street": "Wa Wa Point Rd", "building": "yes", "source": "microsoft/BuildingFootprints;Jefferson County Washington Open Data Site"}}, {"type": "way", "id": 1272992407, "nodes": [11821413568, 11821413567, 9473267460, 11821413566, 11821413568], "tags": {"addr:city": "Brinnon", "addr:country": "US", "addr:county": "Jefferson", "addr:housenumber": "840", "addr:postcode": "98320", "addr:state": "WA", "addr:street": "Seal Rock Road", "building": "detached", "source": "Jefferson County Washington Open Data Site"}}]}