{"version": 0.6, "generator": "Overpass API 0.7.62.8 e802775f", "osm3s": {"timestamp_osm_base": "2025-12-06T04:18:14Z", "copyright": "The data included in this document is from www.openstreetmap.org. The data is made available under ODbL."}, "elements": [{"type": "node", "id": 11420057357, "lat": 48.1745402, "lon": -110.1178828}, {"type": "node", "id": 11420057358, "lat": 48.1744206, "lon": -110.1176869}, {"type": "node", "id": 11420057359, "lat": 48.1743385, "lon": -110.1177997}, {"type": "node", "id": 11420057360, "lat": 48.1744581, "lon": -110.1179955}, {"type": "node", "id": 11420064698, "lat": 48.178524, "lon": -110.110973}, {"type": "node", "id": 11420064699, "lat": 48.1784348, "lon": -110.1113967}, {"type": "node", "id": 11420064700, "lat": 48.1786232, "lon": -110.1111314}, {"type": "node", "id": 11420064703, "lat": 48.1783356, "lon": -110.1112382}, {"type": "node", "id": 11420064931, "lat": 48.1777724, "lon": -110.1109253}, {"type": "node", "id": 11420064932, "lat": 48.1774959, "lon": -110.1113145}, {"type": "node", "id": 11420064935, "lat": 48.17812, "lon": -110.1114949}, {"type": "node", "id": 11420064936, "lat": 48.1780025, "lon": -110.1116643}, {"type": "node", "id": 11420131237, "lat": 48.1746892, "lon": -110.117689}, {"type": "node", "id": 11420131238, "lat": 48.1747168, "lon": -110.1176035}, {"type": "node", "id": 11420131239, "lat": 48.1747819, "lon": -110.1176507}, {"type": "node", "id": 11420131240, "lat": 48.1747543, "lon": -110.1177362}, {"type": "node", "id": 11420217717, "lat": 48.1779655, "lon": -110.1116065}, {"type": "node", "id": 11420217718, "lat": 48.1780827, "lon": -110.1114366}, {"type": "node", "id": 11420217725, "lat": 48.1776453, "lon": -110.1107221}, {"type": "node", "id": 11420217726, "lat": 48.1777179, "lon": -110.1108382}, {"type": "node", "id": 11420217727, "lat": 48.1774396, "lon": -110.1112246}, {"type": "node", "id": 11420217728, "lat": 48.1775929, "lon": -110.1110088}, {"type": "node", "id": 11420217729, "lat": 48.1775214, "lon": -110.1108945}, {"type": "way", "id": 1231346995, "nodes": [11420057360, 11420057357, 11420057358, 11420057359, 11420057360], "tags": {"addr:city": "Big Sandy", "addr:country": "US", "addr:housenumber": "78828", "addr:postcode": "59520", "addr:state": "MT", "addr:street": "US 87 (MT)", "building": "yes", "name": "NAPA Autoparts - Big Sandy", "opening_hours": "Mo-Fr 08:00-17:00", "shop": "car_parts", "wheelchair": "yes"}}, {"type": "way", "id": 1231347056, "nodes": [11420064700, 11420064698, 11420064703, 11420064699, 11420064700], "tags": {"addr:city": "Big Sandy", "addr:country": "US", "addr:housenumber": "53", "addr:postcode": "59520", "addr:state": "MT", "addr:street": "Johannes Avenue", "amenity": "restaurant", "building": "yes", "cuisine": "american", "name": "Pep's Bar", "operator": "Pep's", "takeaway": "yes", "wheelchair": "yes"}}, {"type": "way", "id": 1231347116, "nodes": [11420217717, 11420064936, 11420064935, 11420217718, 11420217717], "tags": {"addr:city": "Big Sandy", "addr:country": "US", "addr:housenumber": "88", "addr:postcode": "59520", "addr:state": "MT", "addr:street": "Johannes Avenue", "amenity": "bar", "building:part": "yes", "name": "Mint Bar - Big Sandy", "wheelchair": "yes"}}, {"type": "way", "id": 1231356355, "nodes": [11420131240, 11420131239, 11420131238, 11420131237, 11420131240], "tags": {"addr:city": "Big Sandy", "addr:country": "US", "addr:housenumber": "78848", "addr:postcode": "59520", "addr:state": "MT", "addr:street": "US 87 (MT)", "amenity": "fuel", "brand": "Cenex", "building": "roof", "layer": "2", "name": "Mountain View Co-Op 24/7 Fuel Island", "operator": "Mountain View Coop", "payment:cfn": "yes", "payment:credit_cards": "yes", "payment:debit_cards": "yes", "shop": "no", "wheelchair": "yes"}}, {"type": "way", "id": 1231365224, "nodes": [11420217725, 11420217729, 11420217728, 11420217726, 11420217725], "tags": {"addr:city": "Big Sandy", "addr:country": "US", "addr:housenumber": "134", "addr:postcode": "59520", "addr:state": "MT", "addr:street": "Johannes Avenue", "amenity": "bar", "building": "yes", "name": "Club Bar", "smoking": "outside", "wheelchair": "yes"}}, {"type": "way", "id": 1231365225, "nodes": [11420217726, 11420217728, 11420217727, 11420064932, 11420064931, 11420217726], "tags": {"addr:city": "Big Sandy", "addr:country": "US", "addr:housenumber": "122", "addr:postcode": "59520", "addr:state": "MT", "addr:street": "Johannes Avenue", "building": "yes", "name": "Mountaineer News", "office": "newspaper", "operator": "Mountaineer News", "wheelchair": "yes"}}]}