{"version": 0.6, "generator": "Overpass API 0.7.62.8 e802775f", "osm3s": {"timestamp_osm_base": "2025-12-06T22:07:59Z", "copyright": "The data included in this document is from www.openstreetmap.org. The data is made available under ODbL."}, "elements": [{"type": "node", "id": 356551584, "lat": 48.1464769, "lon": -122.207723}, {"type": "node", "id": 2174319374, "lat": 48.1516385, "lon": -122.192233, "tags": {"addr:city": "Marysville", "addr:housenumber": "2707", "addr:postcode": "98271", "addr:state": "WA", "addr:street": "171st Place Northeast", "amenity": "fast_food", "branch": "Lakewood", "brand": "Five Guys", "brand:wikidata": "Q1131810", "cuisine": "burger", "name": "Five Guys", "official_name": "Five Guys Burgers and Fries", "opening_hours": "11:00-22:00", "phone": "+1-360-652-8707", "takeaway": "yes", "website": "https://www.fiveguys.com/"}}, {"type": "node", "id": 2276456330, "lat": 48.1347171, "lon": -122.1833557}, {"type": "node", "id": 2276456331, "lat": 48.1502912, "lon": -122.1922144, "tags": {"addr:city": "Marysville", "addr:housenumber": "16924", "addr:postcode": "98271", "addr:state": "WA", "addr:street": "Twin Lakes Avenue", "brand": "Best Buy", "brand:wikidata": "Q533415", "check_date": "2022-06-11", "name": "Best Buy", "phone": "+1-360-652-1219", "shop": "electronics", "website": "https://stores.bestbuy.com/wa/marysville/16924-twin-lakes-ave-1415.html"}}, {"type": "node", "id": 2276456333, "lat": 48.1528769, "lon": -122.1926719}, {"type": "node", "id": 2276456336, "lat": 48.1513544, "lon": -122.1932266, "tags": {"addr:city": "Marysville", "addr:housenumber": "17101", "addr:postcode": "98271", "addr:state": "WA", "addr:street": "27th Avenue Northeast", "addr:unit": "B107", "alt_name": "Jamba Juice", "amenity": "fast_food", "branch": "Lakewood Crossing", "brand": "Jamba", "brand:wikidata": "Q3088784", "cuisine": "juice", "name": "Jamba", "opening_hours": "09:00-20:30", "payment:android_pay": "yes", "payment:apple_pay": "yes", "phone": "+1-360-652-2083", "takeaway": "yes", "website": "https://www.jambajuice.com/"}}, {"type": "node", "id": 2276456339, "lat": 48.1506532, "lon": -122.1921609, "tags": {"name": "Mor", "shop": "furniture"}}, {"type": "node", "id": 2276456347, "lat": 48.1511433, "lon": -122.1932266, "tags": {"addr:city": "Marysville", "addr:housenumber": "17101", "addr:postcode": "98271", "addr:state": "WA", "addr:street": "27th Avenue Northeast", "addr:unit": "A", "amenity": "cafe", "branch": "Lakewood Crossing - Marysville", "brand": "Starbucks", "brand:wikidata": "Q37158", "check_date": "2024-10-12", "cuisine": "coffee_shop", "internet_access": "wlan", "name": "Starbucks", "official_name": "Starbucks Coffee", "phone": "+1-360-652-0729", "ref": "18334", "takeaway": "yes", "website": "https://www.starbucks.com/store-locator/store/18334/lakewood-crossing-marysville-17101-27th-avenue-ne-a-marysville-wa-982714732-us"}}, {"type": "node", "id": 2276456350, "lat": 48.1327308, "lon": -122.1867172, "tags": {"name": "The Plant Farm at Smokey Point", "shop": "garden_centre"}}, {"type": "node", "id": 2276456360, "lat": 48.1278051, "lon": -122.1845317}, {"type": "node", "id": 2276456361, "lat": 48.1278128, "lon": -122.1840967}, {"type": "node", "id": 2276456364, "lat": 48.1280779, "lon": -122.1841072}, {"type": "node", "id": 2276456365, "lat": 48.1280952, "lon": -122.1840886}, {"type": "node", "id": 2276456366, "lat": 48.1283091, "lon": -122.1845429}, {"type": "node", "id": 2276456367, "lat": 48.128317, "lon": -122.1840974}, {"type": "node", "id": 2276456368, "lat": 48.1285082, "lon": -122.184537}, {"type": "node", "id": 2276456369, "lat": 48.1285188, "lon": -122.1839337}, {"type": "node", "id": 2276456371, "lat": 48.1287515, "lon": -122.1839429}, {"type": "node", "id": 2276456388, "lat": 48.1308528, "lon": -122.1845325}, {"type": "node", "id": 2276456389, "lat": 48.1308622, "lon": -122.1840026}, {"type": "node", "id": 2276456390, "lat": 48.1310628, "lon": -122.1845669}, {"type": "node", "id": 2276456391, "lat": 48.1310723, "lon": -122.1840304}, {"type": "node", "id": 2276456410, "lat": 48.1343069, "lon": -122.1848398}, {"type": "node", "id": 2276456411, "lat": 48.1343321, "lon": -122.1841432}, {"type": "node", "id": 2276456412, "lat": 48.1347856, "lon": -122.1848787}, {"type": "node", "id": 2276456413, "lat": 48.1348108, "lon": -122.1841821}, {"type": "node", "id": 2276456414, "lat": 48.1356519, "lon": -122.1850593}, {"type": "node", "id": 2276456415, "lat": 48.1356746, "lon": -122.184545}, {"type": "node", "id": 2276456416, "lat": 48.1359242, "lon": -122.1850863}, {"type": "node", "id": 2276456417, "lat": 48.1359469, "lon": -122.1845719}, {"type": "node", "id": 2276456418, "lat": 48.1359313, "lon": -122.1853417}, {"type": "node", "id": 2276456419, "lat": 48.1359926, "lon": -122.1840853}, {"type": "node", "id": 2276456421, "lat": 48.1360781, "lon": -122.1833398}, {"type": "node", "id": 2276456422, "lat": 48.1365749, "lon": -122.1833323}, {"type": "node", "id": 2276456423, "lat": 48.1368313, "lon": -122.1854992}, {"type": "node", "id": 2276456424, "lat": 48.1369356, "lon": -122.1833352}, {"type": "node", "id": 2276456429, "lat": 48.1436201, "lon": -122.1864388}, {"type": "node", "id": 2276456430, "lat": 48.143699, "lon": -122.1857728}, {"type": "node", "id": 2276456431, "lat": 48.143957, "lon": -122.1864972}, {"type": "node", "id": 2276456432, "lat": 48.1440466, "lon": -122.1857171}, {"type": "node", "id": 2276456462, "lat": 48.1466517, "lon": -122.1900825}, {"type": "node", "id": 2276456471, "lat": 48.1469415, "lon": -122.1928945}, {"type": "node", "id": 2276456475, "lat": 48.1469816, "lon": -122.1910404}, {"type": "node", "id": 2276456485, "lat": 48.1471879, "lon": -122.1860488}, {"type": "node", "id": 2276456487, "lat": 48.1473183, "lon": -122.1893608}, {"type": "node", "id": 2276456489, "lat": 48.1473178, "lon": -122.185704}, {"type": "node", "id": 2276456493, "lat": 48.1475262, "lon": -122.1929229}, {"type": "node", "id": 2276456495, "lat": 48.1475308, "lon": -122.1927094}, {"type": "node", "id": 2276456498, "lat": 48.1477802, "lon": -122.1910792}, {"type": "node", "id": 2276456501, "lat": 48.1478375, "lon": -122.1927243}, {"type": "node", "id": 2276456502, "lat": 48.14787, "lon": -122.1912228}, {"type": "node", "id": 2276456504, "lat": 48.1479457, "lon": -122.185704}, {"type": "node", "id": 2276456515, "lat": 48.1483796, "lon": -122.1933984}, {"type": "node", "id": 2276456517, "lat": 48.1484116, "lon": -122.1921013}, {"type": "node", "id": 2276456521, "lat": 48.1485496, "lon": -122.1896023}, {"type": "node", "id": 2276456522, "lat": 48.1485561, "lon": -122.1892926}, {"type": "node", "id": 2276456529, "lat": 48.1487741, "lon": -122.189613}, {"type": "node", "id": 2276456530, "lat": 48.1487806, "lon": -122.1893034}, {"type": "node", "id": 2276456540, "lat": 48.1491545, "lon": -122.1921424}, {"type": "node", "id": 2276456541, "lat": 48.149157, "lon": -122.1920416}, {"type": "node", "id": 2276456542, "lat": 48.1491977, "lon": -122.1934437}, {"type": "node", "id": 2276456543, "lat": 48.1492013, "lon": -122.1932962}, {"type": "node", "id": 2276456546, "lat": 48.1493001, "lon": -122.1933017}, {"type": "node", "id": 2276456547, "lat": 48.1493015, "lon": -122.1932453}, {"type": "node", "id": 2276456548, "lat": 48.1493116, "lon": -122.1920501}, {"type": "node", "id": 2276456549, "lat": 48.1494579, "lon": -122.1921014}, {"type": "node", "id": 2276456550, "lat": 48.1494589, "lon": -122.1920583}, {"type": "node", "id": 2276456552, "lat": 48.149481, "lon": -122.1932552}, {"type": "node", "id": 2276456554, "lat": 48.1495093, "lon": -122.1921042}, {"type": "node", "id": 2276456580, "lat": 48.1500676, "lon": -122.1898312}, {"type": "node", "id": 2276456581, "lat": 48.150077, "lon": -122.1894853}, {"type": "node", "id": 2276456588, "lat": 48.1502541, "lon": -122.1898427}, {"type": "node", "id": 2276456589, "lat": 48.1502636, "lon": -122.1894968}, {"type": "node", "id": 2276456647, "lat": 48.1512486, "lon": -122.1899137}, {"type": "node", "id": 2276456659, "lat": 48.1515178, "lon": -122.1902343}, {"type": "node", "id": 2276456660, "lat": 48.1515403, "lon": -122.1906844}, {"type": "node", "id": 2276456661, "lat": 48.1515367, "lon": -122.1905443}, {"type": "node", "id": 2276456668, "lat": 48.1517351, "lon": -122.1906967}, {"type": "node", "id": 2276456669, "lat": 48.1517383, "lon": -122.1905807}, {"type": "node", "id": 2276456671, "lat": 48.1517446, "lon": -122.1928299}, {"type": "node", "id": 2276456672, "lat": 48.151748, "lon": -122.1925966}, {"type": "node", "id": 2276456677, "lat": 48.1518974, "lon": -122.192835}, {"type": "node", "id": 2276456678, "lat": 48.1519009, "lon": -122.1926017}, {"type": "node", "id": 2276456679, "lat": 48.1518873, "lon": -122.1934134}, {"type": "node", "id": 2276456680, "lat": 48.1518878, "lon": -122.1931152}, {"type": "node", "id": 2276456684, "lat": 48.1519757, "lon": -122.1934138}, {"type": "node", "id": 2276456685, "lat": 48.1519763, "lon": -122.1931157}, {"type": "node", "id": 2276472049, "lat": 48.1500724, "lon": -122.1898378, "tags": {"amenity": "biergarten"}}, {"type": "node", "id": 2287653871, "lat": 48.1333361, "lon": -122.1849087}, {"type": "node", "id": 2287653872, "lat": 48.1333622, "lon": -122.1840899}, {"type": "node", "id": 2287653873, "lat": 48.1336809, "lon": -122.1849335}, {"type": "node", "id": 2287653874, "lat": 48.1336903, "lon": -122.1846382}, {"type": "node", "id": 2287653875, "lat": 48.1336975, "lon": -122.1844128}, {"type": "node", "id": 2287653876, "lat": 48.133707, "lon": -122.1841146}, {"type": "node", "id": 2287655966, "lat": 48.131151, "lon": -122.1837143}, {"type": "node", "id": 2292882519, "lat": 48.1338338, "lon": -122.1846485}, {"type": "node", "id": 2292882520, "lat": 48.133841, "lon": -122.184423}, {"type": "node", "id": 2292886946, "lat": 48.1275383, "lon": -122.1841834, "tags": {"check_date": "2025-07-20", "name": "Automotive Diagnostic Center", "shop": "car_repair"}}, {"type": "node", "id": 2292886948, "lat": 48.1327011, "lon": -122.1836207}, {"type": "node", "id": 2292886955, "lat": 48.1326002, "lon": -122.1841438, "tags": {"fixme": "position", "name": "30 Minute Muffler", "shop": "car_repair"}}, {"type": "node", "id": 2330164753, "lat": 48.1466087, "lon": -122.1890892}, {"type": "node", "id": 2836723338, "lat": 48.1535528, "lon": -122.1918484}, {"type": "node", "id": 2836864875, "lat": 48.1535792, "lon": -122.1923228}, {"type": "node", "id": 2836864876, "lat": 48.1535792, "lon": -122.1919099}, {"type": "node", "id": 2836864877, "lat": 48.1535175, "lon": -122.1917928}, {"type": "node", "id": 2836864878, "lat": 48.1534718, "lon": -122.1919654}, {"type": "node", "id": 2836864879, "lat": 48.1534065, "lon": -122.1920399}, {"type": "node", "id": 2836864880, "lat": 48.1525514, "lon": -122.1920085}, {"type": "node", "id": 2836864881, "lat": 48.1524898, "lon": -122.19199}, {"type": "node", "id": 2836864882, "lat": 48.152461, "lon": -122.1923105}, {"type": "node", "id": 2836864883, "lat": 48.1525186, "lon": -122.1923166}, {"type": "node", "id": 2836884060, "lat": 48.1399084, "lon": -122.1844049}, {"type": "node", "id": 2854565885, "lat": 48.1495631, "lon": -122.1898012, "tags": {"addr:suite": "F101", "amenity": "restaurant", "cuisine": "sushi", "name": "Belt Sushi"}}, {"type": "node", "id": 2854565886, "lat": 48.1495686, "lon": -122.1895222, "tags": {"addr:suite": "F105", "amenity": "ice_cream", "brand": "Cold Stone Creamery", "brand:wikidata": "Q1094923", "cuisine": "ice_cream", "name": "Cold Stone Creamery"}}, {"type": "node", "id": 2854565887, "lat": 48.149565, "lon": -122.1897136, "tags": {"addr:suite": "F103", "amenity": "restaurant", "contact:yelp": "https://www.yelp.com/biz/hot-iron-mongolian-grill-marysville", "cuisine": "mongolian_grill", "name": "Hot Iron Mongolian Grill", "note": "Receipt says suite is #103, door says F103", "opening_hours": "Su-Sa 11:00-21:00", "phone": "+1-360-652-9711"}}, {"type": "node", "id": 2854565888, "lat": 48.1466073, "lon": -122.190713, "tags": {"addr:unit": "K101", "alt_name": "Miyako's", "amenity": "restaurant", "check_date": "2024-10-12", "cuisine": "asian", "name": "Miyako's Teriyaki & Wok", "opening_hours": "Mo-Sa 11:00-21:00; Su off", "phone": "+1-360-654-1920", "wheelchair": "yes"}}, {"type": "node", "id": 2854565889, "lat": 48.1466185, "lon": -122.1901805, "tags": {"addr:city": "Marysville", "addr:housenumber": "16516", "addr:postcode": "98271", "addr:state": "WA", "addr:street": "Twin Lakes Avenue", "addr:unit": "105", "branch": "Marysville", "brand": "Mattress Firm", "brand:wikidata": "Q6791878", "check_date": "2024-10-12", "contact:sms": "+1 360-469-6180", "delivery": "yes", "name": "Mattress Firm", "opening_hours": "Mo-Sa 09:00-21:00; Su 10:00-18:00; Nov 23 09:00-18:00; Nov 24 off; Nov 25 08:00-21:00; Nov 26-27 09:00-21:00", "phone": "+1-360-652-0213", "ref": "17442", "shop": "bed", "website": "https://www.mattressfirm.com/en-us/stores/wa/marysville/508021/"}}, {"type": "node", "id": 2854565890, "lat": 48.1495712, "lon": -122.189397, "tags": {"addr:suite": "F107", "alt_name": "Verizon Wireless", "brand": "Verizon", "brand:wikidata": "Q919641", "name": "Verizon", "shop": "mobile_phone"}}, {"type": "node", "id": 2877058486, "lat": 48.1495701, "lon": -122.189554, "tags": {"addr:city": "Marysville", "addr:housenumber": "16822", "addr:postcode": "98270", "addr:state": "WA", "addr:street": "Twin Lakes Avenue", "amenity": "bank", "atm": "yes", "brand": "BECU", "brand:wikidata": "Q4835409", "name": "BECU", "opening_hours": "09:00-18:00"}}, {"type": "node", "id": 2903713167, "lat": 48.1507376, "lon": -122.1932975, "tags": {"name": "Reaction Physical Therapy", "office": "clinic"}}, {"type": "node", "id": 2903729805, "lat": 48.1506312, "lon": -122.1933995, "tags": {"name": "The Wine Shop", "shop": "alcohol"}}, {"type": "node", "id": 2903729806, "lat": 48.1507796, "lon": -122.1935385, "tags": {"amenity": "dentist", "name": "Lakewood Dental Care"}}, {"type": "node", "id": 2958319363, "lat": 48.1488606, "lon": -122.192212, "tags": {"amenity": "pharmacy", "brand": "CVS Pharmacy", "brand:website": "https://www.cvs.com/", "brand:wikidata": "Q2078880", "dispensing": "yes", "healthcare": "pharmacy", "name": "CVS Pharmacy", "short_name": "CVS", "website": "https://www.cvs.com/store-locator/marysville-wa-pharmacies/16818-twin-lakes-ave-marysville-wa-98271/storeid=17272"}}, {"type": "node", "id": 2958319364, "lat": 48.1491389, "lon": -122.1920927, "tags": {"amenity": "bicycle_parking", "bicycle_parking": "bollard", "capacity": "20", "covered": "no", "fee": "no"}}, {"type": "node", "id": 2958331579, "lat": 48.1489118, "lon": -122.1920369, "tags": {"amenity": "bench", "backrest": "yes"}}, {"type": "node", "id": 3191024361, "lat": 48.1506564, "lon": -122.1909432, "tags": {"addr:housenumber": "17020 #C101", "addr:street": "Twin Lakes Avenue", "old_name": "Payless ShoeSource", "shop": "vacant"}}, {"type": "node", "id": 3191024362, "lat": 48.1506743, "lon": -122.1905983, "tags": {"addr:housenumber": "17020 #C106", "addr:street": "Twin Lakes Avenue", "amenity": "restaurant", "cuisine": "thai", "name": "Mae Phim", "opening_hours": "Su-Th 11:00-21:00; Fr-Sa 11:00-22:00", "phone": "+1-360-652-0022"}}, {"type": "node", "id": 3191024363, "lat": 48.1506635, "lon": -122.1902314, "tags": {"addr:housenumber": "17020 #C101", "addr:state": "WA", "addr:street": "Twin Lakes Avenue", "amenity": "restaurant", "brand": "Buffalo Wild Wings", "brand:wikidata": "Q509255", "cuisine": "wings", "name": "Buffalo Wild Wings"}}, {"type": "node", "id": 3191024364, "lat": 48.15067, "lon": -122.1907064, "tags": {"addr:housenumber": "17020 #c104", "addr:street": "Twin Lakes Avenue", "brand": "Sport Clips", "brand:wikidata": "Q7579310", "name": "Sport Clips", "opening_hours": "Mo-Fr 09:00-19:00; Sa 09:00-18:00; Su 11:00-17:00", "shop": "hairdresser"}}, {"type": "node", "id": 3191024365, "lat": 48.1506542, "lon": -122.190387, "tags": {"addr:housenumber": "17020 #108", "addr:street": "Twin Lakes Avenue", "brand": "Mattress Depot USA", "brand:wikidata": "Q108413386", "check_date": "2024-06-20", "check_date:opening_hours": "2024-06-20", "name": "Mattress Depot USA", "opening_hours": "Mo-Th 10:00-20:00; Fr-Sa 10:00-19:00; Su 10:00-18:00", "shop": "bed", "website": "https://www.mattressdepotusa.com/location/marysville-store/"}}, {"type": "node", "id": 3191024366, "lat": 48.1506648, "lon": -122.190868, "tags": {"addr:housenumber": "17020 #C103", "addr:street": "Twin Lakes Avenue", "brand": "Cricket Wireless", "brand:wikidata": "Q5184987", "name": "Cricket Wireless", "shop": "mobile_phone", "short_name": "Cricket"}}, {"type": "node", "id": 3191034748, "lat": 48.1512573, "lon": -122.1932178, "tags": {"addr:housenumber": "17101", "addr:state": "WA", "addr:street": "27th Avenue Northeast", "addr:unit": "105", "amenity": "fast_food", "brand": "Subway", "brand:wikidata": "Q244457", "check_date": "2017-01-08", "cuisine": "sandwich", "fixme:atp": "no ATP match, check if still exists", "name": "Subway", "opening_hours": "Mo-Fr 07:00-22:00; Sa 08:00-22:00; Su 09:00-22:00", "phone": "+1-360-652-8578", "takeaway": "yes"}}, {"type": "node", "id": 3443540193, "lat": 48.1456453, "lon": -122.1886803, "tags": {"addr:city": "Marysville", "addr:housenumber": "16410", "addr:postcode": "98271", "addr:street": "Twin Lakes Avenue", "amenity": "restaurant", "check_date": "2024-10-12", "cuisine": "barbecue", "name": "The K BBQ"}}, {"type": "node", "id": 3712362980, "lat": 48.1410389, "lon": -122.1847869}, {"type": "node", "id": 3819859104, "lat": 48.1261838, "lon": -122.182932, "tags": {"addr:city": "Marysville", "addr:housenumber": "14309", "addr:postcode": "98223", "addr:state": "WA", "addr:street": "Smokey Point Boulevard", "name": "IBEW Local 89", "office": "yes", "website": "https://ibew89.org/"}}, {"type": "node", "id": 3897665703, "lat": 48.1350914, "lon": -122.1851018, "tags": {"addr:city": "Marysville", "addr:housenumber": "15310", "addr:postcode": "98271", "addr:state": "WA", "addr:street": "Smokey Point Boulevard", "name": "Simple Box Storage Containers - Marysville", "phone": "+1-360-329-2694", "shop": "storage_rental", "website": "https://getsimplebox.com/marysville"}}, {"type": "node", "id": 4381346093, "lat": 48.1262806, "lon": -122.1833618, "tags": {"name": "Classic Car Addiction", "name:en": "Classic Car Addiction", "shop": "car"}}, {"type": "node", "id": 4415823444, "lat": 48.1453803, "lon": -122.1901379, "tags": {"addr:city": "Marysville", "addr:housenumber": "16414", "addr:postcode": "98271", "addr:street": "Twin Lakes Avenue", "brand": "Marshalls", "brand:wikidata": "Q15903261", "check_date": "2024-10-12", "name": "Marshalls", "opening_hours": "Mo-Fr,Su 08:00-22:00; Sa 07:00-23:00", "shop": "department_store"}}, {"type": "node", "id": 4415823445, "lat": 48.1460149, "lon": -122.1901687, "tags": {"addr:city": "Marysville", "addr:housenumber": "16508", "addr:postcode": "98271-4701", "addr:state": "WA", "addr:street": "Twin Lakes Avenue", "brand": "Petco", "brand:wikidata": "Q7171798", "check_date": "2024-10-12", "name": "Petco", "opening_hours": "Mo-Sa 09:00-20:00; Su 10:00-19:00", "phone": "+1-360-654-1594", "ref": "1234", "shop": "pet", "website": "https://stores.petco.com/wa/marysville/pet-supplies-marysville-wa-1234.html"}}, {"type": "node", "id": 4415823446, "lat": 48.1463076, "lon": -122.1901791, "tags": {"addr:city": "Marysville", "addr:housenumber": "16512", "addr:postcode": "98271", "addr:state": "WA", "addr:street": "Twin Lakes Avenue", "check_date": "2024-10-12", "name": "Boot Barn", "shop": "clothes"}}, {"type": "node", "id": 4415823447, "lat": 48.1456876, "lon": -122.1901392, "tags": {"addr:city": "Marysville", "addr:housenumber": "16418", "addr:postcode": "98271", "addr:state": "WA", "addr:street": "Twin Lakes Avenue", "brand": "Michaels", "brand:wikidata": "Q6835667", "check_date": "2024-10-12", "name": "Michaels", "opening_hours": "Mo-Sa 09:00-21:00; Su 10:00-19:00", "phone": "+1-360-652-0175", "ref": "7755", "shop": "craft", "website": "https://locations.michaels.com/wa/marysville/7755"}}, {"type": "node", "id": 4415823448, "lat": 48.1466168, "lon": -122.1903908, "tags": {"alt_name": "Sally Beauty Supply", "brand": "Sally Beauty", "brand:wikidata": "Q7405065", "check_date": "2024-10-12", "name": "Sally Beauty", "opening_hours": "Mo-Sa 10:00-19:00; Su 11:00-18:00", "phone": "+1-360-652-4203", "shop": "hairdresser_supply"}}, {"type": "node", "id": 5262642571, "lat": 48.1524931, "lon": -122.1924276}, {"type": "node", "id": 5262642572, "lat": 48.1524926, "lon": -122.1926698}, {"type": "node", "id": 5271243421, "lat": 48.1182655, "lon": -122.1811259}, {"type": "node", "id": 5271243422, "lat": 48.1181257, "lon": -122.1811207}, {"type": "node", "id": 5271243423, "lat": 48.1181302, "lon": -122.1808531}, {"type": "node", "id": 5271243424, "lat": 48.1182272, "lon": -122.1808567}, {"type": "node", "id": 5271243425, "lat": 48.1182254, "lon": -122.1809691}, {"type": "node", "id": 5271243426, "lat": 48.1182681, "lon": -122.1809707}, {"type": "node", "id": 5271243431, "lat": 48.1213176, "lon": -122.1837084}, {"type": "node", "id": 5271243432, "lat": 48.1198988, "lon": -122.1815028}, {"type": "node", "id": 5271243434, "lat": 48.1199819, "lon": -122.1813284}, {"type": "node", "id": 5271243435, "lat": 48.1198983, "lon": -122.181329}, {"type": "node", "id": 5271252104, "lat": 48.1302995, "lon": -122.1837098}, {"type": "node", "id": 5271252105, "lat": 48.1301586, "lon": -122.1837317}, {"type": "node", "id": 5271252106, "lat": 48.1301725, "lon": -122.1839326}, {"type": "node", "id": 5271252107, "lat": 48.1302668, "lon": -122.183918}, {"type": "node", "id": 5271252108, "lat": 48.1302701, "lon": -122.1839649}, {"type": "node", "id": 5271252109, "lat": 48.1303271, "lon": -122.183956}, {"type": "node", "id": 5271252110, "lat": 48.1303303, "lon": -122.1840026}, {"type": "node", "id": 5271252111, "lat": 48.1304187, "lon": -122.1839889}, {"type": "node", "id": 5271252112, "lat": 48.1304091, "lon": -122.183851}, {"type": "node", "id": 5271252113, "lat": 48.1304184, "lon": -122.1838495}, {"type": "node", "id": 5271252114, "lat": 48.1304046, "lon": -122.1836503}, {"type": "node", "id": 5271252115, "lat": 48.1302966, "lon": -122.1836671}, {"type": "node", "id": 5271272607, "lat": 48.1405925, "lon": -122.1832646}, {"type": "node", "id": 5271272608, "lat": 48.14161, "lon": -122.1853083}, {"type": "node", "id": 5271272609, "lat": 48.1416018, "lon": -122.1844478}, {"type": "node", "id": 5271272610, "lat": 48.1409763, "lon": -122.1844611}, {"type": "node", "id": 5271272611, "lat": 48.1409775, "lon": -122.1845818}, {"type": "node", "id": 5271272612, "lat": 48.1409554, "lon": -122.1845823}, {"type": "node", "id": 5271272613, "lat": 48.1409574, "lon": -122.1847887}, {"type": "node", "id": 5271272615, "lat": 48.1410429, "lon": -122.1852098}, {"type": "node", "id": 5271272616, "lat": 48.1411165, "lon": -122.1852082}, {"type": "node", "id": 5271272617, "lat": 48.1411175, "lon": -122.1853188}, {"type": "node", "id": 5271274922, "lat": 48.139834, "lon": -122.1844029}, {"type": "node", "id": 5271274924, "lat": 48.1399049, "lon": -122.1847066}, {"type": "node", "id": 5271274925, "lat": 48.1398327, "lon": -122.1847046}, {"type": "node", "id": 5271274926, "lat": 48.1398295, "lon": -122.1849706}, {"type": "node", "id": 5271274927, "lat": 48.1403209, "lon": -122.1849836}, {"type": "node", "id": 5271274928, "lat": 48.1403239, "lon": -122.184723}, {"type": "node", "id": 5271274929, "lat": 48.1404464, "lon": -122.1847262}, {"type": "node", "id": 5271274930, "lat": 48.1404515, "lon": -122.1842918}, {"type": "node", "id": 5271274931, "lat": 48.1403311, "lon": -122.1842886}, {"type": "node", "id": 5271274932, "lat": 48.1403336, "lon": -122.1840736}, {"type": "node", "id": 5271274933, "lat": 48.1399105, "lon": -122.1840624}, {"type": "node", "id": 5271274934, "lat": 48.1399098, "lon": -122.1841226}, {"type": "node", "id": 5271274935, "lat": 48.1398373, "lon": -122.1841207}, {"type": "node", "id": 5271274936, "lat": 48.1400829, "lon": -122.1860382}, {"type": "node", "id": 5271274938, "lat": 48.1397378, "lon": -122.1832382}, {"type": "node", "id": 5271279305, "lat": 48.1348073, "lon": -122.1834536}, {"type": "node", "id": 5271279306, "lat": 48.1347183, "lon": -122.1834562}, {"type": "node", "id": 5271279308, "lat": 48.134806, "lon": -122.1833531}, {"type": "node", "id": 5271279310, "lat": 48.1346264, "lon": -122.183567}, {"type": "node", "id": 5271279312, "lat": 48.1348564, "lon": -122.1835603}, {"type": "node", "id": 5271279319, "lat": 48.134899, "lon": -122.185034}, {"type": "node", "id": 5271279320, "lat": 48.1349453, "lon": -122.183999}, {"type": "node", "id": 5271280321, "lat": 48.1343747, "lon": -122.1839465}, {"type": "node", "id": 5271280322, "lat": 48.1342272, "lon": -122.1841205}, {"type": "node", "id": 5271280323, "lat": 48.1341871, "lon": -122.1850518}, {"type": "node", "id": 5271280324, "lat": 48.1348989, "lon": -122.1851444}, {"type": "node", "id": 5410568042, "lat": 48.1183699, "lon": -122.1806844}, {"type": "node", "id": 5410568043, "lat": 48.1184268, "lon": -122.1807052}, {"type": "node", "id": 5410568044, "lat": 48.1184416, "lon": -122.1807019}, {"type": "node", "id": 5410568045, "lat": 48.1183408, "lon": -122.1806462}, {"type": "node", "id": 5410568046, "lat": 48.1181479, "lon": -122.1814502}, {"type": "node", "id": 5410568047, "lat": 48.1182889, "lon": -122.1814241}, {"type": "node", "id": 5410568048, "lat": 48.1183176, "lon": -122.1813999}, {"type": "node", "id": 5410568049, "lat": 48.1183395, "lon": -122.1813637}, {"type": "node", "id": 5410568050, "lat": 48.1183592, "lon": -122.1808527}, {"type": "node", "id": 5410568051, "lat": 48.1183547, "lon": -122.1808692}, {"type": "node", "id": 5410568052, "lat": 48.1183664, "lon": -122.180844}, {"type": "node", "id": 5410568053, "lat": 48.1184326, "lon": -122.1808487}, {"type": "node", "id": 5410568054, "lat": 48.1184469, "lon": -122.1808648}, {"type": "node", "id": 5410568055, "lat": 48.1184568, "lon": -122.1808776}, {"type": "node", "id": 5410568056, "lat": 48.1183547, "lon": -122.1808883}, {"type": "node", "id": 5410568057, "lat": 48.1183507, "lon": -122.1813181}, {"type": "node", "id": 5410568058, "lat": 48.1184522, "lon": -122.1806896}, {"type": "node", "id": 5410568059, "lat": 48.1182579, "lon": -122.1814379}, {"type": "node", "id": 5410568060, "lat": 48.1179738, "lon": -122.1814495}, {"type": "node", "id": 5410568061, "lat": 48.1179774, "lon": -122.1806522}, {"type": "node", "id": 5410568064, "lat": 48.1173282, "lon": -122.1800186}, {"type": "node", "id": 5410568065, "lat": 48.1173412, "lon": -122.1800501}, {"type": "node", "id": 5410568066, "lat": 48.1173041, "lon": -122.1800052}, {"type": "node", "id": 5410568067, "lat": 48.1171738, "lon": -122.1800159}, {"type": "node", "id": 5410568068, "lat": 48.117253, "lon": -122.1800032}, {"type": "node", "id": 5410568069, "lat": 48.1171854, "lon": -122.1802258}, {"type": "node", "id": 5410568070, "lat": 48.1173278, "lon": -122.1802211}, {"type": "node", "id": 5410568071, "lat": 48.117343, "lon": -122.1801983}, {"type": "node", "id": 5410568072, "lat": 48.1173497, "lon": -122.1801232}, {"type": "node", "id": 5410568073, "lat": 48.1171528, "lon": -122.1800427}, {"type": "node", "id": 5410568074, "lat": 48.1171536, "lon": -122.1801916}, {"type": "node", "id": 5410568075, "lat": 48.1171778, "lon": -122.1799468}, {"type": "node", "id": 5410568076, "lat": 48.1172544, "lon": -122.1799502}, {"type": "node", "id": 5410568077, "lat": 48.1171545, "lon": -122.1799247}, {"type": "node", "id": 5410568078, "lat": 48.1174108, "lon": -122.1803223}, {"type": "node", "id": 5410568079, "lat": 48.1173914, "lon": -122.1802814}, {"type": "node", "id": 5410568080, "lat": 48.1173748, "lon": -122.1802781}, {"type": "node", "id": 5410568081, "lat": 48.1171819, "lon": -122.1802868}, {"type": "node", "id": 5410568082, "lat": 48.1174008, "lon": -122.1803029}, {"type": "node", "id": 5410568083, "lat": 48.1174113, "lon": -122.1803733}, {"type": "node", "id": 5410568084, "lat": 48.1182095, "lon": -122.179975}, {"type": "node", "id": 5410568085, "lat": 48.1181783, "lon": -122.1799193}, {"type": "node", "id": 5410568086, "lat": 48.1181698, "lon": -122.18027}, {"type": "node", "id": 5410568087, "lat": 48.1182003, "lon": -122.1802338}, {"type": "node", "id": 5410568088, "lat": 48.1182146, "lon": -122.180203}, {"type": "node", "id": 5410568089, "lat": 48.1182198, "lon": -122.1800048}, {"type": "node", "id": 5410568090, "lat": 48.1182209, "lon": -122.1801715}, {"type": "node", "id": 5410568091, "lat": 48.1181672, "lon": -122.180374}, {"type": "node", "id": 5410568092, "lat": 48.1181788, "lon": -122.1798273}, {"type": "node", "id": 5410568093, "lat": 48.1172535, "lon": -122.1798273}, {"type": "node", "id": 5410568094, "lat": 48.1171519, "lon": -122.1803123}, {"type": "node", "id": 5410568095, "lat": 48.1181658, "lon": -122.1802841}, {"type": "node", "id": 5410568656, "lat": 48.1192362, "lon": -122.175739}, {"type": "node", "id": 5410568658, "lat": 48.1191126, "lon": -122.17583}, {"type": "node", "id": 5410568660, "lat": 48.1191117, "lon": -122.1759384}, {"type": "node", "id": 5410568661, "lat": 48.1187675, "lon": -122.1759321}, {"type": "node", "id": 5410568662, "lat": 48.1187686, "lon": -122.175801}, {"type": "node", "id": 5410568663, "lat": 48.1187258, "lon": -122.1758002}, {"type": "node", "id": 5410568664, "lat": 48.1187435, "lon": -122.1736357}, {"type": "node", "id": 5410568665, "lat": 48.1187857, "lon": -122.1736364}, {"type": "node", "id": 5410568666, "lat": 48.1187863, "lon": -122.1735552}, {"type": "node", "id": 5410568667, "lat": 48.1192009, "lon": -122.1736564}, {"type": "node", "id": 5410568668, "lat": 48.1192017, "lon": -122.173563}, {"type": "node", "id": 5410568671, "lat": 48.1192539, "lon": -122.1736574}, {"type": "node", "id": 5412807704, "lat": 48.1442102, "lon": -122.188086}, {"type": "node", "id": 5412807705, "lat": 48.1434465, "lon": -122.1879646}, {"type": "node", "id": 5412807706, "lat": 48.1434389, "lon": -122.1881054}, {"type": "node", "id": 5412807707, "lat": 48.1441973, "lon": -122.1882214}, {"type": "node", "id": 5412808208, "lat": 48.1469829, "lon": -122.1909881}, {"type": "node", "id": 5412808209, "lat": 48.1473784, "lon": -122.190966}, {"type": "node", "id": 5412808210, "lat": 48.1473735, "lon": -122.1908795}, {"type": "node", "id": 5412808211, "lat": 48.1477735, "lon": -122.1909171}, {"type": "node", "id": 5412808212, "lat": 48.1479627, "lon": -122.1912302}, {"type": "node", "id": 5412808213, "lat": 48.1479573, "lon": -122.1915997}, {"type": "node", "id": 5412808214, "lat": 48.1478826, "lon": -122.1915943}, {"type": "node", "id": 5412808215, "lat": 48.1478401, "lon": -122.1930125}, {"type": "node", "id": 5412808216, "lat": 48.1469959, "lon": -122.1929502}, {"type": "node", "id": 5412808217, "lat": 48.146995, "lon": -122.1930031}, {"type": "node", "id": 5412808218, "lat": 48.1469153, "lon": -122.1929911}, {"type": "node", "id": 5412808219, "lat": 48.1469113, "lon": -122.1931232}, {"type": "node", "id": 5412808220, "lat": 48.1469592, "lon": -122.1931259}, {"type": "node", "id": 5412808221, "lat": 48.1469578, "lon": -122.1932023}, {"type": "node", "id": 5412808222, "lat": 48.1481721, "lon": -122.1932573}, {"type": "node", "id": 5412808223, "lat": 48.1481725, "lon": -122.1931916}, {"type": "node", "id": 5412808224, "lat": 48.1482088, "lon": -122.193201}, {"type": "node", "id": 5412808225, "lat": 48.1482267, "lon": -122.1932171}, {"type": "node", "id": 5412808226, "lat": 48.148254, "lon": -122.1917968}, {"type": "node", "id": 5412808227, "lat": 48.1482996, "lon": -122.1899662}, {"type": "node", "id": 5412808228, "lat": 48.1482598, "lon": -122.1899635}, {"type": "node", "id": 5412808229, "lat": 48.1482526, "lon": -122.1899448}, {"type": "node", "id": 5412808230, "lat": 48.1482549, "lon": -122.1899273}, {"type": "node", "id": 5412808231, "lat": 48.1482638, "lon": -122.1899112}, {"type": "node", "id": 5412808232, "lat": 48.148279, "lon": -122.1899012}, {"type": "node", "id": 5412808233, "lat": 48.1483085, "lon": -122.1899173}, {"type": "node", "id": 5412808234, "lat": 48.1483148, "lon": -122.1897604}, {"type": "node", "id": 5412808235, "lat": 48.1483036, "lon": -122.1897704}, {"type": "node", "id": 5412808236, "lat": 48.1482737, "lon": -122.1897664}, {"type": "node", "id": 5412808237, "lat": 48.1482589, "lon": -122.1897389}, {"type": "node", "id": 5412808238, "lat": 48.1482643, "lon": -122.1897094}, {"type": "node", "id": 5412808239, "lat": 48.1483063, "lon": -122.1897094}, {"type": "node", "id": 5412808240, "lat": 48.1483215, "lon": -122.1890958}, {"type": "node", "id": 5412808241, "lat": 48.1482768, "lon": -122.1890911}, {"type": "node", "id": 5412808242, "lat": 48.1482795, "lon": -122.1890107}, {"type": "node", "id": 5412808243, "lat": 48.1478316, "lon": -122.1889818}, {"type": "node", "id": 5412808244, "lat": 48.1478294, "lon": -122.1890583}, {"type": "node", "id": 5412808245, "lat": 48.1477811, "lon": -122.1890543}, {"type": "node", "id": 5412808246, "lat": 48.1477676, "lon": -122.1893848}, {"type": "node", "id": 5412808247, "lat": 48.1478164, "lon": -122.1893895}, {"type": "node", "id": 5412808248, "lat": 48.147816, "lon": -122.1894432}, {"type": "node", "id": 5412808249, "lat": 48.1477529, "lon": -122.1894372}, {"type": "node", "id": 5412808250, "lat": 48.147735, "lon": -122.189415}, {"type": "node", "id": 5412808251, "lat": 48.1477305, "lon": -122.1893446}, {"type": "node", "id": 5412808252, "lat": 48.1477815, "lon": -122.1888585}, {"type": "node", "id": 5412808253, "lat": 48.1474478, "lon": -122.1888337}, {"type": "node", "id": 5412808254, "lat": 48.1471314, "lon": -122.1888189}, {"type": "node", "id": 5412808255, "lat": 48.1471006, "lon": -122.1888437}, {"type": "node", "id": 5412808256, "lat": 48.1470925, "lon": -122.1888772}, {"type": "node", "id": 5412808257, "lat": 48.1470724, "lon": -122.1893848}, {"type": "node", "id": 5412808258, "lat": 48.1470102, "lon": -122.1893788}, {"type": "node", "id": 5412808259, "lat": 48.1469744, "lon": -122.1907749}, {"type": "node", "id": 5412808261, "lat": 48.1451758, "lon": -122.189936}, {"type": "node", "id": 5412808262, "lat": 48.1452451, "lon": -122.1899394}, {"type": "node", "id": 5412808263, "lat": 48.1452446, "lon": -122.1899877}, {"type": "node", "id": 5412808264, "lat": 48.1466849, "lon": -122.1900856}, {"type": "node", "id": 5412808265, "lat": 48.1466652, "lon": -122.1907441}, {"type": "node", "id": 5412808266, "lat": 48.1467118, "lon": -122.1907467}, {"type": "node", "id": 5412808267, "lat": 48.1467109, "lon": -122.1907769}, {"type": "node", "id": 5412808268, "lat": 48.1467923, "lon": -122.1907803}, {"type": "node", "id": 5412808269, "lat": 48.1467927, "lon": -122.1906931}, {"type": "node", "id": 5412808270, "lat": 48.1468446, "lon": -122.1906944}, {"type": "node", "id": 5412808271, "lat": 48.1468446, "lon": -122.19062}, {"type": "node", "id": 5412808272, "lat": 48.1469019, "lon": -122.1906281}, {"type": "node", "id": 5412808273, "lat": 48.1469256, "lon": -122.1897704}, {"type": "node", "id": 5412808274, "lat": 48.1469332, "lon": -122.1894318}, {"type": "node", "id": 5412808275, "lat": 48.1468406, "lon": -122.1894237}, {"type": "node", "id": 5412808276, "lat": 48.1468478, "lon": -122.1892447}, {"type": "node", "id": 5412808277, "lat": 48.146829, "lon": -122.189242}, {"type": "node", "id": 5412808278, "lat": 48.1468075, "lon": -122.1892353}, {"type": "node", "id": 5412808279, "lat": 48.1467963, "lon": -122.1892192}, {"type": "node", "id": 5412808280, "lat": 48.1467936, "lon": -122.1891998}, {"type": "node", "id": 5412808281, "lat": 48.1468384, "lon": -122.1892031}, {"type": "node", "id": 5412808282, "lat": 48.1468451, "lon": -122.1889014}, {"type": "node", "id": 5412808283, "lat": 48.1468196, "lon": -122.188896}, {"type": "node", "id": 5412808284, "lat": 48.1468196, "lon": -122.188778}, {"type": "node", "id": 5412808285, "lat": 48.1467874, "lon": -122.188776}, {"type": "node", "id": 5412808286, "lat": 48.1467892, "lon": -122.1887009}, {"type": "node", "id": 5412808287, "lat": 48.1467359, "lon": -122.1886975}, {"type": "node", "id": 5412808288, "lat": 48.1467323, "lon": -122.1888772}, {"type": "node", "id": 5412808289, "lat": 48.1466885, "lon": -122.1888746}, {"type": "node", "id": 5412808290, "lat": 48.1466782, "lon": -122.1891569}, {"type": "node", "id": 5412808291, "lat": 48.1465006, "lon": -122.1891475}, {"type": "node", "id": 5412808292, "lat": 48.1464988, "lon": -122.1892179}, {"type": "node", "id": 5412808293, "lat": 48.1464223, "lon": -122.1892125}, {"type": "node", "id": 5412808294, "lat": 48.1464335, "lon": -122.1886915}, {"type": "node", "id": 5412808295, "lat": 48.146421, "lon": -122.1886881}, {"type": "node", "id": 5412808296, "lat": 48.1464071, "lon": -122.1886627}, {"type": "node", "id": 5412808297, "lat": 48.1464066, "lon": -122.1886338}, {"type": "node", "id": 5412808298, "lat": 48.145957, "lon": -122.1886043}, {"type": "node", "id": 5412808299, "lat": 48.1459539, "lon": -122.1886821}, {"type": "node", "id": 5412808300, "lat": 48.1459373, "lon": -122.1886814}, {"type": "node", "id": 5412808301, "lat": 48.1459149, "lon": -122.1886506}, {"type": "node", "id": 5412808302, "lat": 48.1459333, "lon": -122.1884407}, {"type": "node", "id": 5412808303, "lat": 48.1458299, "lon": -122.1884213}, {"type": "node", "id": 5412808304, "lat": 48.1458147, "lon": -122.1887733}, {"type": "node", "id": 5412808305, "lat": 48.1458013, "lon": -122.188831}, {"type": "node", "id": 5412808306, "lat": 48.1457758, "lon": -122.1888484}, {"type": "node", "id": 5412808307, "lat": 48.1457785, "lon": -122.1887954}, {"type": "node", "id": 5412808308, "lat": 48.1453011, "lon": -122.1887746}, {"type": "node", "id": 5412808309, "lat": 48.1452778, "lon": -122.1889148}, {"type": "node", "id": 5412808310, "lat": 48.1452219, "lon": -122.1888953}, {"type": "node", "id": 5412808311, "lat": 48.1451995, "lon": -122.1897302}, {"type": "node", "id": 5412808312, "lat": 48.1452523, "lon": -122.1897322}, {"type": "node", "id": 5412808313, "lat": 48.1452563, "lon": -122.1897664}, {"type": "node", "id": 5412808314, "lat": 48.1452483, "lon": -122.1897999}, {"type": "node", "id": 5412808315, "lat": 48.1452263, "lon": -122.189822}, {"type": "node", "id": 5412808316, "lat": 48.1451427, "lon": -122.1898106}, {"type": "node", "id": 5412808317, "lat": 48.1451413, "lon": -122.1899454}, {"type": "node", "id": 5412808407, "lat": 48.1479788, "lon": -122.1861514}, {"type": "node", "id": 5412808408, "lat": 48.1479743, "lon": -122.1862842}, {"type": "node", "id": 5412808409, "lat": 48.1480495, "lon": -122.1862882}, {"type": "node", "id": 5412808410, "lat": 48.148037, "lon": -122.1872605}, {"type": "node", "id": 5412808411, "lat": 48.1479904, "lon": -122.1872512}, {"type": "node", "id": 5412808412, "lat": 48.1479824, "lon": -122.1873799}, {"type": "node", "id": 5412808413, "lat": 48.1469686, "lon": -122.187219}, {"type": "node", "id": 5412808414, "lat": 48.1469722, "lon": -122.1864398}, {"type": "node", "id": 5412808415, "lat": 48.1470885, "lon": -122.1864451}, {"type": "node", "id": 5412808416, "lat": 48.1470966, "lon": -122.1860442}, {"type": "node", "id": 5412808417, "lat": 48.1472039, "lon": -122.1860522}, {"type": "node", "id": 5412808418, "lat": 48.1472102, "lon": -122.1857089}, {"type": "node", "id": 5412808419, "lat": 48.1479967, "lon": -122.1857223}, {"type": "node", "id": 5412808420, "lat": 48.1479913, "lon": -122.1858953}, {"type": "node", "id": 5412808521, "lat": 48.1480334, "lon": -122.1858966}, {"type": "node", "id": 5412808522, "lat": 48.1480611, "lon": -122.1861649}, {"type": "node", "id": 5412809209, "lat": 48.1430536, "lon": -122.1881302}, {"type": "node", "id": 5412809210, "lat": 48.1430044, "lon": -122.1880981}, {"type": "node", "id": 5412809211, "lat": 48.143008, "lon": -122.1880437}, {"type": "node", "id": 5412809212, "lat": 48.1430371, "lon": -122.1880565}, {"type": "node", "id": 5412809213, "lat": 48.1430138, "lon": -122.1879747}, {"type": "node", "id": 5412809214, "lat": 48.1430505, "lon": -122.1879935}, {"type": "node", "id": 5412809215, "lat": 48.1430375, "lon": -122.188198}, {"type": "node", "id": 5412809216, "lat": 48.1430026, "lon": -122.1881872}, {"type": "node", "id": 5412809217, "lat": 48.1429942, "lon": -122.188224}, {"type": "node", "id": 5412809218, "lat": 48.1415795, "lon": -122.1880104}, {"type": "node", "id": 5412809219, "lat": 48.1414871, "lon": -122.1876974}, {"type": "node", "id": 5412809220, "lat": 48.1428719, "lon": -122.1879202}, {"type": "node", "id": 5412809221, "lat": 48.142867, "lon": -122.1879874}, {"type": "node", "id": 5412809222, "lat": 48.1428969, "lon": -122.1879922}, {"type": "node", "id": 5412809223, "lat": 48.1429265, "lon": -122.1879673}, {"type": "node", "id": 5412809224, "lat": 48.1429418, "lon": -122.1878862}, {"type": "node", "id": 5412809225, "lat": 48.1430098, "lon": -122.1879016}, {"type": "node", "id": 5412809258, "lat": 48.1433579, "lon": -122.1858779}, {"type": "node", "id": 5412809259, "lat": 48.1433519, "lon": -122.1859505}, {"type": "node", "id": 5412809260, "lat": 48.1433102, "lon": -122.185942}, {"type": "node", "id": 5412809261, "lat": 48.1432919, "lon": -122.1866152}, {"type": "node", "id": 5412809262, "lat": 48.1435639, "lon": -122.1866688}, {"type": "node", "id": 5412809263, "lat": 48.1435691, "lon": -122.1865954}, {"type": "node", "id": 5412809264, "lat": 48.1436223, "lon": -122.1866039}, {"type": "node", "id": 5412809265, "lat": 48.1436168, "lon": -122.1866773}, {"type": "node", "id": 5412809266, "lat": 48.1440156, "lon": -122.1867476}, {"type": "node", "id": 5412809267, "lat": 48.1440214, "lon": -122.1866765}, {"type": "node", "id": 5412809268, "lat": 48.1440753, "lon": -122.1866311}, {"type": "node", "id": 5412809269, "lat": 48.1441271, "lon": -122.1866404}, {"type": "node", "id": 5412809270, "lat": 48.144197, "lon": -122.1857649}, {"type": "node", "id": 5412809271, "lat": 48.1441436, "lon": -122.185554}, {"type": "node", "id": 5412809272, "lat": 48.1434666, "lon": -122.1854286}, {"type": "node", "id": 5412809273, "lat": 48.1433346, "lon": -122.1857739}, {"type": "node", "id": 5412837309, "lat": 48.1304199, "lon": -122.1838893}, {"type": "node", "id": 5412837310, "lat": 48.1304195, "lon": -122.183546}, {"type": "node", "id": 5412837311, "lat": 48.1305331, "lon": -122.1835457}, {"type": "node", "id": 5412837312, "lat": 48.1305336, "lon": -122.183889}, {"type": "node", "id": 5412839975, "lat": 48.1348543, "lon": -122.1837425}, {"type": "node", "id": 5412839976, "lat": 48.1346265, "lon": -122.1837649}, {"type": "node", "id": 5412839977, "lat": 48.1349928, "lon": -122.1834397}, {"type": "node", "id": 5412839978, "lat": 48.1345255, "lon": -122.1834585}, {"type": "node", "id": 5412839979, "lat": 48.1345238, "lon": -122.183763}, {"type": "node", "id": 5412839980, "lat": 48.1349838, "lon": -122.1837469}, {"type": "node", "id": 5412839983, "lat": 48.1324186, "lon": -122.183881}, {"type": "node", "id": 5412839984, "lat": 48.1325175, "lon": -122.183889}, {"type": "node", "id": 5412839985, "lat": 48.1325797, "lon": -122.1836114}, {"type": "node", "id": 5412839986, "lat": 48.1325757, "lon": -122.183429}, {"type": "node", "id": 5412839987, "lat": 48.1326088, "lon": -122.1836154}, {"type": "node", "id": 5412839988, "lat": 48.1326988, "lon": -122.183614}, {"type": "node", "id": 5412839989, "lat": 48.1326643, "lon": -122.1845313}, {"type": "node", "id": 5412839990, "lat": 48.1324052, "lon": -122.1845099}, {"type": "node", "id": 5412839991, "lat": 48.132518, "lon": -122.1834344}, {"type": "node", "id": 5412840007, "lat": 48.1313602, "lon": -122.1841659}, {"type": "node", "id": 5412840008, "lat": 48.1313651, "lon": -122.1841834}, {"type": "node", "id": 5412840009, "lat": 48.1313754, "lon": -122.1841203}, {"type": "node", "id": 5412840010, "lat": 48.1313875, "lon": -122.1842417}, {"type": "node", "id": 5412840011, "lat": 48.1313964, "lon": -122.1837462}, {"type": "node", "id": 5412840012, "lat": 48.1313736, "lon": -122.1838649}, {"type": "node", "id": 5412840013, "lat": 48.1311794, "lon": -122.183488}, {"type": "node", "id": 5412840014, "lat": 48.1311695, "lon": -122.1834793}, {"type": "node", "id": 5412840015, "lat": 48.1311539, "lon": -122.1844831}, {"type": "node", "id": 5412840016, "lat": 48.1311736, "lon": -122.1845421}, {"type": "node", "id": 5412840017, "lat": 48.1311789, "lon": -122.1846172}, {"type": "node", "id": 5412840018, "lat": 48.131095, "lon": -122.1844194}, {"type": "node", "id": 5412840019, "lat": 48.1311129, "lon": -122.1834806}, {"type": "node", "id": 5412840020, "lat": 48.1313996, "lon": -122.1834759}, {"type": "node", "id": 5412840021, "lat": 48.1313821, "lon": -122.1846293}, {"type": "node", "id": 5412840040, "lat": 48.1306873, "lon": -122.1845264}, {"type": "node", "id": 5412840041, "lat": 48.1306965, "lon": -122.183958}, {"type": "node", "id": 5412840042, "lat": 48.1308621, "lon": -122.1839641}, {"type": "node", "id": 5412840054, "lat": 48.1293776, "lon": -122.1839177}, {"type": "node", "id": 5412840055, "lat": 48.129503, "lon": -122.1844892}, {"type": "node", "id": 5412840056, "lat": 48.1293675, "lon": -122.1844838}, {"type": "node", "id": 5412840058, "lat": 48.129513, "lon": -122.183923}, {"type": "node", "id": 5412840073, "lat": 48.1277748, "lon": -122.1839266}, {"type": "node", "id": 5412840074, "lat": 48.1277569, "lon": -122.1838541}, {"type": "node", "id": 5412840075, "lat": 48.1283799, "lon": -122.1837683}, {"type": "node", "id": 5412840076, "lat": 48.1283002, "lon": -122.1837831}, {"type": "node", "id": 5412840077, "lat": 48.1283101, "lon": -122.1838501}, {"type": "node", "id": 5412840078, "lat": 48.1283924, "lon": -122.1838367}, {"type": "node", "id": 5412840079, "lat": 48.1287644, "lon": -122.1839406}, {"type": "node", "id": 5412840080, "lat": 48.1276038, "lon": -122.1840687}, {"type": "node", "id": 5412840081, "lat": 48.1276513, "lon": -122.1840714}, {"type": "node", "id": 5412840082, "lat": 48.1276432, "lon": -122.1839467}, {"type": "node", "id": 5412840083, "lat": 48.1276907, "lon": -122.1839359}, {"type": "node", "id": 5412840085, "lat": 48.1287614, "lon": -122.1837995}, {"type": "node", "id": 5412840086, "lat": 48.1276801, "lon": -122.1838625}, {"type": "node", "id": 5412840087, "lat": 48.1276065, "lon": -122.1845073}, {"type": "node", "id": 5412840097, "lat": 48.1260104, "lon": -122.1834049}, {"type": "node", "id": 5412840098, "lat": 48.1260113, "lon": -122.1837334}, {"type": "node", "id": 5412840099, "lat": 48.126253, "lon": -122.1828148}, {"type": "node", "id": 5412840100, "lat": 48.1262557, "lon": -122.1829972}, {"type": "node", "id": 5412840101, "lat": 48.1265759, "lon": -122.1836607}, {"type": "node", "id": 5412840102, "lat": 48.1265688, "lon": -122.1828037}, {"type": "node", "id": 5412840103, "lat": 48.1259952, "lon": -122.1830066}, {"type": "node", "id": 5412840104, "lat": 48.1261313, "lon": -122.18372}, {"type": "node", "id": 5412840105, "lat": 48.1267079, "lon": -122.1832542}, {"type": "node", "id": 5412840106, "lat": 48.1267026, "lon": -122.1827137}, {"type": "node", "id": 5412840107, "lat": 48.126894, "lon": -122.1827075}, {"type": "node", "id": 5412840108, "lat": 48.1269065, "lon": -122.1832547}, {"type": "node", "id": 5412840124, "lat": 48.1201198, "lon": -122.1814764}, {"type": "node", "id": 5412840125, "lat": 48.1201502, "lon": -122.1816131}, {"type": "node", "id": 5412840126, "lat": 48.1200066, "lon": -122.1816138}, {"type": "node", "id": 5412840127, "lat": 48.1199972, "lon": -122.1816366}, {"type": "node", "id": 5412840128, "lat": 48.1200007, "lon": -122.1816561}, {"type": "node", "id": 5412840129, "lat": 48.119998, "lon": -122.1816869}, {"type": "node", "id": 5412840130, "lat": 48.1199842, "lon": -122.1817144}, {"type": "node", "id": 5412840131, "lat": 48.1199587, "lon": -122.1817546}, {"type": "node", "id": 5412840132, "lat": 48.1199309, "lon": -122.1818056}, {"type": "node", "id": 5412840133, "lat": 48.1199139, "lon": -122.182218}, {"type": "node", "id": 5412840134, "lat": 48.1200039, "lon": -122.1822555}, {"type": "node", "id": 5412840135, "lat": 48.1199998, "lon": -122.1822173}, {"type": "node", "id": 5412840136, "lat": 48.1200016, "lon": -122.182108}, {"type": "node", "id": 5412840137, "lat": 48.1200571, "lon": -122.1821268}, {"type": "node", "id": 5412840138, "lat": 48.1205343, "lon": -122.1820255}, {"type": "node", "id": 5412840139, "lat": 48.1205276, "lon": -122.1820644}, {"type": "node", "id": 5412840140, "lat": 48.1205925, "lon": -122.1820906}, {"type": "node", "id": 5412840141, "lat": 48.1207622, "lon": -122.182161}, {"type": "node", "id": 5412840142, "lat": 48.1212273, "lon": -122.1822777}, {"type": "node", "id": 5412840143, "lat": 48.1212416, "lon": -122.1822073}, {"type": "node", "id": 5412840144, "lat": 48.1200983, "lon": -122.1818626}, {"type": "node", "id": 5412840145, "lat": 48.1207716, "lon": -122.182108}, {"type": "node", "id": 5412840146, "lat": 48.1212577, "lon": -122.1822352}, {"type": "node", "id": 5412840147, "lat": 48.1199157, "lon": -122.1818564}, {"type": "node", "id": 5412840148, "lat": 48.1200656, "lon": -122.1815025}, {"type": "node", "id": 5412840149, "lat": 48.1212868, "lon": -122.1820356}, {"type": "node", "id": 5412840156, "lat": 48.1198891, "lon": -122.1834166}, {"type": "node", "id": 5412840157, "lat": 48.119951, "lon": -122.1834202}, {"type": "node", "id": 5412840158, "lat": 48.1199462, "lon": -122.1836096}, {"type": "node", "id": 5412840159, "lat": 48.1198957, "lon": -122.1831578}, {"type": "node", "id": 5412840160, "lat": 48.1197737, "lon": -122.1831508}, {"type": "node", "id": 5412840161, "lat": 48.1197623, "lon": -122.1835991}, {"type": "node", "id": 5412840165, "lat": 48.1189371, "lon": -122.1835319}, {"type": "node", "id": 5412840166, "lat": 48.1189398, "lon": -122.1831564}, {"type": "node", "id": 5412840167, "lat": 48.1188771, "lon": -122.1831554}, {"type": "node", "id": 5412840168, "lat": 48.1188745, "lon": -122.1835309}, {"type": "node", "id": 5412840173, "lat": 48.1180203, "lon": -122.1826069}, {"type": "node", "id": 5412840174, "lat": 48.1180147, "lon": -122.1826854}, {"type": "node", "id": 5412840175, "lat": 48.1183001, "lon": -122.1827323}, {"type": "node", "id": 5412840176, "lat": 48.1182307, "lon": -122.1826632}, {"type": "node", "id": 5412840177, "lat": 48.1180884, "lon": -122.1826351}, {"type": "node", "id": 5412840178, "lat": 48.1180452, "lon": -122.1826971}, {"type": "node", "id": 5412840179, "lat": 48.118382, "lon": -122.1829462}, {"type": "node", "id": 5412840180, "lat": 48.1184035, "lon": -122.1831541}, {"type": "node", "id": 5412840181, "lat": 48.1183686, "lon": -122.1832252}, {"type": "node", "id": 5412840182, "lat": 48.1178287, "lon": -122.1838421}, {"type": "node", "id": 5412840183, "lat": 48.1178847, "lon": -122.1834645}, {"type": "node", "id": 5412840184, "lat": 48.1175727, "lon": -122.1833566}, {"type": "node", "id": 5412840185, "lat": 48.1175789, "lon": -122.1832627}, {"type": "node", "id": 5412840186, "lat": 48.1174885, "lon": -122.1832292}, {"type": "node", "id": 5412840187, "lat": 48.1174563, "lon": -122.1834759}, {"type": "node", "id": 5412840188, "lat": 48.1172557, "lon": -122.183421}, {"type": "node", "id": 5412840189, "lat": 48.1171608, "lon": -122.1838903}, {"type": "node", "id": 5412840190, "lat": 48.1169209, "lon": -122.1837992}, {"type": "node", "id": 5412840191, "lat": 48.1168994, "lon": -122.1822032}, {"type": "node", "id": 5412840194, "lat": 48.1183572, "lon": -122.1828451}, {"type": "node", "id": 5412840195, "lat": 48.1170774, "lon": -122.1822791}, {"type": "node", "id": 5412840196, "lat": 48.1168636, "lon": -122.183665}, {"type": "node", "id": 5412840197, "lat": 48.1182477, "lon": -122.1839829}, {"type": "node", "id": 5413080991, "lat": 48.140504, "lon": -122.1860468}, {"type": "node", "id": 5413080992, "lat": 48.1405503, "lon": -122.1860379}, {"type": "node", "id": 5413080994, "lat": 48.1404925, "lon": -122.18612}, {"type": "node", "id": 5413080995, "lat": 48.1397764, "lon": -122.1859607}, {"type": "node", "id": 5413080996, "lat": 48.139789, "lon": -122.1860319}, {"type": "node", "id": 5413080997, "lat": 48.1397261, "lon": -122.185961}, {"type": "node", "id": 5413080998, "lat": 48.1397253, "lon": -122.185646}, {"type": "node", "id": 5413080999, "lat": 48.1397527, "lon": -122.1856459}, {"type": "node", "id": 5413081000, "lat": 48.1397521, "lon": -122.1854195}, {"type": "node", "id": 5413081001, "lat": 48.1398069, "lon": -122.1854192}, {"type": "node", "id": 5413081002, "lat": 48.1398059, "lon": -122.1850406}, {"type": "node", "id": 5413081003, "lat": 48.1397425, "lon": -122.185041}, {"type": "node", "id": 5413127706, "lat": 48.1177804, "lon": -122.1808299}, {"type": "node", "id": 5413127707, "lat": 48.11745, "lon": -122.1808313}, {"type": "node", "id": 5413127708, "lat": 48.1172674, "lon": -122.1807535}, {"type": "node", "id": 5413127709, "lat": 48.1171948, "lon": -122.1808621}, {"type": "node", "id": 5413127710, "lat": 48.1177831, "lon": -122.1806349}, {"type": "node", "id": 5413127711, "lat": 48.1174491, "lon": -122.1811847}, {"type": "node", "id": 5413127712, "lat": 48.1171948, "lon": -122.1811076}, {"type": "node", "id": 5413127713, "lat": 48.1172656, "lon": -122.180618}, {"type": "node", "id": 5413133071, "lat": 48.1213546, "lon": -122.1803461}, {"type": "node", "id": 5413133072, "lat": 48.1213718, "lon": -122.1803475}, {"type": "node", "id": 5413133073, "lat": 48.1207975, "lon": -122.1791817}, {"type": "node", "id": 5413133074, "lat": 48.1207975, "lon": -122.1795779}, {"type": "node", "id": 5413133075, "lat": 48.1207957, "lon": -122.1805014}, {"type": "node", "id": 5413133076, "lat": 48.1207921, "lon": -122.1813786}, {"type": "node", "id": 5413133077, "lat": 48.120794, "lon": -122.1813302}, {"type": "node", "id": 5413133078, "lat": 48.1207783, "lon": -122.1818478}, {"type": "node", "id": 5413133079, "lat": 48.1213763, "lon": -122.1788866}, {"type": "node", "id": 5413133080, "lat": 48.121362, "lon": -122.1820623}, {"type": "node", "id": 5413133081, "lat": 48.1207975, "lon": -122.1788827}, {"type": "node", "id": 5413133100, "lat": 48.1207576, "lon": -122.1818415}, {"type": "node", "id": 5413133169, "lat": 48.1345649, "lon": -122.1834551}, {"type": "node", "id": 5413133171, "lat": 48.1349275, "lon": -122.1834423}, {"type": "node", "id": 5413133173, "lat": 48.1376834, "lon": -122.1836374}, {"type": "node", "id": 5413133174, "lat": 48.1376866, "lon": -122.1838976}, {"type": "node", "id": 5413133175, "lat": 48.1377946, "lon": -122.1839051}, {"type": "node", "id": 5413133176, "lat": 48.1378031, "lon": -122.1836463}, {"type": "node", "id": 5413133178, "lat": 48.13774, "lon": -122.1838997}, {"type": "node", "id": 5507054648, "lat": 48.1490031, "lon": -122.2101381}, {"type": "node", "id": 5507054649, "lat": 48.1490065, "lon": -122.2098363}, {"type": "node", "id": 5507054650, "lat": 48.1485339, "lon": -122.2098082}, {"type": "node", "id": 5507054651, "lat": 48.1485303, "lon": -122.2101298}, {"type": "node", "id": 5507054652, "lat": 48.1486526, "lon": -122.2101765}, {"type": "node", "id": 5507054653, "lat": 48.1487972, "lon": -122.2101801}, {"type": "node", "id": 5507054654, "lat": 48.1487978, "lon": -122.210133}, {"type": "node", "id": 5507054655, "lat": 48.1486531, "lon": -122.2101329}, {"type": "node", "id": 5507054656, "lat": 48.1487111, "lon": -122.208565}, {"type": "node", "id": 5507054657, "lat": 48.1486672, "lon": -122.2098116}, {"type": "node", "id": 5507054658, "lat": 48.148701, "lon": -122.2098286}, {"type": "node", "id": 5507054659, "lat": 48.1490671, "lon": -122.2097106}, {"type": "node", "id": 5507054660, "lat": 48.1487024, "lon": -122.2097015}, {"type": "node", "id": 5507054661, "lat": 48.1490707, "lon": -122.2093953}, {"type": "node", "id": 5507054662, "lat": 48.1490988, "lon": -122.2084865}, {"type": "node", "id": 5507054663, "lat": 48.1485326, "lon": -122.2096917}, {"type": "node", "id": 5507054664, "lat": 48.1486685, "lon": -122.2096951}, {"type": "node", "id": 5507054665, "lat": 48.1484413, "lon": -122.2096659}, {"type": "node", "id": 5507054666, "lat": 48.1485329, "lon": -122.2096682}, {"type": "node", "id": 5507054667, "lat": 48.1484455, "lon": -122.2092879}, {"type": "node", "id": 5507054668, "lat": 48.1485167, "lon": -122.2092896}, {"type": "node", "id": 5507054669, "lat": 48.148518, "lon": -122.2091716}, {"type": "node", "id": 5507054670, "lat": 48.1486617, "lon": -122.2091752}, {"type": "node", "id": 5507054671, "lat": 48.1487203, "lon": -122.2093865}, {"type": "node", "id": 5507054672, "lat": 48.1487211, "lon": -122.2093159}, {"type": "node", "id": 5507054673, "lat": 48.1487039, "lon": -122.2093155}, {"type": "node", "id": 5507054674, "lat": 48.1487049, "lon": -122.2092259}, {"type": "node", "id": 5507054675, "lat": 48.1491182, "lon": -122.2092363}, {"type": "node", "id": 5507054676, "lat": 48.1491242, "lon": -122.2086956}, {"type": "node", "id": 5507054677, "lat": 48.1490965, "lon": -122.2086949}, {"type": "node", "id": 5507054678, "lat": 48.1490142, "lon": -122.2085726}, {"type": "node", "id": 5507054679, "lat": 48.1490152, "lon": -122.2084844}, {"type": "node", "id": 5507054680, "lat": 48.1486632, "lon": -122.2090487}, {"type": "node", "id": 5507054681, "lat": 48.1482066, "lon": -122.2092035}, {"type": "node", "id": 5507054682, "lat": 48.1484927, "lon": -122.2090444}, {"type": "node", "id": 5507054683, "lat": 48.1484908, "lon": -122.2092107}, {"type": "node", "id": 5507054684, "lat": 48.1482131, "lon": -122.2086202}, {"type": "node", "id": 5507054685, "lat": 48.1482971, "lon": -122.2083599}, {"type": "node", "id": 5507054686, "lat": 48.1482942, "lon": -122.2086222}, {"type": "node", "id": 5507054687, "lat": 48.1484688, "lon": -122.2083642}, {"type": "node", "id": 5507054688, "lat": 48.1484659, "lon": -122.2086255}, {"type": "node", "id": 5507054689, "lat": 48.1484416, "lon": -122.2089691}, {"type": "node", "id": 5507054690, "lat": 48.1487065, "lon": -122.2089757}, {"type": "node", "id": 5507054691, "lat": 48.1484455, "lon": -122.208625}, {"type": "node", "id": 6001333088, "lat": 48.12794, "lon": -122.1843055, "tags": {"amenity": "pub", "name": "Whitewall Brewing"}}, {"type": "node", "id": 6001340685, "lat": 48.1203124, "lon": -122.1838251, "tags": {"name": "Trailers Plus", "shop": "car"}}, {"type": "node", "id": 6001340686, "lat": 48.1453724, "lon": -122.1886781, "tags": {"check_date": "2024-10-12", "name": "Armed Forces Career Center", "office": "government"}}, {"type": "node", "id": 6468706743, "lat": 48.1466121, "lon": -122.1889919}, {"type": "node", "id": 6468706744, "lat": 48.146626, "lon": -122.188993}, {"type": "node", "id": 6468706745, "lat": 48.1466324, "lon": -122.1888094}, {"type": "node", "id": 6468706746, "lat": 48.1466167, "lon": -122.1888081}, {"type": "node", "id": 6468706747, "lat": 48.1466184, "lon": -122.18876}, {"type": "node", "id": 6468706748, "lat": 48.146538, "lon": -122.1887537}, {"type": "node", "id": 6468706749, "lat": 48.1465364, "lon": -122.1888002}, {"type": "node", "id": 6468706750, "lat": 48.1464462, "lon": -122.1888029}, {"type": "node", "id": 6468706751, "lat": 48.1464357, "lon": -122.1891029}, {"type": "node", "id": 6468706752, "lat": 48.1465175, "lon": -122.1891093}, {"type": "node", "id": 6468706753, "lat": 48.1465184, "lon": -122.1890821}, {"type": "node", "id": 6468706755, "lat": 48.1473242, "lon": -122.1888236}, {"type": "node", "id": 6468706756, "lat": 48.1471984, "lon": -122.1888144}, {"type": "node", "id": 6468706757, "lat": 48.1472172, "lon": -122.1893578}, {"type": "node", "id": 6812899262, "lat": 48.1528775, "lon": -122.1924298}, {"type": "node", "id": 7168273240, "lat": 48.1212648, "lon": -122.1759653, "tags": {"barrier": "gate"}}, {"type": "node", "id": 7168273242, "lat": 48.1213817, "lon": -122.1756847}, {"type": "node", "id": 7229566815, "lat": 48.1226619, "lon": -122.1751451, "tags": {"barrier": "gate"}}, {"type": "node", "id": 7229566818, "lat": 48.1213925, "lon": -122.1751246}, {"type": "node", "id": 7516289721, "lat": 48.1436343, "lon": -122.1862639}, {"type": "node", "id": 7516289722, "lat": 48.1436492, "lon": -122.1860915}, {"type": "node", "id": 7516289723, "lat": 48.1437085, "lon": -122.1856558}, {"type": "node", "id": 7516289724, "lat": 48.1436753, "lon": -122.1857685}, {"type": "node", "id": 7516289725, "lat": 48.1436793, "lon": -122.1860969}, {"type": "node", "id": 7516289726, "lat": 48.1436653, "lon": -122.1862696}, {"type": "node", "id": 7516289727, "lat": 48.1437401, "lon": -122.1864606}, {"type": "node", "id": 7516289728, "lat": 48.1437436, "lon": -122.1864169}, {"type": "node", "id": 7516289729, "lat": 48.1438514, "lon": -122.1864365}, {"type": "node", "id": 7516289730, "lat": 48.1438481, "lon": -122.1864775}, {"type": "node", "id": 7516289731, "lat": 48.1439797, "lon": -122.1862174}, {"type": "node", "id": 7516289732, "lat": 48.1440057, "lon": -122.1862221}, {"type": "node", "id": 7833981485, "lat": 48.1252002, "lon": -122.1831608, "tags": {"name": "RNW Distribution", "office": "company"}}, {"type": "node", "id": 7851424866, "lat": 48.1524759, "lon": -122.192144}, {"type": "node", "id": 7874019244, "lat": 48.1177884, "lon": -122.1808199}, {"type": "node", "id": 7874019245, "lat": 48.1179592, "lon": -122.1808227}, {"type": "node", "id": 7874019254, "lat": 48.1177846, "lon": -122.1813302}, {"type": "node", "id": 7874019260, "lat": 48.1179554, "lon": -122.181333}, {"type": "node", "id": 7876696271, "lat": 48.1518957, "lon": -122.1930687}, {"type": "node", "id": 7876696272, "lat": 48.1519593, "lon": -122.1930691}, {"type": "node", "id": 7876696273, "lat": 48.1519592, "lon": -122.1931156}, {"type": "node", "id": 7876696274, "lat": 48.1518956, "lon": -122.1931153}, {"type": "node", "id": 7876696275, "lat": 48.1515945, "lon": -122.1905479}, {"type": "node", "id": 7876696277, "lat": 48.1515419, "lon": -122.1906281}, {"type": "node", "id": 7876696278, "lat": 48.1515344, "lon": -122.1906277}, {"type": "node", "id": 7876696279, "lat": 48.1514554, "lon": -122.1903521}, {"type": "node", "id": 7876696280, "lat": 48.1514266, "lon": -122.1903179}, {"type": "node", "id": 7876696281, "lat": 48.1500423, "lon": -122.1897304}, {"type": "node", "id": 7876696282, "lat": 48.150045, "lon": -122.1896312}, {"type": "node", "id": 7876696283, "lat": 48.150073, "lon": -122.1896329}, {"type": "node", "id": 7876696284, "lat": 48.1500703, "lon": -122.1897322}, {"type": "node", "id": 7876776185, "lat": 48.1502796, "lon": -122.1897001}, {"type": "node", "id": 7876776186, "lat": 48.150277, "lon": -122.1897945}, {"type": "node", "id": 7876776187, "lat": 48.150258, "lon": -122.1896988}, {"type": "node", "id": 7876776188, "lat": 48.1502555, "lon": -122.1897932}, {"type": "node", "id": 7876776203, "lat": 48.1511476, "lon": -122.1901042}, {"type": "node", "id": 7876776205, "lat": 48.1512852, "lon": -122.192604, "tags": {"addr:city": "Marysville", "addr:housenumber": "2701", "addr:postcode": "98271", "addr:street": "171st Place Northeast", "addr:unit": "203", "brand": "Crumbl Cookies", "brand:wikidata": "Q106924414", "name": "Crumbl Cookies", "shop": "pastry", "short_name": "Crumbl"}}, {"type": "node", "id": 7876776210, "lat": 48.1513881, "lon": -122.1903906}, {"type": "node", "id": 7876894521, "lat": 48.1487766, "lon": -122.1894939}, {"type": "node", "id": 7876894522, "lat": 48.1487779, "lon": -122.1894324}, {"type": "node", "id": 7876894523, "lat": 48.1487851, "lon": -122.1894897}, {"type": "node", "id": 7876894524, "lat": 48.1487931, "lon": -122.1894729}, {"type": "node", "id": 7876894525, "lat": 48.1487931, "lon": -122.1894523}, {"type": "node", "id": 7876894526, "lat": 48.1487849, "lon": -122.1894357}, {"type": "node", "id": 7876894528, "lat": 48.1473248, "lon": -122.188858}, {"type": "node", "id": 7876894529, "lat": 48.1472238, "lon": -122.188855}, {"type": "node", "id": 7876906738, "lat": 48.1464906, "lon": -122.1887966}, {"type": "node", "id": 7876906739, "lat": 48.1464902, "lon": -122.1888063}, {"type": "node", "id": 7876973354, "lat": 48.1311493, "lon": -122.1839662}, {"type": "node", "id": 7876973355, "lat": 48.1311292, "lon": -122.1839659}, {"type": "node", "id": 7876973368, "lat": 48.1313256, "lon": -122.1840772}, {"type": "node", "id": 7876973380, "lat": 48.1311276, "lon": -122.1842062}, {"type": "node", "id": 7876973382, "lat": 48.130868, "lon": -122.1840223}, {"type": "node", "id": 7876988288, "lat": 48.1311985, "lon": -122.1840753}, {"type": "node", "id": 7876988309, "lat": 48.1311976, "lon": -122.1842072}, {"type": "node", "id": 7876988311, "lat": 48.1308584, "lon": -122.1845588}, {"type": "node", "id": 7876988313, "lat": 48.1313281, "lon": -122.183717}, {"type": "node", "id": 7877004598, "lat": 48.134647, "lon": -122.1836994}, {"type": "node", "id": 7877004599, "lat": 48.134635, "lon": -122.1836996}, {"type": "node", "id": 7877004600, "lat": 48.1348507, "lon": -122.1836867}, {"type": "node", "id": 7877004601, "lat": 48.1348426, "lon": -122.1836868}, {"type": "node", "id": 7877004610, "lat": 48.1346474, "lon": -122.1837451}, {"type": "node", "id": 7877004615, "lat": 48.1346338, "lon": -122.1835734}, {"type": "node", "id": 7877004617, "lat": 48.1348431, "lon": -122.1837408}, {"type": "node", "id": 7877004621, "lat": 48.1348495, "lon": -122.1835687}, {"type": "node", "id": 7878739183, "lat": 48.1213177, "lon": -122.1836948}, {"type": "node", "id": 7878739204, "lat": 48.121108, "lon": -122.183924}, {"type": "node", "id": 7878739229, "lat": 48.1213703, "lon": -122.1839258}, {"type": "node", "id": 7878739262, "lat": 48.1211086, "lon": -122.183707}, {"type": "node", "id": 7878739322, "lat": 48.121371, "lon": -122.1836951}, {"type": "node", "id": 7878739328, "lat": 48.1199824, "lon": -122.1815023}, {"type": "node", "id": 8521404174, "lat": 48.1524548, "lon": -122.192663, "tags": {"amenity": "bench", "backrest": "no", "material": "concrete", "seats": "2"}}, {"type": "node", "id": 8521404175, "lat": 48.1524536, "lon": -122.1927562, "tags": {"amenity": "bench", "backrest": "no", "material": "concrete", "seats": "2"}}, {"type": "node", "id": 9852161124, "lat": 48.146481, "lon": -122.2154504}, {"type": "node", "id": 9852161125, "lat": 48.1516967, "lon": -122.2153645}, {"type": "node", "id": 9852161126, "lat": 48.1517468, "lon": -122.2109377}, {"type": "node", "id": 9852161127, "lat": 48.1510215, "lon": -122.210961}, {"type": "node", "id": 9852161128, "lat": 48.1510136, "lon": -122.2100614}, {"type": "node", "id": 9852161129, "lat": 48.151265, "lon": -122.2100724}, {"type": "node", "id": 9852161130, "lat": 48.1512686, "lon": -122.2098001}, {"type": "node", "id": 9852161131, "lat": 48.151375, "lon": -122.2098001}, {"type": "node", "id": 9852161132, "lat": 48.1513897, "lon": -122.2090329}, {"type": "node", "id": 9852161133, "lat": 48.1512356, "lon": -122.2090329}, {"type": "node", "id": 9852161134, "lat": 48.151153, "lon": -122.2089009}, {"type": "node", "id": 9852161135, "lat": 48.1510558, "lon": -122.2087304}, {"type": "node", "id": 9852161136, "lat": 48.1510558, "lon": -122.2081144}, {"type": "node", "id": 9852161137, "lat": 48.1503091, "lon": -122.2080924}, {"type": "node", "id": 9852161138, "lat": 48.14981, "lon": -122.2080731}, {"type": "node", "id": 9852161139, "lat": 48.1496137, "lon": -122.2080511}, {"type": "node", "id": 9852161140, "lat": 48.1496155, "lon": -122.2079549}, {"type": "node", "id": 9852161141, "lat": 48.1489238, "lon": -122.2079439}, {"type": "node", "id": 9852161142, "lat": 48.1481459, "lon": -122.2079329}, {"type": "node", "id": 9852161143, "lat": 48.147711, "lon": -122.2079136}, {"type": "node", "id": 9852161144, "lat": 48.1472652, "lon": -122.2078971}, {"type": "node", "id": 9852161145, "lat": 48.147267, "lon": -122.2077761}, {"type": "node", "id": 10148446543, "lat": 48.1484541, "lon": -122.1918113}, {"type": "node", "id": 10148446544, "lat": 48.1485027, "lon": -122.1918147}, {"type": "node", "id": 10148446545, "lat": 48.1485752, "lon": -122.1918382}, {"type": "node", "id": 10148446546, "lat": 48.149146, "lon": -122.191864}, {"type": "node", "id": 10148446547, "lat": 48.1491483, "lon": -122.191827}, {"type": "node", "id": 10148446548, "lat": 48.1492641, "lon": -122.1918404}, {"type": "node", "id": 10148446549, "lat": 48.1492633, "lon": -122.1917979}, {"type": "node", "id": 10148446550, "lat": 48.1493179, "lon": -122.1918046}, {"type": "node", "id": 10148446551, "lat": 48.1493605, "lon": -122.1900586}, {"type": "node", "id": 10148446552, "lat": 48.1493052, "lon": -122.190053}, {"type": "node", "id": 10148446553, "lat": 48.1492409, "lon": -122.1900194}, {"type": "node", "id": 10148446554, "lat": 48.1491244, "lon": -122.1900161}, {"type": "node", "id": 10148446555, "lat": 48.1490728, "lon": -122.1899701}, {"type": "node", "id": 10148446556, "lat": 48.1489615, "lon": -122.189969}, {"type": "node", "id": 10148446557, "lat": 48.1486192, "lon": -122.1899444}, {"type": "node", "id": 10148446558, "lat": 48.1485498, "lon": -122.1899668}, {"type": "node", "id": 10148446559, "lat": 48.1484974, "lon": -122.1899623}, {"type": "node", "id": 10148446560, "lat": 48.1497596, "lon": -122.1901532}, {"type": "node", "id": 10148446561, "lat": 48.1495238, "lon": -122.1901357}, {"type": "node", "id": 10148446562, "lat": 48.1495235, "lon": -122.1900711}, {"type": "node", "id": 10148446563, "lat": 48.1494061, "lon": -122.19007}, {"type": "node", "id": 10148446564, "lat": 48.1493591, "lon": -122.1918069}, {"type": "node", "id": 10148446565, "lat": 48.1494174, "lon": -122.191812}, {"type": "node", "id": 10148446566, "lat": 48.1494168, "lon": -122.1918317}, {"type": "node", "id": 10148446567, "lat": 48.149535, "lon": -122.1918401}, {"type": "node", "id": 10148446568, "lat": 48.1495347, "lon": -122.1918686}, {"type": "node", "id": 10148446569, "lat": 48.1495865, "lon": -122.1918696}, {"type": "node", "id": 10148446570, "lat": 48.1495871, "lon": -122.1918826}, {"type": "node", "id": 10148446571, "lat": 48.1497166, "lon": -122.1918939}, {"type": "node", "id": 10148446572, "lat": 48.1495384, "lon": -122.1898048}, {"type": "node", "id": 10148446573, "lat": 48.1495482, "lon": -122.1893639}, {"type": "node", "id": 10148446574, "lat": 48.1489845, "lon": -122.1893455}, {"type": "node", "id": 10148446575, "lat": 48.1489872, "lon": -122.1892046}, {"type": "node", "id": 10148446576, "lat": 48.1488673, "lon": -122.1891968}, {"type": "node", "id": 10148446577, "lat": 48.1488539, "lon": -122.189675}, {"type": "node", "id": 10148446578, "lat": 48.1489033, "lon": -122.1896776}, {"type": "node", "id": 10148446579, "lat": 48.1489028, "lon": -122.1897509}, {"type": "node", "id": 10148446580, "lat": 48.1490751, "lon": -122.1897587}, {"type": "node", "id": 10148446581, "lat": 48.1490739, "lon": -122.1897954}, {"type": "node", "id": 10148446582, "lat": 48.1492434, "lon": -122.1898067}, {"type": "node", "id": 10148446583, "lat": 48.1492434, "lon": -122.1898277}, {"type": "node", "id": 10148446584, "lat": 48.1494879, "lon": -122.1898338}, {"type": "node", "id": 10148446585, "lat": 48.1494861, "lon": -122.1897997}, {"type": "node", "id": 10148446586, "lat": 48.1508118, "lon": -122.191959}, {"type": "node", "id": 10148446587, "lat": 48.1508313, "lon": -122.1911585}, {"type": "node", "id": 10148446588, "lat": 48.1507797, "lon": -122.1911565}, {"type": "node", "id": 10148446589, "lat": 48.1507825, "lon": -122.1910854}, {"type": "node", "id": 10148446590, "lat": 48.1506988, "lon": -122.1910875}, {"type": "node", "id": 10148446591, "lat": 48.1507002, "lon": -122.1911565}, {"type": "node", "id": 10148446592, "lat": 48.1505845, "lon": -122.1911502}, {"type": "node", "id": 10148446593, "lat": 48.1505859, "lon": -122.1910457}, {"type": "node", "id": 10148446594, "lat": 48.1506347, "lon": -122.1910541}, {"type": "node", "id": 10148446595, "lat": 48.1506438, "lon": -122.1906113}, {"type": "node", "id": 10148446596, "lat": 48.1505923, "lon": -122.1906083}, {"type": "node", "id": 10148446597, "lat": 48.1506134, "lon": -122.1898689}, {"type": "node", "id": 10148446598, "lat": 48.1506616, "lon": -122.1898679}, {"type": "node", "id": 10148446599, "lat": 48.1506669, "lon": -122.1897878}, {"type": "node", "id": 10148446600, "lat": 48.1506279, "lon": -122.1897819}, {"type": "node", "id": 10148446601, "lat": 48.1506293, "lon": -122.1896712}, {"type": "node", "id": 10148446602, "lat": 48.1505561, "lon": -122.1896217}, {"type": "node", "id": 10148446603, "lat": 48.1504492, "lon": -122.1896138}, {"type": "node", "id": 10148446604, "lat": 48.1503852, "lon": -122.1896643}, {"type": "node", "id": 10148446605, "lat": 48.1503325, "lon": -122.1896633}, {"type": "node", "id": 10148446606, "lat": 48.1503292, "lon": -122.1898827}, {"type": "node", "id": 10148446607, "lat": 48.15038, "lon": -122.1898808}, {"type": "node", "id": 10148446608, "lat": 48.1503747, "lon": -122.1900014}, {"type": "node", "id": 10148446609, "lat": 48.1503476, "lon": -122.1900241}, {"type": "node", "id": 10148446610, "lat": 48.1503305, "lon": -122.1899371}, {"type": "node", "id": 10148446611, "lat": 48.150101, "lon": -122.1899163}, {"type": "node", "id": 10148446612, "lat": 48.1501016, "lon": -122.1899954}, {"type": "node", "id": 10148446613, "lat": 48.1500218, "lon": -122.1899846}, {"type": "node", "id": 10148446614, "lat": 48.1500231, "lon": -122.1901961}, {"type": "node", "id": 10148446615, "lat": 48.1499763, "lon": -122.1901941}, {"type": "node", "id": 10148446616, "lat": 48.1499301, "lon": -122.1918668}, {"type": "node", "id": 10148449117, "lat": 48.1499822, "lon": -122.1918698}, {"type": "node", "id": 10148449118, "lat": 48.1499783, "lon": -122.1919073}, {"type": "node", "id": 10148449119, "lat": 48.1506187, "lon": -122.191938}, {"type": "node", "id": 10148449120, "lat": 48.1506194, "lon": -122.1919202}, {"type": "node", "id": 10148449121, "lat": 48.150688, "lon": -122.1919241}, {"type": "node", "id": 10148449122, "lat": 48.1506853, "lon": -122.1919518}, {"type": "node", "id": 10222521994, "lat": 48.1467573, "lon": -122.1910115, "tags": {"amenity": "bench", "backrest": "yes", "material": "steel", "seats": "5"}}, {"type": "node", "id": 10222521995, "lat": 48.1467505, "lon": -122.1909857, "tags": {"amenity": "waste_basket", "material": "steel", "waste": "trash"}}, {"type": "node", "id": 10222521996, "lat": 48.1467118, "lon": -122.1910156, "tags": {"amenity": "bench", "backrest": "yes", "material": "steel", "seats": "5"}}, {"type": "node", "id": 10222521997, "lat": 48.1467385, "lon": -122.190982, "tags": {"amenity": "bench", "backrest": "yes", "material": "steel", "seats": "5"}}, {"type": "node", "id": 10222548318, "lat": 48.146613, "lon": -122.1905056, "tags": {"brand": "H&R Block", "brand:wikidata": "Q5627799", "check_date": "2024-10-12", "name": "H&R Block", "office": "tax_advisor"}}, {"type": "node", "id": 10222548319, "lat": 48.1466066, "lon": -122.1906124, "tags": {"beauty": "nails", "check_date": "2024-10-12", "name": "Lakewood Nails & Spa", "shop": "beauty"}}, {"type": "node", "id": 11079280058, "lat": 48.1516789, "lon": -122.1906932}, {"type": "node", "id": 11079280059, "lat": 48.151682, "lon": -122.1905771}, {"type": "node", "id": 11376109470, "lat": 48.1515939, "lon": -122.1905716}, {"type": "node", "id": 11376109570, "lat": 48.1292541, "lon": -122.1842322, "tags": {"name": "Cascade Cabinets", "shop": "hardware"}}, {"type": "node", "id": 11376114069, "lat": 48.1297695, "lon": -122.1841345, "tags": {"name": "Randy's Off Road", "shop": "car_repair"}}, {"type": "node", "id": 11377522645, "lat": 48.1227409, "lon": -122.1776821}, {"type": "node", "id": 11377522654, "lat": 48.1227363, "lon": -122.178476}, {"type": "node", "id": 11377522655, "lat": 48.1223811, "lon": -122.1784647}, {"type": "node", "id": 11377522656, "lat": 48.1223747, "lon": -122.1777014}, {"type": "node", "id": 11377522657, "lat": 48.1226154, "lon": -122.1777192}, {"type": "node", "id": 11377522658, "lat": 48.1226683, "lon": -122.1776869}, {"type": "node", "id": 11377522665, "lat": 48.1226402, "lon": -122.1777041}, {"type": "node", "id": 11377522676, "lat": 48.1226417, "lon": -122.1771926}, {"type": "node", "id": 11377522677, "lat": 48.122438, "lon": -122.1770945}, {"type": "node", "id": 11377522678, "lat": 48.1223696, "lon": -122.177056}, {"type": "node", "id": 11377522679, "lat": 48.1221061, "lon": -122.1768107}, {"type": "node", "id": 11377522680, "lat": 48.1221147, "lon": -122.1761492}, {"type": "node", "id": 11377522681, "lat": 48.1215449, "lon": -122.1760958}, {"type": "node", "id": 11377522682, "lat": 48.1213853, "lon": -122.1741648}, {"type": "node", "id": 11377522683, "lat": 48.1216104, "lon": -122.174169}, {"type": "node", "id": 11377522684, "lat": 48.1216546, "lon": -122.1742181}, {"type": "node", "id": 11377522685, "lat": 48.1228283, "lon": -122.1742458}, {"type": "node", "id": 11377522686, "lat": 48.1228197, "lon": -122.1748924}, {"type": "node", "id": 11377522687, "lat": 48.1226645, "lon": -122.1748902}, {"type": "node", "id": 11980125992, "lat": 48.1511483, "lon": -122.1912855, "tags": {"addr:city": "Marysville", "addr:housenumber": "17103", "addr:postcode": "98271", "addr:state": "WA", "addr:street": "28th Drive Northeast", "amenity": "fast_food", "brand": "Chipotle", "brand:wikidata": "Q465751", "cuisine": "mexican", "name": "Chipotle", "official_name": "Chipotle Mexican Grill", "phone": "+1-360-652-9086", "takeaway": "yes", "website": "https://locations.chipotle.com/wa/marysville/17103-28th-dr-ne"}}, {"type": "node", "id": 12160849424, "lat": 48.1491013, "lon": -122.2076353, "tags": {"amenity": "polling_station", "location": "outdoor", "polling_station": "ballot_box"}}, {"type": "node", "id": 12451515633, "lat": 48.1347387, "lon": -122.1835711, "tags": {"entrance": "main"}}, {"type": "node", "id": 12452431458, "lat": 48.1347985, "lon": -122.1848947}, {"type": "node", "id": 12452431459, "lat": 48.1343016, "lon": -122.1848528}, {"type": "node", "id": 12452431460, "lat": 48.134329, "lon": -122.1841235}, {"type": "node", "id": 12452431461, "lat": 48.1348258, "lon": -122.1841654}, {"type": "node", "id": 12638817376, "lat": 48.1518486, "lon": -122.1913851, "tags": {"amenity": "kindergarten", "check_date": "2025-03-01", "name": "Smokey Point Early Learning Center"}}, {"type": "node", "id": 12638817377, "lat": 48.1511368, "lon": -122.1915082, "tags": {"amenity": "dentist", "check_date": "2025-03-01", "healthcare": "dentist", "name": "Smokey Point Smiles"}}, {"type": "node", "id": 12638817378, "lat": 48.1331402, "lon": -122.1842145, "tags": {"check_date": "2025-03-01", "name": "Caravan's Automotive Repair", "service:vehicle:caravan_repair": "yes", "shop": "caravan"}}, {"type": "node", "id": 12998191391, "lat": 48.1519522, "lon": -122.1931488, "tags": {"access": "customers", "amenity": "toilets", "changing_table": "no", "check_date": "2025-10-18", "check_date:opening_hours": "2025-10-18", "fee": "no", "gender_segregated": "no", "handwashing:soap": "yes", "opening_hours": "Mo-Su 07:00-02:00", "panoramax": "78c11d9a-4415-44ac-a2ad-877916eaeb28", "toilets:disposal": "flush", "toilets:hands_drying": "paper_towel", "toilets:handwashing": "yes", "toilets:paper_supplied": "yes", "toilets:position": "seated", "wheelchair": "designated"}}, {"type": "way", "id": 218404975, "nodes": [2276456423, 2276456418, 2276456419, 2276456421, 2276456422, 2276456424, 2276456423], "tags": {"barrier": "fence", "name": "Smokey Point Self Storage", "shop": "storage_rental"}}, {"type": "way", "id": 218404977, "nodes": [2276456391, 7876973382, 7876988311, 2276456390, 2276456391], "tags": {"addr:city": "Marysville", "addr:housenumber": "14810", "addr:postcode": "98271", "addr:street": "Smokey Point Boulevard", "building": "retail", "name": "Gerber Collision & Glass", "shop": "car_repair"}}, {"type": "way", "id": 218404978, "nodes": [2276456588, 7876776188, 7876776186, 7876776185, 7876776187, 2276456589, 2276456581, 7876696283, 7876696282, 7876696281, 7876696284, 2276456580, 2276456588], "tags": {"addr:city": "Marysville", "addr:housenumber": "16918", "addr:postcode": "98271", "addr:street": "Twin Lakes Avenue", "amenity": "restaurant", "building": "retail", "check_date": "2024-10-12", "height": "8.7", "name": "Boston's"}}, {"type": "way", "id": 218404980, "nodes": [2276456493, 2276456495, 2276456501, 2276456502, 2276456498, 2276456475, 2276456471, 2276456493], "tags": {"addr:city": "Marysville", "addr:housenumber": "16616", "addr:postcode": "98271", "addr:state": "WA", "addr:street": "Twin Lakes Avenue", "branch": "Marysville WA", "brand": "Costco", "brand:wikidata": "Q715583", "building": "commercial", "check_date": "2024-10-12", "height": "8.9", "name": "Costco", "opening_hours": "Mo-Fr 10:00-20:30; Sa 09:30-18:00; Su 10:00-18:00", "operator": "Costco", "phone": "+1-360-652-4532", "ref": "642", "shop": "wholesale", "website": "https://www.costco.com/warehouse-locations/marysville-wa-642.html"}}, {"type": "way", "id": 218404982, "nodes": [2276456412, 2276456413, 2276456411, 2276456410, 2276456412], "tags": {"addr:city": "Marysville", "addr:housenumber": "15202", "addr:postcode": "98271", "addr:state": "WA", "addr:street": "Smokey Point Boulevard", "building": "yes", "height": "8.6", "name": "Cycle Barn", "shop": "motorcycle", "website": "https://www.cyclebarn.com/"}}, {"type": "way", "id": 218404985, "nodes": [2276456431, 7516289730, 7516289729, 7516289728, 7516289727, 2276456429, 7516289721, 7516289726, 7516289725, 7516289722, 7516289724, 2276456430, 7516289723, 2276456432, 7516289732, 7516289731, 2276456431], "tags": {"addr:city": "Marysville", "addr:housenumber": "16212", "addr:postcode": "98271", "addr:street": "Smokey Point Boulevard", "brand": "Harley-Davidson", "brand:wikidata": "Q192814", "building": "yes", "height": "9.9", "name": "Sound Harley Davidson", "shop": "motorcycle"}}, {"type": "way", "id": 218404990, "nodes": [2276456416, 2276456417, 2276456415, 2276456414, 2276456416], "tags": {"brand": "Peterbilt", "brand:wikidata": "Q944640", "building": "yes", "height": "8.5", "name": "Peterbilt", "shop": "truck"}}, {"type": "way", "id": 218404993, "nodes": [2276456529, 7876894521, 7876894523, 7876894524, 7876894525, 7876894526, 7876894522, 2276456530, 2276456522, 2276456521, 2276456529], "tags": {"addr:city": "Marysville", "addr:housenumber": "16814", "addr:postcode": "98271", "addr:street": "Twin Lakes Avenue", "amenity": "restaurant", "brand": "Red Robin", "brand:wikidata": "Q7304886", "building": "retail", "check_date": "2024-10-12", "cuisine": "burger", "height": "6.9", "name": "Red Robin", "official_name": "Red Robin Gourmet Burgers and Brews"}}, {"type": "way", "id": 218404997, "nodes": [2276456684, 2276456685, 7876696273, 7876696272, 7876696271, 7876696274, 2276456680, 2276456679, 2276456684], "tags": {"addr:city": "Marysville", "addr:housenumber": "17105", "addr:postcode": "98271", "addr:state": "WA", "addr:street": "27th Avenue Northeast", "amenity": "fast_food", "brand": "Taco Bell", "brand:wikidata": "Q752941", "building": "retail", "check_date": "2025-10-18", "cuisine": "tex-mex", "delivery": "no", "drive_through": "yes", "height": "8.", "name": "Taco Bell", "opening_hours": "07:00-02:00", "outdoor_seating": "no", "phone": "+1-360-654-1362", "smoking": "no", "takeaway": "yes", "website": "https://locations.tacobell.com/wa/marysville/17105-27th-avenue-ne.html"}}, {"type": "way", "id": 218404998, "nodes": [2276456540, 2276456517, 2276456515, 2276456542, 2276456543, 2276456546, 2276456547, 2276456552, 2276456554, 2276456549, 2276456550, 2276456548, 2276456541, 2276456540], "tags": {"addr:city": "Marysville", "addr:housenumber": "16818", "addr:postcode": "98271", "addr:state": "WA", "addr:street": "Twin Lakes Avenue", "brand": "Target", "brand:wikidata": "Q1046951", "building": "retail", "check_date": "2022-12-04", "height": "10.5", "internet_access": "wlan", "internet_access:fee": "no", "internet_access:operator": "Target", "name": "Target", "opening_hours": "08:00-22:00", "phone": "+1-360-386-4020", "shop": "department_store", "toilets": "yes", "website": "https://www.target.com/store-locator/store-details/storeNumber=2192"}}, {"type": "way", "id": 218405008, "nodes": [2276456677, 2276456678, 2276456672, 2276456671, 2276456677], "tags": {"addr:city": "Marysville", "addr:housenumber": "2730", "addr:postcode": "98271", "addr:street": "172nd Street Northeast", "amenity": "veterinary", "building": "yes", "check_date": "2024-05-30", "height": "10.1", "name": "Veterinary Care Clinic"}}, {"type": "way", "id": 218405046, "nodes": [7876776210, 7876696280, 7876696279, 2276456659, 2276456647, 7876776203, 7876776210], "tags": {"addr:city": "Marysville", "addr:housenumber": "2721", "addr:postcode": "98271", "addr:street": "171st Place Northeast", "air_conditioning": "yes", "brand": "Discount Tire", "brand:wikidata": "Q5281735", "building": "retail", "building:levels": "1", "height": "8.9", "name": "Discount Tire", "phone": "+1-360-652-3198", "shop": "tyres"}}, {"type": "way", "id": 218405063, "nodes": [2276456668, 2276456669, 11079280059, 11376109470, 7876696275, 2276456661, 7876696278, 7876696277, 2276456660, 11079280058, 2276456668], "tags": {"addr:city": "Marysville", "addr:housenumber": "17117", "addr:postcode": "98271", "addr:street": "28th Drive Northeast", "building": "retail", "name": "Grease Monkey", "shop": "car_repair"}}, {"type": "way", "id": 219620188, "nodes": [2287653872, 2287653871, 2287653873, 2287653874, 2292882519, 2292882520, 2287653875, 2287653876, 2287653872], "tags": {"addr:city": "Marysville", "addr:housenumber": "15104", "addr:postcode": "98271", "addr:street": "Smokey Point Boulevard", "building": "yes", "height": "16.7", "name": "L&W Supply", "shop": "trade"}}, {"type": "way", "id": 279464444, "nodes": [2836864875, 2836864876, 2836723338, 2836864877, 2836864878, 2836864879, 2836864880, 2836864881, 7851424866, 2836864882, 2836864883, 2836864875], "tags": {"access": "no", "addr:city": "Arlington", "addr:housenumber": "2901", "addr:postcode": "98223", "addr:street": "172nd Street Northeast", "amenity": "parking", "capacity": "62", "fee": "no", "name": "I-5 and Hwy 531 Park and Ride", "operator": "Washington State Department of Transportation", "park_ride": "yes", "parking": "surface", "supervised": "no", "wheelchair": "yes"}}, {"type": "way", "id": 544408286, "nodes": [2276456333, 6812899262, 5262642571, 5262642572, 2276456333], "tags": {"addr:city": "Marysville", "addr:housenumber": "17305", "addr:postcode": "98271", "addr:street": "27th Avenue Northeast", "brand": "Firestone", "brand:wikidata": "Q420837", "building": "retail", "check_date": "2024-05-30", "name": "Firestone", "official_name": "Firestone Complete Auto Care", "opening_hours": "Mo-Fr 07:00-19:00; Sa 07:00-18:00; Su 08:00-18:00", "shop": "car_repair"}}, {"type": "way", "id": 545392351, "nodes": [5271243421, 5271243422, 5271243423, 5271243424, 5271243425, 5271243426, 5271243421], "tags": {"addr:city": "Marysville", "addr:housenumber": "3710", "addr:postcode": "98271", "addr:street": "136th Street Northeast", "amenity": "restaurant", "building": "retail", "height": "9.9", "name": "Taqueria La Bamba"}}, {"type": "way", "id": 545392353, "nodes": [5271243432, 7878739328, 5271243434, 5271243435, 5271243432], "tags": {"addr:city": "Marysville", "addr:housenumber": "13733", "addr:postcode": "98271", "addr:state": "WA", "addr:street": "Smokey Point Boulevard", "building": "yes", "height": "8.9", "name": "Anchor Self Storage", "shop": "storage_rental", "website": "https://www.anchorstoragemarysville.com/"}}, {"type": "way", "id": 545393815, "nodes": [5271252104, 5271252105, 5271252106, 5271252107, 5271252108, 5271252109, 5271252110, 5271252111, 5271252112, 5271252113, 5271252114, 5271252115, 5271252104], "tags": {"addr:city": "Marysville", "addr:housenumber": "14716", "addr:postcode": "98271", "addr:state": "WA", "addr:street": "Smokey Point Boulevard", "amenity": "fire_station", "building": "commercial", "height": "9.", "name": "Station 63", "operator": "Marysville Fire District", "website": "https://www.marysvillefiredistrict.org/about-us/stations/station-63-midway/"}}, {"type": "way", "id": 545395675, "nodes": [5271272608, 5271272609, 5271272610, 5271272611, 5271272612, 5271272613, 3712362980, 5271272615, 5271272616, 5271272617, 5271272608], "tags": {"addr:city": "Marysville", "addr:housenumber": "15900", "addr:postcode": "98271", "addr:street": "Smokey Point Boulevard", "brand": "Ford", "brand:wikidata": "Q44294", "building": "retail", "height": "10.8", "name": "Kendall Marysville Ford", "shop": "car"}}, {"type": "way", "id": 545395677, "nodes": [5271274922, 2836884060, 5271274924, 5271274925, 5271274926, 5271274927, 5271274928, 5271274929, 5271274930, 5271274931, 5271274932, 5271274933, 5271274934, 5271274935, 5271274922], "tags": {"addr:city": "Marysville", "addr:housenumber": "15714", "addr:postcode": "98271", "addr:street": "Smokey Point Boulevard", "brand": "Honda", "brand:wikidata": "Q9584", "building": "retail", "height": "9.6", "name": "Honda of Marysville", "opening_hours": "Mo-Sa 09:00-20:00; Su 10:00-18:00", "phone": "+1-855-503-4133", "shop": "car", "website": "https://www.hondaofmarysville.com/"}}, {"type": "way", "id": 545395678, "nodes": [5413080992, 5413080991, 5413080994, 5271274936, 5413080996, 5413080995, 5413080997, 5413080998, 5413080999, 5413081000, 5413081001, 5413081002, 5413081003, 5271274938, 5271272607, 5413080992], "tags": {"amenity": "parking"}}, {"type": "way", "id": 545396397, "nodes": [5271279305, 5271279308, 2276456330, 5271279306, 5271279305], "tags": {"amenity": "fuel", "brand": "Marathon", "brand:wikidata": "Q458363", "building": "roof", "height": "15.4", "name": "Marathon"}}, {"type": "way", "id": 545396398, "nodes": [7877004617, 7877004601, 7877004600, 7877004621, 12451515633, 7877004615, 7877004599, 7877004598, 7877004610, 7877004617], "tags": {"addr:city": "Marysville", "addr:housenumber": "15218", "addr:postcode": "98271", "addr:street": "Smokey Point Boulevard", "alt_name": "M$M Mart", "building": "yes", "height": "4.9", "name": "M&M Mart", "shop": "convenience"}}, {"type": "way", "id": 545396401, "nodes": [5271279319, 5271279320, 5271280321, 5271280322, 5271280323, 5271280324, 5271279319], "tags": {"area": "yes"}}, {"type": "way", "id": 561074951, "nodes": [5410568061, 5410568060, 5410568046, 5410568059, 5410568047, 5410568048, 5410568049, 5410568057, 5410568056, 5410568051, 5410568050, 5410568052, 5410568053, 5410568054, 5410568055, 5410568058, 5410568044, 5410568043, 5410568042, 5410568045, 5410568061]}, {"type": "way", "id": 561074954, "nodes": [5410568095, 5410568086, 5410568087, 5410568088, 5410568090, 5410568089, 5410568084, 5410568085, 5410568092, 5410568093, 5410568076, 5410568075, 5410568077, 5410568073, 5410568067, 5410568068, 5410568066, 5410568064, 5410568065, 5410568072, 5410568071, 5410568070, 5410568069, 5410568074, 5410568094, 5410568081, 5410568080, 5410568079, 5410568082, 5410568078, 5410568083, 5410568091, 5410568095], "tags": {"amenity": "parking"}}, {"type": "way", "id": 561074997, "nodes": [5410568671, 5410568667, 5410568668, 5410568666, 5410568665, 5410568664, 5410568663, 5410568662, 5410568661, 5410568660, 5410568658, 5410568656, 5410568671], "tags": {"access": "customers", "amenity": "parking"}}, {"type": "way", "id": 561329504, "nodes": [5412807707, 5412807706, 5412807705, 5412807704, 5412807707], "tags": {"amenity": "parking"}}, {"type": "way", "id": 561329538, "nodes": [5412808259, 5412808258, 5412808257, 5412808256, 5412808255, 5412808254, 6468706756, 6468706755, 5412808253, 5412808252, 5412808251, 5412808250, 5412808249, 5412808248, 5412808247, 5412808246, 5412808245, 5412808244, 5412808243, 5412808242, 5412808241, 5412808240, 5412808239, 5412808238, 5412808237, 5412808236, 5412808235, 5412808234, 5412808233, 5412808232, 5412808231, 5412808230, 5412808229, 5412808228, 5412808227, 5412808226, 5412808225, 5412808224, 5412808223, 5412808222, 5412808221, 5412808220, 5412808219, 5412808218, 5412808217, 5412808216, 5412808215, 5412808214, 5412808213, 5412808212, 5412808211, 5412808210, 5412808209, 5412808208, 5412808259], "tags": {"access": "customers", "amenity": "parking", "fee": "no", "parking": "surface"}}, {"type": "way", "id": 561329540, "nodes": [5412808317, 5412808316, 5412808315, 5412808314, 5412808313, 5412808312, 5412808311, 5412808310, 5412808309, 5412808308, 5412808307, 5412808306, 5412808305, 5412808304, 5412808303, 5412808302, 5412808301, 5412808300, 5412808299, 5412808298, 5412808297, 5412808296, 5412808295, 5412808294, 5412808293, 5412808292, 5412808291, 5412808290, 5412808289, 5412808288, 5412808287, 5412808286, 5412808285, 5412808284, 5412808283, 5412808282, 5412808281, 5412808280, 5412808279, 5412808278, 5412808277, 5412808276, 5412808275, 5412808274, 5412808273, 5412808272, 5412808271, 5412808270, 5412808269, 5412808268, 5412808267, 5412808266, 5412808265, 5412808264, 2276456462, 5412808263, 5412808262, 5412808261, 5412808317], "tags": {"amenity": "parking", "parking": "surface"}}, {"type": "way", "id": 561329608, "nodes": [5412808522, 5412808521, 5412808420, 5412808419, 2276456504, 2276456489, 5412808418, 5412808417, 2276456485, 5412808416, 5412808415, 5412808414, 5412808413, 5412808412, 5412808411, 5412808410, 5412808409, 5412808408, 5412808407, 5412808522]}, {"type": "way", "id": 561329831, "nodes": [5412809225, 5412809224, 5412809223, 5412809222, 5412809221, 5412809220, 5412809219, 5412809218, 5412809217, 5412809216, 5412809215, 5412809209, 5412809210, 5412809211, 5412809212, 5412809214, 5412809213, 5412809225], "tags": {"amenity": "parking"}}, {"type": "way", "id": 561329857, "nodes": [5412809273, 5412809272, 5412809271, 5412809270, 5412809269, 5412809268, 5412809267, 5412809266, 5412809265, 5412809264, 5412809263, 5412809262, 5412809261, 5412809260, 5412809259, 5412809258, 5412809273]}, {"type": "way", "id": 561333016, "nodes": [5412837312, 5412837311, 5412837310, 5412837309, 5412837312], "tags": {"amenity": "parking"}}, {"type": "way", "id": 561333077, "nodes": [5412839980, 5412839977, 5413133171, 5413133169, 5412839978, 5412839979, 5412839976, 5271279310, 5271279312, 5412839975, 5412839980], "tags": {"access": "customers", "amenity": "parking", "fee": "no", "parking": "surface"}}, {"type": "way", "id": 561333080, "nodes": [5412839991, 5412839984, 5412839983, 5412839990, 5412839989, 2292886948, 5412839988, 5412839987, 5412839985, 5412839986, 5412839991], "tags": {"amenity": "parking"}}, {"type": "way", "id": 561333085, "nodes": [5412840021, 5412840010, 5412840008, 5412840007, 5412840009, 5412840012, 5412840011, 5412840020, 5412840013, 5412840014, 5412840019, 5412840018, 5412840015, 5412840016, 5412840017, 5412840021], "tags": {"amenity": "parking"}}, {"type": "way", "id": 561333094, "nodes": [2276456388, 2276456389, 5412840042, 5412840041, 5412840040, 2276456388], "tags": {"amenity": "parking"}}, {"type": "way", "id": 561333099, "nodes": [5412840055, 5412840058, 5412840054, 5412840056, 5412840055], "tags": {"addr:city": "Marysville", "addr:housenumber": "14628", "addr:postcode": "98271", "addr:street": "Smokey Point Boulevard", "amenity": "parking", "building": "warehouse"}}, {"type": "way", "id": 561333109, "nodes": [2276456369, 2276456371, 5412840079, 5412840085, 5412840078, 5412840075, 5412840076, 5412840077, 5412840073, 5412840074, 5412840086, 5412840083, 5412840082, 5412840081, 5412840080, 5412840087, 2276456360, 2276456361, 2276456364, 2276456365, 2276456367, 2276456366, 2276456368, 2276456369], "tags": {"amenity": "parking"}}, {"type": "way", "id": 561333117, "nodes": [5412840104, 5412840101, 5412840102, 5412840099, 5412840100, 5412840103, 5412840097, 5412840098, 5412840104], "tags": {"amenity": "parking"}}, {"type": "way", "id": 561333118, "nodes": [5412840108, 5412840107, 5412840106, 5412840105, 5412840108], "tags": {"amenity": "parking"}}, {"type": "way", "id": 561333125, "nodes": [5412840149, 5413133100, 5412840125, 5412840124, 5412840148, 5412840126, 5412840127, 5412840128, 5412840129, 5412840130, 5412840131, 5412840132, 5412840147, 5412840133, 5412840134, 5412840135, 5412840136, 5412840137, 5412840144, 5412840138, 5412840139, 5412840140, 5412840141, 5412840145, 5412840142, 5412840143, 5412840146, 5412840149], "tags": {"amenity": "parking"}}, {"type": "way", "id": 561333133, "nodes": [5412840161, 5412840158, 5412840157, 5412840156, 5412840159, 5412840160, 5412840161], "tags": {"amenity": "parking"}}, {"type": "way", "id": 561333136, "nodes": [5412840168, 5412840165, 5412840166, 5412840167, 5412840168], "tags": {"amenity": "parking"}}, {"type": "way", "id": 561333145, "nodes": [5412840197, 5412840181, 5412840180, 5412840179, 5412840194, 5412840175, 5412840176, 5412840177, 5412840178, 5412840174, 5412840173, 5412840195, 5412840191, 5412840196, 5412840190, 5412840189, 5412840188, 5412840187, 5412840186, 5412840185, 5412840184, 5412840183, 5412840182, 5412840197], "tags": {"amenity": "parking"}}, {"type": "way", "id": 561365306, "nodes": [5413127713, 5413127708, 5413127709, 5413127712, 5413127711, 5413127707, 5413127706, 5413127710, 5413127713], "tags": {"amenity": "parking"}}, {"type": "way", "id": 561365337, "nodes": [5413133081, 5413133073, 5413133074, 5413133075, 5413133077, 5413133076, 5413133078, 5412840149, 5413133080, 5413133071, 5413133072, 5413133079, 5413133081], "tags": {"amenity": "parking"}}, {"type": "way", "id": 561365379, "nodes": [5413133176, 5413133173, 5413133174, 5413133178, 5413133175, 5413133176], "tags": {"amenity": "parking", "parking": "surface"}}, {"type": "way", "id": 573366798, "nodes": [5507054648, 5507054649, 5507054658, 5507054660, 5507054659, 5507054661, 5507054671, 5507054672, 5507054673, 5507054674, 5507054675, 5507054676, 5507054677, 5507054662, 5507054679, 5507054678, 5507054656, 5507054690, 5507054689, 5507054691, 5507054688, 5507054687, 5507054685, 5507054686, 5507054684, 5507054681, 5507054683, 5507054682, 5507054680, 5507054670, 5507054669, 5507054668, 5507054667, 5507054665, 5507054666, 5507054663, 5507054664, 5507054657, 5507054650, 5507054651, 5507054655, 5507054652, 5507054653, 5507054654, 5507054648], "tags": {"addr:city": "Marysville", "addr:housenumber": "16800", "addr:postcode": "98271", "addr:street": "16th Drive Northeast", "amenity": "school", "building": "school", "height": "11.3", "name": "Lakewood Middle School"}}, {"type": "way", "id": 689534743, "nodes": [2330164753, 6468706743, 6468706744, 6468706745, 6468706746, 6468706747, 6468706748, 6468706749, 7876906738, 7876906739, 6468706750, 6468706751, 6468706752, 6468706753, 2330164753], "tags": {"addr:city": "Marysville", "addr:housenumber": "16518", "addr:postcode": "98271", "addr:street": "Twin Lakes Avenue", "amenity": "restaurant", "brand": "IHOP", "brand:wikidata": "Q1185675", "building": "retail", "check_date": "2024-10-12", "cuisine": "breakfast;pancake", "height": "7.6", "name": "IHOP", "opening_hours": "Mo-Su 06:00-22:00", "website": "https://www.ihop.com/"}}, {"type": "way", "id": 689534744, "nodes": [7876894529, 6468706757, 2276456487, 7876894528, 7876894529], "tags": {"access": "customers", "addr:city": "Marysville", "addr:housenumber": "16600", "addr:postcode": "98271", "addr:street": "Twin Lakes Avenue", "amenity": "fuel", "brand": "Costco Gasoline", "brand:wikidata": "Q715583", "building": "roof", "check_date": "2024-10-12", "height": "6.4", "membership": "yes", "name": "Costco Gasoline", "name:en": "Costco Gasoline", "opening_hours": "Mo-Fr 06:00-21:30; Sa-Su 07:00-19:00", "operator": "Costco", "website": "https://www.costco.com/warehouse-locations/marysville-wa-642.html"}}, {"type": "way", "id": 844100626, "nodes": [7874019260, 7874019245, 7874019244, 7874019254, 7874019260], "tags": {"addr:city": "Marysville", "addr:housenumber": "3710", "addr:postcode": "98271", "addr:street": "134th Street Northeast", "addr:unit": "B", "building": "retail", "height": "7.5", "name": "National Marine Exhaust", "office": "company", "website": "https://www.nationalmarineexhaust.com/"}}, {"type": "way", "id": 844430313, "nodes": [7876988313, 2287655966, 7876973354, 7876973355, 7876973380, 7876988309, 7876988288, 7876973368, 7876988313], "tags": {"addr:city": "Marysville", "addr:housenumber": "14824", "addr:postcode": "98271", "addr:street": "Smokey Point Boulevard", "amenity": "restaurant", "building": "retail", "height": "6.3", "name": "Danny's Midway Bar & Grill"}}, {"type": "way", "id": 844580115, "nodes": [7878739229, 7878739322, 7878739183, 5271243431, 7878739262, 7878739204, 7878739229], "tags": {"addr:city": "Marysville", "addr:housenumber": "3603", "addr:postcode": "98271", "addr:street": "136th Street Northeast", "building": "commercial", "height": "8.4", "name": "HD Supply", "shop": "trade", "website": "https://www.hdsupply.com/"}}, {"type": "way", "id": 1074078786, "nodes": [356551584, 9852161124, 9852161125, 9852161126, 9852161127, 9852161128, 9852161129, 9852161130, 9852161131, 9852161132, 9852161133, 9852161134, 9852161135, 9852161136, 9852161137, 9852161138, 9852161139, 9852161140, 9852161141, 9852161142, 9852161143, 9852161144, 9852161145, 356551584], "tags": {"addr:city": "Arlington", "addr:housenumber": "17023", "addr:postcode": "98223", "addr:state": "WA", "addr:street": "11th Avenue Northeast", "amenity": "school", "ele": "41", "fax": "+1-360-652-4507", "gnis:feature_id": "2462392", "landuse": "education", "mascot": "Cougars", "name": "Lakewood High School", "operator": "Lakewood School District", "operator:type": "public", "phone": "+1-360-652-4505", "website": "https://www.lwsd.wednet.edu/Domain/12", "wikidata": "Q6479420", "wikipedia": "en:Lakewood High School (Washington)"}}, {"type": "way", "id": 1109147111, "nodes": [10148446543, 10148446544, 10148446545, 10148446546, 10148446547, 10148446548, 10148446549, 10148446550, 10148446551, 10148446552, 10148446553, 10148446554, 10148446555, 10148446556, 10148446557, 10148446558, 10148446559, 10148446543]}, {"type": "way", "id": 1109147112, "nodes": [10148446560, 10148446561, 10148446562, 10148446563, 10148446564, 10148446565, 10148446566, 10148446567, 10148446568, 10148446569, 10148446570, 10148446571, 10148446560]}, {"type": "way", "id": 1109147113, "nodes": [10148446572, 10148446573, 10148446574, 10148446575, 10148446576, 10148446577, 10148446578, 10148446579, 10148446580, 10148446581, 10148446582, 10148446583, 10148446584, 10148446585, 10148446572]}, {"type": "way", "id": 1109147114, "nodes": [10148446586, 10148446587, 10148446588, 10148446589, 10148446590, 10148446591, 10148446592, 10148446593, 10148446594, 10148446595, 10148446596, 10148446597, 10148446598, 10148446599, 10148446600, 10148446601, 10148446602, 10148446603, 10148446604, 10148446605, 10148446606, 10148446607, 10148446608, 10148446609, 10148446610, 10148446611, 10148446612, 10148446613, 10148446614, 10148446615, 10148446616, 10148449117, 10148449118, 10148449119, 10148449120, 10148449121, 10148449122, 10148446586], "tags": {"access": "customers", "amenity": "parking", "fee": "no", "parking": "surface"}}, {"type": "way", "id": 1226924571, "nodes": [11377522654, 11377522655, 11377522656, 11377522657, 11377522665, 11377522658, 11377522645, 11377522654], "tags": {"access": "private", "amenity": "parking", "parking": "surface", "surface": "asphalt"}}, {"type": "way", "id": 1226924573, "nodes": [11377522676, 11377522677, 11377522678, 11377522679, 11377522680, 11377522681, 7168273240, 7168273242, 7229566818, 11377522682, 11377522683, 11377522684, 11377522685, 11377522686, 11377522687, 7229566815, 11377522676], "tags": {"access": "no", "amenity": "parking"}}, {"type": "way", "id": 1346304032, "nodes": [12452431458, 12452431459, 12452431460, 12452431461, 12452431458], "tags": {"area": "yes"}}, {"type": "relation", "id": 8018501, "members": [{"type": "way", "ref": 561074951, "role": "outer"}, {"type": "way", "ref": 545392351, "role": "inner"}], "tags": {"amenity": "parking", "type": "multipolygon"}}, {"type": "relation", "id": 8021264, "members": [{"type": "way", "ref": 561329608, "role": "outer"}], "tags": {"amenity": "parking", "type": "multipolygon"}}, {"type": "relation", "id": 8021268, "members": [{"type": "way", "ref": 561329857, "role": "outer"}, {"type": "way", "ref": 218404985, "role": "inner"}], "tags": {"amenity": "parking", "type": "multipolygon"}}, {"type": "relation", "id": 14760010, "members": [{"type": "way", "ref": 1109147112, "role": "outer"}, {"type": "way", "ref": 1109147113, "role": "outer"}, {"type": "way", "ref": 1109147111, "role": "outer"}], "tags": {"access": "customers", "amenity": "parking", "fee": "no", "parking": "surface", "type": "multipolygon"}}, {"type": "relation", "id": 18464932, "members": [{"type": "way", "ref": 1346304032, "role": "inner"}, {"type": "way", "ref": 545396401, "role": "outer"}], "tags": {"amenity": "parking", "type": "multipolygon"}}]}