{"version": 0.6, "generator": "Overpass API 0.7.62.8 e802775f", "osm3s": {"timestamp_osm_base": "2025-12-08T22:05:44Z", "copyright": "The data included in this document is from www.openstreetmap.org. The data is made available under ODbL."}, "elements": [{"type": "node", "id": 357960795, "lat": 48.7793893, "lon": -104.5635631, "tags": {"amenity": "doctors", "gnis:feature_id": "1677408", "healthcare": "doctor", "name": "Medical Clinic"}}, {"type": "node", "id": 357960803, "lat": 48.7764169, "lon": -104.5582907, "tags": {"amenity": "dentist", "ele": "625", "gnis:feature_id": "1677411", "healthcare": "dentist", "name": "Sheridan Dental Clinic"}}, {"type": "node", "id": 357960807, "lat": 48.7753058, "lon": -104.5477347, "tags": {"amenity": "place_of_worship", "denomination": "baptist", "ele": "622", "gnis:feature_id": "1677412", "name": "First Baptist Church - Plentywood", "religion": "christian"}}, {"type": "node", "id": 357960809, "lat": 48.7768593, "lon": -104.5660901, "tags": {"amenity": "place_of_worship", "ele": "626", "gnis:feature_id": "1677414", "name": "Assembly of God Church", "religion": "christian"}}, {"type": "node", "id": 357960811, "lat": 48.777528, "lon": -104.5635687, "tags": {"amenity": "place_of_worship", "denomination": "lutheran", "ele": "627", "gnis:feature_id": "1677415", "name": "Trinity Lutheran Church - Missouri Synod", "religion": "christian"}}, {"type": "node", "id": 357960814, "lat": 48.7796498, "lon": -104.562535}, {"type": "node", "id": 357960816, "lat": 48.7793858, "lon": -104.5626859, "tags": {"amenity": "nursing_home", "gnis:feature_id": "1677417", "name": "Sheridan Memorial Nursing Home"}}, {"type": "node", "id": 357960823, "lat": 48.7689141, "lon": -104.5542166, "tags": {"amenity": "place_of_worship", "denomination": "mormon", "ele": "624", "gnis:feature_id": "1677422", "name": "The Church of Jesus Christ of Latter-day Saints", "religion": "christian"}}, {"type": "node", "id": 357960828, "lat": 48.7716946, "lon": -104.560513, "tags": {"amenity": "place_of_worship", "denomination": "methodist", "ele": "623", "gnis:feature_id": "1677423", "name": "United Methodist Church", "religion": "christian"}}, {"type": "node", "id": 357960837, "lat": 48.776534, "lon": -104.5565948, "tags": {"amenity": "place_of_worship", "ele": "625", "gnis:feature_id": "1677426", "name": "First Congregational United Church of Christ", "religion": "christian"}}, {"type": "node", "id": 357960841, "lat": 48.7804538, "lon": -104.5582829, "tags": {"amenity": "place_of_worship", "ele": "639", "gnis:feature_id": "1677427", "name": "Bethel Evangelical Church", "religion": "christian"}}, {"type": "node", "id": 357960845, "lat": 48.7791841, "lon": -104.5642395, "tags": {"addr:city": "Plentywood", "addr:housenumber": "409", "addr:postcode": "59254", "addr:street": "North Maurice Street", "amenity": "place_of_worship", "denomination": "seventh_day_adventist", "gnis:feature_id": "1677429", "name": "Plentywood Church", "phone": "+1 406 765 2764", "religion": "christian", "website": "https://plentywoodmt.adventistchurch.org/"}}, {"type": "node", "id": 357960849, "lat": 48.7714169, "lon": -104.5505126, "tags": {"amenity": "place_of_worship", "ele": "620", "gnis:feature_id": "1677430", "name": "Church of Christ", "religion": "christian"}}, {"type": "node", "id": 357961309, "lat": 48.7779329, "lon": -104.5552883, "tags": {"amenity": "school", "ele": "625", "gnis:feature_id": "1677543", "name": "Daniels / Sheridan Special Education Cooperative School"}}, {"type": "node", "id": 357961313, "lat": 48.7755836, "lon": -104.5577351, "tags": {"amenity": "post_office", "ele": "624", "gnis:feature_id": "1677544", "name": "Plentywood Post Office"}}, {"type": "node", "id": 366093132, "lat": 48.7747442, "lon": -104.5607977, "tags": {"addr:state": "MT", "amenity": "fire_station", "ele": "624", "gnis:feature_id": "1637563", "name": "Plentywood Fire Department", "source": "USGS Geonames"}}, {"type": "node", "id": 366093306, "lat": 48.7783147, "lon": -104.5564085, "tags": {"addr:state": "MT", "amenity": "library", "ele": "627", "gnis:feature_id": "1677432", "name": "Sheridan County Library", "source": "USGS Geonames"}}, {"type": "node", "id": 366093400, "lat": 48.778472, "lon": -104.5561841, "tags": {"addr:state": "MT", "amenity": "police", "ele": "627", "gnis:feature_id": "1637562", "name": "Plentywood Police Department", "source": "USGS Geonames"}}, {"type": "node", "id": 366093413, "lat": 48.7784688, "lon": -104.5566827, "tags": {"addr:state": "MT", "amenity": "police", "ele": "627", "gnis:feature_id": "1637564", "name": "Sheridan County Sheriffs Department", "source": "USGS Geonames"}}, {"type": "node", "id": 1069298619, "lat": 48.7791116, "lon": -104.5646377}, {"type": "node", "id": 1069298676, "lat": 48.7796447, "lon": -104.5646405}, {"type": "node", "id": 1069298709, "lat": 48.7791185, "lon": -104.5648108}, {"type": "node", "id": 1069298819, "lat": 48.7796516, "lon": -104.5648108}, {"type": "node", "id": 3513490287, "lat": 48.7745888, "lon": -104.5602503, "tags": {"name": "Pamida", "shop": "supermarket"}}, {"type": "node", "id": 3513492394, "lat": 48.7730157, "lon": -104.5553443}, {"type": "node", "id": 3513492401, "lat": 48.773263, "lon": -104.555613}, {"type": "node", "id": 3513492403, "lat": 48.7731823, "lon": -104.555571}, {"type": "node", "id": 3513492405, "lat": 48.7744562, "lon": -104.5586705, "tags": {"amenity": "bank", "name": "Stockman Bank"}}, {"type": "node", "id": 3513492406, "lat": 48.7731593, "lon": -104.5552515}, {"type": "node", "id": 3513492418, "lat": 48.7791207, "lon": -104.564912, "tags": {"amenity": "toilets"}}, {"type": "node", "id": 3513492419, "lat": 48.7755177, "lon": -104.5634264, "tags": {"amenity": "fuel"}}, {"type": "node", "id": 3513492423, "lat": 48.773217, "lon": -104.5560195}, {"type": "node", "id": 3513492425, "lat": 48.774087, "lon": -104.5563411, "tags": {"brand": "Kum & Go", "brand:wikidata": "Q6443340", "name": "Kum & Go", "shop": "convenience", "website": "https://www.kumandgo.com/store-locator?details=0808"}}, {"type": "node", "id": 3513492431, "lat": 48.7751695, "lon": -104.5621711, "tags": {"amenity": "fuel", "brand": "Cenex", "brand:wikidata": "Q5011381", "name": "Cenex"}}, {"type": "node", "id": 3513492433, "lat": 48.7742724, "lon": -104.5580375, "tags": {"amenity": "bank", "name": "Rocky Mountain Bank"}}, {"type": "node", "id": 3513492440, "lat": 48.7729617, "lon": -104.5555385}, {"type": "node", "id": 3513492441, "lat": 48.7731363, "lon": -104.5556007}, {"type": "node", "id": 3513492447, "lat": 48.7729843, "lon": -104.5557157}, {"type": "node", "id": 3513492448, "lat": 48.7729038, "lon": -104.555467}, {"type": "node", "id": 3513492450, "lat": 48.7731668, "lon": -104.556052}, {"type": "node", "id": 3513492451, "lat": 48.7730062, "lon": -104.555794}, {"type": "node", "id": 3513492463, "lat": 48.7733144, "lon": -104.5560495}, {"type": "node", "id": 3513492465, "lat": 48.7730422, "lon": -104.5555159}, {"type": "node", "id": 3513492466, "lat": 48.7732391, "lon": -104.5560981}, {"type": "node", "id": 3513492480, "lat": 48.7730455, "lon": -104.5556762}, {"type": "node", "id": 3513492486, "lat": 48.7730809, "lon": -104.5557458}, {"type": "node", "id": 3513492496, "lat": 48.7731231, "lon": -104.5555536}, {"type": "node", "id": 3513492500, "lat": 48.7730636, "lon": -104.555592}, {"type": "node", "id": 3513492505, "lat": 48.7728597, "lon": -104.5551681}, {"type": "node", "id": 3513492514, "lat": 48.7753665, "lon": -104.5635172, "tags": {"name": "Auto Tech", "shop": "car_repair"}}, {"type": "node", "id": 3513492517, "lat": 48.7732047, "lon": -104.5556507}, {"type": "node", "id": 3513492521, "lat": 48.7730285, "lon": -104.5556156}, {"type": "node", "id": 3513492536, "lat": 48.7732042, "lon": -104.5554113}, {"type": "node", "id": 3513492541, "lat": 48.7751093, "lon": -104.5608194, "tags": {"brand": "NAPA Auto Parts", "brand:wikidata": "Q6970842", "name": "NAPA Auto Parts", "operator": "Genuine Parts Company", "operator:wikidata": "Q5533818", "operator:wikipedia": "en:Genuine Parts Company", "shop": "car_parts"}}, {"type": "node", "id": 3513492545, "lat": 48.7733391, "lon": -104.5558842}, {"type": "node", "id": 3513492552, "lat": 48.7738402, "lon": -104.5563966, "tags": {"amenity": "fuel", "brand": "Kum & Go", "brand:wikidata": "Q6443340", "name": "Kum & Go", "website": "https://www.kumandgo.com/store-locator?details=0808"}}, {"type": "node", "id": 3513492555, "lat": 48.7729499, "lon": -104.5551098}, {"type": "node", "id": 3513492557, "lat": 48.7729297, "lon": -104.5555592}, {"type": "node", "id": 3513492569, "lat": 48.7732789, "lon": -104.555923}, {"type": "node", "id": 3513492575, "lat": 48.7729902, "lon": -104.5556403}, {"type": "node", "id": 3513492589, "lat": 48.7729374, "lon": -104.5554453}, {"type": "node", "id": 4910697041, "lat": 48.778371, "lon": -104.5638588}, {"type": "node", "id": 4910697042, "lat": 48.7796287, "lon": -104.5638559}, {"type": "node", "id": 4910697043, "lat": 48.7787353, "lon": -104.5625147}, {"type": "node", "id": 4910697044, "lat": 48.7787315, "lon": -104.5632275}, {"type": "node", "id": 4910697045, "lat": 48.7783672, "lon": -104.5632333}, {"type": "node", "id": 7115901858, "lat": 48.7737191, "lon": -104.5592368}, {"type": "node", "id": 7115901859, "lat": 48.7736429, "lon": -104.5592878}, {"type": "node", "id": 7115901860, "lat": 48.7735121, "lon": -104.5588382}, {"type": "node", "id": 7115901861, "lat": 48.7735884, "lon": -104.5587872}, {"type": "node", "id": 7659609768, "lat": 48.7764881, "lon": -104.5579523}, {"type": "node", "id": 7659609769, "lat": 48.7766401, "lon": -104.5578584}, {"type": "node", "id": 7659609770, "lat": 48.7767002, "lon": -104.5581052}, {"type": "node", "id": 7659609771, "lat": 48.776725, "lon": -104.5580918}, {"type": "node", "id": 7659609772, "lat": 48.7767709, "lon": -104.55825}, {"type": "node", "id": 7659609773, "lat": 48.7765871, "lon": -104.5583627}, {"type": "node", "id": 9953983713, "lat": 48.7740357, "lon": -104.5598551}, {"type": "node", "id": 9953983714, "lat": 48.7739263, "lon": -104.5594739}, {"type": "node", "id": 9953983715, "lat": 48.7739903, "lon": -104.5594271}, {"type": "node", "id": 9953983716, "lat": 48.7740975, "lon": -104.5598159}, {"type": "node", "id": 9954076097, "lat": 48.7739459, "lon": -104.5600317}, {"type": "node", "id": 9954076098, "lat": 48.7738145, "lon": -104.5595431}, {"type": "node", "id": 9954076099, "lat": 48.7740112, "lon": -104.5597896}, {"type": "node", "id": 9954076100, "lat": 48.7739644, "lon": -104.5598186}, {"type": "node", "id": 9954076101, "lat": 48.7740109, "lon": -104.5599915}, {"type": "node", "id": 9956251353, "lat": 48.7754375, "lon": -104.5631635}, {"type": "node", "id": 9956251354, "lat": 48.7753626, "lon": -104.5632124}, {"type": "node", "id": 9956251355, "lat": 48.7753528, "lon": -104.563178}, {"type": "node", "id": 9956251356, "lat": 48.7751957, "lon": -104.5632807}, {"type": "node", "id": 9956251357, "lat": 48.7751658, "lon": -104.5631752}, {"type": "node", "id": 9956251358, "lat": 48.7753298, "lon": -104.5630681}, {"type": "node", "id": 9956251359, "lat": 48.7753164, "lon": -104.5630206}, {"type": "node", "id": 9956251360, "lat": 48.7753836, "lon": -104.5629767}, {"type": "node", "id": 9956251361, "lat": 48.7754544, "lon": -104.5630397}, {"type": "node", "id": 9956345740, "lat": 48.775959, "lon": -104.5678858}, {"type": "node", "id": 9956345741, "lat": 48.7758707, "lon": -104.5675755}, {"type": "node", "id": 9956345742, "lat": 48.7757775, "lon": -104.5676366}, {"type": "node", "id": 9956345743, "lat": 48.7757707, "lon": -104.5676129}, {"type": "node", "id": 9956345744, "lat": 48.7756954, "lon": -104.5676625}, {"type": "node", "id": 9956345745, "lat": 48.7757905, "lon": -104.5679963}, {"type": "node", "id": 11986519978, "lat": 48.779241, "lon": -104.569449, "tags": {"addr:city": "Plentywood", "addr:housenumber": "625", "addr:postcode": "59254-1530", "addr:state": "MT", "addr:street": "West Laurel", "amenity": "fast_food", "brand": "DQ Grill & Chill", "brand:wikidata": "Q1141226", "cuisine": "ice_cream;burger", "name": "DQ Grill & Chill", "phone": "+1 406-765-1185", "takeaway": "yes", "website": "https://www.dairyqueen.com/locations/mt/plentywood/625-w-laurel/5923"}}, {"type": "way", "id": 92059063, "nodes": [1069298819, 1069298676, 1069298619, 1069298709, 1069298819], "tags": {"amenity": "parking", "parking": "surface", "source": "Bing"}}, {"type": "way", "id": 344601985, "nodes": [3513492545, 3513492401, 3513492517, 3513492403, 3513492441, 3513492496, 3513492500, 3513492465, 3513492536, 3513492406, 3513492394, 3513492555, 3513492505, 3513492589, 3513492448, 3513492557, 3513492440, 3513492575, 3513492521, 3513492480, 3513492447, 3513492451, 3513492486, 3513492450, 3513492423, 3513492466, 3513492463, 3513492569, 3513492545], "tags": {"amenity": "place_of_worship", "denomination": "lutheran", "name": "Plentywood Lutheran Parish", "religion": "christian"}}, {"type": "way", "id": 499875380, "nodes": [4910697045, 4910697044, 4910697043, 357960814, 4910697042, 4910697041, 4910697045], "tags": {"addr:city": "Plentywood", "addr:housenumber": "440", "addr:postcode": "59254", "addr:state": "MT", "addr:street": "West Laurel Avenue", "amenity": "hospital", "emergency": "yes", "gnis:feature_id": "1677416", "healthcare": "hospital", "name": "Sheridan Memorial Hospital", "opening_hours": "24/7", "phone": "+1 406 765 3700", "website": "https://www.sheridanmemorial.net/"}}, {"type": "way", "id": 761618217, "nodes": [7115901858, 7115901859, 7115901860, 7115901861, 7115901858], "tags": {"addr:city": "Plentywood", "addr:housenumber": "119", "addr:postcode": "59254", "addr:state": "MT", "addr:street": "South Main Street", "amenity": "cinema", "building": "yes", "name": "Orpheum Theatre", "screen": "1", "wikidata": "Q42903180"}}, {"type": "way", "id": 820301966, "nodes": [7659609773, 7659609772, 7659609771, 7659609770, 7659609769, 7659609768, 7659609773], "tags": {"addr:city": "Plentywood", "addr:housenumber": "301", "addr:postcode": "59254", "addr:state": "MT", "addr:street": "North Main Street", "amenity": "place_of_worship", "building": "church", "denomination": "roman_catholic", "description": "Mailing Address: PO Box 167 Plentywood, MT 59254", "diocese": "Great Falls-Billings", "ele": "625", "fax": "+1 406-765-2345", "gnis:feature_id": "1677425", "name": "Saint Joseph Catholic Church", "phone": "+1 406-765-2250", "religion": "christian"}}, {"type": "way", "id": 1086351119, "nodes": [9953983713, 9953983714, 9953983715, 9953983716, 9953983713], "tags": {"amenity": "restaurant", "building": "yes", "name": "Fergie's Pizzaz"}}, {"type": "way", "id": 1086356954, "nodes": [9954076097, 9954076098, 9953983714, 9954076099, 9954076100, 9954076101, 9954076097], "tags": {"amenity": "restaurant", "building": "yes", "name": "Cousins Family Restaurant"}}, {"type": "way", "id": 1086603205, "nodes": [9956251353, 9956251354, 9956251355, 9956251356, 9956251357, 9956251358, 9956251359, 9956251360, 9956251361, 9956251353], "tags": {"amenity": "restaurant", "building": "yes", "name": "Randy's Restaurant"}}, {"type": "way", "id": 1086609263, "nodes": [9956345740, 9956345741, 9956345742, 9956345743, 9956345744, 9956345745, 9956345740], "tags": {"amenity": "bar", "building": "yes", "name": "Robinhood Lounge"}}]}