{"version": 0.6, "generator": "Overpass API 0.7.62.8 e802775f", "osm3s": {"timestamp_osm_base": "2025-12-08T22:17:59Z", "copyright": "The data included in this document is from www.openstreetmap.org. The data is made available under ODbL."}, "elements": [{"type": "node", "id": 357974382, "lat": 48.4399677, "lon": -113.2175921, "tags": {"amenity": "school", "ele": "1459", "gnis:feature_id": "1750445", "name": "East Glacier Park School"}}, {"type": "node", "id": 357974462, "lat": 48.4416345, "lon": -113.2162032, "tags": {"amenity": "post_office", "ele": "1459", "gnis:feature_id": "1750476", "name": "East Glacier Park Post Office"}}, {"type": "node", "id": 357974595, "lat": 48.4399796, "lon": -113.2128584, "tags": {"amenity": "place_of_worship", "ele": "1454", "gnis:feature_id": "1750509", "name": "Chapel of the Ascension", "religion": "christian"}}, {"type": "node", "id": 366093174, "lat": 48.4413567, "lon": -113.2181477, "tags": {"addr:state": "MT", "amenity": "fire_station", "ele": "1462", "gnis:feature_id": "1750451", "name": "East Glacier Park Fire Department", "source": "USGS Geonames"}}, {"type": "node", "id": 366093330, "lat": 48.4427456, "lon": -113.2178699, "tags": {"addr:state": "MT", "amenity": "library", "ele": "1463", "gnis:feature_id": "1750545", "name": "East Glacier Park Branch Library", "source": "USGS Geonames"}}, {"type": "node", "id": 3081149776, "lat": 48.4445196, "lon": -113.2172871, "tags": {"amenity": "fuel", "brand": "CENEX", "name": "Bear Track Travel Center", "opening_hours": "24/7", "shop": "convenience"}}, {"type": "node", "id": 4956077280, "lat": 48.4419593, "lon": -113.2169107, "tags": {"addr:housenumber": "402", "name": "Brown Horse Pottery", "shop": "antiques"}}, {"type": "node", "id": 4956077281, "lat": 48.4418032, "lon": -113.2172186, "tags": {"name": "Pie for Strength", "shop": "bakery"}}, {"type": "node", "id": 4956077282, "lat": 48.4418604, "lon": -113.2184653}, {"type": "node", "id": 4956077283, "lat": 48.4441716, "lon": -113.2181222}, {"type": "node", "id": 4956077284, "lat": 48.4441779, "lon": -113.2182207}, {"type": "node", "id": 4956077285, "lat": 48.441873, "lon": -113.2186971}, {"type": "node", "id": 4956077286, "lat": 48.4438609, "lon": -113.2181888}, {"type": "node", "id": 4956077287, "lat": 48.4438321, "lon": -113.2180543}, {"type": "node", "id": 4956077288, "lat": 48.4417111, "lon": -113.2182222, "tags": {"amenity": "restaurant", "contact:facebook": "https://www.facebook.com/twomedicinegrill", "contact:tripadvisor": "https://www.tripadvisor.com/Restaurant_Review-g45152-d1508490-Reviews-Two_Medicine_Grill-East_Glacier_Park_Montana.html", "contact:website": "http://www.seeglacier.com/two-medicine-grill/", "contact:yelp": "https://www.yelp.com/biz/two-medicine-grill-east-glacier-park-village", "name": "Two Medicine Grill", "opening_hours": "Mo-Su 06:30-20:00"}}, {"type": "node", "id": 4956077289, "lat": 48.4418097, "lon": -113.2181963, "tags": {"name": "Glacier Park- Trading Company", "phone": "+1-406-226-9227", "shop": "convenience", "website": "http://www.seeglacier.com/glacier-park-trading-company/"}}, {"type": "node", "id": 4956077290, "lat": 48.4418105, "lon": -113.2181626, "tags": {"amenity": "car_rental", "name": "Avis"}}, {"type": "node", "id": 6568825586, "lat": 48.4438993, "lon": -113.2174246, "tags": {"amenity": "post_office", "name": "East Glacier Main Post Office"}}, {"type": "node", "id": 9927438952, "lat": 48.4400444, "lon": -113.2126717}, {"type": "node", "id": 9927438953, "lat": 48.4400427, "lon": -113.2124969}, {"type": "node", "id": 9927438954, "lat": 48.4399439, "lon": -113.212499}, {"type": "node", "id": 9927438955, "lat": 48.4399455, "lon": -113.2126739}, {"type": "node", "id": 9956077202, "lat": 48.4416832, "lon": -113.218239}, {"type": "node", "id": 9956077203, "lat": 48.4416451, "lon": -113.2178251}, {"type": "node", "id": 9956077204, "lat": 48.4415354, "lon": -113.2178481}, {"type": "node", "id": 9956077205, "lat": 48.4415735, "lon": -113.2182619}, {"type": "node", "id": 9956399488, "lat": 48.4421373, "lon": -113.2178893}, {"type": "node", "id": 9956399489, "lat": 48.4419992, "lon": -113.2179156}, {"type": "node", "id": 9956399490, "lat": 48.4419801, "lon": -113.2176882}, {"type": "node", "id": 9956399491, "lat": 48.4421183, "lon": -113.2176619}, {"type": "node", "id": 11188930803, "lat": 48.4422291, "lon": -113.2174549}, {"type": "node", "id": 11188930804, "lat": 48.4420575, "lon": -113.2174865}, {"type": "node", "id": 11188930805, "lat": 48.4420302, "lon": -113.2171491}, {"type": "node", "id": 11188930806, "lat": 48.4422018, "lon": -113.2171175}, {"type": "node", "id": 12888038792, "lat": 48.4416367, "lon": -113.218784, "tags": {"amenity": "bench"}}, {"type": "node", "id": 12888038793, "lat": 48.4417676, "lon": -113.2185855, "tags": {"amenity": "bench"}}, {"type": "node", "id": 12888038794, "lat": 48.4423388, "lon": -113.2184438, "tags": {"amenity": "cafe", "cuisine": "coffee_shop"}}, {"type": "way", "id": 505741015, "nodes": [4956077282, 4956077287, 4956077286, 4956077283, 4956077284, 4956077285, 4956077282], "tags": {"amenity": "parking", "parking": "surface", "surface": "unpaved"}}, {"type": "way", "id": 1083267669, "nodes": [9927438952, 9927438953, 9927438954, 9927438955, 9927438952], "tags": {"building": "yes", "name": "Sun Tours", "office": "guide"}}, {"type": "way", "id": 1086576460, "nodes": [9956077202, 9956077203, 9956077204, 9956077205, 9956077202], "tags": {"building": "yes", "name": "Old Goat Traders", "shop": "yes"}}, {"type": "way", "id": 1086616392, "nodes": [9956399488, 9956399489, 9956399490, 9956399491, 9956399488], "tags": {"amenity": "restaurant", "building": "yes", "cuisine": "mexican", "name": "Serranos Mexican Restaurant"}}, {"type": "way", "id": 1207559638, "nodes": [11188930803, 11188930804, 11188930805, 11188930806, 11188930803], "tags": {"amenity": "restaurant", "building": "yes"}}]}