{"version": 0.6, "generator": "Overpass API 0.7.62.8 e802775f", "osm3s": {"timestamp_osm_base": "2025-12-06T04:31:30Z", "copyright": "The data included in this document is from www.openstreetmap.org. The data is made available under ODbL."}, "elements": [{"type": "node", "id": 1708574567, "lat": 48.2293061, "lon": -114.275409, "tags": {"name": "Kalispell Copy Center", "shop": "copyshop"}}, {"type": "node", "id": 3847573077, "lat": 48.2156214, "lon": -114.27762}, {"type": "node", "id": 3847573112, "lat": 48.2150278, "lon": -114.279659}, {"type": "node", "id": 3847573123, "lat": 48.2153244, "lon": -114.2778464}, {"type": "node", "id": 3847573152, "lat": 48.2150279, "lon": -114.2778463}, {"type": "node", "id": 3847573967, "lat": 48.2153244, "lon": -114.27762}, {"type": "node", "id": 3847573975, "lat": 48.2156212, "lon": -114.2796591}, {"type": "node", "id": 5362000361, "lat": 48.2118844, "lon": -114.2822072}, {"type": "node", "id": 5362000362, "lat": 48.2115116, "lon": -114.2822001}, {"type": "node", "id": 5362000363, "lat": 48.2115187, "lon": -114.2813663}, {"type": "node", "id": 5362000364, "lat": 48.2116468, "lon": -114.2813687}, {"type": "node", "id": 5362000365, "lat": 48.2116459, "lon": -114.2814729}, {"type": "node", "id": 5362000366, "lat": 48.2118905, "lon": -114.2814776}, {"type": "node", "id": 5831540908, "lat": 48.2294104, "lon": -114.2763949, "tags": {"fax": "+1 406 300-4647", "name": "The Green Haus", "opening_hours": "Mo-Su 10:00-18:30", "phone": "+1 406 755-4287", "shop": "cannabis", "website": "https://thegreenhaus.com/"}}, {"type": "node", "id": 7055154809, "lat": 48.2121551, "lon": -114.292685}, {"type": "node", "id": 7055154810, "lat": 48.2120788, "lon": -114.2926824}, {"type": "node", "id": 7055154811, "lat": 48.2120771, "lon": -114.2924584}, {"type": "node", "id": 7055154812, "lat": 48.2121534, "lon": -114.2924584}, {"type": "node", "id": 7055154814, "lat": 48.2215563, "lon": -114.2765305, "tags": {"addr:city": "Kalispell", "addr:housenumber": "2141", "addr:postcode": "59901", "addr:state": "MT", "addr:street": "US Highway 2 East", "addr:unit": "200", "amenity": "restaurant", "cuisine": "vietnamese", "name": "Pho Ly Asian Cuisine", "opening_hours": "Mo-Sa 11:00-20:00", "phone": "+1-406-205-3128"}}, {"type": "node", "id": 7055526034, "lat": 48.2173201, "lon": -114.2777372}, {"type": "node", "id": 7055526035, "lat": 48.2171147, "lon": -114.2777314}, {"type": "node", "id": 7055526036, "lat": 48.2171164, "lon": -114.2775975}, {"type": "node", "id": 7055526037, "lat": 48.2173218, "lon": -114.2776034}, {"type": "node", "id": 7055526038, "lat": 48.2177723, "lon": -114.2780507}, {"type": "node", "id": 7055526039, "lat": 48.2175549, "lon": -114.2780474}, {"type": "node", "id": 7055526040, "lat": 48.217557, "lon": -114.277708}, {"type": "node", "id": 7055526041, "lat": 48.2177745, "lon": -114.2777113}, {"type": "node", "id": 7392780356, "lat": 48.2143898, "lon": -114.2761501, "tags": {"description": "Automotive Maintenance and Repair", "name": "Apex Automotive Services & Speedy Lube", "opening_hours": "Mo-Sa 08:30-17:30", "payment:cash": "yes", "payment:credit_cards": "yes", "payment:debit_cards": "yes", "service:vehicle:car_repair": "yes", "service:vehicle:oil_change": "yes", "service:vehicle:truck_repair": "yes", "shop": "car_repair"}}, {"type": "node", "id": 7392780357, "lat": 48.2142303, "lon": -114.2758427, "tags": {"description": "Transmission Repair", "name": "Flathead Transmission Specialists", "service:vehicle:transmission": "yes", "shop": "car_repair"}}, {"type": "node", "id": 8178608346, "lat": 48.2110759, "lon": -114.2847328}, {"type": "node", "id": 8178608347, "lat": 48.2111231, "lon": -114.2845685}, {"type": "node", "id": 8178608348, "lat": 48.2112297, "lon": -114.2846386}, {"type": "node", "id": 8178608349, "lat": 48.2111814, "lon": -114.2848038}, {"type": "node", "id": 8178608350, "lat": 48.21133, "lon": -114.2849015}, {"type": "node", "id": 8178608351, "lat": 48.2112035, "lon": -114.2853345}, {"type": "node", "id": 8178608352, "lat": 48.2111087, "lon": -114.2852724}, {"type": "node", "id": 8178608353, "lat": 48.2111881, "lon": -114.2849987}, {"type": "node", "id": 8178608354, "lat": 48.2111177, "lon": -114.2849517}, {"type": "node", "id": 8178608355, "lat": 48.2111649, "lon": -114.2847904}, {"type": "node", "id": 8188962993, "lat": 48.2292169, "lon": -114.2768194}, {"type": "node", "id": 8188962994, "lat": 48.2290447, "lon": -114.2768137}, {"type": "node", "id": 8188962995, "lat": 48.2290514, "lon": -114.276366}, {"type": "node", "id": 8188962996, "lat": 48.2292235, "lon": -114.2763717}, {"type": "node", "id": 8201278670, "lat": 48.2084883, "lon": -114.2952231, "tags": {"name": "Chef'store", "opening_hours": "Mo-Sa 07:00-19:00; Su 08:00-17:00", "shop": "supermarket"}}, {"type": "node", "id": 8530382301, "lat": 48.2250404, "lon": -114.2754795, "tags": {"brand": "Family Dollar", "brand:wikidata": "Q5433101", "name": "Family Dollar", "shop": "variety_store"}}, {"type": "node", "id": 8605141502, "lat": 48.2259957, "lon": -114.3069986, "tags": {"name": "Anew U Cryospa", "shop": "massage"}}, {"type": "node", "id": 8605141504, "lat": 48.2259931, "lon": -114.3061365, "tags": {"name": "Thrivent Financial", "office": "insurance"}}, {"type": "node", "id": 8609323089, "lat": 48.2140424, "lon": -114.2764182, "tags": {"name": "Snappy's", "opening_hours": "Mo-Fr 08:00-19:00; Sa 08:00-18:00; Su 09:00-17:00", "phone": "+1 406 257-7525", "shop": "sports", "website": "https://www.snappysportsenter.com/"}}, {"type": "node", "id": 8609323090, "lat": 48.2148392, "lon": -114.2768392, "tags": {"amenity": "cafe", "name": "City Brew Coffee"}}, {"type": "node", "id": 8609323101, "lat": 48.2145679, "lon": -114.2754685, "tags": {"name": "Kingdom of Games", "shop": "hobby"}}, {"type": "node", "id": 8609323102, "lat": 48.2144495, "lon": -114.2754711, "tags": {"name": "OneMain Financial", "office": "financial"}}, {"type": "node", "id": 8609323103, "lat": 48.2143641, "lon": -114.2754535, "tags": {"name": "Sports Cards Plus", "shop": "collector"}}, {"type": "node", "id": 8609323104, "lat": 48.2150682, "lon": -114.2765763, "tags": {"name": "Big Sky Tires", "shop": "tyres"}}, {"type": "node", "id": 8609323143, "lat": 48.2152458, "lon": -114.2743666, "tags": {"addr:unit": "A", "name": "E-Vapor-8", "shop": "e-cigarette"}}, {"type": "node", "id": 8609323144, "lat": 48.2152584, "lon": -114.2738887, "tags": {"name": "Evergreen Flathead Valley Pawn", "shop": "pawnbroker"}}, {"type": "node", "id": 8609323163, "lat": 48.2157599, "lon": -114.2766834, "tags": {"name": "Oasis HotSpring Spa & Sauna", "shop": "houseware"}}, {"type": "node", "id": 8609323164, "lat": 48.2164447, "lon": -114.2766325, "tags": {"name": "Able Body Shop Inc.", "shop": "car_repair"}}, {"type": "node", "id": 8609323165, "lat": 48.217094, "lon": -114.2746574, "tags": {"name": "Conlin's Furniture", "shop": "furniture"}}, {"type": "node", "id": 8609323174, "lat": 48.2154383, "lon": -114.2740495, "tags": {"name": "Lane's", "shop": "convenience"}}, {"type": "node", "id": 8609376620, "lat": 48.2174131, "lon": -114.2718848, "tags": {"name": "Northwest Fleet Service", "shop": "car_repair"}}, {"type": "node", "id": 8613570635, "lat": 48.2172607, "lon": -114.2701143, "tags": {"name": "Best Quality Resale", "shop": "second_hand"}}, {"type": "node", "id": 8613570709, "lat": 48.2174755, "lon": -114.2695452, "tags": {"amenity": "bar", "name": "Rainbow Bar & Casino"}}, {"type": "node", "id": 8613570710, "lat": 48.2174733, "lon": -114.2709059, "tags": {"amenity": "cafe", "cuisine": "coffee_shop", "delivery": "no", "drive_through": "yes", "name": "Flathead Flavor Espresso", "takeaway": "only"}}, {"type": "node", "id": 8613570715, "lat": 48.2179212, "lon": -114.2683399, "tags": {"name": "Rudy's Autosound", "shop": "hifi"}}, {"type": "node", "id": 8613570716, "lat": 48.2185058, "lon": -114.2687801, "tags": {"amenity": "restaurant", "cuisine": "american", "name": "Big Buck's Sports Bar and Grill"}}, {"type": "node", "id": 8613574217, "lat": 48.218026, "lon": -114.2696324, "tags": {"contact:email": "nectar406@gmail.com", "contact:phone": "+1 406 261 5509", "contact:website": "https://nectar406.com/", "name": "Nectar 406", "opening_hours": "Tu-Su 12:00-20:00", "shop": "cannabis"}}, {"type": "node", "id": 8613574218, "lat": 48.2179003, "lon": -114.269906, "tags": {"name": "Mommaz One Stop Smoke Shop", "shop": "tobacco"}}, {"type": "node", "id": 8613574294, "lat": 48.2169674, "lon": -114.2749702, "tags": {"name": "The Sleep Center", "shop": "bed"}}, {"type": "node", "id": 8613574317, "lat": 48.2178872, "lon": -114.2762393, "tags": {"brand": "76", "brand:wikidata": "Q1658320", "name": "76", "shop": "convenience"}}, {"type": "node", "id": 8613574318, "lat": 48.2180305, "lon": -114.2778734, "tags": {"amenity": "restaurant", "contact:email": "cislos@aboutmontana.net", "contact:phone": "+1 406 756-7330", "contact:website": "https://cislosfamilyrestaurant.com/", "cuisine": "american", "name": "Cislo's Family Restaurant", "opening_hours": "Su-Mo 07:00-14:00; Tu-Sa 07:00-20:00"}}, {"type": "node", "id": 8613574319, "lat": 48.218169, "lon": -114.2808492, "tags": {"name": "Mitch's Autowerx LLC, Collision Repair", "shop": "car_repair"}}, {"type": "node", "id": 8613574335, "lat": 48.219043, "lon": -114.2778698, "tags": {"name": "Evergreen Gas & Deli", "shop": "convenience"}}, {"type": "node", "id": 8613574337, "lat": 48.2191557, "lon": -114.2763347, "tags": {"name": "Beads Rocks Market", "shop": "art"}}, {"type": "node", "id": 8613574338, "lat": 48.2193845, "lon": -114.276794, "tags": {"name": "The Vapor Depot", "shop": "e-cigarette"}}, {"type": "node", "id": 8613574339, "lat": 48.2194006, "lon": -114.2779157, "tags": {"name": "A-2 Auto Sales", "second_hand": "only", "shop": "car"}}, {"type": "node", "id": 8613574437, "lat": 48.219183, "lon": -114.2768563, "tags": {"contact:phone": "+1 406 249 8915", "contact:website": "https://montana.topshelfbotanicals.com/", "name": "Top Shelf Botanicals", "opening_hours": "Mo-Th 10:00-19:00; Fr-Sa 10:00-20:00; Su 11:00-16:00", "shop": "cannabis"}}, {"type": "node", "id": 8613588854, "lat": 48.2199953, "lon": -114.2767744, "tags": {"contact:email": "info@bigmountainbotanicals.com", "contact:phone": "+1 406 890-2131", "contact:website": "https://www.bigmountainbotanicals.com", "name": "Big Mountain Botanicals", "opening_hours": "Mo-Su 09:00-20:00", "shop": "cannabis"}}, {"type": "node", "id": 8613588855, "lat": 48.220738, "lon": -114.2768574, "tags": {"brand": "State Farm", "brand:wikidata": "Q2007336", "name": "State Farm", "office": "insurance"}}, {"type": "node", "id": 8613588859, "lat": 48.2211654, "lon": -114.276458, "tags": {"brand": "Goodwill", "brand:wikidata": "Q5583655", "name": "Goodwill", "shop": "charity"}}, {"type": "node", "id": 8613601621, "lat": 48.2222165, "lon": -114.2779757, "tags": {"addr:city": "Kalispell", "addr:housenumber": "2148", "addr:postcode": "59901-2814", "addr:state": "MT", "addr:street": "Highway 2", "addr:unit": "E", "brand": "Ace Hardware", "brand:wikidata": "Q4672981", "contact:phone": "+1 406 752-4221", "contact:website": "https://www.acehardware.com", "name": "Glacer Ace Hardware", "opening_hours": "Mo-Fr 08:00-19:00; Sa 08:00-18:00; Su 09:00-17:00", "ref": "18149", "shop": "doityourself"}}, {"type": "node", "id": 8613601622, "lat": 48.2225064, "lon": -114.2764262, "tags": {"name": "Franz Bakery Outlet", "shop": "bakery"}}, {"type": "node", "id": 8613601626, "lat": 48.2237038, "lon": -114.2766402, "tags": {"name": "Deli of Europe", "shop": "deli"}}, {"type": "node", "id": 8613601717, "lat": 48.2234361, "lon": -114.2765192, "tags": {"name": "Rodda Paint Co.", "shop": "paint"}}, {"type": "node", "id": 8613601718, "lat": 48.2243156, "lon": -114.2762927, "tags": {"addr:unit": "Suite 12", "contact:email": "flatheadwwbrass@gmail.com", "contact:phone": "+1 406 755-9201", "contact:website": "https://flatheadwwbrass.com/", "name": "Flathead Woodwind & Brass", "opening_hours": "Mo-Fr 09:00-18:00; Sa 09:30-15:00", "shop": "musical_instrument"}}, {"type": "node", "id": 8613614345, "lat": 48.2274155, "lon": -114.2774942, "tags": {"name": "Rocky Mountain Contractors", "office": "yes"}}, {"type": "node", "id": 8613614354, "lat": 48.227747, "lon": -114.2754809, "tags": {"name": "Valley Motors", "second_hand": "only", "shop": "car"}}, {"type": "node", "id": 10281485629, "lat": 48.2116747, "lon": -114.2859225, "tags": {"contact:email": "glaciergreencross420@gmail.com", "contact:phone": "+1 406 890-2237", "contact:website": "https://www.ggc420.com", "name": "Glacier Green Cross", "opening_hours": "Mo-Sa 09:00-20:00; Su 11:00-20:00", "shop": "cannabis"}}, {"type": "node", "id": 10293761572, "lat": 48.2151899, "lon": -114.2744402, "tags": {"addr:unit": "B", "contact:email": "info@flowermontana.com", "contact:phone": "+1 406 541 0420", "contact:website": "https://www.flowermontana.com/", "name": "Flower Montana", "opening_hours": "Mo-Sa 10:00-19:00; Su 12:00-17:00", "shop": "cannabis"}}, {"type": "node", "id": 10293922097, "lat": 48.2101555, "lon": -114.2875555, "tags": {"amenity": "restaurant", "contact:phone": "+1 406 756 3600", "cuisine": "mexican", "name": "Agave Cantina"}}, {"type": "node", "id": 10293943617, "lat": 48.2101836, "lon": -114.2881127, "tags": {"contact:email": "info@liftedmeds.com", "contact:phone": "+1 406 314-4299", "contact:website": "https://www.liftedmeds.com/", "name": "Lifted Meds", "opening_hours": "Mo-Fr 11:00-19:00; Sa 11:00-17:00; Su 12:00-16:00", "shop": "cannabis"}}, {"type": "node", "id": 10294008209, "lat": 48.2102645, "lon": -114.2907755, "tags": {"brand": "Volkswagen;BMW", "contact:phone": "+1 406 380 4255", "contact:website": "https://www.kalispellvolkswagen.com", "name": "Kalispell Volkswagon & BMW Service", "opening_hours": "Mo-Fr 08:00-17:00", "shop": "car_repair"}}, {"type": "node", "id": 10294008210, "lat": 48.2102207, "lon": -114.290811, "tags": {"brand": "Volkswagen;BMW", "contact:phone": "+1 406 380 3182", "contact:website": "https://www.kalispellvolkswagen.com", "name": "Kalispell Volkswagon & BMW Parts", "opening_hours": "Mo-Fr 08:00-17:00", "shop": "car_parts"}}, {"type": "node", "id": 10294008216, "lat": 48.2102122, "lon": -114.2908533, "tags": {"brand": "Volkswagen;BMW", "contact:phone": "+1 406 380 4822", "contact:website": "https://www.kalispellvolkswagen.com", "name": "Kalispell Volkswagon & BMW", "opening_hours": "Mo-Fr 09:00-18:00", "shop": "car"}}, {"type": "node", "id": 10294161891, "lat": 48.209142, "lon": -114.2897147, "tags": {"brand": "U-Haul", "brand:wikidata": "Q7862902", "name": "U-Haul", "shop": "rental"}}, {"type": "node", "id": 10294273887, "lat": 48.2087326, "lon": -114.2923272, "tags": {"name": "AmeriGas", "shop": "gas"}}, {"type": "node", "id": 10294273891, "lat": 48.2084752, "lon": -114.2928073, "tags": {"brand": "Town Pump", "brand:wikidata": "Q7830004", "name": "Town Pump", "self_service": "yes", "shop": "convenience"}}, {"type": "node", "id": 10294343311, "lat": 48.2100357, "lon": -114.2887947, "tags": {"brand:wikidata": "Q919641", "contact:phone": "+1 406 260 4004", "name": "Verizon", "opening_hours": "Mo-Sa 10:00-19:00; Su 10:00-17:00", "shop": "mobile_phone"}}, {"type": "node", "id": 10294343312, "lat": 48.2097157, "lon": -114.2891769, "tags": {"contact:phone": "+1 406 407 1736", "name": "Sawbuck Pawn & Loan", "opening_hours": "Mo-Sa 10:00-18:00", "shop": "pawnbroker"}}, {"type": "node", "id": 10294488720, "lat": 48.2070399, "lon": -114.295232, "tags": {"contact:fax": "+1 406 755 9447", "contact:phone": "+1 406 755 9444", "contact:website": "https://westernbuildingcenter.com/", "name": "Western Building Center", "opening_hours": "Mo-Fr 07:00-17:00", "shop": "hardware"}}, {"type": "node", "id": 10538449249, "lat": 48.2149598, "lon": -114.2749813, "tags": {"contact:phone": "+1 406 300 1002", "contact:website": "https://bloommt.com/", "name": "Bloom", "opening_hours": "Mo-Su 09:00-20:00", "shop": "cannabis"}}, {"type": "node", "id": 10563531504, "lat": 48.2183241, "lon": -114.2776927, "tags": {"contact:email": "lbpcannabis@gmail.com", "contact:phone": "+1 406 300-1022", "name": "Last Best Place", "opening_hours": "Mo-Su 09:00-20:00", "shop": "cannabis"}}, {"type": "node", "id": 10563790492, "lat": 48.2109294, "lon": -114.2852032, "tags": {"contact:email": "elevated.406@gmail.com", "contact:phone": "+1 406 601 1166", "contact:website": "https://elevatedmt.com/", "name": "Elevated", "opening_hours": "Mo-Su 10:00-19:00", "shop": "cannabis"}}, {"type": "node", "id": 10565197348, "lat": 48.2125532, "lon": -114.2830789, "tags": {"amenity": "restaurant", "name": "Nickel Charlie's", "opening_hours": "Su-Th 06:00-21:00; Fr-Sa 06:00-22:00", "phone": "+1 406 257 7756", "website": "https://nickelcharlies.com/"}}, {"type": "node", "id": 10799398582, "lat": 48.211782, "lon": -114.2828254, "tags": {"contact:phone": "+1 406 290-4403", "contact:website": "https://honeysour.com/", "name": "Honey Sour", "opening_hours": "Mo-Su 11:00-20:00", "shop": "cannabis"}}, {"type": "node", "id": 10799398583, "lat": 48.2117436, "lon": -114.2829569, "tags": {"name": "Michael's East", "shop": "convenience"}}, {"type": "node", "id": 10800348085, "lat": 48.2174355, "lon": -114.2688411, "tags": {"contact:phone": "+1 406 257-1545", "contact:website": "https://delta9c.com/", "name": "Delta 9 Collective", "opening_hours": "Mo-Fr 10:00-22:00; Sa 10:00-20:00; Su 10:00-17:00", "shop": "cannabis"}}, {"type": "node", "id": 10923377387, "lat": 48.2076932, "lon": -114.295051, "tags": {"contact:email": "info@hi-line.co", "contact:phone": "+1 406 303-2785", "contact:website": "https://hi-line.co/", "name": "The Hi-Line Company", "opening_hours": "Mo-Su 09:00-20:00", "shop": "cannabis"}}, {"type": "node", "id": 10923401391, "lat": 48.2108409, "lon": -114.2863995, "tags": {"contact:phone": "+1 406 260-0415", "name": "Blake's Odds and Ends", "shop": "toys"}}, {"type": "node", "id": 11010396325, "lat": 48.2216223, "lon": -114.2775898, "tags": {"amenity": "cafe", "contact:phone": "+1 406 249-7990", "contact:website": "https://www.jomamascoffee.com/", "cuisine": "coffee_shop", "drive_through": "yes", "indoor_seating": "no", "name": "Jo Mama's Coffee", "opening_hours": "Mo-Fr 06:00-14:00; Sa 08:00-14:00", "outdoor_seating": "no", "takeaway": "yes"}}, {"type": "node", "id": 11010396330, "lat": 48.2213748, "lon": -114.2784306, "tags": {"name": "Imperial Dry Cleaners and Laundromat", "self_service": "yes", "shop": "laundry"}}, {"type": "node", "id": 11010396334, "lat": 48.2215922, "lon": -114.2786179, "tags": {"contact:email": "customercare@montanaarmynavy.com", "contact:phone": "+1 406 756-3500", "contact:website": "https://montanaarmynavy.com/", "name": "Montana Army Navy", "opening_hours": "Mo-Sa 08:00-19:00", "shop": "military_surplus"}}, {"type": "node", "id": 11010468315, "lat": 48.2209128, "lon": -114.2777078, "tags": {"amenity": "restaurant", "contact:phone": "+1 406 890-2300", "contact:website": "https://www.whitefishspirits.com", "craft": "distillery", "name": "Whitefish Handcrafted Spirits"}}, {"type": "node", "id": 11011364951, "lat": 48.2054543, "lon": -114.2984077, "tags": {"name": "Dogfood Express", "shop": "pet"}}, {"type": "node", "id": 11011364952, "lat": 48.2055651, "lon": -114.2983165, "tags": {"name": "The Aquarium Shop", "shop": "pet"}}, {"type": "node", "id": 11044275711, "lat": 48.2172807, "lon": -114.2700682, "tags": {"contact:email": "hueynhaze@icloud.com", "contact:phone": "+1 406 314-4505", "contact:website": "https://www.hueynhaze.com", "name": "Huey N Haze", "opening_hours": "Mo-Su 12:00-21:00", "shop": "tobacco"}}, {"type": "node", "id": 11044685013, "lat": 48.2134612, "lon": -114.2778258, "tags": {"amenity": "cafe", "name": "Two Brothers Cafe"}}, {"type": "node", "id": 11045275744, "lat": 48.2140406, "lon": -114.2796807, "tags": {"addr:city": "Kalispell", "addr:housenumber": "1353", "addr:postcode": "59901", "addr:state": "MT", "addr:street": "US Route 2", "contact:phone": "+1-406-257-7296", "contact:website": "https://www.goldrushpawn.com", "name": "Gold Rush Pawn Company", "opening_hours": "Mo-Sa 09:00-17:00; Su 12:00-17:00", "shop": "pawnbroker"}}, {"type": "node", "id": 11045362768, "lat": 48.2136071, "lon": -114.2797934, "tags": {"name": "Veteran's Thrift Store", "opening_hours": "Mo-Fr 10:00-16:30", "shop": "charity"}}, {"type": "node", "id": 11077272775, "lat": 48.218544, "lon": -114.2776582, "tags": {"atm": "yes", "contact:phone": "+1 406 260-4413", "name": "Green Imports", "opening_hours": "Mo-Sa 09:00-19:00; Su 10:00-19:00", "shop": "cannabis"}}, {"type": "node", "id": 11085277766, "lat": 48.2064257, "lon": -114.2972403, "tags": {"name": "Big Sky Fastener Supply", "shop": "trade"}}, {"type": "node", "id": 11191224587, "lat": 48.2126466, "lon": -114.2798529, "tags": {"amenity": "cafe", "cuisine": "coffee_shop", "drive_through": "yes", "indoor_seating": "no", "name": "Copper Mountain Coffee", "opening_hours": "Mo-Su 06:00-19:00", "outdoor_seating": "no", "takeaway": "only", "website": "https://coppermountaincoffee.com"}}, {"type": "node", "id": 11191284679, "lat": 48.2118946, "lon": -114.2805053, "tags": {"alt_name": "Super One Foods", "name": "Super 1 Foods", "shop": "supermarket"}}, {"type": "node", "id": 11196451596, "lat": 48.2069022, "lon": -114.2943264, "tags": {"name": "In N Out Auto Sales", "shop": "car"}}, {"type": "node", "id": 11434958874, "lat": 48.2307469, "lon": -114.2765665, "tags": {"amenity": "cafe", "cuisine": "coffee_shop", "delivery": "no", "drive_through": "yes", "name": "Copper Mountain Coffee", "takeaway": "only", "website": "https://coppermountaincoffee.com"}}, {"type": "node", "id": 11665959783, "lat": 48.2288313, "lon": -114.2756388, "tags": {"amenity": "cafe", "name": "The Steam Room"}}, {"type": "node", "id": 11665959784, "lat": 48.2282888, "lon": -114.2755138, "tags": {"name": "Flaming Arrow Archery", "shop": "sports"}}, {"type": "node", "id": 11665959785, "lat": 48.2269465, "lon": -114.2757385, "tags": {"name": "Chancy and Dave's Fish Camp", "shop": "fishing"}}, {"type": "node", "id": 11665959786, "lat": 48.2296168, "lon": -114.2766134, "tags": {"name": "The Lash Queen Beauty Bar", "shop": "beauty"}}, {"type": "node", "id": 11665959787, "lat": 48.2297244, "lon": -114.2766283, "tags": {"alt_name": "Edward Jones Investments", "brand": "Edward Jones", "brand:wikidata": "Q5343830", "name": "Edward Jones", "office": "financial_advisor"}}, {"type": "node", "id": 11665959792, "lat": 48.2296847, "lon": -114.2742984, "tags": {"name": "Flathead Truck & Trailer Repair", "shop": "repair"}}, {"type": "node", "id": 11665959794, "lat": 48.2303046, "lon": -114.2764717, "tags": {"amenity": "restaurant", "cuisine": "chinese", "name": "Charlie Wongs Restaurant"}}, {"type": "node", "id": 11665959799, "lat": 48.2311766, "lon": -114.2765739, "tags": {"name": "Flathead Insurance", "office": "insurance"}}, {"type": "node", "id": 11665959800, "lat": 48.2312396, "lon": -114.2756705, "tags": {"name": "Chain Saw Sales", "shop": "garden_centre"}}, {"type": "way", "id": 381560154, "nodes": [3847573975, 3847573112, 3847573152, 3847573123, 3847573967, 3847573077, 3847573975], "tags": {"addr:city": "Kalispell", "addr:housenumber": "2024", "addr:postcode": "59901", "addr:state": "MT", "addr:street": "US 2", "addr:unit": "E", "brand": "Tractor Supply Company", "brand:wikidata": "Q15109925", "building": "retail", "name": "Tractor Supply Company", "opening_hours": "Mo-Sa 08:00-21:00; Su 09:00-19:00", "phone": "+1 406-314-4192", "ref": "2760", "shop": "country_store", "source": "Bing", "website": "https://www.tractorsupply.com/tsc/store_Kalispell-MT-59901_2760"}}, {"type": "way", "id": 555805942, "nodes": [5362000361, 5362000362, 5362000363, 5362000364, 5362000365, 5362000366, 5362000361], "tags": {"addr:city": "Kalispell", "addr:housenumber": "1290", "addr:postcode": "59901", "addr:state": "MT", "addr:street": "US 2", "brand": "Staples", "brand:wikidata": "Q785943", "building": "yes", "name": "Staples", "opening_hours": "Mo-Fr 08:00-20:00; Sa 10:00-19:00; Su 11:00-18:00", "phone": "+1 406-257-8200", "shop": "stationery", "website": "https://stores.staples.com/mt/kalispell/1290-highway-2-east"}}, {"type": "way", "id": 755266063, "nodes": [7055154809, 7055154810, 7055154811, 7055154812, 7055154809], "tags": {"addr:city": "Kalispell", "addr:housenumber": "130", "addr:postcode": "59901", "addr:state": "MT", "addr:street": "Nicholson Drive", "building": "yes", "name": "Evergreen Water District", "office": "water_utility", "opening_hours": "Mo-Fr 08:00-16:00", "phone": "+1-406-257-5861"}}, {"type": "way", "id": 755312294, "nodes": [7055526034, 7055526035, 7055526036, 7055526037, 7055526034], "tags": {"addr:city": "Kalispell", "addr:housenumber": "2038", "addr:postcode": "59901", "addr:state": "MT", "addr:street": "US-2 E", "brand": "Grease Monkey", "brand:wikidata": "Q5598563", "building": "yes", "name": "Grease Monkey", "opening_hours": "Mo-Fr 08:00-18:00; Sa 08:00-17:00", "phone": "+1-406-755-5795", "shop": "car_repair"}}, {"type": "way", "id": 755312295, "nodes": [7055526038, 7055526039, 7055526040, 7055526041, 7055526038], "tags": {"addr:city": "Kalispell", "addr:housenumber": "2040", "addr:postcode": "59901", "addr:state": "MT", "addr:street": "US-2 East", "addr:unit": "Suite A", "building": "yes", "name": "Evergreen Liquor Store", "opening_hours": "Mo-Sa 08:00-18:00", "phone": "+1-406-755-1408", "shop": "alcohol"}}, {"type": "way", "id": 879139327, "nodes": [8178608346, 8178608347, 8178608348, 8178608349, 8178608350, 8178608351, 8178608352, 8178608353, 8178608354, 8178608355, 8178608346], "tags": {"brand": "Point S", "brand:wikidata": "Q3393358", "building": "yes", "name": "Point S", "shop": "car_repair", "source": "microsoft/BuildingFootprints"}}, {"type": "way", "id": 880415689, "nodes": [8188962993, 8188962994, 8188962995, 8188962996, 8188962993], "tags": {"addr:city": "Kalispell", "addr:housenumber": "2302", "addr:postcode": "59901", "addr:state": "MT", "addr:street": "US Hwy 2 W", "building": "yes", "name": "Sunlife Health Foods", "shop": "supermarket"}}]}