{"version": 0.6, "generator": "Overpass API 0.7.62.8 e802775f", "osm3s": {"timestamp_osm_base": "2025-12-06T23:53:28Z", "copyright": "The data included in this document is from www.openstreetmap.org. The data is made available under ODbL."}, "elements": [{"type": "node", "id": 2518841224, "lat": 47.1579294, "lon": -121.6578344}, {"type": "node", "id": 2518841227, "lat": 47.1453334, "lon": -121.6370361}, {"type": "node", "id": 2518841229, "lat": 47.1577848, "lon": -121.6576532}, {"type": "node", "id": 2518841232, "lat": 47.1452969, "lon": -121.637079}, {"type": "node", "id": 2518841238, "lat": 47.1559259, "lon": -121.6544946}, {"type": "node", "id": 2518841241, "lat": 47.1576699, "lon": -121.6579461}, {"type": "node", "id": 2518841251, "lat": 47.1451662, "lon": -121.6368554}, {"type": "node", "id": 2518841252, "lat": 47.1452501, "lon": -121.6368876}, {"type": "node", "id": 2518841253, "lat": 47.1577061, "lon": -121.6579915}, {"type": "node", "id": 2518841260, "lat": 47.1578591, "lon": -121.6579559}, {"type": "node", "id": 2518841264, "lat": 47.1576838, "lon": -121.6580299}, {"type": "node", "id": 2518841269, "lat": 47.1452623, "lon": -121.6373231}, {"type": "node", "id": 2518841271, "lat": 47.1450659, "lon": -121.6369842}, {"type": "node", "id": 2518841274, "lat": 47.1453359, "lon": -121.6371505}, {"type": "node", "id": 2518841275, "lat": 47.1577001, "lon": -121.6577993}, {"type": "node", "id": 2518841276, "lat": 47.1452075, "lon": -121.6369368}, {"type": "node", "id": 2518841278, "lat": 47.1453049, "lon": -121.6371961}, {"type": "node", "id": 2518841283, "lat": 47.1558309, "lon": -121.6543358}, {"type": "node", "id": 2518841286, "lat": 47.1453261, "lon": -121.6372372}, {"type": "node", "id": 2518841288, "lat": 47.1577319, "lon": -121.6578391}, {"type": "node", "id": 2518841290, "lat": 47.1559278, "lon": -121.6542103}, {"type": "node", "id": 2518841295, "lat": 47.1560208, "lon": -121.6543685}, {"type": "node", "id": 2518841302, "lat": 47.1577296, "lon": -121.6580873}, {"type": "node", "id": 2518841308, "lat": 47.1578282, "lon": -121.6579172}, {"type": "node", "id": 2544306376, "lat": 47.1551223, "lon": -121.654112}, {"type": "node", "id": 2544306377, "lat": 47.1551313, "lon": -121.6542881}, {"type": "node", "id": 2544306378, "lat": 47.1550678, "lon": -121.6542168}, {"type": "node", "id": 2544306379, "lat": 47.1552243, "lon": -121.6543279}, {"type": "node", "id": 2544306380, "lat": 47.1552576, "lon": -121.6542639}, {"type": "node", "id": 2544306381, "lat": 47.1551525, "lon": -121.6542473}, {"type": "node", "id": 2545495306, "lat": 47.1538894, "lon": -121.6511282}, {"type": "node", "id": 2545495310, "lat": 47.1540036, "lon": -121.6509704}, {"type": "node", "id": 2545495312, "lat": 47.1538312, "lon": -121.6510322}, {"type": "node", "id": 2545495314, "lat": 47.1539444, "lon": -121.6508784}, {"type": "node", "id": 2912458143, "lat": 47.1575776, "lon": -121.6575154, "tags": {"amenity": "fuel", "check_date": "2024-08-17", "name": "Gull", "opening_hours": "24/7"}}, {"type": "node", "id": 3665212034, "lat": 47.1552245, "lon": -121.6543629, "tags": {"amenity": "toilets", "check_date": "2024-08-17"}}, {"type": "node", "id": 3691672154, "lat": 47.1574768, "lon": -121.657454, "tags": {"access": "yes", "amenity": "toilets", "fee": "no", "toilets:disposal": "chemical", "unisex": "yes"}}, {"type": "node", "id": 3691672157, "lat": 47.1551174, "lon": -121.6542216, "tags": {"amenity": "cafe", "check_date": "2024-08-17", "cuisine": "coffee_shop", "name": "Wapiti Woolies Cafe", "opening_hours": "08:00-19:00", "payment:cash": "yes", "payment:credit_cards": "yes", "payment:debit_cards": "yes"}}, {"type": "node", "id": 3786287504, "lat": 47.1451452, "lon": -121.63698, "tags": {"amenity": "community_centre", "name": "Greenwater Community Center"}}, {"type": "node", "id": 4946368922, "lat": 47.1577505, "lon": -121.6579448, "tags": {"amenity": "atm"}}, {"type": "node", "id": 6748978385, "lat": 47.1578581, "lon": -121.6579441, "tags": {"amenity": "shower"}}, {"type": "node", "id": 6748978485, "lat": 47.157888, "lon": -121.6577853, "tags": {"amenity": "telephone"}}, {"type": "way", "id": 244583411, "nodes": [2518841302, 2518841308, 2518841260, 2518841224, 2518841229, 2518841275, 2518841288, 2518841241, 2518841253, 2518841264, 2518841302], "tags": {"addr:country": "US", "addr:housenumber": "58120", "addr:state": "WA", "addr:street": "State Route 410 E", "building": "yes", "building:levels": "2", "check_date": "2025-06-01", "contact:phone": "+1-360-663-2357", "name": "Mt. Rainier General Store", "shop": "convenience"}}, {"type": "way", "id": 244583412, "nodes": [2518841269, 2518841271, 2518841251, 2518841276, 2518841252, 2518841227, 2518841232, 2518841274, 2518841278, 2518841286, 2518841269], "tags": {"amenity": "fire_station", "building": "yes", "name": "Greenwater PCFD Station 26"}}, {"type": "way", "id": 244583416, "nodes": [2518841238, 2518841283, 2518841290, 2518841295, 2518841238], "tags": {"addr:housenumber": "58411", "addr:street": "State Route 410 East", "amenity": "pub", "building": "yes", "building:levels": "2", "construction_date": "1940-06", "name": "Naches Tavern", "start_date": "~1919", "website": "https://nachesbarandgrillblog.wordpress.com/"}}, {"type": "way", "id": 247561718, "nodes": [2544306380, 2544306379, 2544306381, 2544306377, 2544306378, 2544306376, 2544306380], "tags": {"building": "yes", "building:levels": "2", "check_date": "2024-08-17", "name": "Wapiti Woolies Outdoor Clothing & Gifts", "opening_hours": "08:00-19:00", "payment:cash": "yes", "payment:credit_cards": "yes", "payment:debit_cards": "yes", "shop": "clothes"}}, {"type": "way", "id": 247680757, "nodes": [2545495310, 2545495306, 2545495312, 2545495314, 2545495310], "tags": {"addr:city": "Greenwater", "addr:housenumber": "58703", "addr:postcode": "98022", "addr:street": "SR 410 E", "building": "yes", "building:levels": "2", "check_date": "2023-06-30", "name": "Greenwater Collective", "phone": "+1-360-663-2235", "shop": "sports", "sport": "skiing", "website": "https://greenwaterskis.com/"}}]}