{"version": 0.6, "generator": "Overpass API 0.7.62.8 e802775f", "osm3s": {"timestamp_osm_base": "2025-12-06T16:51:35Z", "copyright": "The data included in this document is from www.openstreetmap.org. The data is made available under ODbL."}, "elements": [{"type": "node", "id": 2501894598, "lat": 47.7067961, "lon": -118.9443425}, {"type": "node", "id": 2501894608, "lat": 47.7096017, "lon": -118.9392405}, {"type": "node", "id": 2501894616, "lat": 47.7075813, "lon": -118.9422182}, {"type": "node", "id": 2501894617, "lat": 47.7075904, "lon": -118.9441063}, {"type": "node", "id": 2501894623, "lat": 47.7074766, "lon": -118.9442138}, {"type": "node", "id": 2501894635, "lat": 47.7067131, "lon": -118.9441279}, {"type": "node", "id": 2501894637, "lat": 47.7067869, "lon": -118.9408935}, {"type": "node", "id": 2501894643, "lat": 47.7094635, "lon": -118.9388675}, {"type": "node", "id": 2501894658, "lat": 47.7076499, "lon": -118.9423577}, {"type": "node", "id": 2501894660, "lat": 47.7076145, "lon": -118.9409186}, {"type": "node", "id": 2501894662, "lat": 47.7076047, "lon": -118.9440528}, {"type": "node", "id": 2501894663, "lat": 47.7094701, "lon": -118.9392362}, {"type": "node", "id": 2501894665, "lat": 47.7097319, "lon": -118.9388182}, {"type": "node", "id": 2501894671, "lat": 47.7076372, "lon": -118.9422879}, {"type": "node", "id": 2501894675, "lat": 47.7095967, "lon": -118.9390098}, {"type": "node", "id": 2501894679, "lat": 47.709546, "lon": -118.9388121}, {"type": "node", "id": 2501894693, "lat": 47.7068468, "lon": -118.9443585}, {"type": "node", "id": 2501894699, "lat": 47.7095451, "lon": -118.9388701}, {"type": "node", "id": 2501894701, "lat": 47.7075416, "lon": -118.9441789}, {"type": "node", "id": 2501894719, "lat": 47.7067546, "lon": -118.944305}, {"type": "node", "id": 2501894721, "lat": 47.709729, "lon": -118.9390142}, {"type": "node", "id": 2501894737, "lat": 47.7076139, "lon": -118.9422503}, {"type": "node", "id": 2501894749, "lat": 47.7067294, "lon": -118.944254}, {"type": "node", "id": 3086809615, "lat": 47.7100516, "lon": -118.939869, "tags": {"amenity": "shelter"}}, {"type": "node", "id": 3086809620, "lat": 47.7117852, "lon": -118.9405778}, {"type": "node", "id": 3086809621, "lat": 47.7118116, "lon": -118.9406806}, {"type": "node", "id": 3086812035, "lat": 47.7120694, "lon": -118.9407846}, {"type": "node", "id": 3086812039, "lat": 47.7118631, "lon": -118.9405781}, {"type": "node", "id": 3086812042, "lat": 47.7117851, "lon": -118.9406805}, {"type": "node", "id": 3086812060, "lat": 47.7122794, "lon": -118.9407855}, {"type": "node", "id": 3086812077, "lat": 47.7122796, "lon": -118.9406625}, {"type": "node", "id": 3086812095, "lat": 47.7120696, "lon": -118.9406616}, {"type": "node", "id": 3086812122, "lat": 47.7118629, "lon": -118.9407109}, {"type": "node", "id": 3086812137, "lat": 47.7118116, "lon": -118.9407107}, {"type": "node", "id": 8083112772, "lat": 47.7136202, "lon": -118.9407442}, {"type": "node", "id": 8083112773, "lat": 47.7138991, "lon": -118.9404099}, {"type": "node", "id": 8083112774, "lat": 47.7136741, "lon": -118.9399708}, {"type": "node", "id": 8083112775, "lat": 47.7134067, "lon": -118.9403113}, {"type": "node", "id": 8083112780, "lat": 47.7135135, "lon": -118.9400529, "tags": {"shop": "convenience"}}, {"type": "node", "id": 11882717309, "lat": 47.709555, "lon": -118.9392624}, {"type": "node", "id": 11882717310, "lat": 47.7095049, "lon": -118.939265}, {"type": "node", "id": 11882717311, "lat": 47.7095047, "lon": -118.9392753}, {"type": "node", "id": 11882717312, "lat": 47.7095548, "lon": -118.939277}, {"type": "node", "id": 11882717313, "lat": 47.7094666, "lon": -118.9389904}, {"type": "node", "id": 11882717314, "lat": 47.7094737, "lon": -118.9389907}, {"type": "node", "id": 11882717315, "lat": 47.7094625, "lon": -118.9389402}, {"type": "node", "id": 11882717316, "lat": 47.7094674, "lon": -118.9389404}, {"type": "node", "id": 11882717317, "lat": 47.7096045, "lon": -118.9390467}, {"type": "node", "id": 11882717318, "lat": 47.7095962, "lon": -118.9390464}, {"type": "node", "id": 11882717494, "lat": 47.7115534, "lon": -118.9397761}, {"type": "node", "id": 11882717495, "lat": 47.7115804, "lon": -118.939777}, {"type": "node", "id": 11882717496, "lat": 47.7115528, "lon": -118.9398132}, {"type": "node", "id": 11882717497, "lat": 47.7115798, "lon": -118.9398141}, {"type": "node", "id": 11882717498, "lat": 47.7117509, "lon": -118.9400322}, {"type": "node", "id": 11882717499, "lat": 47.7117523, "lon": -118.9399419}, {"type": "node", "id": 11882717500, "lat": 47.7118407, "lon": -118.9400351}, {"type": "node", "id": 11882717501, "lat": 47.7114978, "lon": -118.9399335}, {"type": "node", "id": 11882717502, "lat": 47.7114996, "lon": -118.9398114}, {"type": "node", "id": 11882717503, "lat": 47.7118439, "lon": -118.9398228}, {"type": "node", "id": 12379044629, "lat": 47.7112993, "lon": -118.9404658}, {"type": "node", "id": 12379044630, "lat": 47.7113005, "lon": -118.9404277}, {"type": "node", "id": 12379044631, "lat": 47.7112353, "lon": -118.9404235}, {"type": "node", "id": 12379044632, "lat": 47.7112341, "lon": -118.9404616}, {"type": "node", "id": 12379044633, "lat": 47.7113008, "lon": -118.9403373}, {"type": "node", "id": 12379044634, "lat": 47.711302, "lon": -118.9402992}, {"type": "node", "id": 12379044635, "lat": 47.7112368, "lon": -118.940295}, {"type": "node", "id": 12379044636, "lat": 47.7112356, "lon": -118.9403331}, {"type": "way", "id": 242737356, "nodes": [2501894608, 11882717309, 11882717312, 11882717311, 11882717310, 2501894663, 11882717314, 11882717313, 11882717316, 11882717315, 2501894643, 2501894699, 2501894679, 2501894665, 2501894721, 2501894675, 11882717318, 11882717317, 2501894608], "tags": {"addr:city": "Almira", "addr:housenumber": "101", "addr:postcode": "99103", "addr:state": "WA", "addr:street": "South 2nd Street", "amenity": "place_of_worship", "building": "yes", "denomination": "protestant", "name": "Almira Community Church", "religion": "christian", "service_times": "Su 10:30", "website": "https://almirachurch.com/"}}, {"type": "way", "id": 242737357, "nodes": [2501894662, 2501894617, 2501894701, 2501894623, 2501894693, 2501894598, 2501894719, 2501894749, 2501894635, 2501894637, 2501894660, 2501894616, 2501894737, 2501894671, 2501894658, 2501894662], "tags": {"addr:city": "Almira", "addr:housenumber": "310", "addr:postcode": "99103", "addr:state": "WA", "addr:street": "South 3rd Street", "amenity": "school", "grades": "K-8", "name": "Almira School", "operator": "Almira School District", "operator:type": "public", "religion": "none", "website": "https://almirasd.org"}}, {"type": "way", "id": 304155289, "nodes": [3086812122, 3086812039, 3086809620, 3086812042, 3086809621, 3086812137, 3086812122], "tags": {"addr:city": "Almira", "addr:housenumber": "20", "addr:postcode": "99103", "addr:state": "WA", "addr:street": "North 3rd Street", "amenity": "cafe", "building": "yes", "cuisine": "coffee_shop;brewery", "name": "Almira Brewing Company", "website": "https://www.facebook.com/almirabrewing/"}}, {"type": "way", "id": 304155294, "nodes": [3086812060, 3086812077, 3086812095, 3086812035, 3086812060], "tags": {"addr:city": "Almira", "addr:housenumber": "102", "addr:postcode": "99103", "addr:state": "WA", "addr:street": "North 3rd Street", "amenity": "post_office", "building": "yes", "name": "The United States Post Office, Almira, Washington", "opening_hours": "Mo-Fr 08:30-12:30, Mo-Fr 14:00-16:00", "operator": "United States Postal Service", "operator:short": "USPS", "operator:type": "public", "operator:wikidata": "Q668687", "phone": "+1-509-639-2541", "website": "https://tools.usps.com/locations/details/1352786?utm_source=google-my-business-url&utm_medium=search&utm_campaign=yext"}}, {"type": "way", "id": 867166111, "nodes": [8083112772, 8083112773, 8083112774, 8083112775, 8083112772], "tags": {"amenity": "fuel"}}, {"type": "way", "id": 1280066538, "nodes": [11882717503, 11882717497, 11882717495, 11882717494, 11882717496, 11882717502, 11882717501, 11882717499, 11882717498, 11882717500, 11882717503], "tags": {"addr:city": "Almira", "addr:housenumber": "11", "addr:postcode": "99103", "addr:state": "WA", "addr:street": "North 2nd Street", "amenity": "fire_station", "building": "yes", "name": "Almira & Lincoln County District 8 Fire & EMS", "operator": "Lincoln County, WA"}}, {"type": "way", "id": 1338318616, "nodes": [12379044629, 12379044630, 12379044631, 12379044632, 12379044629], "tags": {"amenity": "recycling", "recycling_type": "container"}}, {"type": "way", "id": 1338318617, "nodes": [12379044633, 12379044634, 12379044635, 12379044636, 12379044633], "tags": {"amenity": "recycling", "recycling_type": "container"}}]}