{"version": 0.6, "generator": "Overpass API 0.7.62.8 e802775f", "osm3s": {"timestamp_osm_base": "2025-12-06T04:31:30Z", "copyright": "The data included in this document is from www.openstreetmap.org. The data is made available under ODbL."}, "elements": [{"type": "node", "id": 2408408464, "lat": 45.245262, "lon": -111.2519844}, {"type": "node", "id": 2408408465, "lat": 45.2452684, "lon": -111.2518469}, {"type": "node", "id": 2408408466, "lat": 45.2452833, "lon": -111.2520528}, {"type": "node", "id": 2408408468, "lat": 45.2452864, "lon": -111.2519867}, {"type": "node", "id": 2408408474, "lat": 45.2452998, "lon": -111.25168}, {"type": "node", "id": 2408408476, "lat": 45.2453014, "lon": -111.2516473}, {"type": "node", "id": 2408408478, "lat": 45.245332, "lon": -111.2518529}, {"type": "node", "id": 2408408480, "lat": 45.2453348, "lon": -111.2517928}, {"type": "node", "id": 2408408482, "lat": 45.2453829, "lon": -111.2517973}, {"type": "node", "id": 2408408484, "lat": 45.2453879, "lon": -111.2516883}, {"type": "node", "id": 2408408486, "lat": 45.2454567, "lon": -111.2520691}, {"type": "node", "id": 2408408488, "lat": 45.2454595, "lon": -111.25201}, {"type": "node", "id": 2408408490, "lat": 45.2455284, "lon": -111.2521575}, {"type": "node", "id": 2408408492, "lat": 45.2455349, "lon": -111.2520171}, {"type": "node", "id": 2408408496, "lat": 45.2456898, "lon": -111.2521727}, {"type": "node", "id": 2408408498, "lat": 45.2456986, "lon": -111.2519838}, {"type": "node", "id": 2408408500, "lat": 45.2457948, "lon": -111.2519928}, {"type": "node", "id": 2408408502, "lat": 45.2457969, "lon": -111.2519467}, {"type": "node", "id": 2408408504, "lat": 45.2457995, "lon": -111.2516942}, {"type": "node", "id": 2408408506, "lat": 45.2458001, "lon": -111.2516805}, {"type": "node", "id": 2408408508, "lat": 45.245911, "lon": -111.2517652}, {"type": "node", "id": 2408408510, "lat": 45.2459145, "lon": -111.2516912}, {"type": "node", "id": 2408408512, "lat": 45.2459416, "lon": -111.2519603}, {"type": "node", "id": 2408408514, "lat": 45.2459505, "lon": -111.2517689}, {"type": "node", "id": 2410357162, "lat": 45.2526521, "lon": -111.2535746}, {"type": "node", "id": 2410357163, "lat": 45.2526735, "lon": -111.2534487}, {"type": "node", "id": 2410357164, "lat": 45.2526884, "lon": -111.2536117}, {"type": "node", "id": 2410357165, "lat": 45.2526924, "lon": -111.2535884}, {"type": "node", "id": 2410357166, "lat": 45.2527262, "lon": -111.2534668}, {"type": "node", "id": 2410357167, "lat": 45.2527388, "lon": -111.2533927}, {"type": "node", "id": 2410357168, "lat": 45.2527393, "lon": -111.2536291}, {"type": "node", "id": 2410357169, "lat": 45.2527444, "lon": -111.2535988}, {"type": "node", "id": 2410357170, "lat": 45.2527879, "lon": -111.2536137}, {"type": "node", "id": 2410357171, "lat": 45.2528006, "lon": -111.2535392}, {"type": "node", "id": 2410357172, "lat": 45.2528544, "lon": -111.2535576}, {"type": "node", "id": 2410357173, "lat": 45.2528745, "lon": -111.2534391}, {"type": "node", "id": 4708814735, "lat": 45.2239969, "lon": -111.2502799}, {"type": "node", "id": 4708814736, "lat": 45.2240499, "lon": -111.2502939}, {"type": "node", "id": 4708814737, "lat": 45.2240043, "lon": -111.2502226}, {"type": "node", "id": 4708814738, "lat": 45.2240553, "lon": -111.2502526}, {"type": "node", "id": 4708814739, "lat": 45.2241129, "lon": -111.2502678}, {"type": "node", "id": 4708814740, "lat": 45.2239168, "lon": -111.2501743}, {"type": "node", "id": 4708814741, "lat": 45.2242739, "lon": -111.2501959}, {"type": "node", "id": 4708814742, "lat": 45.2239426, "lon": -111.2500408}, {"type": "node", "id": 4708814743, "lat": 45.224087, "lon": -111.2504661}, {"type": "node", "id": 4708814744, "lat": 45.2242488, "lon": -111.2505152}, {"type": "node", "id": 11848259779, "lat": 45.2241862, "lon": -111.2503558, "tags": {"addr:city": "Gallatin Gateway", "addr:housenumber": "45130", "addr:postcode": "59730", "addr:state": "MT", "addr:street": "Gallatin Road", "amenity": "restaurant", "cuisine": "american;barbecue", "diet:meat": "yes", "name": "The Riverhouse", "opening_hours": "3:00-9:00", "phone": "+1 406-995-7427"}}, {"type": "node", "id": 11911018944, "lat": 45.2240352, "lon": -111.2500842}, {"type": "node", "id": 11911036478, "lat": 45.2472883, "lon": -111.2527964}, {"type": "node", "id": 12200332802, "lat": 45.2475459, "lon": -111.2519142}, {"type": "node", "id": 12200332803, "lat": 45.249518, "lon": -111.2529143}, {"type": "node", "id": 12200332804, "lat": 45.2492947, "lon": -111.2538778}, {"type": "way", "id": 232495844, "nodes": [2408408514, 2408408512, 2408408502, 2408408500, 2408408498, 2408408496, 2408408490, 2408408492, 2408408488, 2408408486, 2408408466, 2408408468, 2408408464, 2408408465, 2408408478, 2408408480, 2408408482, 2408408484, 2408408474, 2408408476, 2408408504, 2408408506, 2408408510, 2408408508, 2408408514], "tags": {"addr:city": "Big Sky", "addr:country": "US", "addr:housenumber": "46625", "addr:postcode": "59716", "addr:state": "MT", "addr:street": "Gallatin Road", "amenity": "restaurant", "building": "yes", "name": "Buck's T4", "source": "Bing 2011"}}, {"type": "way", "id": 232703803, "nodes": [2410357173, 2410357172, 2410357171, 2410357170, 2410357169, 2410357168, 2410357164, 2410357165, 2410357162, 2410357163, 2410357166, 2410357167, 2410357173], "tags": {"addr:city": "Big Sky", "addr:country": "US", "addr:state": "MT", "building": "yes", "name": "Titan Rentals", "shop": "rental", "source": "Bing 2011"}}, {"type": "way", "id": 477552285, "nodes": [4708814744, 4708814743, 4708814739, 4708814738, 4708814736, 4708814735, 4708814737, 4708814740, 4708814742, 11911018944, 4708814741, 4708814744], "tags": {"addr:city": "Gallatin Gateway", "addr:housenumber": "45130", "addr:postcode": "59730", "addr:state": "MT", "addr:street": "Gallatin Rd", "amenity": "restaurant", "building": "yes", "cuisine": "barbecue", "diet:meat": "yes", "name": "The Riverhouse", "opening_hours": "3:00-9:00", "phone": "+1 406-995-7427", "source": "bing"}}, {"type": "way", "id": 1318229757, "nodes": [11911036478, 12200332802, 12200332803, 12200332804, 11911036478], "tags": {"shop": "storage_rental"}}]}