{"version": 0.6, "generator": "Overpass API 0.7.62.8 e802775f", "osm3s": {"timestamp_osm_base": "2025-12-06T22:10:59Z", "copyright": "The data included in this document is from www.openstreetmap.org. The data is made available under ODbL."}, "elements": [{"type": "node", "id": 3073782954, "lat": 47.3616444, "lon": -122.0806986}, {"type": "node", "id": 3073782968, "lat": 47.3616545, "lon": -122.0773223}, {"type": "node", "id": 3073782974, "lat": 47.3582297, "lon": -122.0807354}, {"type": "node", "id": 3073783000, "lat": 47.3584961, "lon": -122.0787968}, {"type": "node", "id": 3073783002, "lat": 47.3583177, "lon": -122.0787972}, {"type": "node", "id": 3073783234, "lat": 47.3584979, "lon": -122.0804311}, {"type": "node", "id": 3073783243, "lat": 47.3583195, "lon": -122.0804315}, {"type": "node", "id": 3559920789, "lat": 47.358946, "lon": -122.064484}, {"type": "node", "id": 3831021625, "lat": 47.3592867, "lon": -122.0940616}, {"type": "node", "id": 3831021626, "lat": 47.3594753, "lon": -122.0940503}, {"type": "node", "id": 3831021627, "lat": 47.3598882, "lon": -122.094039}, {"type": "node", "id": 3831021628, "lat": 47.359878, "lon": -122.0939487}, {"type": "node", "id": 3831021629, "lat": 47.3599162, "lon": -122.0939073}, {"type": "node", "id": 3831021630, "lat": 47.3599264, "lon": -122.0938246}, {"type": "node", "id": 3831021631, "lat": 47.3599239, "lon": -122.0937945}, {"type": "node", "id": 3831021632, "lat": 47.3598525, "lon": -122.093802}, {"type": "node", "id": 3831021633, "lat": 47.35985, "lon": -122.093644}, {"type": "node", "id": 3831021634, "lat": 47.359906, "lon": -122.0935988}, {"type": "node", "id": 3831021635, "lat": 47.3599239, "lon": -122.0935574}, {"type": "node", "id": 3831021636, "lat": 47.3599188, "lon": -122.0927071}, {"type": "node", "id": 3831021637, "lat": 47.3616875, "lon": -122.0926959}, {"type": "node", "id": 3831021638, "lat": 47.3617002, "lon": -122.0940353}, {"type": "node", "id": 3831021639, "lat": 47.3616798, "lon": -122.094039}, {"type": "node", "id": 3831021640, "lat": 47.3616903, "lon": -122.0953527}, {"type": "node", "id": 3831021641, "lat": 47.3610223, "lon": -122.0953596}, {"type": "node", "id": 3831021642, "lat": 47.3589834, "lon": -122.0953972}, {"type": "node", "id": 3831021643, "lat": 47.3589936, "lon": -122.0952354}, {"type": "node", "id": 3831021644, "lat": 47.3590421, "lon": -122.0950398}, {"type": "node", "id": 3831021645, "lat": 47.3590854, "lon": -122.0949156}, {"type": "node", "id": 3831021646, "lat": 47.3591134, "lon": -122.0947689}, {"type": "node", "id": 3831021647, "lat": 47.3591618, "lon": -122.0946523}, {"type": "node", "id": 3831021648, "lat": 47.3592332, "lon": -122.0945281}, {"type": "node", "id": 3831021649, "lat": 47.3592893, "lon": -122.0944416}, {"type": "node", "id": 3831021650, "lat": 47.3593403, "lon": -122.0943438}, {"type": "node", "id": 3831021651, "lat": 47.3593504, "lon": -122.0942121}, {"type": "node", "id": 3831021652, "lat": 47.3593377, "lon": -122.0941067}, {"type": "node", "id": 4161694490, "lat": 47.3583499, "lon": -122.0972418, "tags": {"addr:city": "Covington", "addr:housenumber": "27149", "addr:postcode": "98042", "addr:state": "WA", "addr:street": "185th Avenue Southeast", "amenity": "restaurant", "check_date": "2024-01-28", "cuisine": "japanese;steak_house;asian", "name": "Mizu Japanese Steakhouse", "opening_hours": "12:00-21:00", "payment:mastercard": "yes", "payment:visa": "yes"}}, {"type": "node", "id": 4161717989, "lat": 47.3583416, "lon": -122.0980046, "tags": {"addr:city": "Covington", "addr:country": "US", "addr:door": "117", "addr:housenumber": "27149", "addr:postcode": "98042", "addr:state": "WA", "addr:street": "185th Avenue Southeast", "amenity": "restaurant", "brand": "IHOP", "brand:wikidata": "Q1185675", "check_date": "2024-09-24", "cuisine": "breakfast;pancake", "name": "IHOP", "opening_hours": "07:00-22:00", "phone": "+1-866-884-3470", "website": "https://restaurants.ihop.com/en-us/wa/covington/breakfast-27149-185th-ave-se-3276", "wheelchair": "yes"}}, {"type": "node", "id": 4199301828, "lat": 47.3601294, "lon": -122.0981942}, {"type": "node", "id": 4199301829, "lat": 47.3597285, "lon": -122.0981925}, {"type": "node", "id": 4199301830, "lat": 47.3597282, "lon": -122.0983062}, {"type": "node", "id": 4199301831, "lat": 47.3594289, "lon": -122.098305}, {"type": "node", "id": 4199301836, "lat": 47.3594323, "lon": -122.0965553}, {"type": "node", "id": 4199301838, "lat": 47.3599862, "lon": -122.0965577}, {"type": "node", "id": 4199301839, "lat": 47.3599865, "lon": -122.0964315}, {"type": "node", "id": 4199301841, "lat": 47.3601329, "lon": -122.0964322}, {"type": "node", "id": 4225763846, "lat": 47.3653367, "lon": -122.1021098}, {"type": "node", "id": 4225763847, "lat": 47.3653687, "lon": -122.1071423}, {"type": "node", "id": 4225763848, "lat": 47.3671784, "lon": -122.1020578}, {"type": "node", "id": 4225763849, "lat": 47.3671946, "lon": -122.1032509}, {"type": "node", "id": 4461362486, "lat": 47.3583422, "lon": -122.0968004, "tags": {"addr:city": "Covington", "addr:housenumber": "27115", "addr:postcode": "98042", "addr:state": "WA", "addr:street": "185th Avenue Southeast", "amenity": "restaurant", "check_date": "2023-06-13", "cuisine": "mexican", "internet_access": "wlan", "internet_access:fee": "customers", "name": "La Chata Cocina Mexicana", "opening_hours": "Mo-Sa 12:00-21:00; Su 12:00-20:00", "payment:mastercard": "yes", "payment:visa": "yes"}}, {"type": "node", "id": 4461363901, "lat": 47.3579682, "lon": -122.0876483}, {"type": "node", "id": 4461363913, "lat": 47.3579593, "lon": -122.0922999}, {"type": "node", "id": 4461363914, "lat": 47.3572516, "lon": -122.093282, "tags": {"amenity": "school", "check_date": "2025-06-15", "name": "Peace Lutheran School"}}, {"type": "node", "id": 4461363954, "lat": 47.3583508, "lon": -122.098189, "tags": {"addr:city": "Covington", "addr:door": "E123", "addr:housenumber": "27149", "addr:postcode": "98042", "addr:state": "WA", "addr:street": "185th Avenue Southeast", "alt_name": "Verizon Wireless", "brand": "Verizon", "brand:wikidata": "Q919641", "check_date": "2023-06-13", "name": "Verizon", "shop": "mobile_phone"}}, {"type": "node", "id": 4461363961, "lat": 47.3583522, "lon": -122.097525, "tags": {"addr:city": "Covington", "addr:door": "109", "addr:housenumber": "27149", "addr:postcode": "98042", "addr:state": "WA", "addr:street": "185th Avenue Southeast", "brand": "EarthWise Pet", "brand:wikidata": "Q108193626", "check_date": "2023-06-13", "name": "EarthWise Pet", "opening_hours": "Mo-Fr 10:00-20:00; Sa 10:00-19:00; Su 10:00-18:00", "payment:credit_cards": "yes", "payment:debit_cards": "yes", "payment:mastercard": "yes", "payment:visa": "yes", "shop": "pet"}}, {"type": "node", "id": 4461365208, "lat": 47.358351, "lon": -122.097397, "tags": {"addr:city": "Covington", "addr:housenumber": "27149", "addr:postcode": "98042", "addr:state": "WA", "addr:street": "185th Avenue Southeast", "beauty": "nails;skin_care;waxing", "check_date": "2023-06-13", "name": "VD Nails & Spa", "opening_hours": "Mo-Fr 10:00-19:30; Sa 09:00-18:30; Su 10:30-18:00", "operator": "Lily", "payment:cash": "yes", "payment:credit_cards": "yes", "payment:debit_cards": "yes", "phone": "+1-253-638-2008", "shop": "beauty", "website": "https://vbnailsspa.com/"}}, {"type": "node", "id": 4462156896, "lat": 47.3677057, "lon": -122.0618435}, {"type": "node", "id": 4462156897, "lat": 47.3675024, "lon": -122.0618362}, {"type": "node", "id": 4462156898, "lat": 47.3673508, "lon": -122.0617998}, {"type": "node", "id": 4462156899, "lat": 47.3673595, "lon": -122.0617325}, {"type": "node", "id": 4462156900, "lat": 47.367511, "lon": -122.0617689}, {"type": "node", "id": 4462156901, "lat": 47.3677069, "lon": -122.0617798}, {"type": "node", "id": 4462314395, "lat": 47.3578773, "lon": -122.0589957}, {"type": "node", "id": 4462314396, "lat": 47.3562075, "lon": -122.0590157}, {"type": "node", "id": 4462314406, "lat": 47.3562193, "lon": -122.0603347}, {"type": "node", "id": 4463650277, "lat": 47.364911, "lon": -122.087759}, {"type": "node", "id": 4463650278, "lat": 47.3660765, "lon": -122.0860951}, {"type": "node", "id": 4463650279, "lat": 47.3653673, "lon": -122.0837446}, {"type": "node", "id": 4463650280, "lat": 47.3637727, "lon": -122.0860212}, {"type": "node", "id": 4487760008, "lat": 47.3655939, "lon": -122.0864448}, {"type": "node", "id": 4487760009, "lat": 47.3654043, "lon": -122.0861748}, {"type": "node", "id": 4487760010, "lat": 47.3648868, "lon": -122.0867612}, {"type": "node", "id": 4487760011, "lat": 47.364927, "lon": -122.0867869}, {"type": "node", "id": 4487760012, "lat": 47.3649591, "lon": -122.0867908}, {"type": "node", "id": 4487760013, "lat": 47.3650247, "lon": -122.086779}, {"type": "node", "id": 4653140034, "lat": 47.3579327, "lon": -122.060312}, {"type": "node", "id": 4653140035, "lat": 47.3579161, "lon": -122.0590009}, {"type": "node", "id": 4670658189, "lat": 47.3561205, "lon": -122.0902994}, {"type": "node", "id": 4670658190, "lat": 47.3561252, "lon": -122.0876411}, {"type": "node", "id": 4670658191, "lat": 47.3561624, "lon": -122.0940422}, {"type": "node", "id": 4670658192, "lat": 47.3561706, "lon": -122.0922817}, {"type": "node", "id": 4670658206, "lat": 47.3579511, "lon": -122.0940604}, {"type": "node", "id": 4670658207, "lat": 47.3579634, "lon": -122.0903066}, {"type": "node", "id": 4670658214, "lat": 47.3581533, "lon": -122.0631658}, {"type": "node", "id": 4670658215, "lat": 47.3581566, "lon": -122.065655}, {"type": "node", "id": 4670658225, "lat": 47.3582166, "lon": -122.0773307}, {"type": "node", "id": 4670658232, "lat": 47.3582542, "lon": -122.0807254}, {"type": "node", "id": 4670658271, "lat": 47.3587052, "lon": -122.0807224}, {"type": "node", "id": 4670658280, "lat": 47.3589413, "lon": -122.0631597}, {"type": "node", "id": 4670658389, "lat": 47.3590665, "lon": -122.064483}, {"type": "node", "id": 4670658455, "lat": 47.3594784, "lon": -122.0644798}, {"type": "node", "id": 4670658456, "lat": 47.3594827, "lon": -122.0656675}, {"type": "node", "id": 4670658873, "lat": 47.3612036, "lon": -122.0817059, "tags": {"amenity": "bench"}}, {"type": "node", "id": 4670659034, "lat": 47.3613619, "lon": -122.0817277, "tags": {"amenity": "bench"}}, {"type": "node", "id": 4714590485, "lat": 47.3570274, "lon": -122.094051}, {"type": "node", "id": 4714590516, "lat": 47.3582256, "lon": -122.0632323}, {"type": "node", "id": 4714590517, "lat": 47.3582317, "lon": -122.0641896}, {"type": "node", "id": 4714590518, "lat": 47.3584522, "lon": -122.0641865}, {"type": "node", "id": 4714590519, "lat": 47.358454, "lon": -122.0644733}, {"type": "node", "id": 4714590520, "lat": 47.3585804, "lon": -122.0632274}, {"type": "node", "id": 4714590521, "lat": 47.3585884, "lon": -122.0644714}, {"type": "node", "id": 4718691368, "lat": 47.3594314, "lon": -122.097026, "tags": {"entrance": "yes"}}, {"type": "node", "id": 4719629449, "lat": 47.3566241, "lon": -122.0832648}, {"type": "node", "id": 4760078623, "lat": 47.3583162, "lon": -122.0965162, "tags": {"addr:city": "Covington", "addr:door": "107", "addr:housenumber": "27115", "addr:postcode": "98042", "addr:state": "WA", "addr:street": "185th Avenue Southeast", "brand": "Massage Envy", "brand:wikidata": "Q22922899", "check_date": "2023-06-13", "name": "Massage Envy", "name:en": "Massage Envy", "opening_hours": "Mo-Fr 08:00-20:00; Sa 08:00-18:00; Su 08:00-17:00", "shop": "massage"}}, {"type": "node", "id": 4760088821, "lat": 47.3583171, "lon": -122.09668, "tags": {"addr:city": "Covington", "addr:door": "111", "addr:housenumber": "27115", "addr:postcode": "98042", "addr:state": "WA", "addr:street": "185th Avenue Southeast", "amenity": "prep_school", "check_date": "2023-06-13", "name": "The Tutoring Center", "opening_hours": "Mo-Th 14:30-19:30", "payment:mastercard": "yes", "payment:visa": "yes", "phone": "+1-253-246-2977"}}, {"type": "node", "id": 4906920421, "lat": 47.3582655, "lon": -122.0969437, "tags": {"amenity": "bicycle_parking"}}, {"type": "node", "id": 4906920521, "lat": 47.3582663, "lon": -122.0971189, "tags": {"amenity": "bicycle_parking"}}, {"type": "node", "id": 4929660022, "lat": 47.3594119, "lon": -122.0969454, "tags": {"amenity": "bicycle_parking"}}, {"type": "node", "id": 5366751521, "lat": 47.358218, "lon": -122.0638535, "tags": {"amenity": "public_bookcase", "brand": "Little Free Library", "brand:wikidata": "Q6650101", "name": "Little Free Library"}}, {"type": "node", "id": 5369187523, "lat": 47.3700108, "lon": -122.0606349, "tags": {"amenity": "bench"}}, {"type": "node", "id": 5434842310, "lat": 47.3629234, "lon": -122.0849631}, {"type": "node", "id": 5439066609, "lat": 47.3603136, "lon": -122.0953727}, {"type": "node", "id": 5441367125, "lat": 47.3671511, "lon": -122.0948299, "tags": {"amenity": "childcare"}}, {"type": "node", "id": 5727084425, "lat": 47.3590495, "lon": -122.0656634}, {"type": "node", "id": 5808188953, "lat": 47.3585065, "lon": -122.0961539, "tags": {"amenity": "bicycle_parking"}}, {"type": "node", "id": 6075592830, "lat": 47.3583006, "lon": -122.0961547}, {"type": "node", "id": 6075592831, "lat": 47.3584904, "lon": -122.0961536}, {"type": "node", "id": 6075592832, "lat": 47.3584896, "lon": -122.0958412}, {"type": "node", "id": 6075592833, "lat": 47.3583001, "lon": -122.0958418}, {"type": "node", "id": 6075601558, "lat": 47.3628562, "lon": -122.0850161}, {"type": "node", "id": 6075601562, "lat": 47.3629345, "lon": -122.0846143}, {"type": "node", "id": 6075601567, "lat": 47.3630465, "lon": -122.0848661}, {"type": "node", "id": 6134630088, "lat": 47.3565064, "lon": -122.0833763}, {"type": "node", "id": 6134630090, "lat": 47.356506, "lon": -122.0833478}, {"type": "node", "id": 6134630092, "lat": 47.3565401, "lon": -122.0834332}, {"type": "node", "id": 6134630094, "lat": 47.3565394, "lon": -122.0833754}, {"type": "node", "id": 6134630097, "lat": 47.3566235, "lon": -122.0832217}, {"type": "node", "id": 6134630099, "lat": 47.3564682, "lon": -122.0833488}, {"type": "node", "id": 6134630101, "lat": 47.3564673, "lon": -122.083269}, {"type": "node", "id": 6134630103, "lat": 47.3566727, "lon": -122.0833756}, {"type": "node", "id": 6134630105, "lat": 47.3566734, "lon": -122.0834297}, {"type": "node", "id": 6134630107, "lat": 47.3567061, "lon": -122.0832195}, {"type": "node", "id": 6134630109, "lat": 47.356708, "lon": -122.0833747}, {"type": "node", "id": 6434426811, "lat": 47.3604836, "lon": -122.0956248}, {"type": "node", "id": 6434426812, "lat": 47.3606035, "lon": -122.0956257}, {"type": "node", "id": 6434426813, "lat": 47.360604, "lon": -122.0954592}, {"type": "node", "id": 6434426814, "lat": 47.3604842, "lon": -122.0954583}, {"type": "node", "id": 6887987612, "lat": 47.3656278, "lon": -122.0727387, "tags": {"amenity": "bench"}}, {"type": "node", "id": 6887987613, "lat": 47.3656423, "lon": -122.0727106, "tags": {"amenity": "bench"}}, {"type": "node", "id": 6887987622, "lat": 47.3660565, "lon": -122.0731961, "tags": {"amenity": "bench"}}, {"type": "node", "id": 6887987623, "lat": 47.3660865, "lon": -122.0732081, "tags": {"amenity": "bench"}}, {"type": "node", "id": 7076730385, "lat": 47.3593291, "lon": -122.0985014, "tags": {"amenity": "bicycle_parking"}}, {"type": "node", "id": 8186279575, "lat": 47.3601659, "lon": -122.0773231}, {"type": "node", "id": 8252482154, "lat": 47.3582999, "lon": -122.0960304}, {"type": "node", "id": 9466898837, "lat": 47.3645566, "lon": -122.0872179}, {"type": "node", "id": 9466898838, "lat": 47.3657719, "lon": -122.0865299}, {"type": "node", "id": 9556807717, "lat": 47.3583471, "lon": -122.0978091, "tags": {"brand": "Nothing Bundt Cakes", "brand:wikidata": "Q62082526", "check_date": "2024-10-05", "name": "Nothing Bundt Cakes", "payment:credit_cards": "yes", "payment:debit_cards": "yes", "payment:mastercard": "yes", "payment:visa": "yes", "shop": "pastry"}}, {"type": "node", "id": 9571646461, "lat": 47.3594867, "lon": -122.0965555}, {"type": "node", "id": 9571646466, "lat": 47.3594295, "lon": -122.0979984}, {"type": "node", "id": 9571646469, "lat": 47.35943, "lon": -122.0977222}, {"type": "node", "id": 10653314418, "lat": 47.3630839, "lon": -122.0850938}, {"type": "node", "id": 10653314419, "lat": 47.3630198, "lon": -122.0848871}, {"type": "node", "id": 10653314420, "lat": 47.3629823, "lon": -122.0851585}, {"type": "node", "id": 10653314421, "lat": 47.3630283, "lon": -122.0846208}, {"type": "node", "id": 10653314422, "lat": 47.3632412, "lon": -122.0852407}, {"type": "node", "id": 10653314423, "lat": 47.3631924, "lon": -122.0853547}, {"type": "node", "id": 10653314424, "lat": 47.3631189, "lon": -122.0850662}, {"type": "node", "id": 10653314425, "lat": 47.3629242, "lon": -122.0852043}, {"type": "node", "id": 10653315260, "lat": 47.365021, "lon": -122.0865181}, {"type": "node", "id": 10653315261, "lat": 47.3652045, "lon": -122.0864108}, {"type": "node", "id": 10961719408, "lat": 47.3583272, "lon": -122.0963106, "tags": {"addr:door": "103", "amenity": "dojo", "check_date": "2023-06-13", "name": "Peak Taekwondo"}}, {"type": "node", "id": 10975641776, "lat": 47.3593211, "lon": -122.0987547, "tags": {"amenity": "bicycle_parking"}}, {"type": "node", "id": 12513264054, "lat": 47.3587346, "lon": -122.065398, "tags": {"amenity": "kindergarten", "check_date": "2025-01-18", "name": "Bright Hope Preschool"}}, {"type": "node", "id": 12918445845, "lat": 47.3576515, "lon": -122.0682429, "tags": {"check_date": "2025-06-15", "name": "4 Seasons", "office": "company"}}, {"type": "node", "id": 12918521572, "lat": 47.3576596, "lon": -122.0883931, "tags": {"addr:housenumber": "19001", "addr:street": "Southeast 272nd Street", "check_date": "2025-06-15", "name": "Mountain Vineyard Christian Fellowship Office", "office": "company"}}, {"type": "way", "id": 303078240, "nodes": [3073782954, 3073782968, 8186279575, 4670658225, 3073782974, 4670658232, 4670658271, 3073782954], "tags": {"amenity": "school", "ele": "131", "gnis:feature_id": "2462301", "mascot": "Timberwolves", "name": "Cedar Heights Middle School", "operator:type": "public", "website": "https://www.kent.k12.wa.us/o/chms"}}, {"type": "way", "id": 303078248, "nodes": [3073783234, 3073783000, 3073783002, 3073783243, 3073783234], "tags": {"access": "yes", "amenity": "parking", "fee": "no", "parking": "surface"}}, {"type": "way", "id": 379772199, "nodes": [3831021625, 3831021626, 3831021627, 3831021628, 3831021629, 3831021630, 3831021631, 3831021632, 3831021633, 3831021634, 3831021635, 3831021636, 3831021637, 3831021638, 3831021639, 3831021640, 3831021641, 5439066609, 3831021642, 3831021643, 3831021644, 3831021645, 3831021646, 3831021647, 3831021648, 3831021649, 3831021650, 3831021651, 3831021652, 3831021625], "tags": {"amenity": "school", "mascot": "Jaguars", "name": "Jenkins Creek Elementary School", "operator:type": "public", "website": "https://www.kent.k12.wa.us/o/JCES"}}, {"type": "way", "id": 419944291, "nodes": [4199301828, 4199301829, 4199301830, 4199301831, 9571646466, 9571646469, 4718691368, 4199301836, 9571646461, 4199301838, 4199301839, 4199301841, 4199301828], "tags": {"addr:city": "Covington", "addr:housenumber": "27027", "addr:postcode": "98042", "addr:state": "WA", "addr:street": "185th Avenue Southeast", "alt_name": "Home Depot", "branch": "Covington,WA", "brand": "The Home Depot", "brand:wikidata": "Q864407", "building": "yes", "name": "The Home Depot", "opening_hours": "Mo-Sa 06:00-22:00; Su 07:00-20:00", "phone": "+1-253-638-0258", "ref": "4737", "shop": "doityourself", "website": "https://www.homedepot.com/l/covington-wa/wa/covington/98042/4737"}}, {"type": "way", "id": 422850501, "nodes": [4225763847, 4225763846, 4225763848, 4225763849, 4225763847], "tags": {"amenity": "place_of_worship", "landuse": "religious", "name": "Real Life Church", "religion": "christian"}}, {"type": "way", "id": 449244971, "nodes": [4462156896, 4462156897, 4462156898, 4462156899, 4462156900, 4462156901, 4462156896], "tags": {"access": "private", "amenity": "parking"}}, {"type": "way", "id": 449407181, "nodes": [4463650277, 9466898838, 4463650278, 4463650279, 4463650280, 9466898837, 4463650277], "tags": {"amenity": "school", "ele": "121", "gnis:feature_id": "1531212", "mascot": "Cheetahs", "name": "Cedar Valley Elementary School", "operator:type": "public", "website": "https://www.kent.k12.wa.us/o/CVE"}}, {"type": "way", "id": 451972016, "nodes": [4487760008, 4487760009, 10653315261, 10653315260, 4487760010, 4487760011, 4487760012, 4487760013, 4487760008], "tags": {"amenity": "parking"}}, {"type": "way", "id": 471150509, "nodes": [4462314406, 4653140034, 4653140035, 4462314395, 4462314396, 4462314406], "tags": {"addr:housenumber": "21115", "addr:street": "Southeast 272nd Street", "amenity": "place_of_worship", "check_date": "2025-07-27", "name": "Hope Fellowship", "phone": "+1-425-432-5114", "religion": "christian", "service_times": "Su 9:00, 10:45", "website": "https://hope-fellowship.net/"}}, {"type": "way", "id": 472880301, "nodes": [4670658455, 4670658456, 5727084425, 4670658215, 4670658214, 4670658280, 3559920789, 4670658389, 4670658455], "tags": {"amenity": "place_of_worship", "check_date": "2024-01-20", "name": "Cornerstone Church", "religion": "christian"}}, {"type": "way", "id": 472880304, "nodes": [4670658207, 4461363901, 4670658190, 4670658189, 4670658207], "tags": {"addr:housenumber": "19001", "addr:street": "Southeast 272nd Street", "amenity": "place_of_worship", "check_date": "2025-07-27", "name": "Mountain Vineyard Christian Fellowship", "religion": "christian", "service_times": "Su 10:00"}}, {"type": "way", "id": 472880307, "nodes": [4670658206, 4461363913, 4670658192, 4670658191, 4714590485, 4670658206], "tags": {"addr:housenumber": "18611", "addr:street": "Southeast 272nd Street", "amenity": "place_of_worship", "check_date": "2025-06-15", "denomination": "lutheran", "name": "Peace Lutheran Church", "religion": "christian"}}, {"type": "way", "id": 478215874, "nodes": [4714590521, 4714590519, 4714590518, 4714590517, 4714590516, 4714590520, 4714590521], "tags": {"access": "yes", "amenity": "parking", "capacity": "20", "fee": "no", "name": "Cornerstone United Methodist Church Park & Ride", "park_ride": "yes", "parking": "surface", "surface": "asphalt"}}, {"type": "way", "id": 646744514, "nodes": [6075592833, 6075592832, 6075592831, 6075592830, 8252482154, 6075592833], "tags": {"addr:city": "Covington", "addr:housenumber": "27103", "addr:postcode": "98042", "addr:state": "WA", "addr:street": "185th Avenue Southeast", "amenity": "bank", "atm": "yes", "brand": "Bank of America", "brand:wikidata": "Q487907", "building": "yes", "check_date": "2023-06-13", "drive_through": "yes", "name": "Bank of America", "opening_hours": "Mo-Fr 10:00-16:00", "payment:mastercard": "yes", "payment:visa": "yes", "wheelchair": "yes"}}, {"type": "way", "id": 646746363, "nodes": [10653314425, 10653314420, 10653314423, 10653314422, 10653314418, 10653314424, 6075601567, 10653314419, 10653314421, 6075601562, 5434842310, 6075601558, 10653314425], "tags": {"addr:city": "Covington", "addr:housenumber": "19200", "addr:postcode": "98042", "addr:state": "WA", "addr:street": "Southeast 267th Street", "amenity": "community_centre", "building": "yes", "name": "Timberlane Homes Association"}}, {"type": "way", "id": 654675059, "nodes": [6134630105, 6134630103, 6134630109, 6134630107, 6134630097, 4719629449, 6134630101, 6134630099, 6134630090, 6134630088, 6134630094, 6134630092, 6134630105], "tags": {"addr:city": "Kent", "addr:housenumber": "19407", "addr:postcode": "98042", "addr:state": "WA", "addr:street": "Southeast 272nd Street", "amenity": "social_facility", "building": "yes", "name": "Becky's Guest Adult Home", "social_facility": "group_home"}}, {"type": "way", "id": 686477727, "nodes": [6434426811, 6434426812, 6434426813, 6434426814, 6434426811], "tags": {"addr:city": "Covington", "addr:housenumber": "26901", "addr:postcode": "98042", "addr:state": "WA", "addr:street": "185th Avenue Southeast", "building": "garage", "name": "Raceway Heated Storage", "phone": "+1-253-204-2507", "shop": "storage_rental", "website": "http://racewaystoragecovington.com"}}]}