{"version": 0.6, "generator": "Overpass API 0.7.62.8 e802775f", "osm3s": {"timestamp_osm_base": "2025-12-06T04:33:45Z", "copyright": "The data included in this document is from www.openstreetmap.org. The data is made available under ODbL."}, "elements": [{"type": "node", "id": 8518989355, "lat": 45.6716875, "lon": -111.1456057, "tags": {"name": "Mattress Mill", "shop": "bed"}}, {"type": "node", "id": 8519024600, "lat": 45.6703216, "lon": -111.1516539, "tags": {"name": "Big Sky Toppers", "shop": "car_parts"}}, {"type": "node", "id": 8519024614, "lat": 45.6696507, "lon": -111.1514784, "tags": {"name": "Northern Lights Rivers Lakes & Oceans", "shop": "outdoor"}}, {"type": "node", "id": 8519024625, "lat": 45.6690112, "lon": -111.1515383, "tags": {"name": "Bridger View Embroidery", "shop": "fabric"}}, {"type": "node", "id": 8519024626, "lat": 45.6688458, "lon": -111.1511344, "tags": {"name": "Thrifty Supply Company", "office": "yes"}}, {"type": "node", "id": 8519024627, "lat": 45.6683348, "lon": -111.1509404, "tags": {"name": "Mountain Heating and Cooling", "office": "yes"}}, {"type": "node", "id": 8519024628, "lat": 45.6696994, "lon": -111.1526385, "tags": {"name": "Four Seasons Self Storage", "shop": "storage_rental"}}, {"type": "node", "id": 8519024629, "lat": 45.6699065, "lon": -111.1539054, "tags": {"name": "Discount Mattress Montana", "shop": "bed"}}, {"type": "node", "id": 8519024632, "lat": 45.6699993, "lon": -111.1568496, "tags": {"name": "Pierce Carpet Mill Outlet and Cabinets", "shop": "flooring"}}, {"type": "node", "id": 8519024651, "lat": 45.6703883, "lon": -111.1582041, "tags": {"name": "Antique Market and More", "shop": "antiques"}}, {"type": "node", "id": 8519601231, "lat": 45.6804032, "lon": -111.1814647, "tags": {"name": "My Storage", "shop": "storage_rental"}}, {"type": "node", "id": 9171219842, "lat": 45.6695941, "lon": -111.150857, "tags": {"addr:city": "Bozeman", "addr:housenumber": "8358", "addr:postcode": "59718", "addr:state": "MT", "addr:street": "Hufine Lane", "name": "Yellowstone Club", "shop": "sports"}}, {"type": "node", "id": 10652703782, "lat": 45.68033, "lon": -111.1460316, "tags": {"name": "Bozeman Tree, Lawn & Landscape Care", "shop": "garden_centre"}}, {"type": "node", "id": 10652769394, "lat": 45.6718628, "lon": -111.1748954, "tags": {"name": "Bequet Confections", "shop": "confectionery"}}, {"type": "node", "id": 10652769395, "lat": 45.6721068, "lon": -111.1741163, "tags": {"name": "Big Sky Outdoorsman", "shop": "outdoor"}}, {"type": "node", "id": 10652769396, "lat": 45.6715385, "lon": -111.1744526, "tags": {"name": "Cleary Building Corp.", "office": "yes"}}, {"type": "node", "id": 10652769397, "lat": 45.6715891, "lon": -111.1731668, "tags": {"name": "Conlin's Furniture & Sleep Center", "shop": "furniture"}}, {"type": "node", "id": 10652769398, "lat": 45.6718837, "lon": -111.172047, "tags": {"name": "Conlin's Furniture", "shop": "furniture"}}, {"type": "node", "id": 10652769399, "lat": 45.6703633, "lon": -111.1720002, "tags": {"name": "Montana Reserve Inc.", "shop": "cannabis"}}, {"type": "node", "id": 10652789006, "lat": 45.6705593, "lon": -111.1714898, "tags": {"name": "Montana Thrift & Consignment", "shop": "second_hand"}}, {"type": "node", "id": 10652789007, "lat": 45.6698363, "lon": -111.1714727, "tags": {"name": "KB Building and Supply, Inc", "office": "yes"}}, {"type": "node", "id": 10652789008, "lat": 45.6706099, "lon": -111.1706425, "tags": {"name": "Revive Auto Body & Paint", "shop": "car_repair"}}, {"type": "node", "id": 10652789009, "lat": 45.6715411, "lon": -111.170766, "tags": {"name": "Montana Sash & Door", "shop": "doors"}}, {"type": "node", "id": 10652789010, "lat": 45.6720231, "lon": -111.1708043, "tags": {"name": "Montana Tile & Stone", "shop": "kitchen"}}, {"type": "node", "id": 10652789021, "lat": 45.6714281, "lon": -111.1693907, "tags": {"name": "Outwest Furniture Inc.", "shop": "furniture"}}, {"type": "node", "id": 10652789023, "lat": 45.6727993, "lon": -111.1706597, "tags": {"name": "Tree Care Solutions", "shop": "garden_centre"}}, {"type": "node", "id": 10765343250, "lat": 45.6704264, "lon": -111.1639229, "tags": {"name": "Gallatin Valley Garden Center", "shop": "garden_centre"}}]}