{"version": 0.6, "generator": "Overpass API 0.7.62.8 e802775f", "osm3s": {"timestamp_osm_base": "2025-12-12T16:58:35Z", "copyright": "The data included in this document is from www.openstreetmap.org. The data is made available under ODbL."}, "elements": [{"type": "node", "id": 2776431608, "lat": 39.7370007, "lon": -104.9830194, "tags": {"addr:city": "Denver", "addr:housenumber": "333", "addr:postcode": "80203", "addr:state": "CO", "addr:street": "East 13th Avenue", "brand": "CorePower Yoga", "brand:wikidata": "Q21015663", "leisure": "fitness_centre", "name": "CorePower Yoga", "sport": "yoga", "website": "https://www.corepoweryoga.com/"}}, {"type": "node", "id": 3048803775, "lat": 39.7587263, "lon": -104.9957944, "tags": {"addr:city": "Denver", "addr:housenumber": "601", "addr:postcode": "80202", "addr:state": "CO", "addr:street": "West 29th Avenue", "leisure": "fitness_centre", "name": "CrossFit LoDo"}}, {"type": "node", "id": 3395463093, "lat": 39.7357941, "lon": -104.9934922}, {"type": "node", "id": 3395463094, "lat": 39.7357942, "lon": -104.9930675}, {"type": "node", "id": 3395467177, "lat": 39.7363475, "lon": -104.9930702}, {"type": "node", "id": 3395467178, "lat": 39.7363464, "lon": -104.9935134}, {"type": "node", "id": 3395467181, "lat": 39.7362086, "lon": -104.9930696}, {"type": "node", "id": 3395467182, "lat": 39.7362074, "lon": -104.9935128}, {"type": "node", "id": 3395470304, "lat": 39.7359315, "lon": -104.9935115}, {"type": "node", "id": 3395470305, "lat": 39.7359316, "lon": -104.9934941}, {"type": "node", "id": 4815667652, "lat": 39.7467895, "lon": -105.0031755}, {"type": "node", "id": 4815667653, "lat": 39.7471209, "lon": -105.0025087}, {"type": "node", "id": 4815667654, "lat": 39.7474326, "lon": -105.0027415}, {"type": "node", "id": 4815667655, "lat": 39.7472108, "lon": -105.0034663}, {"type": "node", "id": 4815667656, "lat": 39.7474657, "lon": -105.0033792}, {"type": "node", "id": 4815667657, "lat": 39.7473669, "lon": -105.0028903}, {"type": "node", "id": 4911765850, "lat": 39.7569908, "lon": -105.018361, "tags": {"addr:city": "Denver", "addr:housenumber": "2795", "addr:postcode": "80211", "addr:state": "CO", "addr:street": "Speer Boulevard", "leisure": "fitness_centre", "name": "Fitwall"}}, {"type": "node", "id": 4931284980, "lat": 39.7461763, "lon": -104.993027, "tags": {"addr:city": "Denver", "addr:housenumber": "815", "addr:postcode": "80202", "addr:state": "CO", "addr:street": "16th Street Mall", "brand": "Planet Fitness", "brand:wikidata": "Q7201095", "check_date": "2025-06-16", "leisure": "fitness_centre", "level": "0", "name": "Planet Fitness", "opening_hours": "Mo-Th 05:00-22:00, Fr 05:00-21:00, Sa-Su 06:00-20:00", "phone": "+1-303-569-7759", "website": "https://www.planetfitness.com/gyms/denver-downtown-co?utm_medium=yext&utm_source=extnet", "wheelchair": "yes"}}, {"type": "node", "id": 5010449397, "lat": 39.7591556, "lon": -105.0160489, "tags": {"addr:city": "Denver", "addr:housenumber": "2935", "addr:postcode": "80211", "addr:state": "CO", "addr:street": "Zuni Street", "leisure": "fitness_centre", "name": "Midtowne Spa", "wheelchair": "no"}}, {"type": "node", "id": 5106588404, "lat": 39.7690125, "lon": -105.0011247, "tags": {"addr:city": "Denver", "addr:housenumber": "1208", "addr:postcode": "80211", "addr:state": "CO", "addr:street": "West 38th Avenue", "leisure": "fitness_centre", "name": "Fierce45 LoHi"}}, {"type": "node", "id": 5221539270, "lat": 39.7622929, "lon": -105.0110697, "tags": {"addr:city": "Denver", "addr:housenumber": "3210", "addr:postcode": "80211", "addr:state": "CO", "addr:street": "Tejon Street", "leisure": "fitness_centre", "name": "Endorphin - LoHi"}}, {"type": "node", "id": 5308739514, "lat": 39.7468663, "lon": -105.0255648, "tags": {"addr:city": "Denver", "addr:housenumber": "1921", "addr:postcode": "80204", "addr:state": "CO", "addr:street": "Federal Boulevard", "leisure": "fitness_centre", "name": "CrossFit Jai"}}, {"type": "node", "id": 5400081986, "lat": 39.7724321, "lon": -105.0067214, "tags": {"addr:city": "Denver", "addr:housenumber": "4045", "addr:postcode": "80211", "addr:state": "CO", "addr:street": "Pecos Street", "leisure": "fitness_centre", "name": "Shift Cycle + Fitness"}}, {"type": "node", "id": 5415547126, "lat": 39.7507251, "lon": -104.9846262, "tags": {"addr:city": "Denver", "addr:housenumber": "655", "addr:postcode": "80205", "addr:state": "CO", "addr:street": "22nd Street", "leisure": "fitness_centre", "name": "ILoveKickboxing"}}, {"type": "node", "id": 5574019073, "lat": 39.7584708, "lon": -105.0074812, "tags": {"addr:city": "Denver", "addr:housenumber": "2420", "addr:postcode": "80202", "addr:state": "CO", "addr:street": "17th Street", "leisure": "fitness_centre", "name": "Define Body & Mind"}}, {"type": "node", "id": 5581680245, "lat": 39.755113, "lon": -105.0044861, "tags": {"addr:city": "Denver", "addr:housenumber": "1610", "addr:postcode": "80202", "addr:state": "CO", "addr:street": "Little Raven Street", "addr:unit": "135", "leisure": "fitness_centre", "name": "Kinetic Training Club"}}, {"type": "node", "id": 5635141715, "lat": 39.7496421, "lon": -104.9943665, "tags": {"addr:city": "Denver", "addr:housenumber": "1125", "addr:postcode": "80202", "addr:state": "CO", "addr:street": "17th Street", "leisure": "fitness_centre", "name": "Club Form Denver"}}, {"type": "node", "id": 5665200444, "lat": 39.7520704, "lon": -104.9917103, "tags": {"addr:city": "Denver", "addr:housenumber": "1956", "addr:postcode": "80202", "addr:state": "CO", "addr:street": "Lawrence Street", "addr:unit": "100", "leisure": "fitness_centre", "name": "Yoga Pod", "sport": "yoga"}}, {"type": "node", "id": 5695084082, "lat": 39.7571002, "lon": -105.0087054, "tags": {"addr:city": "Denver", "addr:housenumber": "1539", "addr:postcode": "80202", "addr:state": "CO", "addr:street": "Platte Street", "leisure": "fitness_centre", "name": "Kindness Yoga", "sport": "yoga"}}, {"type": "node", "id": 5981347385, "lat": 39.7510595, "lon": -105.0032961, "tags": {"addr:city": "Denver", "addr:housenumber": "1400", "addr:postcode": "80202", "addr:state": "CO", "addr:street": "Wewatta Street", "addr:unit": "110", "brand": "Orangetheory Fitness", "brand:wikidata": "Q25005163", "leisure": "fitness_centre", "name": "Orangetheory Fitness", "phone": "+1 303-573-3925", "ref": "1475"}}, {"type": "node", "id": 6582318885, "lat": 39.7650931, "lon": -104.9871026, "tags": {"addr:city": "Denver", "addr:housenumber": "1875", "addr:postcode": "80216", "addr:state": "CO", "addr:street": "29th Street", "brand": "CorePower Yoga", "brand:wikidata": "Q21015663", "leisure": "fitness_centre", "name": "CorePower Yoga", "sport": "yoga"}}, {"type": "node", "id": 6595149490, "lat": 39.7706959, "lon": -104.9950671, "tags": {"addr:city": "Denver", "addr:housenumber": "3905", "addr:postcode": "80216", "addr:state": "CO", "addr:street": "Fox Street", "leisure": "fitness_centre", "name": "Atherial"}}, {"type": "node", "id": 6648413380, "lat": 39.7469755, "lon": -105.0028381}, {"type": "node", "id": 6648413381, "lat": 39.7470111, "lon": -105.0033172}, {"type": "node", "id": 6648413382, "lat": 39.7470032, "lon": -105.0033352}, {"type": "node", "id": 6648413383, "lat": 39.7469477, "lon": -105.0028173}, {"type": "node", "id": 6666118589, "lat": 39.7541304, "lon": -105.0018339, "tags": {"addr:city": "Denver", "addr:housenumber": "1900", "addr:postcode": "80202", "addr:state": "CO", "addr:street": "17th Street", "leisure": "fitness_centre", "name": "Fly"}}, {"type": "node", "id": 7564543862, "lat": 39.7499332, "lon": -104.992215, "tags": {"addr:city": "Denver", "addr:housenumber": "1849", "addr:postcode": "80202", "addr:state": "CO", "addr:street": "Curtis Street", "leisure": "fitness_centre", "name": "vacant"}}, {"type": "node", "id": 7590537008, "lat": 39.7546005, "lon": -105.0003683}, {"type": "node", "id": 7590537017, "lat": 39.7546805, "lon": -105.000488}, {"type": "node", "id": 7590537018, "lat": 39.7546685, "lon": -105.0004724}, {"type": "node", "id": 7590537019, "lat": 39.7546745, "lon": -105.0004646}, {"type": "node", "id": 7590704950, "lat": 39.7546746, "lon": -105.0004803, "tags": {"access": "customers", "door": "hinged", "entrance": "shop", "indoor": "yes", "level": "0"}}, {"type": "node", "id": 7618157430, "lat": 39.7547424, "lon": -105.0004075}, {"type": "node", "id": 7618157431, "lat": 39.7546564, "lon": -105.0002956}, {"type": "node", "id": 9650864651, "lat": 39.7386493, "lon": -104.9754536, "tags": {"addr:city": "Denver", "addr:housenumber": "1409", "addr:postcode": "80218", "addr:state": "CO", "addr:street": "Ogden Street", "leisure": "fitness_centre", "name": "Rooted Heart Yoga and Wellness", "sport": "yoga", "website": "https://rootedheartyw.com/", "wheelchair": "yes"}}, {"type": "node", "id": 11804059078, "lat": 39.7474443, "lon": -105.0032731, "tags": {"automatic_door": "no", "door": "yes", "entrance": "exit", "level": "0", "wheelchair": "no"}}, {"type": "node", "id": 11804059678, "lat": 39.7469994, "lon": -105.002784, "tags": {"door": "yes", "entrance": "yes", "level": "0"}}, {"type": "node", "id": 11804059687, "lat": 39.7474411, "lon": -105.0032572}, {"type": "node", "id": 11804059689, "lat": 39.7470169, "lon": -105.0027442}, {"type": "node", "id": 11804059692, "lat": 39.7470383, "lon": -105.0026959}, {"type": "node", "id": 11804059694, "lat": 39.7470987, "lon": -105.0025591}, {"type": "node", "id": 11804059716, "lat": 39.7474411, "lon": -105.003257}, {"type": "node", "id": 11804060069, "lat": 39.7470261, "lon": -105.0027235, "tags": {"automatic_door": "no", "door": "yes", "entrance": "service", "level": "0", "wheelchair": "no"}}, {"type": "node", "id": 11804060169, "lat": 39.7470126, "lon": -105.0027542, "tags": {"door": "yes", "entrance": "yes", "level": "0"}}, {"type": "node", "id": 11804060272, "lat": 39.7470902, "lon": -105.0033763}, {"type": "node", "id": 11804061170, "lat": 39.7474498, "lon": -105.0033009}, {"type": "node", "id": 11804061373, "lat": 39.7470527, "lon": -105.0033483}, {"type": "node", "id": 11804061670, "lat": 39.7469947, "lon": -105.0027946}, {"type": "node", "id": 11804061774, "lat": 39.7471158, "lon": -105.0025202}, {"type": "node", "id": 11804061872, "lat": 39.7474282, "lon": -105.0031937}, {"type": "node", "id": 11804061969, "lat": 39.747006, "lon": -105.002769}, {"type": "node", "id": 11806004079, "lat": 39.7473877, "lon": -105.002708}, {"type": "node", "id": 11806004081, "lat": 39.747144, "lon": -105.0034164}, {"type": "node", "id": 11806004090, "lat": 39.7473933, "lon": -105.0030209}, {"type": "node", "id": 11806004286, "lat": 39.7473563, "lon": -105.0026845}, {"type": "node", "id": 11806004297, "lat": 39.7473869, "lon": -105.0034061}, {"type": "node", "id": 11806004318, "lat": 39.7471225, "lon": -105.0034004}, {"type": "node", "id": 11806004382, "lat": 39.7472352, "lon": -105.003458}, {"type": "node", "id": 11806004402, "lat": 39.7473723, "lon": -105.002917}, {"type": "node", "id": 11806004472, "lat": 39.7474481, "lon": -105.0032922}, {"type": "node", "id": 11806004475, "lat": 39.7470859, "lon": -105.0033731}, {"type": "node", "id": 11806330779, "lat": 39.7473773, "lon": -105.0034094}, {"type": "node", "id": 11806330780, "lat": 39.7474042, "lon": -105.0034002}, {"type": "node", "id": 11806330782, "lat": 39.7474317, "lon": -105.0033908}, {"type": "node", "id": 11806330898, "lat": 39.7472071, "lon": -105.0034636}, {"type": "node", "id": 11806330899, "lat": 39.7473402, "lon": -105.0034221}, {"type": "node", "id": 11806330905, "lat": 39.7474491, "lon": -105.0032973}, {"type": "node", "id": 11806330924, "lat": 39.747418, "lon": -105.0031431}, {"type": "node", "id": 11806330925, "lat": 39.747411, "lon": -105.0031086}, {"type": "node", "id": 11806330938, "lat": 39.7473406, "lon": -105.0026728}, {"type": "node", "id": 11806330947, "lat": 39.7471243, "lon": -105.0034017}, {"type": "node", "id": 11806330988, "lat": 39.7473688, "lon": -105.0028859}, {"type": "node", "id": 11806330991, "lat": 39.7470815, "lon": -105.0033698}, {"type": "node", "id": 11806331174, "lat": 39.7468165, "lon": -105.0031957}, {"type": "node", "id": 12121668256, "lat": 39.7470458, "lon": -105.0026787}, {"type": "node", "id": 12121668288, "lat": 39.7471459, "lon": -105.0025274}, {"type": "node", "id": 12121668291, "lat": 39.7472496, "lon": -105.0026048}, {"type": "node", "id": 12121668292, "lat": 39.7471327, "lon": -105.0025175}, {"type": "node", "id": 12121668308, "lat": 39.7473768, "lon": -105.0028679}, {"type": "node", "id": 12121668309, "lat": 39.747401, "lon": -105.0028132}, {"type": "node", "id": 12121668315, "lat": 39.7473814, "lon": -105.0029619}, {"type": "node", "id": 12121668387, "lat": 39.747333, "lon": -105.0034246}, {"type": "node", "id": 12121668402, "lat": 39.7473372, "lon": -105.0034231}, {"type": "node", "id": 12719570402, "lat": 39.7366942, "lon": -104.9845805, "tags": {"addr:housenumber": "206", "addr:street": "East 13th Avenue", "leisure": "fitness_centre", "name": "Courageous Yoga"}}, {"type": "node", "id": 12993931796, "lat": 39.7404182, "lon": -104.9757281, "tags": {"addr:city": "Denver", "addr:housenumber": "1516", "addr:postcode": "80218", "addr:state": "CO", "addr:street": "Emerson Street", "contact:email": "info@colfaxstrong.com", "contact:facebook": "https://www.facebook.com/colfaxstrong", "contact:instagram": "https://www.instagram.com/colfaxstrongdenver/", "language:en": "yes", "leisure": "fitness_centre", "name": "Colfax Strong Strength & Conditioning", "opening_hours": "Mo, We 05:30-19:30; Tu, Th 05:30-20:00; Fr 05:30-18:30; Sa 08:00-12:30; Su 09:00-12:00", "payment:credit_cards": "yes", "phone": "+1-303-832-7263", "start_date": "2013-01-01", "website": "https://www.colfaxstrong.com"}}, {"type": "way", "id": 332420961, "nodes": [3395467178, 3395467177, 3395467181, 3395467182, 3395467178], "tags": {"brand": "Lagree Fitness", "leisure": "fitness_centre", "name": "Lagree Fitness", "name:de": "Lagree Fitness", "name:en": "Lagree Fitness"}}, {"type": "way", "id": 332420982, "nodes": [3395467182, 3395470304, 3395470305, 3395463093, 3395463094, 3395467181, 3395467182], "tags": {"addr:city": "Denver", "addr:housenumber": "1235", "addr:postcode": "80204", "addr:state": "CO", "addr:street": "Delaware Street", "building": "commercial", "leisure": "fitness_centre", "name": "The Spot Bouldering Gym", "name:de": "The Spot Bouldering Gym", "name:en": "The Spot Bouldering Gym", "sport": "climbing", "toilets": "yes", "toilets:access": "customers", "website": "http:// thespotgym.com", "wheelchair": "yes"}}, {"type": "way", "id": 489318509, "nodes": [4815667652, 6648413383, 6648413380, 11804061670, 11804059678, 11804061969, 11804060169, 11804059689, 11804060069, 11804059692, 12121668256, 11804059694, 11804061774, 4815667653, 12121668292, 12121668288, 12121668291, 11806330938, 11806004286, 11806004079, 4815667654, 12121668309, 12121668308, 11806330988, 4815667657, 11806004402, 12121668315, 11806004090, 11806330925, 11806330924, 11804061872, 11804059716, 11804059687, 11804059078, 11806004472, 11806330905, 11804061170, 4815667656, 11806330782, 11806330780, 11806004297, 11806330779, 11806330899, 12121668402, 12121668387, 11806004382, 4815667655, 11806330898, 11806004081, 11806330947, 11806004318, 11804060272, 11806004475, 11806330991, 11804061373, 6648413381, 6648413382, 11806331174, 4815667652], "tags": {"addr:city": "Denver", "addr:housenumber": "1224", "addr:postcode": "80204", "addr:state": "CO", "addr:street": "Walnut Street", "building": "university", "building:colour": "#A0522D", "building:levels": "4", "building:levels:underground": "0", "building:use": "sport", "leisure": "fitness_centre", "name": "CU Denver Lola & Rob Salazar Student Wellness Center", "operator": "University of Colorado Denver", "roof:colour": "tan", "sport": "badminton;basketball;billiards;climbing;cycling;running;swimming;volleyball;yoga", "swimming_pool": "indoor", "toilets": "yes", "toilets:access": "customers", "toilets:wheelchair": "designated", "wheelchair": "limited"}}, {"type": "way", "id": 812665179, "nodes": [7590537019, 7590537018, 7590704950, 7590537017, 7618157430, 7618157431, 7590537008, 7590537019], "tags": {"addr:city": "Denver", "addr:housenumber": "1750", "addr:postcode": "80202", "addr:state": "CO", "addr:street": "Wewatta Street", "brand": "Pure Barre", "brand:wikidata": "Q86707084", "indoor": "room", "leisure": "fitness_centre", "level": "0", "name": "Pure Barre", "ref": "130", "room": "retail"}}]}