{"version": 0.6, "generator": "Overpass API 0.7.62.8 e802775f", "osm3s": {"timestamp_osm_base": "2025-12-06T23:52:28Z", "copyright": "The data included in this document is from www.openstreetmap.org. The data is made available under ODbL."}, "elements": [{"type": "node", "id": 5391689984, "lat": 46.7948862, "lon": -124.0900805}, {"type": "node", "id": 5391689985, "lat": 46.794907, "lon": -124.0898973}, {"type": "node", "id": 5391689986, "lat": 46.795141, "lon": -124.089954}, {"type": "node", "id": 5391689987, "lat": 46.7951202, "lon": -124.0901372}, {"type": "node", "id": 5391706517, "lat": 46.8125441, "lon": -124.0940356}, {"type": "node", "id": 7747296885, "lat": 46.7942028, "lon": -124.0964994}, {"type": "node", "id": 7747710287, "lat": 46.7975338, "lon": -124.0904433, "tags": {"name": "Shorty's Mid-Beach Store", "shop": "convenience"}}, {"type": "node", "id": 7747711785, "lat": 46.7944531, "lon": -124.0898584, "tags": {"check_date": "2025-08-29", "name": "Beach Shop", "shop": "gift"}}, {"type": "node", "id": 7747711786, "lat": 46.7981223, "lon": -124.0907136, "tags": {"amenity": "cafe", "name": "Grayland Beach Espresso"}}, {"type": "node", "id": 7752612300, "lat": 46.8000002, "lon": -124.0911959, "tags": {"addr:city": "Grayland", "addr:housenumber": "2044", "addr:postcode": "98547-9602", "addr:state": "WA", "addr:street": "State Route 105", "brand": "True Value", "brand:wikidata": "Q7847545", "name": "True Value Hardware", "phone": "+1-360-267-2594", "ref": "5157", "shop": "hardware", "website": "https://www.truevalue.com/graylandtruevalue"}}, {"type": "node", "id": 7757290771, "lat": 46.7942643, "lon": -124.0964986}, {"type": "node", "id": 7757290772, "lat": 46.7942635, "lon": -124.0963512}, {"type": "node", "id": 7757290773, "lat": 46.7942019, "lon": -124.096352}, {"type": "node", "id": 7757290774, "lat": 46.7942376, "lon": -124.0968991}, {"type": "node", "id": 7757290775, "lat": 46.7940394, "lon": -124.0968971}, {"type": "node", "id": 7757290776, "lat": 46.794042, "lon": -124.0963685}, {"type": "node", "id": 7757290777, "lat": 46.7941976, "lon": -124.0963701}, {"type": "node", "id": 7757290778, "lat": 46.7941969, "lon": -124.0965147}, {"type": "node", "id": 7757290779, "lat": 46.7942759, "lon": -124.0965155}, {"type": "node", "id": 7757290780, "lat": 46.7942755, "lon": -124.0965894}, {"type": "node", "id": 7757290781, "lat": 46.7942392, "lon": -124.096589}, {"type": "node", "id": 7757290783, "lat": 46.7940406, "lon": -124.0966565}, {"type": "node", "id": 7757290784, "lat": 46.7942006, "lon": -124.0964342, "tags": {"amenity": "waste_basket"}}, {"type": "node", "id": 7757334685, "lat": 46.8014799, "lon": -124.0914211, "tags": {"amenity": "veterinary", "name": "Willapa Veterinary Service"}}, {"type": "node", "id": 7757335886, "lat": 46.8101759, "lon": -124.0937348, "tags": {"name": "Grayland Outfitters", "shop": "convenience"}}, {"type": "node", "id": 7757350385, "lat": 46.8080211, "lon": -124.0928491, "tags": {"name": "The Painted Pelican", "shop": "gift"}}, {"type": "node", "id": 7757350386, "lat": 46.80926, "lon": -124.0942545, "tags": {"amenity": "fire_station", "name": "Grayland Fire Station"}}, {"type": "node", "id": 7757350389, "lat": 46.8242744, "lon": -124.0955872, "tags": {"amenity": "place_of_worship", "name": "South Beach Christian Center", "religion": "christian"}}, {"type": "node", "id": 7757350485, "lat": 46.8086181, "lon": -124.093114, "tags": {"amenity": "restaurant", "name": "The Wheelhouse Restaurant"}}, {"type": "node", "id": 7757350685, "lat": 46.8097363, "lon": -124.0941082, "tags": {"check_date": "2025-08-29", "name": "School House Gallery", "shop": "gift"}}, {"type": "node", "id": 7757350687, "lat": 46.8154332, "lon": -124.0958081}, {"type": "node", "id": 7797059685, "lat": 46.7986472, "lon": -124.090485, "tags": {"check_date": "2025-08-29", "name": "D&L Storage", "shop": "storage_rental"}}, {"type": "node", "id": 9950419217, "lat": 46.8145297, "lon": -124.0950177, "tags": {"name": "Healing Hands Massage Therapy", "shop": "massage"}}, {"type": "node", "id": 9950419417, "lat": 46.8002829, "lon": -124.0912559, "tags": {"name": "The Rose Cottage", "shop": "gift"}}, {"type": "node", "id": 9953330517, "lat": 46.8147497, "lon": -124.0951099, "tags": {"name": "Swellow", "shop": "clothes"}}, {"type": "node", "id": 9953330617, "lat": 46.8144624, "lon": -124.0950069, "tags": {"name": "Hair FX", "shop": "hairdresser"}}, {"type": "node", "id": 9953746501, "lat": 46.7988085, "lon": -124.0878778}, {"type": "node", "id": 9953746502, "lat": 46.7988081, "lon": -124.0874586}, {"type": "node", "id": 9953746503, "lat": 46.7989201, "lon": -124.0874584}, {"type": "node", "id": 9953746504, "lat": 46.7989205, "lon": -124.0878775}, {"type": "node", "id": 11035008308, "lat": 46.803893, "lon": -124.097543, "tags": {"amenity": "charging_station"}}, {"type": "node", "id": 11575850311, "lat": 46.7949047, "lon": -124.0899183}, {"type": "node", "id": 11575850312, "lat": 46.7948954, "lon": -124.0899999}, {"type": "node", "id": 11575850313, "lat": 46.7948714, "lon": -124.0899102}, {"type": "node", "id": 11575850314, "lat": 46.7948621, "lon": -124.0899918}, {"type": "node", "id": 11575862551, "lat": 46.8154833, "lon": -124.0960592}, {"type": "node", "id": 11575862743, "lat": 46.8152732, "lon": -124.0959605}, {"type": "node", "id": 11575862819, "lat": 46.8152679, "lon": -124.0960115}, {"type": "node", "id": 11575862841, "lat": 46.8155154, "lon": -124.0957501}, {"type": "node", "id": 11575862962, "lat": 46.8152634, "lon": -124.0957707}, {"type": "node", "id": 11575863013, "lat": 46.8152444, "lon": -124.0959541}, {"type": "node", "id": 11575863019, "lat": 46.8154773, "lon": -124.0957382}, {"type": "node", "id": 11575944018, "lat": 46.8125566, "lon": -124.0940384}, {"type": "node", "id": 11575944157, "lat": 46.8125457, "lon": -124.0941433}, {"type": "node", "id": 11575944242, "lat": 46.8124091, "lon": -124.093905}, {"type": "node", "id": 11575944636, "lat": 46.8124539, "lon": -124.093915}, {"type": "node", "id": 11575944667, "lat": 46.812555, "lon": -124.0939308}, {"type": "node", "id": 11575944825, "lat": 46.8124631, "lon": -124.0938271}, {"type": "node", "id": 11575944873, "lat": 46.8125246, "lon": -124.093924}, {"type": "node", "id": 11575945135, "lat": 46.8123878, "lon": -124.094108}, {"type": "node", "id": 11575945199, "lat": 46.8125331, "lon": -124.0938427}, {"type": "way", "id": 558977782, "nodes": [11575850312, 5391689984, 5391689987, 5391689986, 5391689985, 11575850311, 11575850313, 11575850314, 11575850312], "tags": {"addr:city": "Grayland", "addr:housenumber": "2183", "addr:postcode": "98547", "addr:state": "WA", "addr:street": "State Route 105", "amenity": "restaurant", "building": "yes", "cuisine": "american;burger;seafood", "name": "Local Bar & Grill", "opening_hours": "Mo-Su 11:00-11:00", "phone": "+1-360-267-5071", "smoking": "outside", "takeaway": "yes"}}, {"type": "way", "id": 830831597, "nodes": [7747296885, 7757290771, 7757290772, 7757290773, 7747296885], "tags": {"amenity": "toilets", "building": "yes", "check_date": "2025-08-29"}}, {"type": "way", "id": 830831598, "nodes": [7757290774, 7757290775, 7757290783, 7757290776, 7757290777, 7757290778, 7757290779, 7757290780, 7757290781, 7757290774], "tags": {"amenity": "parking", "fee": "yes", "parking": "street_side", "payment:discover_pass": "yes"}}, {"type": "way", "id": 1086320272, "nodes": [9953746501, 9953746502, 9953746503, 9953746504, 9953746501], "tags": {"amenity": "community_centre", "building": "yes", "name": "Grayland Community Hall", "website": "https://graylandcommunityhall.org/"}}, {"type": "way", "id": 1245178643, "nodes": [11575862551, 11575862819, 11575862743, 11575863013, 11575862962, 7757350687, 11575863019, 11575862841, 11575862551], "tags": {"addr:housenumber": "1605", "addr:street": "State Route 105", "building": "yes", "name": "Beachcomber Grocery & Deli", "shop": "convenience", "source": "microsoft/BuildingFootprints"}}, {"type": "way", "id": 1245188788, "nodes": [11575944242, 11575944636, 11575944825, 11575945199, 11575944873, 11575944667, 5391706517, 11575944018, 11575944157, 11575945135, 11575944242], "tags": {"addr:city": "Grayland", "addr:housenumber": "853", "addr:postcode": "98547", "addr:state": "WA", "addr:street": "Hart Street", "amenity": "bank", "building": "yes", "check_date": "2025-08-29", "drive_through": "yes", "name": "Gesa Credit Union", "opening_hours": "Mo-Fr 11:00-4:00", "operator": "Security State Bank", "phone": "+1-360-267-5481", "source": "microsoft/BuildingFootprints"}}]}