{"version": 0.6, "generator": "Overpass API 0.7.62.8 e802775f", "osm3s": {"timestamp_osm_base": "2025-12-06T04:35:42Z", "copyright": "The data included in this document is from www.openstreetmap.org. The data is made available under ODbL."}, "elements": [{"type": "node", "id": 4213406891, "lat": 46.0124846, "lon": -112.5381352, "tags": {"addr:city": "Butte", "addr:housenumber": "116", "addr:postcode": "59701", "addr:street": "West Park Street", "amenity": "cafe", "name": "Jail House Coffee"}}, {"type": "node", "id": 6130491511, "lat": 46.0000655, "lon": -112.5161701, "tags": {"addr:city": "Butte", "addr:housenumber": "1619", "addr:postcode": "59701", "addr:state": "MT", "addr:street": "Grand Avenue", "brand": "Farmers Insurance", "brand:wikidata": "Q1396863", "fax": "+1-406-299-2477", "name": "Farmers Insurance", "office": "insurance", "opening_hours": "Mo-Fr 09:00-17:00", "operator": "Cindy Cochran", "phone": "+1-406-299-2525", "website": "https://agents.farmers.com/mt/butte/cindy-cochran"}}, {"type": "node", "id": 6603177387, "lat": 46.0125219, "lon": -112.5449083, "tags": {"addr:housenumber": "9124", "addr:postcode": "59701", "addr:street": "West Park Street", "amenity": "cafe", "name": "Hummingbird Cafe"}}, {"type": "node", "id": 6928109117, "lat": 45.9980091, "lon": -112.537447}, {"type": "node", "id": 6928109118, "lat": 45.9980045, "lon": -112.5369613}, {"type": "node", "id": 6928109119, "lat": 45.9974139, "lon": -112.5369627}, {"type": "node", "id": 6928109121, "lat": 45.9974943, "lon": -112.5370485}, {"type": "node", "id": 6928109122, "lat": 45.9974942, "lon": -112.5375435}, {"type": "node", "id": 6928109124, "lat": 45.9980077, "lon": -112.5375516}, {"type": "node", "id": 6928109163, "lat": 45.9974694, "lon": -112.5387705, "tags": {"amenity": "cafe", "name": "Java Junction"}}, {"type": "node", "id": 6928250831, "lat": 45.9971965, "lon": -112.5388238}, {"type": "node", "id": 6928250832, "lat": 45.9969224, "lon": -112.5388273}, {"type": "node", "id": 6928250833, "lat": 45.9969195, "lon": -112.5383386}, {"type": "node", "id": 6928250834, "lat": 45.9971936, "lon": -112.5383351}, {"type": "node", "id": 6928775528, "lat": 45.9979976, "lon": -112.5397094}, {"type": "node", "id": 6928775529, "lat": 45.9980008, "lon": -112.5396603}, {"type": "node", "id": 6928775532, "lat": 45.9978505, "lon": -112.5393925}, {"type": "node", "id": 6928775533, "lat": 45.9976864, "lon": -112.5395543}, {"type": "node", "id": 6928775536, "lat": 45.9977882, "lon": -112.5396964}, {"type": "node", "id": 6928775537, "lat": 45.9977585, "lon": -112.5397387}, {"type": "node", "id": 6928775575, "lat": 45.9979265, "lon": -112.5394992}, {"type": "node", "id": 6928775576, "lat": 45.9978691, "lon": -112.5398899}, {"type": "node", "id": 8151317097, "lat": 46.0116854, "lon": -112.5356797, "tags": {"addr:housenumber": "117", "addr:postcode": "59701", "addr:street": "South Main Street", "amenity": "restaurant", "cuisine": "chinese", "level": "1", "name": "Pekin Noodle Parlor"}}, {"type": "node", "id": 8229683191, "lat": 46.0129122, "lon": -112.5361285}, {"type": "node", "id": 8229683192, "lat": 46.0129335, "lon": -112.5357993}, {"type": "node", "id": 8229683193, "lat": 46.0129615, "lon": -112.5357555}, {"type": "node", "id": 8229712499, "lat": 46.0127001, "lon": -112.5314464}, {"type": "node", "id": 8229712500, "lat": 46.0127151, "lon": -112.5310934}, {"type": "node", "id": 8229712501, "lat": 46.0129671, "lon": -112.5311164}, {"type": "node", "id": 8229728682, "lat": 46.0124591, "lon": -112.5437167}, {"type": "node", "id": 8229728683, "lat": 46.0126271, "lon": -112.5437197}, {"type": "node", "id": 8229728684, "lat": 46.0126261, "lon": -112.5438357}, {"type": "node", "id": 8229728685, "lat": 46.0126461, "lon": -112.5438357}, {"type": "node", "id": 8229728686, "lat": 46.0126451, "lon": -112.5439507}, {"type": "node", "id": 8229728687, "lat": 46.0124571, "lon": -112.5439477}, {"type": "node", "id": 8232610769, "lat": 46.0008843, "lon": -112.5285875}, {"type": "node", "id": 8232610770, "lat": 46.0010835, "lon": -112.5287632}, {"type": "node", "id": 8232610771, "lat": 46.0010678, "lon": -112.5288106}, {"type": "node", "id": 8232610772, "lat": 46.0011025, "lon": -112.5288464}, {"type": "node", "id": 8232610773, "lat": 46.0010665, "lon": -112.5289216}, {"type": "node", "id": 8232610778, "lat": 46.0008338, "lon": -112.5287098}, {"type": "node", "id": 8232641761, "lat": 46.0022331, "lon": -112.5259375}, {"type": "node", "id": 8232641762, "lat": 46.0024426, "lon": -112.5254528}, {"type": "node", "id": 8232641763, "lat": 46.0025174, "lon": -112.5255205}, {"type": "node", "id": 8232641764, "lat": 46.002408, "lon": -112.5257737}, {"type": "node", "id": 8232641765, "lat": 46.0024504, "lon": -112.5258112}, {"type": "node", "id": 8232641766, "lat": 46.0023504, "lon": -112.5260417}, {"type": "node", "id": 8232653494, "lat": 46.0031161, "lon": -112.5239859}, {"type": "node", "id": 8232653495, "lat": 46.0031578, "lon": -112.5238592}, {"type": "node", "id": 8232653496, "lat": 46.0032334, "lon": -112.5239107}, {"type": "node", "id": 8232653497, "lat": 46.0031598, "lon": -112.5241376}, {"type": "node", "id": 8232653498, "lat": 46.0029831, "lon": -112.524019}, {"type": "node", "id": 8232653499, "lat": 46.003016, "lon": -112.5239179}, {"type": "node", "id": 8232674604, "lat": 46.0056286, "lon": -112.5293116}, {"type": "node", "id": 8232674605, "lat": 46.0057786, "lon": -112.5289716}, {"type": "node", "id": 8232674606, "lat": 46.0059515, "lon": -112.5291306}, {"type": "node", "id": 8232674607, "lat": 46.0058024, "lon": -112.5294706}, {"type": "node", "id": 8233115085, "lat": 46.0017168, "lon": -112.5230543}, {"type": "node", "id": 8233115086, "lat": 46.0013807, "lon": -112.5225157}, {"type": "node", "id": 8233115087, "lat": 46.0017158, "lon": -112.5220877}, {"type": "node", "id": 8233115088, "lat": 46.0020908, "lon": -112.5226893}, {"type": "node", "id": 8233115089, "lat": 46.0018638, "lon": -112.5229763}, {"type": "node", "id": 8233115090, "lat": 46.0018268, "lon": -112.5229153}, {"type": "node", "id": 8233115097, "lat": 46.0016602, "lon": -112.521086}, {"type": "node", "id": 8233115098, "lat": 46.0017323, "lon": -112.5211987}, {"type": "node", "id": 8233115099, "lat": 46.0015614, "lon": -112.5214202}, {"type": "node", "id": 8233115100, "lat": 46.0014929, "lon": -112.5213089}, {"type": "node", "id": 8233132642, "lat": 46.0013025, "lon": -112.5223352}, {"type": "node", "id": 8233132643, "lat": 46.0009893, "lon": -112.5227407}, {"type": "node", "id": 8233132644, "lat": 46.0009202, "lon": -112.5226258}, {"type": "node", "id": 8233132645, "lat": 46.0009558, "lon": -112.522584}, {"type": "node", "id": 8233132646, "lat": 46.0008705, "lon": -112.5224404}, {"type": "node", "id": 8233132647, "lat": 46.0008223, "lon": -112.5224959}, {"type": "node", "id": 8233132648, "lat": 46.0008557, "lon": -112.5225521}, {"type": "node", "id": 8233132649, "lat": 46.0008251, "lon": -112.5226001}, {"type": "node", "id": 8233132650, "lat": 46.0006611, "lon": -112.5223364}, {"type": "node", "id": 8233132651, "lat": 46.0008647, "lon": -112.5220759}, {"type": "node", "id": 8233132652, "lat": 46.0007937, "lon": -112.5219563}, {"type": "node", "id": 8233132653, "lat": 46.0005983, "lon": -112.5222053}, {"type": "node", "id": 8233132654, "lat": 46.0003763, "lon": -112.5218532}, {"type": "node", "id": 8233132655, "lat": 46.0003301, "lon": -112.5219141}, {"type": "node", "id": 8233132656, "lat": 46.0002273, "lon": -112.5217525}, {"type": "node", "id": 8233132657, "lat": 46.0002718, "lon": -112.5216939}, {"type": "node", "id": 8233132658, "lat": 46.0001985, "lon": -112.5215787}, {"type": "node", "id": 8233132659, "lat": 46.0003793, "lon": -112.5213405}, {"type": "node", "id": 8233132660, "lat": 46.000219, "lon": -112.5210879}, {"type": "node", "id": 8233132661, "lat": 46.0002302, "lon": -112.520733}, {"type": "node", "id": 8233132662, "lat": 46.0003798, "lon": -112.5205469}, {"type": "node", "id": 8233132663, "lat": 46.0004057, "lon": -112.5205894}, {"type": "node", "id": 8233132666, "lat": 46.0004642, "lon": -112.5208151}, {"type": "node", "id": 8233132667, "lat": 46.0004578, "lon": -112.5210187}, {"type": "node", "id": 8233132668, "lat": 46.0005339, "lon": -112.5211399}, {"type": "node", "id": 8233132669, "lat": 46.0005442, "lon": -112.5211233}, {"type": "node", "id": 8233132670, "lat": 46.0009045, "lon": -112.5216956}, {"type": "node", "id": 8233132671, "lat": 46.000877, "lon": -112.5217288}, {"type": "node", "id": 8233132672, "lat": 46.0009128, "lon": -112.5217925}, {"type": "node", "id": 8233145236, "lat": 46.0003241, "lon": -112.518952}, {"type": "node", "id": 8233145237, "lat": 46.0003861, "lon": -112.519051}, {"type": "node", "id": 8233145238, "lat": 46.0003691, "lon": -112.519073}, {"type": "node", "id": 8233145239, "lat": 46.0004131, "lon": -112.519142}, {"type": "node", "id": 8233145240, "lat": 46.0003111, "lon": -112.519274}, {"type": "node", "id": 8233145241, "lat": 46.0002051, "lon": -112.519106}, {"type": "node", "id": 8233145249, "lat": 46.0007177, "lon": -112.5183979}, {"type": "node", "id": 8233145250, "lat": 46.0006087, "lon": -112.5185319}, {"type": "node", "id": 8233145297, "lat": 45.9996155, "lon": -112.518021}, {"type": "node", "id": 8233145298, "lat": 45.9995301, "lon": -112.5178833}, {"type": "node", "id": 8233145299, "lat": 45.9996349, "lon": -112.5177502}, {"type": "node", "id": 8233145300, "lat": 45.9997193, "lon": -112.5178877}, {"type": "node", "id": 8233167933, "lat": 45.997972, "lon": -112.5156895}, {"type": "node", "id": 8233167934, "lat": 45.9981502, "lon": -112.5158557}, {"type": "node", "id": 8233167935, "lat": 45.9980441, "lon": -112.5160893}, {"type": "node", "id": 8233167936, "lat": 45.9978659, "lon": -112.515924}, {"type": "node", "id": 8233199928, "lat": 45.997961, "lon": -112.5152991}, {"type": "node", "id": 8233199929, "lat": 45.9978096, "lon": -112.5151531}, {"type": "node", "id": 8233199930, "lat": 45.9978653, "lon": -112.5150368}, {"type": "node", "id": 8233199931, "lat": 45.9980154, "lon": -112.5151787}, {"type": "node", "id": 8233222819, "lat": 45.9967738, "lon": -112.5146839}, {"type": "node", "id": 8233222820, "lat": 45.9967672, "lon": -112.5147754}, {"type": "node", "id": 8233222890, "lat": 45.9971754, "lon": -112.5151049, "tags": {"name": "Harrison Avenue Liquor Store", "shop": "alcohol"}}, {"type": "node", "id": 8236890596, "lat": 46.0030824, "lon": -112.5060253}, {"type": "node", "id": 8236890597, "lat": 46.0030825, "lon": -112.5058593}, {"type": "node", "id": 8236890598, "lat": 46.0033005, "lon": -112.5058593}, {"type": "node", "id": 8236890599, "lat": 46.0033004, "lon": -112.5060254}, {"type": "node", "id": 8239465023, "lat": 46.00301, "lon": -112.5053268}, {"type": "node", "id": 8239465024, "lat": 46.00301, "lon": -112.5055585}, {"type": "node", "id": 8247189344, "lat": 45.9995566, "lon": -112.516834, "tags": {"brand": "Cricket Wireless", "brand:wikidata": "Q5184987", "name": "Cricket Wireless", "shop": "mobile_phone", "short_name": "Cricket"}}, {"type": "node", "id": 8261061083, "lat": 45.9940737, "lon": -112.5307947}, {"type": "node", "id": 8261061084, "lat": 45.9939817, "lon": -112.5307164}, {"type": "node", "id": 8261061085, "lat": 45.9939958, "lon": -112.5306726}, {"type": "node", "id": 8261061086, "lat": 45.9939523, "lon": -112.5306698}, {"type": "node", "id": 8261061087, "lat": 45.9939306, "lon": -112.5306174}, {"type": "node", "id": 8261061088, "lat": 45.9940065, "lon": -112.530544}, {"type": "node", "id": 8261061089, "lat": 45.9941677, "lon": -112.530663}, {"type": "node", "id": 8261061090, "lat": 45.9941702, "lon": -112.5307412}, {"type": "node", "id": 8261061091, "lat": 45.9940952, "lon": -112.5307461}, {"type": "node", "id": 8307949194, "lat": 46.0140582, "lon": -112.5344788, "tags": {"addr:city": "Butte", "addr:housenumber": "206", "addr:postcode": "59701", "addr:street": "West Park Street", "name": "Isle of Books", "shop": "books"}}, {"type": "node", "id": 8307949195, "lat": 46.0119824, "lon": -112.5396764, "tags": {"addr:housenumber": "21", "addr:postcode": "59701", "addr:street": "South Montana Street", "contact:facebook": "HeadframeSpirits", "contact:instagram": "headframespirits", "email": "cheers@headframespirits.com", "name": "Headframe Spirits", "opening_hours": "Mo-Su 10:00-20:00", "phone": "+1 406-299-2886", "shop": "alcohol", "website": "https://www.headframespirits.com/"}}, {"type": "node", "id": 8307949196, "lat": 46.0123084, "lon": -112.539714, "tags": {"name": "Dancing Rainbow Natural Grocery", "shop": "supermarket"}}, {"type": "node", "id": 8307949197, "lat": 46.0124543, "lon": -112.5390272, "tags": {"addr:city": "Butte", "addr:housenumber": "146", "addr:postcode": "59701", "addr:street": "West Park Street", "amenity": "restaurant", "cuisine": "mexican", "name": "Taco Del Sol"}}, {"type": "node", "id": 8307949198, "lat": 46.0121333, "lon": -112.5390085, "tags": {"amenity": "bar", "name": "The Dublin"}}, {"type": "node", "id": 8307949199, "lat": 46.012029, "lon": -112.5389442, "tags": {"name": "Butte City Water Shop & Repair", "office": "government"}}, {"type": "node", "id": 8307949200, "lat": 46.0120197, "lon": -112.5385901, "tags": {"name": "Sweetgrass Rods", "shop": "fishing"}}, {"type": "node", "id": 8307949201, "lat": 46.0125431, "lon": -112.5377211, "tags": {"addr:city": "Butte", "addr:housenumber": "68", "addr:postcode": "59701", "addr:street": "West Park Street", "amenity": "cafe", "name": "Oro Fino Coffee"}}, {"type": "node", "id": 8307949202, "lat": 46.0125599, "lon": -112.5374555, "tags": {"addr:city": "Butte", "addr:housenumber": "66", "addr:postcode": "59701", "addr:street": "West Park Street", "name": "Wein's Men's Store", "shop": "clothes", "website": "https://weinsonline.com/"}}, {"type": "node", "id": 8307949203, "lat": 46.0129287, "lon": -112.5369111, "tags": {"name": "Mirror Mirror Boutique", "shop": "clothes"}}, {"type": "node", "id": 8307949206, "lat": 46.0123531, "lon": -112.5351757, "tags": {"name": "Yellow 8 Ball Customs", "shop": "clothes"}}, {"type": "node", "id": 8307949207, "lat": 46.013156, "lon": -112.5351944, "tags": {"name": "NorthWestern Energy", "office": "yes"}}, {"type": "node", "id": 8307949210, "lat": 46.0129846, "lon": -112.5362914, "tags": {"addr:city": "Butte", "addr:housenumber": "15", "addr:postcode": "59701", "addr:street": "West Park Street", "amenity": "cafe", "name": "Gamer's Cafe", "opening_hours": "Mo-Sa 07:00-14:00; Su 08:00-14:00", "website": "https://www.gamerscafebutte.com/"}}, {"type": "node", "id": 8307949212, "lat": 46.0134038, "lon": -112.5353876, "tags": {"name": "Queens Palace", "shop": "tobacco"}}, {"type": "node", "id": 8307949213, "lat": 46.013074, "lon": -112.5343925, "tags": {"addr:city": "Butte", "addr:housenumber": "53", "addr:postcode": "59701", "addr:street": "East Park Street", "amenity": "restaurant", "name": "La Casa Toscana"}}, {"type": "node", "id": 8307949214, "lat": 46.013713, "lon": -112.5337729, "tags": {"addr:city": "Butte", "addr:housenumber": "60", "addr:postcode": "59701", "addr:street": "East Broadway Street", "amenity": "restaurant", "cuisine": "asian", "name": "SoHo Asian Cuisine"}}, {"type": "node", "id": 8307949215, "lat": 46.0135137, "lon": -112.5337407, "tags": {"addr:city": "Butte", "addr:housenumber": "29", "addr:postcode": "59701", "addr:street": "North Wyoming Street", "name": "Two Bean Quilts", "shop": "fabric", "website": "https://twobeanquilts.com/"}}, {"type": "node", "id": 8307949216, "lat": 46.0138061, "lon": -112.5332981, "tags": {"amenity": "bar", "name": "Cavalier Lounge"}}, {"type": "node", "id": 8307978017, "lat": 46.0140911, "lon": -112.5343335, "tags": {"amenity": "cafe", "name": "Uptown Cafe"}}, {"type": "node", "id": 8307978018, "lat": 46.014024, "lon": -112.5354761, "tags": {"amenity": "bar", "name": "Maloney's Bar"}}, {"type": "node", "id": 8307978022, "lat": 46.014065, "lon": -112.5361064, "tags": {"addr:city": "Butte", "addr:housenumber": "117", "addr:postcode": "59701", "addr:street": "North Main Street", "name": "Old Butte Historical Tours", "office": "guide", "website": "https://buttetour.info/"}}, {"type": "node", "id": 8307978024, "lat": 46.0138508, "lon": -112.5365221, "tags": {"name": "Sassy Consignment and Sales", "shop": "antiques"}}, {"type": "node", "id": 8307978026, "lat": 46.0146592, "lon": -112.5367716, "tags": {"name": "Montana Standard", "office": "newspaper"}}, {"type": "node", "id": 8307978027, "lat": 46.0140967, "lon": -112.5371954, "tags": {"addr:city": "Butte", "addr:housenumber": "113", "addr:postcode": "59701", "addr:street": "Hamilton Street", "amenity": "cafe", "name": "Venus Rising Espresso House"}}, {"type": "node", "id": 8307978028, "lat": 46.0141749, "lon": -112.5378203, "tags": {"name": "Butte City Transit", "office": "government"}}, {"type": "node", "id": 8307978029, "lat": 46.0139141, "lon": -112.5371766, "tags": {"name": "Montana Vape Kingdom", "shop": "e-cigarette"}}, {"type": "node", "id": 8307978032, "lat": 46.0136366, "lon": -112.5388878, "tags": {"addr:city": "Butte", "addr:housenumber": "129", "addr:postcode": "59701", "addr:street": "West Broadway Street", "name": "The Geek Emporium", "shop": "houseware"}}, {"type": "node", "id": 8307978033, "lat": 46.0141135, "lon": -112.539038, "tags": {"name": "Lee's Office City", "shop": "stationery"}}, {"type": "node", "id": 8307978034, "lat": 46.0140892, "lon": -112.5397301, "tags": {"amenity": "cafe", "name": "Roy Cafe"}}, {"type": "node", "id": 8307978035, "lat": 46.0139272, "lon": -112.5397381, "tags": {"name": "Butte School District", "office": "yes"}}, {"type": "node", "id": 8307978041, "lat": 46.0128542, "lon": -112.5390541, "tags": {"addr:city": "Butte", "addr:housenumber": "133", "addr:postcode": "59701", "addr:street": "West Park Street", "name": "Park Street Liquors", "shop": "alcohol"}}, {"type": "node", "id": 8307978042, "lat": 46.0118353, "lon": -112.5414091, "tags": {"name": "Montana Coat", "shop": "clothes"}}, {"type": "node", "id": 8307978044, "lat": 46.0113781, "lon": -112.538978, "tags": {"name": "Second Edition Books", "shop": "books"}}, {"type": "node", "id": 8307978048, "lat": 46.011962, "lon": -112.5343925, "tags": {"name": "Collective Elevation", "shop": "cannabis"}}, {"type": "node", "id": 8307978049, "lat": 46.0120551, "lon": -112.5325927, "tags": {"addr:city": "Butte", "addr:housenumber": "102", "addr:postcode": "59701", "addr:street": "East Galena Street", "name": "Staack's Motor Sports", "shop": "motorcycle", "website": "https://staacksmotorsports.com/"}}, {"type": "node", "id": 8307978055, "lat": 46.0131885, "lon": -112.5325508, "tags": {"addr:city": "Butte", "addr:housenumber": "123", "addr:postcode": "59701", "addr:street": "East Park Street", "name": "Butte Rescue Mission Thrift Store", "shop": "second_hand"}}, {"type": "node", "id": 8307978056, "lat": 46.0129521, "lon": -112.531469}, {"type": "node", "id": 8307978058, "lat": 46.0138558, "lon": -112.5312688, "tags": {"name": "Broadway Garage Indoor Vehicles", "shop": "storage_rental"}}, {"type": "node", "id": 8307978059, "lat": 46.0144953, "lon": -112.5332353, "tags": {"addr:city": "Butte", "addr:housenumber": "102", "addr:postcode": "59701", "addr:street": "East Granite Street", "amenity": "restaurant", "name": "North 46", "opening_hours": "Tu-Fr 11:00-15:00", "phone": "+1-406-299-3946", "toilets": "yes", "wheelchair": "yes"}}, {"type": "node", "id": 8307978060, "lat": 46.0130166, "lon": -112.5293469, "tags": {"addr:city": "Butte", "addr:housenumber": "304", "addr:postcode": "59701", "addr:street": "East Park Street", "name": "Rocky Mountain Archery", "shop": "sports"}}, {"type": "node", "id": 8307978062, "lat": 46.0101207, "lon": -112.5341453, "tags": {"addr:city": "Butte", "addr:housenumber": "26", "addr:postcode": "59701", "addr:street": "East Silver Street", "name": "East Ridge Laundry & Dry Cleaners", "shop": "dry_cleaning"}}, {"type": "node", "id": 8307978064, "lat": 46.010646, "lon": -112.532316, "tags": {"name": "Miller's Boots and Shoes", "shop": "shoes"}}, {"type": "node", "id": 8307978067, "lat": 46.0072599, "lon": -112.5351674, "tags": {"amenity": "bar", "name": "Spud McGee's"}}, {"type": "node", "id": 8307978068, "lat": 46.0077283, "lon": -112.5309403, "tags": {"amenity": "cafe", "name": "Elevation Espresso"}}, {"type": "node", "id": 8307978069, "lat": 46.0116301, "lon": -112.5293495, "tags": {"addr:city": "Butte", "addr:housenumber": "301", "addr:postcode": "59701", "addr:street": "East Mercury Street", "amenity": "bar", "name": "Cinz Bar"}}, {"type": "node", "id": 8307978073, "lat": 46.011081, "lon": -112.5357417, "tags": {"amenity": "restaurant", "name": "Pork Chop John's"}}, {"type": "node", "id": 8731556575, "lat": 45.9997015, "lon": -112.5265834, "tags": {"addr:city": "Butte", "addr:postcode": "59701", "addr:state": "MT", "name": "BNSF Butte", "office": "company", "website": "https://www.bnsf.com/"}}, {"type": "node", "id": 8731556576, "lat": 45.9996269, "lon": -112.527002, "tags": {"name": "BNSF Copper City Sub", "office": "yes"}}, {"type": "node", "id": 8889270837, "lat": 46.0111718, "lon": -112.5416722, "tags": {"addr:city": "Butte", "addr:housenumber": "102", "addr:postcode": "59701", "addr:state": "MT", "addr:street": "South Washington Street", "description": "A pastoral unit comprised of Immaculate Conception Parish and St. Patrick Parish", "diocese": "Helena", "fax": "+1 406-723-5408", "name": "Butte Catholic Community North", "office": "religion", "phone": "+1 406-723-5407", "website": "https://butteccn.org/"}}, {"type": "node", "id": 9074423339, "lat": 46.0113306, "lon": -112.5402025, "tags": {"name": "Butte Civil Air Patrol", "office": "association"}}, {"type": "node", "id": 9164185586, "lat": 46.0133129, "lon": -112.538753, "tags": {"addr:city": "Butte", "addr:housenumber": "120", "addr:postcode": "59701", "addr:state": "MT", "addr:street": "West Broadway Street", "name": "The Derailed Bike Shop", "shop": "bicycle"}}, {"type": "node", "id": 10250108098, "lat": 45.9978696, "lon": -112.5396216, "tags": {"addr:city": "Butte", "addr:housenumber": "1201", "addr:postcode": "59701", "addr:state": "MT", "addr:street": "South Montana Street", "amenity": "bar", "name": "Butte Jokers Wild Bar & Casino", "opening_hours": "Mo-Su 09:00 -14:00", "phone": "+1 406-782-6587", "website": "https://chefsgarden-jokerswild.com"}}, {"type": "node", "id": 10944356615, "lat": 46.0030332, "lon": -112.522536, "tags": {"addr:city": "Butte", "addr:housenumber": "1207", "addr:postcode": "59701", "addr:state": "MT", "addr:street": "East Front Street", "beauty": "hair", "name": "Beauty by Mary", "opening_hours": "Mo-Fr 09:00-17:00; Sa 9:00-15:00", "operator": "Cindy Cochran", "payment:american_express": "yes", "payment:cash": "yes", "payment:cheque": "yes", "payment:discover_card": "yes", "payment:mastercard": "yes", "payment:visa": "yes", "phone": "+1-406-565-6408", "shop": "beauty", "website": "https://naturalbeautybymary.com"}}, {"type": "node", "id": 11167741751, "lat": 46.013043, "lon": -112.5357656}, {"type": "node", "id": 11167741752, "lat": 46.0130181, "lon": -112.5361412}, {"type": "node", "id": 11237144491, "lat": 45.9974549, "lon": -112.5370467}, {"type": "node", "id": 11237144492, "lat": 45.9974158, "lon": -112.5370488}, {"type": "node", "id": 11237144497, "lat": 45.9979078, "lon": -112.539525}, {"type": "node", "id": 11237144500, "lat": 45.997744, "lon": -112.5394704}, {"type": "node", "id": 11237144511, "lat": 45.9978324, "lon": -112.5394183}, {"type": "node", "id": 11237144512, "lat": 45.9978203, "lon": -112.5394013}, {"type": "node", "id": 11237144513, "lat": 45.9977587, "lon": -112.5394913}, {"type": "node", "id": 11263557728, "lat": 45.9943389, "lon": -112.5303951}, {"type": "node", "id": 11263557729, "lat": 45.9943034, "lon": -112.5304836}, {"type": "node", "id": 11263557730, "lat": 45.994392, "lon": -112.5305571}, {"type": "node", "id": 11263557731, "lat": 45.9944274, "lon": -112.5304686}, {"type": "node", "id": 11282565243, "lat": 45.9940403, "lon": -112.5305692}, {"type": "node", "id": 11282565244, "lat": 45.9941286, "lon": -112.5306342}, {"type": "node", "id": 11282565245, "lat": 45.9939858, "lon": -112.5306416}, {"type": "node", "id": 11284627881, "lat": 45.9941086, "lon": -112.5306194, "tags": {"access": "yes", "door": "hinged", "entrance": "main", "wheelchair": "yes"}}, {"type": "node", "id": 11284627882, "lat": 45.9940612, "lon": -112.5305846, "tags": {"access": "yes", "door": "hinged", "entrance": "shop", "wheelchair": "yes"}}, {"type": "node", "id": 11347533087, "lat": 45.9979287, "lon": -112.5150924}, {"type": "node", "id": 11347533088, "lat": 45.9979368, "lon": -112.5150741}, {"type": "node", "id": 11347533089, "lat": 45.9978745, "lon": -112.5150175}, {"type": "node", "id": 11379580348, "lat": 46.0005144, "lon": -112.5207569}, {"type": "node", "id": 11379580349, "lat": 46.0005522, "lon": -112.5207073}, {"type": "node", "id": 11379580350, "lat": 46.0004445, "lon": -112.5205404}, {"type": "node", "id": 11379580351, "lat": 46.0004899, "lon": -112.5204829}, {"type": "node", "id": 11379580352, "lat": 46.0005958, "lon": -112.5206511}, {"type": "node", "id": 11379580353, "lat": 46.0005411, "lon": -112.5204213}, {"type": "node", "id": 11379580354, "lat": 46.0006451, "lon": -112.5205868}, {"type": "node", "id": 11379580355, "lat": 46.0003282, "lon": -112.5206051}, {"type": "node", "id": 11379580356, "lat": 46.0003031, "lon": -112.521218}, {"type": "node", "id": 11379580357, "lat": 46.0004864, "lon": -112.521509}, {"type": "node", "id": 11379580358, "lat": 46.0006494, "lon": -112.5212891}, {"type": "node", "id": 11379580359, "lat": 46.0006536, "lon": -112.5217166}, {"type": "node", "id": 11379580360, "lat": 46.0008002, "lon": -112.5215259}, {"type": "node", "id": 11379580361, "lat": 46.0010119, "lon": -112.5218859}, {"type": "node", "id": 11379580362, "lat": 45.9980399, "lon": -112.5157528}, {"type": "node", "id": 11379580363, "lat": 45.9979377, "lon": -112.5159906}, {"type": "node", "id": 11379670178, "lat": 46.0005851, "lon": -112.518175}, {"type": "node", "id": 11379670179, "lat": 46.0004786, "lon": -112.518313}, {"type": "node", "id": 11383253649, "lat": 46.003206, "lon": -112.5058462, "tags": {"access": "customers", "door": "hinged", "entrance": "main", "wheelchair": "yes"}}, {"type": "node", "id": 11383253650, "lat": 46.0032345, "lon": -112.5058348}, {"type": "node", "id": 11383253651, "lat": 46.0032064, "lon": -112.5058348}, {"type": "node", "id": 11383253652, "lat": 46.0032345, "lon": -112.5058593}, {"type": "node", "id": 11383253653, "lat": 46.0032064, "lon": -112.5058593}, {"type": "node", "id": 11383253654, "lat": 46.0032029, "lon": -112.5060254, "tags": {"access": "customers", "door": "hinged", "entrance": "yes", "wheelchair": "no"}}, {"type": "node", "id": 11383253655, "lat": 46.0032886, "lon": -112.5060254}, {"type": "node", "id": 11383253656, "lat": 46.0031014, "lon": -112.5060253, "tags": {"access": "customers", "door": "hinged", "entrance": "yes", "wheelchair": "limited"}}, {"type": "node", "id": 11383253657, "lat": 46.0031186, "lon": -112.5060253}, {"type": "node", "id": 11383253664, "lat": 46.002783, "lon": -112.505328}, {"type": "node", "id": 11383253665, "lat": 46.0026929, "lon": -112.5053284}, {"type": "node", "id": 11383253666, "lat": 46.0026929, "lon": -112.5055777}, {"type": "node", "id": 11383253667, "lat": 46.0027837, "lon": -112.5055596}, {"type": "node", "id": 11383253668, "lat": 46.0027837, "lon": -112.5055773}, {"type": "node", "id": 11386898234, "lat": 46.0042701, "lon": -112.497721}, {"type": "node", "id": 11386898235, "lat": 46.0042656, "lon": -112.4967232}, {"type": "node", "id": 11386898236, "lat": 46.0049278, "lon": -112.496717}, {"type": "node", "id": 11386898237, "lat": 46.0049323, "lon": -112.4977148}, {"type": "node", "id": 11386898238, "lat": 46.0047344, "lon": -112.4965446}, {"type": "node", "id": 11386898239, "lat": 46.0043222, "lon": -112.4965346}, {"type": "node", "id": 11386898240, "lat": 46.0043217, "lon": -112.496426}, {"type": "node", "id": 11386898241, "lat": 46.0043259, "lon": -112.4949722}, {"type": "node", "id": 11386898242, "lat": 46.0046538, "lon": -112.4949823}, {"type": "node", "id": 11386898243, "lat": 46.0047926, "lon": -112.494987}, {"type": "node", "id": 11386898244, "lat": 46.0048522, "lon": -112.4952149}, {"type": "node", "id": 11386898245, "lat": 46.004882, "lon": -112.4954402}, {"type": "node", "id": 11386898246, "lat": 46.0049025, "lon": -112.495687}, {"type": "node", "id": 11386898247, "lat": 46.0049137, "lon": -112.4959016}, {"type": "node", "id": 11386898248, "lat": 46.0049212, "lon": -112.4961135}, {"type": "node", "id": 11386898249, "lat": 46.004923, "lon": -112.4965265}, {"type": "node", "id": 11394201293, "lat": 45.9964175, "lon": -112.5147785}, {"type": "node", "id": 11394201294, "lat": 45.9964178, "lon": -112.5144615}, {"type": "node", "id": 12300294460, "lat": 46.0112482, "lon": -112.5324465, "tags": {"addr:city": "Butte", "addr:housenumber": "205", "addr:postcode": "59701", "addr:state": "MT", "addr:street": "South Arizona Avenue", "amenity": "restaurant", "contact:facebook": "https://www.facebook.com/maverickbargrill", "cuisine": "bar_and_grill", "name": "Maverick Bar & Grill"}}, {"type": "node", "id": 12367778366, "lat": 46.0126026, "lon": -112.5362221, "tags": {"addr:city": "Butte", "addr:housenumber": "22", "addr:postcode": "59701", "addr:state": "MN", "addr:street": "West Park Street", "clothes": "sports", "name": "Mining City Tommyknockers", "shop": "clothes"}}, {"type": "node", "id": 13116838801, "lat": 46.0000163, "lon": -112.5165402, "tags": {"addr:housenumber": "1641", "addr:postcode": "59701", "addr:street": "Grand Avenue", "amenity": "restaurant", "name": "Joe's Pasty Shop", "opening_hours": "Mo-Fr 07:00-19:00; Sa 07:00-15:00", "phone": "+1 406-782-3988"}}, {"type": "way", "id": 739923924, "nodes": [6928109117, 6928109118, 6928109119, 11237144492, 11237144491, 6928109121, 6928109122, 6928109124, 6928109117], "tags": {"addr:city": "Butte", "addr:housenumber": "310", "addr:postcode": "59701", "addr:state": "MT", "addr:street": "West Front Street", "brand": "Safeway", "brand:wikidata": "Q1508234", "building": "retail", "name": "Safeway", "opening_hours": "Mo-Su 06:00-23:00", "operator": "Safeway", "phone": "+1 406-723-5808", "shop": "supermarket", "website": "https://local.safeway.com/safeway/mt/butte/310-w-front-st.html"}}, {"type": "way", "id": 739943345, "nodes": [6928250831, 6928250832, 6928250833, 6928250834, 6928250831], "tags": {"addr:city": "Butte", "addr:housenumber": "290", "addr:postcode": "59701", "addr:state": "MT", "addr:street": "Holland Street", "brand": "Les Schwab Tire Center", "brand:wikidata": "Q6529977", "building": "yes", "name": "Les Schwab Tire Center", "shop": "tyres"}}, {"type": "way", "id": 740027242, "nodes": [6928775576, 6928775528, 6928775529, 11237144497, 6928775575, 6928775532, 11237144511, 11237144512, 11237144513, 11237144500, 6928775533, 6928775536, 6928775537, 6928775576], "tags": {"amenity": "restaurant", "building": "yes"}}, {"type": "way", "id": 884968010, "nodes": [11167741752, 8229683191, 8229683192, 8229683193, 11167741751, 11167741752], "tags": {"addr:city": "Butte", "addr:housenumber": "1", "addr:postcode": "59701", "addr:state": "MT", "addr:street": "West Park Street", "amenity": "bar", "building": "yes", "name": "Party Palace"}}, {"type": "way", "id": 884971242, "nodes": [8307978056, 8229712499, 8229712500, 8229712501, 8307978056], "tags": {"addr:city": "Butte", "addr:housenumber": "222", "addr:postcode": "59701", "addr:state": "MT", "addr:street": "East Park Street", "amenity": "bar", "building": "yes", "name": "Sparky's Garage Butte", "source": "microsoft/BuildingFootprints", "website": "https://www.sparkysrestaurant.com/"}}, {"type": "way", "id": 884972899, "nodes": [8229728682, 8229728683, 8229728684, 8229728685, 8229728686, 8229728687, 8229728682], "tags": {"amenity": "restaurant", "building": "yes", "name": "Vu Villa Pizza", "source": "microsoft/BuildingFootprints"}}, {"type": "way", "id": 885308072, "nodes": [8232610769, 8232610770, 8232610771, 8232610772, 8232610773, 8232610778, 8232610769], "tags": {"addr:city": "Butte", "addr:country": "US", "addr:housenumber": "611", "addr:postcode": "59701", "addr:state": "MT", "addr:street": "East Front Street", "building": "yes", "name": "Town Talk Bakery", "opening_hours": "Tu-Fr 08:00-15:00", "payment:cash": "yes", "payment:cheque": "yes", "payment:coins": "yes", "payment:credit_cards": "no", "payment:cryptocurrencies": "no", "payment:debit_cards": "no", "payment:electronic_purses": "no", "shop": "bakery", "source": "microsoft/BuildingFootprints", "tourism": "attraction", "wheelchair": "yes"}}, {"type": "way", "id": 885311900, "nodes": [8232641761, 8232641762, 8232641763, 8232641764, 8232641765, 8232641766, 8232641761], "tags": {"addr:city": "Butte", "addr:housenumber": "901", "addr:postcode": "59701", "addr:state": "MT", "addr:street": "East Front Street", "branch": "#5", "brand": "Thriftway Super Stops", "brand:wikidata": "Q123562560", "building": "retail", "fuel:diesel:class2": "yes", "fuel:octane_87": "yes", "fuel:octane_89": "yes", "fuel:octane_91": "yes", "name": "Thriftway Super Stop", "opening_hours": "24/7", "operator": "Sutey Oil Company", "payment:cash": "yes", "payment:cheque": "yes", "payment:contactless": "yes", "payment:credit_cards": "yes", "payment:debit_cards": "yes", "payment:fuelforward": "yes", "shop": "convenience", "source": "microsoft/BuildingFootprints", "toilets": "yes"}}, {"type": "way", "id": 885311944, "nodes": [8232653494, 8232653495, 8232653496, 8232653497, 8232653498, 8232653499, 8232653494], "tags": {"addr:city": "Butte", "addr:housenumber": "111", "addr:postcode": "59701", "addr:state": "MT", "addr:street": "East Front Street", "brand": "Jiffy Lube", "brand:wikidata": "Q6192247", "building": "yes", "name": "Jiffy Lube", "shop": "car_repair", "source": "microsoft/BuildingFootprints"}}, {"type": "way", "id": 885314465, "nodes": [8232674604, 8232674605, 8232674606, 8232674607, 8232674604], "tags": {"amenity": "restaurant", "building": "yes", "cuisine": "steak_house", "name": "Casagranda's Steakhouse", "source": "microsoft/BuildingFootprints"}}, {"type": "way", "id": 885379299, "nodes": [8233115085, 8233115086, 8233115087, 8233115088, 8233115089, 8233115090, 8233115085], "tags": {"building": "yes", "name": "Montana Broom & Brush Co", "office": "yes", "source": "microsoft/BuildingFootprints"}}, {"type": "way", "id": 885379301, "nodes": [8233115097, 8233115098, 8233115099, 8233115100, 8233115097], "tags": {"addr:city": "Butte", "addr:country": "US", "addr:housenumber": "1285", "addr:postcode": "59701", "addr:state": "MT", "addr:street": "Harrison Avenue", "amenity": "restaurant", "building": "yes", "cuisine": "american", "delivery": "yes", "name": "Copper City Casino", "reservation": "no", "smoking": "outside", "takeaway": "yes"}}, {"type": "way", "id": 885379318, "nodes": [11379580355, 8233132666, 8233132667, 11379580356, 8233132660, 8233132661, 11379580355], "tags": {"addr:city": "Butte", "addr:country": "US", "addr:housenumber": "1311", "addr:postcode": "59701", "addr:state": "MT", "addr:street": "Harrison Avenue", "brand": "H&R Block", "brand:wikidata": "Q5627799", "building:part": "yes", "name": "H&R Block", "office": "tax_advisor"}}, {"type": "way", "id": 885381324, "nodes": [8233145236, 8233145237, 8233145238, 8233145239, 8233145240, 8233145241, 8233145236], "tags": {"amenity": "bar", "building": "yes", "name": "Met Tavern", "source": "microsoft/BuildingFootprints"}}, {"type": "way", "id": 885381338, "nodes": [8233145297, 8233145298, 8233145299, 8233145300, 8233145297], "tags": {"building": "yes", "name": "Gibz Salon and Day Spa", "shop": "beauty", "source": "microsoft/BuildingFootprints"}}, {"type": "way", "id": 885384164, "nodes": [11379580362, 11379580363, 8233167936, 8233167933, 11379580362], "tags": {"addr:city": "Butte", "addr:country": "US", "addr:housenumber": "1659", "addr:postcode": "59701", "addr:state": "MT", "addr:street": "Harrison Avenue", "building:part": "retail", "name": "Spadeball Ink Tattoo", "shop": "tattoo", "source": "microsoft/BuildingFootprints", "wheelchair": "yes"}}, {"type": "way", "id": 885387660, "nodes": [8233199928, 8233199929, 8233199930, 11347533089, 11347533088, 11347533087, 8233199931, 8233199928], "tags": {"addr:city": "Butte", "addr:country": "US", "addr:housenumber": "1700", "addr:postcode": "59701", "addr:state": "MT", "addr:street": "Harrison Avenue", "amenity": "bar", "building": "yes", "internet_access": "wlan", "internet_access:fee": "customers", "name": "Ace High Casino", "opening_hours": "Mo-Su 10:00-02:00", "operator": "Ted & Juilies Party Palace Bars", "smoking": "outside", "source": "microsoft/BuildingFootprints", "wheelchair": "yes"}}, {"type": "way", "id": 885811661, "nodes": [8236890596, 8236890597, 11383253653, 11383253649, 11383253651, 11383253650, 11383253652, 8236890598, 8236890599, 11383253655, 11383253654, 11383253657, 11383253656, 8236890596], "tags": {"alt_name": "SBAC", "amenity": "bar", "building": "yes", "internet_access": "yes", "internet_access:fee": "customers", "name": "Silver Bow Athletic Club", "opening_hours": "Mo-Su 10:00-02:00", "operator": "Party Palace Bars", "outdoor_seating": "yes", "smoking": "outside", "source": "survey", "wheelchair": "yes"}}, {"type": "way", "id": 886103130, "nodes": [11383253664, 11383253667, 11383253668, 11383253666, 11383253665, 11383253664], "tags": {"amenity": "bar", "building:part": "yes", "name": "McGrath's Tavern", "source": "microsoft/BuildingFootprints"}}, {"type": "way", "id": 1215666367, "nodes": [11263557731, 11263557728, 11263557729, 11263557730, 11263557731], "tags": {"building": "shop", "name": "Propane Fill Station", "shop": "gas"}}, {"type": "way", "id": 1217664551, "nodes": [8261061083, 8261061091, 11282565244, 11284627881, 11284627882, 11282565243, 8261061085, 8261061084, 8261061083], "tags": {"building:part": "office", "name": "Guest Services", "office": "property_management", "ref": "Guest Services"}}, {"type": "way", "id": 1217664552, "nodes": [8261061085, 11282565243, 8261061088, 8261061087, 8261061086, 11282565245, 8261061085], "tags": {"amenity": "restaurant", "building:part": "yes", "name": "Kitchen", "ref": "Kitchen"}}, {"type": "way", "id": 1217664553, "nodes": [8261061091, 11282565244, 8261061089, 8261061090, 8261061091], "tags": {"building:part": "shop", "name": "Guest Laundry", "opening_hours": "Mo-Su 09:00-17:00", "ref": "Guest Laundry", "self_service": "yes", "shop": "laundry", "wheelchair": "yes"}}, {"type": "way", "id": 1227154715, "nodes": [11379580348, 8233132663, 11379580350, 11379580349, 11379580348], "tags": {"addr:city": "Butte", "addr:country": "US", "addr:housenumber": "1317", "addr:postcode": "59701", "addr:state": "MT", "addr:street": "Harrison Avenue", "brand": "Great Clips", "brand:wikidata": "Q5598967", "building:part": "yes", "name": "Great Clips", "shop": "hairdresser"}}, {"type": "way", "id": 1227154717, "nodes": [11379580351, 11379580353, 11379580354, 11379580352, 11379580351], "tags": {"addr:city": "Butte", "addr:country": "US", "addr:housenumber": "1321", "addr:postcode": "59701", "addr:state": "MT", "addr:street": "Harrison Avenue", "building:part": "yes", "name": "Heritage Embroidery and More", "shop": "tailor"}}, {"type": "way", "id": 1227154719, "nodes": [11379580348, 8233132666, 11379580355, 8233132662, 8233132663, 11379580348], "tags": {"addr:city": "Butte", "addr:country": "US", "addr:housenumber": "1315", "addr:postcode": "59701", "addr:state": "MT", "addr:street": "Harrison Avenue", "building:part": "office", "name": "Edward Jones - Financial Advisor", "office": "accountant"}}, {"type": "way", "id": 1227154722, "nodes": [8233132659, 11379580357, 11379580358, 8233132669, 8233132668, 8233132659], "tags": {"addr:city": "Butte", "addr:country": "US", "addr:housenumber": "1303", "addr:postcode": "59701", "addr:state": "MT", "addr:street": "Harrison Avenue", "brand": "Dollar Tree", "brand:wikidata": "Q5289230", "building:part": "yes", "check_date": "2024-07-11", "check_date:opening_hours": "2024-07-11", "name": "Dollar Tree", "opening_hours": "Mo-Sa 08:00-22:00; Su 09:00-21:00", "shop": "variety_store", "source": "microsoft/BuildingFootprints", "website": "https://www.dollartree.com/locations/mt/butte/7916/"}}, {"type": "way", "id": 1227154723, "nodes": [8233132659, 11379580357, 11379580358, 11379580360, 11379580359, 8233132652, 8233132653, 8233132654, 8233132655, 8233132656, 8233132657, 8233132658, 8233132659], "tags": {"addr:city": "Butte", "addr:country": "US", "addr:housenumber": "1301", "addr:postcode": "59701", "addr:state": "MT", "addr:street": "Harrison Avenue", "brand": "True Value", "brand:wikidata": "Q7847545", "building:part": "yes", "name": "True Value", "shop": "doityourself"}}, {"type": "way", "id": 1227154724, "nodes": [8233132672, 8233132652, 11379580359, 11379580360, 8233132670, 8233132671, 8233132672], "tags": {"addr:city": "Butte", "addr:country": "US", "addr:housenumber": "1299", "addr:postcode": "59701", "addr:state": "MT", "addr:street": "Harrison Avenue", "brand": "Family Dollar", "brand:wikidata": "Q5433101", "building:part": "yes", "name": "Family Dollar", "shop": "variety_store"}}, {"type": "way", "id": 1227154725, "nodes": [11379580361, 8233132642, 8233132643, 8233132644, 8233132645, 8233132646, 8233132647, 8233132648, 8233132649, 8233132650, 8233132651, 11379580361], "tags": {"addr:city": "Butte", "addr:country": "US", "addr:housenumber": "1275", "addr:postcode": "59701", "addr:state": "MT", "addr:street": "Harrison Avenue", "brand": "CVS Pharmacy", "brand:website": "https://www.cvs.com/", "brand:wikidata": "Q2078880", "building:part": "yes", "name": "CVS Pharmacy", "shop": "chemist", "short_name": "CVS", "website": "https://www.cvs.com/store-locator/butte-mt-pharmacies/1275-harrison-st-butte-mt-59701/storeid=8627"}}, {"type": "way", "id": 1227154726, "nodes": [11379580362, 8233167934, 8233167935, 11379580363, 11379580362], "tags": {"addr:city": "Butte", "addr:country": "US", "addr:housenumber": "1653", "addr:postcode": "59701", "addr:state": "MT", "addr:street": "Harrison Avenue", "amenity": "bar", "building:part": "yes", "name": "Pair-a-Dice", "source": "microsoft/BuildingFootprints"}}, {"type": "way", "id": 1227161034, "nodes": [11379670178, 8233145249, 8233145250, 11379670179, 11379670178], "tags": {"brand": "Town Pump", "brand:wikidata": "Q7830004", "building:part": "yes", "name": "Town Pump", "shop": "convenience", "source": "microsoft/BuildingFootprints"}}, {"type": "way", "id": 1227532805, "nodes": [11383253667, 11383253664, 8239465023, 8239465024, 11383253667], "tags": {"amenity": "restaurant", "building:part": "yes", "cuisine": "mexican", "name": "Christina's Cocina Cafe", "source": "microsoft/BuildingFootprints"}}, {"type": "way", "id": 1227931242, "nodes": [11386898237, 11386898236, 11386898235, 11386898234, 11386898237], "tags": {"addr:city": "Butte", "addr:country": "US", "addr:housenumber": "1021", "addr:postcode": "59701", "addr:state": "MT", "addr:street": "Continental Drive", "name": "Continental Drive Storage", "shop": "storage_rental"}}, {"type": "way", "id": 1227931243, "nodes": [11386898249, 11386898248, 11386898247, 11386898246, 11386898245, 11386898244, 11386898243, 11386898242, 11386898241, 11386898240, 11386898239, 11386898238, 11386898249], "tags": {"addr:city": "Butte", "addr:country": "US", "addr:housenumber": "1110", "addr:postcode": "59701", "addr:state": "MT", "addr:street": "Hayes Avenue", "name": "Sentry Storage", "shop": "storage_rental"}}, {"type": "way", "id": 1228656851, "nodes": [11394201294, 8233222819, 8233222820, 11394201293, 11394201294], "tags": {"addr:city": "Butte", "addr:country": "US", "addr:housenumber": "1803", "addr:postcode": "59701", "addr:state": "MT", "addr:street": "Harrison Avenue", "brand": "Great Harvest Bread Company", "brand:wikidata": "Q5599297", "building:part": "yes", "name": "Great Harvest Bread Company", "shop": "bakery", "source": "microsoft/BuildingFootprints"}}]}