{"version": 0.6, "generator": "Overpass API 0.7.62.8 e802775f", "osm3s": {"timestamp_osm_base": "2025-12-06T04:39:58Z", "copyright": "The data included in this document is from www.openstreetmap.org. The data is made available under ODbL."}, "elements": [{"type": "node", "id": 12802812800, "lat": 45.6331753, "lon": -108.9182087, "tags": {"clothes": "women", "name": "The Boutique at Mod West Land", "phone": "+1 406 671 5937", "shop": "clothes", "website": "https://shopwildbleuyonder.com/"}}, {"type": "node", "id": 12802875325, "lat": 45.6336257, "lon": -108.9189824, "tags": {"name": "Highway Specialty Equipment", "phone": "+1 406 506 3802", "second_hand": "yes", "shop": "car", "website": "https://h-s-equipment.com/"}}, {"type": "node", "id": 12802875345, "lat": 45.6330018, "lon": -108.9171809, "tags": {"name": "Kwik Stop", "phone": "+1 406 633 2730", "shop": "convenience"}}, {"type": "node", "id": 12802936780, "lat": 45.6341681, "lon": -108.9158828, "tags": {"branch": "Zip Trip", "brand": "Cenex", "brand:wikidata": "Q62127191", "name": "Cenex", "phone": "+1 406 633 2359", "shop": "convenience", "website": "https://www.cenexziptrip.com/"}}, {"type": "node", "id": 12802963077, "lat": 45.632423, "lon": -108.9213595, "tags": {"name": "Brown's Mini Storage", "shop": "storage_rental"}}, {"type": "node", "id": 12803000988, "lat": 45.6324609, "lon": -108.9225178, "tags": {"name": "Rock Solid Excavating Inc", "office": "company", "phone": "+1 406 855-8371"}}, {"type": "node", "id": 12803049658, "lat": 45.6311354, "lon": -108.9153149, "tags": {"name": "Park City School Shop/FFA Building", "shop": "general"}}, {"type": "node", "id": 12803156749, "lat": 45.6313144, "lon": -108.9164727, "tags": {"amenity": "bar", "name": "Pop's Inn", "phone": "+1 406 633 2740"}}, {"type": "node", "id": 12810489385, "lat": 45.631806, "lon": -108.9158125, "tags": {"amenity": "restaurant", "name": "Scotsman Bar And Cafe", "phone": "+1 406 633-4131", "website": "https://www.scotsmanbarandcafe.com/"}}, {"type": "node", "id": 12810489386, "lat": 45.6320209, "lon": -108.9155158}, {"type": "node", "id": 12810489387, "lat": 45.6318747, "lon": -108.9154393}, {"type": "node", "id": 12810489388, "lat": 45.6318503, "lon": -108.9155344}, {"type": "node", "id": 12810489389, "lat": 45.631872, "lon": -108.9155458}, {"type": "node", "id": 12810489390, "lat": 45.6318542, "lon": -108.9156152}, {"type": "node", "id": 12810489391, "lat": 45.6319198, "lon": -108.9156495}, {"type": "node", "id": 12810489392, "lat": 45.6319291, "lon": -108.9156131}, {"type": "node", "id": 12810489393, "lat": 45.6319694, "lon": -108.9156342}, {"type": "node", "id": 12810489394, "lat": 45.6319837, "lon": -108.9155786}, {"type": "node", "id": 12810489395, "lat": 45.6320024, "lon": -108.9155884}, {"type": "way", "id": 1383636131, "nodes": [12810489386, 12810489387, 12810489388, 12810489389, 12810489390, 12810489391, 12810489392, 12810489393, 12810489394, 12810489395, 12810489386], "tags": {"addr:city": "Park City", "addr:housenumber": "11", "addr:postcode": "59063", "addr:state": "MT", "addr:street": "1st Avenue Southeast", "amenity": "restaurant", "building": "yes"}}]}