{"version": 0.6, "generator": "Overpass API 0.7.62.8 e802775f", "osm3s": {"timestamp_osm_base": "2025-12-12T23:18:41Z", "copyright": "The data included in this document is from www.openstreetmap.org. The data is made available under ODbL."}, "elements": [{"type": "node", "id": 5041482965, "lat": 40.0925724, "lon": -105.0032024}, {"type": "node", "id": 5041482966, "lat": 40.0925727, "lon": -105.0030241}, {"type": "node", "id": 5041482967, "lat": 40.0923122, "lon": -105.0030232}, {"type": "node", "id": 5041482968, "lat": 40.0923118, "lon": -105.0032015}, {"type": "node", "id": 6641241547, "lat": 40.0966797, "lon": -105.0018676}, {"type": "node", "id": 6641241548, "lat": 40.0967179, "lon": -105.0018176}, {"type": "node", "id": 6641241549, "lat": 40.096723, "lon": -105.0016711}, {"type": "node", "id": 6641241550, "lat": 40.0967103, "lon": -104.9990763}, {"type": "node", "id": 6641241551, "lat": 40.0966466, "lon": -104.9989731}, {"type": "node", "id": 6641241552, "lat": 40.0949649, "lon": -104.9989897}, {"type": "node", "id": 6641241553, "lat": 40.09497, "lon": -105.0018742}, {"type": "node", "id": 6641241566, "lat": 40.0966085, "lon": -105.0015896}, {"type": "node", "id": 6641241567, "lat": 40.0964333, "lon": -105.0015902}, {"type": "node", "id": 6641241568, "lat": 40.0964325, "lon": -105.0011064}, {"type": "node", "id": 6641241569, "lat": 40.0966076, "lon": -105.0011058}, {"type": "node", "id": 6641266985, "lat": 40.0951163, "lon": -104.9993415}, {"type": "node", "id": 6641266986, "lat": 40.0951174, "lon": -104.9995982}, {"type": "node", "id": 6641266987, "lat": 40.0957325, "lon": -104.9995938}, {"type": "node", "id": 6641266988, "lat": 40.0958487, "lon": -104.9995731}, {"type": "node", "id": 6641266989, "lat": 40.0958115, "lon": -104.9993252}, {"type": "node", "id": 6641266990, "lat": 40.0957268, "lon": -104.9993385}, {"type": "node", "id": 7436864619, "lat": 40.0868065, "lon": -104.9902524}, {"type": "node", "id": 7436864620, "lat": 40.086944, "lon": -104.9902541}, {"type": "node", "id": 7436864621, "lat": 40.0869458, "lon": -104.9899939}, {"type": "node", "id": 7436864622, "lat": 40.0868083, "lon": -104.9899923}, {"type": "node", "id": 7436864623, "lat": 40.0871747, "lon": -104.9903505}, {"type": "node", "id": 7436864624, "lat": 40.087106, "lon": -104.9903506}, {"type": "node", "id": 7436864625, "lat": 40.0871056, "lon": -104.9898631}, {"type": "node", "id": 7436864626, "lat": 40.0871742, "lon": -104.989863}, {"type": "node", "id": 7436864627, "lat": 40.0866943, "lon": -104.9902925}, {"type": "node", "id": 7436864628, "lat": 40.0865399, "lon": -104.9902944}, {"type": "node", "id": 7436864629, "lat": 40.0865394, "lon": -104.9902214}, {"type": "node", "id": 7436864630, "lat": 40.0866937, "lon": -104.9902195}, {"type": "node", "id": 10290334144, "lat": 40.0966814, "lon": -104.9990293}, {"type": "node", "id": 11084651637, "lat": 40.0951168, "lon": -104.9994491}, {"type": "node", "id": 11084651638, "lat": 40.0965672, "lon": -104.9995556}, {"type": "node", "id": 11084651639, "lat": 40.0965432, "lon": -104.9992295}, {"type": "node", "id": 11084651640, "lat": 40.0964825, "lon": -104.9992006}, {"type": "node", "id": 11084651641, "lat": 40.0965054, "lon": -104.9995255}, {"type": "node", "id": 11084659728, "lat": 40.0923843, "lon": -105.0029559}, {"type": "node", "id": 11084659729, "lat": 40.0923824, "lon": -105.0027532}, {"type": "node", "id": 11084659730, "lat": 40.0921522, "lon": -105.0027569}, {"type": "node", "id": 11084659731, "lat": 40.0921541, "lon": -105.0029595}, {"type": "node", "id": 11268346094, "lat": 40.0967739, "lon": -104.998804, "tags": {"amenity": "letter_box", "post:housenumber": "6624"}}, {"type": "node", "id": 11269494576, "lat": 40.0992875, "lon": -104.9989166, "tags": {"amenity": "letter_box"}}, {"type": "node", "id": 11269494577, "lat": 40.099403, "lon": -104.9989119, "tags": {"amenity": "letter_box"}}, {"type": "node", "id": 11269494579, "lat": 40.1019154, "lon": -104.9988951, "tags": {"amenity": "letter_box"}}, {"type": "node", "id": 11831938420, "lat": 40.0884537, "lon": -104.9939848}, {"type": "node", "id": 11831938448, "lat": 40.088452, "lon": -104.9943094}, {"type": "node", "id": 11831938465, "lat": 40.0886449, "lon": -104.994311}, {"type": "node", "id": 11831942277, "lat": 40.0884529, "lon": -104.9941431}, {"type": "node", "id": 11831942283, "lat": 40.0884526, "lon": -104.9941994}, {"type": "node", "id": 11831942290, "lat": 40.0886466, "lon": -104.9939865}, {"type": "node", "id": 11831942295, "lat": 40.088418, "lon": -104.9941428}, {"type": "node", "id": 11831942308, "lat": 40.0884177, "lon": -104.9941991}, {"type": "node", "id": 13320402471, "lat": 40.0923858, "lon": -104.9947239}, {"type": "node", "id": 13320402472, "lat": 40.0924076, "lon": -104.9947146}, {"type": "node", "id": 13320402473, "lat": 40.0924259, "lon": -104.9947385}, {"type": "node", "id": 13320402474, "lat": 40.0924217, "lon": -104.9947732}, {"type": "node", "id": 13320402475, "lat": 40.0923976, "lon": -104.9947824}, {"type": "node", "id": 13320402476, "lat": 40.0923787, "lon": -104.994757}, {"type": "way", "id": 516439974, "nodes": [5041482965, 5041482966, 5041482967, 5041482968, 5041482965], "tags": {"addr:city": "Frederick", "addr:housenumber": "2615", "addr:postcode": "80516", "addr:state": "CO", "addr:street": "Emerald Drive", "amenity": "community_centre", "building": "yes", "source": "esri_USDOT_ColoradoOITGIS"}}, {"type": "way", "id": 706739086, "nodes": [6641241547, 6641241548, 6641241549, 6641241550, 10290334144, 6641241551, 6641241552, 6641241553, 6641241547], "tags": {"addr:city": "Frederick", "addr:housenumber": "6601", "addr:postcode": "80516", "addr:state": "CO", "addr:street": "Aggregate Boulevard", "amenity": "school", "name": "Grand View Elementary School", "operator": "St. Vrain Valley School District", "operator:type": "public", "source": "esri_USDOT_ColoradoOITGIS", "website": "https://gves.svvsd.org/"}}, {"type": "way", "id": 706739089, "nodes": [6641241566, 6641241567, 6641241568, 6641241569, 6641241566], "tags": {"amenity": "parking"}}, {"type": "way", "id": 706739092, "nodes": [6641266985, 11084651637, 6641266986, 6641266987, 6641266988, 6641266989, 6641266990, 6641266985], "tags": {"amenity": "parking"}}, {"type": "way", "id": 795133034, "nodes": [7436864619, 7436864620, 7436864621, 7436864622, 7436864619], "tags": {"addr:city": "Frederick", "addr:housenumber": "3500", "addr:postcode": "80516", "addr:state": "CO", "addr:street": "Highway 52", "air_conditioning": "yes", "brand": "7-Eleven", "brand:wikidata": "Q259340", "building": "yes", "name": "7-Eleven", "opening_hours": "24/7", "phone": "+1-720-245-9929", "shop": "convenience", "source": "esri_USDOT_ColoradoOITGIS", "website": "https://www.7-eleven.com/locations/co/frederick/3500-hwy-52-38638"}}, {"type": "way", "id": 795133035, "nodes": [7436864623, 7436864624, 7436864625, 7436864626, 7436864623], "tags": {"addr:city": "Frederick", "addr:housenumber": "3500", "addr:postcode": "80516", "addr:state": "CO", "addr:street": "State Highway 52", "amenity": "fuel", "brand": "7-Eleven", "brand:wikidata": "Q259340", "building": "roof", "fuel:gasoline": "yes", "name": "7-Eleven", "opening_hours": "24/7", "phone": "+1-720-245-9929", "self_service": "yes", "website": "https://www.7-eleven.com/locations/co/frederick/3500-hwy-52-38638"}}, {"type": "way", "id": 795133036, "nodes": [7436864627, 7436864628, 7436864629, 7436864630, 7436864627], "tags": {"addr:city": "Frederick", "addr:housenumber": "3500", "addr:postcode": "80516", "addr:state": "CO", "addr:street": "State Highway 52", "amenity": "fuel", "brand": "7-Eleven", "brand:wikidata": "Q259340", "building": "roof", "fuel:diesel": "yes", "hgv": "designated", "name": "7-Eleven", "opening_hours": "24/7", "phone": "+1-720-245-9929", "self_service": "yes", "website": "https://www.7-eleven.com/locations/co/frederick/3500-hwy-52-38638"}}, {"type": "way", "id": 1194150716, "nodes": [11084651638, 11084651639, 11084651640, 11084651641, 11084651638], "tags": {"amenity": "parking"}}, {"type": "way", "id": 1194150731, "nodes": [11084659728, 11084659729, 11084659730, 11084659731, 11084659728], "tags": {"amenity": "parking"}}, {"type": "way", "id": 1274290881, "nodes": [11831942290, 11831938465, 11831938448, 11831942283, 11831942308, 11831942295, 11831942277, 11831938420, 11831942290], "tags": {"addr:city": "Frederick", "addr:housenumber": "6060", "addr:postcode": "80516", "addr:state": "CO", "addr:street": "Puritan Lane", "amenity": "place_of_worship", "building": "yes", "denomination": "romanian_orthodox", "name": "Saint Dimitrie the New Orthodox Church", "religion": "christian", "source": "esri_USDOT_ColoradoOITGIS;microsoft/BuildingFootprints", "website": "https://sfdimitrie.org/"}}, {"type": "way", "id": 1452488927, "nodes": [13320402471, 13320402472, 13320402473, 13320402474, 13320402475, 13320402476, 13320402471], "tags": {"amenity": "shelter", "building": "yes", "shelter_type": "picnic_shelter"}}]}