{"version": 0.6, "generator": "Overpass API 0.7.62.8 e802775f", "osm3s": {"timestamp_osm_base": "2025-12-06T04:32:44Z", "copyright": "The data included in this document is from www.openstreetmap.org. The data is made available under ODbL."}, "elements": [{"type": "node", "id": 1769182715, "lat": 45.6699362, "lon": -111.1848588, "tags": {"amenity": "cafe", "cuisine": "steak;breakfast", "name": "Kountry Korner Cafe", "phone": "+1 406-586-2281"}}, {"type": "node", "id": 1769182761, "lat": 45.6705771, "lon": -111.184707, "tags": {"name": "Thriftway", "shop": "convenience"}}, {"type": "node", "id": 1769182779, "lat": 45.6707072, "lon": -111.1865391, "tags": {"name": "Casey's Corner", "shop": "convenience"}}, {"type": "node", "id": 1769182805, "lat": 45.6717504, "lon": -111.1866753, "tags": {"name": "Town Pump", "shop": "convenience"}}, {"type": "node", "id": 6988737465, "lat": 45.6718507, "lon": -111.1828626, "tags": {"addr:city": "Bozeman", "addr:housenumber": "7710", "addr:postcode": "59718", "addr:state": "MT", "addr:street": "Shedhorn Drive", "addr:unit": "#1", "amenity": "restaurant", "cuisine": "mexican;tacos;burrito", "name": "Taco del Sol"}}, {"type": "node", "id": 8519363851, "lat": 45.6715561, "lon": -111.184928, "tags": {"amenity": "bar", "name": "Korner Klub Bar"}}, {"type": "node", "id": 8519363852, "lat": 45.6714158, "lon": -111.1852213, "tags": {"amenity": "cafe", "name": "Espresso To Go"}}, {"type": "node", "id": 8519386579, "lat": 45.6717348, "lon": -111.1871663, "tags": {"name": "Summit All Terrain Rentals", "shop": "rental"}}, {"type": "node", "id": 8519386595, "lat": 45.6722158, "lon": -111.1841535, "tags": {"name": "Rent For Less", "shop": "rental"}}, {"type": "node", "id": 8519386596, "lat": 45.6716604, "lon": -111.1823301, "tags": {"name": "Aether Tattoo Club", "shop": "tattoo"}}, {"type": "node", "id": 8519386597, "lat": 45.6720705, "lon": -111.1826206, "tags": {"name": "Bozeman Transmission", "shop": "car_repair"}}, {"type": "node", "id": 8519386604, "lat": 45.6734407, "lon": -111.1840341, "tags": {"name": "Greener Pastures", "shop": "cannabis"}}, {"type": "node", "id": 8519386614, "lat": 45.67325, "lon": -111.1850026, "tags": {"name": "Invisible Fence of the Big Sky", "office": "yes"}}, {"type": "node", "id": 8519386615, "lat": 45.6735596, "lon": -111.1849615, "tags": {"name": "Bozeman Dog Co.", "shop": "pet"}}, {"type": "node", "id": 8519386616, "lat": 45.6738898, "lon": -111.1852227, "tags": {"name": "Lang Automotive", "shop": "car_repair"}}, {"type": "node", "id": 8519386617, "lat": 45.6741871, "lon": -111.185117, "tags": {"name": "Bridger Analytical Lab, Inc.", "office": "yes"}}, {"type": "node", "id": 8519386618, "lat": 45.6745849, "lon": -111.1850436, "tags": {"name": "Home Interiors Outlet", "shop": "houseware"}}, {"type": "node", "id": 8519386619, "lat": 45.6745972, "lon": -111.1841427, "tags": {"name": "Hands On Inc. Screenprinting", "shop": "copyshop"}}, {"type": "node", "id": 8519386620, "lat": 45.6741543, "lon": -111.184081, "tags": {"name": "Bridger Kitchens", "shop": "houseware"}}, {"type": "node", "id": 8519386630, "lat": 45.6717352, "lon": -111.1877948, "tags": {"name": "Tire World", "shop": "tyres"}}, {"type": "node", "id": 8519386634, "lat": 45.6716675, "lon": -111.188751, "tags": {"addr:city": "Bozeman", "addr:housenumber": "28901", "addr:postcode": "59718", "addr:state": "MT", "addr:street": "Norris Road", "amenity": "restaurant", "cuisine": "pizza", "name": "The Buck", "phone": "+1 406-522-9555", "website": "https://thebuckbozeman.com/"}}, {"type": "node", "id": 8519386635, "lat": 45.6723155, "lon": -111.1872519, "tags": {"name": "Dark Horse Customs, LLC", "shop": "car_repair"}}, {"type": "node", "id": 8519386816, "lat": 45.6704297, "lon": -111.186504, "tags": {"name": "Mama Mac's", "shop": "bakery"}}, {"type": "node", "id": 8519386818, "lat": 45.6701318, "lon": -111.186127, "tags": {"name": "Yellow Dog Flyfishing", "shop": "fishing"}}, {"type": "node", "id": 8519386819, "lat": 45.6701097, "lon": -111.1865626, "tags": {"name": "Ceramica Stone Tile and Design", "shop": "flooring"}}, {"type": "node", "id": 8519386820, "lat": 45.6701113, "lon": -111.1870003, "tags": {"name": "Montana Expressions", "shop": "furniture"}}, {"type": "node", "id": 8519386934, "lat": 45.6706889, "lon": -111.1890156, "tags": {"name": "Summit Motor Sports", "shop": "outdoor"}}, {"type": "node", "id": 8519386965, "lat": 45.669264, "lon": -111.1896225, "tags": {"name": "Hair By Annie", "shop": "hairdresser"}}, {"type": "node", "id": 8519414966, "lat": 45.6732253, "lon": -111.1897416, "tags": {"name": "Montana Opticom", "office": "telecommunication"}}, {"type": "node", "id": 8519414968, "lat": 45.6741948, "lon": -111.1890039, "tags": {"name": "Rusty Nail Design", "shop": "furniture"}}, {"type": "node", "id": 8519414971, "lat": 45.6721515, "lon": -111.1897434, "tags": {"name": "Bozeman Auto Body", "shop": "car_repair"}}, {"type": "node", "id": 8519414972, "lat": 45.6717218, "lon": -111.1913366, "tags": {"name": "The Auto Works", "shop": "car_repair"}}, {"type": "node", "id": 8519414997, "lat": 45.6762344, "lon": -111.1890955, "tags": {"name": "Cardinal Distributing Co", "shop": "wholesale"}}, {"type": "node", "id": 8519415082, "lat": 45.6748528, "lon": -111.1940168, "tags": {"name": "Montana Hunting Company", "office": "yes"}}, {"type": "node", "id": 8519438547, "lat": 45.6770475, "lon": -111.1866545, "tags": {"amenity": "restaurant", "cuisine": "mexican", "name": "MR Burritos"}}, {"type": "node", "id": 8519438548, "lat": 45.6768675, "lon": -111.1866677, "tags": {"name": "Bridger Animal Nutrition West", "shop": "pet"}}, {"type": "node", "id": 8519438557, "lat": 45.6767279, "lon": -111.1849259, "tags": {"name": "Yellowstone Motorsports", "shop": "outdoor"}}, {"type": "node", "id": 8519438558, "lat": 45.6770207, "lon": -111.1847227, "tags": {"brand": "Sherwin-Williams", "brand:wikidata": "Q48881", "name": "Sherwin-Williams", "shop": "paint"}}, {"type": "node", "id": 8519438559, "lat": 45.6771894, "lon": -111.1836387, "tags": {"name": "Mountain West Holding Co", "office": "yes"}}, {"type": "node", "id": 8519438561, "lat": 45.6792138, "lon": -111.1868588, "tags": {"name": "The River's Edge West", "shop": "fishing"}}, {"type": "node", "id": 8519438568, "lat": 45.6790823, "lon": -111.1873666, "tags": {"name": "On the Rise Bread", "shop": "bakery"}}, {"type": "node", "id": 8519438569, "lat": 45.6790867, "lon": -111.1878109, "tags": {"name": "Cloud Nine Cycles", "shop": "motorcycle_repair"}}, {"type": "node", "id": 8519438574, "lat": 45.6781749, "lon": -111.1887585, "tags": {"name": "Kenetrek Boots", "shop": "outdoor"}}, {"type": "node", "id": 8519438575, "lat": 45.6777159, "lon": -111.1887212, "tags": {"name": "Electrical Wholesale Supply Co", "shop": "electronics"}}, {"type": "node", "id": 8519438577, "lat": 45.6783149, "lon": -111.1900023, "tags": {"name": "BALCO Uniform Co.", "shop": "clothes"}}, {"type": "node", "id": 8519438593, "lat": 45.668843, "lon": -111.1848546, "tags": {"name": "4 Corners Pawn & Jewelry", "shop": "pawnbroker"}}, {"type": "node", "id": 8519438594, "lat": 45.6684044, "lon": -111.1850034, "tags": {"name": "Twice Treasured Thrift", "second_hand": "only", "shop": "clothes"}}, {"type": "node", "id": 8519438595, "lat": 45.6686048, "lon": -111.1852721, "tags": {"amenity": "cafe", "name": "City Brew Coffee"}}, {"type": "node", "id": 8519438641, "lat": 45.6676668, "lon": -111.1850923, "tags": {"name": "Big Bear Furniture", "shop": "furniture"}}, {"type": "node", "id": 8519438642, "lat": 45.6694969, "lon": -111.18501, "tags": {"addr:city": "Bozeman", "addr:housenumber": "81720", "addr:postcode": "59718", "addr:state": "MT", "addr:street": "Gallatin Road", "name": "Four Corners Saddlery & Boutique", "shop": "fishing"}}, {"type": "node", "id": 8519441115, "lat": 45.6688025, "lon": -111.1909901, "tags": {"name": "Effective Discreet Caregiving", "shop": "cannabis"}}, {"type": "node", "id": 8519441116, "lat": 45.6694559, "lon": -111.1901916, "tags": {"name": "Think Higher Caregiving", "shop": "cannabis"}}, {"type": "node", "id": 8519464818, "lat": 45.6687967, "lon": -111.1914774, "tags": {"name": "NorthStar Cannabis", "shop": "cannabis"}}, {"type": "node", "id": 8519464819, "lat": 45.6685375, "lon": -111.192251, "tags": {"name": "Coldwater Classics", "shop": "car_repair"}}, {"type": "node", "id": 8519464853, "lat": 45.6686868, "lon": -111.195211, "tags": {"name": "Big Sky Collision Center", "shop": "car_repair"}}, {"type": "node", "id": 8519465053, "lat": 45.6671034, "lon": -111.1938344, "tags": {"name": "Concrete Accessories & Rental", "office": "yes"}}, {"type": "node", "id": 8519465055, "lat": 45.666983, "lon": -111.1887029, "tags": {"name": "Big Sky Diesel Performance and Repair", "shop": "car_repair"}}, {"type": "node", "id": 8519465056, "lat": 45.6707841, "lon": -111.1962051, "tags": {"name": "Big Boys Toys", "shop": "rental"}}, {"type": "node", "id": 8519465173, "lat": 45.6701688, "lon": -111.1994351, "tags": {"name": "Four Corners Self Storage", "shop": "storage_rental"}}, {"type": "node", "id": 8519465174, "lat": 45.6707235, "lon": -111.1998221, "tags": {"name": "Mars of Bozeman", "shop": "car_repair"}}, {"type": "node", "id": 8519545613, "lat": 45.6779406, "lon": -111.2000534}, {"type": "node", "id": 8519545614, "lat": 45.6779161, "lon": -111.2000883}, {"type": "node", "id": 8519545615, "lat": 45.6778773, "lon": -111.2000326}, {"type": "node", "id": 8519545616, "lat": 45.6779543, "lon": -111.1999229}, {"type": "node", "id": 8519545617, "lat": 45.6778289, "lon": -111.1997425}, {"type": "node", "id": 8519545618, "lat": 45.6779272, "lon": -111.1996023}, {"type": "node", "id": 8519545619, "lat": 45.677839, "lon": -111.1994755}, {"type": "node", "id": 8519545620, "lat": 45.6779888, "lon": -111.199262}, {"type": "node", "id": 8519545621, "lat": 45.6780805, "lon": -111.1993937}, {"type": "node", "id": 8519545622, "lat": 45.678194, "lon": -111.1992318}, {"type": "node", "id": 8519545623, "lat": 45.6782728, "lon": -111.199345}, {"type": "node", "id": 8519545624, "lat": 45.6782802, "lon": -111.1993344}, {"type": "node", "id": 8519545625, "lat": 45.6781014, "lon": -111.1990806}, {"type": "node", "id": 8519545626, "lat": 45.6782549, "lon": -111.1988592}, {"type": "node", "id": 8519545627, "lat": 45.6783415, "lon": -111.1989822}, {"type": "node", "id": 8519545628, "lat": 45.6784481, "lon": -111.1988282}, {"type": "node", "id": 8519545629, "lat": 45.6785662, "lon": -111.1989957}, {"type": "node", "id": 8519545630, "lat": 45.6786277, "lon": -111.1989067}, {"type": "node", "id": 8519545631, "lat": 45.6786937, "lon": -111.1990002}, {"type": "node", "id": 8519545632, "lat": 45.6786647, "lon": -111.1990423}, {"type": "node", "id": 8519545633, "lat": 45.6787555, "lon": -111.1991707}, {"type": "node", "id": 8519545634, "lat": 45.6786996, "lon": -111.1992517}, {"type": "node", "id": 8519545635, "lat": 45.6787227, "lon": -111.1992843}, {"type": "node", "id": 8519545636, "lat": 45.6786518, "lon": -111.1993873}, {"type": "node", "id": 8519545637, "lat": 45.6786268, "lon": -111.199352}, {"type": "node", "id": 8519545638, "lat": 45.6785944, "lon": -111.1993991}, {"type": "node", "id": 8519545639, "lat": 45.6786151, "lon": -111.1994282}, {"type": "node", "id": 8519545640, "lat": 45.67859, "lon": -111.1994648}, {"type": "node", "id": 8519545641, "lat": 45.6786053, "lon": -111.1994863}, {"type": "node", "id": 8519545642, "lat": 45.6785334, "lon": -111.199591}, {"type": "node", "id": 8519545643, "lat": 45.6785122, "lon": -111.1995611}, {"type": "node", "id": 8519545644, "lat": 45.6784574, "lon": -111.199641}, {"type": "node", "id": 8519545645, "lat": 45.6785979, "lon": -111.1998385}, {"type": "node", "id": 8519545646, "lat": 45.6785409, "lon": -111.1999217}, {"type": "node", "id": 8519545647, "lat": 45.6784261, "lon": -111.1997603}, {"type": "node", "id": 8519545648, "lat": 45.6783748, "lon": -111.1998352}, {"type": "node", "id": 8519545649, "lat": 45.6783377, "lon": -111.199783}, {"type": "node", "id": 8519545650, "lat": 45.6783208, "lon": -111.1998074}, {"type": "node", "id": 8519545651, "lat": 45.6783347, "lon": -111.199827}, {"type": "node", "id": 8519545652, "lat": 45.678304, "lon": -111.1998714}, {"type": "node", "id": 8519545653, "lat": 45.6783165, "lon": -111.199889}, {"type": "node", "id": 8519545654, "lat": 45.6782644, "lon": -111.1999641}, {"type": "node", "id": 8519545655, "lat": 45.6782453, "lon": -111.1999369}, {"type": "node", "id": 8519545656, "lat": 45.6782173, "lon": -111.1999772}, {"type": "node", "id": 8519545657, "lat": 45.6781954, "lon": -111.199946}, {"type": "node", "id": 8519545658, "lat": 45.6781362, "lon": -111.2000307}, {"type": "node", "id": 8519545659, "lat": 45.6781604, "lon": -111.2000653}, {"type": "node", "id": 8519545660, "lat": 45.6781043, "lon": -111.2001455}, {"type": "node", "id": 8519545661, "lat": 45.678081, "lon": -111.2001121}, {"type": "node", "id": 8519545662, "lat": 45.6785061, "lon": -111.1998727}, {"type": "node", "id": 8519545663, "lat": 45.6785608, "lon": -111.1997863}, {"type": "node", "id": 8519545665, "lat": 45.6780311, "lon": -111.2001833}, {"type": "node", "id": 8519570045, "lat": 45.6798465, "lon": -111.2003342}, {"type": "node", "id": 8519570046, "lat": 45.6798784, "lon": -111.2002258}, {"type": "node", "id": 8519570047, "lat": 45.6795156, "lon": -111.200007}, {"type": "node", "id": 8519570048, "lat": 45.6797148, "lon": -111.1993304}, {"type": "node", "id": 8519570049, "lat": 45.6798339, "lon": -111.1994022}, {"type": "node", "id": 8519570050, "lat": 45.6797203, "lon": -111.1997878}, {"type": "node", "id": 8519570051, "lat": 45.6797874, "lon": -111.1998283}, {"type": "node", "id": 8519570052, "lat": 45.6797539, "lon": -111.199942}, {"type": "node", "id": 8519570053, "lat": 45.6799268, "lon": -111.2000463}, {"type": "node", "id": 8519570054, "lat": 45.6798789, "lon": -111.2002088}, {"type": "node", "id": 8519570055, "lat": 45.6801008, "lon": -111.2003428}, {"type": "node", "id": 8519570064, "lat": 45.6800646, "lon": -111.2004658}, {"type": "node", "id": 8519593780, "lat": 45.679246, "lon": -111.1846029, "tags": {"name": "Gallatin Recreation", "shop": "outdoor"}}, {"type": "node", "id": 8519593781, "lat": 45.6783109, "lon": -111.1833687, "tags": {"name": "Sky Landis Furniture Design Studio", "shop": "furniture"}}, {"type": "node", "id": 8519593782, "lat": 45.678717, "lon": -111.1833008, "tags": {"name": "Dark Horse Outfitters", "shop": "car_parts"}}, {"type": "node", "id": 8519593783, "lat": 45.6791261, "lon": -111.183199, "tags": {"name": "Wild Sheep Foundation", "office": "yes"}}, {"type": "node", "id": 8519601217, "lat": 45.6804802, "lon": -111.1845785, "tags": {"brand": "NAPA Auto Parts", "brand:wikidata": "Q6970842", "name": "NAPA Auto Parts", "shop": "car_parts"}}, {"type": "node", "id": 8519601231, "lat": 45.6804032, "lon": -111.1814647, "tags": {"name": "My Storage", "shop": "storage_rental"}}, {"type": "node", "id": 8519601232, "lat": 45.6813488, "lon": -111.1832147, "tags": {"name": "AquaSystems of Southwest Montana", "office": "yes"}}, {"type": "node", "id": 8519630229, "lat": 45.6832124, "lon": -111.184669, "tags": {"name": "Murdoch's Ranch & Home Supply", "shop": "department_store"}}, {"type": "node", "id": 8523051159, "lat": 45.7005524, "lon": -111.1876377, "tags": {"name": "Big Sky Archery", "shop": "sports"}}, {"type": "node", "id": 10652727394, "lat": 45.6669872, "lon": -111.1890249, "tags": {"name": "Peace of Mind Home Inspections", "office": "yes"}}, {"type": "node", "id": 10652727395, "lat": 45.6673501, "lon": -111.1902269, "tags": {"name": "AMBIANCE", "office": "yes"}}, {"type": "node", "id": 10652727398, "lat": 45.6684498, "lon": -111.1901847, "tags": {"name": "TM Sales, Inc.", "office": "company"}}, {"type": "node", "id": 10652727399, "lat": 45.6686241, "lon": -111.1906382, "tags": {"name": "Last Best Cannabis", "shop": "cannabis"}}, {"type": "node", "id": 10652727400, "lat": 45.6688434, "lon": -111.1906531, "tags": {"name": "Treasure Tree Weed Dispensary", "shop": "cannabis"}}, {"type": "node", "id": 10652727401, "lat": 45.6684361, "lon": -111.191035, "tags": {"name": "New Roots MT", "shop": "cannabis"}}, {"type": "node", "id": 10652727402, "lat": 45.6688216, "lon": -111.192204, "tags": {"name": "Tikka Shooters", "shop": "weapons"}}, {"type": "node", "id": 10652727403, "lat": 45.6686894, "lon": -111.1922057, "tags": {"name": "Mountain Tactical Company", "shop": "weapons"}}, {"type": "node", "id": 10652727404, "lat": 45.6684097, "lon": -111.1930841, "tags": {"name": "Epic Automotive", "shop": "car_repair"}}, {"type": "node", "id": 10652727405, "lat": 45.66881, "lon": -111.1925959, "tags": {"name": "Bozeman Road Rescue", "shop": "car_repair"}}, {"type": "node", "id": 10652727406, "lat": 45.66881, "lon": -111.1928251, "tags": {"name": "Contract Design Associates", "shop": "furniture"}}, {"type": "node", "id": 10652727409, "lat": 45.669519, "lon": -111.1906242, "tags": {"name": "In the Trees Industries", "shop": "cannabis"}}, {"type": "node", "id": 10652727410, "lat": 45.6692359, "lon": -111.1908915, "tags": {"name": "Quality Foods Distributing", "shop": "trade"}}, {"type": "node", "id": 10652727411, "lat": 45.6695877, "lon": -111.1929328, "tags": {"name": "Bridger Garage Door Company", "shop": "doityourself"}}, {"type": "node", "id": 10652727412, "lat": 45.6694146, "lon": -111.1936314, "tags": {"name": "Jensen's Executive Detail Services", "shop": "car_repair"}}, {"type": "node", "id": 10652727413, "lat": 45.6694088, "lon": -111.1941333, "tags": {"name": "Operation Green", "shop": "cannabis"}}, {"type": "node", "id": 10652727414, "lat": 45.6696641, "lon": -111.1941416, "tags": {"name": "Euphoria Wellness", "shop": "cannabis"}}, {"type": "node", "id": 10652727415, "lat": 45.6692347, "lon": -111.1941333, "tags": {"name": "SupHerb Wellness. Cannabis Store", "shop": "cannabis"}}, {"type": "node", "id": 10652727416, "lat": 45.6694041, "lon": -111.1946082, "tags": {"name": "Sacred Sun Farms", "shop": "cannabis"}}, {"type": "node", "id": 10652727417, "lat": 45.669266, "lon": -111.1954169, "tags": {"name": "Double Dogs Four Corners", "shop": "cannabis"}}, {"type": "node", "id": 10652727418, "lat": 45.667634, "lon": -111.1955, "tags": {"name": "Amanda Jewel Floral + Design", "shop": "florist"}}, {"type": "node", "id": 10652727419, "lat": 45.6678017, "lon": -111.1948779, "tags": {"name": "Supply Squad", "office": "yes"}}, {"type": "node", "id": 10652727420, "lat": 45.6677151, "lon": -111.1948885, "tags": {"name": "Simply Office Supplies", "shop": "furniture"}}, {"type": "node", "id": 10652727421, "lat": 45.667203, "lon": -111.1965386, "tags": {"name": "Pond Doctor", "shop": "outdoor"}}, {"type": "node", "id": 10652727423, "lat": 45.6669583, "lon": -111.1926775, "tags": {"name": "Lucky Dog Cannabis", "shop": "cannabis"}}, {"type": "node", "id": 10652727424, "lat": 45.6673415, "lon": -111.1926616, "tags": {"name": "Nature's Roots", "shop": "cannabis"}}, {"type": "node", "id": 10652727425, "lat": 45.6716928, "lon": -111.1844967, "tags": {"name": "Bloom Marijuana Dispensary Four Corners", "shop": "cannabis"}}, {"type": "node", "id": 10652727427, "lat": 45.6717978, "lon": -111.1839116, "tags": {"amenity": "cafe", "name": "Mazevo Coffee"}}, {"type": "node", "id": 10652727428, "lat": 45.6715608, "lon": -111.1823447, "tags": {"name": "Vapin' Heaven", "shop": "e-cigarette"}}, {"type": "node", "id": 10652727429, "lat": 45.6722222, "lon": -111.1839587, "tags": {"name": "Bridger Glassworks", "shop": "doityourself"}}, {"type": "node", "id": 10652727430, "lat": 45.6722222, "lon": -111.1835618, "tags": {"name": "Wild West Wellness", "shop": "cannabis"}}, {"type": "node", "id": 10652727431, "lat": 45.6723023, "lon": -111.1826917, "tags": {"brand": "Rodda Paint", "brand:wikidata": "Q7356461", "name": "Rodda Paint Co.", "shop": "paint"}}, {"type": "node", "id": 10652727433, "lat": 45.6725997, "lon": -111.1845738, "tags": {"name": "Black Timber Furniture Company", "shop": "furniture"}}, {"type": "node", "id": 10652727440, "lat": 45.6739448, "lon": -111.1826364, "tags": {"name": "Sound Pro", "shop": "hifi"}}, {"type": "node", "id": 10652727442, "lat": 45.6758002, "lon": -111.1846992, "tags": {"name": "Blackfoot Communications", "office": "telecommunication"}}, {"type": "node", "id": 10652727443, "lat": 45.6766198, "lon": -111.1833496, "tags": {"name": "Star West Satellite Inc", "office": "telecommunication"}}, {"type": "node", "id": 10652727444, "lat": 45.6784634, "lon": -111.1845858, "tags": {"brand": "North Coast", "brand:wikidata": "Q109832848", "name": "North Coast", "shop": "trade", "trade": "building_supplies"}}, {"type": "node", "id": 10652727445, "lat": 45.6794376, "lon": -111.1833575, "tags": {"name": "Enterprise Admin. Group 63", "office": "company"}}, {"type": "node", "id": 10652727450, "lat": 45.6751754, "lon": -111.1892105, "tags": {"name": "Blitz Motor Sports", "shop": "sports"}}, {"type": "node", "id": 10652727452, "lat": 45.6730501, "lon": -111.1877031, "tags": {"name": "Dayspring Restoration of Bozeman", "shop": "repair"}}, {"type": "node", "id": 10652727454, "lat": 45.6716126, "lon": -111.1898247, "tags": {"name": "CED Bozeman", "shop": "electrical"}}, {"type": "node", "id": 10652727455, "lat": 45.6742514, "lon": -111.1912302, "tags": {"name": "Big Sky Bravery", "office": "association"}}, {"type": "node", "id": 10652727456, "lat": 45.6746225, "lon": -111.1911122, "tags": {"name": "Peak Skis", "shop": "sports"}}, {"type": "node", "id": 10652727459, "lat": 45.6773736, "lon": -111.1909743, "tags": {"name": "Four Corners Water & Sewer District", "office": "government"}}, {"type": "node", "id": 10652727460, "lat": 45.6785836, "lon": -111.1900668, "tags": {"name": "Urbani Fisheries", "shop": "outdoor"}}, {"type": "node", "id": 10652727461, "lat": 45.6786497, "lon": -111.1897357, "tags": {"name": "Miller Recreational Development", "office": "yes"}}, {"type": "node", "id": 10652727466, "lat": 45.6741128, "lon": -111.1954528, "tags": {"name": "Klasson Fine Art Services", "office": "consulting"}}, {"type": "node", "id": 10652727467, "lat": 45.673588, "lon": -111.1925399, "tags": {"name": "Rocky Mountain Sewing", "shop": "sewing"}}, {"type": "node", "id": 10652727468, "lat": 45.6735168, "lon": -111.1925775, "tags": {"name": "Oasis Grooming", "shop": "pet_grooming"}}, {"type": "node", "id": 10652727469, "lat": 45.6735974, "lon": -111.1920303, "tags": {"name": "M1 Logistics", "shop": "wholesale"}}, {"type": "node", "id": 10652727470, "lat": 45.6731682, "lon": -111.19221, "tags": {"name": "Gallatin Event Rental", "shop": "rental"}}, {"type": "node", "id": 10652727472, "lat": 45.6734643, "lon": -111.1936691, "tags": {"name": "Larsen Offroad", "shop": "car_parts"}}, {"type": "node", "id": 10652727473, "lat": 45.6732919, "lon": -111.1938676, "tags": {"name": "Avalanche Auto Repair", "shop": "car_repair"}}, {"type": "node", "id": 10652727474, "lat": 45.6734363, "lon": -111.1944068, "tags": {"name": "Paradigm Contractors", "office": "yes"}}, {"type": "node", "id": 10652727476, "lat": 45.6733932, "lon": -111.1954743, "tags": {"name": "B. Schmidt Construction", "office": "company"}}, {"type": "node", "id": 10652727477, "lat": 45.6728703, "lon": -111.1952919, "tags": {"name": "Energisystems", "office": "yes"}}, {"type": "node", "id": 10652727478, "lat": 45.6726903, "lon": -111.1942325, "tags": {"name": "Westbred", "shop": "agrarian"}}, {"type": "node", "id": 10652727479, "lat": 45.6721862, "lon": -111.1948842, "tags": {"name": "Blind Guy of Bozeman", "shop": "curtain"}}, {"type": "node", "id": 10652727480, "lat": 45.6719425, "lon": -111.1942512, "tags": {"name": "Radick & Company", "office": "yes"}}, {"type": "node", "id": 10652727482, "lat": 45.6716801, "lon": -111.1926956, "tags": {"name": "MaCon Supply Inc", "office": "yes"}}, {"type": "node", "id": 10652727483, "lat": 45.6723211, "lon": -111.1926956, "tags": {"name": "Ashley Furniture Warehouse", "shop": "wholesale"}}, {"type": "node", "id": 10652769327, "lat": 45.6662048, "lon": -111.1861833, "tags": {"name": "710 Montana", "shop": "cannabis"}}, {"type": "node", "id": 10652769328, "lat": 45.6661935, "lon": -111.1866741, "tags": {"name": "Big Sky Buds", "shop": "cannabis"}}, {"type": "node", "id": 10652769329, "lat": 45.6660904, "lon": -111.1866634, "tags": {"name": "Rocky Mountain Hat Co", "shop": "fashion_accessories"}}, {"type": "node", "id": 10652769331, "lat": 45.6658486, "lon": -111.1867063, "tags": {"name": "Aesthetic Detailing", "shop": "car_repair"}}, {"type": "node", "id": 10652769332, "lat": 45.6654119, "lon": -111.1878141, "tags": {"name": "Ro Drift Boats", "shop": "boat"}}, {"type": "node", "id": 10652769333, "lat": 45.6654138, "lon": -111.1886697, "tags": {"name": "B & L Quality Repair", "shop": "car_repair"}}, {"type": "node", "id": 10652769334, "lat": 45.6654119, "lon": -111.1892866, "tags": {"name": "Pampered Pets Petcare Company", "shop": "pet_grooming"}}, {"type": "node", "id": 10652769343, "lat": 45.663933, "lon": -111.1910839, "tags": {"name": "City Department of Environment", "office": "government"}}, {"type": "node", "id": 10652769356, "lat": 45.6631207, "lon": -111.1862856, "tags": {"name": "Arctic Spas Bozeman", "shop": "swimming_pool"}}, {"type": "node", "id": 10652769357, "lat": 45.6627398, "lon": -111.1866559, "tags": {"name": "Revive Salon & Spa", "shop": "beauty"}}, {"type": "node", "id": 10652769358, "lat": 45.6625861, "lon": -111.1867015, "tags": {"name": "Connoisseur Pharms", "shop": "cannabis"}}, {"type": "way", "id": 917248920, "nodes": [8519545665, 8519545613, 8519545614, 8519545615, 8519545616, 8519545617, 8519545618, 8519545619, 8519545620, 8519545621, 8519545622, 8519545623, 8519545624, 8519545625, 8519545626, 8519545627, 8519545628, 8519545629, 8519545630, 8519545631, 8519545632, 8519545633, 8519545634, 8519545635, 8519545636, 8519545637, 8519545638, 8519545639, 8519545640, 8519545641, 8519545642, 8519545643, 8519545644, 8519545663, 8519545645, 8519545646, 8519545662, 8519545647, 8519545648, 8519545649, 8519545650, 8519545651, 8519545652, 8519545653, 8519545654, 8519545655, 8519545656, 8519545657, 8519545658, 8519545659, 8519545660, 8519545661, 8519545665], "tags": {"building": "office", "building:levels": "3", "name": "Zoot Enterprises", "office": "yes"}}, {"type": "way", "id": 917251719, "nodes": [8519570064, 8519570045, 8519570046, 8519570047, 8519570048, 8519570049, 8519570050, 8519570051, 8519570052, 8519570053, 8519570054, 8519570055, 8519570064], "tags": {"building": "yes", "name": "Wildfire Defense Systems", "office": "yes"}}]}