{"version": 0.6, "generator": "Overpass API 0.7.62.8 e802775f", "osm3s": {"timestamp_osm_base": "2025-12-06T05:15:53Z", "copyright": "The data included in this document is from www.openstreetmap.org. The data is made available under ODbL."}, "elements": [{"type": "node", "id": 5487724837, "lat": 43.6583144, "lon": -116.2616855}, {"type": "node", "id": 5487724866, "lat": 43.6582577, "lon": -116.262167}, {"type": "node", "id": 5487724894, "lat": 43.6584615, "lon": -116.2619522}, {"type": "node", "id": 5487724920, "lat": 43.6581106, "lon": -116.2619003}, {"type": "node", "id": 6247480155, "lat": 43.6646471, "lon": -116.2776511}, {"type": "node", "id": 6247480156, "lat": 43.6646461, "lon": -116.2779384}, {"type": "node", "id": 6247480166, "lat": 43.6646194, "lon": -116.2779208}, {"type": "node", "id": 6247480167, "lat": 43.6645083, "lon": -116.2779201}, {"type": "node", "id": 6247480168, "lat": 43.6645081, "lon": -116.2779628}, {"type": "node", "id": 6247480169, "lat": 43.6642633, "lon": -116.2779612}, {"type": "node", "id": 6247480170, "lat": 43.6642634, "lon": -116.2779181}, {"type": "node", "id": 6247480171, "lat": 43.6640958, "lon": -116.2779172}, {"type": "node", "id": 6247480172, "lat": 43.6640958, "lon": -116.2779319}, {"type": "node", "id": 6247480173, "lat": 43.6640673, "lon": -116.2779318}, {"type": "node", "id": 6247480174, "lat": 43.6640673, "lon": -116.2778603}, {"type": "node", "id": 6247480175, "lat": 43.6640838, "lon": -116.2778603}, {"type": "node", "id": 6247480176, "lat": 43.6640838, "lon": -116.2775709}, {"type": "node", "id": 6247480177, "lat": 43.6640275, "lon": -116.277571}, {"type": "node", "id": 6247480178, "lat": 43.6640274, "lon": -116.2772446}, {"type": "node", "id": 6247480179, "lat": 43.664647, "lon": -116.2772443}, {"type": "node", "id": 6321306393, "lat": 43.6663195, "lon": -116.2749555}, {"type": "node", "id": 6321306394, "lat": 43.6662521, "lon": -116.2750308}, {"type": "node", "id": 6321306395, "lat": 43.6662345, "lon": -116.2750007}, {"type": "node", "id": 6321306396, "lat": 43.6662185, "lon": -116.2750185}, {"type": "node", "id": 6321306397, "lat": 43.6662426, "lon": -116.2750598}, {"type": "node", "id": 6321306398, "lat": 43.6661947, "lon": -116.2751134}, {"type": "node", "id": 6321306399, "lat": 43.6662379, "lon": -116.2751872}, {"type": "node", "id": 6321306400, "lat": 43.6662881, "lon": -116.2751311}, {"type": "node", "id": 6321306401, "lat": 43.6663015, "lon": -116.2751542}, {"type": "node", "id": 6321306402, "lat": 43.6663414, "lon": -116.2751096}, {"type": "node", "id": 6321306403, "lat": 43.6663288, "lon": -116.275088}, {"type": "node", "id": 7076298853, "lat": 43.6643773, "lon": -116.2722399}, {"type": "node", "id": 7076298854, "lat": 43.664348, "lon": -116.272194}, {"type": "node", "id": 7076298855, "lat": 43.6643436, "lon": -116.2721994}, {"type": "node", "id": 7076298856, "lat": 43.6643043, "lon": -116.272139}, {"type": "node", "id": 7076298857, "lat": 43.6642888, "lon": -116.2721581}, {"type": "node", "id": 7076298858, "lat": 43.6642573, "lon": -116.2721}, {"type": "node", "id": 7076298859, "lat": 43.6641904, "lon": -116.2721879}, {"type": "node", "id": 7076298861, "lat": 43.6677915, "lon": -116.2786384}, {"type": "node", "id": 7076298862, "lat": 43.6676961, "lon": -116.278488}, {"type": "node", "id": 7076298863, "lat": 43.6674751, "lon": -116.278756}, {"type": "node", "id": 7076298865, "lat": 43.6675898, "lon": -116.278444}, {"type": "node", "id": 7076298866, "lat": 43.6675189, "lon": -116.2783347}, {"type": "node", "id": 7076298867, "lat": 43.6675473, "lon": -116.2782983}, {"type": "node", "id": 7076298868, "lat": 43.6674966, "lon": -116.278217}, {"type": "node", "id": 7076298869, "lat": 43.6674682, "lon": -116.2782507}, {"type": "node", "id": 7076298870, "lat": 43.6674115, "lon": -116.278161}, {"type": "node", "id": 7076298871, "lat": 43.6673101, "lon": -116.2782815}, {"type": "node", "id": 7215569422, "lat": 43.666941, "lon": -116.277879}, {"type": "node", "id": 7215570540, "lat": 43.66709, "lon": -116.277927}, {"type": "node", "id": 7215571569, "lat": 43.667181, "lon": -116.278039}, {"type": "node", "id": 7215572003, "lat": 43.667026, "lon": -116.277788}, {"type": "node", "id": 7215573098, "lat": 43.667121, "lon": -116.27798}, {"type": "node", "id": 7215573481, "lat": 43.666975, "lon": -116.27794}, {"type": "node", "id": 7215574212, "lat": 43.667064, "lon": -116.278164}, {"type": "node", "id": 7215574654, "lat": 43.667099, "lon": -116.277918}, {"type": "node", "id": 7215575738, "lat": 43.667137, "lon": -116.277962}, {"type": "node", "id": 7344531947, "lat": 43.662326, "lon": -116.2688514}, {"type": "node", "id": 7344531948, "lat": 43.6622891, "lon": -116.268858}, {"type": "node", "id": 7344531949, "lat": 43.662218, "lon": -116.268947}, {"type": "node", "id": 7344531950, "lat": 43.6622256, "lon": -116.2690766}, {"type": "node", "id": 8331554695, "lat": 43.6562544, "lon": -116.2585836}, {"type": "node", "id": 8343067396, "lat": 43.6647146, "lon": -116.272902, "tags": {"addr:city": "Boise", "addr:housenumber": "6728", "addr:postcode": "83714", "addr:state": "ID", "addr:street": "West State Street", "name": "Tobacco Connection", "ref": "27", "shop": "tobacco"}}, {"type": "node", "id": 8343067397, "lat": 43.6647855, "lon": -116.272977, "tags": {"addr:city": "Boise", "addr:housenumber": "6730", "addr:postcode": "83714", "addr:state": "ID", "addr:street": "West State Street", "name": "Stag Hair Care", "shop": "hairdresser", "website": "https://mariaofstaghaircare.com/"}}, {"type": "node", "id": 8343067398, "lat": 43.6647909, "lon": -116.27314, "tags": {"addr:city": "Boise", "addr:housenumber": "6732", "addr:postcode": "83714", "addr:state": "ID", "addr:street": "West State Street", "beauty": "tanning", "name": "Electric Rays Tanning", "shop": "beauty", "website": "https://www.electricraystanning.com/boise"}}, {"type": "node", "id": 8343073122, "lat": 43.6649385, "lon": -116.2779031, "tags": {"addr:city": "Garden City", "addr:housenumber": "6728", "addr:postcode": "83714", "addr:state": "ID", "addr:street": "North Glenwood Street", "beauty": "nails", "shop": "beauty"}}, {"type": "node", "id": 8343073123, "lat": 43.6658897, "lon": -116.277726, "tags": {"addr:city": "Garden City", "addr:housenumber": "6762", "addr:postcode": "83714", "addr:state": "ID", "addr:street": "North Glenwood Street", "brand": "Big 5 Sporting Goods", "brand:wikidata": "Q4904902", "name": "Big 5 Sporting Goods", "shop": "sports"}}, {"type": "node", "id": 8343073129, "lat": 43.6649894, "lon": -116.2779036, "tags": {"addr:city": "Garden City", "addr:housenumber": "6732", "addr:postcode": "83714", "addr:state": "ID", "addr:street": "North Glenwood Street", "shop": "pet_grooming"}}, {"type": "node", "id": 8343073130, "lat": 43.6661396, "lon": -116.277502, "tags": {"addr:city": "Garden City", "addr:housenumber": "7003", "addr:postcode": "83714", "addr:state": "ID", "addr:street": "West State Street", "brand": "Ross", "brand:wikidata": "Q3442791", "name": "Ross", "official_name": "Ross Dress for Less", "opening_hours": "Mo-Th 10:00-21:00; Fr-Sa 10:00-20:30; Su 10:00-19:30", "phone": "+1 208-853-0882", "ref": "1560", "shop": "department_store"}}, {"type": "node", "id": 8343073192, "lat": 43.6646193, "lon": -116.277938}, {"type": "node", "id": 8343073222, "lat": 43.666952, "lon": -116.277965}, {"type": "node", "id": 8343073223, "lat": 43.6671434, "lon": -116.2790012, "tags": {"addr:city": "Garden City", "addr:housenumber": "6826", "addr:postcode": "83714", "addr:state": "ID", "addr:street": "North Glenwood Street", "amenity": "restaurant", "cuisine": "italian", "name": "Uncle Giuseppe's", "website": "https://unclegiuseppesidaho.be3.dev/"}}, {"type": "node", "id": 8343073224, "lat": 43.6675706, "lon": -116.2789063}, {"type": "node", "id": 8343087907, "lat": 43.6648018, "lon": -116.273273, "tags": {"addr:city": "Boise", "addr:housenumber": "6734", "addr:postcode": "83714", "addr:state": "ID", "addr:street": "West State Street", "beauty": "nails", "name": "Tending Toes", "shop": "beauty", "website": "https://www.tendingtoes.com/"}}, {"type": "node", "id": 8343088311, "lat": 43.6623421, "lon": -116.269063}, {"type": "node", "id": 8343088481, "lat": 43.6642922, "lon": -116.272345}, {"type": "node", "id": 8343089481, "lat": 43.66637, "lon": -116.275041}, {"type": "node", "id": 8343089485, "lat": 43.6666627, "lon": -116.2758057, "tags": {"addr:city": "Boise", "addr:housenumber": "6946", "addr:postcode": "83714", "addr:state": "ID", "addr:street": "West State Street", "amenity": "restaurant", "cuisine": "american", "name": "Boise Fry Company"}}, {"type": "node", "id": 8672357889, "lat": 43.6674966, "lon": -116.278564}, {"type": "node", "id": 8899356485, "lat": 43.6562282, "lon": -116.2586141}, {"type": "node", "id": 8899356486, "lat": 43.6561716, "lon": -116.2585214}, {"type": "node", "id": 8899356487, "lat": 43.6561978, "lon": -116.2584909}, {"type": "node", "id": 11500717876, "lat": 43.6648564, "lon": -116.2778702, "tags": {"addr:city": "Garden City", "addr:housenumber": "6724", "addr:postcode": "83714", "addr:state": "ID", "addr:street": "North Glenwood Street", "amenity": "restaurant", "cuisine": "pizza", "name": "Idaho Pizza Company"}}, {"type": "node", "id": 11500717880, "lat": 43.6647619, "lon": -116.2778553, "tags": {"addr:city": "Garden City", "addr:housenumber": "6712", "addr:postcode": "83714", "addr:state": "ID", "addr:street": "North Glenwood Street", "name": "Johnson Floral & D\u00e9cor", "shop": "florist"}}, {"type": "way", "id": 570829423, "nodes": [5487724894, 5487724837, 5487724920, 5487724866, 5487724894], "tags": {"addr:city": "Boise", "addr:housenumber": "5874", "addr:postcode": "83703", "addr:state": "ID", "addr:street": "West State Street", "building": "yes", "name": "Nampa Floors & Interiors", "shop": "flooring"}}, {"type": "way", "id": 667257442, "nodes": [6247480156, 8343073192, 6247480166, 6247480167, 6247480168, 6247480169, 6247480170, 6247480171, 6247480172, 6247480173, 6247480174, 6247480175, 6247480176, 6247480177, 6247480178, 6247480179, 6247480155, 6247480156], "tags": {"addr:city": "Garden City", "addr:housenumber": "6650", "addr:postcode": "83714", "addr:state": "ID", "addr:street": "North Glenwood Street", "building": "yes", "name": "D&B Supply", "shop": "doityourself"}}, {"type": "way", "id": 674982991, "nodes": [8343089481, 6321306393, 6321306394, 6321306395, 6321306396, 6321306397, 6321306398, 6321306399, 6321306400, 6321306401, 6321306402, 6321306403, 8343089481], "tags": {"addr:city": "Boise", "addr:housenumber": "6906", "addr:postcode": "83714", "addr:state": "ID", "addr:street": "West State Street", "amenity": "restaurant", "building": "yes", "cuisine": "mexican", "drive_through": "yes", "name": "Los Betos"}}, {"type": "way", "id": 757724648, "nodes": [8343088481, 7076298853, 7076298854, 7076298855, 7076298856, 7076298857, 7076298858, 7076298859, 8343088481], "tags": {"addr:city": "Boise", "addr:housenumber": "6630", "addr:postcode": "83714", "addr:state": "ID", "addr:street": "West State Street", "amenity": "restaurant", "building": "yes", "name": "Merritt's Family Restaurant"}}, {"type": "way", "id": 757724649, "nodes": [8343073224, 7076298861, 7076298862, 7076298863, 8343073224], "tags": {"addr:city": "Garden City", "addr:housenumber": "7227", "addr:postcode": "83714", "addr:state": "ID", "addr:street": "West State Street", "branch": "Garden City State Street", "brand": "Mattress Firm", "brand:wikidata": "Q6791878", "building": "yes", "building:levels": "1", "contact:sms": "+1 208-273-9693", "delivery": "yes", "name": "Mattress Firm", "phone": "+1 208-853-1908", "ref": "18048", "roof:levels": "0", "shop": "bed", "website": "https://www.mattressfirm.com/en-us/stores/id/garden-city/082009/"}}, {"type": "way", "id": 757724650, "nodes": [8672357889, 7076298865, 7076298866, 7076298867, 7076298868, 7076298869, 7076298870, 7076298871, 8672357889], "tags": {"addr:city": "Garden City", "addr:housenumber": "7135", "addr:postcode": "83714", "addr:state": "ID", "addr:street": "West State Street", "amenity": "restaurant", "building": "yes"}}, {"type": "way", "id": 772831539, "nodes": [8343073222, 7215573481, 7215569422, 7215572003, 7215574654, 7215570540, 7215573098, 7215575738, 7215571569, 7215574212, 8343073222], "tags": {"addr:city": "Garden City", "addr:housenumber": "7107", "addr:postcode": "83714", "addr:state": "ID", "addr:street": "West State Street", "amenity": "restaurant", "building": "yes", "cuisine": "thai", "name": "Krungthai", "source": "microsoft/BuildingFootprints", "website": "https://www.krungthaiandsushi.com/"}}, {"type": "way", "id": 785716214, "nodes": [8343088311, 7344531947, 7344531948, 7344531949, 7344531950, 8343088311], "tags": {"addr:city": "Boise", "addr:housenumber": "6400", "addr:postcode": "83714", "addr:state": "ID", "addr:street": "West State Street", "brand": "Jacksons", "brand:wikidata": "Q64617393", "building": "yes", "name": "Jacksons", "ref": "91", "shop": "convenience"}}, {"type": "way", "id": 962070951, "nodes": [8899356485, 8899356486, 8899356487, 8331554695, 8899356485], "tags": {"addr:city": "Boise", "addr:housenumber": "5602", "addr:postcode": "83703", "addr:state": "ID", "addr:street": "West State Street", "amenity": "restaurant", "building": "yes", "cuisine": "greek", "drive_through": "yes", "name": "The Gyro Shack", "takeaway": "yes"}}]}