{"version": 0.6, "generator": "Overpass API 0.7.62.8 e802775f", "osm3s": {"timestamp_osm_base": "2025-12-07T02:28:56Z", "copyright": "The data included in this document is from www.openstreetmap.org. The data is made available under ODbL."}, "elements": [{"type": "node", "id": 2908447801, "lat": 47.8910249, "lon": -122.7322546}, {"type": "node", "id": 2908447802, "lat": 47.8911131, "lon": -122.7326533}, {"type": "node", "id": 2908447803, "lat": 47.8915869, "lon": -122.7320109}, {"type": "node", "id": 2908447804, "lat": 47.8916664, "lon": -122.7323812}, {"type": "node", "id": 12152980426, "lat": 47.8912367, "lon": -122.7319063, "tags": {"amenity": "polling_station", "location": "outdoor", "polling_station": "ballot_box"}}, {"type": "way", "id": 287212902, "nodes": [2908447803, 2908447801, 2908447802, 2908447804, 2908447803], "tags": {"addr:city": "Port Ludlow", "addr:postcode": "98365", "addr:street": "State Route 104 & Beaver Valley Road", "amenity": "parking", "capacity": "40", "name": "SR 104 and Beaver Valley Road", "operator": "Jefferson County", "park_ride": "yes"}}]}