{"version": 0.6, "generator": "Overpass API 0.7.62.8 e802775f", "osm3s": {"timestamp_osm_base": "2025-12-06T23:11:28Z", "copyright": "The data included in this document is from www.openstreetmap.org. The data is made available under ODbL."}, "elements": [{"type": "node", "id": 53113260, "lat": 47.480722, "lon": -122.1153111}, {"type": "node", "id": 356541707, "lat": 47.5043557, "lon": -122.155398}, {"type": "node", "id": 356548037, "lat": 47.4982504, "lon": -122.1405074}, {"type": "node", "id": 356548048, "lat": 47.4830323, "lon": -122.1481794}, {"type": "node", "id": 1754431747, "lat": 47.4808416, "lon": -122.1192555}, {"type": "node", "id": 1774098576, "lat": 47.4878012, "lon": -122.1476863}, {"type": "node", "id": 1774098577, "lat": 47.4881743, "lon": -122.1476084}, {"type": "node", "id": 1774098591, "lat": 47.4875828, "lon": -122.1477571}, {"type": "node", "id": 1774098593, "lat": 47.4898049, "lon": -122.1548173, "tags": {"addr:city": "Renton", "addr:housenumber": "4800", "addr:postcode": "98059", "addr:street": "Northeast 4th Street", "brand": "QFC", "brand:wikidata": "Q7265425", "check_date:opening_hours": "2025-03-28", "name": "QFC", "opening_hours": "Mo-Su 05:00-01:00", "shop": "supermarket", "wheelchair": "yes"}}, {"type": "node", "id": 1774098596, "lat": 47.4898137, "lon": -122.1556387, "tags": {"addr:city": "Renton", "addr:housenumber": "4700", "addr:postcode": "98059", "addr:street": "Northeast 4th Street", "amenity": "pharmacy", "brand": "Bartell Drugs", "brand:wikidata": "Q4865152", "dispensing": "yes", "healthcare": "pharmacy", "name": "Bartell Drugs", "opening_hours": "Mo-Fr 08:00-21:00; Sa 09:00-21:00; Su 09:00-20:00", "wheelchair": "yes"}}, {"type": "node", "id": 1774098598, "lat": 47.488111, "lon": -122.157704}, {"type": "node", "id": 1774098604, "lat": 47.4881921, "lon": -122.147172, "tags": {"addr:city": "Renton", "addr:housenumber": "5335", "addr:postcode": "98059", "addr:state": "WA", "addr:street": "Northeast 4th Street", "amenity": "fast_food", "cuisine": "donut", "drive_through": "no", "name": "Chuck's Donuts", "opening_hours": "Mo-Sa 03:00-14:00", "phone": "+1-425-228-6336"}}, {"type": "node", "id": 1774098608, "lat": 47.4888776, "lon": -122.1546271}, {"type": "node", "id": 1774098610, "lat": 47.4882327, "lon": -122.1481023}, {"type": "node", "id": 2102252386, "lat": 47.4880495, "lon": -122.158197}, {"type": "node", "id": 2340640140, "lat": 47.500111, "lon": -122.1539588}, {"type": "node", "id": 2508946948, "lat": 47.4886495, "lon": -122.1559121, "tags": {"power": "pole", "source": "Bing"}}, {"type": "node", "id": 2508946965, "lat": 47.4886404, "lon": -122.1549117, "tags": {"power": "pole", "source": "Bing"}}, {"type": "node", "id": 3992929411, "lat": 47.487895, "lon": -122.158455}, {"type": "node", "id": 3992929412, "lat": 47.487895, "lon": -122.158197}, {"type": "node", "id": 3992929414, "lat": 47.4880495, "lon": -122.158053}, {"type": "node", "id": 3992929415, "lat": 47.4881483, "lon": -122.158053}, {"type": "node", "id": 3992929416, "lat": 47.4881483, "lon": -122.158455}, {"type": "node", "id": 3992929421, "lat": 47.488303, "lon": -122.157873}, {"type": "node", "id": 3992929422, "lat": 47.488303, "lon": -122.157704}, {"type": "node", "id": 3992929424, "lat": 47.488111, "lon": -122.157873}, {"type": "node", "id": 3992929434, "lat": 47.4901317, "lon": -122.1544713}, {"type": "node", "id": 3992929435, "lat": 47.4896853, "lon": -122.1544621}, {"type": "node", "id": 3992929436, "lat": 47.4896717, "lon": -122.1559166}, {"type": "node", "id": 3992929441, "lat": 47.4897246, "lon": -122.1542387}, {"type": "node", "id": 3992929444, "lat": 47.4891654, "lon": -122.1542233}, {"type": "node", "id": 3992929445, "lat": 47.4890224, "lon": -122.154789}, {"type": "node", "id": 3992929446, "lat": 47.4890243, "lon": -122.1546283}, {"type": "node", "id": 3992929447, "lat": 47.4887831, "lon": -122.1546246}, {"type": "node", "id": 3992929448, "lat": 47.4887812, "lon": -122.1547828}, {"type": "node", "id": 4427343127, "lat": 47.4887265, "lon": -122.1548729}, {"type": "node", "id": 4427343154, "lat": 47.4891035, "lon": -122.1545833}, {"type": "node", "id": 4427343155, "lat": 47.489105, "lon": -122.1544312}, {"type": "node", "id": 4427343206, "lat": 47.4902273, "lon": -122.1543339}, {"type": "node", "id": 4442922899, "lat": 47.4883289, "lon": -122.1559253}, {"type": "node", "id": 4442922900, "lat": 47.4883301, "lon": -122.1557724}, {"type": "node", "id": 4442922901, "lat": 47.48815, "lon": -122.1557696}, {"type": "node", "id": 4442922902, "lat": 47.488149, "lon": -122.1558998}, {"type": "node", "id": 4467131572, "lat": 47.477308, "lon": -122.1217648}, {"type": "node", "id": 4560583008, "lat": 47.4812935, "lon": -122.1457012}, {"type": "node", "id": 4560583009, "lat": 47.4813066, "lon": -122.1480627}, {"type": "node", "id": 4560583010, "lat": 47.4813238, "lon": -122.1481043}, {"type": "node", "id": 4560583011, "lat": 47.4813528, "lon": -122.1481271}, {"type": "node", "id": 4560583032, "lat": 47.4830287, "lon": -122.1456957}, {"type": "node", "id": 4830045480, "lat": 47.4886969, "lon": -122.1319752}, {"type": "node", "id": 4830045484, "lat": 47.4885851, "lon": -122.132172, "tags": {"amenity": "dojo", "name": "Shobukai Kenjitsu"}}, {"type": "node", "id": 4830045494, "lat": 47.4832629, "lon": -122.1298705}, {"type": "node", "id": 4830045495, "lat": 47.4832739, "lon": -122.1323131}, {"type": "node", "id": 4830045497, "lat": 47.4837766, "lon": -122.1298654}, {"type": "node", "id": 4830045498, "lat": 47.4837875, "lon": -122.132308}, {"type": "node", "id": 4830045505, "lat": 47.4864509, "lon": -122.1340543}, {"type": "node", "id": 4830045506, "lat": 47.4864582, "lon": -122.1274054}, {"type": "node", "id": 4830045507, "lat": 47.4864671, "lon": -122.1285649}, {"type": "node", "id": 4830045509, "lat": 47.4870526, "lon": -122.1324863}, {"type": "node", "id": 4830045510, "lat": 47.4870548, "lon": -122.1340524}, {"type": "node", "id": 4830046124, "lat": 47.4881165, "lon": -122.1273775}, {"type": "node", "id": 4830046126, "lat": 47.4881255, "lon": -122.128537}, {"type": "node", "id": 4894770987, "lat": 47.4883155, "lon": -122.1566404}, {"type": "node", "id": 4894770988, "lat": 47.4889321, "lon": -122.1554167, "tags": {"addr:city": "Renton", "addr:housenumber": "4710", "addr:postcode": "98059", "addr:state": "WA", "addr:street": "Northeast", "addr:unit": "C101", "amenity": "fast_food", "branch": "Northeast 4th St", "brand": "Papa John's", "brand:wikidata": "Q2759586", "cuisine": "pizza", "drive_through": "no", "name": "Papa John's", "opening_hours": "Mo-Th 09:45-23:00; Fr-Sa 09:45-02:00; Su 09:45-23:00", "phone": "+1-425-793-7777", "takeaway": "yes", "website": "https://locations.papajohns.com/united-states/wa/98059/renton/4710-ne-4th-st-c101"}}, {"type": "node", "id": 4903016909, "lat": 47.4772961, "lon": -122.1205398}, {"type": "node", "id": 4903016910, "lat": 47.4772811, "lon": -122.1198133}, {"type": "node", "id": 4903016911, "lat": 47.4772606, "lon": -122.1190467}, {"type": "node", "id": 4903016912, "lat": 47.4774365, "lon": -122.1186564}, {"type": "node", "id": 4903016913, "lat": 47.4775217, "lon": -122.118567}, {"type": "node", "id": 4903016914, "lat": 47.4775741, "lon": -122.1183578}, {"type": "node", "id": 4903016915, "lat": 47.4776357, "lon": -122.1181097}, {"type": "node", "id": 4903016916, "lat": 47.4776838, "lon": -122.1179165}, {"type": "node", "id": 4903016917, "lat": 47.4777717, "lon": -122.1178433}, {"type": "node", "id": 4903016918, "lat": 47.4778926, "lon": -122.1178271}, {"type": "node", "id": 4903016919, "lat": 47.4780282, "lon": -122.1178513}, {"type": "node", "id": 4903016920, "lat": 47.4781454, "lon": -122.1178718}, {"type": "node", "id": 4903016921, "lat": 47.4781949, "lon": -122.1177498}, {"type": "node", "id": 4903016922, "lat": 47.4781729, "lon": -122.1175994}, {"type": "node", "id": 4903016923, "lat": 47.4780987, "lon": -122.1174896}, {"type": "node", "id": 4903016924, "lat": 47.4780135, "lon": -122.1174124}, {"type": "node", "id": 4903016925, "lat": 47.4779056, "lon": -122.1173885}, {"type": "node", "id": 4903016926, "lat": 47.4777802, "lon": -122.117369}, {"type": "node", "id": 4903016927, "lat": 47.4772762, "lon": -122.1173277}, {"type": "node", "id": 4903017015, "lat": 47.4805171, "lon": -122.1217724}, {"type": "node", "id": 4903017079, "lat": 47.4805246, "lon": -122.1213195}, {"type": "node", "id": 4903017080, "lat": 47.4806366, "lon": -122.1212004}, {"type": "node", "id": 4903017081, "lat": 47.4807487, "lon": -122.121135}, {"type": "node", "id": 4903017082, "lat": 47.4808354, "lon": -122.1209436}, {"type": "node", "id": 4903017083, "lat": 47.4808354, "lon": -122.1206844}, {"type": "node", "id": 4903017084, "lat": 47.480897, "lon": -122.1205349}, {"type": "node", "id": 4903017085, "lat": 47.4810248, "lon": -122.1204672}, {"type": "node", "id": 4903017086, "lat": 47.4811684, "lon": -122.1204789}, {"type": "node", "id": 4903017090, "lat": 47.4780718, "lon": -122.1165958}, {"type": "node", "id": 4903017091, "lat": 47.4773093, "lon": -122.1165947}, {"type": "node", "id": 4903017092, "lat": 47.4788576, "lon": -122.1217931}, {"type": "node", "id": 4903017093, "lat": 47.478914, "lon": -122.1216715}, {"type": "node", "id": 4903017094, "lat": 47.4789909, "lon": -122.1216167}, {"type": "node", "id": 4903017095, "lat": 47.4790926, "lon": -122.1216594}, {"type": "node", "id": 4903017096, "lat": 47.4791269, "lon": -122.1217}, {"type": "node", "id": 4903017097, "lat": 47.4795336, "lon": -122.1217102}, {"type": "node", "id": 4903017098, "lat": 47.4795405, "lon": -122.1220273}, {"type": "node", "id": 4903017099, "lat": 47.4800323, "lon": -122.1220151}, {"type": "node", "id": 4904994027, "lat": 47.4787413, "lon": -122.1166178}, {"type": "node", "id": 4904994111, "lat": 47.4779464, "lon": -122.1166035}, {"type": "node", "id": 4904994371, "lat": 47.4902259, "lon": -122.154477}, {"type": "node", "id": 4904994372, "lat": 47.4902299, "lon": -122.1541844}, {"type": "node", "id": 4904994373, "lat": 47.4897256, "lon": -122.1541558}, {"type": "node", "id": 4904994374, "lat": 47.4891586, "lon": -122.1544324}, {"type": "node", "id": 4904994375, "lat": 47.4891014, "lon": -122.1547983}, {"type": "node", "id": 4904994376, "lat": 47.4887284, "lon": -122.154794}, {"type": "node", "id": 4904994377, "lat": 47.4887313, "lon": -122.1560878}, {"type": "node", "id": 4904994378, "lat": 47.4898936, "lon": -122.1561144}, {"type": "node", "id": 4904994379, "lat": 47.4899043, "lon": -122.1559214}, {"type": "node", "id": 4906777029, "lat": 47.4955411, "lon": -122.1397736}, {"type": "node", "id": 4906777030, "lat": 47.4955318, "lon": -122.137903}, {"type": "node", "id": 4906777031, "lat": 47.4982371, "lon": -122.1378731}, {"type": "node", "id": 4906837178, "lat": 47.5022507, "lon": -122.1553841}, {"type": "node", "id": 4906837179, "lat": 47.5022477, "lon": -122.1563859}, {"type": "node", "id": 4906837180, "lat": 47.5011344, "lon": -122.1563782}, {"type": "node", "id": 4906837181, "lat": 47.5011376, "lon": -122.1553775}, {"type": "node", "id": 4906837182, "lat": 47.4993458, "lon": -122.1553653}, {"type": "node", "id": 4906837183, "lat": 47.4993576, "lon": -122.1514112}, {"type": "node", "id": 4906837184, "lat": 47.4993951, "lon": -122.151368}, {"type": "node", "id": 4906837185, "lat": 47.5028122, "lon": -122.1514285}, {"type": "node", "id": 4906837186, "lat": 47.5028225, "lon": -122.154028}, {"type": "node", "id": 4906837187, "lat": 47.5043599, "lon": -122.153991}, {"type": "node", "id": 4906837299, "lat": 47.50049, "lon": -122.1539765}, {"type": "node", "id": 4906837300, "lat": 47.5005034, "lon": -122.1523939}, {"type": "node", "id": 4906837301, "lat": 47.5001217, "lon": -122.152391}, {"type": "node", "id": 4906837311, "lat": 47.4956991, "lon": -122.1537844}, {"type": "node", "id": 4906837312, "lat": 47.4957017, "lon": -122.1519003}, {"type": "node", "id": 4906837313, "lat": 47.4966, "lon": -122.151903}, {"type": "node", "id": 4906837314, "lat": 47.4965973, "lon": -122.1537871}, {"type": "node", "id": 4907729798, "lat": 47.483782, "lon": -122.1310726}, {"type": "node", "id": 4907729799, "lat": 47.4842268, "lon": -122.1310683}, {"type": "node", "id": 4907729800, "lat": 47.4842324, "lon": -122.1323037}, {"type": "node", "id": 4907729801, "lat": 47.4864487, "lon": -122.1324882}, {"type": "node", "id": 4907729802, "lat": 47.4881265, "lon": -122.1471722, "tags": {"name": "Moda Organic Salon & Spa", "shop": "beauty"}}, {"type": "node", "id": 4908996124, "lat": 47.4902656, "lon": -122.1570478}, {"type": "node", "id": 4908996125, "lat": 47.4893064, "lon": -122.1541578, "tags": {"addr:city": "Renton", "addr:housenumber": "4820", "addr:postcode": "98059", "addr:state": "WA", "addr:street": "Northeast 4th Street", "addr:unit": "A108", "amenity": "dentist", "healthcare": "dentist", "name": "Sperry Dentistry", "opening_hours": "Mo-We 09:00-17:00; Fr 09:00-15:00; Sa appointment", "phone": "+1-425-687-2876", "website": "https://www.sperrydentistry.com/"}}, {"type": "node", "id": 4908996126, "lat": 47.4894334, "lon": -122.1541645, "tags": {"addr:city": "Renton", "addr:housenumber": "4820", "addr:postcode": "98059", "addr:state": "WA", "addr:street": "Northeast 4th Street", "addr:unit": "A106", "beauty": "nails", "contact:facebook": "https://www.facebook.com/Uniquenailsspawa/", "name": "Unique Nails and Spa", "opening_hours": "Mo-Fr 09:30-19:00; Sa 09:00-18:00; Su 10:00-17:00", "phone": "+1-425-917-0443", "shop": "beauty", "website": "https://uniquenailsandsparenton.com/"}}, {"type": "node", "id": 4908996127, "lat": 47.489676, "lon": -122.1541688, "tags": {"addr:city": "Renton", "addr:housenumber": "4820", "addr:postcode": "98059", "addr:state": "WA", "addr:street": "Northeast 4th Street", "addr:unit": "A101", "amenity": "cafe", "cuisine": "bubble_tea", "delivery": "yes", "internet_access": "wlan", "internet_access:fee": "customers", "name": "Over the Rainbow", "opening_hours": "Mo-Th 12:00-20:00; Fr 12:00-21:00; Sa 11:00-21:00; Su 11:00-20:00", "outdoor_seating": "no", "phone": "+1-425-572-5764", "takeaway": "yes", "website": "https://www.overtherainbowteabar.com/renton-tea-room/"}}, {"type": "node", "id": 4908996129, "lat": 47.48937, "lon": -122.1541608, "tags": {"addr:city": "Renton", "addr:housenumber": "4820", "addr:postcode": "98059", "addr:state": "WA", "addr:street": "Northeast 4th Street", "addr:unit": "A107", "amenity": "prep_school", "education": "prep_school", "email": "renton@bestinclasseducation.com", "name": "Best in Class Education Center", "opening_hours": "Tu,We 16:15-20:00; Su 09:30-12:00", "phone": "+1-425-333-7333", "website": "https://bestinclasseducation.com/locations/renton/"}}, {"type": "node", "id": 4908996130, "lat": 47.489618, "lon": -122.1541694, "tags": {"addr:city": "Renton", "addr:housenumber": "4820", "addr:postcode": "98059", "addr:state": "WA", "addr:street": "Northeast 4th Street", "addr:unit": "A102", "name": "Highland Cleaners", "shop": "dry_cleaning"}}, {"type": "node", "id": 4908996131, "lat": 47.4897197, "lon": -122.1554536, "tags": {"name": "Pet Pros", "opening_hours": "Mo-Sa 09:00-20:00; Su 10:00-18:00", "shop": "pet", "wheelchair": "yes"}}, {"type": "node", "id": 4908996152, "lat": 47.4877971, "lon": -122.1560825, "tags": {"addr:city": "Renton", "addr:housenumber": "350", "addr:postcode": "98059", "addr:state": "WA", "addr:street": "Duvall Avenue Northeast", "name": "Shear Designs", "shop": "hairdresser"}}, {"type": "node", "id": 4908996153, "lat": 47.4877618, "lon": -122.1560852, "tags": {"addr:city": "Renton", "addr:housenumber": "350", "addr:postcode": "98059", "addr:state": "WA", "addr:street": "Duvall Avenue Northeast", "name": "Michelle's Nails", "shop": "beauty"}}, {"type": "node", "id": 4908996154, "lat": 47.4877255, "lon": -122.1560906, "tags": {"addr:city": "Renton", "addr:housenumber": "350", "addr:postcode": "98059", "addr:state": "WA", "addr:street": "Duvall Avenue Northeast", "name": "4 Seasons Tanning", "shop": "beauty"}}, {"type": "node", "id": 4908996155, "lat": 47.4877006, "lon": -122.1560892, "tags": {"addr:city": "Renton", "addr:housenumber": "350", "addr:postcode": "98059", "addr:state": "WA", "addr:street": "Duvall Avenue Northeast", "name": "Nina Nails & Hair", "shop": "hairdresser"}}, {"type": "node", "id": 4908996156, "lat": 47.4882339, "lon": -122.1552423, "tags": {"addr:city": "Renton", "addr:housenumber": "4735", "addr:postcode": "98059", "addr:state": "WA", "addr:street": "Northeast 4th Street", "name": "Howard & McKay", "office": "company"}}, {"type": "node", "id": 4908996157, "lat": 47.4879743, "lon": -122.1552484, "tags": {"addr:city": "Renton", "addr:housenumber": "4735", "addr:postcode": "98059", "addr:state": "WA", "addr:street": "Northeast 4th Street", "name": "Neighborhood Gold Buyer", "shop": "pawnbroker"}}, {"type": "node", "id": 4908996158, "lat": 47.4880577, "lon": -122.155245, "tags": {"addr:city": "Renton", "addr:housenumber": "4735", "addr:postcode": "98059", "addr:state": "WA", "addr:street": "Northeast 4th Street", "name": "Lux Beauty Lounge", "shop": "beauty"}}, {"type": "node", "id": 4908996159, "lat": 47.4881374, "lon": -122.155252, "tags": {"addr:city": "Renton", "addr:housenumber": "4735", "addr:postcode": "98059", "addr:state": "WA", "addr:street": "Northeast 4th Street", "branch": "Real Estate", "brand": "John L. Scott", "brand:wikidata": "Q6243687", "name": "John L. Scott", "office": "estate_agent"}}, {"type": "node", "id": 4908996169, "lat": 47.4877797, "lon": -122.15702, "tags": {"addr:city": "Renton", "addr:housenumber": "4575", "addr:postcode": "98059", "addr:state": "WA", "addr:street": "Northeast 4th Street", "amenity": "prep_school", "brand": "Kumon", "brand:wikidata": "Q142054", "name": "Kumon Math & Reading of Renton Highlands"}}, {"type": "node", "id": 4908996171, "lat": 47.4877833, "lon": -122.157654, "tags": {"addr:city": "Renton", "addr:housenumber": "4575", "addr:postcode": "98059", "addr:state": "WA", "addr:street": "Northeast 4th Street", "alt_name": "Ezell's Famous Chicken", "amenity": "fast_food", "brand": "Ezell's Chicken", "brand:wikidata": "Q5423177", "cuisine": "chicken", "name": "Ezell's Chicken", "opening_hours": "Mo-Sa 10:00-21:00; Su 11:00-21:00", "phone": "+1-425-228-9008", "takeaway": "yes"}}, {"type": "node", "id": 4908996172, "lat": 47.4877818, "lon": -122.1575286, "tags": {"addr:city": "Renton", "addr:housenumber": "4575", "addr:postcode": "98059", "addr:state": "WA", "addr:street": "Northeast 4th Street", "name": "Canvas Studio", "shop": "yes"}}, {"type": "node", "id": 4908996173, "lat": 47.4877858, "lon": -122.1573217, "tags": {"addr:city": "Renton", "addr:housenumber": "4575", "addr:postcode": "98059", "addr:state": "WA", "addr:street": "Northeast 4th Street", "amenity": "dentist", "healthcare": "dentist", "name": "Hillcrest Dental"}}, {"type": "node", "id": 4908996174, "lat": 47.4877876, "lon": -122.1574116, "tags": {"addr:city": "Renton", "addr:housenumber": "4575", "addr:postcode": "98059", "addr:state": "WA", "addr:street": "Northeast 4th Street", "beauty": "nails", "name": "Haven Nails & Spa", "shop": "beauty"}}, {"type": "node", "id": 4908996199, "lat": 47.4880419, "lon": -122.1572999, "tags": {"addr:city": "Renton", "addr:housenumber": "4605", "addr:postcode": "98059", "addr:state": "WA", "addr:street": "Northeast 4th Street", "amenity": "restaurant", "cuisine": "sushi", "name": "Sushi Cafe"}}, {"type": "node", "id": 4908996200, "lat": 47.4882869, "lon": -122.1573003, "tags": {"addr:city": "Renton", "addr:housenumber": "4605", "addr:postcode": "98059", "addr:state": "WA", "addr:street": "Northeast 4th Street", "amenity": "restaurant", "cuisine": "thai", "name": "Sing Tong Thai Cuisine"}}, {"type": "node", "id": 4908996201, "lat": 47.4881165, "lon": -122.1572894, "tags": {"addr:city": "Renton", "addr:postcode": "98059", "addr:street": "Northeast 4th Street", "name": "All Things Wine", "shop": "wine"}}, {"type": "node", "id": 4909107328, "lat": 47.488064, "lon": -122.1471729, "tags": {"brand": "Farmers Insurance", "brand:wikidata": "Q1396863", "name": "Farmers Insurance - Josh Graves Agency", "office": "insurance"}}, {"type": "node", "id": 4909107329, "lat": 47.4879956, "lon": -122.1471702, "tags": {"name": "Briarwood Vision Center", "shop": "optician"}}, {"type": "node", "id": 4929953850, "lat": 47.4888579, "lon": -122.1569596, "tags": {"addr:city": "Renton", "addr:housenumber": "4622", "addr:postcode": "98059", "addr:state": "WA", "addr:street": "Northeast 4th Street", "amenity": "place_of_worship", "check_date": "2024-09-04", "name": "Renton Christian Fellowship", "phone": "+1-425-277-3121", "religion": "christian"}}, {"type": "node", "id": 4929953852, "lat": 47.4889771, "lon": -122.1575476}, {"type": "node", "id": 4929953853, "lat": 47.488882, "lon": -122.1554286, "tags": {"addr:city": "Renton", "addr:housenumber": "4710", "addr:postcode": "98059", "addr:state": "WA", "addr:street": "Northeast 4th Street", "addr:unit": "C102", "amenity": "restaurant", "cuisine": "japanese", "name": "Nori Sushi Teriyaki", "opening_hours": "11:00-21:00", "phone": "+1-425-228-1129"}}, {"type": "node", "id": 4929953854, "lat": 47.4887698, "lon": -122.1554313, "tags": {"addr:city": "Renton", "addr:housenumber": "4710", "addr:postcode": "98059", "addr:state": "WA", "addr:street": "Northeast 4th Street", "addr:unit": "C104", "amenity": "fast_food", "brand": "Jersey Mike's Subs", "brand:wikidata": "Q6184897", "cuisine": "sandwich", "drive_through": "no", "name": "Jersey Mike's Subs", "opening_hours": "Mo-Su 10:00-21:00", "phone": "+1-425-264-5098", "short_name": "Jersey Mike's", "takeaway": "yes", "website": "https://www.jerseymikes.com/18020/renton-wa"}}, {"type": "node", "id": 5003446302, "lat": 47.4833391, "lon": -122.1290187, "tags": {"amenity": "bench"}}, {"type": "node", "id": 5239052361, "lat": 47.5043559, "lon": -122.1553463}, {"type": "node", "id": 5289561799, "lat": 47.4897486, "lon": -122.1551011, "tags": {"amenity": "bank", "atm": "yes", "brand": "Bank of America", "brand:wikidata": "Q487907", "name": "Bank of America", "opening_hours": "Mo-Fr 10:00-16:00; Sa 10:00-13:00"}}, {"type": "node", "id": 5324218969, "lat": 47.4994196, "lon": -122.1553653}, {"type": "node", "id": 5406810822, "lat": 47.5039988, "lon": -122.1450955, "tags": {"amenity": "bench"}}, {"type": "node", "id": 5406810823, "lat": 47.5040617, "lon": -122.1451928, "tags": {"amenity": "bench"}}, {"type": "node", "id": 5406810905, "lat": 47.4903703, "lon": -122.1443311, "tags": {"amenity": "bench"}}, {"type": "node", "id": 5469428691, "lat": 47.4881483, "lon": -122.1581147}, {"type": "node", "id": 5469428692, "lat": 47.4880495, "lon": -122.1581145}, {"type": "node", "id": 5630874035, "lat": 47.5037922, "lon": -122.1540219}, {"type": "node", "id": 5630874037, "lat": 47.5029206, "lon": -122.1540194}, {"type": "node", "id": 5630874047, "lat": 47.5040368, "lon": -122.1553959}, {"type": "node", "id": 5630874048, "lat": 47.5030565, "lon": -122.1553894}, {"type": "node", "id": 6033101173, "lat": 47.4878006, "lon": -122.1478135}, {"type": "node", "id": 6033101174, "lat": 47.4877909, "lon": -122.1478134}, {"type": "node", "id": 6033101175, "lat": 47.4877906, "lon": -122.1478862}, {"type": "node", "id": 6033101176, "lat": 47.4878024, "lon": -122.1478863}, {"type": "node", "id": 6033101177, "lat": 47.4878022, "lon": -122.1479403}, {"type": "node", "id": 6033101178, "lat": 47.4879762, "lon": -122.1479419}, {"type": "node", "id": 6033101179, "lat": 47.4879767, "lon": -122.1478117}, {"type": "node", "id": 6033101180, "lat": 47.4879498, "lon": -122.1478115}, {"type": "node", "id": 6033101181, "lat": 47.4879503, "lon": -122.1476877}, {"type": "node", "id": 6034207001, "lat": 47.4881507, "lon": -122.1566647}, {"type": "node", "id": 6034207002, "lat": 47.4881697, "lon": -122.1566367}, {"type": "node", "id": 6034207003, "lat": 47.4880803, "lon": -122.1567701}, {"type": "node", "id": 6034207004, "lat": 47.4882407, "lon": -122.1565307}, {"type": "node", "id": 6034207005, "lat": 47.4881551, "lon": -122.1568798}, {"type": "node", "id": 6034207359, "lat": 47.4883243, "lon": -122.1545143}, {"type": "node", "id": 6034212802, "lat": 47.4882326, "lon": -122.1559237}, {"type": "node", "id": 6034212803, "lat": 47.4882328, "lon": -122.1559012}, {"type": "node", "id": 6105315068, "lat": 47.4882464, "lon": -122.1480617}, {"type": "node", "id": 6105315069, "lat": 47.4882777, "lon": -122.1480908}, {"type": "node", "id": 6105315070, "lat": 47.4882009, "lon": -122.1481507}, {"type": "node", "id": 6105315071, "lat": 47.4882288, "lon": -122.14819}, {"type": "node", "id": 6105315072, "lat": 47.4882579, "lon": -122.1481425}, {"type": "node", "id": 6105328478, "lat": 47.4876049, "lon": -122.1477565}, {"type": "node", "id": 6105328483, "lat": 47.4875824, "lon": -122.1476989}, {"type": "node", "id": 6105328486, "lat": 47.4875241, "lon": -122.1477}, {"type": "node", "id": 6105328495, "lat": 47.4876063, "lon": -122.1479112}, {"type": "node", "id": 6105328548, "lat": 47.4875257, "lon": -122.1479131}, {"type": "node", "id": 6105328763, "lat": 47.4881053, "lon": -122.1476095}, {"type": "node", "id": 6105328766, "lat": 47.4881084, "lon": -122.1480356}, {"type": "node", "id": 6105328778, "lat": 47.4881774, "lon": -122.1480345}, {"type": "node", "id": 6105335088, "lat": 47.4827356, "lon": -122.1401585}, {"type": "node", "id": 6105335089, "lat": 47.4826782, "lon": -122.1402068}, {"type": "node", "id": 6105335091, "lat": 47.4827045, "lon": -122.1400775}, {"type": "node", "id": 6105335104, "lat": 47.4826471, "lon": -122.1401258}, {"type": "node", "id": 6114984636, "lat": 47.4901473, "lon": -122.1572259}, {"type": "node", "id": 6114984637, "lat": 47.4902704, "lon": -122.1572188}, {"type": "node", "id": 6114984638, "lat": 47.4901708, "lon": -122.1568245}, {"type": "node", "id": 6114984639, "lat": 47.4901395, "lon": -122.1568264}, {"type": "node", "id": 6114984640, "lat": 47.4902339, "lon": -122.1567725}, {"type": "node", "id": 6114984641, "lat": 47.4901692, "lon": -122.1567765}, {"type": "node", "id": 6114984642, "lat": 47.4902632, "lon": -122.1568227}, {"type": "node", "id": 6114984643, "lat": 47.4902358, "lon": -122.1568242}, {"type": "node", "id": 6114984644, "lat": 47.4903009, "lon": -122.156907}, {"type": "node", "id": 6114984645, "lat": 47.4902663, "lon": -122.1569092}, {"type": "node", "id": 6114984646, "lat": 47.4903046, "lon": -122.1570453}, {"type": "node", "id": 6114984774, "lat": 47.488978, "lon": -122.1573514}, {"type": "node", "id": 6114984775, "lat": 47.4887324, "lon": -122.157349}, {"type": "node", "id": 6114984776, "lat": 47.4887324, "lon": -122.1575452}, {"type": "node", "id": 6115096283, "lat": 47.488837, "lon": -122.131978}, {"type": "node", "id": 6115096415, "lat": 47.4888393, "lon": -122.1317274}, {"type": "node", "id": 6115096419, "lat": 47.4886992, "lon": -122.1317247}, {"type": "node", "id": 6115099150, "lat": 47.4888779, "lon": -122.1546057}, {"type": "node", "id": 6115099153, "lat": 47.4889148, "lon": -122.1546066}, {"type": "node", "id": 6115099166, "lat": 47.4889146, "lon": -122.1546255}, {"type": "node", "id": 6146097112, "lat": 47.4877681, "lon": -122.154441}, {"type": "node", "id": 6146097113, "lat": 47.4877684, "lon": -122.1545029}, {"type": "node", "id": 6146097114, "lat": 47.4876509, "lon": -122.1545041}, {"type": "node", "id": 6146097115, "lat": 47.4876496, "lon": -122.1542342}, {"type": "node", "id": 6146097116, "lat": 47.4877237, "lon": -122.1542334}, {"type": "node", "id": 6146097117, "lat": 47.4877229, "lon": -122.15407}, {"type": "node", "id": 6146097118, "lat": 47.4883221, "lon": -122.1540637}, {"type": "node", "id": 6269865788, "lat": 47.4795909, "lon": -122.1153653}, {"type": "node", "id": 6269865789, "lat": 47.4796069, "lon": -122.116581}, {"type": "node", "id": 6447270267, "lat": 47.4882233, "lon": -122.1544362}, {"type": "node", "id": 6447270268, "lat": 47.4882237, "lon": -122.1545153}, {"type": "node", "id": 6482995485, "lat": 47.4886448, "lon": -122.132167, "tags": {"amenity": "dojo", "name": "Highlands Judo Dojo"}}, {"type": "node", "id": 7228952250, "lat": 47.4973692, "lon": -122.1405172}, {"type": "node", "id": 7228952251, "lat": 47.4973654, "lon": -122.1397538}, {"type": "node", "id": 7274475030, "lat": 47.4964133, "lon": -122.1397641}, {"type": "node", "id": 7274475033, "lat": 47.4955388, "lon": -122.1393123}, {"type": "node", "id": 7555126789, "lat": 47.4877837, "lon": -122.1568914, "tags": {"amenity": "music_school", "education": "music_school", "name": "Do Re Mi Academy"}}, {"type": "node", "id": 7555126791, "lat": 47.4881968, "lon": -122.157311, "tags": {"name": "Ocean Clear Eyecare", "shop": "optician"}}, {"type": "node", "id": 7555126794, "lat": 47.4877859, "lon": -122.1572304, "tags": {"name": "Cookie Cutters", "shop": "hairdresser"}}, {"type": "node", "id": 7555126795, "lat": 47.489563, "lon": -122.1541678, "tags": {"addr:city": "Renton", "addr:housenumber": "4820", "addr:postcode": "98059", "addr:state": "WA", "addr:street": "Northeast 4th Street", "addr:unit": "A103", "name": "TMF Cuts", "opening_hours": "Mo-Fr 10:00-19:00; Sa 09:00-18:00; Su 10:00-18:00", "phone": "+1-425-226-1771", "shop": "hairdresser"}}, {"type": "node", "id": 7836707402, "lat": 47.4858569, "lon": -122.1589937, "tags": {"amenity": "letter_box"}}, {"type": "node", "id": 7836707404, "lat": 47.4852841, "lon": -122.1596918, "tags": {"amenity": "letter_box"}}, {"type": "node", "id": 8104252281, "lat": 47.4790863, "lon": -122.1277807, "tags": {"amenity": "bench"}}, {"type": "node", "id": 8104252282, "lat": 47.4789793, "lon": -122.1276423, "tags": {"amenity": "bench"}}, {"type": "node", "id": 8303941126, "lat": 47.4964834, "lon": -122.1456861, "tags": {"amenity": "bench"}}, {"type": "node", "id": 8303941127, "lat": 47.4965079, "lon": -122.1455763, "tags": {"amenity": "bench"}}, {"type": "node", "id": 9482056300, "lat": 47.482674, "lon": -122.1398105, "tags": {"amenity": "bench"}}, {"type": "node", "id": 9482056301, "lat": 47.482622, "lon": -122.139668, "tags": {"amenity": "bench"}}, {"type": "node", "id": 9672996417, "lat": 47.4877193, "lon": -122.1554537, "tags": {"name": "Nhu's Studio", "shop": "hairdresser"}}, {"type": "node", "id": 9672996517, "lat": 47.4898128, "lon": -122.1571526, "tags": {"amenity": "doctors", "healthcare": "doctor", "name": "Peak Sports & Spine Physical Therapy"}}, {"type": "node", "id": 9672996617, "lat": 47.4896964, "lon": -122.1571584, "tags": {"amenity": "dentist", "healthcare": "dentist", "name": "Sound Orthodontics"}}, {"type": "node", "id": 9672996717, "lat": 47.489818, "lon": -122.1569839, "tags": {"brand": "State Farm", "brand:wikidata": "Q2007336", "name": "State Farm", "office": "insurance"}}, {"type": "node", "id": 9901321312, "lat": 47.4896815, "lon": -122.1557944, "tags": {"amenity": "bench", "backrest": "yes", "covered": "yes"}}, {"type": "node", "id": 9901321313, "lat": 47.4883362, "lon": -122.1557664, "tags": {"amenity": "waste_basket", "covered": "no"}}, {"type": "node", "id": 9901321315, "lat": 47.4882221, "lon": -122.1559148, "tags": {"amenity": "waste_basket", "covered": "no"}}, {"type": "node", "id": 11052439361, "lat": 47.4875547, "lon": -122.1476994}, {"type": "node", "id": 11052439362, "lat": 47.4875574, "lon": -122.1479123}, {"type": "node", "id": 11810420704, "lat": 47.4761147, "lon": -122.1235049, "tags": {"amenity": "bench"}}, {"type": "node", "id": 11810420717, "lat": 47.4759424, "lon": -122.1230039, "tags": {"amenity": "bench"}}, {"type": "node", "id": 11981178951, "lat": 47.4898174, "lon": -122.154161}, {"type": "node", "id": 11981178956, "lat": 47.4899168, "lon": -122.1541666}, {"type": "node", "id": 11981179204, "lat": 47.4965992, "lon": -122.1524525}, {"type": "node", "id": 12179280043, "lat": 47.4888236, "lon": -122.1554246, "tags": {"addr:city": "Renton", "addr:housenumber": "4710", "addr:postcode": "98059", "addr:state": "WA", "addr:street": "Northeast 4th Street", "addr:unit": "C103", "amenity": "fast_food", "brand": "Wingstop", "brand:wikidata": "Q8025339", "cuisine": "wings", "delivery": "yes", "drive_through": "no", "name": "Wingstop", "opening_hours": "10:30-24:00", "outdoor_seating": "no", "phone": "+1-425-384-3313", "takeaway": "yes", "website": "https://www.wingstop.com/"}}, {"type": "node", "id": 12179322207, "lat": 47.4896402, "lon": -122.1571379, "tags": {"addr:city": "Renton", "addr:country": "US", "addr:housenumber": "451", "addr:postcode": "98059", "addr:state": "WA", "addr:street": "Duvall Avenue Northeast", "addr:unit": "220", "amenity": "dentist", "contact:email": "info@HighlandFamilyDental.com", "contact:facebook": "https://www.facebook.com/HIghland-Family-Dental-102752900236951/", "contact:phone": "+1-425-430-4450", "contact:website": "https://www.stephenchodds.com/", "healthcare": "dentist", "name": "Highland Family Dental", "opening_hours": "Mo 09:30-18:30; Tu-We 07:30-16:30; Th 07:30-16:00"}}, {"type": "node", "id": 12709192216, "lat": 47.4892434, "lon": -122.154163, "tags": {"addr:city": "Renton", "addr:housenumber": "4820", "addr:postcode": "98059", "addr:state": "WA", "addr:street": "Northeast 4th Street", "addr:unit": "A109", "amenity": "restaurant", "cuisine": "vietnamese", "name": "Happy Autumn", "phone": "+1-425-282-4465", "website": "https://www.happyautumnrenton.com/"}}, {"type": "node", "id": 12709215076, "lat": 47.488314, "lon": -122.1542547, "tags": {"addr:city": "Renton", "addr:housenumber": "4815", "addr:postcode": "98059", "addr:state": "WA", "addr:street": "Northeast 4th Street", "addr:unit": "Suite A", "amenity": "dentist", "email": "info@puredentalcarerenton.com", "healthcare": "dentist", "name": "Pure Dental Care", "opening_hours": "Mo-Fr 09:00-18:30; Tu,Sa 09:00-13:00; Th off", "operator": "Dr. Jolene Shih, DMD", "phone": "+1-425-223-4318", "website": "https://www.puredentalcarerenton.com"}}, {"type": "node", "id": 12815970362, "lat": 47.4863425, "lon": -122.1583028, "tags": {"amenity": "letter_box"}}, {"type": "node", "id": 12815970368, "lat": 47.4852096, "lon": -122.1577723, "tags": {"amenity": "letter_box"}}, {"type": "node", "id": 12815970370, "lat": 47.4846292, "lon": -122.1583912, "tags": {"amenity": "letter_box"}}, {"type": "node", "id": 12815970371, "lat": 47.4842695, "lon": -122.1579118, "tags": {"amenity": "letter_box"}}, {"type": "node", "id": 12815970379, "lat": 47.484979, "lon": -122.1568183, "tags": {"amenity": "letter_box"}}, {"type": "node", "id": 12815970383, "lat": 47.4864258, "lon": -122.1573568, "tags": {"amenity": "letter_box"}}, {"type": "node", "id": 12815970388, "lat": 47.4840693, "lon": -122.1594672, "tags": {"amenity": "letter_box"}}, {"type": "node", "id": 12815970391, "lat": 47.4832231, "lon": -122.1598891, "tags": {"amenity": "public_bookcase", "brand": "Little Free Library", "brand:wikidata": "Q6650101", "lit": "no", "public_bookcase:type": "reading_box"}}, {"type": "node", "id": 12815976946, "lat": 47.4881387, "lon": -122.1583137, "tags": {"amenity": "post_box", "drive_through": "no", "operator": "United States Postal Service", "operator:short": "USPS", "operator:type": "public", "operator:wikidata": "Q668687"}}, {"type": "node", "id": 12825026742, "lat": 47.4833709, "lon": -122.1581893, "tags": {"amenity": "letter_box"}}, {"type": "node", "id": 12825026743, "lat": 47.483131, "lon": -122.1568038, "tags": {"amenity": "letter_box"}}, {"type": "node", "id": 12825026749, "lat": 47.4836124, "lon": -122.1553778, "tags": {"amenity": "letter_box"}}, {"type": "node", "id": 12943519577, "lat": 47.4857144, "lon": -122.153963, "tags": {"amenity": "letter_box"}}, {"type": "node", "id": 12943519578, "lat": 47.4860589, "lon": -122.1507895, "tags": {"amenity": "letter_box"}}, {"type": "node", "id": 12943519579, "lat": 47.486059, "lon": -122.1507795, "tags": {"amenity": "letter_box"}}, {"type": "node", "id": 12943519582, "lat": 47.486082, "lon": -122.1548028, "tags": {"amenity": "letter_box"}}, {"type": "node", "id": 13064502524, "lat": 47.4883587, "lon": -122.1572962, "tags": {"addr:city": "Renton", "addr:housenumber": "4605", "addr:postcode": "98059", "addr:state": "WA", "addr:street": "Northeast 4th Street", "name": "GameBound Video Games", "opening_hours": "Mo 11:00-18:00; Tu-Sa 11:00-19:00; Su 12:00-16:00", "phone": "+1-425-282-4365", "shop": "video_games", "website": "https://www.gameboundvideogames.com/"}}, {"type": "node", "id": 13206049686, "lat": 47.4830955, "lon": -122.1548147, "tags": {"amenity": "public_bookcase", "brand": "Little Free Library", "brand:wikidata": "Q6650101", "lit": "no"}}, {"type": "node", "id": 13297190633, "lat": 47.4811806, "lon": -122.1192704}, {"type": "way", "id": 396479608, "nodes": [3992929411, 3992929412, 2102252386, 5469428692, 3992929414, 3992929415, 5469428691, 3992929416, 3992929411], "tags": {"addr:city": "Renton", "addr:housenumber": "4513", "addr:postcode": "98059", "addr:state": "WA", "addr:street": "Northeast 4th Street", "amenity": "bank", "atm": "yes", "brand": "U.S. Bank", "brand:wikidata": "Q739084", "building": "yes", "drive_through": "yes", "name": "U.S. Bank", "opening_hours": "Mo-Fr 09:00-17:00; Sa 09:00-13:00"}}, {"type": "way", "id": 396479610, "nodes": [3992929424, 1774098598, 3992929422, 3992929421, 3992929424], "tags": {"addr:city": "Renton", "addr:housenumber": "4605", "addr:postcode": "98059", "addr:state": "WA", "addr:street": "Northeast 4th Street", "amenity": "fast_food", "brand": "Carl's Jr.", "brand:wikidata": "Q1043486", "building": "yes", "cuisine": "burger", "drive_through": "yes", "name": "Carl's Jr.", "phone": "+1-425-255-5555", "ref": "1101754", "takeaway": "yes", "website": "https://locations.carlsjr.com/wa/renton/4525-ne-4th-st"}}, {"type": "way", "id": 396479614, "nodes": [3992929446, 6115099166, 6115099153, 6115099150, 1774098608, 3992929447, 3992929448, 3992929445, 3992929446], "tags": {"addr:city": "Renton", "addr:housenumber": "4810", "addr:postcode": "98059", "addr:state": "WA", "addr:street": "Northeast 4th Street", "amenity": "fast_food", "brand": "Jack in the Box", "brand:wikidata": "Q1538507", "building": "yes", "cuisine": "burger", "drive_through": "yes", "name": "Jack in the Box", "opening_hours": "24/7", "phone": "+1-425-793-5874", "takeaway": "yes", "website": "https://locations.jackinthebox.com/us/wa/renton/4810-ne-4th-st"}}, {"type": "way", "id": 447097086, "nodes": [6034212803, 4442922902, 4442922901, 4442922900, 4442922899, 6034212802, 6034212803], "tags": {"addr:city": "Renton", "addr:housenumber": "4701", "addr:postcode": "98059", "addr:state": "WA", "addr:street": "Northeast 4th Street", "alt_name": "Dairy Queen", "amenity": "fast_food", "brand": "DQ Grill & Chill", "brand:wikidata": "Q1141226", "building": "yes", "cuisine": "ice_cream;burger;chicken", "diet:vegetarian": "yes", "indoor_seating": "no", "name": "DQ Grill & Chill", "opening_hours": "Mo-Th 10:30-21:00; Fr,Sa 10:30-22:00; Su 11:00-21:00", "operator": "Dairy Queen", "outdoor_seating": "no", "phone": "+1-425-227-7118", "takeaway": "yes", "website": "https://www.dairyqueen.com/locations/wa/renton/4701-ne-4th-st/2303", "wheelchair": "yes"}}, {"type": "way", "id": 460387895, "nodes": [356548048, 4560583032, 4560583008, 4560583009, 4560583010, 4560583011, 356548048], "tags": {"addr:city": "Renton", "addr:housenumber": "130", "addr:postcode": "98059", "addr:state": "WA", "addr:street": "Jericho Avenue Southeast", "amenity": "school", "ele": "124", "gnis:feature_id": "1531258", "mascot": "Panthers", "name": "Maplewood Heights Elementary School", "operator": "Renton School District", "operator:short": "RSD", "operator:type": "public", "operator:wikidata": "Q7313556", "website": "https://maplewoodheights.rentonschools.us/"}}, {"type": "way", "id": 490818495, "nodes": [4830045498, 4907729798, 4830045497, 4830045494, 4830045495, 4830045498], "tags": {"amenity": "place_of_worship", "landuse": "religious", "name": "East Renton Community Church", "religion": "christian"}}, {"type": "way", "id": 490818497, "nodes": [4907729801, 4830045505, 4830045510, 4830045509, 4907729801], "tags": {"amenity": "fire_station", "landuse": "industrial", "name": "Fire Station 16"}}, {"type": "way", "id": 490818499, "nodes": [4830046126, 4830046124, 4830045506, 4830045507, 4830046126], "tags": {"amenity": "place_of_worship", "landuse": "religious", "name": "Lord of Life", "religion": "christian"}}, {"type": "way", "id": 498969187, "nodes": [4903017015, 4903017079, 4903017080, 4903017081, 4903017082, 4903017083, 4903017084, 4903017085, 4903017086, 13297190633, 1754431747, 53113260, 6269865788, 6269865789, 4904994027, 4903017090, 4904994111, 4903017091, 4903016927, 4903016926, 4903016925, 4903016924, 4903016923, 4903016922, 4903016921, 4903016920, 4903016919, 4903016918, 4903016917, 4903016916, 4903016915, 4903016914, 4903016913, 4903016912, 4903016911, 4903016910, 4903016909, 4467131572, 4903017092, 4903017093, 4903017094, 4903017095, 4903017096, 4903017097, 4903017098, 4903017099, 4903017015], "tags": {"addr:city": "Renton", "addr:housenumber": "16655", "addr:postcode": "98059", "addr:state": "WA", "addr:street": "Southeast 136th Street", "amenity": "school", "education": "school", "mascot": "Patriots", "name": "Liberty High School", "operator": "Issaquah School District", "wikidata": "Q6541780"}}, {"type": "way", "id": 499190834, "nodes": [3992929434, 4904994371, 4427343206, 4904994372, 11981178956, 11981178951, 4904994373, 3992929441, 3992929444, 4904994374, 4427343155, 4427343154, 4904994375, 4904994376, 4427343127, 2508946965, 2508946948, 4904994377, 4904994378, 4904994379, 3992929436, 3992929435, 3992929434], "tags": {"access": "yes", "amenity": "parking", "fee": "no", "parking": "surface"}}, {"type": "way", "id": 499397016, "nodes": [356548037, 7228952250, 7228952251, 7274475030, 4906777029, 7274475033, 4906777030, 4906777031, 356548037], "tags": {"amenity": "school", "education": "school", "ele": "158", "gnis:feature_id": "1531247", "mascot": "Rockets", "name": "Apollo Elementary School", "name:etymology:wikidata": "Q46611", "website": "https://apollo.isd411.org/"}}, {"type": "way", "id": 499403840, "nodes": [356541707, 5630874047, 5630874048, 4906837178, 4906837179, 4906837180, 4906837181, 5324218969, 4906837182, 4906837183, 4906837184, 4906837185, 4906837186, 5630874037, 5630874035, 4906837187, 5239052361, 356541707]}, {"type": "way", "id": 499403868, "nodes": [2340640140, 4906837299, 4906837300, 4906837301, 2340640140], "tags": {"amenity": "place_of_worship", "name": "Follow the Light Koinonia", "religion": "christian"}}, {"type": "way", "id": 499403873, "nodes": [4906837311, 4906837312, 4906837313, 11981179204, 4906837314, 4906837311], "tags": {"amenity": "place_of_worship", "denomination": "mormon", "name": "The Church of Jesus Christ of Latter-day Saints", "religion": "christian"}}, {"type": "way", "id": 499504823, "nodes": [4830045498, 4907729800, 4907729799, 4907729798, 4830045498], "tags": {"amenity": "place_of_worship", "denomination": "baptist", "landuse": "religious", "name": "Agape Baptist Church", "religion": "christian"}}, {"type": "way", "id": 640413167, "nodes": [1774098576, 6033101173, 6033101174, 6033101175, 6033101176, 6033101177, 6033101178, 6033101179, 6033101180, 6033101181, 1774098576], "tags": {"addr:city": "Renton", "addr:housenumber": "5321", "addr:postcode": "98059", "addr:state": "WA", "addr:street": "Northeast 4th Street", "building": "yes", "name": "Hop In Grocery and Deli", "phone": "+1-425-228-4273", "shop": "convenience"}}, {"type": "way", "id": 640544510, "nodes": [6034207005, 4894770987, 6034207004, 6034207002, 6034207001, 6034207003, 6034207005], "tags": {"addr:city": "Renton", "addr:housenumber": "4615", "addr:postcode": "98059", "addr:state": "WA", "addr:street": "Northeast 4th Street", "amenity": "fuel", "building": "yes", "name": "QFC Gas"}}, {"type": "way", "id": 650950982, "nodes": [6105315072, 6105315069, 6105315068, 1774098610, 6105315070, 6105315071, 6105315072], "tags": {"addr:city": "Renton", "addr:housenumber": "5301", "addr:postcode": "98059", "addr:state": "WA", "addr:street": "Northeast 4th Street", "amenity": "cafe", "building": "yes", "cuisine": "coffee_shop", "drive_through": "yes", "name": "Sorrento's Coffee", "opening_hours": "Su 07:30-17:00; Mo-Fri 05:30-17:30; Sa 06:30-17:30; PH off", "outdoor_seating": "yes", "phone": "+1-425-228-2951"}}, {"type": "way", "id": 650952014, "nodes": [6105335104, 6105335089, 6105335088, 6105335091, 6105335104], "tags": {"amenity": "shelter", "building": "yes"}}, {"type": "way", "id": 650952735, "nodes": [6105328495, 6105328478, 1774098591, 6105328483, 11052439361, 6105328486, 6105328548, 11052439362, 6105328495], "tags": {"amenity": "car_wash", "building": "yes", "name": "Car Wash"}}, {"type": "way", "id": 650952795, "nodes": [6105328778, 1774098577, 6105328763, 6105328766, 6105328778], "tags": {"amenity": "fuel", "brand": "Chevron", "brand:wikidata": "Q319642", "building": "yes", "name": "Chevron"}}, {"type": "way", "id": 652212169, "nodes": [6114984646, 6114984644, 6114984645, 6114984642, 6114984643, 6114984640, 6114984641, 6114984638, 6114984639, 6114984636, 6114984637, 4908996124, 6114984646], "tags": {"addr:city": "Renton", "addr:housenumber": "483", "addr:postcode": "98059", "addr:state": "WA", "addr:street": "Duvall Avenue Northeast", "amenity": "childcare", "building": "yes", "name": "Shooting Star Preschool"}}, {"type": "way", "id": 652212288, "nodes": [6114984775, 6114984776, 4929953852, 6114984774, 6114984775], "tags": {"addr:city": "Renton", "addr:housenumber": "4604", "addr:postcode": "98059", "addr:state": "WA", "addr:street": "Northeast 4th Street", "building": "yes", "name": "McLincy's Home Decoration", "shop": "interior_decoration"}}, {"type": "way", "id": 652223981, "nodes": [6115096415, 6115096419, 4830045480, 6115096283, 6115096415], "tags": {"addr:city": "Renton", "addr:housenumber": "15606", "addr:postcode": "98059", "addr:state": "WA", "addr:street": "Southeast 128th Street", "building": "yes", "name": "King County Water District No. 90", "office": "government"}}, {"type": "way", "id": 656050292, "nodes": [6034207359, 6447270268, 6447270267, 6146097112, 6146097113, 6146097114, 6146097115, 6146097116, 6146097117, 6146097118, 6034207359], "tags": {"addr:city": "Renton", "addr:housenumber": "4815", "addr:postcode": "98059", "addr:state": "WA", "addr:street": "Northeast 4th Street", "building": "yes", "building:levels": "3", "name": "Storage One on 4th", "phone": "+1-425-272-1196", "shop": "storage_rental", "website": "https://www.urbanstorage.com/locations/wa/renton/storage-one-on-4th-annex/"}}, {"type": "relation", "id": 7323325, "members": [{"type": "way", "ref": 499403840, "role": "outer"}, {"type": "way", "ref": 499403868, "role": "inner"}], "tags": {"amenity": "school", "education": "school", "ele": "144", "gnis:feature_id": "1510044", "grades": "9-12", "mascot": "Highlanders", "name": "Hazen High School", "religion": "none", "type": "multipolygon", "website": "https://hazen.rentonschools.us/", "wikidata": "Q5688251"}}]}