{"version": 0.6, "generator": "Overpass API 0.7.62.8 e802775f", "osm3s": {"timestamp_osm_base": "2025-12-06T07:43:35Z", "copyright": "The data included in this document is from www.openstreetmap.org. The data is made available under ODbL."}, "elements": [{"type": "node", "id": 46585058, "lat": 45.6626103, "lon": -108.778592}, {"type": "node", "id": 46585061, "lat": 45.6612261, "lon": -108.7785704}, {"type": "node", "id": 46658138, "lat": 45.662621, "lon": -108.7738223}, {"type": "node", "id": 46683120, "lat": 45.6626061, "lon": -108.780451}, {"type": "node", "id": 46688713, "lat": 45.6692287, "lon": -108.771459, "tags": {"highway": "traffic_signals", "traffic_signals": "traffic_lights"}}, {"type": "node", "id": 46714201, "lat": 45.662609, "lon": -108.779161}, {"type": "node", "id": 46730984, "lat": 45.664082, "lon": -108.7883}, {"type": "node", "id": 46730988, "lat": 45.6640725, "lon": -108.7873329}, {"type": "node", "id": 46730991, "lat": 45.6640779, "lon": -108.7871086}, {"type": "node", "id": 46730995, "lat": 45.6641196, "lon": -108.786828}, {"type": "node", "id": 46731003, "lat": 45.6653342, "lon": -108.7818258}, {"type": "node", "id": 46732161, "lat": 45.6626262, "lon": -108.771522}, {"type": "node", "id": 46742345, "lat": 45.6626242, "lon": -108.772421}, {"type": "node", "id": 46744698, "lat": 45.662603, "lon": -108.7818212}, {"type": "node", "id": 46787415, "lat": 45.6635814, "lon": -108.7818151}, {"type": "node", "id": 46795684, "lat": 45.6610465, "lon": -108.7818338}, {"type": "node", "id": 582908004, "lat": 45.6626074, "lon": -108.779858}, {"type": "node", "id": 582908005, "lat": 45.6626046, "lon": -108.781091}, {"type": "node", "id": 582908033, "lat": 45.6617087, "lon": -108.7745028}, {"type": "node", "id": 582908037, "lat": 45.6626226, "lon": -108.773099}, {"type": "node", "id": 582908062, "lat": 45.6690274, "lon": -108.7714906}, {"type": "node", "id": 3295049771, "lat": 45.6621434, "lon": -108.7779833, "tags": {"addr:city": "Laurel", "addr:housenumber": "506", "addr:postcode": "59044", "addr:state": "MT", "addr:street": "South 5th Street", "amenity": "place_of_worship", "name": "First Congregational Church of Laurel", "phone": "+1-406-628-7177", "religion": "christian", "source": "esri_USDOT_Montana", "website": "http://www.fcclaurel.org/"}}, {"type": "node", "id": 7873921371, "lat": 45.6692752, "lon": -108.7712634, "tags": {"crossing": "marked", "highway": "crossing"}}, {"type": "node", "id": 7873946691, "lat": 45.6699582, "lon": -108.7715997}, {"type": "node", "id": 7873946692, "lat": 45.6700245, "lon": -108.7713337}, {"type": "node", "id": 7873946693, "lat": 45.6700488, "lon": -108.7713461}, {"type": "node", "id": 7873946694, "lat": 45.6701127, "lon": -108.7710899}, {"type": "node", "id": 7873946695, "lat": 45.6699249, "lon": -108.7709941}, {"type": "node", "id": 7873946696, "lat": 45.6697948, "lon": -108.7715163}, {"type": "node", "id": 7873946698, "lat": 45.6698644, "lon": -108.7714273, "tags": {"leisure": "picnic_table"}}, {"type": "node", "id": 7888120898, "lat": 45.6695603, "lon": -108.7723716}, {"type": "node", "id": 7909248635, "lat": 45.66831, "lon": -108.7858499}, {"type": "node", "id": 9359287829, "lat": 45.6618199, "lon": -108.7785758}, {"type": "node", "id": 10281554260, "lat": 45.6698592, "lon": -108.7699171, "tags": {"name": "The Pelham School of Arts & Sciences", "office": "educational_institution"}}, {"type": "node", "id": 10281588878, "lat": 45.6694772, "lon": -108.7711545, "tags": {"name": "Country Cuts", "shop": "hairdresser"}}, {"type": "node", "id": 10281588879, "lat": 45.6695348, "lon": -108.7709472, "tags": {"name": "Trackside Quilting", "shop": "fabric"}}, {"type": "node", "id": 10281588880, "lat": 45.6695881, "lon": -108.7707303, "tags": {"amenity": "cafe", "name": "Laurel's Main St. Perk"}}, {"type": "node", "id": 10281588881, "lat": 45.6696176, "lon": -108.770624, "tags": {"name": "Uniquities", "shop": "antiques"}}, {"type": "node", "id": 10281588882, "lat": 45.6696373, "lon": -108.7705119, "tags": {"name": "Pollination Floral & Boutique", "shop": "clothes"}}, {"type": "node", "id": 10281588883, "lat": 45.6696547, "lon": -108.7704373, "tags": {"name": "Marilyn's Paint & Decor", "shop": "paint"}}, {"type": "node", "id": 10281588884, "lat": 45.6696914, "lon": -108.7702827, "tags": {"name": "Hair On Main", "shop": "beauty"}}, {"type": "node", "id": 10281588885, "lat": 45.6699008, "lon": -108.7703837, "tags": {"name": "Therapeutic Massage by Danielle", "shop": "massage"}}, {"type": "node", "id": 10281588886, "lat": 45.6696701, "lon": -108.7703685, "tags": {"amenity": "bar", "name": "Lucky Louie's"}}, {"type": "node", "id": 10281588889, "lat": 45.6686003, "lon": -108.7714842}, {"type": "node", "id": 10281588890, "lat": 45.6688377, "lon": -108.7705194}, {"type": "node", "id": 10281588891, "lat": 45.6692882, "lon": -108.7707324}, {"type": "node", "id": 10281588892, "lat": 45.6693907, "lon": -108.7707776}, {"type": "node", "id": 10281588893, "lat": 45.6691668, "lon": -108.770553, "tags": {"name": "Laurel Chamber of Commerce", "office": "government"}}, {"type": "node", "id": 10281588937, "lat": 45.6698547, "lon": -108.7730801}, {"type": "node", "id": 10281588938, "lat": 45.6697868, "lon": -108.7731202}, {"type": "node", "id": 10281588939, "lat": 45.6694223, "lon": -108.7729442}, {"type": "node", "id": 10281588940, "lat": 45.6699744, "lon": -108.772571}, {"type": "node", "id": 10281588943, "lat": 45.6695404, "lon": -108.7724541}, {"type": "node", "id": 10281588945, "lat": 45.6694934, "lon": -108.7726493}, {"type": "node", "id": 10281588947, "lat": 45.6693383, "lon": -108.7717596, "tags": {"name": "Blessed Beginnings", "shop": "antiques"}}, {"type": "node", "id": 10281588948, "lat": 45.6692711, "lon": -108.7720359, "tags": {"dance:teaching": "yes", "leisure": "dance", "name": "MJ Studios"}}, {"type": "node", "id": 10281588949, "lat": 45.6692966, "lon": -108.7719215, "tags": {"amenity": "ice_cream", "name": "The Yogurt Shop"}}, {"type": "node", "id": 10281588950, "lat": 45.6691922, "lon": -108.7723646, "tags": {"amenity": "dentist", "healthcare": "dentist", "name": "Jody L. Crowl, DDS Family Dentistry"}}, {"type": "node", "id": 10281588951, "lat": 45.6691437, "lon": -108.7725515, "tags": {"name": "King Koin Launderette", "self_service": "yes", "shop": "laundry"}}, {"type": "node", "id": 10281588952, "lat": 45.6691304, "lon": -108.7726216, "tags": {"name": "Elite Beauty Salon", "shop": "beauty"}}, {"type": "node", "id": 10281588953, "lat": 45.6695838, "lon": -108.7718357, "tags": {"name": "Thrifty Treasures Room", "shop": "variety_store"}}, {"type": "node", "id": 10281588954, "lat": 45.6697728, "lon": -108.7719751, "tags": {"amenity": "bank", "name": "Yellowstone Bank"}}, {"type": "node", "id": 10281588955, "lat": 45.6698997, "lon": -108.7720047, "tags": {"name": "Barber and Beauty", "shop": "hairdresser"}}, {"type": "node", "id": 10281603662, "lat": 45.6702803, "lon": -108.7737264}, {"type": "node", "id": 10281603663, "lat": 45.6698959, "lon": -108.7737285}, {"type": "node", "id": 10281603664, "lat": 45.6700193, "lon": -108.7732156}, {"type": "node", "id": 10281603665, "lat": 45.6702789, "lon": -108.7732141}, {"type": "node", "id": 10281603670, "lat": 45.6689355, "lon": -108.7734319, "tags": {"name": "Parks Real Estate", "office": "estate_agent"}}, {"type": "node", "id": 10281603671, "lat": 45.6689236, "lon": -108.7737506, "tags": {"name": "KC Interiors", "shop": "flooring"}}, {"type": "node", "id": 10281603672, "lat": 45.6690968, "lon": -108.7733198, "tags": {"name": "MonkeyWorks Automotive", "shop": "car_repair"}}, {"type": "node", "id": 10281603708, "lat": 45.6696783, "lon": -108.7735255, "tags": {"name": "The Sunshine Academy", "office": "educational_institution"}}, {"type": "node", "id": 10281670700, "lat": 45.6688262, "lon": -108.7757106, "tags": {"brand": "NAPA Auto Parts", "brand:wikidata": "Q6970842", "name": "NAPA Auto Parts", "shop": "car_parts"}}, {"type": "node", "id": 10281671147, "lat": 45.6686774, "lon": -108.774502, "tags": {"name": "Coburn Tax Service", "office": "tax_advisor"}}, {"type": "node", "id": 10281671148, "lat": 45.6686279, "lon": -108.7747352, "tags": {"name": "Big Sky Woodcrafters", "shop": "trophy"}}, {"type": "node", "id": 10281671149, "lat": 45.6685699, "lon": -108.7749497, "tags": {"craft": "plumber", "name": "Cornerstone Plumbing, Heating and Cooling"}}, {"type": "node", "id": 10281671150, "lat": 45.668517, "lon": -108.775163, "tags": {"alt_name": "Aeries Lodge", "amenity": "social_centre", "brand": "Fraternal Order of Eagles", "brand:wikidata": "Q5493810", "name": "Eagles Lodge", "official_name": "Fraternal Order of Eagles", "short_name": "FOE"}}, {"type": "node", "id": 10281671154, "lat": 45.6690472, "lon": -108.7747441, "tags": {"name": "Laurel Insurance", "office": "insurance"}}, {"type": "node", "id": 10281677416, "lat": 45.6685079, "lon": -108.7764463, "tags": {"name": "First In Hair", "shop": "beauty"}}, {"type": "node", "id": 10281677420, "lat": 45.6684933, "lon": -108.7768071, "tags": {"amenity": "restaurant", "cuisine": "chinese", "name": "Dragon Palace"}}, {"type": "node", "id": 10281677433, "lat": 45.6686422, "lon": -108.7773616, "tags": {"name": "Salon Envy", "shop": "beauty"}}, {"type": "node", "id": 10281677434, "lat": 45.6678486, "lon": -108.7772935, "tags": {"amenity": "restaurant", "name": "Redneck Pizza & Chicken"}}, {"type": "node", "id": 10281696805, "lat": 45.6685478, "lon": -108.7783194, "tags": {"amenity": "car_wash", "name": "Kwiki Car Wash"}}, {"type": "node", "id": 10281696806, "lat": 45.6678588, "lon": -108.7786205, "tags": {"addr:city": "Laurel", "addr:housenumber": "520", "addr:postcode": "59044", "addr:state": "MT", "addr:street": "West Main Street", "branch": "Laurel", "brand": "Anytime Fitness", "brand:wikidata": "Q4778364", "leisure": "fitness_centre", "name": "Anytime Fitness", "phone": "+1 406-633-4096", "ref": "5180", "website": "https://www.anytimefitness.com/gyms/5180/laurel-mt-59044/"}}, {"type": "node", "id": 10281696807, "lat": 45.6684599, "lon": -108.7787787, "tags": {"amenity": "fuel", "brand": "Conoco", "brand:wikidata": "Q109341187", "name": "Conoco", "website": "https://www.conoco.com/station/CON-CONOMART-III-0000902314/"}}, {"type": "node", "id": 10281696808, "lat": 45.6686504, "lon": -108.7787324, "tags": {"brand": "Conoco", "brand:wikidata": "Q109341187", "name": "Conoco", "shop": "convenience"}}, {"type": "node", "id": 10281696836, "lat": 45.6685515, "lon": -108.7795275, "tags": {"craft": "hvac", "name": "Culligan Water"}}, {"type": "node", "id": 10281696837, "lat": 45.6684609, "lon": -108.7798211, "tags": {"name": "Plantasia Flowers", "shop": "florist"}}, {"type": "node", "id": 10281696906, "lat": 45.6676109, "lon": -108.780837, "tags": {"name": "Laurel Maintenance Shop", "office": "government"}}, {"type": "node", "id": 10283014090, "lat": 45.6689519, "lon": -108.7808365, "tags": {"amenity": "veterinary", "name": "Friendship Veterinary Center"}}, {"type": "node", "id": 10283014091, "lat": 45.6691285, "lon": -108.7808968, "tags": {"name": "R N Appliance Co", "shop": "appliance"}}, {"type": "node", "id": 10283076931, "lat": 45.66805, "lon": -108.7808329, "tags": {"amenity": "bar", "name": "Caboose Saloon"}}, {"type": "node", "id": 10283076944, "lat": 45.6686633, "lon": -108.7831139, "tags": {"amenity": "casino", "name": "High Water Casino"}}, {"type": "node", "id": 10283076945, "lat": 45.6686443, "lon": -108.7827991, "tags": {"amenity": "fuel", "brand": "Cenex", "brand:wikidata": "Q62127191", "name": "Cenex"}}, {"type": "node", "id": 10283076946, "lat": 45.6690803, "lon": -108.7828746, "tags": {"name": "Town & Country Supply Business Offices", "office": "yes"}}, {"type": "node", "id": 10283076947, "lat": 45.6683102, "lon": -108.785032}, {"type": "node", "id": 10283076948, "lat": 45.6677179, "lon": -108.7850062}, {"type": "node", "id": 10283076949, "lat": 45.6666567, "lon": -108.7848341}, {"type": "node", "id": 10283076950, "lat": 45.6666594, "lon": -108.784356}, {"type": "node", "id": 10283076951, "lat": 45.6658815, "lon": -108.7843521}, {"type": "node", "id": 10283076997, "lat": 45.6683099, "lon": -108.786198}, {"type": "node", "id": 10283076998, "lat": 45.6654763, "lon": -108.7861778}, {"type": "node", "id": 10283087591, "lat": 45.6687639, "lon": -108.7842261, "tags": {"name": "Pryor Creek Bait Company", "shop": "fishing"}}, {"type": "node", "id": 10283093643, "lat": 45.668153, "lon": -108.7859057}, {"type": "node", "id": 10283093644, "lat": 45.6675624, "lon": -108.7859024}, {"type": "node", "id": 10283093645, "lat": 45.6675177, "lon": -108.7858451}, {"type": "node", "id": 10283093646, "lat": 45.6675271, "lon": -108.7850068}, {"type": "node", "id": 10283093647, "lat": 45.6677765, "lon": -108.7850405}, {"type": "node", "id": 10283093648, "lat": 45.6680024, "lon": -108.785229}, {"type": "node", "id": 10283093649, "lat": 45.6681342, "lon": -108.7855354}, {"type": "node", "id": 10283093650, "lat": 45.6673365, "lon": -108.785899}, {"type": "node", "id": 10283093651, "lat": 45.6667483, "lon": -108.7858956}, {"type": "node", "id": 10283093652, "lat": 45.6667083, "lon": -108.785835}, {"type": "node", "id": 10283093653, "lat": 45.6667201, "lon": -108.785}, {"type": "node", "id": 10283093654, "lat": 45.6669907, "lon": -108.7850573}, {"type": "node", "id": 10283093655, "lat": 45.667193, "lon": -108.7852559}, {"type": "node", "id": 10283093656, "lat": 45.667313, "lon": -108.7855455}, {"type": "node", "id": 10283093657, "lat": 45.6665766, "lon": -108.7859428}, {"type": "node", "id": 10283093658, "lat": 45.6663342, "lon": -108.7859024}, {"type": "node", "id": 10283093659, "lat": 45.6661177, "lon": -108.7857037}, {"type": "node", "id": 10283093660, "lat": 45.6659978, "lon": -108.7854445}, {"type": "node", "id": 10283093661, "lat": 45.665953, "lon": -108.7850607}, {"type": "node", "id": 10283093662, "lat": 45.6665554, "lon": -108.7850607}, {"type": "node", "id": 10283093663, "lat": 45.6665836, "lon": -108.7851145}, {"type": "node", "id": 10283093664, "lat": 45.6665577, "lon": -108.7848687}, {"type": "node", "id": 10283093665, "lat": 45.6662923, "lon": -108.784868}, {"type": "node", "id": 10283093666, "lat": 45.666293, "lon": -108.7843991}, {"type": "node", "id": 10283093667, "lat": 45.6665889, "lon": -108.7844}, {"type": "node", "id": 10283093668, "lat": 45.6665883, "lon": -108.7848149}, {"type": "node", "id": 10283093685, "lat": 45.66831, "lon": -108.7860875}, {"type": "node", "id": 10283093697, "lat": 45.6678155, "lon": -108.7859038}, {"type": "node", "id": 10283093698, "lat": 45.6675223, "lon": -108.7854345}, {"type": "node", "id": 10283093702, "lat": 45.6670249, "lon": -108.7858972}, {"type": "node", "id": 10283093703, "lat": 45.6667143, "lon": -108.7854145}, {"type": "node", "id": 10283093708, "lat": 45.6665802, "lon": -108.7855152}, {"type": "node", "id": 10283093713, "lat": 45.6663049, "lon": -108.7850607}, {"type": "node", "id": 10283093754, "lat": 45.6679823, "lon": -108.7864384, "tags": {"name": "U-STOR-IT Self Storage", "shop": "storage_rental"}}, {"type": "node", "id": 10283104914, "lat": 45.6687594, "lon": -108.7722624, "tags": {"amenity": "cafe", "cuisine": "coffee_shop", "name": "Koo Beans Coffee"}}, {"type": "node", "id": 10285529969, "lat": 45.6656569, "lon": -108.7692067}, {"type": "node", "id": 10285529970, "lat": 45.6656571, "lon": -108.7692458}, {"type": "node", "id": 10285529971, "lat": 45.6656206, "lon": -108.7692461}, {"type": "node", "id": 10285529972, "lat": 45.6656207, "lon": -108.7692702}, {"type": "node", "id": 10285529973, "lat": 45.6654445, "lon": -108.7692718}, {"type": "node", "id": 10285529974, "lat": 45.6654432, "lon": -108.7689714}, {"type": "node", "id": 10285529975, "lat": 45.6654713, "lon": -108.7689711}, {"type": "node", "id": 10285529976, "lat": 45.665471, "lon": -108.768896}, {"type": "node", "id": 10285529977, "lat": 45.6654981, "lon": -108.7688958}, {"type": "node", "id": 10285529978, "lat": 45.6654976, "lon": -108.7687682}, {"type": "node", "id": 10285529979, "lat": 45.6655651, "lon": -108.7687676}, {"type": "node", "id": 10285529980, "lat": 45.6655656, "lon": -108.7688925}, {"type": "node", "id": 10285529981, "lat": 45.6656218, "lon": -108.768892}, {"type": "node", "id": 10285529982, "lat": 45.6656221, "lon": -108.7689656}, {"type": "node", "id": 10285529983, "lat": 45.6660149, "lon": -108.7689622}, {"type": "node", "id": 10285530092, "lat": 45.6644037, "lon": -108.7699845}, {"type": "node", "id": 10285530093, "lat": 45.6645609, "lon": -108.7701661}, {"type": "node", "id": 10285530094, "lat": 45.6644894, "lon": -108.7702927}, {"type": "node", "id": 10285530095, "lat": 45.6643323, "lon": -108.7701111}, {"type": "node", "id": 10285530278, "lat": 45.6664067, "lon": -108.7732182}, {"type": "node", "id": 10285530279, "lat": 45.6660753, "lon": -108.7730514}, {"type": "node", "id": 10285530296, "lat": 45.6680727, "lon": -108.7720399, "tags": {"name": "Rapid Tire", "shop": "car_repair"}}, {"type": "node", "id": 10285530297, "lat": 45.6671226, "lon": -108.77184, "tags": {"amenity": "dentist", "healthcare": "dentist", "name": "Stokke Family Dentistry PLLC"}}, {"type": "node", "id": 10285530298, "lat": 45.6670508, "lon": -108.7721804, "tags": {"amenity": "post_depot", "brand": "UPS", "brand:wikidata": "Q155026", "operator": "UPS", "operator:type": "private", "operator:wikidata": "Q155026"}}, {"type": "node", "id": 10285530299, "lat": 45.6670698, "lon": -108.7720773, "tags": {"brand": "H&R Block", "brand:wikidata": "Q5627799", "name": "H&R Block", "office": "tax_advisor"}}, {"type": "node", "id": 10285530300, "lat": 45.6667529, "lon": -108.7731696, "tags": {"leisure": "fitness_centre", "name": "Locomotion Fitness Center"}}, {"type": "node", "id": 10285530301, "lat": 45.6664475, "lon": -108.7723469, "tags": {"name": "Locomotive Inn", "tourism": "motel"}}, {"type": "node", "id": 10285530302, "lat": 45.6660563, "lon": -108.7722035, "tags": {"amenity": "restaurant", "cuisine": "mexican", "name": "Fiesta Mexican"}}, {"type": "node", "id": 10285530303, "lat": 45.6658177, "lon": -108.7719782, "tags": {"amenity": "bar", "name": "Fowl Play Sports Bar & Casino"}}, {"type": "node", "id": 10285530304, "lat": 45.6654932, "lon": -108.7719065, "tags": {"amenity": "casino", "name": "Montana Lil's Casino"}}, {"type": "node", "id": 10285530305, "lat": 45.6648204, "lon": -108.7719884, "tags": {"brand": "Town Pump", "brand:wikidata": "Q7830004", "name": "Town Pump", "shop": "convenience"}}, {"type": "node", "id": 10285530306, "lat": 45.6650805, "lon": -108.7719509, "tags": {"amenity": "fuel", "brand": "Exxon", "brand:wikidata": "Q109675651", "name": "Exxon"}}, {"type": "node", "id": 10285530307, "lat": 45.6652594, "lon": -108.7723674, "tags": {"amenity": "fuel", "brand": "Exxon", "brand:wikidata": "Q109675651", "name": "Exxon"}}, {"type": "node", "id": 10285530308, "lat": 45.664694, "lon": -108.7716539, "tags": {"amenity": "fuel", "brand": "Exxon", "brand:wikidata": "Q109675651", "name": "Exxon"}}, {"type": "node", "id": 10285530309, "lat": 45.6643266, "lon": -108.771589, "tags": {"amenity": "car_wash", "automated": "yes", "name": "Touch-free Car Wash"}}, {"type": "node", "id": 10285530310, "lat": 45.6666679, "lon": -108.7703376, "tags": {"brand": "Albertsons", "brand:wikidata": "Q2831861", "name": "Albertsons", "shop": "supermarket"}}, {"type": "node", "id": 10285530311, "lat": 45.6659479, "lon": -108.7704202, "tags": {"addr:city": "Laurel", "addr:housenumber": "309", "addr:postcode": "59044", "addr:state": "MT", "addr:street": "South 1st Avenue", "amenity": "fast_food", "brand": "Wendy's", "brand:wikidata": "Q550258", "cuisine": "burger", "name": "Wendy's", "opening_hours": "09:00-22:00", "opening_hours:drive_through": "Mo-Th 06:30-22:30; Fr-Sa 06:30-23:30; Su 06:30-22:30", "phone": "+1 406-812-1010", "takeaway": "yes", "website": "https://locations.wendys.com/united-states/mt/laurel/309-s-1st-ave"}}, {"type": "node", "id": 10285530312, "lat": 45.6656189, "lon": -108.7709307, "tags": {"amenity": "casino", "name": "Cedar Ridge Casino"}}, {"type": "node", "id": 10285530313, "lat": 45.6655829, "lon": -108.7712266, "tags": {"amenity": "fuel", "brand": "Cenex", "brand:wikidata": "Q62127191", "name": "Cenex"}}, {"type": "node", "id": 10285530314, "lat": 45.665574, "lon": -108.7705807, "tags": {"addr:city": "Laurel", "addr:housenumber": "119", "addr:postcode": "59044", "addr:state": "MT", "addr:street": "Southeast 4th Street", "amenity": "fast_food", "brand": "Taco Bell", "brand:wikidata": "Q752941", "cuisine": "tex-mex", "name": "Taco Bell", "opening_hours": "Mo-Th 06:00-01:00; Fr-Sa 06:00-02:00; Su 06:00-01:00", "phone": "+1 406-628-7966", "takeaway": "yes", "website": "https://locations.tacobell.com/mt/laurel/119-se-4th-street.html"}}, {"type": "node", "id": 10285530315, "lat": 45.6655994, "lon": -108.7695363, "tags": {"name": "MasterLube", "shop": "car_repair"}}, {"type": "node", "id": 10285530316, "lat": 45.6650141, "lon": -108.770743, "tags": {"amenity": "cafe", "name": "Mazevo Coffee"}}, {"type": "node", "id": 10285530317, "lat": 45.6651683, "lon": -108.7707694, "tags": {"addr:city": "Laurel", "addr:housenumber": "401", "addr:postcode": "59044", "addr:state": "MT", "addr:street": "1st Avenue South", "addr:unit": "A", "amenity": "fast_food", "brand": "Subway", "brand:wikidata": "Q244457", "cuisine": "sandwich", "name": "Subway", "opening_hours": "09:00-21:00", "phone": "+1 406-628-9333", "takeaway": "yes", "website": "https://restaurants.subway.com/united-states/mt/laurel/401-1st-ave-south"}}, {"type": "node", "id": 10285530318, "lat": 45.665092, "lon": -108.7707595, "tags": {"alt_name": "Verizon Wireless", "brand": "Verizon", "brand:wikidata": "Q919641", "name": "Verizon", "shop": "mobile_phone"}}, {"type": "node", "id": 10285530319, "lat": 45.6647455, "lon": -108.7710409, "tags": {"amenity": "fuel", "brand": "Conoco", "brand:wikidata": "Q109341187", "name": "Conoco", "website": "https://www.conoco.com/station/CON-CONOMART-II-0000902302/"}}, {"type": "node", "id": 10285530320, "lat": 45.6647439, "lon": -108.7707997, "tags": {"brand": "Conoco", "brand:wikidata": "Q109341187", "name": "Conoco", "shop": "convenience"}}, {"type": "node", "id": 10285530321, "lat": 45.6670752, "lon": -108.7685521, "tags": {"craft": "sawmill", "name": "Fox Distribution"}}, {"type": "node", "id": 10285530322, "lat": 45.6648821, "lon": -108.7686156, "tags": {"brand": "Chevrolet", "brand:wikidata": "Q29570", "name": "Laurel Chevrolet", "shop": "car"}}, {"type": "node", "id": 10299667088, "lat": 45.6645457, "lon": -108.7832009}, {"type": "node", "id": 10299667089, "lat": 45.6644551, "lon": -108.7831889}, {"type": "node", "id": 10299667090, "lat": 45.6644189, "lon": -108.7830673}, {"type": "node", "id": 10299667091, "lat": 45.6644746, "lon": -108.7829657}, {"type": "node", "id": 10299667092, "lat": 45.6645679, "lon": -108.7829737}, {"type": "node", "id": 10299667093, "lat": 45.6646, "lon": -108.7831052}, {"type": "node", "id": 10299667094, "lat": 45.6650754, "lon": -108.7828611}, {"type": "node", "id": 10299667100, "lat": 45.664582, "lon": -108.7818213}, {"type": "node", "id": 10299667113, "lat": 45.6639104, "lon": -108.7880113}, {"type": "node", "id": 10299667114, "lat": 45.663229, "lon": -108.7867659}, {"type": "node", "id": 10299667115, "lat": 45.6621845, "lon": -108.7844601}, {"type": "node", "id": 10299667116, "lat": 45.6615976, "lon": -108.783115}, {"type": "node", "id": 10299667117, "lat": 45.6613788, "lon": -108.7827592}, {"type": "node", "id": 10299667119, "lat": 45.6647856, "lon": -108.7833701}, {"type": "node", "id": 10299667120, "lat": 45.6647194, "lon": -108.7834113}, {"type": "node", "id": 10299667121, "lat": 45.6646452, "lon": -108.783167}, {"type": "node", "id": 10299667122, "lat": 45.6647285, "lon": -108.7831152}, {"type": "node", "id": 10299667123, "lat": 45.6647807, "lon": -108.783287}, {"type": "node", "id": 10299667142, "lat": 45.6650925, "lon": -108.7818251}, {"type": "node", "id": 10299671915, "lat": 45.662604, "lon": -108.781355}, {"type": "node", "id": 10299671919, "lat": 45.6626035, "lon": -108.781579}, {"type": "node", "id": 10299671920, "lat": 45.6633998, "lon": -108.7814653, "tags": {"amenity": "social_facility", "name": "Laurel Senior Citizen Center", "social_facility": "group_home", "social_facility:for": "senior"}}, {"type": "node", "id": 10299672028, "lat": 45.6645813, "lon": -108.783028}, {"type": "node", "id": 10299672032, "lat": 45.6640802, "lon": -108.7881125}, {"type": "node", "id": 10299672038, "lat": 45.6640744, "lon": -108.7872515}, {"type": "node", "id": 10299680586, "lat": 45.6615325, "lon": -108.7745022}, {"type": "node", "id": 10299681815, "lat": 45.6612221, "lon": -108.7818232}, {"type": "node", "id": 10299681848, "lat": 45.6624423, "lon": -108.7814929}, {"type": "node", "id": 10299681849, "lat": 45.662184, "lon": -108.7816088}, {"type": "node", "id": 10299681850, "lat": 45.6616892, "lon": -108.7814992}, {"type": "node", "id": 10299681851, "lat": 45.6616871, "lon": -108.780785}, {"type": "node", "id": 10299681852, "lat": 45.6620986, "lon": -108.7803434}, {"type": "node", "id": 10299681853, "lat": 45.6623503, "lon": -108.7806065}, {"type": "node", "id": 10299681854, "lat": 45.6624357, "lon": -108.7807694}, {"type": "node", "id": 10299681855, "lat": 45.6624751, "lon": -108.7814146}, {"type": "node", "id": 10299681856, "lat": 45.661667, "lon": -108.7789639}, {"type": "node", "id": 10299681857, "lat": 45.6614922, "lon": -108.7794147}, {"type": "node", "id": 10299681858, "lat": 45.6614894, "lon": -108.77955}, {"type": "node", "id": 10299681859, "lat": 45.6612205, "lon": -108.779718}, {"type": "node", "id": 10299681860, "lat": 45.6612198, "lon": -108.778677}, {"type": "node", "id": 10299681861, "lat": 45.6616025, "lon": -108.778677}, {"type": "node", "id": 10299681862, "lat": 45.6616111, "lon": -108.7789311}, {"type": "node", "id": 10299681863, "lat": 45.6623396, "lon": -108.781539}, {"type": "node", "id": 10299681871, "lat": 45.6624615, "lon": -108.7811923}, {"type": "node", "id": 10299684314, "lat": 45.6653062, "lon": -108.77781, "tags": {"amenity": "music_school", "name": "Lyrical Lines Piano Studio"}}, {"type": "node", "id": 10299686726, "lat": 45.6622492, "lon": -108.7745053}, {"type": "node", "id": 10299686727, "lat": 45.662332, "lon": -108.771521}, {"type": "node", "id": 10299686728, "lat": 45.6622508, "lon": -108.7738299}, {"type": "node", "id": 10299692575, "lat": 45.6654001, "lon": -108.7741896, "tags": {"name": "Community Hope", "office": "association"}}, {"type": "node", "id": 10300767687, "lat": 45.6659489, "lon": -108.7674753, "tags": {"brand": "CVS Pharmacy", "brand:website": "https://www.cvs.com/", "brand:wikidata": "Q2078880", "name": "CVS Pharmacy", "shop": "chemist", "short_name": "CVS", "website": "https://www.cvs.com/store-locator/laurel-mt-pharmacies/307-se-4th-st-laurel-mt-59044/storeid=5305"}}, {"type": "node", "id": 10300767688, "lat": 45.6659272, "lon": -108.7677551}, {"type": "node", "id": 10300767689, "lat": 45.6654241, "lon": -108.7677472}, {"type": "node", "id": 10300767690, "lat": 45.6654275, "lon": -108.7673017}, {"type": "node", "id": 10300767691, "lat": 45.665774, "lon": -108.7673072}, {"type": "node", "id": 10300767692, "lat": 45.6657714, "lon": -108.7676406}, {"type": "node", "id": 10300767693, "lat": 45.665928, "lon": -108.7676431}, {"type": "node", "id": 10300767703, "lat": 45.6657218, "lon": -108.7670233, "tags": {"amenity": "bank", "brand": "First Interstate BancSystem", "brand:wikidata": "Q5453107", "name": "First Interstate Bank"}}, {"type": "node", "id": 10300767704, "lat": 45.6655943, "lon": -108.7671297}, {"type": "node", "id": 10300767705, "lat": 45.6654239, "lon": -108.7671287}, {"type": "node", "id": 10300767706, "lat": 45.6654249, "lon": -108.7667343}, {"type": "node", "id": 10300767707, "lat": 45.6655559, "lon": -108.766735}, {"type": "node", "id": 10300767708, "lat": 45.6655554, "lon": -108.7669183}, {"type": "node", "id": 10300769515, "lat": 45.6672469, "lon": -108.7713553}, {"type": "node", "id": 10300769516, "lat": 45.6660934, "lon": -108.7713486}, {"type": "node", "id": 10300769517, "lat": 45.6660945, "lon": -108.7709522}, {"type": "node", "id": 10300769518, "lat": 45.6659088, "lon": -108.7709511}, {"type": "node", "id": 10300769519, "lat": 45.6659098, "lon": -108.7706193}, {"type": "node", "id": 10300769520, "lat": 45.6660863, "lon": -108.7706202}, {"type": "node", "id": 10300769521, "lat": 45.6660882, "lon": -108.769942}, {"type": "node", "id": 10300769522, "lat": 45.6662848, "lon": -108.7699431}, {"type": "node", "id": 10300769523, "lat": 45.6662829, "lon": -108.7706503}, {"type": "node", "id": 10300769524, "lat": 45.6664445, "lon": -108.7706512}, {"type": "node", "id": 10300769525, "lat": 45.6664442, "lon": -108.7707726}, {"type": "node", "id": 10300769526, "lat": 45.6669815, "lon": -108.7707757}, {"type": "node", "id": 10300769527, "lat": 45.666983, "lon": -108.7702521}, {"type": "node", "id": 10300769528, "lat": 45.6672501, "lon": -108.7702537}, {"type": "node", "id": 10300769529, "lat": 45.665522, "lon": -108.771152}, {"type": "node", "id": 10300769530, "lat": 45.6653989, "lon": -108.771151}, {"type": "node", "id": 10300769531, "lat": 45.6654004, "lon": -108.7707862}, {"type": "node", "id": 10300769532, "lat": 45.6655235, "lon": -108.7707873}, {"type": "node", "id": 10300769533, "lat": 45.6657547, "lon": -108.7704887}, {"type": "node", "id": 10300769534, "lat": 45.6654749, "lon": -108.7704867}, {"type": "node", "id": 10300769535, "lat": 45.6654753, "lon": -108.770386}, {"type": "node", "id": 10300769536, "lat": 45.6654301, "lon": -108.7703295}, {"type": "node", "id": 10300769537, "lat": 45.665431, "lon": -108.7700884}, {"type": "node", "id": 10300769538, "lat": 45.6657561, "lon": -108.7700908}, {"type": "node", "id": 10300769539, "lat": 45.6661789, "lon": -108.772086}, {"type": "node", "id": 10300769540, "lat": 45.6659515, "lon": -108.771967}, {"type": "node", "id": 10300769541, "lat": 45.6659518, "lon": -108.771839}, {"type": "node", "id": 10300769542, "lat": 45.6657267, "lon": -108.771838}, {"type": "node", "id": 10300769543, "lat": 45.6657272, "lon": -108.7715911}, {"type": "node", "id": 10300769544, "lat": 45.6662465, "lon": -108.7715932}, {"type": "node", "id": 10300769545, "lat": 45.6662461, "lon": -108.7718232}, {"type": "node", "id": 10300769546, "lat": 45.6663968, "lon": -108.771844}, {"type": "node", "id": 10300769547, "lat": 45.6662965, "lon": -108.7717935}, {"type": "node", "id": 10300769548, "lat": 45.6660771, "lon": -108.7726857}, {"type": "node", "id": 10300769549, "lat": 45.6661555, "lon": -108.7727251}, {"type": "node", "id": 10300769550, "lat": 45.6665493, "lon": -108.77329}, {"type": "node", "id": 10300769551, "lat": 45.6666517, "lon": -108.7728735}, {"type": "node", "id": 10300769552, "lat": 45.6664548, "lon": -108.7727743}, {"type": "node", "id": 10300769553, "lat": 45.6664357, "lon": -108.7728518}, {"type": "node", "id": 10300769554, "lat": 45.6662393, "lon": -108.7727528}, {"type": "node", "id": 10300769555, "lat": 45.6664093, "lon": -108.772062}, {"type": "node", "id": 10300769556, "lat": 45.6663505, "lon": -108.7720323}, {"type": "node", "id": 10300769557, "lat": 45.6669686, "lon": -108.7731328}, {"type": "node", "id": 10300769558, "lat": 45.6668505, "lon": -108.7730764}, {"type": "node", "id": 10300769559, "lat": 45.6668737, "lon": -108.7729767}, {"type": "node", "id": 10300769560, "lat": 45.666661, "lon": -108.7728752}, {"type": "node", "id": 10300769561, "lat": 45.6666855, "lon": -108.7727702}, {"type": "node", "id": 10300769562, "lat": 45.6665787, "lon": -108.7727192}, {"type": "node", "id": 10300769563, "lat": 45.6668316, "lon": -108.7716339}, {"type": "node", "id": 10300769564, "lat": 45.667061, "lon": -108.7716339}, {"type": "node", "id": 10300769565, "lat": 45.666923, "lon": -108.772225}, {"type": "node", "id": 10300769566, "lat": 45.6671546, "lon": -108.7723357}, {"type": "node", "id": 10300769567, "lat": 45.6676003, "lon": -108.7722722}, {"type": "node", "id": 10300769568, "lat": 45.667419, "lon": -108.772182}, {"type": "node", "id": 10300769569, "lat": 45.6675371, "lon": -108.7716962}, {"type": "node", "id": 10300769570, "lat": 45.6676398, "lon": -108.7717473}, {"type": "node", "id": 10300769571, "lat": 45.6675859, "lon": -108.7719687}, {"type": "node", "id": 10300769572, "lat": 45.6675309, "lon": -108.7719413}, {"type": "node", "id": 10300769573, "lat": 45.6675187, "lon": -108.7719916}, {"type": "node", "id": 10300769574, "lat": 45.6676523, "lon": -108.7720581}, {"type": "node", "id": 10300769575, "lat": 45.6660292, "lon": -108.7731626}, {"type": "node", "id": 10300769576, "lat": 45.6659303, "lon": -108.7731176}, {"type": "node", "id": 10300769577, "lat": 45.6659723, "lon": -108.7729376}, {"type": "node", "id": 10300769578, "lat": 45.6656743, "lon": -108.7727726}, {"type": "node", "id": 10300769579, "lat": 45.6656833, "lon": -108.7726847}, {"type": "node", "id": 10300769580, "lat": 45.6654347, "lon": -108.7726269}, {"type": "node", "id": 10300769581, "lat": 45.6655066, "lon": -108.7721126}, {"type": "node", "id": 10300769582, "lat": 45.665562, "lon": -108.7721084}, {"type": "node", "id": 10300769583, "lat": 45.6655635, "lon": -108.7716284}, {"type": "node", "id": 10300769584, "lat": 45.6656653, "lon": -108.7716348}, {"type": "node", "id": 10300769585, "lat": 45.6656623, "lon": -108.7722455}, {"type": "node", "id": 10300769586, "lat": 45.6657791, "lon": -108.7722455}, {"type": "node", "id": 10300769587, "lat": 45.6657851, "lon": -108.7723355}, {"type": "node", "id": 10300769588, "lat": 45.6659154, "lon": -108.7723441}, {"type": "node", "id": 10300769589, "lat": 45.6658749, "lon": -108.7725498}, {"type": "node", "id": 10300769590, "lat": 45.6660636, "lon": -108.7726462}, {"type": "node", "id": 10300769591, "lat": 45.6660217, "lon": -108.7728154}, {"type": "node", "id": 10300769592, "lat": 45.6661055, "lon": -108.7728562}, {"type": "node", "id": 10300769593, "lat": 45.6651819, "lon": -108.7711917}, {"type": "node", "id": 10300769594, "lat": 45.6649615, "lon": -108.7711743}, {"type": "node", "id": 10300769595, "lat": 45.6649711, "lon": -108.7709273}, {"type": "node", "id": 10300769596, "lat": 45.6651914, "lon": -108.7709447}, {"type": "node", "id": 10300769597, "lat": 45.6651361, "lon": -108.7706077}, {"type": "node", "id": 10300769598, "lat": 45.6649291, "lon": -108.7706093}, {"type": "node", "id": 10300769599, "lat": 45.6649301, "lon": -108.7708827}, {"type": "node", "id": 10300769600, "lat": 45.664843, "lon": -108.7708833}, {"type": "node", "id": 10300769601, "lat": 45.6648417, "lon": -108.7705317}, {"type": "node", "id": 10300769602, "lat": 45.6645738, "lon": -108.7705337}, {"type": "node", "id": 10300769603, "lat": 45.6647221, "lon": -108.7699594}, {"type": "node", "id": 10300769604, "lat": 45.6652159, "lon": -108.7699556}, {"type": "node", "id": 10300769605, "lat": 45.6652181, "lon": -108.7705275}, {"type": "node", "id": 10300769606, "lat": 45.6651358, "lon": -108.7705282}, {"type": "node", "id": 10300769607, "lat": 45.6659151, "lon": -108.769949}, {"type": "node", "id": 10300769608, "lat": 45.6655228, "lon": -108.7699395}, {"type": "node", "id": 10300771009, "lat": 45.6655252, "lon": -108.7697278}, {"type": "node", "id": 10300771010, "lat": 45.6659176, "lon": -108.7697372}, {"type": "node", "id": 10300771011, "lat": 45.6651996, "lon": -108.7698958}, {"type": "node", "id": 10300771012, "lat": 45.66482, "lon": -108.7698957}, {"type": "node", "id": 10300771013, "lat": 45.6647406, "lon": -108.7695428}, {"type": "node", "id": 10300771014, "lat": 45.6645957, "lon": -108.7694218}, {"type": "node", "id": 10300771015, "lat": 45.6645354, "lon": -108.7693107}, {"type": "node", "id": 10300771016, "lat": 45.664525, "lon": -108.76898}, {"type": "node", "id": 10300771017, "lat": 45.6642404, "lon": -108.7679163}, {"type": "node", "id": 10300771018, "lat": 45.6651419, "lon": -108.7679147}, {"type": "node", "id": 10300771019, "lat": 45.6651424, "lon": -108.768548}, {"type": "node", "id": 10300771020, "lat": 45.6649958, "lon": -108.7685482}, {"type": "node", "id": 10300771021, "lat": 45.6649955, "lon": -108.7681759}, {"type": "node", "id": 10300771022, "lat": 45.6646638, "lon": -108.7681765}, {"type": "node", "id": 10300771023, "lat": 45.6646641, "lon": -108.7686501}, {"type": "node", "id": 10300771024, "lat": 45.6647729, "lon": -108.7686499}, {"type": "node", "id": 10300771025, "lat": 45.6647731, "lon": -108.7690225}, {"type": "node", "id": 10300771026, "lat": 45.6648974, "lon": -108.7690223}, {"type": "node", "id": 10300771027, "lat": 45.6648974, "lon": -108.7690914}, {"type": "node", "id": 10300771028, "lat": 45.6651254, "lon": -108.7690913}, {"type": "node", "id": 10300771029, "lat": 45.6651254, "lon": -108.7690325}, {"type": "node", "id": 10300771030, "lat": 45.6651998, "lon": -108.7690325}, {"type": "node", "id": 10300771035, "lat": 45.6652035, "lon": -108.7726657}, {"type": "node", "id": 10300771036, "lat": 45.6644885, "lon": -108.7720192}, {"type": "node", "id": 10300771037, "lat": 45.6644878, "lon": -108.7717613}, {"type": "node", "id": 10300771038, "lat": 45.6645957, "lon": -108.7717607}, {"type": "node", "id": 10300771039, "lat": 45.6645963, "lon": -108.7719764}, {"type": "node", "id": 10300771040, "lat": 45.6652478, "lon": -108.7725652}, {"type": "node", "id": 10300771041, "lat": 45.6654042, "lon": -108.772149}, {"type": "node", "id": 10300771042, "lat": 45.6652879, "lon": -108.7721471}, {"type": "node", "id": 10300771043, "lat": 45.6652919, "lon": -108.7716311}, {"type": "node", "id": 10300771044, "lat": 45.6654082, "lon": -108.7716329}, {"type": "node", "id": 10300771055, "lat": 45.6655778, "lon": -108.7687483}, {"type": "node", "id": 10300771056, "lat": 45.665413, "lon": -108.7687484}, {"type": "node", "id": 10300771057, "lat": 45.665413, "lon": -108.7685094}, {"type": "node", "id": 10300771058, "lat": 45.6655934, "lon": -108.7685093}, {"type": "node", "id": 10300771059, "lat": 45.6655934, "lon": -108.768443}, {"type": "node", "id": 10300771060, "lat": 45.6662123, "lon": -108.7684429}, {"type": "node", "id": 10300771061, "lat": 45.6662124, "lon": -108.7686294}, {"type": "node", "id": 10300771062, "lat": 45.6661017, "lon": -108.7686295}, {"type": "node", "id": 10300771063, "lat": 45.6661018, "lon": -108.7688619}, {"type": "node", "id": 10300771064, "lat": 45.6660351, "lon": -108.768862}, {"type": "node", "id": 10300771065, "lat": 45.6660351, "lon": -108.7689394}, {"type": "node", "id": 10300771066, "lat": 45.6656275, "lon": -108.7689397}, {"type": "node", "id": 10300771067, "lat": 45.6656275, "lon": -108.7688531}, {"type": "node", "id": 10300771068, "lat": 45.6655779, "lon": -108.7688531}, {"type": "node", "id": 10300771090, "lat": 45.6663079, "lon": -108.7682816}, {"type": "node", "id": 10300771091, "lat": 45.6661319, "lon": -108.7682809}, {"type": "node", "id": 10300771092, "lat": 45.6661322, "lon": -108.7681522}, {"type": "node", "id": 10300771093, "lat": 45.6656019, "lon": -108.7681499}, {"type": "node", "id": 10300771094, "lat": 45.6656025, "lon": -108.7678705}, {"type": "node", "id": 10300771095, "lat": 45.6663087, "lon": -108.7678734}, {"type": "node", "id": 10300771096, "lat": 45.6655604, "lon": -108.7682382}, {"type": "node", "id": 10300771097, "lat": 45.665421, "lon": -108.7682398}, {"type": "node", "id": 10300771098, "lat": 45.6654192, "lon": -108.7678972}, {"type": "node", "id": 10300771099, "lat": 45.6655586, "lon": -108.7678958}, {"type": "node", "id": 10300771100, "lat": 45.6660159, "lon": -108.769203}, {"type": "node", "id": 10300771101, "lat": 45.665745, "lon": -108.7682863, "tags": {"amenity": "fast_food", "brand": "McDonald's", "brand:wikidata": "Q38076", "cuisine": "burger", "name": "McDonald's", "takeaway": "yes", "website": "https://www.mcdonalds.com/us/en-us/location/mt/laurel/301-se-4th-street/31872.html"}}, {"type": "node", "id": 10300771113, "lat": 45.6651515, "lon": -108.7677987}, {"type": "node", "id": 10300771114, "lat": 45.6647701, "lon": -108.7677982}, {"type": "node", "id": 10300771115, "lat": 45.6647707, "lon": -108.7667136}, {"type": "node", "id": 10300771116, "lat": 45.6651523, "lon": -108.7667141}, {"type": "node", "id": 10300771117, "lat": 45.6645027, "lon": -108.7669584, "tags": {"addr:city": "Laurel", "addr:housenumber": "400", "addr:postcode": "59044", "addr:state": "MT", "addr:street": "Southeast 4th Street", "brand": "Tractor Supply Company", "brand:wikidata": "Q15109925", "name": "Tractor Supply Company", "opening_hours": "Mo-Sa 08:00-21:00; Su 09:00-19:00", "phone": "+1 406-628-2292", "ref": "1381", "shop": "country_store"}}, {"type": "node", "id": 10300778109, "lat": 45.6655949, "lon": -108.7669185}, {"type": "node", "id": 10300778110, "lat": 45.6659525, "lon": -108.7671165}, {"type": "node", "id": 10300778111, "lat": 45.6658369, "lon": -108.7671152}, {"type": "node", "id": 10300778112, "lat": 45.6658386, "lon": -108.7667957}, {"type": "node", "id": 10300778113, "lat": 45.6659542, "lon": -108.7667969}, {"type": "node", "id": 10300778114, "lat": 45.666105, "lon": -108.7671051}, {"type": "node", "id": 10300778115, "lat": 45.6659851, "lon": -108.7671055}, {"type": "node", "id": 10300778116, "lat": 45.6659846, "lon": -108.7667674}, {"type": "node", "id": 10300778117, "lat": 45.6661044, "lon": -108.766767}, {"type": "node", "id": 10301559531, "lat": 45.6679115, "lon": -108.7600055}, {"type": "node", "id": 10301559532, "lat": 45.6675179, "lon": -108.7599987}, {"type": "node", "id": 10301559533, "lat": 45.6675168, "lon": -108.7601247}, {"type": "node", "id": 10301559534, "lat": 45.6671027, "lon": -108.7601175}, {"type": "node", "id": 10301559535, "lat": 45.6671056, "lon": -108.7597716}, {"type": "node", "id": 10301559536, "lat": 45.66713, "lon": -108.759772}, {"type": "node", "id": 10301559537, "lat": 45.6671321, "lon": -108.7595199}, {"type": "node", "id": 10301559538, "lat": 45.666999, "lon": -108.7595176}, {"type": "node", "id": 10301559539, "lat": 45.6669994, "lon": -108.7594774}, {"type": "node", "id": 10301559540, "lat": 45.6669825, "lon": -108.7594771}, {"type": "node", "id": 10301559541, "lat": 45.6669843, "lon": -108.7592599}, {"type": "node", "id": 10301559542, "lat": 45.6670078, "lon": -108.7592603}, {"type": "node", "id": 10301559543, "lat": 45.6670086, "lon": -108.7591557}, {"type": "node", "id": 10301559544, "lat": 45.6670602, "lon": -108.7591566}, {"type": "node", "id": 10301559545, "lat": 45.6670633, "lon": -108.7587918}, {"type": "node", "id": 10301559546, "lat": 45.6670033, "lon": -108.7587908}, {"type": "node", "id": 10301559547, "lat": 45.6670043, "lon": -108.7586755}, {"type": "node", "id": 10301559548, "lat": 45.6669837, "lon": -108.7586751}, {"type": "node", "id": 10301559549, "lat": 45.6669868, "lon": -108.7583024}, {"type": "node", "id": 10301559550, "lat": 45.6670562, "lon": -108.7583036}, {"type": "node", "id": 10301559551, "lat": 45.6670577, "lon": -108.7581266}, {"type": "node", "id": 10301559552, "lat": 45.667856, "lon": -108.7581404}, {"type": "node", "id": 10301559553, "lat": 45.667852, "lon": -108.7586151}, {"type": "node", "id": 10301559554, "lat": 45.6679982, "lon": -108.7586176}, {"type": "node", "id": 10301559555, "lat": 45.6679956, "lon": -108.758926}, {"type": "node", "id": 10301559556, "lat": 45.6679206, "lon": -108.7589247}, {"type": "node", "id": 10301559577, "lat": 45.6668581, "lon": -108.7628133, "tags": {"name": "Pet Palace", "shop": "pet_grooming"}}, {"type": "node", "id": 10301559581, "lat": 45.6669, "lon": -108.7605035}, {"type": "node", "id": 10301559582, "lat": 45.6660353, "lon": -108.760511}, {"type": "node", "id": 10301559583, "lat": 45.6659668, "lon": -108.7601866}, {"type": "node", "id": 10301559584, "lat": 45.6659035, "lon": -108.7598396}, {"type": "node", "id": 10301559585, "lat": 45.6658455, "lon": -108.7594171}, {"type": "node", "id": 10301559586, "lat": 45.6658191, "lon": -108.7591907}, {"type": "node", "id": 10301559587, "lat": 45.6657928, "lon": -108.7589531}, {"type": "node", "id": 10301559588, "lat": 45.6657796, "lon": -108.7579459}, {"type": "node", "id": 10301559589, "lat": 45.6658956, "lon": -108.7579497}, {"type": "node", "id": 10301559590, "lat": 45.6658956, "lon": -108.757844}, {"type": "node", "id": 10301559591, "lat": 45.6668842, "lon": -108.7578591}, {"type": "node", "id": 10301559592, "lat": 45.665723, "lon": -108.7609751}, {"type": "node", "id": 10301559593, "lat": 45.6652201, "lon": -108.760969}, {"type": "node", "id": 10301559594, "lat": 45.6652233, "lon": -108.7604237}, {"type": "node", "id": 10301559595, "lat": 45.6653585, "lon": -108.7604254}, {"type": "node", "id": 10301559596, "lat": 45.6653565, "lon": -108.760754}, {"type": "node", "id": 10301559597, "lat": 45.6654259, "lon": -108.7607549}, {"type": "node", "id": 10301559598, "lat": 45.6654262, "lon": -108.7607011}, {"type": "node", "id": 10301559599, "lat": 45.6657246, "lon": -108.7607047}, {"type": "node", "id": 10301559607, "lat": 45.6665972, "lon": -108.7609653}, {"type": "node", "id": 10301559608, "lat": 45.6664911, "lon": -108.7609641}, {"type": "node", "id": 10301565520, "lat": 45.6648603, "lon": -108.7657929, "tags": {"brand": "Ford", "brand:wikidata": "Q44294", "name": "Laurel Ford", "shop": "car"}}, {"type": "node", "id": 10301565521, "lat": 45.6651964, "lon": -108.7665201}, {"type": "node", "id": 10301565522, "lat": 45.6641537, "lon": -108.7665279}, {"type": "node", "id": 10301565523, "lat": 45.664085, "lon": -108.7663641}, {"type": "node", "id": 10301565524, "lat": 45.664085, "lon": -108.7657419}, {"type": "node", "id": 10301565525, "lat": 45.6642086, "lon": -108.7655913}, {"type": "node", "id": 10301565526, "lat": 45.6642081, "lon": -108.7651747}, {"type": "node", "id": 10301565527, "lat": 45.6646836, "lon": -108.7651736}, {"type": "node", "id": 10301565528, "lat": 45.6646843, "lon": -108.7658004}, {"type": "node", "id": 10301565529, "lat": 45.664385, "lon": -108.7658012}, {"type": "node", "id": 10301565530, "lat": 45.6643856, "lon": -108.7662745}, {"type": "node", "id": 10301565531, "lat": 45.6647273, "lon": -108.7662736}, {"type": "node", "id": 10301565532, "lat": 45.6647274, "lon": -108.7663193}, {"type": "node", "id": 10301565533, "lat": 45.6650072, "lon": -108.7663178}, {"type": "node", "id": 10301565534, "lat": 45.6650043, "lon": -108.7652071}, {"type": "node", "id": 10301565535, "lat": 45.6651458, "lon": -108.7652063}, {"type": "node", "id": 10301565536, "lat": 45.6651477, "lon": -108.7658551}, {"type": "node", "id": 10301565537, "lat": 45.665194, "lon": -108.7658548}, {"type": "node", "id": 10301565538, "lat": 45.6650574, "lon": -108.765044}, {"type": "node", "id": 10301565539, "lat": 45.6642971, "lon": -108.765034}, {"type": "node", "id": 10301565540, "lat": 45.6642985, "lon": -108.7648188}, {"type": "node", "id": 10301565541, "lat": 45.6643802, "lon": -108.7646114}, {"type": "node", "id": 10301565542, "lat": 45.6644224, "lon": -108.7645472}, {"type": "node", "id": 10301565543, "lat": 45.6644276, "lon": -108.7641436}, {"type": "node", "id": 10301565544, "lat": 45.6644645, "lon": -108.7640153}, {"type": "node", "id": 10301565545, "lat": 45.6645173, "lon": -108.7639852}, {"type": "node", "id": 10301565546, "lat": 45.6650642, "lon": -108.7639912}, {"type": "node", "id": 10301565547, "lat": 45.6650617, "lon": -108.7644585}, {"type": "node", "id": 10301565548, "lat": 45.6650139, "lon": -108.764458}, {"type": "node", "id": 10301565549, "lat": 45.665012, "lon": -108.7647817}, {"type": "node", "id": 10301565550, "lat": 45.6650591, "lon": -108.7647823}, {"type": "node", "id": 10301565582, "lat": 45.6658679, "lon": -108.7665972}, {"type": "node", "id": 10301565583, "lat": 45.665422, "lon": -108.7665951}, {"type": "node", "id": 10301565584, "lat": 45.6654225, "lon": -108.7663521}, {"type": "node", "id": 10301565585, "lat": 45.6656007, "lon": -108.7663529}, {"type": "node", "id": 10301565586, "lat": 45.6656013, "lon": -108.7660669}, {"type": "node", "id": 10301565587, "lat": 45.6654259, "lon": -108.7660662}, {"type": "node", "id": 10301565588, "lat": 45.6654279, "lon": -108.7651925}, {"type": "node", "id": 10301565589, "lat": 45.6658712, "lon": -108.7651946}, {"type": "node", "id": 10301565590, "lat": 45.6663063, "lon": -108.7665863}, {"type": "node", "id": 10301565591, "lat": 45.6661698, "lon": -108.7665872}, {"type": "node", "id": 10301565592, "lat": 45.6661682, "lon": -108.7660883}, {"type": "node", "id": 10301565593, "lat": 45.6663047, "lon": -108.7660874}, {"type": "node", "id": 10301565598, "lat": 45.6655428, "lon": -108.7661874, "tags": {"amenity": "cafe", "cuisine": "coffee_shop", "name": "Heidi's Coffee Cabin"}}, {"type": "node", "id": 10301565599, "lat": 45.6660669, "lon": -108.7658038, "tags": {"addr:city": "Laurel", "addr:housenumber": "415", "addr:postcode": "59044-3314", "addr:state": "MT", "addr:street": "Southeast 4th Street", "brand": "Ace Hardware", "brand:wikidata": "Q4672981", "name": "Ace Hardware", "opening_hours": "Mo-Fr 07:30-20:00; Sa 07:30-19:00; Su 08:30-18:00", "phone": "+1 406-628-8276", "ref": "15460", "shop": "doityourself"}}, {"type": "node", "id": 10301565600, "lat": 45.6659336, "lon": -108.7664959, "tags": {"amenity": "casino", "name": "Tinhorn Casino"}}, {"type": "node", "id": 10301565601, "lat": 45.6660684, "lon": -108.7664788, "tags": {"name": "Cloudz Vape and Glass", "shop": "e-cigarette"}}, {"type": "node", "id": 10301565602, "lat": 45.6660753, "lon": -108.7663484, "tags": {"name": "Outlaw Tattoo", "shop": "tattoo"}}, {"type": "node", "id": 10301565603, "lat": 45.6660781, "lon": -108.766232, "tags": {"amenity": "dentist", "healthcare": "dentist", "name": "Winterholler Dentistry & Implant Surgery"}}, {"type": "node", "id": 10301565604, "lat": 45.6660782, "lon": -108.7661206, "tags": {"branch": "Laurel", "brand": "Snap Fitness", "brand:wikidata": "Q7547254", "leisure": "fitness_centre", "name": "Snap Fitness"}}, {"type": "node", "id": 10301565612, "lat": 45.6656137, "lon": -108.7646568, "tags": {"amenity": "bank", "name": "SEG Federal Credit Union"}}, {"type": "node", "id": 10301565620, "lat": 45.6650037, "lon": -108.7634969, "tags": {"name": "On Target Outdoors", "shop": "weapons"}}, {"type": "node", "id": 10301565662, "lat": 45.6667387, "lon": -108.764325, "tags": {"name": "Square One Cabinets", "shop": "kitchen"}}, {"type": "node", "id": 10301565663, "lat": 45.6674345, "lon": -108.764815}, {"type": "node", "id": 10301565664, "lat": 45.6672567, "lon": -108.7648156}, {"type": "node", "id": 10301565665, "lat": 45.6672544, "lon": -108.7634218}, {"type": "node", "id": 10301565666, "lat": 45.6674324, "lon": -108.7634212}, {"type": "node", "id": 10301565696, "lat": 45.6671547, "lon": -108.7641131, "tags": {"name": "Canyon Creek Stations", "shop": "storage_rental"}}, {"type": "node", "id": 10301565712, "lat": 45.6649643, "lon": -108.7621582, "tags": {"brand": "O'Reilly Auto Parts", "brand:wikidata": "Q7071951", "name": "O'Reilly Auto Parts", "shop": "car_parts", "website": "https://locations.oreillyauto.com/mt/laurel/autoparts-4301.html"}}, {"type": "node", "id": 10301565720, "lat": 45.6655128, "lon": -108.7621247, "tags": {"addr:city": "Laurel", "addr:housenumber": "331", "addr:postcode": "59044", "addr:state": "MT", "addr:street": "South Washington Avenue", "amenity": "fast_food", "brand": "Jimmy John's", "brand:wikidata": "Q1689380", "cuisine": "sandwich", "drive_through": "yes", "name": "Jimmy John's", "official_name": "Jimmy John's Gourmet Sandwiches", "phone": "+1 406-633-7011", "takeaway": "yes", "website": "https://locations.jimmyjohns.com/mt/laurel/sandwiches-4092.html"}}, {"type": "node", "id": 10301565723, "lat": 45.6661172, "lon": -108.7619439, "tags": {"addr:city": "Laurel", "addr:housenumber": "301", "addr:postcode": "59044", "addr:state": "MT", "addr:street": "South Washington Avenue", "branch": "Laurel", "brand": "Fairfield Inn", "brand:wikidata": "Q5430314", "name": "Fairfield Inn & Suites", "official_name": "Fairfield Inn & Suites by Marriott", "ref": "BILFL", "source": "esri_USDOT_Montana", "tourism": "hotel", "website": "https://www.marriott.com/bilfl"}}, {"type": "node", "id": 10301565724, "lat": 45.6658129, "lon": -108.7629513}, {"type": "node", "id": 10301565725, "lat": 45.6656993, "lon": -108.7629522}, {"type": "node", "id": 10301565726, "lat": 45.6656989, "lon": -108.7628477}, {"type": "node", "id": 10301565727, "lat": 45.6656428, "lon": -108.7628482}, {"type": "node", "id": 10301565728, "lat": 45.665639, "lon": -108.7619665}, {"type": "node", "id": 10301565729, "lat": 45.6654651, "lon": -108.761968}, {"type": "node", "id": 10301565730, "lat": 45.6654632, "lon": -108.7615188}, {"type": "node", "id": 10301565731, "lat": 45.6654052, "lon": -108.7615193}, {"type": "node", "id": 10301565732, "lat": 45.6654045, "lon": -108.7613606}, {"type": "node", "id": 10301565733, "lat": 45.6657027, "lon": -108.761358}, {"type": "node", "id": 10301565734, "lat": 45.6657425, "lon": -108.7614319}, {"type": "node", "id": 10301565735, "lat": 45.6658067, "lon": -108.7614314}, {"type": "node", "id": 10301565736, "lat": 45.6651981, "lon": -108.7623267}, {"type": "node", "id": 10301565737, "lat": 45.6650764, "lon": -108.7623271}, {"type": "node", "id": 10301565738, "lat": 45.6650757, "lon": -108.7619332}, {"type": "node", "id": 10301565739, "lat": 45.6649045, "lon": -108.7619338}, {"type": "node", "id": 10301565740, "lat": 45.6650028, "lon": -108.7614476}, {"type": "node", "id": 10301565741, "lat": 45.6651619, "lon": -108.761447}, {"type": "node", "id": 10301565742, "lat": 45.6651621, "lon": -108.7615431}, {"type": "node", "id": 10301565743, "lat": 45.6651967, "lon": -108.761543}, {"type": "node", "id": 10301565814, "lat": 45.6655122, "lon": -108.7605684, "tags": {"brand": "AutoZone", "brand:wikidata": "Q4826087", "name": "AutoZone", "shop": "car_parts", "website": "https://www.autozone.com/locations/mt/laurel/321-bernhardt-rd.html"}}, {"type": "node", "id": 10301565818, "lat": 45.6663384, "lon": -108.7609024, "tags": {"addr:city": "Laurel", "addr:housenumber": "211", "addr:postcode": "59044", "addr:state": "MT", "addr:street": "Bernhardt Road", "amenity": "restaurant", "brand": "Pizza Hut", "brand:wikidata": "Q191615", "cuisine": "pizza", "name": "Pizza Hut", "phone": "+1 406-628-6382", "website": "https://locations.pizzahut.com/mt/laurel/211-bernhardt-road"}}, {"type": "node", "id": 10301571309, "lat": 45.666492, "lon": -108.7608038}, {"type": "node", "id": 10301571310, "lat": 45.6661975, "lon": -108.7608005}, {"type": "node", "id": 10301571311, "lat": 45.6661969, "lon": -108.7609046}, {"type": "node", "id": 10301571312, "lat": 45.6661335, "lon": -108.7609039}, {"type": "node", "id": 10301571313, "lat": 45.666133, "lon": -108.7609909}, {"type": "node", "id": 10301571314, "lat": 45.6660194, "lon": -108.7609896}, {"type": "node", "id": 10301571315, "lat": 45.6660216, "lon": -108.7606024}, {"type": "node", "id": 10301571316, "lat": 45.6661877, "lon": -108.7606044}, {"type": "node", "id": 10301571317, "lat": 45.666188, "lon": -108.7605512}, {"type": "node", "id": 10301571318, "lat": 45.6665014, "lon": -108.7605548}, {"type": "node", "id": 10301571319, "lat": 45.6665011, "lon": -108.7606069}, {"type": "node", "id": 10301571320, "lat": 45.6665991, "lon": -108.760608}, {"type": "node", "id": 10301571321, "lat": 45.6692859, "lon": -108.7669803}, {"type": "node", "id": 10301571322, "lat": 45.6685628, "lon": -108.7666397}, {"type": "node", "id": 10301571323, "lat": 45.668533, "lon": -108.7654149}, {"type": "node", "id": 10301571324, "lat": 45.6686383, "lon": -108.7654182}, {"type": "node", "id": 10301571325, "lat": 45.6686589, "lon": -108.7657719}, {"type": "node", "id": 10301571326, "lat": 45.6689083, "lon": -108.7657817}, {"type": "node", "id": 10301571327, "lat": 45.6689221, "lon": -108.7661812}, {"type": "node", "id": 10301571328, "lat": 45.6692241, "lon": -108.7661812}, {"type": "node", "id": 10301577444, "lat": 45.6698047, "lon": -108.7652721}, {"type": "node", "id": 10301577445, "lat": 45.6684853, "lon": -108.7652865}, {"type": "node", "id": 10301577446, "lat": 45.6684791, "lon": -108.7615091}, {"type": "node", "id": 10301577447, "lat": 45.6697845, "lon": -108.7614739}, {"type": "node", "id": 10301577448, "lat": 45.6700277, "lon": -108.7627207}, {"type": "node", "id": 10301577449, "lat": 45.6700339, "lon": -108.76432}, {"type": "node", "id": 10301577450, "lat": 45.6695671, "lon": -108.7609657}, {"type": "node", "id": 10301577451, "lat": 45.6684907, "lon": -108.7609817}, {"type": "node", "id": 10301577452, "lat": 45.6684862, "lon": -108.7603486}, {"type": "node", "id": 10301577453, "lat": 45.6694348, "lon": -108.7603348}, {"type": "node", "id": 10301577462, "lat": 45.6688857, "lon": -108.7655446, "tags": {"name": "BNSF Railway", "office": "yes"}}, {"type": "node", "id": 10307692031, "lat": 45.6658458, "lon": -108.7648139}, {"type": "node", "id": 10307692032, "lat": 45.6657274, "lon": -108.7648145}, {"type": "node", "id": 10307692033, "lat": 45.6657268, "lon": -108.7645434}, {"type": "node", "id": 10307692034, "lat": 45.6655063, "lon": -108.7645445}, {"type": "node", "id": 10307692035, "lat": 45.6655068, "lon": -108.7647445}, {"type": "node", "id": 10307692036, "lat": 45.6653881, "lon": -108.7647451}, {"type": "node", "id": 10307692037, "lat": 45.6653873, "lon": -108.7644001}, {"type": "node", "id": 10307692038, "lat": 45.6658449, "lon": -108.764398}, {"type": "node", "id": 10307738527, "lat": 45.6689394, "lon": -108.7831825}, {"type": "node", "id": 10307738528, "lat": 45.6688376, "lon": -108.7831829}, {"type": "node", "id": 10307738529, "lat": 45.6688372, "lon": -108.7829563}, {"type": "node", "id": 10307738530, "lat": 45.6685818, "lon": -108.7829572}, {"type": "node", "id": 10307738531, "lat": 45.6685822, "lon": -108.7831674}, {"type": "node", "id": 10307738532, "lat": 45.6684635, "lon": -108.7831678}, {"type": "node", "id": 10307738533, "lat": 45.668462, "lon": -108.7822724}, {"type": "node", "id": 10307738534, "lat": 45.6685189, "lon": -108.7822722}, {"type": "node", "id": 10307738535, "lat": 45.6685187, "lon": -108.7821338}, {"type": "node", "id": 10307738536, "lat": 45.6691857, "lon": -108.7821318}, {"type": "node", "id": 10307738537, "lat": 45.6691863, "lon": -108.7825313}, {"type": "node", "id": 10307738538, "lat": 45.6689384, "lon": -108.7825321}, {"type": "node", "id": 10307738539, "lat": 45.6685771, "lon": -108.7812185}, {"type": "node", "id": 10307738540, "lat": 45.6684346, "lon": -108.781219}, {"type": "node", "id": 10307738541, "lat": 45.6684338, "lon": -108.7807103}, {"type": "node", "id": 10307738542, "lat": 45.6685588, "lon": -108.7807099}, {"type": "node", "id": 10307738543, "lat": 45.6685589, "lon": -108.7807882}, {"type": "node", "id": 10307738544, "lat": 45.668732, "lon": -108.7807877}, {"type": "node", "id": 10307738545, "lat": 45.6687324, "lon": -108.7810316}, {"type": "node", "id": 10307738546, "lat": 45.6685768, "lon": -108.7810321}, {"type": "node", "id": 10307738547, "lat": 45.6687442, "lon": -108.7803807}, {"type": "node", "id": 10307738548, "lat": 45.6683913, "lon": -108.7803788}, {"type": "node", "id": 10307738549, "lat": 45.6683919, "lon": -108.7801556}, {"type": "node", "id": 10307738550, "lat": 45.6687448, "lon": -108.7801575}, {"type": "node", "id": 10307738551, "lat": 45.6687463, "lon": -108.7794257}, {"type": "node", "id": 10307738552, "lat": 45.6685571, "lon": -108.7794272}, {"type": "node", "id": 10307738553, "lat": 45.6685562, "lon": -108.779204}, {"type": "node", "id": 10307738554, "lat": 45.6687454, "lon": -108.7792024}, {"type": "node", "id": 10307738555, "lat": 45.6685751, "lon": -108.7788867}, {"type": "node", "id": 10307738556, "lat": 45.6683839, "lon": -108.778888}, {"type": "node", "id": 10307738557, "lat": 45.66838, "lon": -108.7777092}, {"type": "node", "id": 10307738558, "lat": 45.6687428, "lon": -108.7777067}, {"type": "node", "id": 10307738559, "lat": 45.6687433, "lon": -108.7778627}, {"type": "node", "id": 10307738560, "lat": 45.668455, "lon": -108.7778647}, {"type": "node", "id": 10307738561, "lat": 45.6684571, "lon": -108.778445}, {"type": "node", "id": 10307738562, "lat": 45.6686476, "lon": -108.7784436}, {"type": "node", "id": 10307738563, "lat": 45.6686469, "lon": -108.7782343}, {"type": "node", "id": 10307738564, "lat": 45.6687387, "lon": -108.7782337}, {"type": "node", "id": 10307738565, "lat": 45.6687398, "lon": -108.7785737}, {"type": "node", "id": 10307738566, "lat": 45.6685741, "lon": -108.7785749}, {"type": "node", "id": 10307738567, "lat": 45.6682098, "lon": -108.7782984}, {"type": "node", "id": 10307738568, "lat": 45.6675824, "lon": -108.7783006}, {"type": "node", "id": 10307738569, "lat": 45.6675315, "lon": -108.778262}, {"type": "node", "id": 10307738570, "lat": 45.6676124, "lon": -108.7778699}, {"type": "node", "id": 10307738571, "lat": 45.6676708, "lon": -108.7778849}, {"type": "node", "id": 10307738572, "lat": 45.6676678, "lon": -108.7777263}, {"type": "node", "id": 10307738573, "lat": 45.6682034, "lon": -108.7777285}, {"type": "node", "id": 10307738574, "lat": 45.6682317, "lon": -108.7774211}, {"type": "node", "id": 10307738575, "lat": 45.6679188, "lon": -108.7774289}, {"type": "node", "id": 10307738576, "lat": 45.6679145, "lon": -108.7770787}, {"type": "node", "id": 10307738577, "lat": 45.6682275, "lon": -108.7770708}, {"type": "node", "id": 10307738578, "lat": 45.6685568, "lon": -108.7774086}, {"type": "node", "id": 10307738579, "lat": 45.6683711, "lon": -108.7774094}, {"type": "node", "id": 10307738580, "lat": 45.6683701, "lon": -108.7769698}, {"type": "node", "id": 10307738581, "lat": 45.6687303, "lon": -108.7769681}, {"type": "node", "id": 10307738582, "lat": 45.6687307, "lon": -108.7771324}, {"type": "node", "id": 10307738583, "lat": 45.6685562, "lon": -108.7771332}, {"type": "node", "id": 10307738584, "lat": 45.6687211, "lon": -108.7759122}, {"type": "node", "id": 10307738585, "lat": 45.6683886, "lon": -108.7759294}, {"type": "node", "id": 10307738586, "lat": 45.6684396, "lon": -108.7752458}, {"type": "node", "id": 10307738587, "lat": 45.6688289, "lon": -108.7754601}, {"type": "node", "id": 10307738588, "lat": 45.6692164, "lon": -108.7751723}, {"type": "node", "id": 10307738589, "lat": 45.6690658, "lon": -108.7750967}, {"type": "node", "id": 10307738590, "lat": 45.6691715, "lon": -108.7746654}, {"type": "node", "id": 10307738591, "lat": 45.6693222, "lon": -108.7747411}, {"type": "node", "id": 10307738609, "lat": 45.670016, "lon": -108.7693981}, {"type": "node", "id": 10307738610, "lat": 45.6699274, "lon": -108.7693584}, {"type": "node", "id": 10307738611, "lat": 45.6700417, "lon": -108.7688357}, {"type": "node", "id": 10307738612, "lat": 45.6703553, "lon": -108.7689762}, {"type": "node", "id": 10307738613, "lat": 45.6703352, "lon": -108.769068}, {"type": "node", "id": 10307738614, "lat": 45.6701104, "lon": -108.7689672}, {"type": "node", "id": 10307738669, "lat": 45.6682151, "lon": -108.7802512}, {"type": "node", "id": 10307738670, "lat": 45.667932, "lon": -108.7802525}, {"type": "node", "id": 10307738671, "lat": 45.6679307, "lon": -108.7797012}, {"type": "node", "id": 10307738672, "lat": 45.6680313, "lon": -108.7797007}, {"type": "node", "id": 10307738673, "lat": 45.6680321, "lon": -108.7801081}, {"type": "node", "id": 10307738674, "lat": 45.6682148, "lon": -108.7801073}, {"type": "node", "id": 10307738675, "lat": 45.6682198, "lon": -108.7814224}, {"type": "node", "id": 10307738676, "lat": 45.667926, "lon": -108.7814245}, {"type": "node", "id": 10307738677, "lat": 45.6679244, "lon": -108.7809557}, {"type": "node", "id": 10307738678, "lat": 45.6682182, "lon": -108.7809536}, {"type": "node", "id": 10307738679, "lat": 45.6677358, "lon": -108.7849923}, {"type": "node", "id": 10307738680, "lat": 45.6677332, "lon": -108.7844113}, {"type": "node", "id": 10307738681, "lat": 45.667992, "lon": -108.7844089}, {"type": "node", "id": 10307738682, "lat": 45.66799, "lon": -108.7839845}, {"type": "node", "id": 10307738683, "lat": 45.6676221, "lon": -108.783988}, {"type": "node", "id": 10307738684, "lat": 45.6676203, "lon": -108.7835981}, {"type": "node", "id": 10307738685, "lat": 45.6681303, "lon": -108.7835933}, {"type": "node", "id": 10307738686, "lat": 45.6681318, "lon": -108.7839068}, {"type": "node", "id": 10307738687, "lat": 45.668174, "lon": -108.7839064}, {"type": "node", "id": 10307738688, "lat": 45.6681774, "lon": -108.7846174}, {"type": "node", "id": 10307738689, "lat": 45.6681171, "lon": -108.784618}, {"type": "node", "id": 10307738690, "lat": 45.6681183, "lon": -108.7848646}, {"type": "node", "id": 10307738691, "lat": 45.6681428, "lon": -108.7848643}, {"type": "node", "id": 10307738692, "lat": 45.6681434, "lon": -108.7849885}, {"type": "node", "id": 10307738756, "lat": 45.6630815, "lon": -108.7816379}, {"type": "node", "id": 10307738757, "lat": 45.6626473, "lon": -108.7816431}, {"type": "node", "id": 10307738758, "lat": 45.6626443, "lon": -108.781128}, {"type": "node", "id": 10307738759, "lat": 45.6635234, "lon": -108.7811176}, {"type": "node", "id": 10307738760, "lat": 45.6635245, "lon": -108.7813038}, {"type": "node", "id": 10307738761, "lat": 45.6632421, "lon": -108.7813072}, {"type": "node", "id": 10307738762, "lat": 45.6632429, "lon": -108.7814491}, {"type": "node", "id": 10307738763, "lat": 45.6630804, "lon": -108.781451}, {"type": "node", "id": 10307738764, "lat": 45.6625225, "lon": -108.7805612}, {"type": "node", "id": 10307738765, "lat": 45.6625226, "lon": -108.7803464}, {"type": "node", "id": 10307738766, "lat": 45.6624431, "lon": -108.7803464}, {"type": "node", "id": 10307738767, "lat": 45.6623034, "lon": -108.7799021}, {"type": "node", "id": 10307738768, "lat": 45.6623051, "lon": -108.7797516}, {"type": "node", "id": 10307738769, "lat": 45.6624914, "lon": -108.7792876}, {"type": "node", "id": 10307738770, "lat": 45.6624904, "lon": -108.7791312}, {"type": "node", "id": 10307738771, "lat": 45.6624224, "lon": -108.7791321}, {"type": "node", "id": 10307738772, "lat": 45.6623844, "lon": -108.7790555}, {"type": "node", "id": 10307738773, "lat": 45.6621194, "lon": -108.7788426}, {"type": "node", "id": 10307738774, "lat": 45.6619956, "lon": -108.7791579}, {"type": "node", "id": 10307738775, "lat": 45.6622915, "lon": -108.7793958}, {"type": "node", "id": 10307738776, "lat": 45.6621257, "lon": -108.7798182}, {"type": "node", "id": 10307738777, "lat": 45.6623672, "lon": -108.7805611}, {"type": "node", "id": 10307738778, "lat": 45.6618882, "lon": -108.778502}, {"type": "node", "id": 10307738779, "lat": 45.6615445, "lon": -108.7784975}, {"type": "node", "id": 10307738780, "lat": 45.6615517, "lon": -108.7773722}, {"type": "node", "id": 10307738781, "lat": 45.6625326, "lon": -108.777385}, {"type": "node", "id": 10307738782, "lat": 45.6625303, "lon": -108.7777474}, {"type": "node", "id": 10307738783, "lat": 45.6618929, "lon": -108.7777392}, {"type": "node", "id": 10307738784, "lat": 45.6650667, "lon": -108.782765}, {"type": "node", "id": 10307738785, "lat": 45.665027, "lon": -108.7829327}, {"type": "node", "id": 10307738786, "lat": 45.6648998, "lon": -108.7828645}, {"type": "node", "id": 10307738787, "lat": 45.6648243, "lon": -108.7828019}, {"type": "node", "id": 10307738788, "lat": 45.664721, "lon": -108.782674}, {"type": "node", "id": 10307738789, "lat": 45.6646077, "lon": -108.7824324}, {"type": "node", "id": 10307738790, "lat": 45.6645402, "lon": -108.7822106}, {"type": "node", "id": 10307738791, "lat": 45.6645223, "lon": -108.7819206}, {"type": "node", "id": 10307738792, "lat": 45.6646812, "lon": -108.7819263}, {"type": "node", "id": 10307738793, "lat": 45.6646912, "lon": -108.7820969}, {"type": "node", "id": 10307738794, "lat": 45.6647488, "lon": -108.7822817}, {"type": "node", "id": 10307738795, "lat": 45.6648243, "lon": -108.7824665}, {"type": "node", "id": 10307738796, "lat": 45.6649276, "lon": -108.78262}, {"type": "node", "id": 10307738797, "lat": 45.6650011, "lon": -108.7826825}, {"type": "node", "id": 11757146058, "lat": 45.6655832, "lon": -108.7628154, "tags": {"addr:city": "Laurel", "addr:housenumber": "331", "addr:postcode": "59044", "addr:state": "MT", "addr:street": "South Washington Avenue", "addr:unit": "A", "amenity": "restaurant", "cuisine": "american", "name": "Carlton Depot", "source": "esri_USDOT_Montana"}}, {"type": "node", "id": 11844775072, "lat": 45.6664147, "lon": -108.770349, "tags": {"brand": "NAPA Auto Parts", "brand:wikidata": "Q6970842", "name": "NAPA Auto Parts", "shop": "car_parts"}}, {"type": "node", "id": 11844775073, "lat": 45.6644952, "lon": -108.7701945, "tags": {"amenity": "fast_food", "name": "Chen's Express"}}, {"type": "node", "id": 11844775074, "lat": 45.6644098, "lon": -108.7700829, "tags": {"amenity": "cafe", "name": "City Brew Coffee"}}, {"type": "node", "id": 11844775075, "lat": 45.6660038, "lon": -108.7711451, "tags": {"amenity": "casino", "name": "Black Chip Casino"}}, {"type": "node", "id": 12944743999, "lat": 45.66615, "lon": -108.76149, "tags": {"access": "yes", "addr:city": "Laurel", "addr:country": "US", "addr:housenumber": "301", "addr:postcode": "59044", "addr:state": "MT", "addr:street": "South Washington Avenue", "amenity": "charging_station", "authentication:app": "yes", "bicycle": "no", "brand": "Tesla Supercharger", "brand:en": "Tesla Supercharger", "brand:website": "https://www.tesla.com/supercharger", "brand:wikidata": "Q17089620", "bus": "no", "capacity": "8", "ele": "1001", "fee": "yes", "frequency": "0", "hgv": "no", "maxstay": "no", "motorcar": "designated", "network": "Supercharger", "network:website": "https://www.tesla.com/supercharger", "network:wikidata": "Q17089620", "note": "This Tesla Supercharger was edited or added by the June 2025 import from supercharge.info... if you have any questions, comments, or concerns, please reach out to the US Slack / Forum", "opening_hours": "24/7", "operator": "Tesla, Inc.", "operator:wikidata": "Q478214", "operator:wikipedia": "en:Tesla, Inc.", "payment:app:tesla": "yes", "ref:supercharge_info": "6251", "reservation": "no", "scooter": "no", "socket:nacs": "8", "socket:nacs:output": "250", "source": "https://supercharge.info", "start_date": "2023-07-25", "website": "https://www.tesla.com/findus/location/supercharger/19030"}}, {"type": "way", "id": 844091608, "nodes": [7873946691, 7873946692, 7873946693, 7873946694, 7873946695, 7873946696, 7873946691], "tags": {"leisure": "park", "name": "Town Square Park"}}, {"type": "way", "id": 1124331224, "nodes": [46688713, 582908062, 10281588889, 10281588890, 10281588891, 10281588892, 7873921371, 46688713], "tags": {"leisure": "park", "name": "Fireman's Park"}}, {"type": "way", "id": 1124331240, "nodes": [10281588937, 10281588938, 10281588939, 10281588945, 10281588943, 7888120898, 10281588940, 10281588937], "tags": {"amenity": "parking"}}, {"type": "way", "id": 1124332975, "nodes": [10281603662, 10281603663, 10281603664, 10281603665, 10281603662], "tags": {"leisure": "park", "name": "Montana State Firefighters Memorial"}}, {"type": "way", "id": 1124510813, "nodes": [10283076997, 10283076998, 10283076951, 10283076950, 10283076949, 10283076948, 10283076947, 7909248635, 10283093685, 10283076997], "tags": {"leisure": "park", "name": "Laurel Power-Grip Complex"}}, {"type": "way", "id": 1124512769, "nodes": [10283093643, 10283093697, 10283093644, 10283093645, 10283093698, 10283093646, 10283093647, 10283093648, 10283093649, 10283093643], "tags": {"leisure": "pitch", "name": "Wood's Softball Field", "sport": "softball"}}, {"type": "way", "id": 1124512770, "nodes": [10283093650, 10283093702, 10283093651, 10283093652, 10283093703, 10283093653, 10283093654, 10283093655, 10283093656, 10283093650], "tags": {"leisure": "pitch", "sport": "softball"}}, {"type": "way", "id": 1124512771, "nodes": [10283093657, 10283093658, 10283093659, 10283093660, 10283093661, 10283093713, 10283093662, 10283093663, 10283093708, 10283093657], "tags": {"leisure": "pitch", "sport": "softball"}}, {"type": "way", "id": 1124512772, "nodes": [10283093664, 10283093665, 10283093666, 10283093667, 10283093668, 10283093664], "tags": {"leisure": "pitch", "sport": "softball"}}, {"type": "way", "id": 1124746652, "nodes": [10300771100, 10285529969, 10285529970, 10285529971, 10285529972, 10285529973, 10285529974, 10285529975, 10285529976, 10285529977, 10285529978, 10285529979, 10285529980, 10285529981, 10285529982, 10285529983, 10300771100], "tags": {"addr:city": "Laurel", "addr:housenumber": "205", "addr:postcode": "59044", "addr:state": "MT", "addr:street": "Southeast 4th Street", "branch": "Yellowstone Crossing", "brand": "Best Western", "brand:wikidata": "Q830334", "building": "yes", "name": "Best Western", "phone": "+1-406-628-6888", "ref": "27077", "source": "esri_USDOT_Montana;microsoft/BuildingFootprints", "tourism": "hotel", "website": "https://www.bestwestern.com/en_US/book/hotels-in-laurel/best-western-yellowstone-crossing/propertyCode.27077.html"}}, {"type": "way", "id": 1124746668, "nodes": [10285530092, 10285530093, 10285530094, 10285530095, 10285530092], "tags": {"addr:city": "Laurel", "addr:housenumber": "415", "addr:postcode": "59044", "addr:state": "MT", "addr:street": "South 1st Avenue", "amenity": "restaurant", "building": "yes", "name": "Chens Express", "source": "esri_USDOT_Montana;microsoft/BuildingFootprints"}}, {"type": "way", "id": 1126390730, "nodes": [10299667088, 10299667089, 10299667090, 10299667091, 10299667092, 10299672028, 10299667093, 10299667088], "tags": {"amenity": "shelter", "building": "yes", "shelter_type": "gazebo"}}, {"type": "way", "id": 1126390734, "nodes": [46731003, 10299667094, 46730995, 46730991, 10299672038, 46730988, 10299672032, 46730984, 10299667113, 10299667114, 10299667115, 10299667116, 10299667117, 46795684, 10299681815, 46744698, 46787415, 10299667100, 10299667142, 46731003], "tags": {"leisure": "park", "name": "Lions Family Park"}}, {"type": "way", "id": 1126390735, "nodes": [10299667119, 10299667120, 10299667121, 10299667122, 10299667123, 10299667119], "tags": {"leisure": "playground"}}, {"type": "way", "id": 1126392602, "nodes": [46585058, 46714201, 582908004, 46683120, 582908005, 10299671915, 10299671919, 46744698, 10299681815, 10299681859, 10299681860, 46585061, 9359287829, 46585058], "tags": {"amenity": "school", "name": "South Elementary School"}}, {"type": "way", "id": 1126392610, "nodes": [10299681848, 10299681863, 10299681849, 10299681850, 10299681851, 10299681852, 10299681853, 10299681854, 10299681871, 10299681855, 10299681848], "tags": {"leisure": "pitch", "sport": "baseball"}}, {"type": "way", "id": 1126392611, "nodes": [10299681856, 10299681857, 10299681858, 10299681859, 10299681860, 10299681861, 10299681862, 10299681856], "tags": {"leisure": "playground"}}, {"type": "way", "id": 1126393103, "nodes": [10299686726, 582908033, 10299680586, 10299686727, 46732161, 46742345, 582908037, 46658138, 10299686728, 10299686726], "tags": {"leisure": "park", "name": "Russel Park"}}, {"type": "way", "id": 1126503596, "nodes": [10300769515, 10300769516, 10300769517, 10300769518, 10300769519, 10300769520, 10300769521, 10300769522, 10300769523, 10300769524, 10300769525, 10300769526, 10300769527, 10300769528, 10300769515], "tags": {"amenity": "parking"}}, {"type": "way", "id": 1126503597, "nodes": [10300769529, 10300769530, 10300769531, 10300769532, 10300769529], "tags": {"amenity": "parking"}}, {"type": "way", "id": 1126503598, "nodes": [10300769533, 10300769534, 10300769535, 10300769536, 10300769537, 10300769538, 10300769533], "tags": {"amenity": "parking"}}, {"type": "way", "id": 1126503599, "nodes": [10300769539, 10300769540, 10300769541, 10300769542, 10300769543, 10300769544, 10300769545, 10300769539], "tags": {"amenity": "parking"}}, {"type": "way", "id": 1126503600, "nodes": [10300769546, 10300769547, 10300769548, 10300769549, 10285530279, 10285530278, 10300769550, 10300769551, 10300769552, 10300769553, 10300769554, 10300769555, 10300769556, 10300769546], "tags": {"amenity": "parking"}}, {"type": "way", "id": 1126503601, "nodes": [10300769557, 10300769558, 10300769559, 10300769560, 10300769561, 10300769562, 10300769563, 10300769564, 10300769565, 10300769566, 10300769557], "tags": {"amenity": "parking"}}, {"type": "way", "id": 1126503602, "nodes": [10300769567, 10300769568, 10300769569, 10300769570, 10300769571, 10300769572, 10300769573, 10300769574, 10300769567], "tags": {"amenity": "restaurant", "building": "yes", "name": "Yourpie"}}, {"type": "way", "id": 1126503603, "nodes": [10300769575, 10300769576, 10300769577, 10300769578, 10300769579, 10300769580, 10300769581, 10300769582, 10300769583, 10300769584, 10300769585, 10300769586, 10300769587, 10300769588, 10300769589, 10300769590, 10300769591, 10300769592, 10300769575], "tags": {"amenity": "parking"}}, {"type": "way", "id": 1126503604, "nodes": [10300769593, 10300769594, 10300769595, 10300769596, 10300769593], "tags": {"amenity": "parking"}}, {"type": "way", "id": 1126503605, "nodes": [10300769597, 10300769598, 10300769599, 10300769600, 10300769601, 10300769602, 10300769603, 10300769604, 10300769605, 10300769606, 10300769597], "tags": {"amenity": "parking"}}, {"type": "way", "id": 1126503606, "nodes": [10300769607, 10300769608, 10300771009, 10300771010, 10300769607], "tags": {"amenity": "parking"}}, {"type": "way", "id": 1126503607, "nodes": [10300771011, 10300771012, 10300771013, 10300771014, 10300771015, 10300771016, 10300771017, 10300771018, 10300771019, 10300771020, 10300771021, 10300771022, 10300771023, 10300771024, 10300771025, 10300771026, 10300771027, 10300771028, 10300771029, 10300771030, 10300771011], "tags": {"amenity": "parking"}}, {"type": "way", "id": 1126503608, "nodes": [10300771035, 10300771036, 10300771037, 10300771038, 10300771039, 10300771040, 10300771035], "tags": {"amenity": "parking"}}, {"type": "way", "id": 1126503609, "nodes": [10300771041, 10300771042, 10300771043, 10300771044, 10300771041], "tags": {"amenity": "parking"}}, {"type": "way", "id": 1126503613, "nodes": [10300771055, 10300771056, 10300771057, 10300771058, 10300771059, 10300771060, 10300771061, 10300771062, 10300771063, 10300771064, 10300771065, 10300771066, 10300771067, 10300771068, 10300771055], "tags": {"amenity": "parking"}}, {"type": "way", "id": 1126503620, "nodes": [10300771090, 10300771091, 10300771092, 10300771093, 10300771094, 10300771095, 10300771090], "tags": {"amenity": "parking"}}, {"type": "way", "id": 1126503621, "nodes": [10300771096, 10300771097, 10300771098, 10300771099, 10300771096], "tags": {"amenity": "parking"}}, {"type": "way", "id": 1126503625, "nodes": [10300771113, 10300771114, 10300771115, 10300771116, 10300771113], "tags": {"amenity": "parking"}}, {"type": "way", "id": 1126504325, "nodes": [10300767688, 10300767689, 10300767690, 10300767691, 10300767692, 10300767693, 10300767688], "tags": {"amenity": "parking"}}, {"type": "way", "id": 1126504330, "nodes": [10300767704, 10300767705, 10300767706, 10300767707, 10300767708, 10300778109, 10300767704], "tags": {"amenity": "parking"}}, {"type": "way", "id": 1126504331, "nodes": [10300778110, 10300778111, 10300778112, 10300778113, 10300778110], "tags": {"amenity": "parking"}}, {"type": "way", "id": 1126504332, "nodes": [10300778114, 10300778115, 10300778116, 10300778117, 10300778114], "tags": {"amenity": "parking"}}, {"type": "way", "id": 1126591431, "nodes": [10301565521, 10301565522, 10301565523, 10301565524, 10301565525, 10301565526, 10301565527, 10301565528, 10301565529, 10301565530, 10301565531, 10301565532, 10301565533, 10301565534, 10301565535, 10301565536, 10301565537, 10301565521], "tags": {"amenity": "parking"}}, {"type": "way", "id": 1126591432, "nodes": [10301565538, 10301565539, 10301565540, 10301565541, 10301565542, 10301565543, 10301565544, 10301565545, 10301565546, 10301565547, 10301565548, 10301565549, 10301565550, 10301565538], "tags": {"amenity": "parking"}}, {"type": "way", "id": 1126591443, "nodes": [10301565582, 10301565583, 10301565584, 10301565585, 10301565586, 10301565587, 10301565588, 10301565589, 10301565582], "tags": {"amenity": "parking"}}, {"type": "way", "id": 1126591444, "nodes": [10301565590, 10301565591, 10301565592, 10301565593, 10301565590], "tags": {"amenity": "parking"}}, {"type": "way", "id": 1126591464, "nodes": [10301565663, 10301565664, 10301565665, 10301565666, 10301565663], "tags": {"amenity": "parking"}}, {"type": "way", "id": 1126591477, "nodes": [10301565724, 10301565725, 10301565726, 10301565727, 10301565728, 10301565729, 10301565730, 10301565731, 10301565732, 10301565733, 10301565734, 10301565735, 10301565724], "tags": {"amenity": "parking"}}, {"type": "way", "id": 1126591478, "nodes": [10301565736, 10301565737, 10301565738, 10301565739, 10301565740, 10301565741, 10301565742, 10301565743, 10301565736], "tags": {"amenity": "parking"}}, {"type": "way", "id": 1126592318, "nodes": [10301559531, 10301559532, 10301559533, 10301559534, 10301559535, 10301559536, 10301559537, 10301559538, 10301559539, 10301559540, 10301559541, 10301559542, 10301559543, 10301559544, 10301559545, 10301559546, 10301559547, 10301559548, 10301559549, 10301559550, 10301559551, 10301559552, 10301559553, 10301559554, 10301559555, 10301559556, 10301559531], "tags": {"addr:city": "Laurel", "addr:country": "US", "addr:housenumber": "101", "addr:postcode": "59044", "addr:state": "MT", "addr:street": "Bernhardt Road", "brand": "Walmart", "brand:wikidata": "Q483551", "building": "yes", "name": "Walmart Supercenter", "opening_hours": "24/7", "operator": "Walmart", "payment:app:walmart": "yes", "payment:apple_pay": "no", "payment:google_pay": "no", "payment:samsung_pay": "no", "phone": "+1 406-628-3000", "ref": "4412", "ref:walmart": "4412", "sensory_friendly:accommodation": "dimmed_light;static_screens;no_pa", "sensory_friendly:conditional": "yes @ 08:00-10:00", "shop": "supermarket", "source": "esri_USDOT_Montana", "website": "https://www.walmart.com/store/4412-laurel-mt"}}, {"type": "way", "id": 1126592331, "nodes": [10301559581, 10301559582, 10301559583, 10301559584, 10301559585, 10301559586, 10301559587, 10301559588, 10301559589, 10301559590, 10301559591, 10301559581], "tags": {"amenity": "parking"}}, {"type": "way", "id": 1126592332, "nodes": [10301559592, 10301559593, 10301559594, 10301559595, 10301559596, 10301559597, 10301559598, 10301559599, 10301559592], "tags": {"amenity": "parking"}}, {"type": "way", "id": 1126592337, "nodes": [10301559607, 10301559608, 10301571309, 10301571310, 10301571311, 10301571312, 10301571313, 10301571314, 10301571315, 10301571316, 10301571317, 10301571318, 10301571319, 10301571320, 10301559607], "tags": {"amenity": "parking"}}, {"type": "way", "id": 1126592338, "nodes": [10301571321, 10301571322, 10301571323, 10301571324, 10301571325, 10301571326, 10301571327, 10301571328, 10301571321], "tags": {"amenity": "parking"}}, {"type": "way", "id": 1126592821, "nodes": [10301577444, 10301577445, 10301577446, 10301577447, 10301577448, 10301577449, 10301577444], "tags": {"amenity": "parking"}}, {"type": "way", "id": 1126592822, "nodes": [10301577450, 10301577451, 10301577452, 10301577453, 10301577450], "tags": {"amenity": "parking"}}, {"type": "way", "id": 1127379663, "nodes": [10307692031, 10307692032, 10307692033, 10307692034, 10307692035, 10307692036, 10307692037, 10307692038, 10307692031], "tags": {"amenity": "parking"}}, {"type": "way", "id": 1127379703, "nodes": [10307738527, 10307738528, 10307738529, 10307738530, 10307738531, 10307738532, 10307738533, 10307738534, 10307738535, 10307738536, 10307738537, 10307738538, 10307738527], "tags": {"amenity": "parking"}}, {"type": "way", "id": 1127379704, "nodes": [10307738539, 10307738540, 10307738541, 10307738542, 10307738543, 10307738544, 10307738545, 10307738546, 10307738539], "tags": {"amenity": "parking"}}, {"type": "way", "id": 1127379705, "nodes": [10307738547, 10307738548, 10307738549, 10307738550, 10307738547], "tags": {"amenity": "parking"}}, {"type": "way", "id": 1127379706, "nodes": [10307738551, 10307738552, 10307738553, 10307738554, 10307738551], "tags": {"amenity": "parking"}}, {"type": "way", "id": 1127379707, "nodes": [10307738555, 10307738556, 10307738557, 10307738558, 10307738559, 10307738560, 10307738561, 10307738562, 10307738563, 10307738564, 10307738565, 10307738566, 10307738555], "tags": {"amenity": "parking"}}, {"type": "way", "id": 1127379708, "nodes": [10307738567, 10307738568, 10307738569, 10307738570, 10307738571, 10307738572, 10307738573, 10307738567], "tags": {"amenity": "parking"}}, {"type": "way", "id": 1127379709, "nodes": [10307738574, 10307738575, 10307738576, 10307738577, 10307738574], "tags": {"amenity": "parking"}}, {"type": "way", "id": 1127379710, "nodes": [10307738578, 10307738579, 10307738580, 10307738581, 10307738582, 10307738583, 10307738578], "tags": {"amenity": "parking"}}, {"type": "way", "id": 1127379711, "nodes": [10307738584, 10307738585, 10307738586, 10307738587, 10307738584], "tags": {"amenity": "parking"}}, {"type": "way", "id": 1127379712, "nodes": [10307738588, 10307738589, 10307738590, 10307738591, 10307738588], "tags": {"amenity": "parking"}}, {"type": "way", "id": 1127379716, "nodes": [10307738609, 10307738610, 10307738611, 10307738612, 10307738613, 10307738614, 10307738609], "tags": {"amenity": "parking"}}, {"type": "way", "id": 1127379728, "nodes": [10307738669, 10307738670, 10307738671, 10307738672, 10307738673, 10307738674, 10307738669], "tags": {"amenity": "parking"}}, {"type": "way", "id": 1127379729, "nodes": [10307738675, 10307738676, 10307738677, 10307738678, 10307738675], "tags": {"amenity": "parking"}}, {"type": "way", "id": 1127379730, "nodes": [10307738679, 10307738680, 10307738681, 10307738682, 10307738683, 10307738684, 10307738685, 10307738686, 10307738687, 10307738688, 10307738689, 10307738690, 10307738691, 10307738692, 10307738679], "tags": {"amenity": "parking"}}, {"type": "way", "id": 1127379744, "nodes": [10307738756, 10307738757, 10307738758, 10307738759, 10307738760, 10307738761, 10307738762, 10307738763, 10307738756], "tags": {"amenity": "parking"}}, {"type": "way", "id": 1127379745, "nodes": [10307738764, 10307738765, 10307738766, 10307738767, 10307738768, 10307738769, 10307738770, 10307738771, 10307738772, 10307738773, 10307738774, 10307738775, 10307738776, 10307738777, 10307738764], "tags": {"amenity": "parking"}}, {"type": "way", "id": 1127379746, "nodes": [10307738778, 10307738779, 10307738780, 10307738781, 10307738782, 10307738783, 10307738778], "tags": {"amenity": "parking"}}, {"type": "way", "id": 1127379747, "nodes": [10307738784, 10307738785, 10307738786, 10307738787, 10307738788, 10307738789, 10307738790, 10307738791, 10307738792, 10307738793, 10307738794, 10307738795, 10307738796, 10307738797, 10307738784], "tags": {"amenity": "parking"}}]}