{"version": 0.6, "generator": "Overpass API 0.7.62.8 e802775f", "osm3s": {"timestamp_osm_base": "2025-12-12T22:11:13Z", "copyright": "The data included in this document is from www.openstreetmap.org. The data is made available under ODbL."}, "elements": [{"type": "node", "id": 7042088244, "lat": 40.9635036, "lon": -103.1128637}, {"type": "node", "id": 8244200596, "lat": 40.9614199, "lon": -103.1179704}, {"type": "node", "id": 8244200599, "lat": 40.9613629, "lon": -103.1174132}, {"type": "node", "id": 8244200602, "lat": 40.9619413, "lon": -103.1171432}, {"type": "node", "id": 8244200604, "lat": 40.9620079, "lon": -103.1178636}, {"type": "node", "id": 8244200610, "lat": 40.9619418, "lon": -103.1169915}, {"type": "node", "id": 8244204131, "lat": 40.961538, "lon": -103.11694}, {"type": "node", "id": 8244204142, "lat": 40.9614212, "lon": -103.1175613}, {"type": "node", "id": 8244204144, "lat": 40.9619391, "lon": -103.1178632}, {"type": "node", "id": 8244204151, "lat": 40.9612119, "lon": -103.1169382}, {"type": "node", "id": 8244204152, "lat": 40.9615379, "lon": -103.1169894}, {"type": "node", "id": 8244204153, "lat": 40.9612104, "lon": -103.1174123}, {"type": "node", "id": 8244204154, "lat": 40.9619388, "lon": -103.1179732}, {"type": "node", "id": 8244204169, "lat": 40.9613624, "lon": -103.1175609}, {"type": "node", "id": 8244204180, "lat": 40.9620101, "lon": -103.1171436}, {"type": "node", "id": 8244219249, "lat": 40.962009, "lon": -103.1137024}, {"type": "node", "id": 8244219250, "lat": 40.9619575, "lon": -103.112664, "tags": {"addr:city": "Peetz", "addr:housenumber": "620", "addr:postcode": "80747", "addr:state": "CO", "addr:street": "Main Street", "amenity": "bar", "name": "Hot Spot", "phone": "+1-970-334-2265", "website": "https://hot-spot-peetz.edan.io/"}}, {"type": "node", "id": 8244219254, "lat": 40.9618681, "lon": -103.1137011}, {"type": "node", "id": 8244219263, "lat": 40.9634627, "lon": -103.114046, "tags": {"addr:city": "Peetz", "addr:housenumber": "529", "addr:postcode": "80747", "addr:state": "CO", "addr:street": "Logan Street", "alt_name": "Peetz United Methodist Church", "amenity": "place_of_worship", "denomination": "methodist", "name": "Peetz Community Church", "phone": "+1-970-334-2312", "religion": "christian", "source": "Bing"}}, {"type": "node", "id": 8244219265, "lat": 40.9622492, "lon": -103.1140397, "tags": {"addr:city": "Peetz", "addr:housenumber": "529", "addr:postcode": "80747", "addr:state": "CO", "addr:street": "Main Street", "amenity": "fuel", "name": "Cenex", "source": "Bing"}}, {"type": "node", "id": 8244219267, "lat": 40.9620096, "lon": -103.113593}, {"type": "node", "id": 8244219270, "lat": 40.9618687, "lon": -103.1135917}, {"type": "node", "id": 8244219274, "lat": 40.9623432, "lon": -103.113956, "tags": {"addr:city": "Peetz", "addr:housenumber": "529", "addr:postcode": "80747", "addr:state": "CO", "addr:street": "Main Street", "name": "Cenex", "phone": "+1-970-334-2261", "shop": "convenience"}}, {"type": "node", "id": 13011140774, "lat": 40.9635035, "lon": -103.1127679}, {"type": "node", "id": 13011140775, "lat": 40.9634168, "lon": -103.1127681}, {"type": "node", "id": 13011140776, "lat": 40.9634168, "lon": -103.1127288}, {"type": "node", "id": 13011140777, "lat": 40.963342, "lon": -103.1127289}, {"type": "node", "id": 13011140778, "lat": 40.9633419, "lon": -103.1126975}, {"type": "node", "id": 13011140779, "lat": 40.9633019, "lon": -103.1126976}, {"type": "node", "id": 13011140780, "lat": 40.9633018, "lon": -103.112594}, {"type": "node", "id": 13011140781, "lat": 40.9635912, "lon": -103.1125934}, {"type": "node", "id": 13011140782, "lat": 40.9635915, "lon": -103.1128636}, {"type": "way", "id": 886599064, "nodes": [8244204154, 8244200596, 8244204142, 8244204169, 8244200599, 8244204153, 8244204151, 8244204131, 8244204152, 8244200610, 8244200602, 8244204180, 8244200604, 8244204144, 8244204154], "tags": {"addr:city": "Peetz", "addr:housenumber": "311", "addr:postcode": "80747", "addr:state": "CO", "addr:street": "Coleman Avenue", "alt_name": "Peetz Plateau School District RE-5", "amenity": "school", "building": "school", "operator": "Peetz Plateau School District RE-5", "phone": "+1-970-334-2361", "source": "Bing", "website": "https://www.peetzschool.org/"}}, {"type": "way", "id": 886601287, "nodes": [8244219249, 8244219254, 8244219270, 8244219267, 8244219249], "tags": {"addr:housenumber": "602", "addr:state": "CO", "addr:street": "Main Street", "alt_name": "US Post Office Peetz CO", "amenity": "post_office", "building": "public", "name": "US Post Office", "opening_hours": "Mo-Fr 12:00-16:00; Sa 08:00-11:00; Su closed", "operator": "United States Postal Service", "operator:short": "USPS", "operator:type": "public", "operator:website": "https://www.usps.com", "operator:wikidata": "Q668687", "operator:wikipedia": "en:United States Postal Service", "phone": "+1 800 275 8777", "ref": "80747", "source": "Bing"}}, {"type": "way", "id": 1415826281, "nodes": [7042088244, 13011140774, 13011140775, 13011140776, 13011140777, 13011140778, 13011140779, 13011140780, 13011140781, 13011140782, 7042088244], "tags": {"addr:city": "Peetz", "addr:housenumber": "621", "addr:postcode": "80747", "addr:state": "CO", "addr:street": "Logan Street", "amenity": "place_of_worship", "building": "church", "denomination": "roman_catholic", "diocese": "Denver", "fax": "+1 970-522-6442", "name": "Sacred Heart Catholic Church", "phone": "+1-970-522-6422", "religion": "christian", "website": "https://www.saintanthonyssterling.org/"}}]}