{"version": 0.6, "generator": "Overpass API 0.7.62.8 e802775f", "osm3s": {"timestamp_osm_base": "2025-11-30T00:12:32Z", "copyright": "The data included in this document is from www.openstreetmap.org. The data is made available under ODbL."}, "elements": [{"type": "node", "id": 2580401833, "lat": 37.899761, "lon": -122.2878992, "tags": {"addr:city": "Kensington", "addr:housenumber": "370", "addr:state": "CA", "addr:street": "Colusa Avenue", "contact:instagram": "thefusefitness", "disused:office": "construction", "leisure": "fitness_centre", "name": "The Fuse Fitness Garage", "old_name": "The Dan Lynch Company", "website": "https://www.thefusefitnessstudio.com/"}}, {"type": "node", "id": 6030293685, "lat": 37.8995002, "lon": -122.30247, "tags": {"addr:city": "El Cerrito", "addr:street": "San Pablo Avenue", "leisure": "fitness_centre", "name": "Square One Yoga", "sport": "yoga"}}, {"type": "node", "id": 10694299521, "lat": 37.8999857, "lon": -122.2876892, "tags": {"addr:housenumber": "377", "addr:street": "Colusa Avenue", "contact:instagram": "thefusefitness", "leisure": "fitness_centre", "name": "The Fuse Fitness", "phone": "+1-510-647-8831", "website": "https://www.thefusefitnessstudio.com/"}}]}