{"version": 0.6, "generator": "Overpass API 0.7.62.8 e802775f", "osm3s": {"timestamp_osm_base": "2025-12-13T00:16:48Z", "copyright": "The data included in this document is from www.openstreetmap.org. The data is made available under ODbL."}, "elements": [{"type": "node", "id": 469519937, "lat": 38.9333641, "lon": -105.0137047, "tags": {"amenity": "fountain"}}, {"type": "node", "id": 469520887, "lat": 38.9348012, "lon": -105.0159826}, {"type": "node", "id": 469520888, "lat": 38.9348746, "lon": -105.0158968}, {"type": "node", "id": 469520889, "lat": 38.9350282, "lon": -105.0161285}, {"type": "node", "id": 469520890, "lat": 38.9351684, "lon": -105.0163173}, {"type": "node", "id": 469520891, "lat": 38.9352819, "lon": -105.0165233}, {"type": "node", "id": 469520892, "lat": 38.9354087, "lon": -105.0167465}, {"type": "node", "id": 469520893, "lat": 38.9353486, "lon": -105.016798}, {"type": "node", "id": 469520894, "lat": 38.9351283, "lon": -105.0164289}, {"type": "node", "id": 469520896, "lat": 38.934948, "lon": -105.0161629}, {"type": "node", "id": 469520950, "lat": 38.9358226, "lon": -105.0175876}, {"type": "node", "id": 469520951, "lat": 38.9356824, "lon": -105.0172958}, {"type": "node", "id": 469520952, "lat": 38.9354554, "lon": -105.0168152}, {"type": "node", "id": 469520953, "lat": 38.9353887, "lon": -105.0168752}, {"type": "node", "id": 469520954, "lat": 38.9355556, "lon": -105.0172272}, {"type": "node", "id": 469520955, "lat": 38.9356758, "lon": -105.0174503}, {"type": "node", "id": 469520956, "lat": 38.9357492, "lon": -105.0175533}, {"type": "node", "id": 708077376, "lat": 38.9336559, "lon": -105.0142546}, {"type": "node", "id": 708077383, "lat": 38.9336725, "lon": -105.0142249}, {"type": "node", "id": 708077387, "lat": 38.9336678, "lon": -105.0141901}, {"type": "node", "id": 708077390, "lat": 38.9336446, "lon": -105.0141686}, {"type": "node", "id": 708077395, "lat": 38.9336161, "lon": -105.0141732}, {"type": "node", "id": 708077399, "lat": 38.9336, "lon": -105.0142024}, {"type": "node", "id": 708077405, "lat": 38.9336048, "lon": -105.0142407}, {"type": "node", "id": 708077412, "lat": 38.9336263, "lon": -105.014261}, {"type": "node", "id": 923866677, "lat": 38.9342874, "lon": -105.014681, "tags": {"addr:city": "Green Mountain Falls", "addr:housenumber": "6980", "addr:state": "CO", "addr:street": "Lake Street", "amenity": "restaurant", "cuisine": "american;breakfast", "name": "The Pantry", "opening_hours": "7am-2:30pm daily", "phone": "+1-719-684-9018", "website": "http://www.greenmountainfalls.org/pantry.htm"}}, {"type": "node", "id": 923866739, "lat": 38.9339799, "lon": -105.0149918}, {"type": "node", "id": 923866740, "lat": 38.9344347, "lon": -105.0142193}, {"type": "node", "id": 923866741, "lat": 38.9343137, "lon": -105.014061}, {"type": "node", "id": 923866743, "lat": 38.9338338, "lon": -105.014863}, {"type": "node", "id": 4733223176, "lat": 38.934411, "lon": -105.0141507, "tags": {"amenity": "bench", "barometer": "no", "material": "wood"}}, {"type": "node", "id": 4733224215, "lat": 38.9342593, "lon": -105.0139468, "tags": {"amenity": "toilets", "fee": "no"}}, {"type": "node", "id": 4733224296, "lat": 38.9342126, "lon": -105.0140058, "tags": {"amenity": "waste_basket"}}, {"type": "node", "id": 5070396023, "lat": 38.9340807, "lon": -105.014981, "tags": {"addr:city": "Green Mountain Falls", "addr:housenumber": "10530", "addr:postcode": "80819", "addr:street": "Ute Pass Avenue", "amenity": "bar", "brewery": "various", "cuisine": "american", "internet_access": "wlan", "name": "Blue Moose Tavern", "opening_hours": "Opens at 11am daily"}}, {"type": "node", "id": 9071753453, "lat": 38.9342189, "lon": -105.015094, "tags": {"addr:city": "Green Mountain Falls", "addr:housenumber": "10530", "addr:state": "CO", "addr:street": "Ute Pass Avenue", "amenity": "restaurant", "name": "Mucky Duck", "opening_hours": "We-Su 11:00-20:00", "phone": "+1-719-684-2008", "website": "www.muckyduckco.com"}}, {"type": "node", "id": 9072214921, "lat": 38.9347712, "lon": -105.0154969}, {"type": "node", "id": 9072214922, "lat": 38.9347235, "lon": -105.0154346}, {"type": "node", "id": 9072214923, "lat": 38.9346526, "lon": -105.0155636}, {"type": "node", "id": 9072214924, "lat": 38.9347073, "lon": -105.015625}, {"type": "way", "id": 39198572, "nodes": [469520887, 469520888, 469520889, 469520890, 469520891, 469520892, 469520893, 469520894, 469520896, 469520887], "tags": {"amenity": "parking"}}, {"type": "way", "id": 39198573, "nodes": [469520950, 469520951, 469520952, 469520953, 469520954, 469520955, 469520956, 469520950], "tags": {"amenity": "parking"}}, {"type": "way", "id": 56469521, "nodes": [708077376, 708077383, 708077387, 708077390, 708077395, 708077399, 708077405, 708077412, 708077376], "tags": {"amenity": "shelter", "building": "yes", "name": "The Green Mountain Falls Gazebo-", "shelter_type": "gazebo"}}, {"type": "way", "id": 78961775, "nodes": [923866739, 923866740, 923866741, 923866743, 923866739], "tags": {"amenity": "parking"}}, {"type": "way", "id": 980732053, "nodes": [9072214921, 9072214922, 9072214923, 9072214924, 9072214921], "tags": {"addr:city": "Green Mountain Falls", "addr:housenumber": "10560", "addr:state": "CO", "addr:street": "Ute Pass Avenue", "amenity": "post_office", "building": "yes", "name": "Green Mountain Falls Post Office"}}]}