{"version": 0.6, "generator": "Overpass API 0.7.62.8 e802775f", "osm3s": {"timestamp_osm_base": "2025-12-13T00:56:48Z", "copyright": "The data included in this document is from www.openstreetmap.org. The data is made available under ODbL."}, "elements": [{"type": "node", "id": 358912571, "lat": 40.2464246, "lon": -105.5388748}, {"type": "node", "id": 366395514, "lat": 40.2388533, "lon": -105.5313321, "tags": {"addr:state": "CO", "amenity": "fire_station", "ele": "2606", "gnis:feature_id": "2368787", "name": "Allenspark Fire Department Station 3"}}, {"type": "node", "id": 636331410, "lat": 40.2368299, "lon": -105.5405907, "tags": {"amenity": "parking", "capacity": "4"}}, {"type": "node", "id": 2441873138, "lat": 40.2342792, "lon": -105.5300471, "tags": {"amenity": "shower", "fee": "yes"}}, {"type": "node", "id": 2441873140, "lat": 40.2343029, "lon": -105.530195, "tags": {"name": "Meeker Park Lodge Store", "operator": "Meeker Park Lodge", "shop": "convenience"}}, {"type": "node", "id": 2441873141, "lat": 40.2343104, "lon": -105.529886, "tags": {"name": "Meeker Park Laundry", "self_service": "yes", "shop": "laundry"}}, {"type": "node", "id": 2441873159, "lat": 40.2417169, "lon": -105.5351216, "tags": {"amenity": "toilets", "drinking_water": "no", "toilets:disposal": "chemical"}}, {"type": "node", "id": 2441873188, "lat": 40.2421412, "lon": -105.5357527, "tags": {"amenity": "toilets", "drinking_water": "no", "toilets:disposal": "chemical"}}, {"type": "node", "id": 3344964020, "lat": 40.2425802, "lon": -105.5334471}, {"type": "node", "id": 3344964023, "lat": 40.2426272, "lon": -105.5332782}, {"type": "node", "id": 3344964026, "lat": 40.2428531, "lon": -105.5335775}, {"type": "node", "id": 3344964035, "lat": 40.2429001, "lon": -105.5334086}, {"type": "node", "id": 3485054622, "lat": 40.2468899, "lon": -105.5357582}, {"type": "node", "id": 3485054623, "lat": 40.2460967, "lon": -105.5383563}, {"type": "node", "id": 3485054625, "lat": 40.2461019, "lon": -105.5386274}, {"type": "node", "id": 3485054627, "lat": 40.2464173, "lon": -105.5384959}, {"type": "node", "id": 3485054629, "lat": 40.2456711, "lon": -105.5389214}, {"type": "node", "id": 3485054631, "lat": 40.2460626, "lon": -105.5389084}, {"type": "node", "id": 3485054632, "lat": 40.2463159, "lon": -105.5390328}, {"type": "node", "id": 3485054635, "lat": 40.2456656, "lon": -105.538642}, {"type": "node", "id": 3485054636, "lat": 40.2463129, "lon": -105.5388785}, {"type": "node", "id": 3485054637, "lat": 40.2470344, "lon": -105.5356304}, {"type": "node", "id": 3485054638, "lat": 40.2460652, "lon": -105.5390411}, {"type": "node", "id": 3485054641, "lat": 40.2463279, "lon": -105.5384091}, {"type": "node", "id": 3485054643, "lat": 40.2468877, "lon": -105.5356348}, {"type": "node", "id": 3485054644, "lat": 40.246326, "lon": -105.5383067}, {"type": "node", "id": 3485054647, "lat": 40.2462376, "lon": -105.538274}, {"type": "node", "id": 3485054649, "lat": 40.2470365, "lon": -105.5357539}, {"type": "node", "id": 3485054654, "lat": 40.246153, "lon": -105.5383544}, {"type": "node", "id": 7042149595, "lat": 40.246098, "lon": -105.539555, "tags": {"amenity": "parking"}}, {"type": "node", "id": 7042149596, "lat": 40.2450784, "lon": -105.5382407, "tags": {"amenity": "parking"}}, {"type": "node", "id": 7042149597, "lat": 40.2471154, "lon": -105.5358079, "tags": {"amenity": "parking"}}, {"type": "node", "id": 7961596622, "lat": 40.2425383, "lon": -105.5331259, "tags": {"amenity": "toilets"}}, {"type": "node", "id": 9319453638, "lat": 40.2330803, "lon": -105.5306581}, {"type": "node", "id": 9319453639, "lat": 40.2330865, "lon": -105.5305677}, {"type": "node", "id": 9319453640, "lat": 40.2329794, "lon": -105.5305545}, {"type": "node", "id": 9319453641, "lat": 40.232967, "lon": -105.530649}, {"type": "node", "id": 11168505867, "lat": 40.2461523, "lon": -105.5383177}, {"type": "node", "id": 11168505868, "lat": 40.2463793, "lon": -105.5384075}, {"type": "node", "id": 11168505869, "lat": 40.246381, "lon": -105.5384971}, {"type": "node", "id": 11179614646, "lat": 40.2428215, "lon": -105.5343426, "tags": {"amenity": "toilets", "drinking_water": "no", "toilets:disposal": "chemical"}}, {"type": "way", "id": 327690967, "nodes": [3344964026, 3344964020, 3344964023, 3344964035, 3344964026], "tags": {"amenity": "parking", "source": "Bing"}}, {"type": "way", "id": 341298640, "nodes": [3485054649, 3485054637, 3485054643, 3485054622, 3485054649], "tags": {"addr:city": "Allenspark", "addr:housenumber": "10758", "addr:postcode": "80510", "addr:state": "CO", "addr:street": "State Highway 7", "alt_name": "Chapel on the Rock", "amenity": "place_of_worship", "building": "yes", "denomination": "roman_catholic", "name": "Saint Catherine's Chapel on the Rock", "religion": "christian", "wikidata": "Q5073123", "wikipedia": "en:Chapel on the Rock"}}, {"type": "way", "id": 341298643, "nodes": [358912571, 3485054627, 11168505869, 11168505868, 3485054641, 3485054644, 3485054647, 11168505867, 3485054654, 3485054623, 3485054625, 3485054635, 3485054629, 3485054631, 3485054638, 3485054632, 3485054636, 358912571], "tags": {"addr:city": "Allenspark", "addr:housenumber": "10758", "addr:postcode": "80510", "addr:state": "CO", "addr:street": "State Highway 7", "alt_name": "Saint Catherine of Siena Chapel (St. Malo)", "amenity": "place_of_worship", "building": "church", "denomination": "roman_catholic", "diocese": "Denver", "ele": "2627", "gnis:feature_id": "178238", "name": "Saint Catherine of Siena Chapel", "phone": "+1 303-747-2786", "religion": "christian", "website": "https://campstmalo.org/"}}, {"type": "way", "id": 1010053042, "nodes": [9319453638, 9319453639, 9319453640, 9319453641, 9319453638], "tags": {"amenity": "fire_station", "building": "yes", "name": "Station 3", "operator": "Allenspark Fire Protection District"}}]}