{"version": 0.6, "generator": "Overpass API 0.7.62.8 e802775f", "osm3s": {"timestamp_osm_base": "2025-12-06T19:46:00Z", "copyright": "The data included in this document is from www.openstreetmap.org. The data is made available under ODbL."}, "elements": [{"type": "node", "id": 1292453305, "lat": 47.6496061, "lon": -122.3491364, "tags": {"addr:city": "Seattle", "addr:housenumber": "710", "addr:postcode": "98103", "addr:street": "North 34th Street", "check_date": "2024-02-06", "leisure": "fitness_centre", "name": "Flow Fitness", "website": "https://www.flowfitnessseattle.com"}}, {"type": "node", "id": 1492038742, "lat": 47.666722, "lon": -122.3824393}, {"type": "node", "id": 1569368562, "lat": 47.6491855, "lon": -122.3485678, "tags": {"addr:city": "Seattle", "addr:housenumber": "837", "addr:postcode": "98103", "addr:state": "WA", "addr:street": "North 34th Street", "addr:unit": "220", "branch": "Seattle (Fremont)", "brand": "Anytime Fitness", "brand:wikidata": "Q4778364", "check_date": "2025-10-14", "leisure": "fitness_centre", "name": "Anytime Fitness", "phone": "+1-206-545-4348", "ref": "106", "sport": "fitness", "website": "https://www.anytimefitness.com/gyms/106/seattle-wa-98103/"}}, {"type": "node", "id": 1735843878, "lat": 47.6390214, "lon": -122.3256831, "tags": {"addr:housenumber": "2228", "addr:street": "Eastlake Avenue East", "addr:unit": "C", "leisure": "fitness_centre", "name": "Eastlake Fitness"}}, {"type": "node", "id": 1738570796, "lat": 47.6667639, "lon": -122.3815799}, {"type": "node", "id": 1738570798, "lat": 47.666668, "lon": -122.3817445}, {"type": "node", "id": 1738570801, "lat": 47.6669098, "lon": -122.3819309}, {"type": "node", "id": 1738570811, "lat": 47.6667458, "lon": -122.3818428}, {"type": "node", "id": 1738570816, "lat": 47.6669802, "lon": -122.3818209}, {"type": "node", "id": 1738574881, "lat": 47.6662479, "lon": -122.3828336}, {"type": "node", "id": 1738574886, "lat": 47.6665756, "lon": -122.3827048}, {"type": "node", "id": 1738574898, "lat": 47.666406, "lon": -122.3830208}, {"type": "node", "id": 1771090628, "lat": 47.6354438, "lon": -122.3768796, "tags": {"addr:city": "Seattle", "addr:housenumber": "1827", "addr:postcode": "98119", "addr:state": "WA", "addr:street": "15th Avenue West", "addr:unit": "A12", "check_date": "2025-11-22", "description": "Pilates club", "email": "www.ClubPilates.com/interbat", "leisure": "fitness_centre", "name": "Club Pilates", "payment:cash": "yes", "payment:credit_cards": "yes", "payment:debit_cards": "yes", "phone": "+1 206-206-1410", "wheelchair": "limited"}}, {"type": "node", "id": 1984796770, "lat": 47.6324268, "lon": -122.3588814}, {"type": "node", "id": 1984796771, "lat": 47.6324291, "lon": -122.3584908}, {"type": "node", "id": 1984796773, "lat": 47.6324559, "lon": -122.3589678}, {"type": "node", "id": 1984796778, "lat": 47.632584, "lon": -122.3589678}, {"type": "node", "id": 1984796779, "lat": 47.6325863, "lon": -122.3584926}, {"type": "node", "id": 1994118041, "lat": 47.6389858, "lon": -122.3570756}, {"type": "node", "id": 1994118046, "lat": 47.6389867, "lon": -122.3574545}, {"type": "node", "id": 1994118052, "lat": 47.6390265, "lon": -122.3574543}, {"type": "node", "id": 1994118054, "lat": 47.6390266, "lon": -122.3574726}, {"type": "node", "id": 1994118056, "lat": 47.6390862, "lon": -122.3570751}, {"type": "node", "id": 1994118064, "lat": 47.6390931, "lon": -122.3571503}, {"type": "node", "id": 1994118066, "lat": 47.6390939, "lon": -122.3574722}, {"type": "node", "id": 2015644373, "lat": 47.6380929, "lon": -122.3571086, "tags": {"addr:city": "Seattle", "addr:housenumber": "2131", "addr:postcode": "98109", "addr:street": "Queen Anne Avenue North", "check_date": "2024-06-20", "leisure": "fitness_centre", "name": "H\u00e4ut\u0113 Yoga", "source": "King County GIS;survey", "sport": "yoga", "website": "https://hauteyogaqueenanne.com"}}, {"type": "node", "id": 2019051185, "lat": 47.63896, "lon": -122.357092, "tags": {"addr:city": "Seattle", "addr:housenumber": "2215", "addr:postcode": "98109", "addr:street": "Queen Anne Avenue North", "check_date": "2024-05-08", "leisure": "fitness_centre", "name": "Inspire", "source": "King County GIS", "sport": "pilates"}}, {"type": "node", "id": 2019051189, "lat": 47.6390864, "lon": -122.3571503}, {"type": "node", "id": 2051964568, "lat": 47.6663384, "lon": -122.3824221}, {"type": "node", "id": 2051964572, "lat": 47.6664102, "lon": -122.3822754}, {"type": "node", "id": 2051964576, "lat": 47.6665315, "lon": -122.3824235}, {"type": "node", "id": 2051964578, "lat": 47.6666031, "lon": -122.3822941}, {"type": "node", "id": 2134381229, "lat": 47.6495738, "lon": -122.332299}, {"type": "node", "id": 2135541020, "lat": 47.6550566, "lon": -122.3421734, "tags": {"addr:city": "Seattle", "addr:housenumber": "3924", "addr:postcode": "98103", "addr:state": "WA", "addr:street": "Stone Way North", "check_date": "2024-02-20", "leisure": "fitness_centre", "name": "Emerald City Athletics", "source": "King County GIS", "sport": "fitness", "website": "https://emeraldcityathletics.com/stone-way-seattle-washington/"}}, {"type": "node", "id": 2135541993, "lat": 47.6512834, "lon": -122.3417366}, {"type": "node", "id": 2136830837, "lat": 47.6645553, "lon": -122.3738549, "tags": {"addr:city": "Seattle", "addr:housenumber": "1400", "addr:postcode": "98107", "addr:street": "Northwest 49th Street", "check_date": "2025-01-12", "leisure": "fitness_centre", "name": "Corsair Athletics", "opening_hours": "Mo-Fr 11:00-19:00; Sa 09:30-11:00; Su off", "phone": "+1-206-785-2864", "source": "King County GIS", "website": "https://traincorsair.com"}}, {"type": "node", "id": 2138396849, "lat": 47.666419, "lon": -122.3825148}, {"type": "node", "id": 2143322826, "lat": 47.6497763, "lon": -122.3437929, "tags": {"addr:city": "Seattle", "addr:housenumber": "1100", "addr:postcode": "98103", "addr:street": "North 35th Street", "check_date": "2025-08-17", "leisure": "fitness_centre", "name": "Experience Momentum", "sport": "fitness"}}, {"type": "node", "id": 2143322930, "lat": 47.6500342, "lon": -122.3430426, "tags": {"addr:city": "Seattle", "addr:housenumber": "3517", "addr:postcode": "98103", "addr:street": "Stone Way North", "check_date": "2024-06-27", "leisure": "fitness_centre", "name": "Embrace the Moon", "phone": "+1-206-789-0993", "source": "King County GIS", "website": "https://embracethemoon.com/"}}, {"type": "node", "id": 2144293444, "lat": 47.6587313, "lon": -122.349879, "tags": {"addr:city": "Seattle", "addr:housenumber": "4250", "addr:postcode": "98103", "addr:street": "Fremont Avenue North", "leisure": "fitness_centre", "name": "The Yoga Tree", "opening_hours": "\"pre-registration required\"", "source": "King County GIS", "sport": "yoga", "website": "https://www.yogatree.com/"}}, {"type": "node", "id": 2144365448, "lat": 47.6523848, "lon": -122.3558739, "tags": {"addr:city": "Seattle", "addr:housenumber": "215", "addr:postcode": "98103", "addr:street": "North 36th Street", "check_date": "2025-01-25", "leisure": "fitness_centre", "name": "Sea Level", "source": "King County GIS", "sport": "yoga"}}, {"type": "node", "id": 2167542586, "lat": 47.6580753, "lon": -122.3468569, "tags": {"addr:city": "Seattle", "addr:housenumber": "4211", "addr:postcode": "98103", "addr:state": "WA", "addr:street": "Winslow Place North", "leisure": "fitness_centre", "name": "Marcelo Alonso Brazilian Jiu-Jitsu", "phone": "+1-206-618-6024", "website": "https://www.mabjj.com/"}}, {"type": "node", "id": 2190514084, "lat": 47.6397028, "lon": -122.3658981, "tags": {"addr:city": "Seattle", "addr:housenumber": "618", "addr:postcode": "98119", "addr:street": "West McGraw Street", "leisure": "fitness_centre", "name": "Tulinda", "source": "King County GIS", "sport": "yoga"}}, {"type": "node", "id": 2249374201, "lat": 47.6495757, "lon": -122.3324358}, {"type": "node", "id": 2249374204, "lat": 47.6497182, "lon": -122.3322088}, {"type": "node", "id": 2249374207, "lat": 47.6497492, "lon": -122.3322337}, {"type": "node", "id": 2249374209, "lat": 47.6497487, "lon": -122.3322106}, {"type": "node", "id": 2253091801, "lat": 47.6512679, "lon": -122.3417367}, {"type": "node", "id": 2253091803, "lat": 47.651268, "lon": -122.3418111}, {"type": "node", "id": 2253091807, "lat": 47.651283, "lon": -122.3414762}, {"type": "node", "id": 2253091809, "lat": 47.6512847, "lon": -122.341811}, {"type": "node", "id": 2253091810, "lat": 47.6512849, "lon": -122.3419163}, {"type": "node", "id": 2258944989, "lat": 47.6501101, "lon": -122.3415684}, {"type": "node", "id": 2258944990, "lat": 47.650112, "lon": -122.3419416}, {"type": "node", "id": 2258945323, "lat": 47.6504059, "lon": -122.341565}, {"type": "node", "id": 2258945343, "lat": 47.6504078, "lon": -122.3419382}, {"type": "node", "id": 2291869164, "lat": 47.636364, "lon": -122.3705553, "tags": {"addr:city": "Seattle", "addr:housenumber": "1911", "addr:postcode": "98119", "addr:street": "10th Avenue West", "leisure": "fitness_centre", "name": "Red Square Yoga", "source": "King County GIS;data.seattle.gov", "sport": "yoga", "website": "https://www.redsquareyoga.com/"}}, {"type": "node", "id": 2328735925, "lat": 47.6617053, "lon": -122.3350434}, {"type": "node", "id": 2328736691, "lat": 47.6614863, "lon": -122.3350454}, {"type": "node", "id": 2349972122, "lat": 47.6330965, "lon": -122.3564973}, {"type": "node", "id": 2349972123, "lat": 47.6330984, "lon": -122.3567372}, {"type": "node", "id": 2349972126, "lat": 47.6331152, "lon": -122.3567369}, {"type": "node", "id": 2349972127, "lat": 47.6331159, "lon": -122.3568191}, {"type": "node", "id": 2349972132, "lat": 47.6331695, "lon": -122.3567842}, {"type": "node", "id": 2349972133, "lat": 47.6331698, "lon": -122.3568182}, {"type": "node", "id": 2349972144, "lat": 47.6332636, "lon": -122.3563932}, {"type": "node", "id": 2349972145, "lat": 47.6332644, "lon": -122.3564944}, {"type": "node", "id": 2349972158, "lat": 47.6333834, "lon": -122.3566955}, {"type": "node", "id": 2349972159, "lat": 47.6333841, "lon": -122.3567805}, {"type": "node", "id": 2349972160, "lat": 47.6333862, "lon": -122.3563911}, {"type": "node", "id": 2349972161, "lat": 47.633387, "lon": -122.3564949}, {"type": "node", "id": 2349972178, "lat": 47.6334262, "lon": -122.3564942}, {"type": "node", "id": 2349972179, "lat": 47.6334278, "lon": -122.3566947}, {"type": "node", "id": 2415568557, "lat": 47.6374914, "lon": -122.3397723, "tags": {"leisure": "fitness_centre", "name": "Energy Fitness & Wellness", "sport": "fitness", "website": "http://energyfitandwell.com"}}, {"type": "node", "id": 2462428123, "lat": 47.6390862, "lon": -122.3764821, "tags": {"addr:city": "Seattle", "addr:housenumber": "2213", "addr:postcode": "98119", "addr:street": "15th Avenue West", "check_date": "2025-11-10", "leisure": "fitness_centre", "name": "The Little Gym", "opening_hours": "Mo-Th 09:00-18:00; Sa,Su 09:00-16:00", "source": "King County GIS;data.seattle.gov", "sport": "fitness"}}, {"type": "node", "id": 2463213462, "lat": 47.6497738, "lon": -122.3824548, "tags": {"addr:city": "Seattle", "addr:housenumber": "3243", "addr:postcode": "98199", "addr:state": "WA", "addr:street": "20th Avenue West", "leisure": "fitness_centre", "name": "Vice Athletics", "source": "King County GIS;data.seattle.gov", "website": "https://www.viceathletics.com/"}}, {"type": "node", "id": 2549984319, "lat": 47.6576707, "lon": -122.3675883, "tags": {"addr:city": "Seattle", "addr:housename": "Crossfit Seattle", "addr:housenumber": "4201", "addr:postcode": "98107", "addr:street": "9th Avenue Northwest", "leisure": "fitness_centre", "name": "Crossfit Seattle", "source": "http://crossfitseattle.com/contact-us/", "website": "crossfitseattle.com"}}, {"type": "node", "id": 2778623157, "lat": 47.6610867, "lon": -122.3357625, "tags": {"addr:city": "Seattle", "addr:housenumber": "1815", "addr:postcode": "98103", "addr:street": "North 45th Street", "addr:unit": "203", "check_date": "2024-11-26", "leisure": "fitness_centre", "level": "1", "name": "Aditi", "source": "King County GIS", "sport": "yoga", "wheelchair": "yes"}}, {"type": "node", "id": 3203646941, "lat": 47.6623596, "lon": -122.37553, "tags": {"addr:city": "Seattle", "addr:housenumber": "1416", "addr:postcode": "98107", "addr:state": "WA", "addr:street": "Northwest 46th Street", "addr:unit": "103", "brand": "LA Fitness", "brand:wikidata": "Q6457180", "check_date": "2025-04-27", "leisure": "fitness_centre", "name": "LA Fitness", "phone": "+1-206-508-5030", "website": "https://www.lafitness.com/Pages/clubhome.aspx?clubid=455"}}, {"type": "node", "id": 3334782951, "lat": 47.6495751, "lon": -122.332558}, {"type": "node", "id": 3334782952, "lat": 47.6497516, "lon": -122.332555}, {"type": "node", "id": 3371285715, "lat": 47.6479101, "lon": -122.3369996, "tags": {"addr:housenumber": "3333", "addr:street": "Wallingford Avenue North", "addr:unit": "B", "check_date": "2024-09-21", "leisure": "fitness_centre", "name": "Studio Evolve", "website": "https://www.studio-evolve.com/"}}, {"type": "node", "id": 3461015166, "lat": 47.6676798, "lon": -122.371294, "tags": {"addr:city": "Seattle", "addr:housenumber": "1107", "addr:postcode": "98107", "addr:state": "WA", "addr:street": "Northwest 54th Street", "contact:facebook": "https://www.facebook.com/BallardBarbellandBoxingClub", "contact:instagram": "https://www.instagram.com/ballardboxing/?hl=en", "email": "ballardbarbell@gmail.com", "leisure": "fitness_centre", "name": "Ballard Barbell and Boxing Club", "phone": "+1-206-384-8026", "website": "https://www.ballardbarbellandboxingclub.com/"}}, {"type": "node", "id": 3547665863, "lat": 47.6634274, "lon": -122.375804, "tags": {"addr:city": "Seattle", "addr:housenumber": "1455", "addr:postcode": "98107", "addr:state": "WA", "addr:street": "Northwest Leary Way", "addr:unit": "100", "brand": "CorePower Yoga", "brand:wikidata": "Q21015663", "leisure": "fitness_centre", "name": "CorePower Yoga", "opening_hours": "Mo-Su 06:00-22:00", "sport": "yoga", "website": "https://www.corepoweryoga.com/yoga-studio/washington/seattle-ballard"}}, {"type": "node", "id": 3570796812, "lat": 47.6369502, "lon": -122.3774864, "tags": {"addr:city": "Seattle", "addr:housenumber": "2001", "addr:postcode": "98119", "addr:street": "15th Avenue West", "addr:unit": "C", "leisure": "fitness_centre", "name": "Northwest Crossfit", "source": "King County GIS;data.seattle.gov", "website": "https://www.nwcrossfit.com/"}}, {"type": "node", "id": 3651149203, "lat": 47.6614857, "lon": -122.3348923}, {"type": "node", "id": 3651149209, "lat": 47.6617047, "lon": -122.3348904}, {"type": "node", "id": 3926570672, "lat": 47.6556188, "lon": -122.3723901, "tags": {"addr:city": "Seattle", "addr:housenumber": "1210", "addr:postcode": "98119", "addr:state": "WA", "addr:street": "West Nickerson Street", "leisure": "fitness_centre", "name": "Parkour Visions", "website": "https://parkourvisions.org/"}}, {"type": "node", "id": 3949240657, "lat": 47.655059, "lon": -122.3739419, "tags": {"addr:city": "Seattle", "addr:housenumber": "3837", "addr:postcode": "98119", "addr:state": "WA", "addr:street": "13th Avenue West", "leisure": "fitness_centre", "name": "Sync Fitness", "phone": "+1-206-354-7480", "website": "https://www.syncfitness.com/"}}, {"type": "node", "id": 4371653092, "lat": 47.6449682, "lon": -122.3255319, "tags": {"addr:city": "Seattle", "addr:housenumber": "2712", "addr:postcode": "98102", "addr:street": "Eastlake Avenue East", "addr:unit": "B", "leisure": "fitness_centre", "name": "Union Pilates", "source": "King County GIS;data.seattle.gov", "website": "https://www.unionpilates.com"}}, {"type": "node", "id": 5080238723, "lat": 47.6502069, "lon": -122.3320275, "tags": {"leisure": "fitness_centre", "name": "The Lab", "name:en": "The Lab"}}, {"type": "node", "id": 5080396725, "lat": 47.6382083, "lon": -122.3403755, "tags": {"addr:housenumber": "2110", "addr:street": "Westlake Avenue North", "leisure": "fitness_centre", "name": "Seattle Changing Room", "name:en": "Seattle Changing Room", "website": "https://www.seattlechangingroom.com"}}, {"type": "node", "id": 5233431424, "lat": 47.6513952, "lon": -122.3424043, "tags": {"addr:city": "Seattle", "addr:housenumber": "3624", "addr:postcode": "98103", "addr:street": "Stone Way North", "check_date": "2024-04-20", "leisure": "fitness_centre", "name": "Bala Yoga", "opening_hours": "09:00-13:00,16:00-20:30", "phone": "+1-206-802-2871", "source": "King County GIS", "sport": "yoga", "website": "https://www.balayoga.com/"}}, {"type": "node", "id": 5799576816, "lat": 47.6481138, "lon": -122.3550826, "tags": {"addr:housenumber": "101", "addr:street": "Nickerson Street", "addr:unit": "110", "leisure": "fitness_centre", "name": "Planted Pilates & Wellness", "sport": "pilates", "website": "https://www.myplantedpilates.com/"}}, {"type": "node", "id": 5799595053, "lat": 47.649281, "lon": -122.3569677, "tags": {"addr:city": "Seattle", "addr:housenumber": "15", "addr:postcode": "98109", "addr:street": "Nickerson Street", "addr:unit": "C", "check_date": "2024-10-21", "leisure": "fitness_centre", "name": "Seattle Muscle", "phone": "+1-206-319-9828"}}, {"type": "node", "id": 6056567896, "lat": 47.6481072, "lon": -122.3554828, "tags": {"addr:housenumber": "101", "addr:street": "Nickerson Street", "leisure": "fitness_centre", "name": "Stoneway Crossfit", "sport": "crossfit"}}, {"type": "node", "id": 6056567928, "lat": 47.6480694, "lon": -122.3554116, "tags": {"addr:housenumber": "101", "addr:street": "Nickerson Street", "leisure": "fitness_centre", "name": "Martial Sports"}}, {"type": "node", "id": 6056567930, "lat": 47.6492481, "lon": -122.356892, "tags": {"addr:city": "Seattle", "addr:housenumber": "15", "addr:postcode": "98109", "addr:street": "Nickerson Street", "addr:unit": "B", "check_date": "2024-10-21", "leisure": "fitness_centre", "name": "Tutu School", "phone": "+1-206-319-9828", "website": "https://www.tutuschool.com/seattle"}}, {"type": "node", "id": 6287452875, "lat": 47.6404054, "lon": -122.325648, "tags": {"leisure": "fitness_centre", "name": "The Performance Fix", "website": "https://theperformancefix.com"}}, {"type": "node", "id": 6634276146, "lat": 47.6517561, "lon": -122.342908, "tags": {"addr:city": "Seattle", "addr:housenumber": "3627", "addr:postcode": "98103", "addr:street": "Stone Way North", "addr:unit": "D", "check_date": "2024-04-20", "leisure": "fitness_centre", "name": "Studio 45", "website": "https://studio45seattle.com/"}}, {"type": "node", "id": 6698364149, "lat": 47.6612637, "lon": -122.341097, "tags": {"addr:city": "Seattle", "addr:housenumber": "1325", "addr:postcode": "98103", "addr:state": "WA", "addr:street": "North 45th Street", "brand": "Orangetheory Fitness", "brand:wikidata": "Q25005163", "check_date": "2025-11-14", "leisure": "fitness_centre", "name": "Orangetheory Fitness", "phone": "+1-206-922-3190", "ref": "3038", "website": "https://www.orangetheory.com/en-us/locations/washington/seattle/1325-n-45th-street/"}}, {"type": "node", "id": 6828408526, "lat": 47.6625325, "lon": -122.369225, "tags": {"addr:housenumber": "907", "addr:street": "Northwest Ballard Way", "addr:unit": "115", "brand": "F45 Training", "brand:wikidata": "Q64390973", "contact:facebook": "https://www.facebook.com/F45Ballard/", "contact:instagram": "https://www.instagram.com/f45_Ballard/", "email": "ballard@f45training.com", "leisure": "fitness_centre", "name": "F45 Training", "phone": "+1-206-899-5455", "short_name": "F45", "website": "https://f45training.com/ballard/home"}}, {"type": "node", "id": 7658547383, "lat": 47.6618619, "lon": -122.3408719, "tags": {"addr:city": "Seattle", "addr:housenumber": "4501", "addr:postcode": "98103", "addr:street": "Interlake Avenue North", "addr:unit": "6", "leisure": "fitness_centre", "name": "Compfit Dance & Fitness Studio", "website": "https://www.compfit.com"}}, {"type": "node", "id": 7781423080, "lat": 47.6665917, "lon": -122.3826756, "tags": {"entrance": "yes"}}, {"type": "node", "id": 7817874874, "lat": 47.6527626, "lon": -122.3560094, "tags": {"addr:city": "Seattle", "addr:housenumber": "212", "addr:postcode": "98103", "addr:street": "North 36th Street", "check_date": "2025-01-25", "leisure": "fitness_centre", "name": "NW Fitness Project", "opening_hours": "Mo-Fr 05:00-20:00; Sa 08:00-15:00; Su 07:00-14:00", "source": "King County GIS"}}, {"type": "node", "id": 8493476835, "lat": 47.6493387, "lon": -122.3559749, "tags": {"addr:city": "Seattle", "addr:housenumber": "130", "addr:postcode": "98109", "addr:state": "WA", "addr:street": "Nickerson Street", "addr:unit": "210", "leisure": "fitness_centre", "name": "Bodycenter Studios", "phone": "+1-206-633-4800", "sport": "pilates", "website": "https://bodycenterstudios.com/"}}, {"type": "node", "id": 8739030562, "lat": 47.661972, "lon": -122.374608, "tags": {"addr:housenumber": "1401", "addr:street": "Northwest 46th Street", "addr:unit": "200", "check_date": "2025-04-27", "contact:facebook": "https://www.facebook.com/TruFusionWashington/", "email": "studio140@trufusionstudio.com", "leisure": "fitness_centre", "name": "TruFusion Ballard", "phone": "+1-206-337-6200", "website": "https://trufusion.com/ballard/"}}, {"type": "node", "id": 9161445219, "lat": 47.6385188, "lon": -122.3261132, "tags": {"addr:housenumber": "2201", "addr:street": "Eastlake Avenue East", "addr:unit": "B", "leisure": "fitness_centre", "name": "Datza", "sport": "yoga", "website": "https://datzastudios.com"}}, {"type": "node", "id": 9501580018, "lat": 47.6514781, "lon": -122.3419157}, {"type": "node", "id": 9501580019, "lat": 47.6514774, "lon": -122.3414756}, {"type": "node", "id": 9501580029, "lat": 47.6501113, "lon": -122.3418148, "tags": {"door": "hinged", "entrance": "emergency"}}, {"type": "node", "id": 9501580030, "lat": 47.6504072, "lon": -122.341821, "tags": {"door": "hinged", "entrance": "main", "wheelchair": "yes"}}, {"type": "node", "id": 9847318321, "lat": 47.6444479, "lon": -122.3451012, "tags": {"leisure": "fitness_centre", "name": "Studio Jack's Pilates"}}, {"type": "node", "id": 9959881699, "lat": 47.6620521, "lon": -122.368205, "tags": {"addr:city": "Seattle", "addr:housenumber": "4550", "addr:state": "WA", "addr:street": "9th Avenue Northwest", "contact:facebook": "https://www.facebook.com/TwentyPoundHammer/", "contact:instagram": "https://www.instagram.com/twentypoundhammer/", "email": "info@twentypoundhammer.com", "leisure": "fitness_centre", "name": "CrossFit Twenty Pound Hammer", "phone": "+1-206-693-2570", "sport": "crossfit", "website": "https://www.twentypoundhammer.com/"}}, {"type": "node", "id": 12018466103, "lat": 47.6500401, "lon": -122.3429194, "tags": {"addr:housenumber": "3517", "addr:street": "Stone Way North", "check_date": "2024-06-27", "leisure": "fitness_centre", "name": "Shift Movement & Healing Arts", "website": "https://shiftseattle.com"}}, {"type": "node", "id": 12027918518, "lat": 47.6590195, "lon": -122.3402978, "tags": {"addr:housenumber": "1405", "addr:street": "North 43rd Street", "check_date": "2024-07-01", "leisure": "fitness_centre", "name": "Wallingford Studio", "sport": "yoga"}}, {"type": "node", "id": 12033645877, "lat": 47.6397077, "lon": -122.3770588, "tags": {"addr:housenumber": "1570", "addr:street": "West Armory Way", "addr:unit": "104", "check_date": "2024-07-03", "leisure": "fitness_centre", "name": "HotWorx"}}, {"type": "node", "id": 12669274420, "lat": 47.6504063, "lon": -122.3416464}, {"type": "node", "id": 12669274424, "lat": 47.6503292, "lon": -122.3415659}, {"type": "node", "id": 13037954809, "lat": 47.6492389, "lon": -122.3461313, "tags": {"addr:city": "Seattle", "addr:postcode": "98103", "addr:state": "WA", "addr:street": "920 N 34th St", "addr:unit": "200", "brand": "Fremont Health Club", "leisure": "fitness_centre", "level": "3", "name": "Fremont Health Club", "opening_hours": "24/7", "opening_hours:reception": "Mo-Fr 10:30; Sa-Su 09:00-13:00", "opening_hours:self_service": "24/7", "operator": "Fremont Health Club", "phone": "+1-206-632-2200", "sauna": "yes", "shower": "yes", "swimming_pool": "no", "toilets": "yes", "website": "https://fremonthc.com", "wheelchair": "yes", "wheelchair:description": "elevator access upon request"}}, {"type": "node", "id": 13186408255, "lat": 47.6475488, "lon": -122.3342097, "tags": {"addr:city": "Seattle", "addr:housenumber": "1900", "addr:postcode": "98103", "addr:state": "WA", "addr:street": "North Northlake Way", "addr:unit": "249", "leisure": "fitness_centre", "level": "2", "name": "Bhakti Studio", "phone": "+1-206-290-4114", "sport": "yoga", "website": "https://bhaktistudio.org/"}}, {"type": "way", "id": 161906718, "nodes": [1738570796, 1738570816, 1738570801, 1738570811, 1738570798, 1738570796], "tags": {"addr:city": "Seattle", "addr:housenumber": "5244", "addr:postcode": "98107", "addr:state": "WA", "addr:street": "Leary Avenue Northwest", "building": "yes", "email": "richardf@olympicathleticclub.com", "leisure": "fitness_centre", "name": "Olympic Athletic Club Women\u2019s Gym", "source": "King County GIS", "website": "https://www.olympicathleticclub.com/womensgym/"}}, {"type": "way", "id": 161907000, "nodes": [1738574898, 1738574881, 2138396849, 1738574886, 1738574898], "tags": {"addr:city": "Seattle", "addr:housenumber": "5232", "addr:postcode": "98107", "addr:state": "WA", "addr:street": "Ballard Avenue Northwest", "building": "yes", "contact:facebook": "https://www.facebook.com/olympicathleticclub", "contact:instagram": "https://www.instagram.com/olympicathleticclub/", "leisure": "fitness_centre", "name": "Olympic Athletic Club", "phone": "+1-206-789-5010", "source": "King County GIS", "website": "https://www.olympicathleticclub.com/"}}, {"type": "way", "id": 187838318, "nodes": [1984796778, 1984796779, 1984796771, 1984796770, 1984796773, 1984796778], "tags": {"addr:city": "Seattle", "addr:housenumber": "110", "addr:postcode": "98119", "addr:state": "WA", "addr:street": "West Galer Street", "branch": "Seattle (Upper Queen Anne)", "brand": "Anytime Fitness", "brand:wikidata": "Q4778364", "building": "yes", "leisure": "fitness_centre", "name": "Anytime Fitness", "opening_hours": "24/7", "phone": "+1-206-535-7573", "ref": "3783", "website": "https://www.anytimefitness.com/gyms/3783/seattle-wa-98119/"}}, {"type": "way", "id": 188785890, "nodes": [1994118064, 2019051189, 1994118056, 1994118041, 1994118046, 1994118052, 1994118054, 1994118066, 1994118064], "tags": {"addr:city": "Seattle", "addr:housenumber": "2221", "addr:postcode": "98109", "addr:state": "WA", "addr:street": "Queen Anne Avenue North", "brand": "F45 Training", "brand:wikidata": "Q64390973", "building": "yes", "check_date": "2025-08-14", "leisure": "fitness_centre", "name": "F45 Training", "short_name": "F45", "source": "King County GIS"}}, {"type": "way", "id": 194691096, "nodes": [1492038742, 2051964578, 2051964576, 2051964572, 2051964568, 2138396849, 1738574886, 7781423080, 1492038742], "tags": {"addr:city": "Seattle", "addr:housenumber": "5301", "addr:postcode": "98107", "addr:state": "WA", "addr:street": "Leary Avenue Northwest", "building": "yes", "contact:facebook": "https://www.facebook.com/olympicathleticclub", "contact:instagram": "https://www.instagram.com/olympicathleticclub/", "leisure": "fitness_centre", "name": "Olympic Athletic Club", "phone": "+1-206-789-5010", "source": "King County GIS", "website": "https://www.olympicathleticclub.com/"}}, {"type": "way", "id": 215885505, "nodes": [9501580019, 2253091807, 2135541993, 2253091801, 2253091803, 2253091809, 2253091810, 9501580018, 9501580019], "tags": {"addr:city": "Seattle", "addr:housenumber": "3625", "addr:postcode": "98103", "addr:street": "Interlake Avenue North", "building": "yes", "leisure": "fitness_centre", "name": "Seattle Bouldering Project Upper Walls", "source": "King County GIS;data.seattle.gov", "sport": "climbing", "website": "https://seattleboulderingproject.com/upper-walls"}}, {"type": "way", "id": 216542569, "nodes": [2258944990, 2258945343, 9501580030, 12669274420, 2258945323, 12669274424, 2258944989, 9501580029, 2258944990], "tags": {"addr:city": "Seattle", "addr:housenumber": "3535", "addr:postcode": "98103", "addr:street": "Interlake Avenue North", "building": "yes", "building:levels": "3", "leisure": "fitness_centre", "name": "Seattle Bouldering Project", "opening_hours": "Mo-Fr 06:00-22:00, Sa-Su 09:00-21:00", "source": "King County GIS;data.seattle.gov", "sport": "climbing", "website": "https://seattleboulderingproject.com/fremont"}}, {"type": "way", "id": 224037755, "nodes": [3651149203, 2328736691, 2328735925, 3651149209, 3651149203], "tags": {"addr:city": "Seattle", "addr:housenumber": "1900", "addr:postcode": "98103", "addr:street": "North 45th Street", "building": "yes", "check_date": "2023-06-10", "leisure": "fitness_centre", "name": "Jae Hun Kim Taekwon-do Institute", "source": "King County GIS;data.seattle.gov", "sport": "taekwondo"}}, {"type": "way", "id": 226145848, "nodes": [2349972159, 2349972158, 2349972179, 2349972178, 2349972161, 2349972160, 2349972144, 2349972145, 2349972122, 2349972123, 2349972126, 2349972127, 2349972133, 2349972132, 2349972159], "tags": {"addr:city": "Seattle", "addr:housenumber": "1530", "addr:postcode": "98109", "addr:state": "WA", "addr:street": "Queen Anne Avenue North", "building": "yes", "leisure": "fitness_centre", "name": "The Seattle Gym", "source": "King County GIS;data.seattle.gov", "sport": "fitness", "website": "https://www.theseattlegym.com/"}}, {"type": "way", "id": 326804797, "nodes": [3334782951, 3334782952, 2249374207, 2249374209, 2249374204, 2134381229, 2249374201, 3334782951], "tags": {"addr:city": "Seattle", "addr:housenumber": "2210", "addr:postcode": "98103", "addr:street": "North Pacific Street", "building": "yes", "leisure": "fitness_centre", "name": "OmCulture", "source": "King County GIS;data.seattle.gov", "sport": "yoga"}}]}