{"version": 0.6, "generator": "Overpass API 0.7.62.8 e802775f", "osm3s": {"timestamp_osm_base": "2025-12-06T04:37:40Z", "copyright": "The data included in this document is from www.openstreetmap.org. The data is made available under ODbL."}, "elements": [{"type": "node", "id": 7018451280, "lat": 46.7666567, "lon": -114.079379}, {"type": "node", "id": 7018451281, "lat": 46.7665486, "lon": -114.0794131}, {"type": "node", "id": 7018451282, "lat": 46.7665042, "lon": -114.079113}, {"type": "node", "id": 7018451283, "lat": 46.7666123, "lon": -114.0790789}, {"type": "node", "id": 7018451284, "lat": 46.7659663, "lon": -114.0812922}, {"type": "node", "id": 7018460885, "lat": 46.7657862, "lon": -114.0813562}, {"type": "node", "id": 7018460886, "lat": 46.7657321, "lon": -114.0810302}, {"type": "node", "id": 7018460887, "lat": 46.7659264, "lon": -114.0809622}, {"type": "node", "id": 7018460888, "lat": 46.7659591, "lon": -114.0811592}, {"type": "node", "id": 7018460889, "lat": 46.7659462, "lon": -114.0811722}, {"type": "node", "id": 7018460961, "lat": 46.7646357, "lon": -114.0799201, "tags": {"addr:city": "Lolo", "addr:housenumber": "11100", "addr:postcode": "59847", "addr:state": "MT", "addr:street": "Highway 93 South", "addr:unit": "B", "amenity": "restaurant", "brand": "Pizza Hut", "brand:wikidata": "Q191615", "cuisine": "pizza", "name": "Pizza Hut", "phone": "+1 406-273-9800", "website": "https://locations.pizzahut.com/mt/lolo/11100-hwy-93-south-b"}}, {"type": "node", "id": 7018460962, "lat": 46.7647897, "lon": -114.0795812}, {"type": "node", "id": 7018460963, "lat": 46.764642, "lon": -114.079575}, {"type": "node", "id": 7018460964, "lat": 46.7646336, "lon": -114.0793162}, {"type": "node", "id": 7018460965, "lat": 46.7647876, "lon": -114.0793193}, {"type": "node", "id": 7018460974, "lat": 46.7652498, "lon": -114.0782564, "tags": {"name": "Lolo Wash & Dry", "shop": "laundry"}}, {"type": "node", "id": 7018460979, "lat": 46.7641798, "lon": -114.0789835, "tags": {"name": "Harvest Foods", "shop": "supermarket"}}, {"type": "node", "id": 7018460981, "lat": 46.7637387, "lon": -114.0789989, "tags": {"name": "Lolo Liquor and Wine", "shop": "alcohol"}}, {"type": "node", "id": 7018460982, "lat": 46.7634981, "lon": -114.0790112, "tags": {"name": "Hunter Bay", "shop": "coffee"}}, {"type": "node", "id": 7018460983, "lat": 46.7655052, "lon": -114.0790389}, {"type": "node", "id": 7018460984, "lat": 46.765176, "lon": -114.0790389}, {"type": "node", "id": 7018460985, "lat": 46.7651781, "lon": -114.0788202}, {"type": "node", "id": 7018460986, "lat": 46.7655031, "lon": -114.0788233}, {"type": "node", "id": 7018460987, "lat": 46.7648889, "lon": -114.0782009}, {"type": "node", "id": 7018460988, "lat": 46.7647982, "lon": -114.0781947}, {"type": "node", "id": 7018460989, "lat": 46.7647982, "lon": -114.0773783}, {"type": "node", "id": 7018460990, "lat": 46.7648868, "lon": -114.0773813}, {"type": "node", "id": 7018460991, "lat": 46.7647433, "lon": -114.0781547}, {"type": "node", "id": 7018460992, "lat": 46.7646251, "lon": -114.0781454}, {"type": "node", "id": 7018460993, "lat": 46.7646209, "lon": -114.077329}, {"type": "node", "id": 7018460994, "lat": 46.7647433, "lon": -114.0773382}, {"type": "node", "id": 7018461060, "lat": 46.7628225, "lon": -114.0806567}, {"type": "node", "id": 7018461061, "lat": 46.7627028, "lon": -114.0806972}, {"type": "node", "id": 7018461062, "lat": 46.7626683, "lon": -114.0804794}, {"type": "node", "id": 7018461063, "lat": 46.7627881, "lon": -114.0804389}, {"type": "node", "id": 7018461064, "lat": 46.7628528, "lon": -114.0802408}, {"type": "node", "id": 7018461065, "lat": 46.7627357, "lon": -114.0802408}, {"type": "node", "id": 7018461066, "lat": 46.7627357, "lon": -114.0800143}, {"type": "node", "id": 7018461067, "lat": 46.7628528, "lon": -114.0800143}, {"type": "node", "id": 7018461068, "lat": 46.7623011, "lon": -114.0798025}, {"type": "node", "id": 7018461069, "lat": 46.7622059, "lon": -114.079804}, {"type": "node", "id": 7018461070, "lat": 46.7622055, "lon": -114.0797511}, {"type": "node", "id": 7018461071, "lat": 46.762063, "lon": -114.0797534}, {"type": "node", "id": 7018461072, "lat": 46.7620617, "lon": -114.0795749}, {"type": "node", "id": 7018461073, "lat": 46.7622993, "lon": -114.0795711}, {"type": "node", "id": 7018461258, "lat": 46.7607921, "lon": -114.082291}, {"type": "node", "id": 7018461259, "lat": 46.7607998, "lon": -114.082456}, {"type": "node", "id": 7018461260, "lat": 46.7606389, "lon": -114.0824719}, {"type": "node", "id": 7018461261, "lat": 46.7606353, "lon": -114.0823955}, {"type": "node", "id": 7018461262, "lat": 46.7604386, "lon": -114.082415}, {"type": "node", "id": 7018461263, "lat": 46.7604325, "lon": -114.0822836}, {"type": "node", "id": 7018461264, "lat": 46.7606288, "lon": -114.0822642}, {"type": "node", "id": 7018461265, "lat": 46.7606308, "lon": -114.082307}, {"type": "node", "id": 7018461274, "lat": 46.7596176, "lon": -114.0824372}, {"type": "node", "id": 7018461275, "lat": 46.7595158, "lon": -114.0823914}, {"type": "node", "id": 7018461276, "lat": 46.7595155, "lon": -114.08221}, {"type": "node", "id": 7018461277, "lat": 46.7596173, "lon": -114.0822329}, {"type": "node", "id": 7018461278, "lat": 46.7581271, "lon": -114.0826064}, {"type": "node", "id": 7018461279, "lat": 46.7579303, "lon": -114.0826124}, {"type": "node", "id": 7018461280, "lat": 46.7579276, "lon": -114.0824354}, {"type": "node", "id": 7018461281, "lat": 46.7580203, "lon": -114.0824324}, {"type": "node", "id": 7018461282, "lat": 46.758021, "lon": -114.0824774}, {"type": "node", "id": 7018461283, "lat": 46.7581251, "lon": -114.0824744}, {"type": "node", "id": 7018461284, "lat": 46.7581067, "lon": -114.0817403}, {"type": "node", "id": 7018461315, "lat": 46.754604, "lon": -114.0814631}, {"type": "node", "id": 7018461316, "lat": 46.7542423, "lon": -114.081485}, {"type": "node", "id": 7018461317, "lat": 46.7542252, "lon": -114.0808851}, {"type": "node", "id": 7018461318, "lat": 46.754587, "lon": -114.0808632}, {"type": "node", "id": 7085053396, "lat": 46.7575006, "lon": -114.0796192}, {"type": "node", "id": 7085053397, "lat": 46.7574979, "lon": -114.0790907}, {"type": "node", "id": 7085053398, "lat": 46.756913, "lon": -114.0790826}, {"type": "node", "id": 7085053399, "lat": 46.7569157, "lon": -114.0796436}, {"type": "node", "id": 7085053430, "lat": 46.7582092, "lon": -114.0795562}, {"type": "node", "id": 7085053431, "lat": 46.7580915, "lon": -114.079564}, {"type": "node", "id": 7085053432, "lat": 46.7580878, "lon": -114.0794447}, {"type": "node", "id": 7085053433, "lat": 46.7582055, "lon": -114.0794369}, {"type": "node", "id": 7085053448, "lat": 46.758674, "lon": -114.0813886}, {"type": "node", "id": 7085053449, "lat": 46.7586765, "lon": -114.0815344}, {"type": "node", "id": 7085053450, "lat": 46.7584254, "lon": -114.0815436}, {"type": "node", "id": 7085053451, "lat": 46.7584229, "lon": -114.0813978}, {"type": "node", "id": 9225782315, "lat": 46.7572788, "lon": -114.0880803, "tags": {"amenity": "restaurant", "name": "Lolo Creek Steakhouse"}}, {"type": "node", "id": 11365707782, "lat": 46.7518413, "lon": -114.0841462, "tags": {"name": "Auto Broker Center", "shop": "car_repair"}}, {"type": "node", "id": 11365707786, "lat": 46.7520202, "lon": -114.0861654, "tags": {"name": "TAKAS Self Storage Units", "shop": "storage_rental"}}, {"type": "node", "id": 11369523524, "lat": 46.7562036, "lon": -114.0833916}, {"type": "node", "id": 11369523527, "lat": 46.7562033, "lon": -114.0830763}, {"type": "node", "id": 11369523528, "lat": 46.7563919, "lon": -114.0830769}, {"type": "node", "id": 11369523529, "lat": 46.7563954, "lon": -114.0831676}, {"type": "node", "id": 11369523530, "lat": 46.7563759, "lon": -114.0831675}, {"type": "node", "id": 11369523531, "lat": 46.7563755, "lon": -114.0833043}, {"type": "node", "id": 11369523532, "lat": 46.7563902, "lon": -114.0833044}, {"type": "node", "id": 11369523533, "lat": 46.7563899, "lon": -114.0833929}, {"type": "node", "id": 11369523535, "lat": 46.7562871, "lon": -114.0831599, "tags": {"name": "Lolo Super Stop", "shop": "convenience"}}, {"type": "node", "id": 11369524646, "lat": 46.7580154, "lon": -114.081745}, {"type": "node", "id": 11369524648, "lat": 46.7580145, "lon": -114.0817068}, {"type": "node", "id": 11369524649, "lat": 46.7581058, "lon": -114.081702}, {"type": "node", "id": 11369524652, "lat": 46.7573616, "lon": -114.0814866, "tags": {"brand": "Town Pump", "brand:wikidata": "Q7830004", "name": "Town Pump", "shop": "convenience"}}, {"type": "node", "id": 11369524688, "lat": 46.7606263, "lon": -114.0811226, "tags": {"name": "Mountain View Sales", "shop": "car"}}, {"type": "node", "id": 11374848626, "lat": 46.7565396, "lon": -114.0863057, "tags": {"name": "Crazy Horse Consignment", "second_hand": "only", "shop": "clothes"}}, {"type": "node", "id": 11374867380, "lat": 46.7562706, "lon": -114.0953178, "tags": {"name": "Hart's Motorsports", "shop": "sports"}}, {"type": "node", "id": 12849768768, "lat": 46.7595677, "lon": -114.0822331}, {"type": "node", "id": 12849768769, "lat": 46.7595677, "lon": -114.0822098}, {"type": "node", "id": 12849768770, "lat": 46.7595659, "lon": -114.0823912}, {"type": "node", "id": 12849768771, "lat": 46.759566, "lon": -114.0824374}, {"type": "way", "id": 750627691, "nodes": [7018451280, 7018451281, 7018451282, 7018451283, 7018451280], "tags": {"building": "yes", "name": "Peak Automotive Service", "shop": "car_repair"}}, {"type": "way", "id": 750627692, "nodes": [7018451284, 7018460885, 7018460886, 7018460887, 7018460888, 7018460889, 7018451284], "tags": {"brand": "Town Pump", "brand:wikidata": "Q7830004", "building": "yes", "name": "Town Pump", "shop": "convenience"}}, {"type": "way", "id": 750627703, "nodes": [7018460962, 7018460963, 7018460964, 7018460965, 7018460962], "tags": {"building": "yes", "name": "Lolo Drug", "shop": "chemist"}}, {"type": "way", "id": 750627706, "nodes": [7018460983, 7018460984, 7018460985, 7018460986, 7018460983], "tags": {"building": "yes", "shop": "storage_rental"}}, {"type": "way", "id": 750627707, "nodes": [7018460987, 7018460988, 7018460989, 7018460990, 7018460987], "tags": {"building": "yes", "shop": "storage_rental"}}, {"type": "way", "id": 750627708, "nodes": [7018460991, 7018460992, 7018460993, 7018460994, 7018460991], "tags": {"building": "yes", "shop": "storage_rental"}}, {"type": "way", "id": 750627723, "nodes": [7018461060, 7018461061, 7018461062, 7018461063, 7018461060], "tags": {"building": "yes", "name": "Sweets Barn", "shop": "confectionery"}}, {"type": "way", "id": 750627724, "nodes": [7018461064, 7018461065, 7018461066, 7018461067, 7018461064], "tags": {"beauty": "tanning", "building": "yes", "name": "Soleil Tanning & Nail Spa", "shop": "beauty"}}, {"type": "way", "id": 750627725, "nodes": [7018461068, 7018461069, 7018461070, 7018461071, 7018461072, 7018461073, 7018461068], "tags": {"building": "yes", "name": "Primecuts Barber Shop", "shop": "hairdresser"}}, {"type": "way", "id": 750627747, "nodes": [7018461258, 7018461259, 7018461260, 7018461261, 7018461262, 7018461263, 7018461264, 7018461265, 7018461258], "tags": {"building": "yes", "name": "Havoline Xpress Lube", "shop": "car_repair"}}, {"type": "way", "id": 750627750, "nodes": [7018461274, 12849768771, 12849768770, 7018461275, 7018461276, 12849768769, 12849768768, 7018461277, 7018461274], "tags": {"beauty": "nails", "building": "yes", "name": "June's Beauty Salon", "shop": "beauty"}}, {"type": "way", "id": 750627751, "nodes": [7018461278, 7018461279, 7018461280, 7018461281, 7018461282, 7018461283, 7018461278], "tags": {"building": "yes", "name": "The Nuthouse Auto Care Clinic", "shop": "car_repair"}}, {"type": "way", "id": 750627757, "nodes": [7018461315, 7018461316, 7018461317, 7018461318, 7018461315], "tags": {"addr:city": "Lolo", "addr:housenumber": "12150", "addr:postcode": "59847", "addr:state": "MT", "addr:street": "Highway 93 South", "brand": "Tractor Supply Company", "brand:wikidata": "Q15109925", "building": "yes", "name": "Tractor Supply Company", "opening_hours": "Mo-Sa 08:00-21:00; Su 09:00-19:00", "phone": "+1 406-273-4777", "ref": "2047", "shop": "country_store"}}, {"type": "way", "id": 758606856, "nodes": [7085053396, 7085053397, 7085053398, 7085053399, 7085053396], "tags": {"building": "yes", "name": "Hayloft Equipment", "shop": "car_parts"}}, {"type": "way", "id": 758606864, "nodes": [7085053430, 7085053431, 7085053432, 7085053433, 7085053430], "tags": {"building": "yes", "name": "Just Teasin'", "shop": "beauty"}}, {"type": "way", "id": 758606866, "nodes": [7085053448, 7085053449, 7085053450, 7085053451, 7085053448], "tags": {"building": "yes", "name": "D & J's Secondhand Store", "shop": "second_hand"}}, {"type": "way", "id": 1226018246, "nodes": [7018461284, 11369524646, 11369524648, 11369524649, 7018461284], "tags": {"amenity": "cafe", "building": "yes", "name": "Florence Coffee"}}, {"type": "way", "id": 1226018699, "nodes": [11369523524, 11369523527, 11369523528, 11369523529, 11369523530, 11369523531, 11369523532, 11369523533, 11369523524], "tags": {"building": "yes", "shop": "convenience", "source": "microsoft/BuildingFootprints"}}]}