{"version": 0.6, "generator": "Overpass API 0.7.62.8 e802775f", "osm3s": {"timestamp_osm_base": "2025-11-30T00:35:59Z", "copyright": "The data included in this document is from www.openstreetmap.org. The data is made available under ODbL."}, "elements": [{"type": "node", "id": 5289894520, "lat": 33.2846728, "lon": -111.6838559}, {"type": "node", "id": 5289897021, "lat": 33.2848995, "lon": -111.6839437}, {"type": "node", "id": 5289897022, "lat": 33.2850675, "lon": -111.6833293}, {"type": "node", "id": 5289897023, "lat": 33.2844828, "lon": -111.6831004}, {"type": "node", "id": 5289897024, "lat": 33.2843173, "lon": -111.6837052}, {"type": "node", "id": 5289897025, "lat": 33.284544, "lon": -111.6837948}, {"type": "node", "id": 5289897026, "lat": 33.2845507, "lon": -111.6838354}, {"type": "node", "id": 5289897027, "lat": 33.2845694, "lon": -111.6838637}, {"type": "node", "id": 5289897028, "lat": 33.2845939, "lon": -111.6838807}, {"type": "node", "id": 5289897029, "lat": 33.2846312, "lon": -111.683885}, {"type": "node", "id": 5289897030, "lat": 33.284654, "lon": -111.6838736}, {"type": "node", "id": 8762762184, "lat": 33.2817233, "lon": -111.6807452, "tags": {"leisure": "fitness_centre", "name": "Aerial Warehouse"}}, {"type": "node", "id": 8762762187, "lat": 33.2813105, "lon": -111.6804977, "tags": {"branch": "HiFi", "brand": "CrossFit", "brand:wikidata": "Q2072840", "leisure": "fitness_centre", "name": "CrossFit", "sport": "crossfit"}}, {"type": "node", "id": 10243703415, "lat": 33.2798473, "lon": -111.6858247, "tags": {"addr:city": "Queen Creek", "addr:housenumber": "7529", "addr:postcode": "85142", "addr:state": "AZ", "addr:street": "South Power Road", "leisure": "fitness_centre", "name": "Motto Yoga", "source": "esri/USA_NAD_Addresses", "sport": "yoga"}}, {"type": "way", "id": 547461440, "nodes": [5289894520, 5289897021, 5289897022, 5289897023, 5289897024, 5289897025, 5289897026, 5289897027, 5289897028, 5289897029, 5289897030, 5289894520], "tags": {"addr:city": "Queen Creek", "addr:housenumber": "7225", "addr:postcode": "85142", "addr:state": "AZ", "addr:street": "South Power Road", "brand": "LA Fitness", "brand:wikidata": "Q6457180", "building": "yes", "leisure": "fitness_centre", "name": "LA Fitness", "website": "https://www.lafitness.com"}}]}