{"version": 0.6, "generator": "Overpass API 0.7.62.8 e802775f", "osm3s": {"timestamp_osm_base": "2025-12-06T05:55:56Z", "copyright": "The data included in this document is from www.openstreetmap.org. The data is made available under ODbL."}, "elements": [{"type": "node", "id": 2349948465, "lat": 43.5480893, "lon": -116.5739742, "tags": {"amenity": "restaurant", "cuisine": "mexican", "delivery": "no", "internet_access": "no", "name": "Chapala Mexican Restaurant", "outdoor_seating": "no", "smoking": "outside", "takeaway": "yes", "wheelchair": "yes"}}, {"type": "node", "id": 2399002624, "lat": 43.5497764, "lon": -116.5706432}, {"type": "node", "id": 2399002627, "lat": 43.5456686, "lon": -116.5708269}, {"type": "node", "id": 2399002631, "lat": 43.5465547, "lon": -116.572036, "tags": {"brand": "T-Mobile", "brand:wikidata": "Q3511885", "name": "T-Mobile", "shop": "mobile_phone", "website": "https://www.t-mobile.com/stores/bd/t-mobile-nampa-id-83686-2094"}}, {"type": "node", "id": 2399755305, "lat": 43.5411143, "lon": -116.5734686, "tags": {"brand": "Les Schwab Tire Center", "brand:wikidata": "Q6529977", "name": "Les Schwab Tire Center", "shop": "tyres"}}, {"type": "node", "id": 2399755309, "lat": 43.5415195, "lon": -116.5732842, "tags": {"name": "Stor-All Self Storage", "service": "storage", "shop": "yes"}}, {"type": "node", "id": 7354064284, "lat": 43.5496502, "lon": -116.569253}, {"type": "node", "id": 7354064285, "lat": 43.5482744, "lon": -116.5692248}, {"type": "node", "id": 7354064286, "lat": 43.5479594, "lon": -116.5704123}, {"type": "node", "id": 7354170702, "lat": 43.545715, "lon": -116.5711467}, {"type": "node", "id": 7354170703, "lat": 43.5456715, "lon": -116.5718015}, {"type": "node", "id": 7354170704, "lat": 43.5451667, "lon": -116.5718071}, {"type": "node", "id": 7354170705, "lat": 43.5451643, "lon": -116.5714014}, {"type": "node", "id": 7354170706, "lat": 43.5450929, "lon": -116.5714022}, {"type": "node", "id": 7354170707, "lat": 43.5450917, "lon": -116.5711899}, {"type": "node", "id": 7354170708, "lat": 43.545137, "lon": -116.5711894}, {"type": "node", "id": 7354170709, "lat": 43.5451365, "lon": -116.5711165}, {"type": "node", "id": 7354170710, "lat": 43.545163, "lon": -116.5711162}, {"type": "node", "id": 7354170711, "lat": 43.5451613, "lon": -116.5708328}, {"type": "node", "id": 7354170712, "lat": 43.5457172, "lon": -116.5715124}, {"type": "node", "id": 7354170713, "lat": 43.5456698, "lon": -116.571513}, {"type": "node", "id": 7354170714, "lat": 43.5456705, "lon": -116.5711472}, {"type": "node", "id": 9553252094, "lat": 43.548272, "lon": -116.5695137}, {"type": "node", "id": 9553252095, "lat": 43.5479721, "lon": -116.5697599}, {"type": "node", "id": 9553252096, "lat": 43.5479782, "lon": -116.5695507}, {"type": "node", "id": 9553252097, "lat": 43.5481829, "lon": -116.5695558}, {"type": "node", "id": 9553252098, "lat": 43.5481829, "lon": -116.5695091}, {"type": "node", "id": 9553252099, "lat": 43.5481754, "lon": -116.5701065}, {"type": "node", "id": 9553252100, "lat": 43.5479604, "lon": -116.5700973}, {"type": "node", "id": 9553252101, "lat": 43.5481767, "lon": -116.5697666}, {"type": "node", "id": 9553252102, "lat": 43.5481677, "lon": -116.5704809}, {"type": "node", "id": 9553252103, "lat": 43.5481663, "lon": -116.5704216}, {"type": "node", "id": 9553252104, "lat": 43.5484779, "lon": -116.5706731}, {"type": "node", "id": 9553252105, "lat": 43.5484804, "lon": -116.5704888}, {"type": "node", "id": 9553252106, "lat": 43.5486576, "lon": -116.5706749}, {"type": "node", "id": 9553252107, "lat": 43.5485587, "lon": -116.570729}, {"type": "node", "id": 9553252108, "lat": 43.5485594, "lon": -116.5706751}, {"type": "node", "id": 9553252109, "lat": 43.5486568, "lon": -116.5707315}, {"type": "node", "id": 9553252110, "lat": 43.5494461, "lon": -116.5706586}, {"type": "node", "id": 9553252111, "lat": 43.5494453, "lon": -116.5705065}, {"type": "node", "id": 9553252112, "lat": 43.5493034, "lon": -116.57066}, {"type": "node", "id": 9553252113, "lat": 43.5491989, "lon": -116.5706884}, {"type": "node", "id": 9553252114, "lat": 43.5493018, "lon": -116.5707465}, {"type": "node", "id": 9553252115, "lat": 43.5491982, "lon": -116.5707428}, {"type": "node", "id": 10030823787, "lat": 43.5482788, "lon": -116.5702635, "tags": {"addr:city": "Nampa", "addr:country": "US", "addr:housenumber": "2101", "addr:postcode": "83686", "addr:state": "ID", "addr:street": "South Locust Street", "brand": "Walmart", "brand:wikidata": "Q483551", "name": "Walmart Garden Center", "opening_hours": "Mo 05:00-18:00;Tu-Su 05:00-24:00", "operator": "Walmart", "operator:wikidata": "Q483551", "operator:wikipedia": "en:Walmart", "phone": "+1-208-467-5047", "ref:walmart": "2781", "shop": "garden_centre", "website": "https://www.walmart.com/store/2781/nampa-id/whats-new"}}, {"type": "node", "id": 11189328286, "lat": 43.53742, "lon": -116.572352}, {"type": "node", "id": 11189328287, "lat": 43.5372317, "lon": -116.5723601}, {"type": "node", "id": 11189328288, "lat": 43.5372271, "lon": -116.5721558}, {"type": "node", "id": 11189328289, "lat": 43.5374154, "lon": -116.5721477}, {"type": "node", "id": 11199522934, "lat": 43.5465571, "lon": -116.5722508, "tags": {"addr:city": "Nampa", "addr:housenumber": "2308", "addr:postcode": "83686", "addr:state": "ID", "addr:street": "12th Avenue Road", "brand": "Sport Clips", "brand:wikidata": "Q7579310", "name": "Sport Clips", "opening_hours": "Mo-Th 09:00-20:00, Sa 09:00-18:00, Su 11:00-17:00", "phone": "+12084669475", "shop": "hairdresser", "website": "https://sportclips.com"}}, {"type": "node", "id": 11199525740, "lat": 43.5465405, "lon": -116.5709354, "tags": {"addr:city": "Nampa", "addr:housenumber": "2318", "addr:postcode": "83686", "addr:state": "ID", "addr:street": "12th Avenue Road", "name": "Big Smoke", "opening_hours": "Su-Th 06:30-23:00, Fr-Sa 06:30-24:00", "phone": "+12084667074", "shop": "tobacco", "website": "https://tbcollc.com/"}}, {"type": "node", "id": 11199525741, "lat": 43.5465392, "lon": -116.570776, "tags": {"addr:city": "Nampa", "addr:housenumber": "2330", "addr:postcode": "83686", "addr:state": "ID", "addr:street": "12th Avenue Road", "amenity": "restaurant", "brand": "Pizza Hut", "brand:wikidata": "Q191615", "cuisine": "pizza", "name": "Pizza Hut", "opening_hours": "Su-Sa 10:00-24:00", "phone": "+12084666005", "website": "https://locations.pizzahut.com/id/nampa/2330-12th-ave-rd"}}, {"type": "node", "id": 11199525746, "lat": 43.5456356, "lon": -116.5718794, "tags": {"addr:city": "Nampa", "addr:housenumber": "2406", "addr:postcode": "83686", "addr:state": "ID", "addr:street": "12th Avenue Road", "brand": "Supercuts", "brand:wikidata": "Q7643239", "name": "Supercuts", "opening_hours": "Mo-Fr 09:00-19:00; Sa 09:00-18:00, Su 10:00-17:00", "phone": "+12084679193", "shop": "hairdresser", "website": "https://www.supercuts.com/checkin/81928"}}, {"type": "node", "id": 11199525747, "lat": 43.5456376, "lon": -116.5719558, "tags": {"addr:city": "Nampa", "addr:housenumber": "2408", "addr:postcode": "83686", "addr:state": "ID", "addr:street": "12th Avenue Road", "amenity": "cafe", "cuisine": "coffee_shop", "name": "Moxie Java", "opening_hours": "Mo-Fr 06:00-19:00; Sa-Su 06:30-19:00", "outdoor_seating": "yes", "phone": "+12084665465", "website": "https://www.moxiejava.com/"}}, {"type": "node", "id": 11199525748, "lat": 43.5453713, "lon": -116.5721246, "tags": {"addr:city": "Nampa", "addr:housenumber": "2416", "addr:postcode": "83686", "addr:state": "ID", "addr:street": "12th Avenue Road", "beauty": "nails;spa", "name": "Lucky Star Nails & Spa", "opening_hours": "Mo-Sa 10:00-18:00", "phone": "+12084664270", "shop": "beauty"}}, {"type": "node", "id": 11199525757, "lat": 43.5465112, "lon": -116.5713152}, {"type": "node", "id": 11199525758, "lat": 43.5464652, "lon": -116.5713148}, {"type": "node", "id": 11199525759, "lat": 43.5464653, "lon": -116.5712899}, {"type": "node", "id": 11199525760, "lat": 43.5465113, "lon": -116.5712903}, {"type": "node", "id": 11199525993, "lat": 43.5382813, "lon": -116.5718537}, {"type": "node", "id": 11199525994, "lat": 43.5378339, "lon": -116.5712957}, {"type": "node", "id": 11199525995, "lat": 43.5379243, "lon": -116.5711523}, {"type": "node", "id": 11199525996, "lat": 43.5378881, "lon": -116.5711076}, {"type": "node", "id": 11199525997, "lat": 43.537977, "lon": -116.5709653}, {"type": "node", "id": 11199525998, "lat": 43.5380139, "lon": -116.5710099}, {"type": "node", "id": 11199525999, "lat": 43.5382022, "lon": -116.5707294}, {"type": "node", "id": 11199526000, "lat": 43.5382361, "lon": -116.570774}, {"type": "node", "id": 11199526001, "lat": 43.5383506, "lon": -116.5705995}, {"type": "node", "id": 11199526002, "lat": 43.5387657, "lon": -116.571118}, {"type": "node", "id": 11201397670, "lat": 43.5465593, "lon": -116.5723256, "tags": {"addr:city": "Nampa", "addr:housenumber": "2306", "addr:postcode": "83686", "addr:state": "ID", "addr:street": "12th Avenue Road", "amenity": "restaurant", "cuisine": "sushi", "delivery": "no", "name": "Superb Sushi Thai Fusion", "opening_hours": "Mo-Sa 11:30-14:30,16:30-20:30", "phone": "+12089266399", "website": "https://superbthaisushinampa.carrd.co/"}}, {"type": "node", "id": 12083363805, "lat": 43.5495178, "lon": -116.5705099}, {"type": "node", "id": 12083363806, "lat": 43.5495169, "lon": -116.5706397}, {"type": "node", "id": 12083363807, "lat": 43.5497843, "lon": -116.5701734}, {"type": "node", "id": 12083363808, "lat": 43.5496403, "lon": -116.5701717}, {"type": "way", "id": 786500135, "nodes": [2399002624, 12083363807, 12083363808, 7354064284, 7354064285, 9553252094, 9553252098, 9553252097, 9553252096, 9553252095, 9553252101, 9553252099, 9553252100, 7354064286, 9553252103, 9553252102, 9553252105, 9553252104, 9553252108, 9553252107, 9553252109, 9553252106, 9553252113, 9553252115, 9553252114, 9553252112, 9553252110, 9553252111, 12083363805, 12083363806, 2399002624], "tags": {"addr:city": "Nampa", "addr:country": "US", "addr:housenumber": "2101", "addr:postcode": "83686", "addr:state": "ID", "addr:street": "South Locust Street", "brand": "Walmart", "brand:wikidata": "Q483551", "building": "yes", "name": "Walmart Supercenter", "opening_hours": "Mo 05:00-18:00; Tu-Su 05:00-24:00", "operator": "Walmart", "operator:wikidata": "Q483551", "payment:app:walmart": "yes", "payment:apple_pay": "no", "payment:google_pay": "no", "payment:samsung_pay": "no", "phone": "+1 208-467-5047", "ref": "2781", "ref:walmart": "2781", "sensory_friendly:accommodation": "dimmed_light;static_screens;no_pa", "sensory_friendly:conditional": "yes @ 08:00-10:00", "shop": "supermarket", "website": "https://www.walmart.com/store/2781-nampa-id"}}, {"type": "way", "id": 786511272, "nodes": [2399002627, 7354170714, 7354170702, 7354170712, 7354170713, 7354170703, 7354170704, 7354170705, 7354170706, 7354170707, 7354170708, 7354170709, 7354170710, 7354170711, 2399002627], "tags": {"addr:city": "Nampa", "addr:housenumber": "2400", "addr:postcode": "83686", "addr:state": "ID", "addr:street": "12th Avenue Road", "brand": "Albertsons", "brand:wikidata": "Q2831861", "building": "yes", "name": "Albertsons", "opening_hours": "Mo-Fr 06:00-23:00; Sa 06:00-23:00; Su 06:00-23:00", "phone": "+1 208-465-6597", "shop": "supermarket", "website": "https://local.albertsons.com/id/nampa/2400-12th-ave-rd.html"}}, {"type": "way", "id": 1207617792, "nodes": [11189328286, 11189328287, 11189328288, 11189328289, 11189328286], "tags": {"addr:city": "Nampa", "addr:housenumber": "3294", "addr:postcode": "83686", "addr:state": "ID", "addr:street": "12th Avenue Road", "brand": "Sherwin-Williams", "brand:wikidata": "Q48881", "building": "yes", "name": "Sherwin-Williams", "opening_hours": "Mo-Fr 07:00-18:00, Sa 08:00-17:00, Su 10:00-16:00", "phone": "+12084675200", "shop": "paint", "website": "https://sherwin-williams.com"}}, {"type": "way", "id": 1208735595, "nodes": [11199525757, 11199525758, 11199525759, 11199525760, 11199525757], "tags": {"addr:city": "Nampa", "addr:housenumber": "2316", "addr:postcode": "83686", "addr:state": "ID", "addr:street": "12th Avenue Road", "brand": "Stinker", "brand:wikidata": "Q95990164", "building": "yes", "name": "Stinker", "opening_hours": "Mo-Fr 06:00-22:00; Sa 07:00-21:00", "shop": "convenience"}}, {"type": "way", "id": 1208735609, "nodes": [11199525993, 11199525994, 11199525995, 11199525996, 11199525997, 11199525998, 11199525999, 11199526000, 11199526001, 11199526002, 11199525993], "tags": {"addr:city": "Nampa", "addr:housenumber": "3200", "addr:postcode": "83686", "addr:state": "ID", "addr:street": "12th Avenue Road", "building": "yes", "name": "D&B Supply", "opening_hours": "Mo-Sa 08:00-20:00, Su 10:00-17:00", "phone": "+1-208-466-7681", "shop": "trade"}}]}