{"version": 0.6, "generator": "Overpass API 0.7.62.8 e802775f", "osm3s": {"timestamp_osm_base": "2025-12-06T04:23:30Z", "copyright": "The data included in this document is from www.openstreetmap.org. The data is made available under ODbL."}, "elements": [{"type": "node", "id": 3411070619, "lat": 46.2651116, "lon": -106.6748908}, {"type": "node", "id": 3411070645, "lat": 46.2668672, "lon": -106.6712762}, {"type": "node", "id": 3411070653, "lat": 46.2667524, "lon": -106.6711681}, {"type": "node", "id": 3411070660, "lat": 46.2651594, "lon": -106.6749328}, {"type": "node", "id": 3411070664, "lat": 46.2651268, "lon": -106.6752536}, {"type": "node", "id": 3411070672, "lat": 46.2668152, "lon": -106.6710285}, {"type": "node", "id": 3411073408, "lat": 46.264905, "lon": -106.6750588}, {"type": "node", "id": 3411073428, "lat": 46.2650321, "lon": -106.6747561}, {"type": "node", "id": 3411073474, "lat": 46.2669301, "lon": -106.6711366}, {"type": "node", "id": 3411079096, "lat": 46.2638469, "lon": -106.6762873}, {"type": "node", "id": 3411079097, "lat": 46.2634917, "lon": -106.6763882}, {"type": "node", "id": 3411079101, "lat": 46.2646713, "lon": -106.6761312}, {"type": "node", "id": 3411079103, "lat": 46.2647576, "lon": -106.6762075}, {"type": "node", "id": 3411079105, "lat": 46.2645961, "lon": -106.6763093}, {"type": "node", "id": 3411079107, "lat": 46.2636223, "lon": -106.676085}, {"type": "node", "id": 3411079108, "lat": 46.2646824, "lon": -106.6763856}, {"type": "node", "id": 3411079109, "lat": 46.2637163, "lon": -106.6765906}, {"type": "node", "id": 3411171733, "lat": 46.2661709, "lon": -106.6764071}, {"type": "node", "id": 3411171735, "lat": 46.2662476, "lon": -106.676709}, {"type": "node", "id": 3411171741, "lat": 46.2661163, "lon": -106.6763597}, {"type": "node", "id": 3411171769, "lat": 46.2660991, "lon": -106.6765798}, {"type": "node", "id": 3411171779, "lat": 46.265803, "lon": -106.6771133}, {"type": "node", "id": 3411171787, "lat": 46.2660461, "lon": -106.6765286}, {"type": "node", "id": 3411172297, "lat": 46.2659576, "lon": -106.6774066}, {"type": "node", "id": 3411172328, "lat": 46.2657672, "lon": -106.6770822}, {"type": "node", "id": 3411172329, "lat": 46.2657187, "lon": -106.6771988}, {"type": "node", "id": 3411470297, "lat": 46.2659691, "lon": -106.6783725}, {"type": "node", "id": 3411470306, "lat": 46.2659342, "lon": -106.6784577}, {"type": "node", "id": 3411470314, "lat": 46.2661924, "lon": -106.6784052}, {"type": "node", "id": 3411470322, "lat": 46.2663412, "lon": -106.6783347}, {"type": "node", "id": 3411531399, "lat": 46.2662373, "lon": -106.6796592}, {"type": "node", "id": 3411911134, "lat": 46.2597131, "lon": -106.6940868}, {"type": "node", "id": 3411911135, "lat": 46.2598635, "lon": -106.6942461}, {"type": "node", "id": 3411911136, "lat": 46.2662523, "lon": -106.6782586}, {"type": "node", "id": 3411911144, "lat": 46.2598887, "lon": -106.6941037}, {"type": "node", "id": 3411911153, "lat": 46.259834, "lon": -106.6939321}, {"type": "node", "id": 3411911160, "lat": 46.2596523, "lon": -106.6940351}, {"type": "node", "id": 3411911165, "lat": 46.2597967, "lon": -106.6940237}, {"type": "node", "id": 3411911167, "lat": 46.2597727, "lon": -106.6944694}, {"type": "node", "id": 3411911168, "lat": 46.2598392, "lon": -106.6942254}, {"type": "node", "id": 3411911169, "lat": 46.2597536, "lon": -106.6939871}, {"type": "node", "id": 3411911170, "lat": 46.2596724, "lon": -106.6945073}, {"type": "node", "id": 3411911173, "lat": 46.2598816, "lon": -106.6939725}, {"type": "node", "id": 3411911176, "lat": 46.2595148, "lon": -106.6943733}, {"type": "node", "id": 3411911179, "lat": 46.2598437, "lon": -106.6940655}, {"type": "node", "id": 3411911185, "lat": 46.2597096, "lon": -106.6944158}, {"type": "node", "id": 7009887034, "lat": 46.2643279, "lon": -106.6769639}, {"type": "node", "id": 7009887035, "lat": 46.2643372, "lon": -106.6769722}, {"type": "node", "id": 7009887036, "lat": 46.2643134, "lon": -106.6770278}, {"type": "node", "id": 7009887037, "lat": 46.2641929, "lon": -106.6769201}, {"type": "node", "id": 7009887038, "lat": 46.2642206, "lon": -106.6768554}, {"type": "node", "id": 7009887039, "lat": 46.2642709, "lon": -106.6769005}, {"type": "node", "id": 7009887040, "lat": 46.2643371, "lon": -106.6767458}, {"type": "node", "id": 7009887041, "lat": 46.2643978, "lon": -106.6768002}, {"type": "node", "id": 7015708862, "lat": 46.2650494, "lon": -106.6767207}, {"type": "node", "id": 7015708863, "lat": 46.2650228, "lon": -106.6766973}, {"type": "node", "id": 7015708864, "lat": 46.2649574, "lon": -106.6768531}, {"type": "node", "id": 7015708865, "lat": 46.2648557, "lon": -106.6767638}, {"type": "node", "id": 7015708866, "lat": 46.2649306, "lon": -106.6765855}, {"type": "node", "id": 7015708867, "lat": 46.2649149, "lon": -106.6765718}, {"type": "node", "id": 7015708868, "lat": 46.2649357, "lon": -106.6765223}, {"type": "node", "id": 7015708869, "lat": 46.2649524, "lon": -106.6765369}, {"type": "node", "id": 7015708870, "lat": 46.2650374, "lon": -106.6763343}, {"type": "node", "id": 7015708871, "lat": 46.2651647, "lon": -106.6764461}, {"type": "node", "id": 7016390623, "lat": 46.2651053, "lon": -106.6750618}, {"type": "node", "id": 7016390624, "lat": 46.2651799, "lon": -106.6751273}, {"type": "node", "id": 7016390626, "lat": 46.2651315, "lon": -106.6748434}, {"type": "node", "id": 7022617261, "lat": 46.2660417, "lon": -106.6725318}, {"type": "node", "id": 7022617262, "lat": 46.2660187, "lon": -106.6725118}, {"type": "node", "id": 7022617263, "lat": 46.2660858, "lon": -106.6723502}, {"type": "node", "id": 7022617264, "lat": 46.2661085, "lon": -106.67237}, {"type": "node", "id": 7022617265, "lat": 46.2660837, "lon": -106.6726866}, {"type": "node", "id": 7022617266, "lat": 46.2660056, "lon": -106.6726187}, {"type": "node", "id": 7022617267, "lat": 46.266137, "lon": -106.6723014}, {"type": "node", "id": 7022617268, "lat": 46.2662154, "lon": -106.6723695}, {"type": "node", "id": 7022617272, "lat": 46.2661892, "lon": -106.6724328}, {"type": "node", "id": 7024589146, "lat": 46.2688863, "lon": -106.6661433}, {"type": "node", "id": 7024589147, "lat": 46.2689236, "lon": -106.6661633}, {"type": "node", "id": 7024589148, "lat": 46.2688845, "lon": -106.6663153}, {"type": "node", "id": 7024589149, "lat": 46.2688427, "lon": -106.6662928}, {"type": "node", "id": 7024589150, "lat": 46.2688283, "lon": -106.666349}, {"type": "node", "id": 7024589151, "lat": 46.2684801, "lon": -106.6661617}, {"type": "node", "id": 7024589152, "lat": 46.2685461, "lon": -106.6659047}, {"type": "node", "id": 7024589153, "lat": 46.2687046, "lon": -106.66599}, {"type": "node", "id": 7024589154, "lat": 46.2688387, "lon": -106.6654681}, {"type": "node", "id": 7024589155, "lat": 46.2690329, "lon": -106.6655725}, {"type": "node", "id": 7041717010, "lat": 46.270033, "lon": -106.6576648}, {"type": "node", "id": 7041717011, "lat": 46.2698028, "lon": -106.6576658}, {"type": "node", "id": 7041717012, "lat": 46.2698025, "lon": -106.6575505}, {"type": "node", "id": 7041717013, "lat": 46.2697552, "lon": -106.6575507}, {"type": "node", "id": 7041717014, "lat": 46.2697546, "lon": -106.6572512}, {"type": "node", "id": 7041717015, "lat": 46.2699055, "lon": -106.6572506}, {"type": "node", "id": 7041717016, "lat": 46.2699056, "lon": -106.6573301}, {"type": "node", "id": 7041717017, "lat": 46.2699288, "lon": -106.65733}, {"type": "node", "id": 7041717018, "lat": 46.2699287, "lon": -106.6572692}, {"type": "node", "id": 7041717019, "lat": 46.2700321, "lon": -106.6572688}, {"type": "node", "id": 7100355840, "lat": 46.2656259, "lon": -106.679983}, {"type": "node", "id": 7100355843, "lat": 46.2653103, "lon": -106.679939}, {"type": "node", "id": 7100355844, "lat": 46.2656366, "lon": -106.6799922}, {"type": "node", "id": 7100355845, "lat": 46.2656044, "lon": -106.68007}, {"type": "node", "id": 7100355846, "lat": 46.2655178, "lon": -106.6799951}, {"type": "node", "id": 7100355847, "lat": 46.2655119, "lon": -106.6800093}, {"type": "node", "id": 7100355848, "lat": 46.2653802, "lon": -106.6797702}, {"type": "node", "id": 7100355849, "lat": 46.2655798, "lon": -106.6800681}, {"type": "node", "id": 7100355850, "lat": 46.265548, "lon": -106.6801448}, {"type": "node", "id": 7100355851, "lat": 46.2655376, "lon": -106.6801358}, {"type": "node", "id": 7100355856, "lat": 46.2653421, "lon": -106.6798623}, {"type": "node", "id": 7100355861, "lat": 46.2652404, "lon": -106.6801811, "tags": {"amenity": "restaurant", "cuisine": "american", "name": "Speedway Cafe"}}, {"type": "node", "id": 7108155432, "lat": 46.26597, "lon": -106.6800958}, {"type": "node", "id": 7108155433, "lat": 46.2659203, "lon": -106.6800504}, {"type": "node", "id": 7108155434, "lat": 46.2660359, "lon": -106.6797857}, {"type": "node", "id": 7108155437, "lat": 46.2660856, "lon": -106.6798311}, {"type": "node", "id": 7108155439, "lat": 46.2662921, "lon": -106.6803132}, {"type": "node", "id": 7108155440, "lat": 46.2662449, "lon": -106.6802716}, {"type": "node", "id": 7108155441, "lat": 46.2663407, "lon": -106.6800445}, {"type": "node", "id": 7108155442, "lat": 46.266512, "lon": -106.6801956}, {"type": "node", "id": 7108155443, "lat": 46.2664926, "lon": -106.6802415}, {"type": "node", "id": 7108155446, "lat": 46.2662662, "lon": -106.6803746}, {"type": "node", "id": 7108155447, "lat": 46.2664108, "lon": -106.6807327}, {"type": "node", "id": 7108155448, "lat": 46.2664816, "lon": -106.6805647}, {"type": "node", "id": 7108155449, "lat": 46.2664383, "lon": -106.6805265}, {"type": "node", "id": 7108155450, "lat": 46.2665406, "lon": -106.6802838}, {"type": "node", "id": 7108155451, "lat": 46.2665867, "lon": -106.6803245}, {"type": "node", "id": 7108155452, "lat": 46.2666027, "lon": -106.6802865}, {"type": "node", "id": 7108155453, "lat": 46.2668658, "lon": -106.6806466}, {"type": "node", "id": 7108155454, "lat": 46.266805, "lon": -106.680593}, {"type": "node", "id": 7108155455, "lat": 46.2666552, "lon": -106.6809483}, {"type": "node", "id": 7108155456, "lat": 46.2665124, "lon": -106.6808223}, {"type": "node", "id": 7108155457, "lat": 46.2667016, "lon": -106.6803737}, {"type": "node", "id": 7108155458, "lat": 46.2669052, "lon": -106.6805533}, {"type": "node", "id": 7108456976, "lat": 46.2657438, "lon": -106.6781822}, {"type": "node", "id": 7108456977, "lat": 46.2657131, "lon": -106.6781543}, {"type": "node", "id": 7108456978, "lat": 46.2655942, "lon": -106.6784284}, {"type": "node", "id": 7108456979, "lat": 46.2654491, "lon": -106.6782966}, {"type": "node", "id": 7108456980, "lat": 46.2656265, "lon": -106.6778877}, {"type": "node", "id": 7108456981, "lat": 46.2658024, "lon": -106.6780473}, {"type": "node", "id": 7109841274, "lat": 46.2662972, "lon": -106.6793267}, {"type": "node", "id": 7109841275, "lat": 46.2663565, "lon": -106.6793798}, {"type": "node", "id": 7109841277, "lat": 46.266267, "lon": -106.6793973}, {"type": "node", "id": 7109841278, "lat": 46.2661779, "lon": -106.6796062}, {"type": "node", "id": 7109870197, "lat": 46.2658032, "lon": -106.6788722, "tags": {"brand": "State Farm", "level": "1", "name": "Shan Kuntz Insurance Agency", "office": "insurance", "website": "https://shankuntz.com/"}}, {"type": "node", "id": 7109870198, "lat": 46.2659079, "lon": -106.6786134, "tags": {"level": "1", "name": "Sazzy Scizzors", "shop": "beauty", "website": "https://www.facebook.com/Sazzyscizzors/"}}, {"type": "node", "id": 7109870207, "lat": 46.2662332, "lon": -106.6785986}, {"type": "node", "id": 7109870208, "lat": 46.2661983, "lon": -106.6786838}, {"type": "node", "id": 7109870209, "lat": 46.2662812, "lon": -106.6784812}, {"type": "node", "id": 7111030672, "lat": 46.2666433, "lon": -106.6789002}, {"type": "node", "id": 7111030673, "lat": 46.2665842, "lon": -106.6788478}, {"type": "node", "id": 7111030674, "lat": 46.2666639, "lon": -106.6786597}, {"type": "node", "id": 7111030675, "lat": 46.266723, "lon": -106.6787121}, {"type": "node", "id": 7112353909, "lat": 46.2673476, "lon": -106.6759544}, {"type": "node", "id": 7112353910, "lat": 46.2671375, "lon": -106.6756504}, {"type": "node", "id": 7112353911, "lat": 46.2673833, "lon": -106.6758715}, {"type": "node", "id": 7112353913, "lat": 46.2671018, "lon": -106.6757333}, {"type": "node", "id": 7112353914, "lat": 46.2671898, "lon": -106.6758125}, {"type": "node", "id": 7112353951, "lat": 46.2671079, "lon": -106.6751491}, {"type": "node", "id": 7112353952, "lat": 46.2669712, "lon": -106.6750322}, {"type": "node", "id": 7112353953, "lat": 46.2671694, "lon": -106.6745473}, {"type": "node", "id": 7112353954, "lat": 46.2673062, "lon": -106.6746643}, {"type": "node", "id": 7124840799, "lat": 46.2688837, "lon": -106.6723267}, {"type": "node", "id": 7124840800, "lat": 46.2688444, "lon": -106.6722905}, {"type": "node", "id": 7124840801, "lat": 46.2688349, "lon": -106.6723122}, {"type": "node", "id": 7124840802, "lat": 46.2686817, "lon": -106.6721713}, {"type": "node", "id": 7124840803, "lat": 46.2687548, "lon": -106.6720052}, {"type": "node", "id": 7124840804, "lat": 46.2689472, "lon": -106.6721823}, {"type": "node", "id": 8007264286, "lat": 46.2660048, "lon": -106.6794182, "tags": {"amenity": "cafe", "name": "Joseph Cafe"}}, {"type": "node", "id": 9840679916, "lat": 46.2688066, "lon": -106.672142, "tags": {"addr:city": "Forsyth", "addr:housenumber": "1487", "addr:postcode": "59327", "addr:state": "MT", "addr:street": "Main Street", "addr:unit": "1050", "fax": "+1-406-346-7710", "name": "Art's Tires & Service", "payment:american_express": "yes", "payment:cash": "yes", "payment:discover_card": "yes", "payment:mastercard": "yes", "payment:visa": "yes", "phone": "+1-406-346-7718", "shop": "tyres", "website": "https://artstiresandservice.com"}}, {"type": "node", "id": 12625972235, "lat": 46.2674517, "lon": -106.6695913, "tags": {"brand": "Family Dollar", "brand:wikidata": "Q5433101", "name": "Family Dollar", "shop": "variety_store"}}, {"type": "node", "id": 12625972236, "lat": 46.2680316, "lon": -106.6690569, "tags": {"brand": "NAPA Auto Parts", "brand:wikidata": "Q6970842", "name": "NAPA Auto Parts", "shop": "car_parts"}}, {"type": "node", "id": 12625972237, "lat": 46.2681759, "lon": -106.667213, "tags": {"shop": "storage_rental"}}, {"type": "way", "id": 334026373, "nodes": [3411073474, 3411070672, 3411070653, 3411070645, 3411073474], "tags": {"addr:city": "Forsyth", "addr:housenumber": "1425", "addr:postcode": "59327", "addr:state": "MT", "addr:street": "Front Street", "amenity": "restaurant", "building": "yes", "cuisine": "pizza", "name": "Twisted Toppings", "takeaway": "yes", "website": "https://www.facebook.com/TTPizzaCafe/"}}, {"type": "way", "id": 334026380, "nodes": [3411070660, 3411070619, 7016390626, 3411073428, 3411073408, 3411070664, 7016390624, 7016390623, 3411070660], "tags": {"addr:city": "Forsyth", "addr:housenumber": "1109", "addr:postcode": "59327", "addr:state": "MT", "addr:street": "Front Street", "building": "yes", "name": "C & K Meats", "shop": "butcher", "website": "http://ckmeatsmontana.com/"}}, {"type": "way", "id": 334027138, "nodes": [3411079103, 3411079101, 3411079105, 3411079108, 3411079103], "tags": {"addr:city": "Forsyth", "addr:housenumber": "1017", "addr:postcode": "59327", "addr:state": "MT", "addr:street": "Front Street", "building": "yes", "name": "Forsyth Watering Hole", "shop": "convenience", "website": "https://www.facebook.com/forsythwateringhole/"}}, {"type": "way", "id": 334027140, "nodes": [3411079096, 3411079107, 3411079097, 3411079109, 3411079096], "tags": {"addr:city": "Forsyth", "addr:housenumber": "974", "addr:postcode": "59327", "addr:state": "MT", "addr:street": "Front Street", "building": "yes", "name": "Town Pump", "shop": "convenience"}}, {"type": "way", "id": 334037247, "nodes": [3411171735, 3411171769, 3411171733, 3411171741, 3411171787, 3411171779, 3411172328, 3411172329, 3411172297, 3411171735], "tags": {"addr:city": "Forsyth", "addr:housenumber": "1026", "addr:postcode": "59327", "addr:state": "MT", "addr:street": "Main Street", "brand:wikidata": "Q3146662", "building": "yes", "name": "Picchioni's IGA", "phone": "+1 406-482-3737", "shop": "supermarket"}}, {"type": "way", "id": 334100653, "nodes": [3411911144, 3411911179, 3411911173, 3411911153, 3411911165, 3411911169, 3411911134, 3411911160, 3411911176, 3411911170, 3411911185, 3411911167, 3411911135, 3411911168, 3411911144], "tags": {"addr:city": "Forsyth", "addr:housenumber": "245", "addr:postcode": "59327", "addr:state": "MT", "addr:street": "Westwind Lane", "building": "yes", "name": "Stevenson & Sons Funeral Homes", "opening_hours": "Mo-Fr 08:00-17:00", "shop": "funeral_directors", "website": "https://stevensonandsons.com/forsyth/"}}, {"type": "way", "id": 749620618, "nodes": [7009887041, 7009887040, 7009887039, 7009887038, 7009887037, 7009887036, 7009887035, 7009887034, 7009887041], "tags": {"addr:city": "Forsyth", "addr:housenumber": "983", "addr:postcode": "59327", "addr:state": "MT", "addr:street": "Front Street", "amenity": "restaurant", "building": "yes", "cuisine": "american", "name": "Top That Eatery", "website": "https://www.facebook.com/Top-That-Eatery-336296396957930/"}}, {"type": "way", "id": 750303758, "nodes": [7015708871, 7015708870, 7015708869, 7015708868, 7015708867, 7015708866, 7015708865, 7015708864, 7015708863, 7015708862, 7015708871], "tags": {"addr:city": "Forsyth", "addr:housenumber": "109", "addr:postcode": "59327", "addr:state": "MT", "addr:street": "South 10th Avenue", "amenity": "restaurant", "building": "yes", "cuisine": "american", "name": "Fitzgerald\u2019s", "website": "https://fitzgeraldsforsyth.bestcafes.online/"}}, {"type": "way", "id": 751167431, "nodes": [7022617268, 7022617267, 7022617264, 7022617263, 7022617262, 7022617261, 7022617266, 7022617265, 7022617272, 7022617268], "tags": {"addr:city": "Forsyth", "addr:housenumber": "1315", "addr:postcode": "59327", "addr:state": "MT", "addr:street": "Front Street", "building": "yes", "name": "Diamond H Salon", "shop": "hairdresser", "website": "https://www.facebook.com/Diamond-H-Salon-275924035771626/"}}, {"type": "way", "id": 751425312, "nodes": [7024589155, 7024589154, 7024589153, 7024589152, 7024589151, 7024589150, 7024589149, 7024589148, 7024589147, 7024589146, 7024589155], "tags": {"addr:city": "Forsyth", "addr:housenumber": "1825", "addr:postcode": "59327", "addr:state": "MT", "addr:street": "Front Street", "brand": "Ford", "brand:wikidata": "Q44294", "building": "yes", "name": "Heberle Ford", "shop": "car", "website": "https://www.heberleford.com/"}}, {"type": "way", "id": 753680049, "nodes": [7041717019, 7041717018, 7041717017, 7041717016, 7041717015, 7041717014, 7041717013, 7041717012, 7041717011, 7041717010, 7041717019], "tags": {"building": "yes", "office": "telecommunication", "operator": "Range Telephone Cooperative"}}, {"type": "way", "id": 760086143, "nodes": [7100355851, 7100355850, 7100355849, 7100355847, 7100355856, 7100355843, 7100355851], "tags": {"addr:city": "Forsyth", "addr:housenumber": "845", "addr:postcode": "59327", "addr:state": "MT", "addr:street": "Main Street", "amenity": "bar", "building": "yes", "name": "Buffs Bar"}}, {"type": "way", "id": 760086144, "nodes": [7100355848, 7100355856, 7100355847, 7100355846, 7100355845, 7100355844, 7100355840, 7100355848], "tags": {"addr:city": "Forsyth", "addr:housenumber": "849", "addr:postcode": "59327", "addr:state": "MT", "addr:street": "Main Street", "amenity": "restaurant", "building": "yes", "cuisine": "chinese", "name": "Hong Kong"}}, {"type": "way", "id": 760847016, "nodes": [7108155437, 7108155434, 7108155433, 7108155432, 7108155437], "tags": {"addr:city": "Forsyth", "addr:housenumber": "182", "addr:postcode": "59327", "addr:state": "MT", "addr:street": "North 9th Avenue", "building": "yes", "name": "Century 21 Hometown Brokers", "office": "estate_agent"}}, {"type": "way", "id": 760847018, "nodes": [7108155450, 7108155443, 7108155442, 7108155441, 7108155440, 7108155439, 7108155446, 7108155449, 7108155450], "tags": {"addr:city": "Forsyth", "addr:housenumber": "200", "addr:postcode": "59327", "addr:state": "MT", "addr:street": "North 9th Avenue", "building": "yes", "name": "Forsyth Hardware & Home Center", "shop": "hardware", "website": "https://www.forsythhardware.com/"}}, {"type": "way", "id": 760847020, "nodes": [7108155457, 7108155452, 7108155451, 7108155450, 7108155449, 7108155448, 7108155447, 7108155456, 7108155457], "tags": {"building": "yes", "name": "Forsyth Hardware & Home Center", "shop": "garden_centre"}}, {"type": "way", "id": 760847021, "nodes": [7108155458, 7108155457, 7108155456, 7108155455, 7108155454, 7108155453, 7108155458], "tags": {"addr:city": "Forsyth", "addr:housenumber": "280", "addr:postcode": "59327", "addr:state": "MT", "addr:street": "North 9th Avenue", "building": "yes", "name": "Forsyth Hardware & Home Center", "shop": "doors"}}, {"type": "way", "id": 760884598, "nodes": [7108456981, 7108456980, 7108456979, 7108456978, 7108456977, 7108456976, 7108456981], "tags": {"addr:city": "Forsyth", "addr:housenumber": "980", "addr:postcode": "59327", "addr:state": "MT", "addr:street": "Main Street", "building": "yes", "name": "Carquest Auto Parts", "shop": "car_parts", "website": "https://www.carquest.com/stores/mt/forsyth/5982"}}, {"type": "way", "id": 760990781, "nodes": [7109841278, 3411531399, 7109841275, 7109841274, 7109841277, 7109841278], "tags": {"addr:city": "Forsyth", "addr:housenumber": "183", "addr:postcode": "59327", "addr:state": "MT", "addr:street": "North 9th Avenue", "building": "yes", "name": "Style Alley", "shop": "boutique", "website": "https://www.facebook.com/Style-Alley-903530646409176/"}}, {"type": "way", "id": 760990786, "nodes": [7109870207, 3411470297, 3411470306, 7109870208, 7109870207], "tags": {"addr:city": "Forsyth", "addr:housenumber": "971", "addr:postcode": "59327", "addr:state": "MT", "addr:street": "Main Street", "amenity": "bar", "building": "yes", "name": "Lariat Bar", "website": "https://www.facebook.com/Lariat-Bar-236377426377431/"}}, {"type": "way", "id": 760990787, "nodes": [7109870209, 3411470322, 3411911136, 3411470314, 7109870209], "tags": {"addr:city": "Forsyth", "addr:housenumber": "130", "addr:postcode": "59327", "addr:state": "MT", "addr:street": "North 10th Avenue", "building": "yes", "name": "Forsyth Coin Opt Laundry", "shop": "laundry"}}, {"type": "way", "id": 761116286, "nodes": [7111030675, 7111030674, 7111030673, 7111030672, 7111030675], "tags": {"addr:city": "Forsyth", "addr:housenumber": "192", "addr:postcode": "59327", "addr:state": "MT", "addr:street": "North 10th Avenue", "building": "yes", "name": "Independent Press", "office": "newspaper"}}, {"type": "way", "id": 761258136, "nodes": [7112353911, 7112353910, 7112353913, 7112353914, 7112353909, 7112353911], "tags": {"addr:city": "Forsyth", "addr:housenumber": "1195", "addr:postcode": "59327", "addr:state": "MT", "addr:street": "Main Street", "building": "yes", "name": "Clark Hardware", "shop": "hardware"}}, {"type": "way", "id": 761258145, "nodes": [7112353954, 7112353953, 7112353952, 7112353951, 7112353954], "tags": {"addr:city": "Forsyth", "addr:housenumber": "1210", "addr:postcode": "59327", "addr:state": "MT", "addr:street": "Main Street", "building": "yes", "name": "Forsyth Feed & Ag Supply", "shop": "agrarian"}}, {"type": "way", "id": 762525582, "nodes": [7124840804, 7124840803, 7124840802, 7124840801, 7124840800, 7124840799, 7124840804], "tags": {"addr:city": "Forsyth", "addr:housenumber": "1487", "addr:postcode": "59327", "addr:state": "MT", "addr:street": "Main Street", "building": "yes", "name": "Art's Tires & Service", "shop": "tyres", "website": "https://www.artstiresandservice.com/"}}]}