{"version": 0.6, "generator": "Overpass API 0.7.62.8 e802775f", "osm3s": {"timestamp_osm_base": "2025-12-06T05:21:45Z", "copyright": "The data included in this document is from www.openstreetmap.org. The data is made available under ODbL."}, "elements": [{"type": "node", "id": 6459249954, "lat": 43.5970199, "lon": -116.4282525}, {"type": "node", "id": 6459249955, "lat": 43.5965382, "lon": -116.428255}, {"type": "node", "id": 6459249956, "lat": 43.5965378, "lon": -116.4281257}, {"type": "node", "id": 6459249957, "lat": 43.5964418, "lon": -116.4279869}, {"type": "node", "id": 6459249958, "lat": 43.5964411, "lon": -116.4277302}, {"type": "node", "id": 6459249959, "lat": 43.5963905, "lon": -116.4277305}, {"type": "node", "id": 6459249960, "lat": 43.596389, "lon": -116.427196}, {"type": "node", "id": 6459249961, "lat": 43.5966767, "lon": -116.4271944}, {"type": "node", "id": 6459249962, "lat": 43.5966785, "lon": -116.4278591}, {"type": "node", "id": 6459249963, "lat": 43.5970188, "lon": -116.4278573}, {"type": "node", "id": 8331477341, "lat": 43.5971042, "lon": -116.428871}, {"type": "node", "id": 8672347075, "lat": 43.5946014, "lon": -116.4295595, "tags": {"addr:city": "Meridian", "addr:housenumber": "2929", "addr:postcode": "83642", "addr:state": "ID", "addr:street": "West Navigator Drive", "addr:unit": "310", "name": "Terrace Home Health", "office": "company", "website": "https://www.terracehomehealth.com/facilities-search/terrace-home-health-boise/"}}, {"type": "node", "id": 8672347080, "lat": 43.5946935, "lon": -116.429739, "tags": {"addr:city": "Meridian", "addr:housenumber": "2929", "addr:postcode": "83642", "addr:state": "ID", "addr:street": "West Navigator Drive", "addr:unit": "400", "name": "Brighton Corporation", "office": "company", "website": "https://www.brightoncorp.com/"}}, {"type": "node", "id": 8672347081, "lat": 43.5946196, "lon": -116.4298605, "tags": {"addr:city": "Meridian", "addr:housenumber": "2929", "addr:postcode": "83642", "addr:state": "ID", "addr:street": "West Navigator Drive", "addr:unit": "130", "name": "Larsen Law", "office": "lawyer", "website": "https://larsenlaw.com/"}}, {"type": "node", "id": 8672347083, "lat": 43.5945963, "lon": -116.4294969, "tags": {"addr:city": "Meridian", "addr:housenumber": "2929", "addr:postcode": "83642", "addr:state": "ID", "addr:street": "West Navigator Drive", "addr:unit": "110", "name": "Mane Styling Studio", "shop": "hairdresser", "website": "https://www.manestylingstudio.com/"}}, {"type": "node", "id": 8672347084, "lat": 43.5947396, "lon": -116.4295668, "tags": {"addr:city": "Meridian", "addr:housenumber": "2929", "addr:postcode": "83642", "addr:state": "ID", "addr:street": "West Navigator Drive", "addr:unit": "100", "name": "TitleOne", "office": "company", "website": "https://www.titleonecorp.com/company/ContactLocations.aspx?location=Ten%20Mile"}}, {"type": "node", "id": 8672347158, "lat": 43.5944871, "lon": -116.426423, "tags": {"addr:city": "Meridian", "addr:housenumber": "2775", "addr:postcode": "83642", "addr:state": "ID", "addr:street": "West Navigator Drive", "addr:unit": "220", "name": "Ball Ventures Ahlquist", "office": "company", "website": "https://www.bvadev.com/"}}, {"type": "node", "id": 8672347164, "lat": 43.5947097, "lon": -116.427266, "tags": {"addr:city": "Meridian", "addr:housenumber": "2775", "addr:postcode": "83642", "addr:state": "ID", "addr:street": "West Navigator Drive", "addr:unit": "110", "name": "Capital Auto Loan", "office": "company", "website": "https://www.capautoloan.com/"}}, {"type": "node", "id": 8672347165, "lat": 43.5944172, "lon": -116.426331, "tags": {"addr:city": "Meridian", "addr:housenumber": "2775", "addr:postcode": "83642", "addr:state": "ID", "addr:street": "West Navigator Drive", "addr:unit": "100", "consulting": "technology", "name": "Zennify", "office": "consulting", "website": "https://zennify.com/"}}, {"type": "node", "id": 8672347193, "lat": 43.5964992, "lon": -116.426657, "tags": {"addr:city": "Meridian", "addr:housenumber": "2760", "addr:postcode": "83642", "addr:state": "ID", "addr:street": "West Excursion Lane", "addr:unit": "420", "name": "Crush the Curve Idaho", "office": "association", "website": "https://crushthecurveidaho.com/"}}, {"type": "node", "id": 8672347194, "lat": 43.5963966, "lon": -116.426657, "tags": {"addr:city": "Meridian", "addr:housenumber": "2760", "addr:postcode": "83642", "addr:state": "ID", "addr:street": "West Excursion Lane", "addr:unit": "105", "name": "Create Common Good", "office": "association", "website": "https://www.createcommongood.org/"}}, {"type": "node", "id": 9504434241, "lat": 43.5964408, "lon": -116.4288756}, {"type": "node", "id": 9504434242, "lat": 43.5964399, "lon": -116.4286315}, {"type": "node", "id": 9504434243, "lat": 43.5971033, "lon": -116.4286271}, {"type": "node", "id": 9509292847, "lat": 43.5946561, "lon": -116.4269721, "tags": {"addr:city": "Meridian", "addr:housenumber": "2775", "addr:postcode": "83642", "addr:state": "ID", "addr:street": "West Navigator Drive", "addr:unit": "500", "name": "Paylocity", "office": "company"}}, {"type": "node", "id": 9509292849, "lat": 43.5945973, "lon": -116.4267217, "tags": {"addr:city": "Meridian", "addr:housenumber": "2775", "addr:postcode": "83642", "addr:state": "ID", "addr:street": "West Navigator Drive", "addr:unit": "210", "name": "Horrocks Engineers", "office": "company", "website": "https://www.horrocksengineers.com/"}}, {"type": "node", "id": 9509292850, "lat": 43.5946061, "lon": -116.4273242, "tags": {"addr:city": "Meridian", "addr:housenumber": "2775", "addr:postcode": "83642", "addr:state": "ID", "addr:street": "West Navigator Drive", "addr:unit": "115", "brand": "U.S. Bank", "brand:wikidata": "Q739084", "name": "U.S. Bank", "office": "company"}}, {"type": "node", "id": 9765387216, "lat": 43.5977656, "lon": -116.4319018, "tags": {"addr:city": "Meridian", "addr:housenumber": "755", "addr:postcode": "83642", "addr:state": "ID", "addr:street": "South Vanguard Way", "addr:unit": "110", "beauty": "waxing", "name": "Radiant Waxing", "opening_hours": "Mo-Fr 08:00-20:00; Sa 08:00-18:00; Su 10:00-17:00", "phone": "+1-208-214-9996", "shop": "beauty", "website": "https://www.radiantwaxing.com/id-meridian"}}, {"type": "node", "id": 9765443620, "lat": 43.59922, "lon": -116.42699}, {"type": "node", "id": 11223069463, "lat": 43.5964611, "lon": -116.4288564, "tags": {"amenity": "cafe", "check_date": "2023-09-27", "cuisine": "coffee_shop", "name": "Wild Things Coffee Company", "payment:credit_cards": "yes", "payment:debit_cards": "yes", "wheelchair": "yes"}}, {"type": "node", "id": 11229692579, "lat": 43.5958027, "lon": -116.4258174}, {"type": "node", "id": 11229692580, "lat": 43.5954946, "lon": -116.425819}, {"type": "node", "id": 11229692581, "lat": 43.5954923, "lon": -116.424973}, {"type": "node", "id": 11229692582, "lat": 43.5958004, "lon": -116.4249714}, {"type": "node", "id": 11229692583, "lat": 43.5958017, "lon": -116.4254639}, {"type": "node", "id": 11229692584, "lat": 43.5958015, "lon": -116.4253651}, {"type": "node", "id": 11229692585, "lat": 43.5954933, "lon": -116.4253297}, {"type": "node", "id": 11229692586, "lat": 43.595493, "lon": -116.4252308}, {"type": "node", "id": 11229692587, "lat": 43.5954715, "lon": -116.4253299}, {"type": "node", "id": 11229692588, "lat": 43.5954712, "lon": -116.4252309}, {"type": "node", "id": 11229692589, "lat": 43.5958232, "lon": -116.4254638}, {"type": "node", "id": 11229692590, "lat": 43.5958229, "lon": -116.425365}, {"type": "node", "id": 11506385182, "lat": 43.5989778, "lon": -116.4269907}, {"type": "node", "id": 11506385183, "lat": 43.5989779, "lon": -116.4270979}, {"type": "node", "id": 11506385184, "lat": 43.5985826, "lon": -116.4270987}, {"type": "node", "id": 11506385185, "lat": 43.5985827, "lon": -116.4271444}, {"type": "node", "id": 11506385186, "lat": 43.5984297, "lon": -116.4271446}, {"type": "node", "id": 11506385187, "lat": 43.5984298, "lon": -116.4272357}, {"type": "node", "id": 11506385188, "lat": 43.5982324, "lon": -116.4272359}, {"type": "node", "id": 11506385189, "lat": 43.5982324, "lon": -116.4271612}, {"type": "node", "id": 11506385190, "lat": 43.5980745, "lon": -116.4271613}, {"type": "node", "id": 11506385191, "lat": 43.5980745, "lon": -116.4271189}, {"type": "node", "id": 11506385192, "lat": 43.5978367, "lon": -116.4271191}, {"type": "node", "id": 11506385193, "lat": 43.5978366, "lon": -116.4267548}, {"type": "node", "id": 11506385194, "lat": 43.5978155, "lon": -116.4267473}, {"type": "node", "id": 11506385195, "lat": 43.5978149, "lon": -116.4264187}, {"type": "node", "id": 11506385196, "lat": 43.5978363, "lon": -116.4264186}, {"type": "node", "id": 11506385197, "lat": 43.5978357, "lon": -116.4260209}, {"type": "node", "id": 11506385198, "lat": 43.5982222, "lon": -116.4260197}, {"type": "node", "id": 11506385199, "lat": 43.598222, "lon": -116.4259357}, {"type": "node", "id": 11506385200, "lat": 43.5984196, "lon": -116.4259352}, {"type": "node", "id": 11506385201, "lat": 43.5984198, "lon": -116.4260239}, {"type": "node", "id": 11506385202, "lat": 43.5988148, "lon": -116.426023}, {"type": "node", "id": 11506385203, "lat": 43.598815, "lon": -116.4261834}, {"type": "node", "id": 11506385204, "lat": 43.5992191, "lon": -116.4261825}, {"type": "way", "id": 688702429, "nodes": [6459249954, 6459249955, 6459249956, 6459249957, 6459249958, 6459249959, 6459249960, 6459249961, 6459249962, 6459249963, 6459249954], "tags": {"addr:city": "Meridian", "addr:housenumber": "2888", "addr:postcode": "83642", "addr:state": "ID", "addr:street": "West Excursion Lane", "building": "office", "building:levels": "2", "name": "AmeriBen", "office": "company", "website": "https://ameriben.com/"}}, {"type": "way", "id": 1031120432, "nodes": [8331477341, 9504434241, 9504434242, 9504434243, 8331477341], "tags": {"addr:city": "Meridian", "addr:housenumber": "2900", "addr:postcode": "83642", "addr:state": "ID", "addr:street": "West Excursion Lane", "building": "yes", "building:levels": "1", "name": "Crave Delivery", "office": "company"}}, {"type": "way", "id": 1212104430, "nodes": [11229692579, 11229692580, 11229692585, 11229692587, 11229692588, 11229692586, 11229692581, 11229692582, 11229692584, 11229692590, 11229692589, 11229692583, 11229692579], "tags": {"building": "commercial", "office": "yes"}}, {"type": "way", "id": 1238655647, "nodes": [9765443620, 11506385182, 11506385183, 11506385184, 11506385185, 11506385186, 11506385187, 11506385188, 11506385189, 11506385190, 11506385191, 11506385192, 11506385193, 11506385194, 11506385195, 11506385196, 11506385197, 11506385198, 11506385199, 11506385200, 11506385201, 11506385202, 11506385203, 11506385204, 9765443620], "tags": {"addr:city": "Meridian", "addr:housenumber": "700", "addr:postcode": "83642", "addr:state": "ID", "addr:street": "South Wayfinder Avenue", "brand:wikidata": "Q7431070", "building": "yes", "name": "Scheels", "shop": "sports", "website": "https://www.scheels.com/store?StoreID=030"}}]}