{"version": 0.6, "generator": "Overpass API 0.7.62.8 e802775f", "osm3s": {"timestamp_osm_base": "2025-12-06T05:50:55Z", "copyright": "The data included in this document is from www.openstreetmap.org. The data is made available under ODbL."}, "elements": [{"type": "node", "id": 889512673, "lat": 48.282123, "lon": -116.5568065}, {"type": "node", "id": 889512675, "lat": 48.2820796, "lon": -116.5555761}, {"type": "node", "id": 889512676, "lat": 48.2818627, "lon": -116.5555785}, {"type": "node", "id": 889512677, "lat": 48.2815924, "lon": -116.555939}, {"type": "node", "id": 889512680, "lat": 48.2815624, "lon": -116.5559394}, {"type": "node", "id": 889512689, "lat": 48.2815649, "lon": -116.556464}, {"type": "node", "id": 889512691, "lat": 48.2815947, "lon": -116.5564636}, {"type": "node", "id": 889512694, "lat": 48.2815964, "lon": -116.5568124}, {"type": "node", "id": 1448534937, "lat": 48.2793211, "lon": -116.5521498}, {"type": "node", "id": 1448534938, "lat": 48.2793189, "lon": -116.5526432}, {"type": "node", "id": 1448534940, "lat": 48.2800737, "lon": -116.5520778}, {"type": "node", "id": 1448534941, "lat": 48.2801145, "lon": -116.5521997}, {"type": "node", "id": 1448534942, "lat": 48.2800732, "lon": -116.5521993}, {"type": "node", "id": 1448534943, "lat": 48.2800664, "lon": -116.5524324}, {"type": "node", "id": 1448534944, "lat": 48.2800655, "lon": -116.5526392}, {"type": "node", "id": 1448534945, "lat": 48.2801134, "lon": -116.5524329}, {"type": "node", "id": 1448534947, "lat": 48.2792584, "lon": -116.5521492}, {"type": "node", "id": 1448534948, "lat": 48.2792588, "lon": -116.5520693}, {"type": "node", "id": 1522186356, "lat": 48.2821222, "lon": -116.556639}, {"type": "node", "id": 1522186390, "lat": 48.2821618, "lon": -116.5566385}, {"type": "node", "id": 1522186424, "lat": 48.281591, "lon": -116.5556455}, {"type": "node", "id": 1522186623, "lat": 48.2821607, "lon": -116.5564324}, {"type": "node", "id": 1522187062, "lat": 48.281863, "lon": -116.5556425}, {"type": "node", "id": 1522187118, "lat": 48.2820838, "lon": -116.5564332}, {"type": "node", "id": 1692730458, "lat": 48.2734497, "lon": -116.5474599, "tags": {"addr:city": "Sandpoint", "addr:housenumber": "108", "addr:state": "ID", "addr:street": "North 1st Avenue", "amenity": "cafe", "brand": "Starbucks", "brand:wikidata": "Q37158", "cuisine": "coffee_shop", "drive_through": "no", "internet_access": "wlan", "name": "Starbucks", "official_name": "Starbucks Coffee", "outdoor_seating": "yes", "ref": "3234", "takeaway": "yes"}}, {"type": "node", "id": 1811908418, "lat": 48.2765133, "lon": -116.5529187}, {"type": "node", "id": 1811908420, "lat": 48.2766239, "lon": -116.5527014}, {"type": "node", "id": 1811908426, "lat": 48.2764704, "lon": -116.5528731}, {"type": "node", "id": 1811908427, "lat": 48.280992, "lon": -116.5525229}, {"type": "node", "id": 1811908429, "lat": 48.2808772, "lon": -116.552522}, {"type": "node", "id": 1811908432, "lat": 48.280992, "lon": -116.5525525}, {"type": "node", "id": 1811908437, "lat": 48.2808771, "lon": -116.5525487}, {"type": "node", "id": 1811908440, "lat": 48.2810172, "lon": -116.5526052}, {"type": "node", "id": 1811908442, "lat": 48.276622, "lon": -116.5529209}, {"type": "node", "id": 1811908449, "lat": 48.2810174, "lon": -116.5527237}, {"type": "node", "id": 1811908453, "lat": 48.2808088, "lon": -116.5525482}, {"type": "node", "id": 1811908457, "lat": 48.2764719, "lon": -116.5526984}, {"type": "node", "id": 1811908470, "lat": 48.2808083, "lon": -116.5527215}, {"type": "node", "id": 1811908478, "lat": 48.281018, "lon": -116.5525534}, {"type": "node", "id": 3326318650, "lat": 48.2811272, "lon": -116.5534823, "tags": {"amenity": "restaurant", "name": "Mitzy's Lounge", "operator": "Quality Inn", "phone": "+1-208-263-5423"}}, {"type": "node", "id": 3396859593, "lat": 48.273288, "lon": -116.547249, "tags": {"addr:city": "Sandpoint", "addr:housenumber": "102", "addr:postcode": "83864", "addr:state": "ID", "addr:street": "North 1st Avenue", "amenity": "restaurant", "name": "Spuds Waterfront Grill", "opening_hours": "Tu-Sa 10:00-15:00", "phone": "+1-208-265-4311", "website": "https://www.spudsonline.com/"}}, {"type": "node", "id": 3396861193, "lat": 48.272987, "lon": -116.548302, "tags": {"amenity": "restaurant", "cuisine": "italian", "name": "Ivano's Ristorante"}}, {"type": "node", "id": 3403159046, "lat": 48.2701229, "lon": -116.5454661, "tags": {"shop": "convenience"}}, {"type": "node", "id": 4601431271, "lat": 48.2735363, "lon": -116.5474598, "tags": {"addr:city": "Sandpoint", "addr:housenumber": "116", "addr:postcode": "83864", "addr:state": "ID", "addr:street": "North 1st Avenue #A", "name": "Lakeshore Realty North", "office": "estate_agent", "phone": "+1-208-263-3166", "website": "https://lakeshorerealtynorth.com/"}}, {"type": "node", "id": 4970125511, "lat": 48.2695091, "lon": -116.5627728}, {"type": "node", "id": 4970125512, "lat": 48.2694689, "lon": -116.562856}, {"type": "node", "id": 4970125513, "lat": 48.2694118, "lon": -116.5628882}, {"type": "node", "id": 4970125514, "lat": 48.2694073, "lon": -116.5626133}, {"type": "node", "id": 4970125515, "lat": 48.2695064, "lon": -116.5626119}, {"type": "node", "id": 4970125516, "lat": 48.269543, "lon": -116.5627581}, {"type": "node", "id": 4970125521, "lat": 48.2714124, "lon": -116.5603492}, {"type": "node", "id": 4970125522, "lat": 48.2713768, "lon": -116.5603093}, {"type": "node", "id": 4970125523, "lat": 48.2713407, "lon": -116.5603821}, {"type": "node", "id": 4970125524, "lat": 48.271276, "lon": -116.5603096}, {"type": "node", "id": 4970125525, "lat": 48.271312, "lon": -116.5602368}, {"type": "node", "id": 4970125526, "lat": 48.2713042, "lon": -116.560228}, {"type": "node", "id": 4970125527, "lat": 48.2713972, "lon": -116.5600406}, {"type": "node", "id": 4970125528, "lat": 48.2715054, "lon": -116.5601618}, {"type": "node", "id": 4970125529, "lat": 48.2745678, "lon": -116.5541441}, {"type": "node", "id": 4970125530, "lat": 48.2745695, "lon": -116.5535102}, {"type": "node", "id": 4970125531, "lat": 48.2749497, "lon": -116.5535125}, {"type": "node", "id": 4970125532, "lat": 48.2749488, "lon": -116.5538451}, {"type": "node", "id": 4970125533, "lat": 48.2762524, "lon": -116.5538049, "tags": {"shop": "gun"}}, {"type": "node", "id": 4970125550, "lat": 48.2776046, "lon": -116.553756}, {"type": "node", "id": 4970125551, "lat": 48.2776063, "lon": -116.5539867}, {"type": "node", "id": 5125892718, "lat": 48.2738402, "lon": -116.5499982, "tags": {"addr:city": "Sandpoint", "addr:housenumber": "229", "addr:postcode": "83864", "addr:state": "ID", "addr:street": "Church Street", "amenity": "restaurant", "cuisine": "mexican", "delivery": "no", "name": "Joel's Mexican Restaurant", "opening_hours": "Mo-Tu, Th-Fr 07:00-16:00; Sa 07:00-15:00", "outdoor_seating": "yes", "takeaway": "yes", "website": "https://www.joelsmexicanrestaurant.com/"}}, {"type": "node", "id": 5125892719, "lat": 48.2737606, "lon": -116.5491184, "tags": {"addr:city": "Sandpoint", "addr:housenumber": "201", "addr:postcode": "83864", "addr:state": "ID", "addr:street": "Church Street", "name": "Kochava", "office": "company", "website": "https://www.kochava.com/"}}, {"type": "node", "id": 5127415525, "lat": 48.2786193, "lon": -116.5522348, "tags": {"addr:city": "Sandpoint", "addr:housenumber": "610", "addr:postcode": "83864", "addr:state": "ID", "addr:street": "North 5th Avenue", "name": "Allegro Dance Studio", "office": "company", "phone": "+1-208-610-0188", "website": "https://www.allegrodancestudio.org/"}}, {"type": "node", "id": 5127415526, "lat": 48.2795113, "lon": -116.5526452}, {"type": "node", "id": 5127415527, "lat": 48.2795752, "lon": -116.5526341}, {"type": "node", "id": 5127415528, "lat": 48.2795109, "lon": -116.5527285}, {"type": "node", "id": 5127415529, "lat": 48.2795748, "lon": -116.5527292}, {"type": "node", "id": 5164230523, "lat": 48.2788656, "lon": -116.5523643}, {"type": "node", "id": 5387059772, "lat": 48.2755928, "lon": -116.5474933, "tags": {"addr:city": "Sandpoint", "addr:housenumber": "314", "addr:state": "ID", "addr:street": "North 1st Ave", "name": "Outdoor Experience", "shop": "bicycle", "website": "https://www.outdoorexperience.us/"}}, {"type": "node", "id": 5387108334, "lat": 48.2732861, "lon": -116.5501508, "tags": {"addr:city": "Sandpoint", "addr:housenumber": "108", "addr:state": "ID", "addr:street": "North 3rd Avenue", "name": "Greasy Fingers Bike n Repair", "shop": "bicycle", "website": "https://www.greasyfingersbikes.com/"}}, {"type": "node", "id": 5506706514, "lat": 48.2759383, "lon": -116.5474674, "tags": {"description": "Rock store", "name": "Zero Point", "shop": "toys"}}, {"type": "node", "id": 5506706639, "lat": 48.2743446, "lon": -116.5476093}, {"type": "node", "id": 5506706640, "lat": 48.2743471, "lon": -116.547266}, {"type": "node", "id": 5506706641, "lat": 48.2744693, "lon": -116.5472679}, {"type": "node", "id": 5506706642, "lat": 48.2744668, "lon": -116.5476113}, {"type": "node", "id": 5506706762, "lat": 48.2758346, "lon": -116.5498896}, {"type": "node", "id": 5506706763, "lat": 48.2759767, "lon": -116.5498919}, {"type": "node", "id": 5506706764, "lat": 48.2758355, "lon": -116.549758}, {"type": "node", "id": 5506706765, "lat": 48.2759777, "lon": -116.5497603}, {"type": "node", "id": 5506707039, "lat": 48.2741554, "lon": -116.5509302}, {"type": "node", "id": 5506707040, "lat": 48.274153, "lon": -116.5508099}, {"type": "node", "id": 5506707041, "lat": 48.2745044, "lon": -116.5508188}, {"type": "node", "id": 5506707042, "lat": 48.2745046, "lon": -116.5509224}, {"type": "node", "id": 6067927717, "lat": 48.2800648, "lon": -116.5541897, "tags": {"addr:city": "Sandpoint", "addr:country": "US", "addr:housenumber": "523", "addr:postcode": "83864", "addr:state": "ID", "addr:street": "Larch Street", "fax": "+1-208-255-1112", "name": "Sandpoint Pawn LLC", "phone": "+1-208-255-1111", "shop": "pawnbroker", "website": "https://www.sandpointpawnllc.com/"}}, {"type": "node", "id": 6439899677, "lat": 48.2724688, "lon": -116.5482201}, {"type": "node", "id": 6439899678, "lat": 48.2723282, "lon": -116.5482144}, {"type": "node", "id": 6439899679, "lat": 48.2723333, "lon": -116.5479304}, {"type": "node", "id": 6439899680, "lat": 48.2724739, "lon": -116.5479361}, {"type": "node", "id": 6562801088, "lat": 48.2791061, "lon": -116.554182}, {"type": "node", "id": 6562801089, "lat": 48.279108, "lon": -116.5538049}, {"type": "node", "id": 6562801090, "lat": 48.278861, "lon": -116.553802}, {"type": "node", "id": 6562801091, "lat": 48.278859, "lon": -116.554179}, {"type": "node", "id": 6562801354, "lat": 48.2690507, "lon": -116.5671086}, {"type": "node", "id": 6562801355, "lat": 48.2691489, "lon": -116.5670916}, {"type": "node", "id": 6562801356, "lat": 48.2691491, "lon": -116.5671063}, {"type": "node", "id": 6562801357, "lat": 48.2693151, "lon": -116.5671567}, {"type": "node", "id": 6562801358, "lat": 48.2692457, "lon": -116.5670893}, {"type": "node", "id": 6562801359, "lat": 48.2692464, "lon": -116.5671583}, {"type": "node", "id": 6562801360, "lat": 48.2693118, "lon": -116.5668371}, {"type": "node", "id": 6562801361, "lat": 48.269048, "lon": -116.5668432}, {"type": "node", "id": 6856219500, "lat": 48.2790387, "lon": -116.5523649}, {"type": "node", "id": 6856219501, "lat": 48.2790392, "lon": -116.5520928}, {"type": "node", "id": 6856219502, "lat": 48.278866, "lon": -116.5520921}, {"type": "node", "id": 7401515987, "lat": 48.2764965, "lon": -116.5524608}, {"type": "node", "id": 7401515988, "lat": 48.2762308, "lon": -116.5524561}, {"type": "node", "id": 7653597132, "lat": 48.2699609, "lon": -116.563663}, {"type": "node", "id": 7653597133, "lat": 48.2699627, "lon": -116.5633599}, {"type": "node", "id": 7653597134, "lat": 48.2698565, "lon": -116.5633585}, {"type": "node", "id": 7653597135, "lat": 48.2698556, "lon": -116.5635067}, {"type": "node", "id": 7653597136, "lat": 48.2697886, "lon": -116.5635057}, {"type": "node", "id": 7653597137, "lat": 48.2697873, "lon": -116.5637139}, {"type": "node", "id": 7653597138, "lat": 48.269852, "lon": -116.5637148}, {"type": "node", "id": 7653597141, "lat": 48.2698523, "lon": -116.5636615}, {"type": "node", "id": 7660000090, "lat": 48.2723534, "lon": -116.5494402}, {"type": "node", "id": 7660000091, "lat": 48.2723573, "lon": -116.5492704}, {"type": "node", "id": 7660000092, "lat": 48.2723057, "lon": -116.5492677}, {"type": "node", "id": 7660000093, "lat": 48.2723073, "lon": -116.5491961}, {"type": "node", "id": 7660000094, "lat": 48.2722213, "lon": -116.5491916}, {"type": "node", "id": 7660000095, "lat": 48.2722157, "lon": -116.549433}, {"type": "node", "id": 7681581530, "lat": 48.2729426, "lon": -116.5575061}, {"type": "node", "id": 7681581531, "lat": 48.2728088, "lon": -116.557503}, {"type": "node", "id": 7681581532, "lat": 48.2728073, "lon": -116.5572556}, {"type": "node", "id": 7681581533, "lat": 48.2729431, "lon": -116.5572579}, {"type": "node", "id": 7681581572, "lat": 48.2717206, "lon": -116.558004}, {"type": "node", "id": 7681581573, "lat": 48.2716433, "lon": -116.5580065}, {"type": "node", "id": 7681581574, "lat": 48.2716433, "lon": -116.5578175}, {"type": "node", "id": 7681581575, "lat": 48.2717198, "lon": -116.5578187}, {"type": "node", "id": 7681912770, "lat": 48.2720261, "lon": -116.5489776}, {"type": "node", "id": 7681912771, "lat": 48.2719299, "lon": -116.5489779}, {"type": "node", "id": 7681912773, "lat": 48.2719308, "lon": -116.5489262}, {"type": "node", "id": 7681912774, "lat": 48.2718712, "lon": -116.5489245}, {"type": "node", "id": 7681912776, "lat": 48.2718745, "lon": -116.5486725}, {"type": "node", "id": 7681912777, "lat": 48.2719247, "lon": -116.5486739}, {"type": "node", "id": 7681912778, "lat": 48.2719264, "lon": -116.5485397}, {"type": "node", "id": 7681912779, "lat": 48.2720486, "lon": -116.5485433}, {"type": "node", "id": 7681912780, "lat": 48.2720466, "lon": -116.5486945}, {"type": "node", "id": 7681912781, "lat": 48.2720559, "lon": -116.5486948}, {"type": "node", "id": 7681912782, "lat": 48.2720552, "lon": -116.5487475}, {"type": "node", "id": 7681912783, "lat": 48.2720424, "lon": -116.5487471}, {"type": "node", "id": 7681912784, "lat": 48.2720415, "lon": -116.5488218}, {"type": "node", "id": 7681914721, "lat": 48.271614, "lon": -116.5489712}, {"type": "node", "id": 7681914722, "lat": 48.2714871, "lon": -116.5489692}, {"type": "node", "id": 7681914723, "lat": 48.2714898, "lon": -116.5485937}, {"type": "node", "id": 7681914724, "lat": 48.2716167, "lon": -116.5485957}, {"type": "node", "id": 7681931585, "lat": 48.2720447, "lon": -116.5488218}, {"type": "node", "id": 7681931586, "lat": 48.2720427, "lon": -116.5489573}, {"type": "node", "id": 8772788606, "lat": 48.2753339, "lon": -116.5552886, "tags": {"name": "Syringa Cyclery", "shop": "bicycle"}}, {"type": "node", "id": 8772788608, "lat": 48.274404, "lon": -116.5553207, "tags": {"amenity": "cafe", "name": "Evan's Brothers"}}, {"type": "node", "id": 9058298901, "lat": 48.2751713, "lon": -116.5489739, "tags": {"name": "Tomlinson Sotheby's International Realty", "office": "company"}}, {"type": "node", "id": 9128235718, "lat": 48.2761006, "lon": -116.5469959, "tags": {"amenity": "cafe", "name": "Tasty's"}}, {"type": "node", "id": 9128235719, "lat": 48.2761827, "lon": -116.5470549, "tags": {"shop": "gift"}}, {"type": "node", "id": 9181385543, "lat": 48.2801049, "lon": -116.577818, "tags": {"name": "BNSF Sandpoint Office", "office": "yes"}}, {"type": "node", "id": 9181385545, "lat": 48.2764748, "lon": -116.545596, "tags": {"name": "BNSF Sandpoint Office", "office": "yes"}}, {"type": "node", "id": 9583746558, "lat": 48.271455, "lon": -116.5635781, "tags": {"shop": "vacant"}}, {"type": "node", "id": 10565433956, "lat": 48.2774556, "lon": -116.553868, "tags": {"addr:city": "Sandpoint", "addr:housenumber": "509", "addr:postcode": "83864", "addr:state": "ID", "addr:street": "North 5th Avenue", "name": "Kokanee Coffee", "opening_hours": "Mo-Fr 07:00-15:00; Sa 08:00-15:00", "phone": "+1-208-597-7831", "shop": "coffee", "website": "https://kokaneecoffee.com/"}}, {"type": "node", "id": 10565433999, "lat": 48.2774497, "lon": -116.5539907}, {"type": "node", "id": 10910533294, "lat": 48.2764957, "lon": -116.5526201}, {"type": "node", "id": 10910533295, "lat": 48.276229, "lon": -116.5526157}, {"type": "node", "id": 10910533296, "lat": 48.277541, "lon": -116.5539884}, {"type": "node", "id": 10910533297, "lat": 48.2775383, "lon": -116.5537579}, {"type": "node", "id": 10910533298, "lat": 48.2774471, "lon": -116.5537602}, {"type": "node", "id": 10938665969, "lat": 48.2738311, "lon": -116.5480877, "tags": {"amenity": "cafe", "cuisine": "coffee_shop", "name": "Monarch Mountain Coffee"}}, {"type": "node", "id": 11106078757, "lat": 48.2775397, "lon": -116.5538354, "tags": {"amenity": "cafe", "check_date": "2023-01-17", "cuisine": "coffee_shop", "name": "Kokanee"}}, {"type": "node", "id": 11110084883, "lat": 48.268945, "lon": -116.5678114}, {"type": "node", "id": 11110084884, "lat": 48.2685678, "lon": -116.5678109}, {"type": "node", "id": 11110084885, "lat": 48.2685684, "lon": -116.5666856}, {"type": "node", "id": 11110084886, "lat": 48.2689457, "lon": -116.5666861}, {"type": "node", "id": 11769401614, "lat": 48.2657134, "lon": -116.5600641}, {"type": "node", "id": 11769401615, "lat": 48.2656872, "lon": -116.5600643}, {"type": "node", "id": 11769401616, "lat": 48.2656869, "lon": -116.5599778}, {"type": "node", "id": 11769401617, "lat": 48.2657131, "lon": -116.5599776}, {"type": "node", "id": 12185388200, "lat": 48.2844114, "lon": -116.5674574, "tags": {"addr:city": "Sandpoint", "addr:housenumber": "1202", "addr:postcode": "83864", "addr:state": "ID", "addr:street": "North Division Avenue", "contact:facebook": "signatureaesthetics", "contact:instagram": "signature_aesthetics", "contact:linkedin": "signatureaesthetics", "name": "Signature Aesthetics", "opening_hours": "Mo-Fr: 09:00-17:00", "payment:cash": "yes", "payment:credit_cards": "yes", "payment:debit_cards": "yes", "phone": "+1 208 6276869", "shop": "beauty", "website": "https://signatureaesthetics.com/"}}, {"type": "node", "id": 12872442828, "lat": 48.2733452, "lon": -116.5515437, "tags": {"addr:city": "Sandpoint", "addr:country": "US", "addr:housenumber": "318", "addr:postcode": "83864", "addr:state": "ID", "addr:street": "Pine Street", "description": "Powell Law Firm is a well established and trusted law firm located in Sandpoint, Idaho since 2000.", "name": "Powell Law Firm", "office": "lawyer", "opening_hours": "24/7", "operator": "Bryce Powell", "phone": "+1-208-263-3531", "website": "https://sandpointlawoffice.com/"}}, {"type": "way", "id": 75344254, "nodes": [889512673, 1522186356, 1522186390, 1522186623, 1522187118, 889512675, 889512676, 1522187062, 1522186424, 889512677, 889512680, 889512689, 889512691, 889512694, 889512673], "tags": {"addr:city": "Sandpoint", "addr:housenumber": "624", "addr:postcode": "83864", "addr:state": "ID", "addr:street": "Larch Street", "building": "yes", "name": "Super 1 Foods", "opening_hours": "24/7", "shop": "supermarket", "website": "https://www.super1foods.net/"}}, {"type": "way", "id": 131635759, "nodes": [1448534944, 1448534943, 1448534945, 1448534941, 1448534942, 1448534940, 1448534948, 1448534947, 1448534937, 1448534938, 5127415526, 5127415528, 5127415529, 5127415527, 1448534944], "tags": {"addr:city": "Sandpoint", "addr:housenumber": "702", "addr:postcode": "83864", "addr:state": "ID", "addr:street": "North 5th Avenue", "brand": "Safeway", "brand:wikidata": "Q1508234", "building": "yes", "designation": "Safeway 0350", "name": "Safeway", "opening_hours": "Mo-Su 05:00-01:00", "phone": "+1 208-263-9638", "shop": "supermarket", "website": "https://local.safeway.com/safeway/id/sandpoint/702-n-5th-ave.html"}}, {"type": "way", "id": 170045209, "nodes": [1811908449, 1811908440, 1811908478, 1811908432, 1811908427, 1811908429, 1811908437, 1811908453, 1811908470, 1811908449], "tags": {"brand": "Shell", "brand:wikidata": "Q154950", "building": "retail", "name": "Shell", "shop": "convenience", "source": "Bing", "source:name": "local_knowledge"}}, {"type": "way", "id": 170045218, "nodes": [1811908442, 1811908420, 1811908457, 1811908426, 1811908418, 1811908442], "tags": {"brand": "Chevron", "brand:wikidata": "Q319642", "building": "retail", "name": "Chevron", "shop": "convenience", "source": "Bing"}}, {"type": "way", "id": 507531119, "nodes": [4970125516, 4970125515, 4970125514, 4970125513, 4970125512, 4970125511, 4970125516], "tags": {"building": "retail", "name": "Dairy Depot", "shop": "convenience"}}, {"type": "way", "id": 507531121, "nodes": [4970125528, 4970125527, 4970125526, 4970125525, 4970125524, 4970125523, 4970125522, 4970125521, 4970125528], "tags": {"building": "retail", "name": "Express Lane", "shop": "convenience"}}, {"type": "way", "id": 507531125, "nodes": [4970125532, 4970125531, 4970125530, 4970125529, 4970125532], "tags": {"building": "retail", "name": "Army Surplus", "shop": "military_surplus"}}, {"type": "way", "id": 573314486, "nodes": [5506706639, 5506706640, 5506706641, 5506706642, 5506706639], "tags": {"addr:city": "Sandpoint", "addr:housenumber": "214", "addr:postcode": "83864", "addr:state": "ID", "addr:street": "North 1st Avenue", "building:part": "yes", "contact:facebook": "https://www.facebook.com/sandpointartworks", "email": "sandpointartworks@gmail.com", "height": "7.5", "name": "Art Works Gallery", "opening_hours": "Apr-Dec Mo-Sa 10:00-17:00, Su 11:00-17:00; Jan-Mar Mo-Sa 10:00-16:00, Su 11:00-16:00; Nov-Apr Mo-Tu,Th-Sa 10:00-17:00, Su 11:00-17:00", "phone": "+1-208-263-2642", "shop": "art", "source": "https://members.sandpointchamber.org/list/member/art-works-gallery-1659"}}, {"type": "way", "id": 573314511, "nodes": [5506706764, 5506706765, 5506706763, 5506706762, 5506706764], "tags": {"addr:city": "Sandpoint", "addr:housenumber": "217", "addr:postcode": "83864", "addr:state": "ID", "addr:street": "Cedar Street", "amenity": "post_office", "brand": "The UPS Store", "brand:short": "UPS", "brand:wikidata": "Q7771029", "building": "yes", "email": "store1829@theupsstore.com", "height": "7.0", "name": "The UPS Store", "opening_hours": "Mo-Fr 08:00-18:00; Sa 09:00-17:00; Su 12:00-17:00", "phone": "+1-208-263-0261", "shop": "copyshop", "short_name": "UPS", "website": "https://locations.theupsstore.com/id/sandpoint/217-cedar-st"}}, {"type": "way", "id": 573314570, "nodes": [5506707039, 5506707040, 5506707041, 5506707042, 5506707039], "tags": {"addr:city": "Sandpoint", "addr:housenumber": "310", "addr:postcode": "83864", "addr:state": "ID", "addr:street": "Church Street", "building": "yes", "email": "clobsinger@bonnercountydailybee.com", "height": "6.0", "name": "Bonner County Daily Bee", "office": "newspaper", "opening_hours": "Mo-Fr 08:00-17:00", "phone": "+1-208-263-9534", "source": "https://members.sandpointchamber.org/list/member/bonner-county-daily-bee-72", "website": "https://bonnercountydailybee.com", "wikidata": "Q4942184", "wikipedia": "en:Bonner County Daily Bee"}}, {"type": "way", "id": 686989825, "nodes": [6439899677, 6439899678, 6439899679, 6439899680, 6439899677], "tags": {"addr:housenumber": "120", "addr:state": "ID", "addr:street": "S 1st Ave", "amenity": "restaurant", "building": "yes", "cuisine": "pie", "name": "Panhandler Pies Restaurant & Bakery"}}, {"type": "way", "id": 698878322, "nodes": [6562801091, 6562801088, 6562801089, 6562801090, 6562801091], "tags": {"brand": "Big 5 Sporting Goods", "brand:wikidata": "Q4904902", "building": "yes", "name": "Big 5 Sporting Goods", "shop": "sports", "source": "bing"}}, {"type": "way", "id": 698878378, "nodes": [6562801355, 6562801358, 6562801359, 6562801357, 6562801360, 6562801361, 6562801354, 6562801356, 6562801355], "tags": {"addr:city": "Sandpoint", "addr:housenumber": "1305", "addr:postcode": "83864", "addr:state": "ID", "addr:street": "Michigan Street", "building": "yes", "contact:facebook": "https://www.facebook.com/Northwestautobody", "email": "David@northwestautobody.com", "name": "Northwest Autobody and Towing", "opening_hours": "Mo-Fr 08:00-17:00", "phone": "+1-208-263-6931", "service:vehicle:body_repair": "yes", "service:vehicle:painting": "yes", "shop": "car_repair", "source": "bing"}}, {"type": "way", "id": 732212810, "nodes": [5164230523, 6856219500, 6856219501, 6856219502, 5164230523], "tags": {"addr:city": "Sandpoint", "addr:postcode": "83864", "addr:state": "ID", "shop": "alcohol"}}, {"type": "way", "id": 819574534, "nodes": [7653597132, 7653597133, 7653597134, 7653597135, 7653597136, 7653597137, 7653597138, 7653597141, 7653597132], "tags": {"addr:city": "Sandpoint", "addr:housenumber": "367", "addr:postcode": "83864", "addr:state": "ID", "addr:street": "South Olive Avenue", "building": "yes", "contact:facebook": "https://www.facebook.com/carterfeed/", "email": "cartercountry@frontier.com", "phone": "+1-208-263-8236", "shop": "agrarian"}}, {"type": "way", "id": 820338015, "nodes": [7660000090, 7660000091, 7660000092, 7660000093, 7660000094, 7660000095, 7660000090], "tags": {"addr:housenumber": "124", "amenity": "restaurant", "building": "yes", "cuisine": "italian", "name": "Arlo's Ristorante", "phone": "+12082554186", "website": "https://www.arlos-restaurant.com/"}}, {"type": "way", "id": 822734291, "nodes": [7681581530, 7681581531, 7681581532, 7681581533, 7681581530], "tags": {"amenity": "bar", "building": "yes", "name": "The Longshot"}}, {"type": "way", "id": 822734296, "nodes": [7681581572, 7681581573, 7681581574, 7681581575, 7681581572], "tags": {"addr:city": "Sandpoint", "addr:housenumber": "703", "addr:state": "ID", "addr:street": "Lake Street", "building": "yes", "name": "Winter Ridge Natural Foods", "shop": "supermarket", "website": "https://www.winterridgefoods.com/"}}, {"type": "way", "id": 822748545, "nodes": [7681914721, 7681914722, 7681914723, 7681914724, 7681914721], "tags": {"amenity": "restaurant", "building": "yes", "cuisine": "pizza", "name": "Second Avenue Pizza"}}, {"type": "way", "id": 822748941, "nodes": [7681912770, 7681912771, 7681912773, 7681912774, 7681912776, 7681912777, 7681912778, 7681912779, 7681912780, 7681912781, 7681912782, 7681912783, 7681912784, 7681931585, 7681931586, 7681912770], "tags": {"addr:housenumber": "115", "addr:state": "ID", "addr:street": "Lake Street", "amenity": "restaurant", "building": "yes", "cuisine": "steak_house", "name": "The Hydra Steakhouse", "opening_hours": "Mo-Su 11:00-21:00", "phone": "+12082637123", "website": "https://hydrasteakhouse.net/"}}, {"type": "way", "id": 1174208648, "nodes": [7401515987, 10910533294, 10910533295, 7401515988, 7401515987], "tags": {"addr:city": "Sandpoint", "addr:housenumber": "404", "addr:postcode": "83864", "addr:state": "ID", "addr:street": "Cedar Street", "building": "retail", "name": "Sand Creek Custom Wear", "opening_hours": "Mo-Fr 10:00-17:00", "phone": "+1-208-263-6790", "shop": "clothes", "website": "https://sandcreekcustomwear.com/"}}, {"type": "way", "id": 1174208649, "nodes": [4970125551, 10910533296, 10910533297, 4970125550, 4970125551], "tags": {"addr:city": "Sandpoint", "addr:housenumber": "509", "addr:postcode": "83864", "addr:state": "ID", "addr:street": "North 5th Avenue", "addr:unit": "B", "building": "yes", "name": "Vyve Broadband", "office": "telecommunication", "opening_hours": "Mo-Fr 08:00-17:00", "phone": "+1-855-367-8983", "website": "https://vyvebroadband.com/"}}, {"type": "way", "id": 1174208650, "nodes": [10910533296, 10565433999, 10910533298, 10910533297, 10910533296], "tags": {"addr:city": "Sandpoint", "addr:housenumber": "509", "addr:postcode": "83864", "addr:state": "ID", "addr:street": "North 5th Avenue", "addr:unit": "A", "amenity": "cafe", "building": "yes", "cuisine": "coffee_shop", "delivery": "yes", "name": "Kokanee Coffee Company", "opening_hours": "Mo-Fr 07:00-15:00; Sa 08:00-15:00", "phone": "+1-208-597-7831", "website": "https://kokaneecoffee.com/"}}, {"type": "way", "id": 1197456991, "nodes": [11110084883, 11110084884, 11110084885, 11110084886, 11110084883], "tags": {"name": "Division Mini Storage", "shop": "storage_rental", "website": "https://sandpointidstorage.com/units/division-mini-storage/"}}, {"type": "way", "id": 1267179182, "nodes": [11769401614, 11769401615, 11769401616, 11769401617, 11769401614], "tags": {"building": "yes", "shop": "ticket"}}]}